********************************************************************************
           RED INTERUNIVERSITARIA DE INSTRUMENTACION SISIMICA (RIIS)
 AREA DE ESTRUCTURAS, UNIVERSIDAD AUTONOMA METROPOLITANA - UNIDAD AZCAPOTZALCO
         AV. SAN PABLO 180; COL. REYNOSA TAMAULIPAS; MEXICO D.F. 02200.
       TELS: 53189455; FAX: 53189085; e-mail: agb@azc.uam.mx
********************************************************************************
ARCHIVO ESTANDAR DE ACELERACION:
VERSION DEL FORMATO                    : 2.0
NOMBRE DEL ARCHIVO                     : RIDA0410.281
FECHA Y HORA DE CREACION               : NOVIEMBRE, 2004
REF. CATALOGO ACELEROGRAMAS, SMIS 1996 : 


================================================================================
DATOS DE LA ESTACION:
NOMBRE DE LA ESTACION                  : UAM AZCAPOTZALCO
CLAVE DE LA ESTACION                   : RIDA
LOCALIZACION DE LA ESTACION            : AVENIDA SAN PABLO Y EJE 5, COLONIA
                                       : REYNOSA, PLANTEL AZCAPOTZALCO, JARDIN
                                       : ENTRE EDIFICIO "H" Y "E", MEXICO, D.F.
                                       : 
                                       : 
COORDENADAS DE LA ESTACION             : 19.520 LAT. N 
                                       : 99.190 LONG. W 
ALTITUD (msnm)                         : 2240
TIPO DE SUELO                          : LIMO ARENOSO
                                       : 
                                       : 
INSTITUCION RESPONSABLE                : RED INTERUNIVERSITARIA DE
                                       : INSTRUMENTACION SISMICA (RIIS)

================================================================================
DATOS DEL ACELEROGRAFO:
MODELO DEL ACELEROGRAFO                : SSA-2
NUMERO DE SERIE DEL ACELEROGRAFO       : 1561
NUMERO DE CANALES                      : 3
ORIENTACION C1-C6 (rumbo;orientacion)  : /N00E/+V/N90E
ORIENTACION C7-C12 (rumbo;orientacion) : 
VEL. DE MUESTREO, C1-C6 (muestras/s)   : /200/200/200
VEL. DE MUESTREO, C7-C12 (muestras/s)  : 
ESC. COMPLETA DE SENSORES, C1-C6, (g)  : /1.0/1.0/1.0
ESC. COMPLETA DE SENSORES, C7-C12, (g) : 
FREC. NAT. DE SENSORES, C1-C6, (Hz)    : /52.4/52.5/53.7
FREC. NAT. DE SENSORES, C7-C12, (Hz)   : 
AMORTIGUAMIENTO DE SENSORES, C1-C6     : /0.64/0.64/0.64
AMORTIGUAMIENTO DE SENSORES, C7-C12    : 
INTERVALO DE MUESTREO, C1-C6, (s)      : /0.005/0.005/0.005
INTERVALO DE MUESTREO, C7-C12, (s)     : 
UMBRAL DE DISPARO, C1-C6, (Gal)        : /1/1/1
UMBRAL DE DISPARO, C7-C12, (Gal)       : 
MEMORIA DE PREEVENTO (s)               : 15
TIEMPO DE POSEVENTO (s)                : 60


================================================================================
DATOS DEL SISMO:
FECHA DEL SISMO (GMT)                  : 28/OCT/2004
HORA EPICENTRO (GMT)                   : 20:30:01
MAGNITUD(ES)                           : /Mb=4.7
COORDENADAS DEL EPICENTRO              : 18.45 LAT. N.
                                       : 99.77 LONG. W.
PROFUNDIDAD FOCAL (km)                 : 60
FUENTES DE LOS DATOS EPICENTRALES      : SSN
                                       : INSTITUTO DE GEOFISICA, UNAM

================================================================================
DATOS DE ESTE REGISTRO:
HORA DE LA PRIMERA MUESTRA (GMT)       : 20:30:01
EXACTITUD DEL TIEMPO (s)               : 
DURACION DEL REGISTRO (s), C1-C6       : 38.40/38.40/38.40
DURACION DEL REGISTRO (s), C7-C12      : 
NUM. TOTAL DE MUESTRAS, C1-C6          : 7680/7680/7680
NUM. TOTAL DE MUESTRAS, C7-C12         : 
ACEL. MAX.(Gal), C1-C6                 : 2.0555/-.9685/-1.9903
ACEL. MAX., C1-C6, EN LA MUESTRA       : 819/650/1063
ACEL. MAX.(Gal), C7-C12                : 
ACEL. MAX., C7-C12, EN LA MUESTRA      : 
UNIDADES DE LOS DATOS                  : Gal
FACTOR DE DECIMACION                   : 1
FORMATO DATOS (FORTRAN,10 campos/dato) : 3F10.3


===============================================================================
CALIDAD DEL ACELEROGRAMA:
REGISTRO DIGITAL COMPLETO, CARECE DE TIEMPO ABSOLUTO.


===============================================================================
COMENTARIOS:

CADA UNO DE LOS CANALES SE ENCUENTRA AJUSTADO POR LINEA BASE MEDIANTE LA
SUSTRACCION DEL PROMEDIO DE LAS ACELERACIONES EN EL TIEMPO.

MODELO DEL ACELEROGRAFO : SSA-2 (KINEMETRICS)









===============================================================================
DATOS DE ACELERACION:
---------+---------+---------+---------+---------+---------+---------+---------+
   CANAL-1   CANAL-2   CANAL-3   CANAL-4   CANAL-5   CANAL-6   CANAL-7   CANAL-8
      N00E        +V      N90E
---------+---------+---------+---------+---------+---------+---------+---------+
[...]
     .5907     .4962     .9392
     .5907     .0080     .4509
     .5907     .0080     .4509
     .5907     .0080     .4509
    1.0789     .0080     .4509
     .5907    -.4803     .4509
     .5907    -.4803     .4509
     .5907    -.4803     .4509
     .1025    -.4803     .4509
    -.3857    -.4803     .4509
    -.3857    -.4803     .9392
    -.3857    -.9685     .9392
    -.3857    -.4803     .9392
    -.8741    -.4803     .9392
    -.8741    -.4803     .4509
    -.8741    -.4803     .4509
    -.8741    -.4803     .9392
    -.3857    -.4803     .4509
    -.3857    -.4803     .4509
    -.3857     .0080     .4509
    -.3857     .0080     .4509
     .1025     .0080     .4509
     .1025     .4962     .4509
     .5907     .4962    -.0373
     .5907     .4962    -.0373
    1.0789     .0080    -.0373
    1.0789     .4962    -.0373
    1.0789     .4962    -.0373
    1.0789     .0080    -.0373
     .5907     .0080    -.0373
     .5907     .0080    -.0373
     .5907     .0080    -.0373
     .5907     .0080    -.0373
     .5907    -.4803    -.0373
     .5907    -.4803    -.0373
     .1025    -.4803    -.0373
     .1025    -.4803    -.0373
     .1025    -.4803    -.0373
     .1025    -.4803    -.5256
    -.3857     .0080    -.5256
    -.3857     .0080    -.5256
    -.3857     .0080    -.5256
     .1025     .4962    -.5256
     .1025     .4962    -.5256
     .1025     .4962    -.5256
     .1025     .9845    -.5256
     .1025     .9845    -.5256
     .1025     .9845    -.5256
     .1025     .9845    -.5256
     .1025     .9845    -.5256
     .1025     .9845    -.5256
     .1025     .9845    -.5256
     .1025     .4962   -1.0138
     .1025     .4962    -.5256
     .1025     .4962    -.5256
     .1025     .0080    -.5256
     .1025     .0080    -.5256
    -.3857    -.4803    -.5256
    -.3857    -.4803    -.5256
    -.3857    -.4803    -.5256
    -.8741    -.4803    -.5256
    -.8741    -.4803    -.5256
    -.8741    -.9685    -.5256
    -.8741    -.9685    -.5256
    -.8741    -.9685    -.5256
    -.8741    -.9685    -.5256
    -.8741    -.9685    -.5256
   -1.3623    -.4803    -.5256
   -1.3623    -.4803    -.5256
   -1.3623    -.4803    -.5256
    -.8741    -.4803    -.5256
    -.8741    -.4803    -.5256
    -.8741     .0080    -.5256
    -.8741     .0080    -.5256
    -.3857     .0080    -.5256
    -.3857     .0080    -.5256
    -.3857     .0080    -.5256
    -.3857     .0080    -.5256
    -.3857     .0080    -.5256
    -.3857     .0080    -.0373
    -.3857     .0080    -.0373
    -.3857     .0080    -.0373
    -.3857     .0080    -.0373
    -.3857     .0080    -.0373
    -.3857     .0080    -.0373
    -.3857     .0080    -.5256
    -.3857     .0080    -.5256
    -.3857     .0080    -.5256
    -.3857     .0080    -.5256
    -.3857     .0080    -.5256
    -.8741     .0080   -1.0138
    -.3857     .0080   -1.0138
    -.3857     .4962   -1.0138
    -.3857     .4962   -1.0138
    -.3857     .4962    -.5256
    -.3857     .4962    -.5256
    -.3857     .4962    -.5256
    -.3857     .4962    -.5256
    -.3857     .4962    -.0373
    -.3857     .4962    -.0373
    -.3857     .4962     .4509
    -.3857     .4962     .4509
     .1025     .4962     .4509
     .1025     .4962     .9392
     .1025     .4962     .4509
     .5907     .4962     .9392
     .5907     .4962     .9392
     .5907     .4962     .9392
     .5907     .4962     .9392
     .5907     .4962     .9392
     .5907     .4962     .9392
     .5907     .4962     .4509
    1.0789     .4962     .4509
    1.0789     .4962     .4509
    1.0789     .0080     .4509
    1.0789     .0080     .4509
    1.0789     .0080     .4509
    1.0789     .0080     .4509
    1.0789     .0080    -.0373
    1.0789     .0080     .4509
    1.0789     .0080    -.0373
    1.0789     .0080     .4509
    1.5672    -.4803     .4509
    1.5672     .0080     .4509
    1.5672     .0080     .4509
    1.5672     .0080     .9392
    1.5672     .4962     .9392
    1.5672     .4962     .9392
    1.5672     .4962     .9392
    1.5672     .4962    1.4277
    1.5672     .4962    1.4277
    1.5672     .4962    1.4277
    1.5672     .4962    1.4277
    1.5672     .9845    1.4277
    1.5672     .4962    1.4277
    1.5672     .4962     .9392
    1.5672     .4962     .9392
    1.5672     .4962     .9392
    1.5672     .4962     .9392
    1.5672     .4962     .9392
    1.5672     .4962     .9392
    1.5672     .0080     .9392
    2.0555     .0080     .9392
    1.5672     .0080     .4509
    1.5672     .0080     .9392
    1.5672     .0080     .9392
    1.5672     .0080     .9392
    1.5672    -.4803     .9392
    1.0789    -.4803     .9392
    1.0789    -.4803     .9392
     .5907     .0080     .9392
     .5907     .0080    1.4277
     .5907     .0080    1.4277
     .1025     .0080    1.4277
     .1025     .0080    1.4277
     .1025     .0080    1.4277
     .1025     .4962    1.4277
     .1025     .4962    1.4277
    -.3857     .4962     .9392
    -.3857     .4962     .9392
    -.3857     .4962     .9392
    -.3857     .4962     .4509
    -.3857     .4962     .4509
    -.3857     .0080    -.0373
    -.3857     .0080    -.0373
    -.3857    -.4803    -.5256
    -.3857    -.4803    -.5256
    -.3857    -.4803    -.5256
    -.3857    -.9685   -1.0138
    -.3857    -.4803   -1.0138
    -.3857    -.9685   -1.0138
    -.8741    -.9685   -1.0138
    -.8741    -.9685   -1.0138
    -.8741    -.9685   -1.0138
    -.8741    -.9685   -1.0138
    -.8741    -.9685   -1.0138
    -.8741    -.9685   -1.0138
    -.8741    -.9685    -.5256
    -.8741    -.4803    -.5256
   -1.3623    -.4803    -.5256
   -1.3623    -.4803    -.5256
   -1.3623     .0080    -.5256
   -1.8505     .0080    -.5256
   -1.8505     .4962   -1.0138
   -1.8505     .4962   -1.0138
   -1.8505     .4962   -1.0138
   -1.8505     .4962   -1.0138
   -1.8505     .4962   -1.0138
   -1.8505     .4962   -1.5021
   -1.8505     .4962   -1.5021
   -1.3623     .4962   -1.5021
   -1.3623     .4962   -1.5021
   -1.3623     .4962   -1.5021
    -.8741     .4962   -1.5021
    -.8741     .4962   -1.5021
    -.8741     .4962   -1.0138
    -.8741     .0080   -1.0138
    -.8741     .0080    -.5256
    -.8741     .0080    -.5256
   -1.3623     .0080    -.5256
    -.8741    -.4803    -.0373
    -.8741     .0080    -.0373
    -.8741     .0080     .4509
    -.8741     .0080     .4509
   -1.3623     .0080     .4509
    -.8741    -.4803     .4509
    -.8741     .0080     .4509
    -.8741     .0080     .9392
    -.8741     .0080     .4509
    -.8741     .0080     .4509
    -.8741     .0080     .4509
    -.8741     .0080     .4509
    -.8741     .4962     .4509
    -.8741     .0080    -.0373
    -.3857     .0080    -.0373
    -.3857     .0080    -.0373
    -.3857     .0080    -.0373
     .1025     .0080    -.0373
     .1025     .0080    -.5256
     .1025     .0080    -.5256
     .1025     .0080    -.5256
     .5907     .0080    -.5256
     .5907     .0080    -.0373
     .5907    -.4803    -.5256
    1.0789    -.4803    -.0373
    1.0789    -.4803    -.0373
    1.0789    -.4803    -.0373
     .5907    -.4803    -.0373
     .5907    -.4803     .4509
     .5907    -.9685     .4509
     .5907    -.4803     .4509
     .5907    -.4803     .4509
     .5907    -.4803     .4509
     .5907    -.4803     .4509
     .5907    -.4803    -.0373
     .5907    -.4803    -.0373
     .5907     .0080    -.0373
    1.0789     .0080    -.5256
    1.0789     .0080    -.5256
    1.0789     .0080    -.5256
    1.5672     .0080   -1.0138
    1.5672     .4962    -.5256
    1.5672     .4962   -1.0138
    1.5672     .4962   -1.0138
    1.5672     .4962    -.5256
    1.5672     .4962    -.5256
    1.5672     .4962    -.5256
    1.5672     .4962    -.5256
    1.5672     .0080    -.0373
    1.5672     .0080     .4509
    1.5672     .0080     .4509
    1.0789     .0080     .4509
    1.0789     .0080     .9392
     .5907     .0080     .9392
     .5907     .0080     .9392
     .1025     .0080     .9392
     .1025     .0080     .9392
     .1025     .0080     .9392
     .1025     .0080     .9392
     .1025     .0080     .9392
    -.3857     .0080     .9392
    -.3857    -.4803     .9392
    -.3857     .0080     .9392
    -.3857     .0080     .4509
    -.3857     .0080     .4509
    -.3857     .0080     .9392
    -.3857     .0080     .4509
    -.3857     .4962     .4509
    -.3857     .4962     .4509
    -.3857     .4962     .4509
    -.3857     .0080     .4509
    -.3857     .4962     .4509
    -.3857     .0080     .4509
    -.3857     .0080     .4509
    -.3857     .0080     .4509
    -.3857     .0080    -.0373
    -.3857     .0080    -.0373
    -.3857    -.4803    -.0373
    -.3857    -.4803    -.0373
    -.3857    -.4803    -.0373
    -.3857    -.4803    -.5256
    -.3857    -.4803    -.5256
    -.3857     .0080    -.5256
    -.3857     .0080    -.5256
    -.3857     .0080    -.5256
    -.3857     .0080    -.5256
     .1025     .0080    -.5256
     .1025     .0080    -.5256
     .1025     .0080    -.5256
     .1025     .0080    -.5256
     .1025     .4962    -.5256
     .1025     .4962    -.5256
     .1025     .0080    -.0373
     .1025     .0080    -.5256
     .1025     .0080    -.5256
    -.3857     .0080    -.5256
    -.3857     .0080    -.5256
    -.3857     .0080    -.5256
    -.3857     .0080    -.5256
    -.3857     .0080    -.5256
    -.3857    -.4803    -.5256
    -.3857    -.4803    -.5256
    -.3857    -.4803    -.5256
    -.3857    -.4803    -.5256
    -.3857    -.4803    -.5256
    -.3857    -.4803    -.5256
     .1025    -.4803    -.5256
     .1025    -.4803    -.5256
     .1025     .0080    -.5256
     .1025     .0080    -.5256
     .1025     .0080    -.0373
     .1025     .0080    -.0373
     .1025     .0080    -.0373
     .1025     .0080     .4509
     .1025     .0080     .4509
     .1025     .0080     .4509
    -.3857     .4962     .4509
     .1025     .4962     .4509
     .1025     .4962     .4509
     .1025     .4962     .4509
     .1025     .4962     .4509
     .1025     .4962     .4509
     .1025     .9845    -.0373
     .1025     .9845    -.0373
     .1025     .9845    -.0373
    -.3857     .9845    -.5256
     .1025     .9845    -.5256
     .1025     .9845    -.5256
     .1025     .9845    -.5256
     .1025     .9845    -.5256
     .1025     .4962    -.5256
     .1025     .4962    -.5256
     .1025     .4962    -.5256
     .1025     .4962    -.0373
     .5907     .4962    -.0373
     .5907     .4962    -.0373
     .5907     .0080     .4509
     .5907     .0080     .9392
    1.0789     .0080     .9392
    1.0789     .0080     .9392
    1.0789     .0080    1.4277
    1.0789     .0080    1.4277
    1.0789    -.4803    1.4277
    1.0789    -.4803    1.4277
    1.0789    -.4803    1.9161
    1.0789    -.4803    1.4277
    1.0789    -.4803    1.9161
    1.0789    -.4803    1.9161
    1.0789    -.4803    1.4277
    1.0789     .0080    1.4277
     .5907     .0080    1.4277
     .5907     .0080    1.4277
     .5907     .4962    1.4277
     .5907     .4962    1.4277
     .5907     .4962    1.4277
     .5907     .4962     .9392
     .1025     .4962     .9392
     .1025     .4962     .9392
     .1025     .4962     .9392
     .1025     .4962     .9392
     .1025     .4962     .9392
    -.3857     .4962     .9392
    -.3857     .4962    1.4277
    -.3857     .0080    1.4277
    -.3857     .0080    1.4277
    -.3857     .0080    1.4277
    -.3857    -.4803    1.4277
    -.3857    -.4803    1.4277
    -.3857    -.4803    1.4277
    -.3857    -.4803    1.4277
    -.3857    -.4803    1.4277
    -.3857    -.4803    1.4277
     .1025    -.4803     .9392
     .1025    -.4803     .9392
     .1025    -.4803     .4509
     .1025    -.4803     .4509
     .1025    -.4803    -.0373
     .1025    -.4803    -.0373
     .1025    -.4803    -.5256
     .1025    -.4803    -.5256
     .1025    -.4803   -1.0138
     .1025    -.4803   -1.0138
    -.3857     .0080   -1.0138
     .1025     .0080   -1.5021
    -.3857     .0080   -1.5021
    -.3857     .4962   -1.5021
    -.3857     .4962   -1.9903
    -.3857     .4962   -1.9903
    -.3857     .4962   -1.9903
    -.8741     .4962   -1.9903
    -.8741     .0080   -1.9903
    -.8741     .0080   -1.9903
    -.8741     .0080   -1.9903
    -.8741     .0080   -1.9903
    -.8741    -.4803   -1.9903
    -.8741    -.4803   -1.9903
    -.8741    -.4803   -1.9903
    -.8741    -.4803   -1.9903
    -.8741    -.4803   -1.9903
    -.8741    -.4803   -1.9903
    -.8741    -.9685   -1.5021
    -.8741    -.9685   -1.5021
    -.8741    -.4803   -1.5021
    -.3857    -.4803   -1.5021
    -.3857    -.4803   -1.5021
    -.3857    -.4803   -1.5021
    -.3857    -.4803   -1.0138
    -.3857    -.4803   -1.0138
    -.3857    -.4803   -1.0138
    -.3857     .0080   -1.0138
    -.3857     .0080    -.5256
    -.3857     .0080    -.5256
     .1025     .4962    -.5256
     .1025     .4962    -.0373
     .1025     .4962    -.0373
    -.3857     .4962    -.0373
    -.3857     .4962    -.0373
    -.3857     .9845    -.0373
    -.3857     .9845    -.5256
    -.3857     .9845    -.5256
    -.8741     .9845    -.5256
    -.8741     .9845    -.5256
    -.8741     .9845    -.5256
    -.8741     .9845    -.5256
    -.8741     .4962    -.5256
   -1.3623     .4962    -.5256
   -1.3623     .4962   -1.0138
   -1.3623     .4962    -.5256
   -1.3623     .4962    -.5256
    -.8741     .0080    -.0373
    -.8741     .0080    -.0373
    -.8741     .0080     .4509
    -.3857     .0080     .9392
    -.3857     .0080     .9392
     .1025     .0080    1.4277
     .1025     .0080    1.4277
     .5907     .0080    1.4277
     .5907     .0080    1.4277
     .5907     .0080    1.4277
    1.0789     .0080    1.4277
    1.0789     .0080    1.4277
    1.0789     .0080     .9392
    1.0789     .0080     .9392
     .5907    -.4803     .9392
     .5907    -.4803     .9392
     .5907    -.4803     .9392
     .1025    -.4803     .9392
     .1025     .0080     .4509
     .1025    -.4803     .4509
     .1025     .0080     .4509
    -.3857    -.4803     .4509
    -.3857    -.4803     .4509
    -.3857    -.4803     .4509
    -.3857     .0080     .4509
    -.3857     .0080     .4509
    -.3857     .0080     .9392
     .1025     .4962     .9392
     .1025     .4962     .9392
     .5907     .4962    1.4277
     .5907     .4962    1.4277
     .5907     .4962    1.9161
    1.0789     .4962    1.9161
    1.0789     .0080    1.9161
    1.0789     .0080    1.9161
    1.5672     .0080    1.9161
    1.5672    -.4803    1.4277
    1.5672    -.4803    1.4277
    2.0555    -.4803    1.4277
    1.5672    -.4803     .9392
    1.5672    -.4803     .9392
    1.5672    -.4803     .4509
    1.5672    -.4803    -.0373
    1.5672    -.4803    -.0373
    1.0789    -.4803    -.5256
    1.0789    -.4803    -.5256
    1.0789    -.4803   -1.0138
    1.0789    -.4803   -1.0138
     .5907    -.4803   -1.0138
     .5907    -.4803   -1.5021
     .5907     .0080   -1.0138
     .5907     .0080   -1.5021
     .5907     .0080   -1.5021
     .5907     .4962   -1.5021
     .1025     .4962   -1.0138
     .1025     .4962   -1.0138
     .1025     .4962   -1.0138
     .1025     .4962    -.5256
     .1025     .4962    -.5256
     .1025     .4962    -.5256
     .1025     .9845    -.0373
     .1025     .9845    -.0373
     .1025     .9845    -.0373
