********************************************************************************
           RED INTERUNIVERSITARIA DE INSTRUMENTACION SISIMICA (RIIS)
 AREA DE ESTRUCTURAS, UNIVERSIDAD AUTONOMA METROPOLITANA - UNIDAD AZCAPOTZALCO
         AV. SAN PABLO 180; COL. REYNOSA TAMAULIPAS; MEXICO D.F. 02200.
       TELS: 53189455; FAX: 53189085; e-mail: agb@azc.uam.mx
********************************************************************************
ARCHIVO ESTANDAR DE ACELERACION:
VERSION DEL FORMATO                    : 2.0
NOMBRE DEL ARCHIVO                     : RIDA0411.151
FECHA Y HORA DE CREACION               : NOVIEMBRE, 2004
REF. CATALOGO ACELEROGRAMAS, SMIS 1996 : 


================================================================================
DATOS DE LA ESTACION:
NOMBRE DE LA ESTACION                  : UAM AZCAPOTZALCO
CLAVE DE LA ESTACION                   : RIDA
LOCALIZACION DE LA ESTACION            : AVENIDA SAN PABLO Y EJE 5, COLONIA
                                       : REYNOSA, PLANTEL AZCAPOTZALCO, JARDIN
                                       : ENTRE EDIFICIO "H" Y "E", MEXICO, D.F.
                                       : 
                                       : 
COORDENADAS DE LA ESTACION             : 19.520 LAT. N 
                                       : 99.190 LONG. W 
ALTITUD (msnm)                         : 2240
TIPO DE SUELO                          : LIMO ARENOSO
                                       : 
                                       : 
INSTITUCION RESPONSABLE                : RED INTERUNIVERSITARIA DE
                                       : INSTRUMENTACION SISMICA (RIIS)

================================================================================
DATOS DEL ACELEROGRAFO:
MODELO DEL ACELEROGRAFO                : SSA-2
NUMERO DE SERIE DEL ACELEROGRAFO       : 1561
NUMERO DE CANALES                      : 3
ORIENTACION C1-C6 (rumbo;orientacion)  : /N00E/+V/N90E
ORIENTACION C7-C12 (rumbo;orientacion) : 
VEL. DE MUESTREO, C1-C6 (muestras/s)   : /200/200/200
VEL. DE MUESTREO, C7-C12 (muestras/s)  : 
ESC. COMPLETA DE SENSORES, C1-C6, (g)  : /1.0/1.0/1.0
ESC. COMPLETA DE SENSORES, C7-C12, (g) : 
FREC. NAT. DE SENSORES, C1-C6, (Hz)    : /52.4/52.5/53.7
FREC. NAT. DE SENSORES, C7-C12, (Hz)   : 
AMORTIGUAMIENTO DE SENSORES, C1-C6     : /0.64/0.64/0.64
AMORTIGUAMIENTO DE SENSORES, C7-C12    : 
INTERVALO DE MUESTREO, C1-C6, (s)      : /0.005/0.005/0.005
INTERVALO DE MUESTREO, C7-C12, (s)     : 
UMBRAL DE DISPARO, C1-C6, (Gal)        : /1/1/1
UMBRAL DE DISPARO, C7-C12, (Gal)       : 
MEMORIA DE PREEVENTO (s)               : 15
TIEMPO DE POSEVENTO (s)                : 60


================================================================================
DATOS DEL SISMO:
FECHA DEL SISMO (GMT)                  : 15/NOV/2004
HORA EPICENTRO (GMT)                   : 02:38:45
MAGNITUD(ES)                           : /Mb=5.2
COORDENADAS DEL EPICENTRO              : 16.38 LAT. N.
                                       : 98.34 LONG. W.
PROFUNDIDAD FOCAL (km)                 : 30
FUENTES DE LOS DATOS EPICENTRALES      : SSN
                                       : INSTITUTO DE GEOFISICA, UNAM

================================================================================
DATOS DE ESTE REGISTRO:
HORA DE LA PRIMERA MUESTRA (GMT)       : 02:38:45
EXACTITUD DEL TIEMPO (s)               : 
DURACION DEL REGISTRO (s), C1-C6       : 39.68/39.68/39.68
DURACION DEL REGISTRO (s), C7-C12      : 
NUM. TOTAL DE MUESTRAS, C1-C6          : 7936/7936/7936
NUM. TOTAL DE MUESTRAS, C7-C12         : 
ACEL. MAX.(Gal), C1-C6                 : 1.5529/-.4846/-1.7604
ACEL. MAX., C1-C6, EN LA MUESTRA       : 520/542/4061
ACEL. MAX.(Gal), C7-C12                : 
ACEL. MAX., C7-C12, EN LA MUESTRA      : 
UNIDADES DE LOS DATOS                  : Gal
FACTOR DE DECIMACION                   : 1
FORMATO DATOS (FORTRAN,10 campos/dato) : 3F10.3


===============================================================================
CALIDAD DEL ACELEROGRAMA:
REGISTRO DIGITAL COMPLETO, CARECE DE TIEMPO ABSOLUTO.


===============================================================================
COMENTARIOS:

CADA UNO DE LOS CANALES SE ENCUENTRA AJUSTADO POR LINEA BASE MEDIANTE LA
SUSTRACCION DEL PROMEDIO DE LAS ACELERACIONES EN EL TIEMPO.

MODELO DEL ACELEROGRAFO : SSA-2 (KINEMETRICS)









===============================================================================
DATOS DE ACELERACION:
---------+---------+---------+---------+---------+---------+---------+---------+
   CANAL-1   CANAL-2   CANAL-3   CANAL-4   CANAL-5   CANAL-6   CANAL-7   CANAL-8
      N00E        +V      N90E
---------+---------+---------+---------+---------+---------+---------+---------+
[...]
    -.4000     .0036    -.2956
    -.4000     .0036    -.2956
    -.4000     .0036    -.2956
    -.4000     .0036    -.2956
    -.4000     .0036    -.2956
    -.4000     .0036    -.2956
    -.4000     .0036    -.2956
    -.4000     .0036    -.2956
    -.4000     .0036    -.2956
    -.4000     .0036    -.2956
    -.4000     .0036    -.2956
    -.4000     .0036    -.2956
    -.4000     .0036    -.2956
     .0881     .0036    -.2956
    -.4000     .0036    -.2956
     .0881     .0036    -.2956
    -.4000     .0036    -.2956
     .0881     .0036    -.2956
     .0881     .0036    -.2956
     .0881     .0036    -.2956
     .0881     .0036    -.2956
     .0881     .0036    -.2956
     .0881     .0036    -.2956
     .0881     .0036    -.2956
     .0881     .0036    -.2956
     .0881     .0036    -.2956
     .0881     .0036    -.2956
     .0881     .0036     .1926
     .0881     .0036     .1926
     .0881     .0036     .1926
     .5763     .0036     .1926
     .5763     .0036     .1926
     .5763     .0036     .1926
     .5763     .0036     .1926
     .5763     .0036     .1926
     .5763     .0036     .1926
     .5763     .0036     .1926
     .5763     .0036     .1926
     .5763     .0036     .1926
     .5763     .0036     .1926
     .5763     .0036     .1926
     .5763     .0036     .1926
     .5763     .0036     .1926
     .5763     .0036     .6809
    1.0647     .0036     .1926
    1.0647     .0036     .1926
     .5763     .0036     .6809
    1.0647     .0036     .1926
    1.0647     .0036     .6809
    1.0647     .0036     .6809
    1.0647     .0036     .6809
    1.0647     .0036     .6809
    1.0647     .0036     .6809
    1.0647     .0036     .6809
    1.0647     .0036     .6809
    1.0647     .0036     .6809
    1.0647     .0036     .6809
    1.0647     .0036     .6809
    1.0647     .0036     .6809
    1.0647     .0036     .6809
    1.0647     .0036     .6809
    1.0647     .0036     .6809
    1.0647     .0036     .6809
    1.0647     .0036     .6809
     .5763     .0036     .6809
    1.0647     .0036     .6809
     .5763     .0036     .6809
     .5763     .0036     .6809
    1.0647     .0036     .6809
     .5763     .0036     .6809
     .5763     .0036     .6809
     .5763     .0036     .6809
     .5763     .0036     .6809
     .5763     .0036     .6809
     .5763     .0036     .6809
     .5763     .0036     .6809
     .5763     .0036     .6809
     .5763    -.4846     .6809
     .5763     .0036     .6809
     .5763    -.4846     .6809
     .5763     .0036     .6809
     .0881    -.4846     .6809
     .0881    -.4846     .6809
     .0881     .0036     .1926
     .0881    -.4846     .1926
     .0881    -.4846     .1926
     .0881     .0036     .1926
     .0881    -.4846     .1926
     .0881    -.4846     .1926
     .0881    -.4846     .1926
     .0881    -.4846     .1926
     .0881    -.4846     .1926
    -.4000     .0036     .1926
     .0881     .0036     .1926
    -.4000     .0036    -.2956
    -.4000     .0036    -.2956
    -.4000     .0036    -.2956
    -.4000     .0036    -.2956
    -.4000     .0036    -.2956
    -.4000     .0036    -.2956
    -.4000     .0036    -.2956
    -.4000     .0036    -.2956
    -.4000     .0036    -.2956
    -.4000     .0036    -.7839
    -.4000     .0036    -.7839
    -.4000     .0036    -.7839
    -.4000     .0036    -.7839
    -.4000     .0036    -.7839
    -.4000     .0036    -.7839
    -.8883     .0036    -.7839
    -.4000     .0036    -.7839
    -.8883     .0036    -.7839
    -.8883     .0036    -.7839
    -.8883     .0036    -.7839
    -.8883    -.4846    -.7839
    -.8883     .0036    -.7839
    -.8883    -.4846    -.7839
    -.8883     .0036   -1.2721
    -.4000     .0036   -1.2721
    -.8883     .0036   -1.2721
    -.8883     .0036   -1.2721
    -.8883     .0036   -1.2721
    -.8883     .0036   -1.2721
    -.8883     .0036   -1.2721
    -.8883     .0036   -1.2721
    -.8883     .0036   -1.2721
    -.8883     .0036   -1.2721
    -.8883     .0036   -1.2721
    -.4000     .0036   -1.2721
    -.4000     .0036   -1.2721
    -.4000     .0036    -.7839
    -.4000     .0036    -.7839
    -.4000     .0036    -.7839
    -.4000     .0036    -.7839
    -.4000     .0036    -.7839
    -.4000     .0036    -.7839
    -.4000     .0036    -.7839
    -.4000     .0036    -.7839
    -.4000     .4919    -.7839
    -.4000     .0036    -.7839
    -.4000     .4919    -.7839
    -.4000     .0036    -.7839
    -.4000     .0036    -.7839
     .0881     .4919    -.7839
    -.4000     .0036    -.7839
     .0881     .4919    -.2956
     .0881     .0036    -.2956
     .0881     .4919    -.2956
     .0881     .4919    -.2956
     .0881     .4919    -.2956
     .0881     .0036    -.2956
     .0881     .0036    -.2956
     .0881     .0036    -.2956
     .0881     .0036    -.2956
     .0881     .0036    -.2956
     .0881     .0036    -.2956
     .0881     .0036    -.2956
     .0881     .0036    -.2956
     .0881     .0036     .1926
     .0881     .0036     .1926
     .0881     .0036     .1926
     .0881     .0036     .1926
     .0881     .0036     .1926
     .0881     .0036     .1926
     .0881     .0036     .1926
     .0881     .0036     .1926
     .0881     .0036     .1926
     .0881     .0036     .1926
     .0881     .0036     .1926
     .0881     .0036     .1926
     .0881     .0036     .1926
     .0881     .0036     .1926
     .0881     .0036     .1926
     .0881     .0036     .6809
     .0881     .0036     .6809
     .0881     .0036     .6809
     .0881     .0036     .6809
     .0881     .0036     .6809
     .0881     .4919     .6809
     .0881     .0036     .6809
     .0881     .0036     .6809
     .0881     .0036     .6809
     .0881     .0036     .6809
     .5763     .0036     .6809
     .5763     .0036     .6809
     .5763     .0036     .6809
     .5763     .0036     .6809
     .5763     .0036     .6809
     .5763     .0036     .6809
     .5763     .0036     .6809
     .5763     .0036     .6809
     .5763     .0036     .6809
     .5763     .0036     .1926
     .5763     .0036     .6809
     .5763     .0036     .1926
     .5763     .0036     .1926
     .5763     .0036     .1926
     .5763     .0036     .1926
     .5763     .0036     .1926
     .5763     .0036     .1926
     .5763     .0036     .1926
     .5763     .0036     .1926
     .5763     .0036     .1926
     .5763     .0036     .1926
     .5763     .0036     .1926
     .5763     .0036     .1926
     .5763     .0036     .1926
     .5763     .0036     .1926
     .5763     .0036     .1926
     .5763     .0036     .1926
     .5763     .0036     .1926
     .5763     .0036    -.2956
     .5763     .0036     .1926
     .5763     .0036     .1926
     .5763     .0036    -.2956
     .5763     .0036    -.2956
     .5763     .0036    -.2956
     .5763     .0036    -.2956
     .5763     .0036    -.2956
     .5763     .0036    -.2956
     .5763     .0036    -.2956
     .5763     .0036    -.2956
     .5763     .0036    -.2956
     .5763     .0036    -.2956
     .5763     .0036    -.2956
     .5763     .0036    -.2956
     .5763     .0036    -.2956
     .0881     .0036    -.2956
     .5763     .0036    -.2956
     .0881     .0036    -.2956
     .0881     .0036    -.2956
     .0881     .0036    -.2956
     .0881     .0036    -.2956
     .0881     .0036    -.2956
     .0881     .0036    -.2956
     .5763     .0036     .1926
     .0881     .0036    -.2956
     .0881     .0036    -.2956
     .0881     .0036     .1926
     .0881     .0036    -.2956
     .0881     .0036     .1926
     .0881     .0036     .1926
     .0881     .0036     .1926
     .0881     .0036     .1926
     .0881     .0036     .1926
     .0881     .0036     .1926
     .0881     .0036     .1926
     .0881     .0036     .1926
     .0881     .0036     .1926
     .0881     .0036     .1926
     .0881     .0036     .1926
     .0881     .0036     .1926
     .0881     .0036     .1926
     .0881     .0036     .1926
     .0881     .0036     .1926
    -.4000     .0036     .1926
    -.4000     .0036     .6809
     .0881     .0036     .6809
     .0881     .0036     .6809
     .0881     .0036     .6809
     .0881     .0036     .6809
    -.4000     .0036     .6809
     .0881     .0036     .6809
     .0881     .0036     .6809
    -.4000     .0036     .6809
    -.4000     .0036     .6809
    -.4000     .0036     .6809
     .0881     .0036     .6809
     .0881     .0036    1.1691
     .0881     .0036     .6809
     .0881     .0036    1.1691
     .0881    -.4846    1.1691
     .0881    -.4846    1.1691
     .0881     .0036    1.1691
     .0881    -.4846    1.1691
     .0881    -.4846    1.1691
     .0881    -.4846    1.1691
     .0881    -.4846    1.1691
     .0881    -.4846    1.1691
     .0881    -.4846    1.1691
     .0881    -.4846    1.1691
     .0881    -.4846    1.1691
     .0881    -.4846    1.1691
     .0881    -.4846    1.1691
     .0881    -.4846    1.1691
     .0881    -.4846    1.1691
    -.4000    -.4846    1.1691
     .0881     .0036    1.1691
     .0881     .0036    1.1691
    -.4000     .0036    1.1691
    -.4000    -.4846    1.1691
    -.4000    -.4846    1.1691
    -.4000     .0036     .6809
    -.4000     .0036    1.1691
    -.4000     .0036     .6809
    -.4000     .0036     .6809
    -.4000     .0036     .6809
    -.4000     .0036     .6809
    -.4000     .0036     .6809
    -.4000     .0036     .6809
    -.4000     .0036     .6809
    -.4000     .0036     .6809
    -.4000     .0036     .1926
    -.4000     .0036     .6809
    -.4000     .0036     .1926
    -.4000     .0036     .1926
    -.4000     .0036     .1926
    -.4000     .0036     .1926
    -.4000     .0036     .1926
    -.4000     .0036    -.2956
    -.4000     .0036    -.2956
    -.4000     .0036    -.2956
    -.4000     .0036    -.2956
    -.4000     .0036    -.2956
    -.8883     .0036    -.2956
    -.4000     .0036    -.2956
    -.8883     .0036    -.7839
    -.8883     .0036    -.7839
    -.8883     .0036    -.2956
    -.8883     .0036    -.7839
    -.8883     .0036    -.7839
    -.8883     .0036    -.7839
    -.8883     .0036    -.7839
    -.8883     .0036    -.7839
    -.8883     .0036    -.7839
    -.8883     .0036   -1.2721
    -.8883     .0036   -1.2721
    -.8883     .0036   -1.2721
    -.8883     .0036   -1.2721
    -.8883     .0036   -1.2721
    -.8883     .0036   -1.2721
    -.8883     .0036   -1.2721
    -.8883     .0036   -1.2721
    -.8883     .0036   -1.2721
    -.8883     .0036   -1.2721
    -.8883     .0036   -1.2721
    -.8883     .0036   -1.2721
    -.8883     .0036   -1.2721
    -.8883     .0036   -1.2721
    -.8883     .0036   -1.2721
    -.8883     .0036   -1.2721
    -.8883     .0036   -1.2721
    -.8883     .0036   -1.2721
    -.8883     .0036   -1.2721
    -.4000     .0036   -1.7604
    -.4000     .0036   -1.2721
    -.4000     .0036   -1.2721
    -.4000     .0036   -1.2721
    -.4000     .0036   -1.2721
    -.4000     .0036   -1.2721
    -.4000     .0036   -1.2721
    -.4000     .0036   -1.2721
    -.4000     .0036   -1.2721
    -.4000     .0036   -1.2721
     .0881     .0036   -1.2721
     .0881     .0036   -1.2721
     .0881     .0036   -1.2721
     .0881     .0036    -.7839
     .0881     .0036    -.7839
     .0881     .0036    -.7839
     .0881     .0036    -.7839
     .0881     .0036    -.7839
     .0881     .0036    -.7839
     .0881     .0036    -.7839
     .5763     .0036    -.2956
     .5763     .0036    -.2956
     .5763     .0036    -.2956
     .5763     .0036    -.2956
     .5763     .0036    -.2956
     .5763     .0036    -.2956
     .5763     .0036    -.2956
     .5763     .0036    -.2956
     .5763     .0036    -.2956
     .5763     .0036     .1926
    1.0647     .0036    -.2956
    1.0647     .0036     .1926
    1.0647     .0036     .1926
    1.0647     .0036     .1926
    1.0647     .0036     .1926
    1.0647     .0036     .1926
    1.0647     .0036     .1926
    1.0647     .0036     .1926
    1.0647     .0036     .1926
    1.0647     .0036     .1926
    1.0647     .0036     .1926
    1.0647     .0036     .6809
    1.0647     .0036     .6809
    1.0647     .0036     .6809
    1.0647     .0036     .6809
    1.0647     .0036     .6809
    1.0647     .0036     .6809
    1.0647     .0036     .6809
    1.0647     .0036     .6809
    1.0647     .0036     .6809
    1.0647     .0036     .6809
    1.0647     .0036     .6809
    1.0647     .0036     .6809
    1.0647     .0036    1.1691
    1.0647     .0036    1.1691
    1.0647     .0036    1.1691
    1.0647     .0036     .6809
    1.0647     .0036     .6809
    1.0647     .0036     .6809
     .5763     .0036     .6809
     .5763     .0036     .6809
     .5763     .0036     .6809
     .5763     .0036     .6809
     .5763     .0036     .6809
     .5763     .0036     .6809
     .5763     .0036     .6809
     .5763     .0036     .6809
     .5763     .0036     .6809
     .0881     .0036     .6809
     .0881     .0036     .6809
     .0881     .0036     .6809
     .0881     .0036     .1926
     .0881     .0036     .1926
     .0881     .0036     .1926
     .0881     .0036     .1926
     .0881     .0036     .1926
     .0881     .0036     .1926
    -.4000     .0036     .1926
    -.4000     .0036     .1926
     .0881     .0036     .1926
     .0881     .0036     .1926
    -.4000     .0036    -.2956
    -.4000     .0036    -.2956
    -.4000     .0036    -.2956
    -.4000     .0036    -.2956
    -.4000     .0036    -.2956
    -.4000     .0036    -.2956
    -.4000     .0036    -.2956
    -.4000     .0036    -.2956
    -.4000     .0036    -.2956
    -.4000     .0036    -.2956
    -.4000     .0036    -.2956
    -.4000     .0036    -.2956
    -.4000     .0036    -.2956
    -.4000     .0036    -.2956
    -.4000     .0036    -.2956
    -.4000     .0036    -.2956
    -.4000     .0036    -.2956
    -.4000     .0036    -.2956
    -.4000     .0036    -.2956
    -.8883     .0036    -.2956
    -.8883     .0036    -.7839
    -.8883     .0036    -.2956
    -.4000     .0036    -.2956
    -.4000     .0036    -.2956
    -.4000     .0036    -.2956
    -.4000     .0036    -.2956
    -.4000     .0036    -.7839
    -.4000     .0036    -.2956
    -.4000     .0036    -.2956
    -.4000     .0036    -.2956
    -.4000     .0036    -.2956
    -.4000     .0036    -.2956
    -.4000     .0036    -.2956
    -.4000     .0036    -.2956
    -.4000     .0036    -.2956
    -.4000     .0036    -.2956
    -.4000     .0036    -.2956
    -.4000     .0036    -.2956
    -.4000     .0036    -.2956
    -.4000     .0036    -.2956
     .0881     .0036    -.2956
    -.4000     .0036    -.2956
    -.4000     .0036     .1926
     .0881     .0036     .1926
     .0881     .0036     .1926
     .0881     .0036     .1926
     .0881     .0036     .1926
     .0881     .0036     .1926
     .0881     .0036     .1926
     .0881     .0036     .1926
     .0881     .0036     .1926
     .0881     .0036     .1926
     .0881     .0036     .1926
     .0881     .0036     .1926
     .0881     .0036     .1926
     .0881     .0036     .1926
     .0881     .0036     .6809
     .0881     .0036     .6809
     .0881     .0036     .6809
     .0881     .0036     .6809
     .0881     .0036     .6809
     .0881     .0036     .6809
     .0881     .0036     .6809
     .0881     .0036     .6809
     .0881     .0036     .6809
     .0881     .0036     .6809
     .0881     .0036     .6809
