********************************************************************************
           RED INTERUNIVERSITARIA DE INSTRUMENTACION SISIMICA (RIIS)
 AREA DE ESTRUCTURAS, UNIVERSIDAD AUTONOMA METROPOLITANA - UNIDAD AZCAPOTZALCO
         AV. SAN PABLO 180; COL. REYNOSA TAMAULIPAS; MEXICO D.F. 02200.
       TELS: 53189455; FAX: 53189085; e-mail: agb@azc.uam.mx
********************************************************************************
ARCHIVO ESTANDAR DE ACELERACION:
VERSION DEL FORMATO                    : 2.0
NOMBRE DEL ARCHIVO                     : RIDI0401.012
FECHA Y HORA DE CREACION               : NOVIEMBRE, 2004
REF. CATALOGO ACELEROGRAMAS, SMIS 1996 : 


================================================================================
DATOS DE LA ESTACION:
NOMBRE DE LA ESTACION                  : UAM IZTAPALAPA
CLAVE DE LA ESTACION                   : RIDI
LOCALIZACION DE LA ESTACION            : AVENIDA MICHOACAN ESQUINA LA PURISIMA,
                                       : COLONIA VICENTINA, PLANTEL IZTAPALAPA
                                       : FRENTE AL EDIFICIO "O", MEXICO, D.F.
                                       :
                                       :
COORDENADAS DE LA ESTACION             : 19.360 LAT. N 
                                       : 99.060 LONG. W 
ALTITUD (msnm)                         : 2235
TIPO DE SUELO                          : LIMOS Y ARENAS ARCILLOSAS
                                       : 
                                       : 
INSTITUCION RESPONSABLE                : RED INTERUNIVERSITARIA DE
                                       : INSTRUMENTACION SISMICA (RIIS)

================================================================================
DATOS DEL ACELEROGRAFO:
MODELO DEL ACELEROGRAFO                : SSA-2                         
NUMERO DE SERIE DEL ACELEROGRAFO       : 1009                          
NUMERO DE CANALES                      : 3                             
ORIENTACION C1-C6 (rumbo;orientacion)  : /N00E/+V/N90E                 
ORIENTACION C7-C12 (rumbo;orientacion) :                               
VEL. DE MUESTREO, C1-C6 (muestras/s)   : /200/200/200                  
VEL. DE MUESTREO, C7-C12 (muestras/s)  :                               
ESC. COMPLETA DE SENSORES, C1-C6, (g)  : /1.0/1.0/1.0                  
ESC. COMPLETA DE SENSORES, C7-C12, (g) :                               
FREC. NAT. DE SENSORES, C1-C6, (Hz)    : /50.0/50.3/50.7               
FREC. NAT. DE SENSORES, C7-C12, (Hz)   :                               
AMORTIGUAMIENTO DE SENSORES, C1-C6     : /0.66/0.67/0.66               
AMORTIGUAMIENTO DE SENSORES, C7-C12    :                               
INTERVALO DE MUESTREO, C1-C6, (s)      : /0.005/0.005/0.005            
INTERVALO DE MUESTREO, C7-C12, (s)     :                               
UMBRAL DE DISPARO, C1-C6, (Gal)        : /1/1/1                        
UMBRAL DE DISPARO, C7-C12, (Gal)       :                               
MEMORIA DE PREEVENTO (s)               : 15                          
TIEMPO DE POSEVENTO (s)                : 60                          


================================================================================
DATOS DEL SISMO:
FECHA DEL SISMO (GMT)                  : 01/ENE/2004
HORA EPICENTRO (GMT)                   : 23:58:02
MAGNITUD(ES)                           : /Mw=5.8
COORDENADAS DEL EPICENTRO              : 17.3 LAT. N
                                       : 101.36 LONG. W
PROFUNDIDAD FOCAL (km)                 : 14
FUENTES DE LOS DATOS EPICENTRALES      : SSN
                                       : SERVICIO SISMOLOGICO NACIONAL

================================================================================
DATOS DE ESTE REGISTRO:
HORA DE LA PRIMERA MUESTRA (GMT)       : 23:58:02
EXACTITUD DEL TIEMPO (s)               : 
DURACION DEL REGISTRO (s), C1-C6       : 78.08/78.08/78.08
DURACION DEL REGISTRO (s), C7-C12      : 
NUM. TOTAL DE MUESTRAS, C1-C6          : 15616/15616/15616
NUM. TOTAL DE MUESTRAS, C7-C12         : 
ACEL. MAX.(Gal), C1-C6                 : 1.8362/-.9637/-2.9194
ACEL. MAX., C1-C6, EN LA MUESTRA       : 3050/2593/2367
ACEL. MAX.(Gal), C7-C12                : 
ACEL. MAX., C7-C12, EN LA MUESTRA      : 
UNIDADES DE LOS DATOS                  : Gal
FACTOR DE DECIMACION                   : 1
FORMATO DATOS (FORTRAN,10 campos/dato) : 3F10.4


===============================================================================
CALIDAD DEL ACELEROGRAMA:
REGISTRO DIGITAL COMPLETO, CARECE DE TIEMPO ABSOLUTO.


===============================================================================
COMENTARIOS:

CADA UNO DE LOS CANALES SE ENCUENTRA AJUSTADO POR LINEA BASE MEDIANTE LA
SUSTRACCION DEL PROMEDIO DE LAS ACELERACIONES EN EL TIEMPO.

MODELO DEL ACELEROGRAFO : SSA-2 (KINEMETRICS)









===============================================================================
DATOS DE ACELERACION:
---------+---------+---------+---------+---------+---------+---------+---------+
   CANAL-1   CANAL-2   CANAL-3   CANAL-4   CANAL-5   CANAL-6   CANAL-7   CANAL-8
      N00E        +V      N90E
---------+---------+---------+---------+---------+---------+---------+---------+
[...]
     .3707     .0050    -.4782
     .3707     .0050    -.4782
     .3707     .0050    -.4782
     .3707     .0050    -.4782
     .3707     .0050     .0101
     .3707     .0050     .0101
     .8592     .0050     .0101
     .8592     .0050     .0101
     .8592     .0050     .0101
     .8592     .0050     .0101
     .8592     .4894     .4986
     .8592     .4894     .4986
     .8592     .4894     .4986
     .8592     .4894     .4986
     .8592     .4894     .4986
     .8592     .4894     .9871
     .8592     .4894     .9871
     .8592     .4894     .9871
     .8592     .4894     .9871
     .8592     .4894     .9871
    1.3477     .4894     .9871
    1.3477     .4894     .9871
    1.3477     .4894     .9871
     .8592     .4894    1.4756
     .8592     .4894    1.4756
     .8592     .4894    1.4756
     .8592     .4894    1.4756
     .8592     .4894    1.4756
     .8592     .4894    1.4756
    1.3477     .4894    1.4756
     .8592     .4894    1.4756
     .8592     .4894    1.4756
     .8592     .4894    1.4756
     .8592     .4894    1.4756
     .8592     .4894    1.4756
     .8592     .4894    1.9640
     .8592     .4894    1.9640
     .8592     .4894    1.9640
     .8592     .4894    1.9640
     .8592     .4894    1.9640
     .8592     .4894    1.9640
     .8592     .4894    1.9640
     .3707     .4894    1.9640
     .8592     .4894    1.9640
     .3707     .4894    1.9640
     .3707     .0050    1.9640
     .3707     .4894    1.9640
     .3707     .0050    1.9640
     .3707     .0050    1.9640
     .3707     .0050    1.9640
     .3707     .0050    1.9640
     .3707     .0050    1.9640
    -.1177     .0050    1.9640
    -.1177     .0050    1.9640
    -.1177     .0050    1.9640
     .3707     .0050    1.9640
    -.1177     .0050    1.9640
    -.1177     .0050    2.4525
    -.1177     .0050    2.4525
    -.1177     .0050    2.4525
    -.1177     .0050    2.4525
    -.1177     .0050    2.4525
    -.1177     .0050    2.4525
    -.1177     .0050    2.4525
    -.1177     .0050    2.4525
    -.1177     .0050    2.4525
    -.1177     .0050    2.4525
    -.1177     .0050    2.4525
    -.1177     .0050    2.4525
    -.1177     .0050    2.4525
    -.1177     .0050    2.4525
    -.1177     .0050    2.4525
    -.1177     .0050    2.4525
    -.1177     .0050    2.4525
    -.1177     .0050    2.4525
    -.1177     .0050    2.4525
    -.1177     .0050    2.4525
    -.1177    -.4793    2.4525
    -.1177    -.4793    2.4525
    -.1177    -.4793    2.4525
    -.1177    -.4793    2.4525
    -.1177    -.4793    2.4525
    -.1177    -.4793    2.4525
    -.1177    -.4793    2.4525
    -.1177    -.4793    2.4525
    -.1177    -.4793    2.4525
    -.1177    -.4793    2.4525
    -.1177    -.4793    2.4525
    -.1177    -.4793    2.4525
    -.1177    -.4793    2.4525
    -.1177    -.4793    2.4525
    -.1177    -.4793    2.4525
    -.1177     .0050    2.4525
    -.1177    -.4793    2.4525
    -.1177    -.4793    2.4525
    -.1177    -.4793    2.4525
    -.1177    -.4793    2.4525
    -.1177    -.4793    2.4525
    -.1177    -.4793    2.4525
    -.1177    -.4793    2.4525
     .3707    -.4793    2.4525
     .3707    -.4793    2.4525
     .3707    -.4793    1.9640
    -.1177    -.4793    1.9640
     .3707    -.4793    1.9640
     .3707    -.4793    1.9640
     .3707    -.4793    1.9640
     .3707    -.4793    1.9640
     .3707    -.4793    1.9640
     .3707    -.4793    1.9640
     .3707    -.4793    1.9640
     .3707    -.4793    1.9640
     .3707    -.4793    1.9640
     .3707    -.4793    1.9640
     .3707    -.4793    1.9640
     .8592     .0050    1.9640
     .8592     .0050    1.9640
     .8592    -.4793    1.4756
     .8592     .0050    1.9640
     .8592    -.4793    1.4756
     .8592     .0050    1.4756
     .8592     .0050    1.4756
     .8592    -.4793    1.4756
     .8592     .0050    1.4756
     .8592     .0050    1.4756
     .8592     .0050    1.4756
     .8592     .0050    1.4756
     .3707     .0050     .9871
     .8592    -.4793     .9871
     .8592    -.4793     .9871
     .8592     .0050     .9871
     .8592     .0050     .9871
     .8592     .0050     .9871
     .8592     .0050     .4986
     .8592     .0050     .4986
     .8592     .0050     .4986
     .8592     .0050     .4986
     .8592     .0050     .4986
     .8592     .0050     .4986
     .8592     .0050     .0101
     .8592     .0050     .4986
     .8592     .0050     .0101
     .8592     .0050     .0101
     .8592     .0050     .0101
     .8592     .0050     .0101
     .8592     .0050    -.4782
     .8592     .0050    -.4782
     .8592     .0050    -.4782
     .8592     .0050    -.4782
     .8592     .0050    -.4782
     .8592     .0050    -.4782
     .8592     .0050    -.4782
     .8592     .0050    -.9664
     .3707     .0050    -.9664
     .3707     .0050    -.9664
     .3707     .4894    -.9664
     .8592     .4894   -1.4546
     .8592     .0050   -1.4546
     .3707     .4894   -1.4546
     .3707     .4894   -1.4546
     .3707     .4894   -1.4546
     .3707     .4894   -1.4546
     .3707     .4894   -1.9429
     .3707     .4894   -1.9429
     .3707     .4894   -1.9429
     .3707     .4894   -1.9429
     .3707     .4894   -1.9429
     .3707     .4894   -1.9429
     .3707     .4894   -2.4312
     .3707     .4894   -2.4312
     .3707     .4894   -2.4312
     .3707     .4894   -2.4312
     .3707     .4894   -2.4312
     .3707     .4894   -2.4312
    -.1177     .4894   -2.4312
    -.1177     .4894   -2.4312
    -.1177     .4894   -2.4312
    -.1177     .4894   -2.9194
    -.1177     .4894   -2.9194
    -.1177     .4894   -2.9194
    -.1177     .4894   -2.9194
    -.1177     .4894   -2.9194
    -.1177     .4894   -2.9194
    -.1177     .0050   -2.9194
    -.1177     .0050   -2.9194
    -.1177     .0050   -2.9194
    -.1177     .0050   -2.9194
    -.1177     .0050   -2.9194
    -.1177     .0050   -2.9194
    -.1177     .0050   -2.9194
    -.1177     .0050   -2.9194
    -.1177     .0050   -2.9194
    -.1177     .0050   -2.9194
    -.1177     .0050   -2.9194
    -.6062     .0050   -2.9194
    -.6062     .0050   -2.9194
    -.6062     .0050   -2.9194
    -.6062     .0050   -2.9194
    -.1177    -.4793   -2.9194
    -.6062    -.4793   -2.9194
    -.6062    -.4793   -2.9194
    -.6062    -.4793   -2.9194
    -.6062    -.4793   -2.9194
    -.6062    -.4793   -2.9194
    -.6062    -.4793   -2.9194
    -.1177    -.4793   -2.9194
    -.1177     .0050   -2.9194
    -.1177    -.4793   -2.9194
    -.1177     .0050   -2.4312
    -.1177     .0050   -2.4312
    -.1177     .0050   -2.4312
    -.1177     .0050   -2.4312
    -.1177     .0050   -2.4312
    -.1177     .0050   -2.4312
    -.1177     .0050   -2.4312
    -.1177     .0050   -2.4312
    -.1177     .0050   -2.4312
    -.1177     .0050   -2.4312
    -.1177     .0050   -2.4312
    -.1177     .0050   -2.4312
    -.1177     .0050   -2.4312
    -.1177     .0050   -1.9429
    -.1177     .0050   -1.9429
    -.1177     .0050   -1.9429
    -.1177     .0050   -1.9429
     .3707     .0050   -1.9429
     .3707     .0050   -1.9429
     .3707     .0050   -1.9429
     .3707     .0050   -1.9429
     .3707     .0050   -1.9429
     .3707     .0050   -1.9429
     .3707     .0050   -1.9429
     .3707     .0050   -1.9429
     .3707     .4894   -1.9429
     .3707     .0050   -1.9429
     .3707     .0050   -1.9429
     .3707     .4894   -1.4546
     .3707     .4894   -1.4546
     .3707     .4894   -1.4546
     .3707     .4894   -1.4546
     .3707     .4894   -1.4546
     .3707     .4894   -1.4546
     .3707     .4894   -1.4546
     .3707     .4894   -1.4546
     .3707     .0050   -1.4546
     .3707     .4894   -1.4546
     .3707     .4894   -1.4546
     .3707     .4894   -1.4546
     .3707     .4894   -1.4546
     .3707     .4894   -1.4546
     .3707     .4894   -1.4546
     .3707     .4894   -1.4546
     .3707     .4894   -1.4546
     .3707     .4894   -1.4546
     .3707     .4894   -1.4546
     .3707     .4894   -1.4546
     .3707     .4894   -1.4546
     .3707     .4894   -1.4546
     .3707     .4894   -1.4546
     .3707     .4894   -1.4546
     .3707     .4894   -1.4546
     .3707     .4894   -1.4546
     .3707     .4894    -.9664
     .3707     .4894    -.9664
     .3707     .4894   -1.4546
     .3707     .4894    -.9664
    -.1177     .4894    -.9664
    -.1177     .4894    -.9664
    -.1177     .4894    -.9664
    -.1177     .4894    -.9664
    -.1177     .4894    -.9664
    -.1177     .4894    -.9664
    -.1177     .4894    -.9664
    -.1177     .4894    -.9664
    -.1177     .4894    -.9664
    -.1177     .4894    -.9664
    -.1177     .4894    -.4782
    -.1177     .4894    -.4782
    -.1177     .4894    -.4782
    -.1177     .4894    -.4782
    -.1177     .4894    -.4782
    -.1177     .4894    -.4782
    -.6062     .4894    -.4782
    -.6062     .4894    -.4782
    -.6062     .4894     .0101
    -.6062     .4894     .0101
    -.6062     .4894     .0101
    -.6062     .4894     .0101
    -.6062     .4894     .0101
    -.6062     .4894     .0101
    -.6062     .4894     .4986
    -.6062     .4894     .4986
    -.6062     .4894     .4986
    -.6062     .4894     .4986
    -.6062     .0050     .4986
   -1.0947     .0050     .4986
    -.6062     .0050     .4986
   -1.0947     .0050     .4986
   -1.0947     .0050     .9871
   -1.0947     .0050     .9871
   -1.0947     .0050     .9871
   -1.0947     .0050     .9871
   -1.0947     .0050     .9871
   -1.0947     .0050    1.4756
   -1.0947     .0050    1.4756
   -1.0947     .0050    1.4756
   -1.0947     .0050    1.4756
   -1.0947     .0050    1.4756
   -1.0947     .0050    1.4756
   -1.0947     .0050    1.9640
   -1.0947     .0050    1.9640
   -1.0947     .0050    1.9640
    -.6062     .0050    1.9640
    -.6062    -.4793    1.9640
    -.6062    -.4793    1.9640
    -.6062    -.4793    1.9640
    -.6062    -.4793    1.9640
    -.6062    -.4793    2.4525
    -.6062    -.4793    2.4525
    -.6062    -.4793    2.4525
    -.6062    -.4793    2.4525
    -.6062    -.4793    2.4525
    -.6062    -.9637    2.4525
    -.6062    -.9637    2.4525
    -.6062    -.9637    2.4525
    -.6062    -.9637    2.4525
    -.6062    -.9637    2.4525
    -.6062    -.9637    2.4525
    -.6062    -.9637    2.4525
    -.6062    -.9637    2.4525
    -.6062    -.9637    2.4525
    -.6062    -.9637    2.4525
    -.1177    -.9637    2.4525
    -.1177    -.9637    2.9410
    -.1177    -.9637    2.4525
    -.1177    -.9637    2.9410
    -.1177    -.9637    2.9410
    -.1177    -.9637    2.9410
    -.1177    -.9637    2.9410
    -.1177    -.9637    2.9410
    -.1177    -.9637    2.9410
    -.1177    -.9637    2.9410
    -.1177    -.9637    2.9410
    -.1177    -.9637    2.9410
    -.1177    -.9637    2.9410
    -.1177    -.9637    2.9410
    -.1177    -.9637    2.9410
    -.1177    -.9637    2.9410
    -.1177    -.9637    2.9410
    -.1177    -.9637    2.9410
    -.1177    -.9637    2.9410
    -.1177    -.9637    2.9410
    -.1177    -.4793    2.9410
    -.1177    -.4793    2.9410
    -.1177    -.4793    2.9410
    -.1177    -.4793    2.9410
    -.1177    -.4793    2.9410
    -.1177    -.4793    2.9410
    -.1177    -.4793    2.9410
    -.1177    -.4793    2.9410
    -.1177    -.4793    2.9410
    -.1177    -.4793    2.9410
    -.1177    -.4793    2.9410
    -.1177    -.4793    2.9410
    -.1177    -.4793    2.9410
    -.1177    -.4793    2.9410
    -.1177    -.4793    2.9410
    -.1177    -.4793    2.4525
    -.1177    -.4793    2.4525
    -.1177    -.4793    2.4525
    -.1177     .0050    2.4525
    -.1177     .0050    2.4525
    -.1177     .0050    2.4525
    -.1177     .0050    2.4525
    -.1177     .0050    2.4525
    -.6062     .0050    2.4525
    -.6062     .0050    2.4525
    -.6062     .0050    2.4525
    -.6062     .0050    2.4525
    -.6062     .0050    2.4525
    -.6062     .0050    2.4525
    -.6062     .0050    2.4525
    -.6062     .0050    2.4525
    -.6062     .0050    1.9640
    -.6062     .0050    1.9640
    -.6062     .0050    1.9640
    -.6062     .0050    1.9640
    -.6062     .0050    1.9640
    -.6062     .0050    1.9640
    -.6062     .0050    1.9640
    -.6062     .0050    1.9640
    -.6062     .0050    1.9640
    -.6062     .0050    1.9640
    -.6062     .0050    1.4756
    -.6062     .0050    1.4756
    -.6062     .0050    1.4756
   -1.0947     .0050    1.4756
   -1.0947     .0050    1.4756
   -1.0947     .0050    1.4756
   -1.0947     .0050    1.4756
   -1.0947     .0050    1.4756
   -1.0947     .0050    1.4756
    -.6062     .0050    1.4756
    -.6062     .0050    1.4756
    -.6062     .0050    1.4756
    -.6062     .0050    1.4756
    -.6062     .0050    1.4756
    -.6062     .0050     .9871
    -.6062     .0050     .9871
    -.6062     .0050     .9871
    -.6062     .0050     .9871
    -.6062     .0050     .9871
    -.6062     .0050     .9871
    -.6062     .0050     .9871
    -.6062     .0050     .4986
    -.6062     .0050     .4986
    -.6062     .0050     .4986
    -.6062     .0050     .4986
    -.6062     .0050     .4986
    -.6062     .0050     .4986
    -.6062     .0050     .4986
    -.6062     .0050     .4986
    -.1177     .0050     .0101
    -.1177     .0050     .0101
    -.1177     .0050     .0101
    -.1177     .0050     .0101
    -.1177     .0050     .0101
    -.1177     .0050     .0101
    -.1177     .0050     .0101
    -.1177     .0050    -.4782
    -.1177     .0050    -.4782
    -.1177     .0050    -.4782
    -.1177     .0050    -.4782
    -.1177     .0050    -.4782
     .3707    -.4793    -.4782
     .3707    -.4793    -.4782
     .3707    -.4793    -.4782
     .3707     .0050    -.4782
     .3707     .0050    -.4782
     .3707     .0050    -.9664
     .3707     .0050    -.9664
     .3707     .0050    -.9664
     .3707     .0050    -.9664
     .8592     .0050    -.9664
     .8592     .0050    -.9664
     .8592    -.4793    -.9664
     .8592    -.4793   -1.4546
     .8592     .0050   -1.4546
     .8592     .0050   -1.4546
     .8592     .0050   -1.4546
     .8592     .0050   -1.4546
     .8592     .0050   -1.4546
     .8592     .0050   -1.4546
     .8592     .0050   -1.4546
     .8592     .0050   -1.4546
    1.3477     .0050   -1.4546
    1.3477     .0050   -1.4546
    1.3477     .0050   -1.9429
    1.3477     .0050   -1.9429
    1.3477     .0050   -1.9429
    1.3477     .0050   -1.9429
    1.3477     .0050   -1.9429
    1.3477     .0050   -1.9429
    1.3477     .0050   -1.9429
    1.3477     .0050   -1.9429
    1.3477     .0050   -1.9429
    1.3477     .0050   -2.4312
    1.3477     .0050   -2.4312
    1.8362     .0050   -2.4312
    1.8362     .0050   -2.4312
    1.8362     .0050   -2.4312
    1.8362     .0050   -2.4312
    1.8362     .0050   -2.4312
    1.8362     .0050   -2.4312
    1.8362     .0050   -2.4312
    1.8362     .4894   -2.4312
    1.8362     .0050   -2.4312
