********************************************************************************
           RED INTERUNIVERSITARIA DE INSTRUMENTACION SISIMICA (RIIS)
 AREA DE ESTRUCTURAS, UNIVERSIDAD AUTONOMA METROPOLITANA - UNIDAD AZCAPOTZALCO
         AV. SAN PABLO 180; COL. REYNOSA TAMAULIPAS; MEXICO D.F. 02200.
       TELS: 53189455; FAX: 53189085; e-mail: agb@azc.uam.mx
********************************************************************************
ARCHIVO ESTANDAR DE ACELERACION:
VERSION DEL FORMATO                    : 2.0
NOMBRE DEL ARCHIVO                     : RIDI0406.141
FECHA Y HORA DE CREACION               : NOVIEMBRE, 2004
REF. CATALOGO ACELEROGRAMAS, SMIS 1996 : 


================================================================================
DATOS DE LA ESTACION:
NOMBRE DE LA ESTACION                  : UAM IZTAPALAPA
CLAVE DE LA ESTACION                   : RIDI
LOCALIZACION DE LA ESTACION            : AVENIDA MICHOACAN ESQUINA LA PURISIMA,
                                       : COLONIA VICENTINA, PLANTEL IZTAPALAPA
                                       : FRENTE AL EDIFICIO "O", MEXICO, D.F.
                                       :
                                       :
COORDENADAS DE LA ESTACION             : 19.360 LAT. N 
                                       : 99.060 LONG. W 
ALTITUD (msnm)                         : 2235
TIPO DE SUELO                          : LIMOS Y ARENAS ARCILLOSAS
                                       : 
                                       : 
INSTITUCION RESPONSABLE                : RED INTERUNIVERSITARIA DE
                                       : INSTRUMENTACION SISMICA (RIIS)

================================================================================
DATOS DEL ACELEROGRAFO:
MODELO DEL ACELEROGRAFO                : SSA-2                         
NUMERO DE SERIE DEL ACELEROGRAFO       : 1009                          
NUMERO DE CANALES                      : 3                             
ORIENTACION C1-C6 (rumbo;orientacion)  : /N00E/+V/N90E                 
ORIENTACION C7-C12 (rumbo;orientacion) :                               
VEL. DE MUESTREO, C1-C6 (muestras/s)   : /200/200/200                  
VEL. DE MUESTREO, C7-C12 (muestras/s)  :                               
ESC. COMPLETA DE SENSORES, C1-C6, (g)  : /1.0/1.0/1.0                  
ESC. COMPLETA DE SENSORES, C7-C12, (g) :                               
FREC. NAT. DE SENSORES, C1-C6, (Hz)    : /50.0/50.3/50.7               
FREC. NAT. DE SENSORES, C7-C12, (Hz)   :                               
AMORTIGUAMIENTO DE SENSORES, C1-C6     : /0.66/0.67/0.66               
AMORTIGUAMIENTO DE SENSORES, C7-C12    :                               
INTERVALO DE MUESTREO, C1-C6, (s)      : /0.005/0.005/0.005            
INTERVALO DE MUESTREO, C7-C12, (s)     :                               
UMBRAL DE DISPARO, C1-C6, (Gal)        : /1/1/1                        
UMBRAL DE DISPARO, C7-C12, (Gal)       :                               
MEMORIA DE PREEVENTO (s)               : 15                          
TIEMPO DE POSEVENTO (s)                : 60                          


================================================================================
DATOS DEL SISMO:
FECHA DEL SISMO (GMT)                  : 14/JUN/2004
HORA EPICENTRO (GMT)                   : 22:54:22
MAGNITUD(ES)                           : /Mw=5.9
COORDENADAS DEL EPICENTRO              : 16.34 LAT. N
                                       : 97.85 LONG. W
PROFUNDIDAD FOCAL (km)                 : 10
FUENTES DE LOS DATOS EPICENTRALES      : SSN
                                       : SERVICIO SISMOLOGICO NACIONAL

================================================================================
DATOS DE ESTE REGISTRO:
HORA DE LA PRIMERA MUESTRA (GMT)       : 22:54:22
EXACTITUD DEL TIEMPO (s)               : 
DURACION DEL REGISTRO (s), C1-C6       : 90.88/90.88/90.88
DURACION DEL REGISTRO (s), C7-C12      : 
NUM. TOTAL DE MUESTRAS, C1-C6          : 18176/18176/18176
NUM. TOTAL DE MUESTRAS, C7-C12         : 
ACEL. MAX.(Gal), C1-C6                 : -4.9040/1.5599/6.1231
ACEL. MAX., C1-C6, EN LA MUESTRA       : 3790/3795/3394
ACEL. MAX.(Gal), C7-C12                : 
ACEL. MAX., C7-C12, EN LA MUESTRA      : 
UNIDADES DE LOS DATOS                  : Gal
FACTOR DE DECIMACION                   : 1
FORMATO DATOS (FORTRAN,10 campos/dato) : 3F10.4


===============================================================================
CALIDAD DEL ACELEROGRAMA:
REGISTRO DIGITAL COMPLETO, CARECE DE TIEMPO ABSOLUTO.


===============================================================================
COMENTARIOS:

CADA UNO DE LOS CANALES SE ENCUENTRA AJUSTADO POR LINEA BASE MEDIANTE LA
SUSTRACCION DEL PROMEDIO DE LAS ACELERACIONES EN EL TIEMPO.

MODELO DEL ACELEROGRAFO : SSA-2 (KINEMETRICS)









===============================================================================
DATOS DE ACELERACION:
---------+---------+---------+---------+---------+---------+---------+---------+
   CANAL-1   CANAL-2   CANAL-3   CANAL-4   CANAL-5   CANAL-6   CANAL-7   CANAL-8
      N00E        +V      N90E
---------+---------+---------+---------+---------+---------+---------+---------+
[...]
     .9574    -.3776    2.2152
     .9574    -.3776    2.2152
    1.4458    -.3776    2.2152
     .9574    -.3776    2.2152
    1.4458    -.3776    2.2152
    1.4458    -.3776    2.2152
    1.4458    -.3776    2.2152
    1.4458    -.3776    2.2152
    1.4458    -.3776    2.2152
    1.4458    -.3776    2.2152
    1.4458    -.3776    2.2152
    1.4458    -.3776    2.2152
    1.4458    -.3776    2.2152
    1.4458    -.3776    2.2152
    1.9343    -.3776    2.2152
    1.9343    -.8619    2.2152
    1.9343    -.3776    2.2152
    1.9343    -.3776    2.2152
    1.9343    -.3776    2.7037
    1.9343    -.3776    2.7037
    1.9343    -.3776    2.7037
    1.9343    -.3776    2.7037
    1.9343    -.3776    2.7037
    1.9343    -.3776    2.7037
    1.9343    -.3776    2.7037
    1.9343    -.3776    2.7037
    1.9343    -.3776    2.7037
    1.9343    -.3776    2.7037
    1.9343    -.3776    2.7037
    1.9343    -.3776    2.7037
    1.4458    -.3776    2.7037
    1.4458    -.3776    3.1922
    1.4458    -.3776    3.1922
    1.4458    -.3776    3.1922
    1.4458    -.3776    3.1922
    1.4458    -.3776    3.1922
    1.4458    -.3776    3.1922
    1.4458    -.3776    3.1922
     .9574    -.3776    3.1922
     .9574     .1068    3.1922
     .9574     .1068    3.1922
     .9574     .1068    3.1922
     .9574     .1068    3.1922
     .9574     .1068    3.1922
     .9574     .1068    3.6807
     .9574     .1068    3.1922
     .4689     .1068    3.6807
     .4689     .1068    3.1922
     .4689     .1068    3.1922
     .4689     .1068    3.1922
     .4689     .1068    3.1922
     .4689     .1068    3.1922
     .4689     .1068    3.1922
     .4689     .1068    3.1922
     .4689     .1068    3.1922
     .4689     .1068    3.1922
     .4689     .1068    3.1922
     .4689     .1068    2.7037
     .4689     .1068    2.7037
     .4689     .1068    2.7037
     .4689     .1068    2.7037
     .4689     .1068    2.7037
     .4689     .1068    2.7037
     .4689     .1068    2.7037
     .4689     .1068    2.7037
     .4689     .1068    2.2152
     .4689     .1068    2.2152
     .4689     .1068    1.7267
     .4689     .1068    1.7267
     .4689     .1068    1.7267
    -.0196     .1068    1.7267
     .4689     .1068    1.7267
    -.0196     .1068    1.2383
    -.0196     .1068    1.2383
    -.0196     .1068    1.2383
    -.0196     .1068    1.2383
    -.0196     .1068    1.2383
    -.0196     .1068     .7498
    -.0196     .1068     .7498
    -.0196     .1068     .7498
    -.0196     .1068     .7498
    -.0196     .1068     .7498
    -.0196     .1068     .2613
     .4689     .1068     .2613
     .4689     .1068     .2613
    -.0196     .1068     .2613
    -.0196    -.3776     .2613
    -.0196    -.3776     .2613
    -.0196    -.3776    -.2272
    -.0196    -.3776    -.2272
    -.0196    -.3776    -.2272
    -.0196    -.3776    -.2272
    -.0196    -.3776    -.2272
    -.0196    -.3776    -.2272
    -.0196    -.3776    -.2272
    -.0196    -.3776    -.2272
    -.0196    -.3776    -.2272
    -.5081    -.3776    -.2272
    -.5081    -.3776    -.2272
    -.5081    -.3776    -.2272
    -.5081    -.3776    -.2272
    -.5081    -.3776    -.2272
    -.5081    -.3776    -.7157
    -.5081    -.3776    -.2272
    -.5081     .1068    -.2272
    -.5081    -.3776    -.7157
    -.9966     .1068    -.7157
    -.9966     .1068    -.7157
    -.9966     .1068    -.2272
    -.9966     .1068    -.7157
    -.9966     .1068    -.7157
    -.9966     .1068    -.7157
   -1.4851     .1068    -.7157
   -1.4851     .1068    -.7157
   -1.4851     .1068    -.7157
   -1.4851    -.3776    -.7157
   -1.4851    -.3776    -.7157
   -1.4851    -.3776   -1.2042
   -1.4851    -.3776    -.7157
   -1.4851    -.3776    -.7157
   -1.4851    -.3776   -1.2042
   -1.4851    -.3776   -1.2042
   -1.4851    -.3776   -1.2042
   -1.4851    -.3776   -1.2042
   -1.4851    -.3776   -1.2042
   -1.4851    -.3776   -1.2042
   -1.4851    -.3776   -1.6927
   -1.4851    -.3776   -1.6927
   -1.4851    -.3776   -1.6927
   -1.4851    -.3776   -1.6927
   -1.4851    -.3776   -1.6927
   -1.4851    -.3776   -2.1812
   -1.4851    -.3776   -2.1812
   -1.4851    -.3776   -2.1812
   -1.4851    -.3776   -2.1812
   -1.4851    -.3776   -2.1812
   -1.4851    -.3776   -2.1812
   -1.4851    -.3776   -2.6696
    -.9966    -.3776   -2.6696
    -.9966     .1068   -2.6696
    -.9966     .1068   -2.6696
    -.9966     .1068   -3.1579
    -.9966     .1068   -3.1579
    -.9966     .1068   -3.1579
    -.9966     .1068   -3.1579
    -.9966     .1068   -3.1579
    -.9966     .1068   -3.1579
    -.9966     .1068   -3.6461
    -.9966     .1068   -3.6461
    -.5081     .1068   -3.6461
    -.5081     .1068   -3.6461
    -.5081     .1068   -3.6461
    -.5081     .5912   -4.1344
    -.5081     .5912   -4.1344
    -.5081     .1068   -4.1344
    -.5081     .5912   -4.1344
    -.5081     .5912   -4.1344
    -.5081     .5912   -4.6226
    -.5081     .5912   -4.6226
    -.0196     .5912   -4.1344
    -.0196     .5912   -4.6226
    -.0196     .5912   -4.6226
    -.0196     .5912   -4.6226
    -.0196     .5912   -4.6226
    -.0196     .5912   -4.6226
     .4689     .5912   -4.6226
     .4689     .5912   -4.6226
     .4689     .5912   -4.6226
     .4689     .5912   -4.6226
     .4689     .5912   -4.6226
     .4689     .5912   -4.6226
     .4689     .5912   -4.6226
     .4689     .5912   -4.6226
     .4689     .5912   -4.6226
     .4689     .5912   -4.6226
     .4689     .5912   -4.6226
     .4689     .5912   -4.6226
     .4689     .5912   -4.6226
     .4689     .5912   -4.6226
     .4689     .5912   -4.1344
     .4689     .5912   -4.1344
     .4689     .5912   -4.1344
    -.0196     .5912   -4.1344
    -.0196     .5912   -4.1344
     .4689    1.0756   -4.1344
     .4689     .5912   -4.1344
    -.0196     .5912   -4.1344
    -.0196     .5912   -4.1344
    -.0196     .5912   -4.1344
    -.0196     .5912   -3.6461
    -.0196     .5912   -4.1344
    -.5081     .5912   -3.6461
    -.5081     .5912   -4.1344
    -.5081     .5912   -4.1344
    -.5081     .5912   -4.1344
    -.5081     .5912   -4.1344
    -.5081     .5912   -3.6461
    -.5081     .5912   -4.1344
    -.5081     .5912   -4.1344
    -.5081     .5912   -4.1344
    -.5081     .5912   -4.1344
    -.5081     .5912   -4.1344
    -.5081     .5912   -4.1344
    -.0196     .5912   -4.1344
    -.0196     .5912   -4.1344
    -.0196     .5912   -4.1344
    -.0196     .5912   -4.1344
    -.0196     .5912   -4.1344
    -.0196     .5912   -4.1344
     .4689     .5912   -4.1344
    -.0196     .5912   -4.1344
     .4689     .5912   -4.1344
     .4689     .5912   -4.6226
     .4689     .5912   -4.6226
     .4689     .5912   -4.6226
     .4689     .5912   -4.6226
     .4689     .1068   -4.6226
     .4689     .1068   -4.6226
     .4689     .5912   -4.6226
     .4689     .5912   -4.6226
     .4689     .5912   -4.6226
     .4689     .5912   -4.1344
     .4689     .1068   -4.1344
     .9574     .1068   -4.1344
     .9574     .5912   -4.1344
     .9574     .5912   -4.1344
     .9574     .1068   -4.1344
     .9574     .1068   -4.1344
     .9574     .1068   -4.1344
     .9574     .5912   -4.1344
     .9574     .1068   -4.1344
     .9574     .5912   -3.6461
    1.4458     .5912   -3.6461
    1.4458     .1068   -3.6461
    1.4458     .5912   -3.6461
     .9574     .5912   -3.1579
     .9574     .5912   -3.1579
     .9574     .1068   -3.1579
    1.4458     .1068   -3.1579
    1.4458     .1068   -3.1579
    1.4458     .1068   -2.6696
     .9574     .1068   -2.6696
     .9574     .1068   -2.6696
     .9574     .1068   -2.6696
    1.4458     .1068   -2.6696
    1.4458     .1068   -2.1812
    1.4458     .1068   -2.1812
    1.4458     .1068   -2.1812
    1.4458     .1068   -2.1812
    1.4458     .1068   -2.1812
     .9574     .1068   -2.1812
    1.4458     .1068   -1.6927
    1.4458     .1068   -1.6927
    1.4458     .1068   -1.6927
    1.4458     .1068   -1.6927
     .9574     .1068   -1.6927
     .9574     .1068   -1.2042
    1.4458     .1068   -1.2042
     .9574     .1068   -1.2042
     .9574     .1068   -1.2042
     .9574     .1068   -1.2042
    1.4458     .1068    -.7157
    1.4458     .1068    -.7157
    1.4458     .1068    -.7157
    1.4458    -.3776    -.2272
    1.4458     .1068    -.2272
    1.4458    -.3776    -.2272
    1.4458    -.3776    -.2272
    1.4458    -.3776    -.2272
    1.4458    -.3776    -.2272
    1.4458    -.3776    -.2272
    1.4458    -.3776     .2613
    1.4458    -.3776     .2613
    1.4458    -.3776     .2613
    1.4458    -.3776     .2613
    1.4458    -.3776     .2613
    1.4458    -.3776     .2613
    1.4458    -.3776     .7498
    1.4458    -.3776     .7498
    1.4458    -.3776     .7498
    1.4458    -.3776     .7498
    1.4458    -.3776     .7498
    1.4458    -.3776     .7498
    1.4458    -.3776    1.2383
    1.4458    -.3776    1.2383
    1.4458    -.3776    1.2383
    1.4458    -.3776    1.2383
    1.4458    -.3776    1.2383
    1.4458    -.3776    1.7267
    1.4458    -.3776    1.7267
    1.4458     .1068    1.7267
    1.4458     .1068    1.7267
    1.4458    -.3776    2.2152
    1.4458     .1068    2.2152
    1.4458     .1068    2.2152
    1.4458    -.3776    2.2152
    1.4458     .1068    2.7037
     .9574    -.3776    2.7037
     .9574    -.3776    2.7037
     .9574     .1068    2.7037
     .9574    -.3776    3.1922
     .9574    -.3776    3.1922
     .4689    -.3776    3.1922
     .4689    -.3776    3.1922
     .4689     .1068    3.1922
     .4689     .1068    3.6807
     .4689     .1068    3.6807
     .4689    -.3776    3.6807
     .4689    -.3776    3.6807
     .4689    -.3776    3.6807
     .4689    -.3776    4.1692
     .4689     .1068    4.1692
     .4689    -.3776    4.1692
     .4689     .1068    4.1692
    -.0196     .1068    4.6577
    -.0196    -.3776    4.6577
    -.5081     .1068    4.1692
    -.5081     .1068    4.6577
    -.5081     .1068    4.6577
    -.5081     .1068    5.1462
    -.5081     .1068    5.1462
    -.5081     .1068    5.1462
    -.9966     .1068    5.1462
    -.9966    -.3776    5.1462
   -1.4851     .1068    5.1462
   -1.4851    -.3776    5.6346
   -1.4851     .1068    5.6346
   -1.4851    -.3776    5.6346
   -1.4851    -.3776    5.6346
   -1.4851     .1068    5.6346
   -1.4851    -.3776    5.6346
   -1.4851    -.3776    5.6346
   -1.4851    -.3776    5.6346
   -1.9736    -.3776    6.1231
   -1.4851    -.3776    6.1231
   -1.9736    -.3776    6.1231
   -1.9736    -.3776    5.6346
   -1.9736    -.3776    5.6346
   -1.9736    -.3776    5.6346
   -1.9736    -.3776    5.6346
   -1.9736    -.3776    5.6346
   -1.9736    -.3776    5.6346
   -1.9736    -.3776    5.6346
   -1.9736    -.3776    5.6346
   -1.9736    -.3776    5.6346
   -1.9736    -.3776    5.6346
   -1.9736    -.3776    5.6346
   -1.9736    -.3776    5.6346
   -1.9736    -.3776    5.6346
   -1.9736    -.3776    5.6346
   -1.9736    -.3776    5.1462
   -1.9736    -.3776    5.1462
   -1.4851    -.3776    5.1462
   -1.4851    -.3776    5.1462
   -1.4851    -.3776    5.1462
   -1.4851    -.3776    5.1462
   -1.4851    -.3776    5.1462
   -1.4851    -.3776    5.1462
   -1.4851    -.3776    5.1462
   -1.4851    -.3776    5.1462
   -1.4851    -.3776    5.1462
   -1.4851    -.3776    4.6577
   -1.4851    -.8619    4.6577
   -1.4851    -.8619    4.6577
   -1.4851    -.3776    4.6577
   -1.4851    -.8619    4.6577
   -1.4851    -.3776    4.6577
   -1.4851    -.3776    4.6577
   -1.4851    -.3776    4.6577
   -1.4851    -.3776    4.6577
   -1.4851    -.8619    4.6577
   -1.4851    -.3776    4.6577
   -1.4851    -.3776    4.6577
   -1.4851    -.8619    4.6577
   -1.4851    -.3776    4.6577
   -1.4851    -.8619    4.6577
   -1.4851    -.3776    4.6577
   -1.4851    -.3776    4.6577
   -1.4851    -.3776    4.6577
   -1.4851    -.3776    4.6577
   -1.4851    -.8619    4.6577
   -1.4851    -.3776    4.6577
   -1.4851    -.3776    4.6577
   -1.4851    -.3776    4.6577
   -1.4851    -.3776    4.6577
   -1.4851    -.3776    4.6577
   -1.4851    -.3776    4.6577
   -1.4851    -.3776    4.6577
   -1.4851    -.3776    4.6577
   -1.4851    -.3776    4.6577
   -1.4851    -.3776    4.1692
   -1.4851    -.3776    4.1692
   -1.4851    -.3776    4.1692
   -1.4851    -.3776    4.1692
   -1.4851    -.3776    4.1692
   -1.4851    -.8619    3.6807
   -1.4851    -.3776    3.6807
   -1.4851    -.3776    3.6807
   -1.4851    -.3776    3.6807
   -1.9736    -.3776    3.6807
   -1.9736    -.3776    3.1922
   -1.9736    -.3776    3.1922
   -1.9736    -.3776    3.1922
   -1.9736    -.3776    3.1922
   -1.9736    -.3776    2.7037
   -1.9736    -.3776    2.7037
   -1.9736    -.3776    2.7037
   -2.4620    -.3776    2.7037
   -2.4620    -.3776    2.2152
   -2.4620    -.3776    2.2152
   -2.4620    -.3776    2.2152
   -2.4620    -.3776    2.2152
   -2.4620    -.3776    2.2152
   -2.4620    -.3776    1.7267
   -2.4620    -.3776    1.7267
   -2.4620     .1068    1.7267
   -2.4620     .1068    1.7267
   -2.4620     .1068    1.7267
   -2.4620     .1068    1.7267
   -2.4620     .1068    1.7267
   -2.4620     .1068    1.2383
   -2.4620     .1068    1.2383
   -2.4620     .1068    1.2383
   -2.4620     .5912    1.2383
   -2.4620     .5912    1.2383
   -2.4620     .5912    1.2383
   -2.4620     .5912    1.2383
   -2.4620    1.0756     .7498
   -2.4620    1.0756     .7498
   -2.4620    1.0756     .7498
   -2.4620    1.0756     .7498
   -2.4620    1.0756     .7498
   -2.4620    1.0756     .7498
   -2.4620    1.0756     .2613
   -2.4620    1.0756     .2613
   -2.4620    1.0756     .2613
   -2.9505    1.0756     .2613
   -2.9505    1.0756     .2613
   -2.9505    1.0756    -.2272
   -2.9505    1.0756    -.2272
   -2.9505    1.0756    -.2272
   -2.9505    1.0756    -.2272
   -2.9505    1.0756    -.2272
   -2.9505     .5912    -.2272
   -2.9505     .5912    -.2272
   -2.9505     .5912    -.7157
   -2.9505     .5912    -.7157
   -2.9505     .5912    -.7157
   -2.9505     .5912    -.7157
   -2.9505     .5912   -1.2042
   -2.9505     .1068   -1.2042
   -2.4620     .1068   -1.2042
   -2.4620     .1068   -1.2042
   -2.4620     .1068   -1.2042
   -2.4620     .1068   -1.2042
   -2.4620     .1068   -1.2042
   -2.4620     .1068   -1.6927
   -2.4620     .1068   -1.6927
   -1.9736     .1068   -1.6927
   -1.9736     .1068   -1.6927
   -1.9736     .1068   -1.6927
   -1.9736     .1068   -1.6927
   -1.4851     .1068   -1.6927
   -1.4851     .1068   -1.6927
   -1.4851     .1068   -1.6927
   -1.4851     .1068   -2.1812
   -1.4851     .1068   -2.1812
   -1.4851     .1068   -2.1812
    -.9966     .1068   -2.1812
    -.9966     .1068   -2.1812
    -.9966     .1068   -2.1812
    -.9966     .1068   -2.1812
    -.5081     .1068   -2.1812
    -.5081     .1068   -2.1812
    -.5081     .1068   -2.1812
    -.5081     .1068   -2.1812
    -.0196     .1068   -2.6696
