********************************************************************************
           RED INTERUNIVERSITARIA DE INSTRUMENTACION SISIMICA (RIIS)
 AREA DE ESTRUCTURAS, UNIVERSIDAD AUTONOMA METROPOLITANA - UNIDAD AZCAPOTZALCO
         AV. SAN PABLO 180; COL. REYNOSA TAMAULIPAS; MEXICO D.F. 02200.
       TELS: 53189455; FAX: 53189085; e-mail: agb@azc.uam.mx
********************************************************************************
ARCHIVO ESTANDAR DE ACELERACION:
VERSION DEL FORMATO                    : 2.0
NOMBRE DEL ARCHIVO                     : RIDI0401.011
FECHA Y HORA DE CREACION               : NOVIEMBRE, 2004
REF. CATALOGO ACELEROGRAMAS, SMIS 1996 : 


================================================================================
DATOS DE LA ESTACION:
NOMBRE DE LA ESTACION                  : UAM IZTAPALAPA
CLAVE DE LA ESTACION                   : RIDI
LOCALIZACION DE LA ESTACION            : AVENIDA MICHOACAN ESQUINA LA PURISIMA,
                                       : COLONIA VICENTINA, PLANTEL IZTAPALAPA
                                       : FRENTE AL EDIFICIO "O", MEXICO, D.F.
                                       :
                                       :
COORDENADAS DE LA ESTACION             : 19.360 LAT. N 
                                       : 99.060 LONG. W 
ALTITUD (msnm)                         : 2235
TIPO DE SUELO                          : LIMOS Y ARENAS ARCILLOSAS
                                       : 
                                       : 
INSTITUCION RESPONSABLE                : RED INTERUNIVERSITARIA DE
                                       : INSTRUMENTACION SISMICA (RIIS)

================================================================================
DATOS DEL ACELEROGRAFO:
MODELO DEL ACELEROGRAFO                : SSA-2                         
NUMERO DE SERIE DEL ACELEROGRAFO       : 1009                          
NUMERO DE CANALES                      : 3                             
ORIENTACION C1-C6 (rumbo;orientacion)  : /N00E/+V/N90E                 
ORIENTACION C7-C12 (rumbo;orientacion) :                               
VEL. DE MUESTREO, C1-C6 (muestras/s)   : /200/200/200                  
VEL. DE MUESTREO, C7-C12 (muestras/s)  :                               
ESC. COMPLETA DE SENSORES, C1-C6, (g)  : /1.0/1.0/1.0                  
ESC. COMPLETA DE SENSORES, C7-C12, (g) :                               
FREC. NAT. DE SENSORES, C1-C6, (Hz)    : /50.0/50.3/50.7               
FREC. NAT. DE SENSORES, C7-C12, (Hz)   :                               
AMORTIGUAMIENTO DE SENSORES, C1-C6     : /0.66/0.67/0.66               
AMORTIGUAMIENTO DE SENSORES, C7-C12    :                               
INTERVALO DE MUESTREO, C1-C6, (s)      : /0.005/0.005/0.005            
INTERVALO DE MUESTREO, C7-C12, (s)     :                               
UMBRAL DE DISPARO, C1-C6, (Gal)        : /1/1/1                        
UMBRAL DE DISPARO, C7-C12, (Gal)       :                               
MEMORIA DE PREEVENTO (s)               : 15                          
TIEMPO DE POSEVENTO (s)                : 60                          


================================================================================
DATOS DEL SISMO:
FECHA DEL SISMO (GMT)                  : 01/ENE/2004
HORA EPICENTRO (GMT)                   : 23:31:50
MAGNITUD(ES)                           : /Mw=6.1
COORDENADAS DEL EPICENTRO              : 17.49 LAT. N
                                       : 101.30 LONG. W
PROFUNDIDAD FOCAL (km)                 : 29
FUENTES DE LOS DATOS EPICENTRALES      : SSN
                                       : SERVICIO SISMOLOGICO NACIONAL

================================================================================
DATOS DE ESTE REGISTRO:
HORA DE LA PRIMERA MUESTRA (GMT)       : 23:31:50
EXACTITUD DEL TIEMPO (s)               : 
DURACION DEL REGISTRO (s), C1-C6       : 94.72/94.72/94.72
DURACION DEL REGISTRO (s), C7-C12      : 
NUM. TOTAL DE MUESTRAS, C1-C6          : 18944/18944/18944
NUM. TOTAL DE MUESTRAS, C7-C12         : 
ACEL. MAX.(Gal), C1-C6                 : 8.1211/-1.6501/-8.8832
ACEL. MAX., C1-C6, EN LA MUESTRA       : 5287/4005/5286
ACEL. MAX.(Gal), C7-C12                : 
ACEL. MAX., C7-C12, EN LA MUESTRA      : 
UNIDADES DE LOS DATOS                  : Gal
FACTOR DE DECIMACION                   : 1
FORMATO DATOS (FORTRAN,10 campos/dato) : 3F10.4


===============================================================================
CALIDAD DEL ACELEROGRAMA:
REGISTRO DIGITAL COMPLETO, CARECE DE TIEMPO ABSOLUTO.


===============================================================================
COMENTARIOS:

CADA UNO DE LOS CANALES SE ENCUENTRA AJUSTADO POR LINEA BASE MEDIANTE LA
SUSTRACCION DEL PROMEDIO DE LAS ACELERACIONES EN EL TIEMPO.

MODELO DEL ACELEROGRAFO : SSA-2 (KINEMETRICS)









===============================================================================
DATOS DE ACELERACION:
---------+---------+---------+---------+---------+---------+---------+---------+
   CANAL-1   CANAL-2   CANAL-3   CANAL-4   CANAL-5   CANAL-6   CANAL-7   CANAL-8
      N00E        +V      N90E
---------+---------+---------+---------+---------+---------+---------+---------+
[...]
    5.6787    -.6814   -4.0008
    5.6787    -.6814   -4.0008
    5.6787    -.6814   -4.0008
    5.6787    -.6814   -4.4890
    6.1672    -.6814   -4.4890
    6.1672    -.6814   -4.4890
    6.1672    -.6814   -4.4890
    6.1672    -.6814   -4.4890
    6.1672    -.6814   -4.4890
    6.1672    -.6814   -4.4890
    6.1672    -.6814   -4.9773
    6.1672    -.6814   -4.9773
    6.1672    -.6814   -4.9773
    6.1672    -.6814   -4.9773
    6.1672    -.6814   -4.9773
    6.1672    -.6814   -4.9773
    6.1672    -.6814   -5.4655
    6.1672    -.6814   -5.4655
    6.1672    -.6814   -5.4655
    6.1672    -.6814   -5.4655
    6.1672   -1.1658   -5.4655
    6.1672   -1.1658   -5.9538
    6.1672   -1.1658   -5.9538
    6.1672   -1.1658   -5.9538
    6.1672   -1.1658   -5.9538
    6.1672   -1.1658   -5.9538
    5.6787   -1.1658   -5.9538
    5.6787   -1.1658   -5.9538
    5.6787   -1.1658   -5.9538
    5.6787   -1.1658   -5.9538
    5.6787   -1.1658   -5.9538
    5.6787   -1.1658   -5.9538
    5.6787   -1.1658   -5.9538
    5.6787   -1.1658   -5.9538
    5.6787   -1.1658   -5.9538
    5.6787   -1.1658   -5.9538
    5.1902   -1.1658   -5.9538
    5.1902   -1.1658   -5.9538
    5.1902   -1.1658   -5.9538
    5.1902   -1.1658   -5.9538
    5.1902   -1.1658   -5.9538
    4.7017   -1.1658   -5.9538
    4.7017   -1.1658   -5.9538
    4.7017   -1.1658   -5.9538
    4.7017   -1.1658   -5.9538
    4.7017    -.6814   -5.9538
    4.7017   -1.1658   -5.9538
    4.2132    -.6814   -5.9538
    4.2132    -.6814   -5.9538
    4.2132    -.6814   -5.9538
    4.2132    -.6814   -5.9538
    3.7247    -.6814   -5.9538
    3.7247    -.6814   -5.9538
    3.7247    -.6814   -5.9538
    3.7247    -.6814   -5.9538
    3.2362    -.6814   -5.9538
    3.2362    -.6814   -5.9538
    3.2362    -.6814   -5.9538
    3.2362    -.1970   -5.9538
    3.2362    -.6814   -5.9538
    3.2362    -.1970   -5.9538
    2.7478    -.1970   -5.4655
    2.7478    -.1970   -5.4655
    2.7478    -.1970   -5.4655
    2.7478    -.1970   -5.4655
    2.7478    -.1970   -5.4655
    2.2593    -.1970   -5.4655
    2.2593    -.1970   -5.4655
    2.2593    -.1970   -4.9773
    2.2593    -.1970   -4.9773
    2.2593    -.1970   -4.9773
    1.7708    -.1970   -4.9773
    1.7708    -.1970   -4.9773
    1.7708    -.1970   -4.9773
    1.7708    -.1970   -4.4890
    1.2823    -.1970   -4.4890
    1.2823    -.1970   -4.4890
    1.2823    -.1970   -4.4890
    1.2823    -.1970   -4.0008
    1.2823    -.1970   -4.0008
     .7938    -.1970   -4.0008
     .7938    -.1970   -4.0008
     .7938    -.1970   -3.5125
     .7938    -.1970   -3.5125
     .3053    -.1970   -3.5125
     .3053    -.1970   -3.5125
     .3053    -.1970   -3.0243
     .3053    -.1970   -3.0243
    -.1832    -.1970   -3.0243
    -.1832    -.1970   -2.5360
    -.1832    -.1970   -2.5360
    -.1832    -.1970   -2.5360
    -.6717    -.1970   -2.5360
    -.6717    -.1970   -2.0478
    -.6717    -.1970   -2.0478
   -1.1601    -.1970   -2.0478
   -1.1601    -.1970   -1.5595
   -1.1601    -.1970   -1.5595
   -1.1601    -.1970   -1.0713
   -1.1601    -.1970   -1.0713
   -1.6486    -.1970   -1.0713
   -1.6486    -.1970    -.5830
   -1.6486    -.1970    -.0945
   -1.6486    -.1970    -.0945
   -1.6486    -.1970    -.0945
   -2.1371    -.1970    -.0945
   -2.1371    -.1970    -.0945
   -2.1371    -.1970     .3940
   -2.6254    -.1970     .3940
   -2.6254    -.1970     .8824
   -2.6254    -.1970     .8824
   -3.1136    -.1970     .8824
   -3.1136    -.1970     .8824
   -3.1136    -.1970    1.3709
   -3.1136    -.1970    1.3709
   -3.1136    -.1970    1.8594
   -3.6019    -.6814    1.8594
   -3.6019    -.1970    1.8594
   -3.6019    -.1970    1.8594
   -3.6019    -.6814    2.3479
   -3.6019    -.6814    2.3479
   -4.0901    -.6814    2.3479
   -4.0901    -.6814    2.8364
   -4.0901    -.6814    2.8364
   -4.0901    -.6814    2.8364
   -4.0901    -.6814    2.8364
   -4.0901    -.6814    3.3249
   -4.5784    -.6814    3.3249
   -4.5784    -.1970    3.8134
   -4.5784    -.6814    3.8134
   -4.5784    -.1970    3.8134
   -4.5784    -.6814    3.8134
   -4.5784    -.6814    3.8134
   -5.0666    -.1970    4.3019
   -5.0666    -.1970    4.3019
   -5.0666    -.1970    4.7903
   -5.0666    -.1970    4.7903
   -5.0666    -.1970    4.7903
   -5.0666    -.1970    4.7903
   -5.5549    -.6814    4.7903
   -5.5549    -.1970    5.2788
   -5.5549    -.1970    5.2788
   -5.5549    -.1970    5.2788
   -5.5549    -.1970    5.7673
   -6.0431    -.1970    5.7673
   -6.0431    -.1970    5.7673
   -6.0431    -.1970    5.7673
   -6.0431    -.1970    5.7673
   -6.0431    -.1970    5.7673
   -6.0431    -.1970    6.2558
   -6.0431    -.1970    6.2558
   -6.0431    -.1970    6.2558
   -6.0431    -.1970    6.2558
   -6.0431    -.1970    6.2558
   -6.5314    -.1970    6.2558
   -6.5314    -.1970    6.7443
   -6.5314    -.1970    6.7443
   -6.5314    -.1970    6.7443
   -6.5314    -.1970    6.7443
   -6.5314    -.1970    6.7443
   -6.5314    -.1970    6.7443
   -6.5314    -.1970    6.7443
   -6.5314    -.1970    6.7443
   -6.5314    -.1970    7.2328
   -6.5314    -.1970    7.2328
   -6.5314    -.1970    7.2328
   -6.5314    -.1970    7.2328
   -6.5314    -.1970    7.2328
   -6.5314    -.1970    7.2328
   -6.5314    -.1970    7.2328
   -6.5314    -.1970    7.2328
   -6.5314    -.1970    7.7213
   -6.5314    -.1970    7.2328
   -6.5314    -.1970    7.7213
   -6.5314    -.1970    7.7213
   -6.5314    -.1970    7.7213
   -6.5314     .2874    7.7213
   -6.5314     .2874    7.7213
   -6.5314    -.1970    7.7213
   -6.5314    -.1970    7.7213
   -6.0431    -.1970    7.7213
   -6.0431     .2874    7.7213
   -6.5314    -.1970    7.7213
   -6.5314    -.1970    7.7213
   -6.5314    -.1970    7.7213
   -6.0431    -.1970    7.7213
   -6.0431     .2874    7.7213
   -6.0431    -.1970    7.7213
   -6.0431     .2874    7.7213
   -6.0431    -.1970    7.7213
   -6.0431     .2874    7.7213
   -6.0431    -.1970    7.7213
   -6.0431    -.1970    7.7213
   -6.0431    -.1970    7.7213
   -6.0431    -.1970    7.7213
   -6.0431    -.1970    7.7213
   -6.0431    -.1970    7.7213
   -6.0431    -.1970    7.2328
   -6.0431    -.1970    7.2328
   -6.0431    -.1970    7.2328
   -5.5549    -.1970    7.2328
   -5.5549     .2874    7.2328
   -5.5549    -.1970    7.2328
   -5.5549    -.1970    6.7443
   -5.5549     .2874    6.7443
   -5.5549     .2874    6.7443
   -5.5549     .2874    6.7443
   -5.5549     .2874    6.7443
   -5.5549     .2874    6.7443
   -5.0666     .2874    6.2558
   -5.0666     .2874    6.7443
   -5.0666     .2874    6.2558
   -5.0666     .2874    6.2558
   -5.0666     .2874    6.2558
   -4.5784     .2874    6.2558
   -4.5784     .2874    5.7673
   -4.5784    -.1970    5.7673
   -4.5784    -.1970    5.7673
   -4.5784    -.1970    5.7673
   -4.5784    -.1970    5.2788
   -4.5784    -.1970    5.2788
   -4.0901    -.1970    5.2788
   -4.0901    -.1970    5.2788
   -4.0901    -.1970    5.2788
   -4.0901    -.1970    4.7903
   -4.0901    -.1970    4.7903
   -3.6019    -.1970    4.7903
   -3.6019    -.1970    4.7903
   -3.6019    -.1970    4.7903
   -3.6019    -.1970    4.3019
   -3.6019    -.1970    4.3019
   -3.1136    -.1970    4.3019
   -3.1136    -.1970    3.8134
   -3.1136    -.1970    3.8134
   -3.1136    -.1970    3.8134
   -2.6254    -.1970    3.8134
   -2.6254    -.1970    3.3249
   -2.6254    -.1970    3.3249
   -2.6254    -.1970    3.3249
   -2.1371    -.1970    2.8364
   -2.1371    -.1970    2.8364
   -2.1371    -.1970    2.8364
   -2.1371    -.1970    2.3479
   -1.6486    -.1970    2.3479
   -1.6486    -.1970    2.3479
   -1.6486    -.1970    1.8594
   -1.1601    -.1970    1.8594
   -1.1601    -.1970    1.8594
   -1.1601    -.1970    1.3709
   -1.1601    -.1970    1.3709
    -.6717    -.1970     .8824
    -.6717    -.1970     .8824
    -.6717    -.1970     .8824
    -.6717    -.1970     .3940
    -.1832    -.1970     .3940
    -.1832    -.1970    -.0945
    -.1832    -.1970    -.0945
     .3053    -.1970    -.0945
     .3053    -.1970    -.0945
     .3053    -.1970    -.5830
     .3053    -.1970    -.5830
     .7938    -.1970   -1.0713
     .7938    -.1970   -1.0713
     .7938    -.1970   -1.5595
    1.2823    -.1970   -1.5595
    1.2823    -.1970   -1.5595
    1.2823    -.1970   -2.0478
    1.7708    -.1970   -2.0478
    1.7708    -.1970   -2.0478
    1.7708    -.1970   -2.5360
    1.7708    -.1970   -2.5360
    2.2593    -.1970   -3.0243
    2.2593    -.1970   -3.0243
    2.2593    -.1970   -3.0243
    2.7478     .2874   -3.5125
    2.7478    -.1970   -3.5125
    2.7478    -.1970   -3.5125
    2.7478    -.1970   -4.0008
    3.2362     .2874   -4.0008
    3.2362     .2874   -4.0008
    3.2362     .2874   -4.4890
    3.7247     .2874   -4.4890
    3.7247     .2874   -4.9773
    3.7247     .2874   -4.9773
    3.7247     .2874   -4.9773
    4.2132     .2874   -4.9773
    4.2132     .2874   -5.4655
    4.2132     .2874   -5.4655
    4.2132     .2874   -5.4655
    4.7017     .2874   -5.4655
    4.2132     .2874   -5.9538
    4.7017     .2874   -5.9538
    4.7017     .2874   -5.9538
    4.7017     .2874   -5.9538
    5.1902     .2874   -5.9538
    5.1902     .2874   -6.4420
    5.1902     .7717   -6.4420
    5.6787     .7717   -6.4420
    5.6787     .7717   -6.4420
    5.6787     .7717   -6.4420
    5.6787     .7717   -6.4420
    6.1672     .7717   -6.4420
    6.1672     .7717   -6.4420
    6.1672     .7717   -6.9303
    6.1672     .7717   -6.4420
    6.1672     .7717   -6.9303
    6.1672     .7717   -6.9303
    6.1672     .7717   -6.9303
    6.6557     .7717   -6.9303
    6.6557     .7717   -6.9303
    6.6557     .7717   -7.4185
    6.6557     .7717   -7.4185
    6.6557     .7717   -7.4185
    6.6557     .7717   -7.4185
    7.1441     .7717   -7.4185
    7.1441     .7717   -7.4185
    7.1441     .7717   -7.9068
    7.1441     .7717   -7.9068
    7.1441     .7717   -7.9068
    7.1441     .7717   -7.9068
    7.1441     .7717   -7.9068
    7.1441     .7717   -7.9068
    7.1441     .7717   -7.9068
    7.6326     .7717   -8.3950
    7.6326     .7717   -7.9068
    7.6326     .7717   -8.3950
    7.6326     .7717   -8.3950
    7.6326     .7717   -8.3950
    7.6326     .7717   -8.3950
    7.6326     .7717   -8.3950
    7.6326     .7717   -8.3950
    7.6326     .7717   -8.3950
    7.6326     .7717   -8.3950
    7.6326     .7717   -8.8832
    8.1211     .7717   -8.8832
    7.6326     .7717   -8.8832
    7.6326     .7717   -8.8832
    7.6326     .7717   -8.3950
    7.6326     .7717   -8.3950
    7.6326     .7717   -8.3950
    7.6326     .7717   -8.3950
    8.1211     .7717   -8.3950
    8.1211     .7717   -8.3950
    7.6326     .7717   -8.3950
    7.6326     .7717   -8.3950
    7.6326     .7717   -8.3950
    7.6326     .7717   -7.9068
    7.6326     .7717   -7.9068
    7.6326     .7717   -7.9068
    7.6326     .7717   -7.9068
    7.6326     .7717   -7.9068
    7.6326     .7717   -7.9068
    7.6326     .7717   -7.4185
    7.1441     .7717   -7.4185
    7.1441     .7717   -7.4185
    7.1441     .7717   -7.4185
    7.1441     .7717   -7.4185
    7.1441     .7717   -7.4185
    6.6557     .7717   -6.9303
    6.6557     .7717   -6.9303
    6.6557     .7717   -6.9303
    6.6557     .7717   -6.9303
    6.6557     .7717   -6.4420
    6.1672     .2874   -6.4420
    6.1672     .2874   -6.4420
    6.1672     .2874   -6.4420
    6.1672     .2874   -5.9538
    6.1672     .2874   -5.9538
    6.1672     .2874   -5.9538
    6.1672     .2874   -5.9538
    5.6787     .2874   -5.4655
    5.6787     .2874   -5.4655
    5.6787     .2874   -4.9773
    5.6787     .2874   -4.9773
    5.6787     .2874   -4.9773
    5.6787     .2874   -4.4890
    5.1902     .2874   -4.4890
    5.1902     .2874   -4.4890
    5.1902    -.1970   -4.0008
    5.1902     .2874   -4.0008
    5.1902     .2874   -4.0008
    5.1902     .2874   -3.5125
    4.7017     .2874   -3.5125
    4.7017     .2874   -3.5125
    4.7017     .2874   -3.0243
    4.7017     .2874   -3.0243
    4.7017     .2874   -2.5360
    4.7017     .2874   -2.5360
    4.2132     .2874   -2.5360
    4.2132     .2874   -2.0478
    4.2132     .2874   -2.0478
    4.2132     .2874   -2.0478
    3.7247     .2874   -1.5595
    3.7247     .2874   -1.5595
    3.7247     .2874   -1.0713
    3.7247     .2874   -1.0713
    3.7247     .2874   -1.0713
    3.2362     .2874    -.5830
    3.2362     .2874    -.5830
    3.2362     .2874    -.0945
    2.7478     .2874    -.0945
    3.2362     .2874     .3940
    2.7478     .2874     .3940
    2.7478     .2874     .3940
    2.2593     .2874     .3940
    2.2593     .2874     .8824
    2.2593     .2874     .8824
    2.2593     .2874    1.3709
    2.2593     .2874    1.3709
    1.7708     .2874    1.3709
    1.7708     .2874    1.8594
    1.7708    -.1970    1.8594
    1.2823    -.1970    1.8594
    1.2823    -.1970    1.8594
     .7938    -.1970    2.3479
     .7938    -.1970    2.3479
     .7938    -.1970    2.3479
     .3053    -.1970    2.8364
     .3053    -.1970    2.8364
     .3053    -.1970    2.8364
    -.1832    -.1970    3.3249
    -.1832    -.1970    3.3249
    -.1832    -.1970    3.3249
    -.6717    -.1970    3.8134
    -.6717    -.1970    3.8134
    -.6717    -.1970    3.8134
    -.6717    -.1970    4.3019
   -1.1601    -.1970    4.3019
   -1.1601    -.1970    4.3019
   -1.1601    -.1970    4.3019
   -1.1601    -.1970    4.7903
   -1.6486    -.1970    4.7903
   -1.6486    -.1970    4.7903
   -1.6486    -.1970    4.7903
   -1.6486    -.1970    5.2788
   -2.1371    -.1970    5.2788
   -2.1371    -.1970    5.2788
   -2.1371     .2874    5.2788
   -2.6254     .2874    5.7673
   -2.6254     .2874    5.7673
   -2.6254     .2874    5.7673
   -3.1136     .2874    5.7673
   -3.1136     .2874    5.7673
   -3.1136     .2874    5.7673
   -3.6019     .2874    5.7673
   -3.6019     .2874    6.2558
   -3.6019     .2874    6.2558
   -3.6019     .2874    6.2558
   -4.0901     .2874    6.2558
   -4.0901     .2874    6.2558
   -4.0901     .2874    6.2558
   -4.5784     .2874    6.2558
   -4.5784     .2874    6.2558
   -4.5784     .2874    6.2558
   -5.0666     .2874    6.2558
   -5.0666     .2874    6.2558
   -5.0666     .7717    6.2558
   -5.0666     .7717    6.2558
   -5.0666     .7717    6.2558
   -5.5549     .7717    6.7443
   -5.5549     .7717    6.7443
   -5.5549     .7717    6.7443
   -5.5549     .7717    6.7443
   -6.0431     .7717    6.2558
   -6.0431     .7717    6.2558
   -6.0431     .7717    6.7443
   -6.0431     .7717    6.7443
   -6.0431     .7717    6.7443
   -6.0431     .2874    6.7443
   -6.5314     .7717    6.7443
   -6.5314     .7717    6.7443
   -6.5314     .7717    6.7443
   -6.5314     .7717    6.7443
   -6.5314     .2874    6.7443
   -6.5314     .7717    6.7443
   -6.5314     .7717    6.7443
   -6.5314     .2874    6.7443
