********************************************************************************
           RED INTERUNIVERSITARIA DE INSTRUMENTACION SISIMICA (RIIS)
 AREA DE ESTRUCTURAS, UNIVERSIDAD AUTONOMA METROPOLITANA - UNIDAD AZCAPOTZALCO
         AV. SAN PABLO 180; COL. REYNOSA TAMAULIPAS; MEXICO D.F. 02200.
       TELS: 53189455; FAX: 53189085; e-mail: agb@azc.uam.mx
********************************************************************************
ARCHIVO ESTANDAR DE ACELERACION:
VERSION DEL FORMATO                    : 2.0
NOMBRE DEL ARCHIVO                     : RIDX0406.141
FECHA Y HORA DE CREACION               : NOVIEMBRE, 2004
REF. CATALOGO ACELEROGRAMAS, SMIS 1996 : 


================================================================================
DATOS DE LA ESTACION:
NOMBRE DE LA ESTACION                  : UAM XOCHIMILCO
CLAVE DE LA ESTACION                   : RIDX
LOCALIZACION DE LA ESTACION            : CALZADA DEL HUESO 1100, COLONIA VILLA
                                       : QUIETUD, PLANTEL XOCHIMILCO, FRENTE A
                                       : LA BIBLIOTECA, MEXICO, D.F.
                                       :
                                       :
COORDENADAS DE LA ESTACION             : 19.310 LAT. N 
                                       : 99.100 LONG. W 
ALTITUD (msnm)                         : 2235
TIPO DE SUELO                          : LIMOS Y ARENAS ARCILLOSAS
                                       : 
                                       : 
INSTITUCION RESPONSABLE                : RED INTERUNIVERSITARIA DE
                                       : INSTRUMENTACION SISMICA (RIIS)

================================================================================
DATOS DEL ACELEROGRAFO:
MODELO DEL ACELEROGRAFO                : SSA-2                      
NUMERO DE SERIE DEL ACELEROGRAFO       : 1320                       
NUMERO DE CANALES                      : 3                          
ORIENTACION C1-C6 (rumbo;orientacion)  : /N00E/+V/N90E
ORIENTACION C7-C12 (rumbo;orientacion) :                            
VEL. DE MUESTREO, C1-C6 (muestras/s)   : /200/200/200               
VEL. DE MUESTREO, C7-C12 (muestras/s)  :                            
ESC. COMPLETA DE SENSORES, C1-C6, (g)  : /1.0/1.0/1.0               
ESC. COMPLETA DE SENSORES, C7-C12, (g) :                            
FREC. NAT. DE SENSORES, C1-C6, (Hz)    : /50.0/50.0/50.0            
FREC. NAT. DE SENSORES, C7-C12, (Hz)   :                            
AMORTIGUAMIENTO DE SENSORES, C1-C6     : /0.7/0.7/0.7               
AMORTIGUAMIENTO DE SENSORES, C7-C12    :                            
INTERVALO DE MUESTREO, C1-C6, (s)      : /0.005/0.005/0.005         
INTERVALO DE MUESTREO, C7-C12, (s)     :                            
UMBRAL DE DISPARO, C1-C6, (Gal)        : /2/2/2                     
UMBRAL DE DISPARO, C7-C12, (Gal)       :                            
MEMORIA DE PREEVENTO (s)               : 15                         
TIEMPO DE POSEVENTO (s)                : 60                         


================================================================================
DATOS DEL SISMO:
FECHA DEL SISMO (GMT)                  : 14/JUN/2004
HORA EPICENTRO (GMT)                   : 22:54:22
MAGNITUD(ES)                           : /Mw=5.9
COORDENADAS DEL EPICENTRO              : 16.34 LAT. N
                                       : 97.85 LONG. W
PROFUNDIDAD FOCAL (km)                 : 10
FUENTES DE LOS DATOS EPICENTRALES      : SSN
                                       : SERVICIO SISMOLOGICO NACIONAL

================================================================================
DATOS DE ESTE REGISTRO:
HORA DE LA PRIMERA MUESTRA (GMT)       : 22:54:22
EXACTITUD DEL TIEMPO (s)               : 
DURACION DEL REGISTRO (s), C1-C6       : 83.20/83.20/83.20
DURACION DEL REGISTRO (s), C7-C12      : 
NUM. TOTAL DE MUESTRAS, C1-C6          : 16640/16640/16640
NUM. TOTAL DE MUESTRAS, C7-C12         : 
ACEL. MAX.(Gal), C1-C6                 : 16.2046/2.6248/8.4699
ACEL. MAX., C1-C6, EN LA MUESTRA       : 7911/8410/4251
ACEL. MAX.(Gal), C7-C12                : 
ACEL. MAX., C7-C12, EN LA MUESTRA      : 
UNIDADES DE LOS DATOS                  : Gal
FACTOR DE DECIMACION                   : 1
FORMATO DATOS (FORTRAN,10 campos/dato) : 3F10.4


===============================================================================
CALIDAD DEL ACELEROGRAMA:
REGISTRO DIGITAL COMPLETO, CARECE DE TIEMPO ABSOLUTO.


===============================================================================
COMENTARIOS:

CADA UNO DE LOS CANALES SE ENCUENTRA AJUSTADO POR LINEA BASE MEDIANTE LA
SUSTRACCION DEL PROMEDIO DE LAS ACELERACIONES EN EL TIEMPO.

MODELO DEL ACELEROGRAFO : SSA-2 (KINEMETRICS)









===============================================================================
DATOS DE ACELERACION:
---------+---------+---------+---------+---------+---------+---------+---------+
   CANAL-1   CANAL-2   CANAL-3   CANAL-4   CANAL-5   CANAL-6   CANAL-7   CANAL-8
      N00E        +V      N90E
---------+---------+---------+---------+---------+---------+---------+---------+
[...]
    2.9675    -.3164   -1.3391
    2.9675    -.3164    -.8487
    2.4773    -.3164   -1.3391
    2.4773    -.3164   -1.3391
    2.4773    -.3164   -1.3391
    1.9871    -.3164   -1.3391
    1.9871     .1738   -1.3391
    1.9871     .1738   -1.3391
    1.9871     .1738   -1.3391
    1.4970     .1738   -1.3391
    1.4970     .1738   -1.3391
    1.0067     .1738   -1.8296
    1.0067     .1738   -1.8296
    1.0067     .1738   -1.8296
     .5165     .1738   -1.8296
     .5165     .1738   -1.8296
     .5165     .1738   -1.8296
     .0263     .1738   -1.8296
     .0263     .6640   -1.8296
     .0263     .6640   -1.8296
    -.4639     .6640   -1.3391
    -.4639    1.1542   -1.3391
    -.4639     .6640   -1.3391
    -.4639     .6640   -1.3391
    -.9541     .6640   -1.3391
    -.9541    1.1542   -1.3391
    -.9541    1.1542   -1.3391
   -1.4444    1.1542   -1.3391
   -1.4444    1.1542   -1.3391
   -1.4444    1.1542   -1.3391
   -1.9346    1.1542   -1.3391
   -1.9346    1.1542   -1.3391
   -1.9346    1.1542    -.8487
   -2.4249    1.1542    -.8487
   -2.4249    1.1542    -.8487
   -2.4249    1.1542    -.8487
   -2.9149    1.1542    -.8487
   -2.9149    1.1542    -.8487
   -2.9149    1.1542    -.8487
   -2.9149    1.1542    -.8487
   -3.4051    1.1542    -.8487
   -3.4051    1.1542    -.8487
   -3.4051    1.1542    -.8487
   -3.4051    1.1542    -.8487
   -3.8954    1.1542    -.8487
   -3.8954    1.1542    -.8487
   -3.8954    1.1542    -.8487
   -3.8954    1.1542    -.8487
   -4.3856    1.1542    -.8487
   -4.3856    1.1542    -.3582
   -4.3856    1.1542    -.3582
   -4.3856    1.1542    -.3582
   -4.3856    1.1542    -.3582
   -4.8758    1.1542    -.3582
   -4.8758    1.1542    -.3582
   -5.3660    1.6444    -.3582
   -5.3660    1.6444    -.3582
   -5.3660    1.6444    -.3582
   -5.8562    1.6444    -.3582
   -5.8562    1.6444    -.3582
   -5.8562    1.6444    -.3582
   -5.8562    1.6444    -.3582
   -6.3465    1.6444    -.8487
   -6.3465    1.6444    -.8487
   -6.3465    1.6444    -.8487
   -6.8367    1.6444    -.8487
   -6.8367    1.6444    -.8487
   -7.3268    1.6444    -.8487
   -7.3268    1.6444    -.8487
   -7.3268    1.6444    -.8487
   -7.8170    1.6444    -.8487
   -7.8170    1.6444    -.8487
   -7.8170    1.6444    -.8487
   -7.8170    1.6444    -.8487
   -8.3073    1.6444   -1.3391
   -8.3073    1.6444   -1.3391
   -8.3073    1.6444   -1.3391
   -8.3073    1.6444   -1.3391
   -8.3073    1.6444   -1.3391
   -8.3073    1.6444   -1.3391
   -8.7975    1.6444   -1.3391
   -8.7975    1.6444   -1.8296
   -8.7975    1.6444   -1.8296
   -8.7975    1.6444   -1.8296
   -8.7975    1.6444   -1.8296
   -8.7975    1.6444   -1.8296
   -8.7975    1.6444   -1.8296
   -9.2876    1.6444   -1.8296
   -9.2876    1.6444   -1.8296
   -9.2876    1.6444   -2.3200
   -9.2876    1.6444   -2.3200
   -9.2876    1.6444   -2.3200
   -9.2876    1.6444   -2.3200
   -9.2876    1.6444   -2.3200
   -9.2876    1.6444   -2.3200
   -9.2876    1.6444   -2.3200
   -9.2876    1.6444   -2.3200
   -9.2876    1.1542   -2.3200
   -9.2876    1.1542   -2.3200
   -9.7779    1.1542   -2.3200
   -9.7779    1.1542   -2.8105
   -9.7779    1.1542   -2.8105
   -9.7779    1.1542   -2.8105
   -9.7779    1.1542   -2.8105
   -9.7779    1.1542   -2.8105
   -9.7779    1.1542   -2.8105
   -9.7779    1.1542   -2.8105
   -9.7779    1.1542   -2.8105
   -9.7779    1.1542   -3.3009
   -9.7779    1.1542   -3.3009
   -9.7779    1.1542   -3.3009
   -9.7779    1.1542   -3.3009
  -10.2681    1.1542   -3.3009
  -10.2681    1.1542   -3.3009
  -10.2681     .6640   -3.3009
  -10.2681     .6640   -3.3009
  -10.2681     .6640   -3.3009
  -10.2681     .6640   -3.3009
  -10.2681     .6640   -3.3009
  -10.2681     .6640   -3.3009
  -10.2681     .6640   -3.3009
  -10.2681     .6640   -3.3009
  -10.7584     .6640   -3.3009
  -10.7584     .6640   -3.3009
  -10.7584     .6640   -3.3009
  -10.7584     .6640   -3.3009
  -10.7584     .1738   -3.3009
  -10.7584     .1738   -3.7911
  -10.7584     .1738   -3.7911
  -11.2486     .1738   -3.3009
  -10.7584     .1738   -3.7911
  -10.7584     .1738   -3.3009
  -11.2486     .1738   -3.3009
  -11.2486     .1738   -3.3009
  -11.2486     .1738   -3.3009
  -11.2486    -.3164   -3.7911
  -11.2486     .1738   -3.7911
  -11.2486    -.3164   -3.7911
  -11.2486    -.3164   -3.7911
  -11.2486    -.3164   -3.7911
  -11.2486    -.3164   -3.3009
  -11.2486    -.3164   -3.3009
  -11.2486    -.3164   -3.3009
  -11.2486    -.3164   -3.3009
  -11.2486    -.3164   -3.3009
  -11.2486    -.3164   -3.3009
  -11.2486    -.3164   -3.3009
  -11.2486    -.3164   -3.3009
  -11.2486    -.3164   -3.3009
  -10.7584    -.3164   -3.3009
  -10.7584    -.3164   -3.3009
  -10.7584    -.3164   -2.8105
  -10.7584    -.3164   -2.8105
  -10.7584    -.3164   -2.8105
  -10.7584    -.3164   -2.8105
  -10.2681    -.3164   -2.8105
  -10.2681    -.3164   -2.3200
  -10.2681    -.3164   -2.3200
  -10.2681    -.3164   -2.3200
  -10.2681    -.3164   -2.3200
   -9.7779    -.3164   -2.3200
   -9.7779    -.3164   -1.8296
   -9.7779    -.3164   -1.8296
   -9.7779    -.3164   -1.8296
   -9.7779    -.3164   -1.8296
   -9.2876    -.3164   -1.8296
   -9.2876     .1738   -1.3391
   -9.2876    -.3164   -1.3391
   -9.2876    -.3164   -1.3391
   -8.7975    -.3164   -1.3391
   -8.7975    -.3164   -1.3391
   -8.7975     .1738   -1.3391
   -8.7975     .1738    -.8487
   -8.3073     .1738   -1.3391
   -8.3073    -.3164    -.8487
   -8.3073     .1738    -.8487
   -8.3073     .1738    -.8487
   -8.3073     .1738    -.8487
   -8.3073     .1738    -.8487
   -7.8170     .1738    -.8487
   -7.8170     .1738    -.3582
   -7.8170     .1738    -.3582
   -7.8170     .1738    -.3582
   -7.8170     .1738    -.3582
   -7.8170     .1738    -.3582
   -7.3268     .1738     .1322
   -7.3268     .1738     .1322
   -7.3268     .1738     .1322
   -7.3268     .1738     .1322
   -7.3268     .1738     .1322
   -6.8367     .1738     .1322
   -6.8367     .1738     .6227
   -6.8367     .1738     .6227
   -6.8367     .1738     .6227
   -6.8367     .1738     .6227
   -6.3465     .1738     .6227
   -6.3465     .1738     .6227
   -6.3465     .1738    1.1131
   -6.3465     .1738    1.1131
   -5.8562     .1738    1.1131
   -5.8562     .1738    1.1131
   -5.8562     .1738    1.1131
   -5.8562     .1738    1.1131
   -5.3660     .1738    1.6036
   -5.3660     .1738    1.6036
   -5.3660     .1738    1.6036
   -4.8758     .1738    1.6036
   -4.8758     .1738    1.6036
   -4.8758     .1738    2.0940
   -4.8758     .1738    1.6036
   -4.3856     .1738    2.0940
   -4.3856     .1738    2.0940
   -4.3856     .1738    2.0940
   -3.8954     .6640    2.5845
   -3.8954     .6640    2.5845
   -3.4051     .6640    2.5845
   -3.4051     .6640    3.0749
   -2.9149     .6640    3.0749
   -2.9149     .6640    3.0749
   -2.9149     .6640    3.0749
   -2.4249     .6640    3.0749
   -2.4249     .6640    3.0749
   -2.4249     .6640    3.5654
   -1.9346     .6640    3.5654
   -1.9346     .6640    3.5654
   -1.9346     .6640    3.5654
   -1.4444     .6640    3.5654
   -1.4444     .6640    3.5654
   -1.4444    1.1542    3.5654
   -1.4444     .6640    3.5654
    -.9541     .6640    3.5654
    -.9541     .6640    3.5654
    -.9541     .6640    4.0558
    -.4639     .6640    4.0558
    -.4639     .6640    4.0558
    -.4639     .6640    4.0558
     .0263     .6640    4.0558
     .0263     .6640    4.0558
     .0263     .6640    4.0558
     .0263     .6640    4.0558
     .5165     .6640    4.0558
     .5165     .1738    4.0558
     .5165     .1738    4.0558
    1.0067     .1738    4.0558
    1.0067     .1738    4.0558
    1.0067     .1738    4.5463
    1.4970     .1738    4.5463
    1.4970     .1738    4.5463
    1.4970     .1738    4.5463
    1.4970     .1738    4.5463
    1.9871     .1738    4.5463
    1.9871     .1738    4.5463
    1.9871    -.3164    4.5463
    2.4773    -.3164    4.5463
    2.4773    -.3164    4.5463
    2.4773    -.3164    4.5463
    2.9675    -.3164    4.5463
    2.9675    -.3164    4.5463
    2.9675    -.3164    4.5463
    3.4578    -.3164    5.0367
    3.4578    -.3164    5.0367
    3.4578    -.3164    5.0367
    3.4578    -.3164    5.0367
    3.9480    -.3164    5.0367
    3.9480    -.3164    5.0367
    4.4382    -.3164    5.0367
    4.9284    -.8067    5.0367
    4.9284    -.8067    5.0367
    5.4186    -.8067    5.0367
    5.9088    -.3164    5.0367
    5.9088    -.3164    5.0367
    6.3990    -.3164    5.0367
    6.3990    -.3164    5.0367
    6.3990    -.8067    5.0367
    6.8892    -.8067    5.0367
    6.8892    -.8067    5.0367
    7.3794    -.8067    5.0367
    7.3794    -.8067    5.0367
    7.3794    -.8067    5.0367
    7.8697    -.8067    5.0367
    7.8697    -.8067    5.0367
    8.3599    -.8067    5.0367
    8.3599    -.8067    5.0367
    8.8501    -.8067    5.0367
    8.8501   -1.2969    5.0367
    8.8501   -1.2969    5.0367
    9.3403   -1.2969    5.0367
    9.3403   -1.2969    5.0367
    9.8305   -1.2969    5.0367
    9.8305   -1.2969    5.0367
   10.3207   -1.2969    5.0367
   10.3207   -1.2969    5.0367
   10.8109   -1.2969    5.0367
   10.8109   -1.2969    5.0367
   11.3011   -1.2969    5.0367
   11.3011   -1.2969    5.0367
   11.3011   -1.2969    5.0367
   11.7913   -1.2969    5.0367
   11.7913   -1.2969    5.0367
   11.7913   -1.7871    5.0367
   12.2815   -1.7871    5.0367
   12.2815   -1.7871    5.0367
   12.7717   -1.7871    4.5463
   12.7717   -1.7871    4.5463
   12.7717   -1.7871    4.5463
   13.2620   -1.7871    4.5463
   13.2620   -1.7871    4.5463
   13.2620   -1.7871    4.5463
   13.7524   -1.7871    4.5463
   13.7524   -1.7871    4.0558
   13.7524   -1.7871    4.0558
   14.2428   -1.7871    4.0558
   14.2428   -1.7871    4.0558
   14.2428   -1.7871    4.0558
   14.2428   -1.7871    4.0558
   14.7333   -1.7871    4.0558
   14.7333   -1.7871    4.0558
   14.7333   -1.7871    4.0558
   15.2238   -1.7871    4.0558
   15.2238   -1.7871    4.0558
   15.2238   -1.7871    4.0558
   15.2238   -1.7871    4.0558
   15.2238   -1.7871    3.5654
   15.7142   -1.7871    3.5654
   15.7142   -1.7871    3.5654
   15.7142   -1.7871    3.5654
   15.7142   -1.7871    3.5654
   15.7142   -1.7871    3.5654
   15.7142   -1.7871    3.5654
   15.7142   -1.7871    3.5654
   15.7142   -1.7871    3.5654
   15.7142   -1.7871    3.0749
   15.7142   -1.7871    3.0749
   15.7142   -1.7871    3.0749
   15.7142   -1.7871    2.5845
   16.2046   -1.7871    2.5845
   16.2046   -1.7871    2.5845
   16.2046   -1.7871    2.5845
   16.2046   -1.7871    2.5845
   16.2046   -1.7871    2.5845
   16.2046   -1.7871    2.5845
   16.2046   -1.7871    2.5845
   16.2046   -1.7871    2.0940
   16.2046   -1.7871    2.0940
   16.2046   -1.7871    2.0940
   16.2046   -1.7871    2.0940
   16.2046   -1.2969    2.0940
   16.2046   -1.2969    1.6036
   16.2046   -1.2969    1.6036
   15.7142   -1.7871    1.6036
   15.7142   -1.2969    1.6036
   15.7142   -1.2969    1.6036
   15.7142   -1.2969    1.1131
   15.2238   -1.2969    1.1131
   15.2238   -1.2969    1.1131
   15.2238   -1.2969    1.1131
   15.2238   -1.2969    1.1131
   14.7333   -1.2969    1.1131
   14.7333   -1.2969     .6227
   14.7333   -1.2969     .6227
   14.2428   -1.2969     .6227
   14.2428   -1.2969     .6227
   13.7524   -1.2969     .6227
   13.7524   -1.2969     .6227
   13.7524   -1.2969     .6227
   13.2620   -1.2969     .6227
   13.2620   -1.2969     .6227
   12.7717   -1.2969     .6227
   12.7717   -1.2969     .1322
   12.2815   -1.2969     .1322
   12.2815   -1.2969     .1322
   11.7913   -1.2969     .1322
   11.7913   -1.2969     .1322
   11.3011    -.8067     .1322
   11.3011    -.8067     .1322
   10.8109    -.8067     .1322
   10.8109    -.8067    -.3582
   10.3207    -.8067    -.3582
   10.3207    -.8067    -.3582
    9.8305    -.8067    -.3582
    9.8305    -.8067    -.3582
    9.8305    -.8067    -.3582
    9.3403    -.8067    -.3582
    9.3403    -.8067    -.3582
    8.8501    -.8067    -.8487
    8.8501    -.3164    -.8487
    8.3599    -.3164    -.8487
    8.3599    -.3164    -.8487
    7.8697    -.3164    -.8487
    7.8697    -.3164    -.8487
    7.3794    -.3164    -.8487
    7.3794    -.3164    -.8487
    6.8892    -.3164    -.8487
    6.8892    -.3164   -1.3391
    6.3990    -.3164   -1.3391
    5.9088    -.3164   -1.3391
    5.9088    -.3164   -1.3391
    5.4186    -.3164   -1.3391
    5.4186    -.3164   -1.3391
    5.4186    -.3164   -1.3391
    4.9284     .1738   -1.3391
    4.9284     .1738   -1.3391
    4.9284     .1738   -1.3391
    4.4382     .1738   -1.3391
    3.9480     .1738   -1.8296
    3.9480     .1738   -1.8296
    3.9480     .1738   -1.8296
    3.4578     .1738   -1.8296
    3.4578     .6640   -1.8296
    3.4578     .6640   -1.8296
    2.9675     .6640   -1.8296
    2.9675     .6640   -1.8296
    2.4773     .6640   -1.8296
    2.4773     .6640   -1.8296
    1.9871     .6640   -1.8296
    1.9871     .6640   -1.8296
    1.9871    1.1542   -1.8296
    1.4970     .6640   -2.3200
    1.4970     .6640   -2.3200
    1.0067     .6640   -2.3200
    1.0067    1.1542   -2.3200
     .5165    1.1542   -2.3200
     .5165     .6640   -2.3200
     .0263    1.1542   -2.3200
     .0263    1.1542   -2.3200
     .0263    1.1542   -2.8105
    -.4639     .6640   -2.3200
    -.4639    1.1542   -2.8105
    -.9541     .6640   -2.8105
    -.9541     .6640   -2.8105
   -1.4444     .6640   -2.8105
   -1.4444    1.1542   -2.8105
   -1.9346     .6640   -2.8105
   -1.9346     .6640   -2.8105
   -2.4249     .6640   -2.8105
   -2.4249    1.1542   -2.8105
   -2.4249    1.1542   -2.8105
   -2.9149    1.1542   -2.8105
   -2.9149    1.1542   -2.8105
   -3.4051    1.1542   -2.8105
   -3.4051    1.1542   -2.8105
   -3.4051    1.1542   -2.8105
   -3.8954    1.1542   -2.8105
   -3.8954    1.1542   -2.8105
   -3.8954    1.1542   -2.8105
   -4.3856    1.1542   -2.8105
   -4.3856    1.1542   -2.8105
   -4.3856    1.1542   -2.8105
   -4.3856    1.1542   -2.8105
   -4.8758    1.1542   -2.8105
   -4.8758    1.1542   -2.8105
   -4.8758    1.1542   -2.8105
   -4.8758    1.1542   -2.8105
   -4.8758    1.1542   -2.8105
   -5.3660    1.1542   -3.3009
   -5.3660    1.1542   -3.3009
   -5.3660    1.1542   -3.3009
   -5.8562    1.1542   -3.3009
   -5.3660    1.1542   -3.3009
   -5.8562    1.1542   -3.3009
   -5.8562    1.1542   -3.3009
   -5.8562    1.1542   -3.3009
   -5.8562    1.1542   -3.3009
   -5.8562    1.1542   -3.3009
   -5.8562    1.1542   -3.3009
   -5.8562    1.1542   -3.3009
   -5.8562    1.1542   -3.7911
   -5.8562    1.1542   -3.3009
   -5.8562    1.1542   -3.3009
   -5.8562    1.1542   -3.3009
   -5.8562    1.1542   -3.3009
   -5.8562    1.6444   -3.3009
   -5.8562    1.1542   -3.3009
   -5.8562    1.1542   -3.3009
   -5.8562    1.1542   -3.3009
   -5.8562    1.1542   -3.3009
   -6.3465    1.6444   -3.3009
   -6.3465    1.1542   -3.3009
   -6.3465    1.1542   -3.3009
