**************************************************************************************
            UNIVERSIDAD AUTONOMA METROPOLITANA - AZCAPOTZALCO
                        Departamento de Materiales
                           Area de Estructuras
     AV. SAN PABLO 180,COL.REYNOSA, AZCAPOTZALCO, C.P.02200 CIUDAD DE MEXICO.
**************************************************************************************
ARCHIVO ESTANDAR DE ACELERACION:
VERSION DEL FORMATO                    : 2.0
NOMBRE DEL ARCHIVO                     : RIDA201605081
FECHA Y HORA DE CREACION               : MON JUL 18 12:30:07 2018
REF. CATALOGO ACELEROGRAMAS, SMIS 1995 : REGISTRO NO.      /PAG.    


================================================================================
DATOS DE LA ESTACION:
NOMBRE DE LA ESTACION                  : UAM-AZCAPOTZALCO.
CLAVE DE LA ESTACION                   : RIDA
LOCALIZACION DE LA ESTACION            : AV. SAN PABLO 180,COL.REYNOSA, AZCAPOTZALCO,
                                       : C.P.02200 CIUDAD DE MEXICO.
                                       :
                                       : 
                                       : 
COORDENADAS DE LA ESTACION             : 19.498596 LAT. N
                                       : 99.195595 LONG. W
ALTITUD (msnm)                         : 2246
TIPO DE SUELO                          : TRANSICION 
                                       : 
                                       : 
INSTITUCION RESPONSABLE                : UNIVERSIDAD AUTONOMA METROPOLITANA
                                       : 

================================================================================
DATOS DEL ACELEROGRAFO: 
MODELO DEL ACELEROGRAFO                : BASALT KINEMETRICS
NUMERO DE SERIE DEL ACELEROGRAFO       : 1730
NUMERO DE CANALES                      : 3
ORIENTACION C1-C6 (rumbo;orientacion)  : /V/N00E/N90E
ORIENTACION C7-C12 (rumbo;orientacion) : 
VEL. DE MUESTREO, C1-C6 (muestras/s)   : /250/250/250
VEL. DE MUESTREO, C7-C12 (muestras/s)  : 
ESC. COMPLETA DE SENSORES, C1-C6, (g)  : /2/2/2
ESC. COMPLETA DE SENSORES, C7-C12 (g)  : 
FREC. NAT. DE SENSORES, C1-C6, (Hz)    : /210/106/212
FREC. NAT. DE SENSORES, C7-C12 (Hz)    : 
AMORTIGUAMIENTO DE SENSORES, C1-C6     : /0.7/0.7/0.7   
AMORTIGUAMIENTO DE SENSORES, C7-C12    : 
INTERVALO DE MUESTREO, C1-C6 (s)       : /0.004/0.004/0.004
INTERVALO DE MUESTREO, C7-C12 (s)      : 
UMBRAL DE DISPARO, C1-C6 (Gal)         : /2/2/2
UMBRAL DE DISPARO, C7-C12 (Gal)        : 
MEMORIA DE PREEVENTO (s)               : 30
TIEMPO DE POSEVENTO (s)                : 60


================================================================================
DATOS DEL SISMO:
FECHA DEL SISMO [GMT]                  : 2016/05/08
HORA EPICENTRO (GMT)                   : 07:33:59
MAGNITUD(ES)                           : /M=6.0
COORDENADAS DEL EPICENTRO              : 16.323 LAT. N
                                       : 97.8773 LONG. W
PROFUNDIDAD FOCAL (Km)                 : 7.4
FUENTE DE LOS DATOS EPICENTRALES       : SSN
                                       : INSTITUTO DE GEOFISICA, UNAM

================================================================================
DATOS DE ESTE REGISTRO:
HORA DE LA PRIMERA MUESTRA (GMT)       : 07:35:07.00
EXACTITUD DEL TIEMPO (s)               : 
DURACION DEL REGISTRO (s), C1-C6       : /131.00/131.00/131.00
DURACION DEL REGISTRO (s), C7-C12      : 
NUM. TOTAL DE MUESTRAS, C1-C6          : /32750/32750/32750
NUM. TOTAL DE MUESTRAS, C7-C12         : 
ACEL. MAX.(Gal), C1-C6                 : /0.672/-2.615/-3.130
ACEL. MAX., C1-C6, EN LA MUESTRA       : /11481/9359/12894
ACEL. MAX.(Gal), C7-C12                : 
ACEL. MAX., C7-C12,EN LA MUESTRA       : 
UNIDADES DE LOS DATOS                  : Gal (cm/s/s)
FACTOR DE DECIMACION                   : 1
FORMATO DATOS (FORTRAN,16 campos/dato) : 3E16.7


================================================================================
CALIDAD DEL ACELEROGRAMA:
REGISTRO DIGITAL COMPLETO CON TIEMPO ABSOLUTO CORRECTO


================================================================================
COMENTARIOS:














================================================================================
DATOS DE ACELERACION:
---------+---------+---------+---------+---------+---------+---------+---------+
   CANAL-1   	    CANAL-2          CANAL-3
         V           N00E             N90E
---------+---------+---------+---------+---------+---------+---------+---------+ 
[...]
  3.5203561e-001  5.8939642e-002 -3.1747302e-001
  3.4852716e-001  4.5724788e-002 -3.2823184e-001
  3.4139372e-001  3.2744196e-002 -3.2905039e-001
  3.4653927e-001  2.0932956e-002 -3.4121283e-001
  3.3753447e-001  2.1283761e-002 -3.4132976e-001
  3.3227199e-001  5.2620691e-003 -3.5641558e-001
  3.4151066e-001 -1.5787836e-002 -3.7664694e-001
  3.3578044e-001 -1.9295892e-002 -3.8038926e-001
  3.4221227e-001 -3.5083714e-002 -4.0833873e-001
  3.3320748e-001 -5.2040495e-002 -4.2248907e-001
  3.3075184e-001 -6.6190832e-002 -4.3710714e-001
  3.3905502e-001 -8.0808909e-002 -4.5745544e-001
  3.2443694e-001 -9.0983056e-002 -4.6178243e-001
  3.2139624e-001 -1.1635996e-001 -4.7756986e-001
  3.0514107e-001 -1.3343367e-001 -4.7090416e-001
  2.9520079e-001 -1.4863643e-001 -4.6762959e-001
  2.8970444e-001 -1.6992020e-001 -4.6961748e-001
  2.6818640e-001 -1.8734512e-001 -4.6704491e-001
  2.5579049e-001 -2.1318976e-001 -4.7768680e-001
  2.3637767e-001 -2.3084815e-001 -4.7569890e-001
  2.2175960e-001 -2.5107951e-001 -4.8587305e-001
  2.0012502e-001 -2.7470238e-001 -4.9300649e-001
  1.7077193e-001 -2.9002207e-001 -4.8669159e-001
  1.6363849e-001 -3.1820581e-001 -4.9955525e-001
  1.4609664e-001 -3.3832023e-001 -5.0037380e-001
  1.2925679e-001 -3.5516008e-001 -5.0715682e-001
  1.1908264e-001 -3.8112165e-001 -5.2598496e-001
  9.2185193e-002 -3.8895710e-001 -5.1920193e-001
  8.3063855e-002 -4.0895459e-001 -5.3931636e-001
  6.6106682e-002 -4.3117384e-001 -5.6305617e-001
  3.8040272e-002 -4.3561777e-001 -5.6270536e-001
  2.3539130e-002 -4.4473950e-001 -5.7556902e-001
  7.2839596e-003 -4.5222375e-001 -5.8410607e-001
 -1.0140955e-002 -4.5596607e-001 -5.9685318e-001
 -3.7038013e-002 -4.5900678e-001 -6.0609146e-001
 -5.4345992e-002 -4.6298296e-001 -6.0901523e-001
 -7.4343481e-002 -4.5397817e-001 -6.0971684e-001
 -9.0715586e-002 -4.5596607e-001 -6.1954018e-001
 -1.0673689e-001 -4.5865597e-001 -6.2901272e-001
 -1.3164605e-001 -4.4953424e-001 -6.2187928e-001
 -1.4076778e-001 -4.5409510e-001 -6.3135142e-001
 -1.6006365e-001 -4.4146493e-001 -6.3848526e-001
 -1.7374586e-001 -4.3515003e-001 -6.5088117e-001
 -1.9432802e-001 -4.2789966e-001 -6.5965210e-001
 -2.1631380e-001 -4.1246303e-001 -6.6163999e-001
 -2.2508473e-001 -4.0778523e-001 -6.7894797e-001
 -2.4636850e-001 -3.9176354e-001 -6.8608141e-001
 -2.5829668e-001 -3.8884016e-001 -6.8958986e-001
 -2.7408411e-001 -3.8299301e-001 -6.8561367e-001
 -2.8531067e-001 -3.6790719e-001 -6.9029147e-001
 -2.9630376e-001 -3.5469234e-001 -6.9602169e-001
 -3.0717951e-001 -3.4206255e-001 -6.8643222e-001
 -3.0285252e-001 -3.3656581e-001 -6.7929878e-001
 -3.0764726e-001 -3.2557312e-001 -6.7239921e-001
 -3.0542509e-001 -3.2019371e-001 -6.7485485e-001
 -3.1337747e-001 -3.0452321e-001 -6.6432990e-001
 -3.1279280e-001 -2.9551842e-001 -6.5906742e-001
 -2.9747311e-001 -2.9458294e-001 -6.6573312e-001
 -3.0343720e-001 -2.7470238e-001 -6.5895048e-001
 -2.9478321e-001 -2.7411771e-001 -6.6304361e-001
 -2.9314611e-001 -2.6955684e-001 -6.4901021e-001
 -2.9162596e-001 -2.5470489e-001 -6.3719897e-001
 -2.6823695e-001 -2.5716092e-001 -6.4386467e-001
 -2.6601518e-001 -2.5096257e-001 -6.2480266e-001
 -2.6776921e-001 -2.3728037e-001 -6.0691040e-001
 -2.5712732e-001 -2.2511793e-001 -5.9346167e-001
 -2.4765479e-001 -2.0909663e-001 -5.8036375e-001
 -2.4309392e-001 -1.9471243e-001 -5.6738316e-001
 -2.3935160e-001 -1.8208264e-001 -5.4188932e-001
 -2.3701290e-001 -1.6477466e-001 -5.2200877e-001
 -2.3736371e-001 -1.4840256e-001 -5.0481773e-001
 -2.3724677e-001 -1.2676797e-001 -4.8528798e-001
 -2.4402941e-001 -1.0712129e-001 -4.6049615e-001
 -2.4894108e-001 -1.0139107e-001 -4.4201882e-001
 -2.5396968e-001 -8.5603644e-002 -4.3301402e-001
 -2.6671680e-001 -6.5606156e-002 -4.1289960e-001
 -2.7642320e-001 -5.2859042e-002 -3.9372065e-001
 -2.9092434e-001 -3.4498646e-002 -3.7313849e-001
 -3.0343720e-001 -1.7775735e-002 -3.5653251e-001
 -3.1080490e-001 -2.4560465e-003 -3.4331766e-001
 -3.3700034e-001  2.3973271e-002 -3.0952103e-001
 -3.5512648e-001  4.5607852e-002 -2.8227278e-001
 -3.5863493e-001  6.6892021e-002 -2.5876684e-001
 -3.7360381e-001  9.8233009e-002 -2.2602263e-001
 -3.8576585e-001  1.2162201e-001 -1.9245948e-001
 -3.9746055e-001  1.4419207e-001 -1.5258144e-001
 -3.9921458e-001  1.6547585e-001 -1.2930976e-001
 -4.0167061e-001  1.9588136e-001 -9.5746613e-002
 -4.1780885e-001  2.3681182e-001 -4.5226682e-002
 -4.1722417e-001  2.5610769e-001 -1.5990528e-002
 -4.1769191e-001  2.8698094e-001  2.3068576e-002
 -4.2178504e-001  3.3352507e-001  7.0197385e-002
 -4.1886126e-001  3.6252697e-001  1.0516376e-001
 -4.1815965e-001  3.8673451e-001  1.4492486e-001
 -4.2213584e-001  4.2146702e-001  1.9439238e-001
 -4.2119997e-001  4.5713500e-001  2.3789541e-001
 -4.1032421e-001  4.8473406e-001  2.7742265e-001
 -4.1207863e-001  5.1619198e-001  3.3051555e-001
 -3.9921458e-001  5.4168582e-001  3.7390164e-001
 -3.8868963e-001  5.8366869e-001  4.2313529e-001
 -3.8752028e-001  6.2354674e-001  4.7470763e-001
 -3.7477316e-001  6.4120552e-001  5.1762638e-001
 -3.7395461e-001  6.7956301e-001  5.7726804e-001
 -3.5512648e-001  7.0505685e-001  6.1901705e-001
 -3.4588820e-001  7.3242204e-001  6.7035553e-001
 -3.4121040e-001  7.5288727e-001  7.2379923e-001
 -3.2448710e-001  7.6738841e-001  7.6239059e-001
 -3.2132985e-001  8.0796807e-001  8.1700365e-001
 -2.9946101e-001  8.3053813e-001  8.5805104e-001
 -2.9267837e-001  8.6304886e-001  9.0833710e-001
 -2.8659735e-001  8.9322050e-001  9.5581672e-001
 -2.5689345e-001  9.1824659e-001  9.9487582e-001
 -2.4321086e-001  9.5695489e-001  1.0478518e+000
 -2.2169321e-001  9.7133910e-001  1.0903024e+000
 -2.0216346e-001  9.8934869e-001  1.1409393e+000
 -1.8777926e-001  1.0153103e+000  1.1964882e+000
 -1.5292982e-001  1.0329690e+000  1.2397574e+000
 -1.3503756e-001  1.0542528e+000  1.2909789e+000
 -1.1363645e-001  1.0617371e+000  1.3389263e+000
 -9.1066392e-002  1.0754197e+000  1.3861716e+000
 -8.2061596e-002  1.1031353e+000  1.4439423e+000
 -5.9023792e-002  1.1074623e+000  1.4894336e+000
 -6.1128626e-002  1.1169348e+000  1.5512971e+000
 -4.7679901e-002  1.1151808e+000  1.6098863e+000
 -2.6279190e-002  1.1048897e+000  1.6611078e+000
 -2.8852156e-002  1.1054744e+000  1.7329116e+000
 -1.8092941e-002  1.0833720e+000  1.7877585e+000
 -1.9730426e-002  1.0682862e+000  1.8512594e+000
 -1.3883274e-002  1.0496920e+000  1.9097313e+000
 -9.0885380e-003  1.0288759e+000  1.9590819e+000
 -1.3883274e-002  1.0049022e+000  2.0127595e+000
 -1.4117144e-002  9.7309352e-001  2.0562625e+000
 -1.2479659e-002  9.5169241e-001  2.1064316e+000
 -4.2938024e-003  9.1333492e-001  2.1459589e+000
 -9.6732140e-003  8.7217059e-001  2.1852522e+000
 -1.5988107e-002  8.2703007e-001  2.2279367e+000
 -2.0782843e-002  7.8855525e-001  2.2658269e+000
 -1.1427242e-002  7.4435022e-001  2.2889816e+000
 -1.2245788e-002  6.9289480e-001  2.3168145e+000
 -1.9145750e-002  6.4705267e-001  2.3521317e+000
 -3.5921912e-003  5.8717714e-001  2.3672175e+000
 -1.3064335e-002  5.5478374e-001  2.4039379e+000
 -7.8018584e-003  5.0098923e-001  2.4183221e+000
 -1.7208356e-003  4.3807299e-001  2.4281455e+000
 -7.1002472e-003  4.0076792e-001  2.4647489e+000
  1.1142821e-002  3.3644845e-001  2.4694267e+000
  8.8041172e-003  2.8791681e-001  2.4896581e+000
  1.5703686e-002  2.3037999e-001  2.5005338e+000
  2.2954454e-002  1.6839962e-001  2.5057967e+000
  2.8099995e-002  1.1787969e-001  2.5246245e+000
  4.2718072e-002  5.0987656e-002  2.5193620e+000
  4.0846716e-002 -7.1338469e-003  2.5228704e+000
  5.7102279e-002 -7.3558142e-002  2.5160878e+000
  6.6457487e-002 -1.2852200e-001  2.5124624e+000
  7.4409866e-002 -1.8512296e-001  2.5034576e+000
  9.1366647e-002 -2.5879802e-001  2.4714150e+000
  9.2419456e-002 -3.1411268e-001  2.4578494e+000
  1.0376296e-001 -3.6650358e-001  2.4356301e+000
  1.1908264e-001 -4.2708072e-001  2.4019500e+000
  1.2738544e-001 -4.9128325e-001  2.3741171e+000
  1.3989868e-001 -5.5419948e-001  2.3419576e+000
  1.5954536e-001 -6.1676452e-001  2.3041843e+000
  1.7650214e-001 -6.7511990e-001  2.2591612e+000
  1.9369319e-001 -7.3265633e-001  2.2066529e+000
  2.0971449e-001 -7.9580644e-001  2.1486488e+000
  2.2947811e-001 -8.5556504e-001  2.0832769e+000
  2.4830585e-001 -9.0678658e-001  2.0173203e+000
  2.6128683e-001 -9.6794840e-001  1.9384997e+000
  2.7871175e-001 -1.0318001e+000  1.8519610e+000
  2.9344637e-001 -1.0876995e+000  1.7760642e+000
  3.1344386e-001 -1.1516677e+000  1.6835610e+000
  3.2139624e-001 -1.2037082e+000  1.5909412e+000
  3.2396920e-001 -1.2552806e+000  1.5034666e+000
  3.4384936e-001 -1.3141037e+000  1.3981002e+000
  3.5998799e-001 -1.3616998e+000  1.2946043e+000
  3.6337911e-001 -1.4014609e+000  1.1950846e+000
  3.6946053e-001 -1.4462506e+000  1.0837536e+000
  3.8021935e-001 -1.4888182e+000  9.7710049e-001
  3.8536489e-001 -1.5112717e+000  8.7149977e-001
  3.9647452e-001 -1.5417942e+000  7.4999468e-001
  3.9635758e-001 -1.5716150e+000  6.4018389e-001
  3.9834548e-001 -1.5987459e+000  5.2663079e-001
  4.0559625e-001 -1.6168724e+000  4.0594464e-001
  4.0547932e-001 -1.6242398e+000  2.8291899e-001
  4.1202808e-001 -1.6517219e+000  1.4656196e-001
  3.9729307e-001 -1.6621299e+000  2.8682250e-002
  3.9495436e-001 -1.6703158e+000 -1.0592076e-001
  3.9670839e-001 -1.6765141e+000 -2.4683866e-001
  3.7799719e-001 -1.6699649e+000 -3.6857762e-001
  3.7624316e-001 -1.6834137e+000 -5.0329757e-001
  3.6197589e-001 -1.6802560e+000 -6.2234702e-001
  3.5133400e-001 -1.6732395e+000 -7.4864685e-001
  3.4244614e-001 -1.6711343e+000 -8.7962447e-001
  3.1625069e-001 -1.6648194e+000 -9.9212477e-001
  3.0666122e-001 -1.6668077e+000 -1.1208806e+000
  2.9613627e-001 -1.6538267e+000 -1.2453091e+000
  2.7917949e-001 -1.6416647e+000 -1.3633061e+000
  2.6198845e-001 -1.6291514e+000 -1.4772096e+000
  2.5427033e-001 -1.6157027e+000 -1.5931015e+000
  2.4503166e-001 -1.5943020e+000 -1.7057191e+000
  2.2865956e-001 -1.5683404e+000 -1.8102674e+000
  2.1474309e-001 -1.5562953e+000 -1.9208967e+000
  1.9018474e-001 -1.5247200e+000 -2.0195975e+000
  1.9076941e-001 -1.5013314e+000 -2.1331506e+000
  1.8293436e-001 -1.4649618e+000 -2.2298635e+000
  1.6819935e-001 -1.4226278e+000 -2.3207292e+000
  1.6995338e-001 -1.3954968e+000 -2.4230553e+000
  1.5907762e-001 -1.3376092e+000 -2.4983675e+000
  1.6808242e-001 -1.2910655e+000 -2.5912215e+000
  1.6328768e-001 -1.2394931e+000 -2.6597506e+000
  1.5650465e-001 -1.1869849e+000 -2.7246547e+000
  1.6317075e-001 -1.1395057e+000 -2.8021891e+000
  1.6293688e-001 -1.0726136e+000 -2.8586731e+000
  1.6738041e-001 -1.0181175e+000 -2.9241619e+000
  1.6211794e-001 -9.6479076e-001 -2.9711734e+000
  1.6995338e-001 -9.1263373e-001 -3.0216933e+000
  1.6422316e-001 -8.4656024e-001 -3.0575952e+000
  1.6211794e-001 -7.9112864e-001 -3.0829721e+000
  1.7007031e-001 -7.4657280e-001 -3.1139626e+000
  1.5650465e-001 -6.8424124e-001 -3.1171199e+000
  1.6352155e-001 -6.4120594e-001 -3.1298670e+000
  1.5790827e-001 -5.9407753e-001 -3.1331412e+000
  1.4586277e-001 -5.4496082e-001 -3.1268263e+000
  1.4434261e-001 -5.0122352e-001 -3.1233178e+000
  1.3346685e-001 -4.5070359e-001 -3.1097526e+000
  1.3054308e-001 -4.1187797e-001 -3.0957192e+000
  1.1580807e-001 -3.6568503e-001 -3.0677693e+000
  1.0352908e-001 -3.1808887e-001 -3.0359606e+000
  9.8617414e-002 -2.6628226e-001 -2.9998248e+000
  8.5753365e-002 -2.1307282e-001 -2.9540997e+000
  7.6514699e-002 -1.7939274e-001 -2.9094269e+000
  5.8505501e-002 -1.3097803e-001 -2.8522412e+000
  4.5290646e-002 -8.1276650e-002 -2.7865182e+000
  4.0378976e-002 -4.4790120e-002 -2.7230176e+000
  2.3422194e-002 -9.0048101e-003 -2.6491087e+000
  4.5940576e-003  1.9412406e-002 -2.5693526e+000
 -8.1526640e-003  6.0225930e-002 -2.4908832e+000
 -1.9496556e-002  9.9285426e-002 -2.4119457e+000
 -3.5283985e-002  1.3191309e-001 -2.3286815e+000
 -5.1305284e-002  1.6418956e-001 -2.2444815e+000
 -5.8204854e-002  1.8594108e-001 -2.1642577e+000
 -7.1068903e-002  2.1716552e-001 -2.0757307e+000
 -8.4283758e-002  2.3751382e-001 -1.9901275e+000
 -9.0832521e-002  2.4768797e-001 -1.9032379e+000
 -1.0322844e-001  2.7131045e-001 -1.8083960e+000
 -1.0580140e-001  2.7961363e-001 -1.7185827e+000
 -1.1129775e-001  2.9072326e-001 -1.6194142e+000
 -1.2334286e-001  3.0697843e-001 -1.5232860e+000
 -1.2439567e-001  3.1598322e-001 -1.4307828e+000
 -1.2112109e-001  3.3481136e-001 -1.3361748e+000
 -1.1960093e-001  3.4264641e-001 -1.2501038e+000
 -1.3000895e-001  3.5644594e-001 -1.1509353e+000
 -1.2474648e-001  3.7001160e-001 -1.0613559e+000
 -1.1305178e-001  3.8088736e-001 -9.7481718e-001
 -1.1305178e-001  3.9924776e-001 -8.7833819e-001
 -1.0077280e-001  3.9351754e-001 -7.9858210e-001
 -1.0007119e-001  4.0415943e-001 -7.0011481e-001
 -9.4457905e-002  4.2064847e-001 -6.0983378e-001
 -8.3347884e-002  4.3035488e-001 -5.2387973e-001
 -8.2295467e-002  4.3971048e-001 -4.3488498e-001
 -7.2822931e-002  4.3830686e-001 -3.6530344e-001
 -7.1770514e-002  4.5795354e-001 -2.6952605e-001
 -5.9257663e-002  4.6555512e-001 -1.9503245e-001
 -5.0369803e-002  4.7596313e-001 -1.2100658e-001
 -5.5749214e-002  4.8847599e-001 -3.0959411e-002
 -4.9083516e-002  4.9104895e-001  4.4352744e-002
 -4.5808938e-002  5.0894122e-001  1.2913743e-001
 -4.7446030e-002  5.2098672e-001  1.9988872e-001
 -5.2123831e-002  5.3864511e-001  2.7531781e-001
 -4.8381512e-002  5.4764991e-001  3.4232679e-001
 -4.3352906e-002  5.6261879e-001  4.0302086e-001
 -4.3586776e-002  5.8238241e-001  4.6500123e-001
 -4.7913771e-002  5.9653274e-001  5.1517035e-001
 -4.6744419e-002  6.1360646e-001  5.6826325e-001
 -3.2944888e-002  6.2226045e-001  6.0814129e-001
 -3.9727915e-002  6.4646800e-001  6.5187820e-001
 -4.6276678e-002  6.5664215e-001  6.8719537e-001
 -4.4171845e-002  6.7055861e-001  7.1736701e-001
 -4.5925873e-002  6.9476577e-001  7.4952694e-001
 -3.6102531e-002  7.0096412e-001  7.6075350e-001
 -4.3352906e-002  7.2166322e-001  7.7782722e-001
 -5.4579862e-002  7.3405913e-001  7.9466745e-001
 -4.3586776e-002  7.4575344e-001  7.9864325e-001
 -4.3002100e-002  7.7218315e-001  8.0180089e-001
 -4.6276678e-002  7.8563148e-001  8.0507547e-001
 -4.5458132e-002  8.0118504e-001  8.1150730e-001
 -4.4522650e-002  8.2188453e-001  8.1244278e-001
 -3.2594083e-002  8.4375298e-001  8.0343799e-001
 -3.3178759e-002  8.7252140e-001  8.0215170e-001
 -3.6921078e-002  8.8760722e-001  7.9501826e-001
 -2.9553768e-002  9.0327771e-001  7.8250502e-001
 -2.4992902e-002  9.2994090e-001  7.6964136e-001
 -1.6572783e-002  9.4549446e-001  7.4309472e-001
 -1.3649403e-002  9.6315324e-001  7.2917864e-001
 -3.5921912e-003  9.7975922e-001  7.0988276e-001
  3.6585760e-003  1.0003414e+000  6.8766311e-001
  5.6464744e-003  1.0224437e+000  6.6942005e-001
  1.4768205e-002  1.0385823e+000  6.4205485e-001
  1.5119010e-002  1.0620879e+000  6.2603355e-001
  3.3830212e-002  1.0733148e+000  5.9305547e-001
  4.3068878e-002  1.0894531e+000  5.6604109e-001
  3.9560429e-002  1.1018490e+000  5.4896737e-001
  4.8214419e-002  1.1109707e+000  5.1902961e-001
  5.4997053e-002  1.1259396e+000  4.9435432e-001
  6.3183302e-002  1.1294480e+000  4.7236893e-001
  6.3534107e-002  1.1370492e+000  4.5693231e-001
  6.9381260e-002  1.1321376e+000  4.3810417e-001
  7.6748570e-002  1.1317867e+000  4.2336916e-001
  8.3180790e-002  1.1403238e+000  4.1483210e-001
  8.5636430e-002  1.1334238e+000  4.0407328e-001
  8.7624720e-002  1.1140114e+000  3.8325724e-001
  8.9027943e-002  1.1087489e+000  3.7331697e-001
  9.4173484e-002  1.1083981e+000  3.6337669e-001
  1.0961011e-001  1.0878156e+000  3.4115743e-001
  1.0200853e-001  1.0797467e+000  3.3846753e-001
  1.0844076e-001  1.0577609e+000  3.1671601e-001
