**************************************************************************************
  RED ACELEROGRÁFICA DE LA UNIVERSIDAD AUTONOMA METROPOLITANA (RAUAM)
				UNIDAD AZCAPOTZALCO
                        DIVISIÓN CBI-DEPARTAMENTO DE MATERIALES
     Av. San Pablo 180, Col. Reynosa, Azcapotzalco, C.P. 02200, Ciudad de México
**************************************************************************************
ARCHIVO ESTANDAR DE ACELERACION:
VERSION DEL FORMATO                    : 2.0
NOMBRE DEL ARCHIVO                     : RIDA201604101
FECHA Y HORA DE CREACION               : 12:48 p. m. 26/04/2016
REF. CATALOGO ACELEROGRAMAS, SMIS 1995 : REGISTRO NO.      /PAG.    


================================================================================
DATOS DE LA ESTACION:
NOMBRE DE LA ESTACION                  : UAM-AZCAPOTZALCO.
CLAVE DE LA ESTACION                   : RIDA
LOCALIZACION DE LA ESTACION            : AV. SAN PABLO 180, COL.REYNOSA, AZCAPOTZALCO,
                                       : C.P.02200 CIUDAD DE MEXICO.
                                       :
                                       : 
                                       : 
COORDENADAS DE LA ESTACION             : 19.498596 LAT. N
                                       : 99.195595 LONG. W
ALTITUD (msnm)                         : 2246
TIPO DE SUELO                          : ZONA DE TRANSICION 
                                       : 
                                       : 
INSTITUCION RESPONSABLE                : UAM-AZCAPOTZALCO
                                       : 

================================================================================
DATOS DEL ACELEROGRAFO: 
MODELO DEL ACELEROGRAFO                : BASALT KINEMETRICS
NUMERO DE SERIE DEL ACELEROGRAFO       : 1730
NUMERO DE CANALES                      : 3
ORIENTACION C1-C6 (rumbo;orientacion)  : /V/N00E/N90E
ORIENTACION C7-C12 (rumbo;orientacion) : 
VEL. DE MUESTREO, C1-C6 (muestras/s)   : /250/250/250
VEL. DE MUESTREO, C7-C12 (muestras/s)  : 
ESC. COMPLETA DE SENSORES, C1-C6, (g)  : /2/2/2
ESC. COMPLETA DE SENSORES, C7-C12 (g)  : 
FREC. NAT. DE SENSORES, C1-C6, (Hz)    : /210/206/212
FREC. NAT. DE SENSORES, C7-C12 (Hz)    : 
AMORTIGUAMIENTO DE SENSORES, C1-C6     : /0.70/0.70/0.70   
AMORTIGUAMIENTO DE SENSORES, C7-C12    : 
INTERVALO DE MUESTREO, C1-C6 (s)       : /0.004/0.004/0.004
INTERVALO DE MUESTREO, C7-C12 (s)      : 
UMBRAL DE DISPARO, C1-C6 (Gal)         : /2/2/2
UMBRAL DE DISPARO, C7-C12 (Gal)        : 
MEMORIA DE PREEVENTO (s)               : 30
TIEMPO DE POSEVENTO (s)                : 60


================================================================================
DATOS DEL SISMO:
FECHA DEL SISMO [GMT]                  : 2016/04/10
HORA EPICENTRO (GMT)                   : 07:11:20
MAGNITUD(ES)                           : /M=5.5
COORDENADAS DEL EPICENTRO              : 15.7297 LAT. N
                                       : 96.347 LONG. W
PROFUNDIDAD FOCAL (Km)                 : 37.3
FUENTE DE LOS DATOS EPICENTRALES       : SSN
                                       : INSTITUTO DE GEOFISICA, UNAM

================================================================================
DATOS DE ESTE REGISTRO:
HORA DE LA PRIMERA MUESTRA (GMT)       : 07:13:09.00
EXACTITUD DEL TIEMPO (s)               : 
DURACION DEL REGISTRO (s), C1-C6       : /95.00/95.00/95.00
DURACION DEL REGISTRO (s), C7-C12      : 
NUM. TOTAL DE MUESTRAS, C1-C6          : /23750/23750/23750
NUM. TOTAL DE MUESTRAS, C7-C12         : 
ACEL. MAX.(Gal), C1-C6                 : /0.294/-1.271/-1.596
ACEL. MAX., C1-C6, EN LA MUESTRA       : /7812/10294/8057
ACEL. MAX.(Gal), C7-C12                : 
ACEL. MAX., C7-C12,EN LA MUESTRA       : 
UNIDADES DE LOS DATOS                  : Gal (cm/s/s)
FACTOR DE DECIMACION                   : 1
FORMATO DATOS (FORTRAN,16 campos/dato) : 3E16.7


================================================================================
CALIDAD DEL ACELEROGRAMA:
REGISTRO DIGITAL COMPLETO CON TIEMPO ABSOLUTO CORRECTO


================================================================================
COMENTARIOS:














================================================================================
DATOS DE ACELERACION:
---------+---------+---------+---------+---------+---------+---------+---------+
   CANAL-1  	    CANAL-2 	     CANAL-3
       V     	     N00E              N90E
---------+---------+---------+---------+---------+---------+---------+---------+ 
[...]
   2.6356532e-02  -4.3522277e-01  -8.1670967e-01
   1.7267913e-02  -4.2738207e-01  -7.9613903e-01
   1.7967007e-02  -4.4329790e-01  -7.7837365e-01
  -4.6390019e-03  -4.2808419e-01  -7.4003723e-01
  -1.1431386e-03  -4.3557383e-01  -7.1923285e-01
   3.7509136e-03  -4.4376597e-01  -6.9445450e-01
  -1.6058327e-02  -4.2492427e-01  -6.5518312e-01
  -9.3000227e-03  -4.3615892e-01  -6.3098913e-01
  -1.3261949e-02  -4.2785015e-01  -5.9276997e-01
  -1.4194075e-02  -4.1895589e-01  -5.6132965e-01
  -3.8233917e-03  -4.2012608e-01  -5.3281108e-01
  -1.7106968e-02  -4.0140140e-01  -4.8851392e-01
  -7.4353798e-03  -4.0690171e-01  -4.7472211e-01
  -7.0858325e-03  -3.9648619e-01  -4.4819071e-01
  -6.9693168e-03  -3.8431538e-01  -4.1628292e-01
   2.5857561e-03  -3.8618769e-01  -4.0143928e-01
  -3.8233917e-03  -3.7635727e-01  -3.7233636e-01
   1.1091796e-02  -3.7144206e-01  -3.4860984e-01
   1.5053723e-02  -3.5236671e-01  -3.1845509e-01
   1.7733976e-02  -3.5037699e-01  -2.9040439e-01
   1.3888565e-02  -3.4019551e-01  -2.5428889e-01
   7.9458713e-03  -3.1901342e-01  -2.2016018e-01
   1.8433070e-02  -3.1374715e-01  -1.9982327e-01
   9.8101232e-03  -2.9724623e-01  -1.6756447e-01
   3.0518191e-03  -2.9034130e-01  -1.3963064e-01
   8.3762900e-04  -2.7898963e-01  -1.0807346e-01
   2.3527247e-03  -2.7068046e-01  -7.5814659e-02
  -1.0581696e-02  -2.5523271e-01  -4.0634118e-02
  -2.6312494e-02  -2.4025304e-01  -1.7842947e-02
  -3.4003315e-02  -2.3873179e-01   6.9354010e-03
  -5.0549724e-02  -2.1696460e-01   4.7024864e-02
  -5.5210744e-02  -2.1368766e-01   6.6193072e-02
  -7.0242448e-02  -2.1017669e-01   9.1906378e-02
  -8.6672341e-02  -2.0210195e-01   1.1621725e-01
  -9.0051689e-02  -2.0151686e-01   1.3117775e-01
  -9.7858634e-02  -1.9332471e-01   1.4742383e-01
  -1.1219124e-01  -2.0303811e-01   1.5420306e-01
  -1.2431005e-01  -1.9882502e-01   1.7103348e-01
  -1.3001972e-01  -1.8478150e-01   1.9359091e-01
  -1.3491377e-01  -1.8805844e-01   2.0212318e-01
  -1.4493490e-01  -1.8127092e-01   2.1077233e-01
  -1.5483952e-01  -1.7612167e-01   2.2853771e-01
  -1.4773128e-01  -1.7600465e-01   2.4455043e-01
  -1.4819735e-01  -1.6114200e-01   2.6687412e-01
  -1.4563400e-01  -1.6043989e-01   2.8008158e-01
  -1.3736060e-01  -1.7003587e-01   3.0158719e-01
  -1.3491377e-01  -1.5997142e-01   3.3419620e-01
  -1.2081419e-01  -1.5213072e-01   3.4366344e-01
  -1.1184170e-01  -1.5248178e-01   3.5885768e-01
  -1.0508339e-01  -1.4885378e-01   3.7218201e-01
  -9.7625603e-02  -1.3808721e-01   3.9181770e-01
  -8.9236078e-02  -1.2919294e-01   4.1110277e-01
  -8.8303953e-02  -1.2322456e-01   4.0514163e-01
  -9.0634267e-02  -1.1585194e-01   4.2103749e-01
  -8.1312226e-02  -1.1468135e-01   4.4090691e-01
  -7.5486048e-02  -1.0543642e-01   4.4265996e-01
  -7.1058059e-02  -9.0339736e-02   4.4651705e-01
  -6.8261681e-02  -9.1509930e-02   4.5843855e-01
  -6.4066723e-02  -8.7179818e-02   4.7421715e-01
  -5.8823123e-02  -7.2902267e-02   4.7889233e-01
  -5.4744681e-02  -7.2551208e-02   4.8263255e-01
  -5.2064428e-02  -7.0561877e-02   4.8847643e-01
  -5.0083661e-02  -6.9625722e-02   4.9396970e-01
  -4.4607030e-02  -7.5009009e-02   5.0472250e-01
  -3.8081757e-02  -8.1211433e-02   4.9946297e-01
  -3.9596462e-02  -8.8350013e-02   5.0203450e-01
  -4.7752955e-02  -9.1275892e-02   5.1944927e-01
  -3.7265756e-02  -1.0847893e-01   5.0168389e-01
  -3.4818925e-02  -1.1397924e-01   4.9221666e-01
  -4.5306124e-02  -1.1105375e-01   5.0518998e-01
  -3.8081757e-02  -1.3001247e-01   4.9443718e-01
  -3.7731819e-02  -1.3364008e-01   4.8578804e-01
  -3.4352862e-02  -1.4171520e-01   4.8263255e-01
  -3.2022157e-02  -1.5973738e-01   4.7526897e-01
  -3.9946009e-02  -1.6605721e-01   4.7328219e-01
  -2.7943715e-02  -1.8279217e-01   4.6323060e-01
  -2.1534958e-02  -1.9086730e-01   4.5504894e-01
  -2.2117536e-02  -1.9800588e-01   4.5984099e-01
  -1.3494980e-02  -2.1626249e-01   4.5750359e-01
  -8.0183495e-03  -2.2948647e-01   4.5925664e-01
  -3.2752843e-04  -2.4165767e-01   4.6264626e-01
   4.2169766e-03  -2.4996644e-01   4.6545113e-01
   6.1977442e-03  -2.6389294e-01   4.7737302e-01
   1.7733976e-02  -2.7805347e-01   4.6626961e-01
   2.7871627e-02  -2.8203252e-01   4.7082792e-01
   3.0551490e-02  -2.8519205e-01   4.8251568e-01
   3.3581290e-02  -2.9279910e-01   4.6124382e-01
   3.6377668e-02  -3.0356567e-01   4.5949038e-01
   3.8941405e-02  -2.9888450e-01   4.6790579e-01
   4.6165772e-02  -2.9829941e-01   4.6685396e-01
   4.5117130e-02  -3.0684261e-01   4.6615274e-01
   4.6049256e-02  -3.1257696e-01   4.6872388e-01
   6.0148834e-02  -3.1948150e-01   4.7678867e-01
   6.1547023e-02  -3.1374715e-01   4.8485308e-01
   6.0614897e-02  -3.2217334e-01   4.9502153e-01
   5.7702004e-02  -3.2509882e-01   5.0787838e-01
   6.1547023e-02  -3.2896086e-01   5.2529315e-01
   6.8189203e-02  -3.4312139e-01   5.5030524e-01
   6.1780055e-02  -3.3972743e-01   5.5977247e-01
   6.5858497e-02  -3.5646239e-01   5.6596696e-01
   6.5042886e-02  -3.6793148e-01   5.9390119e-01
   6.9587391e-02  -3.7787892e-01   6.0406964e-01
   6.7256686e-02  -3.8724126e-01   6.1821205e-01
   6.4693339e-02  -3.9344368e-01   6.3960079e-01
   7.6928274e-02  -4.1041268e-01   6.5152229e-01
   7.7161306e-02  -4.1158288e-01   6.7045676e-01
   8.0191106e-02  -4.2433917e-01   6.8436543e-01
   7.4015381e-02  -4.3639296e-01   6.9453389e-01
   7.6695243e-02  -4.4189327e-01   7.0540356e-01
   8.5201674e-02  -4.4622338e-01   7.2948069e-01
   8.7415473e-02  -4.5160667e-01   7.3357152e-01
   8.5900769e-02  -4.5523467e-01   7.3988288e-01
   8.1239748e-02  -4.5874564e-01   7.7646586e-01
   8.8581022e-02  -4.6998030e-01   7.9481598e-01
   7.9725043e-02  -4.6167113e-01   8.0311451e-01
   7.0869065e-02  -4.6377787e-01   8.2462012e-01
   6.2829087e-02  -4.6330979e-01   8.5535922e-01
   6.5508949e-02  -4.5897968e-01   8.6050188e-01
   7.3316286e-02  -4.6003286e-01   8.6459271e-01
   5.1176340e-02  -4.4598934e-01   8.8376092e-01
   4.7331321e-02  -4.4353194e-01   8.8995541e-01
   5.1875435e-02  -4.4013798e-01   9.0152630e-01
   4.0106562e-02  -4.2433917e-01   9.0982483e-01
   3.7543216e-02  -4.1392366e-01   8.9848729e-01
   3.4862963e-02  -4.0912547e-01   9.0047447e-01
   1.5170238e-02  -3.8045335e-01   9.2233068e-01
   1.5752817e-02  -3.6851658e-01   9.0176004e-01
   1.3655534e-02  -3.5786702e-01   9.0047447e-01
  -6.9693168e-03  -3.2357757e-01   9.2513595e-01
  -3.3573287e-03  -3.2404565e-01   9.0842201e-01
  -2.0253285e-02  -3.0040576e-01   9.3366783e-01
  -2.2117536e-02  -2.8554311e-01   9.4862834e-01
  -1.3844528e-02  -2.8168147e-01   9.4161576e-01
  -2.5962947e-02  -2.4926433e-01   9.6978372e-01
  -1.6174842e-02  -2.4189171e-01   9.7270547e-01
  -2.1884505e-02  -2.1801778e-01   9.7153677e-01
  -3.1090031e-02  -1.9414385e-01   9.7761439e-01
  -3.6566662e-02  -1.7623869e-01   9.8345827e-01
  -3.5984083e-02  -1.4861974e-01   9.8182209e-01
  -2.9575326e-02  -1.2942698e-01   9.7060181e-01
  -4.1111167e-02  -1.0765979e-01   9.7188738e-01
  -4.9734114e-02  -9.2914164e-02   9.6966685e-01
  -5.1481850e-02  -6.9040232e-02   9.6055023e-01
  -5.2530491e-02  -4.3176969e-02   9.4886208e-01
  -6.3600660e-02  -1.8015823e-02   9.3261601e-01
  -7.6534689e-02   1.2411591e-02   9.2618778e-01
  -7.9914037e-02   2.9263570e-02   9.1660367e-01
  -8.9702141e-02   6.1797727e-02   8.8995541e-01
  -1.0123798e-01   9.2576200e-02   8.6728072e-01
  -1.0753022e-01   1.0322576e-01   8.4519076e-01
  -1.2419354e-01   1.3704673e-01   8.2473699e-01
  -1.2489263e-01   1.6583588e-01   7.9832246e-01
  -1.3071881e-01   1.9006087e-01   7.7179068e-01
  -1.4644961e-01   2.1194507e-01   7.4853203e-01
  -1.4446884e-01   2.2329714e-01   7.2141589e-01
  -1.5448998e-01   2.5501177e-01   7.0435173e-01
  -1.5157669e-01   2.6975740e-01   6.6578157e-01
  -1.5483952e-01   2.8134311e-01   6.3679552e-01
  -1.6113177e-01   2.9948269e-01   6.1926388e-01
  -1.5239230e-01   3.0545108e-01   5.7157749e-01
  -1.6357899e-01   3.2745231e-01   5.3920183e-01
  -1.6847304e-01   3.4875142e-01   5.1185234e-01
  -1.6521021e-01   3.5764568e-01   4.6065908e-01
  -1.6392853e-01   3.8140260e-01   4.2337488e-01
  -1.6369550e-01   4.0902115e-01   3.9532379e-01
  -1.6614233e-01   4.2400082e-01   3.5488372e-01
  -1.6625885e-01   4.4693859e-01   3.2309279e-01
  -1.5647075e-01   4.6531222e-01   2.8440576e-01
  -1.4889683e-01   4.8087698e-01   2.4256326e-01
  -1.5483952e-01   5.0287821e-01   2.1848613e-01
  -1.4761477e-01   5.1598557e-01   1.8400720e-01
  -1.3561286e-01   5.3599747e-01   1.4309925e-01
  -1.1929949e-01   5.5378560e-01   1.0207483e-01
  -1.0636507e-01   5.6256285e-01   6.3621937e-02
  -1.1056002e-01   5.8105349e-01   3.6155192e-02
  -9.6227414e-02   5.9392642e-01  -1.3627436e-03
  -8.2826931e-02   6.1031032e-01  -3.6777024e-02
  -7.3971343e-02   6.2634355e-01  -7.9438013e-02
  -6.1852533e-02   6.2236450e-01  -1.3226706e-01
  -6.3833691e-02   6.3605695e-01  -1.5669480e-01
  -4.1344198e-02   6.4331255e-01  -2.0005701e-01
  -2.9924873e-02   6.4892988e-01  -2.4610722e-01
  -3.8314789e-02   6.7256977e-01  -2.7871624e-01
  -1.4660138e-02   6.6718648e-01  -3.3703895e-01
  -7.5518955e-03   6.8462356e-01  -3.5924577e-01
  -6.8528010e-03   7.0217805e-01  -3.9734845e-01
   3.5178821e-03   6.9960323e-01  -4.5917725e-01
  -3.2752843e-04   7.1563607e-01  -4.8851392e-01
   8.4119343e-03   7.1598713e-01  -5.3433039e-01
   9.5770917e-03   7.2745622e-01  -5.7430298e-01
   3.5178821e-03   7.3120084e-01  -6.2117128e-01
   5.9647127e-03   7.2862641e-01  -6.6733876e-01
   1.4937207e-02   7.3459480e-01  -7.0637600e-01
   2.1578995e-02   7.2991362e-01  -7.6317940e-01
   1.2839924e-02   7.3775471e-01  -8.0654122e-01
   1.9714743e-02   7.2956257e-01  -8.5656540e-01
   3.0318458e-02   7.2570053e-01  -9.0226500e-01
   3.3930837e-02   7.3646711e-01  -9.5088674e-01
   3.4979479e-02   7.3635009e-01  -1.0066379e+00
   3.2998711e-02   7.3611605e-01  -1.0474286e+00
   4.0339594e-02   7.4173337e-01  -1.0921933e+00
   4.3485910e-02   7.4887235e-01  -1.1416331e+00
   4.4767583e-02   7.4313800e-01  -1.1958650e+00
   3.8941405e-02   7.4618051e-01  -1.2280065e+00
   3.8941405e-02   7.4501031e-01  -1.2537198e+00
   5.3740077e-02   7.3202037e-01  -1.2987182e+00
   5.2691436e-02   7.2616861e-01  -1.3351843e+00
   5.3040983e-02   7.0603969e-01  -1.3600795e+00
   5.5953877e-02   6.8942175e-01  -1.3804164e+00
   5.7119034e-02   6.8146404e-01  -1.4122077e+00
   6.6091528e-02   6.6402657e-01  -1.4499594e+00
   6.3877729e-02   6.4764267e-01  -1.4704132e+00
   6.9703907e-02   6.2060882e-01  -1.4927373e+00
   7.3665833e-02   6.0258664e-01  -1.5129573e+00
   7.1568159e-02   5.9006438e-01  -1.5244113e+00
   8.5551221e-02   5.5238137e-01  -1.5477872e+00
   8.1705811e-02   5.3272053e-01  -1.5511765e+00
   8.4619095e-02   5.0545303e-01  -1.5555010e+00
   9.8718673e-02   4.7128060e-01  -1.5751367e+00
   9.4989778e-02   4.6039701e-01  -1.5740849e+00
   1.0384576e-01   4.2751179e-01  -1.5854220e+00
   1.0780768e-01   4.0398892e-01  -1.5954736e+00
   1.0233066e-01   3.9135003e-01  -1.5900972e+00
   1.0862329e-01   3.5928435e-01  -1.5926688e+00
   1.0769117e-01   3.3482532e-01  -1.5944218e+00
   9.7786547e-02   3.2043075e-01  -1.5827340e+00
   1.0268060e-01   2.9023737e-01  -1.5713965e+00
   1.0000035e-01   2.6367199e-01  -1.5648514e+00
   8.4036517e-02   2.3991508e-01  -1.5476704e+00
   8.2404905e-02   1.9825301e-01  -1.5383200e+00
   7.4597959e-02   1.7227234e-01  -1.5246451e+00
   6.2829087e-02   1.3845136e-01  -1.5085159e+00
   4.5233646e-02   9.5501686e-02  -1.4844387e+00
   3.5795089e-02   5.7233576e-02  -1.4570892e+00
   3.5562057e-02   1.9667190e-02  -1.4461023e+00
   2.3676670e-02  -1.8951979e-02  -1.4164150e+00
   1.1557859e-02  -6.8338115e-02  -1.3884812e+00
  -8.2513810e-03  -9.9233607e-02  -1.3563397e+00
  -6.6197696e-03  -1.5177966e-01  -1.3241978e+00
  -9.1835069e-03  -1.9449490e-01  -1.2943936e+00
  -2.4681274e-02  -2.2667800e-01  -1.2539535e+00
  -2.4914305e-02  -2.8835197e-01  -1.2232144e+00
  -3.2837767e-02  -3.2182228e-01  -1.1761124e+00
  -2.6195978e-02  -3.6547368e-01  -1.1418668e+00
  -2.1767989e-02  -4.1146586e-01  -1.1124133e+00
  -2.6079463e-02  -4.5242620e-01  -1.0741937e+00
  -2.1301926e-02  -4.9350317e-01  -1.0397148e+00
  -1.3611496e-02  -5.2697309e-01  -9.9483330e-01
  -6.6197696e-03  -5.7050786e-01  -9.6444481e-01
  -6.1537066e-03  -5.9531795e-01  -9.2949801e-01
   6.5472914e-03  -6.3241586e-01  -8.8636954e-01
   1.9598228e-02  -6.6459896e-01  -8.4628007e-01
   2.1345964e-02  -6.8297219e-01  -8.0934649e-01
   2.4725311e-02  -7.1082518e-01  -7.7019198e-01
   3.9174436e-02  -7.3657142e-01  -7.3255718e-01
   5.1176340e-02  -7.5939179e-01  -6.9807785e-01
   5.0710277e-02  -7.7214809e-01  -6.5343008e-01
   5.2108466e-02  -7.9274508e-01  -6.1474305e-01
   5.3507046e-02  -8.0725667e-01  -5.7360176e-01
   5.5487814e-02  -8.1287400e-01  -5.3374604e-01
   5.3157499e-02  -8.2364057e-01  -4.9459153e-01
   4.8379962e-02  -8.3417311e-01  -4.5415146e-01
   4.4301520e-02  -8.4096102e-01  -4.1184147e-01
   4.2320753e-02  -8.4259930e-01  -3.6509004e-01
   2.6706079e-02  -8.3943938e-01  -3.2090975e-01
   1.0975281e-02  -8.4798258e-01  -2.8023594e-01
   1.1441344e-02  -8.5617473e-01  -2.4295135e-01
  -4.1729390e-03  -8.4669537e-01  -1.9736861e-01
  -1.0814727e-02  -8.4716345e-01  -1.6148685e-01
  -2.4564758e-02  -8.4271632e-01  -1.1870939e-01
  -3.9829493e-02  -8.5137654e-01  -7.8386186e-02
  -4.5422640e-02  -8.4575921e-01  -3.6192675e-02
  -6.2784659e-02  -8.2843876e-01   1.1376844e-02
  -6.3251113e-02  -8.4423757e-01   3.5220234e-02
  -7.6767721e-02  -8.3054551e-01   8.1504186e-02
  -8.1428742e-02  -8.2317250e-01   1.2252861e-01
  -7.7816363e-02  -8.2048105e-01   1.5186527e-01
  -8.4458542e-02  -8.0912898e-01   1.8318871e-01
  -8.6672341e-02  -8.0456483e-01   2.1988895e-01
  -9.7625603e-02  -7.8338274e-01   2.6979626e-01
  -9.1566393e-02  -7.7694628e-01   2.9153560e-01
  -9.1566393e-02  -7.5868967e-01   3.1911883e-01
  -9.0983815e-02  -7.4417808e-01   3.5336441e-01
  -8.8653500e-02  -7.3387958e-01   3.8188298e-01
  -8.8653500e-02  -7.0930354e-01   4.0794690e-01
  -7.9564490e-02  -6.9631359e-01   4.2723198e-01
  -8.6905373e-02  -6.7267370e-01   4.5411398e-01
  -8.1894805e-02  -6.5453450e-01   4.7503523e-01
  -7.2805795e-02  -6.3592684e-01   4.9303475e-01
  -7.1990184e-02  -6.0994656e-01   5.0764464e-01
  -7.3505280e-02  -5.9145591e-01   5.2470880e-01
  -7.7000752e-02  -5.6945469e-01   5.4013679e-01
  -7.3854827e-02  -5.4043150e-01   5.5030524e-01
  -7.1058059e-02  -5.1316401e-01   5.5837004e-01
  -7.1524121e-02  -4.8835392e-01   5.7321367e-01
  -7.5602564e-02  -4.5558573e-01   5.9343371e-01
  -6.4998849e-02  -4.2925438e-01   6.0360216e-01
  -6.3600660e-02  -3.9753976e-01   6.2382220e-01
  -6.9426838e-02  -3.6313329e-01   6.3235447e-01
  -6.5930975e-02  -3.3258885e-01   6.4626276e-01
  -6.4998849e-02  -2.9829941e-01   6.6543096e-01
  -5.2064428e-02  -2.6986132e-01   6.6087265e-01
  -5.3463008e-02  -2.3463572e-01   6.7408011e-01
  -5.5560292e-02  -2.0198493e-01   6.8494978e-01
  -4.6820829e-02  -1.7717485e-01   6.7595003e-01
  -5.1132302e-02  -1.4241732e-01   6.8039147e-01
  -5.1015787e-02  -1.0087227e-01   6.9149488e-01
  -5.0316692e-02  -7.1029955e-02   6.8027460e-01
  -4.7519923e-02  -3.8027720e-02   6.7641751e-01
  -3.9712978e-02   1.9960742e-03   6.8728757e-01
  -4.2159808e-02   3.8391873e-02   6.7524881e-01
  -4.9384566e-02   7.4904692e-02   6.6858684e-01
  -4.7170376e-02   1.0006584e-01   6.7127484e-01
  -5.2763523e-02   1.4360061e-01   6.7595003e-01
  -5.5793323e-02   1.8151766e-01   6.7139171e-01
  -5.5210744e-02   2.0234869e-01   6.6169074e-01
