**************************************************************************************
            UNIVERSIDAD AUTONOMA METROPOLITANA - AZCAPOTZALCO
                        Departamento de Materiales
                           Area de Estructuras
     AV. SAN PABLO 180,COL.REYNOSA, AZCAPOTZALCO, C.P.02200 CIUDAD DE MEXICO.
**************************************************************************************
ARCHIVO ESTANDAR DE ACELERACION:
VERSION DEL FORMATO                    : 2.0
NOMBRE DEL ARCHIVO                     : RIDA201606271
FECHA Y HORA DE CREACION               : MON JUL 18 12:30:07 2018
REF. CATALOGO ACELEROGRAMAS, SMIS 1995 : REGISTRO NO.      /PAG.    


================================================================================
DATOS DE LA ESTACION:
NOMBRE DE LA ESTACION                  : UAM-AZCAPOTZALCO.
CLAVE DE LA ESTACION                   : RIDA
LOCALIZACION DE LA ESTACION            : AV. SAN PABLO 180,COL.REYNOSA, AZCAPOTZALCO,
                                       : C.P.02200 CIUDAD DE MEXICO.
                                       :
                                       : 
                                       : 
COORDENADAS DE LA ESTACION             : 19.498596 LAT. N
                                       : 99.195595 LONG. W
ALTITUD (msnm)                         : 2246
TIPO DE SUELO                          : TRANSICION 
                                       : 
                                       : 
INSTITUCION RESPONSABLE                : UNIVERSIDAD AUTONOMA METROPOLITANA
                                       : 

================================================================================
DATOS DEL ACELEROGRAFO: 
MODELO DEL ACELEROGRAFO                : BASALT KINEMETRICS
NUMERO DE SERIE DEL ACELEROGRAFO       : 1730
NUMERO DE CANALES                      : 3
ORIENTACION C1-C6 (rumbo;orientacion)  : /V/N00E/N90E
ORIENTACION C7-C12 (rumbo;orientacion) : 
VEL. DE MUESTREO, C1-C6 (muestras/s)   : /250/250/250
VEL. DE MUESTREO, C7-C12 (muestras/s)  : 
ESC. COMPLETA DE SENSORES, C1-C6, (g)  : /2/2/2
ESC. COMPLETA DE SENSORES, C7-C12 (g)  : 
FREC. NAT. DE SENSORES, C1-C6, (Hz)    : /210/106/212
FREC. NAT. DE SENSORES, C7-C12 (Hz)    : 
AMORTIGUAMIENTO DE SENSORES, C1-C6     : /0.7/0.7/0.7   
AMORTIGUAMIENTO DE SENSORES, C7-C12    : 
INTERVALO DE MUESTREO, C1-C6 (s)       : /0.004/0.004/0.004
INTERVALO DE MUESTREO, C7-C12 (s)      : 
UMBRAL DE DISPARO, C1-C6 (Gal)         : /2/2/2
UMBRAL DE DISPARO, C7-C12 (Gal)        : 
MEMORIA DE PREEVENTO (s)               : 30
TIEMPO DE POSEVENTO (s)                : 60


================================================================================
DATOS DEL SISMO:
FECHA DEL SISMO [GMT]                  : 2016/06/27
HORA EPICENTRO (GMT)                   : 20:50:31
MAGNITUD(ES)                           : /M=5.7
COORDENADAS DEL EPICENTRO              : 16.208 LAT. N
                                       : 98.003 LONG. W
PROFUNDIDAD FOCAL (Km)                 : 4.4
FUENTE DE LOS DATOS EPICENTRALES       : SSN
                                       : INSTITUTO DE GEOFISICA, UNAM

================================================================================
DATOS DE ESTE REGISTRO:
HORA DE LA PRIMERA MUESTRA (GMT)       : 20:51:50.00
EXACTITUD DEL TIEMPO (s)               : 
DURACION DEL REGISTRO (s), C1-C6       : /124.00/124.00/124.00
DURACION DEL REGISTRO (s), C7-C12      : 
NUM. TOTAL DE MUESTRAS, C1-C6          : /31000/31000/31000
NUM. TOTAL DE MUESTRAS, C7-C12         : 
ACEL. MAX.(Gal), C1-C6                 : /0.489/-2.007/2.700
ACEL. MAX., C1-C6, EN LA MUESTRA       : /12455/9284/10282
ACEL. MAX.(Gal), C7-C12                : 
ACEL. MAX., C7-C12,EN LA MUESTRA       : 
UNIDADES DE LOS DATOS                  : Gal (cm/s/s)
FACTOR DE DECIMACION                   : 1
FORMATO DATOS (FORTRAN,16 campos/dato) : 3E16.7


================================================================================
CALIDAD DEL ACELEROGRAMA:
REGISTRO DIGITAL COMPLETO CON TIEMPO ABSOLUTO CORRECTO


================================================================================
COMENTARIOS:














================================================================================
DATOS DE ACELERACION:
---------+---------+---------+---------+---------+---------+---------+---------+
   CANAL-1           CANAL-2        CANAL-3
         V            N00E            N90E
---------+---------+---------+---------+---------+---------+---------+---------+ 
[...]
 -2.0370793e-001 -1.8705371e-001  2.2544602e-001
 -1.7868183e-001 -2.2950433e-001  2.2497789e-001
 -1.4242918e-001 -2.8154481e-001  2.1293278e-001
 -1.1073699e-001 -3.2481397e-001  2.4532619e-001
 -8.0214548e-002 -3.2539864e-001  2.5748862e-001
 -6.2673091e-002 -3.1393821e-001  2.5339550e-001
 -4.6183658e-002 -3.0972815e-001  2.4602819e-001
 -3.6009511e-002 -2.6938237e-001  2.2567990e-001
 -3.1331710e-002 -2.5499816e-001  2.0533160e-001
 -1.7766442e-002 -2.3523493e-001  2.2170371e-001
  1.1001971e-002 -2.2202008e-001  2.5596847e-001
  2.5620049e-002 -2.2927045e-001  2.8707558e-001
  2.2579341e-002 -2.4330386e-001  3.1327103e-001
  3.2753488e-002 -2.7066905e-001  3.0110899e-001
  3.7431289e-002 -2.8248029e-001  2.6824745e-001
  4.5032861e-002 -3.3124619e-001  2.7058615e-001
  5.2400171e-002 -3.6539362e-001  3.2496534e-001
  6.8304536e-002 -3.9088746e-001  3.5665752e-001
  9.0173380e-002 -4.1649862e-001  3.9887427e-001
  9.2629019e-002 -3.9462978e-001  4.8050132e-001
  1.0794871e-001 -3.9427897e-001  5.0798344e-001
  1.2139743e-001 -3.9509752e-001  4.9874478e-001
  1.0841645e-001 -3.8714553e-001  5.0845118e-001
  1.0256930e-001 -4.0012612e-001  5.1733865e-001
  8.8652830e-002 -4.0363457e-001  5.3254180e-001
  7.5906109e-002 -3.9848903e-001  5.7838393e-001
  8.0700844e-002 -3.8749634e-001  6.0645034e-001
  5.0880014e-002 -3.5159448e-001  6.2539541e-001
  2.0708378e-002 -3.3475425e-001  6.3697278e-001
 -2.5636889e-003 -3.1873295e-001  6.0446244e-001
 -2.8057525e-002 -3.1405515e-001  5.6470133e-001
 -4.0336505e-002 -3.4995700e-001  5.6505214e-001
 -5.6591675e-002 -3.5486867e-001  6.0072012e-001
 -6.7350891e-002 -3.6106663e-001  6.1943132e-001
 -9.1090306e-002 -3.4761829e-001  6.5369608e-001
 -1.0734587e-001 -3.2153978e-001  6.8796045e-001
 -1.3400906e-001 -2.9616288e-001  6.7497986e-001
 -1.5985370e-001 -2.4856633e-001  6.5895856e-001
 -1.5798273e-001 -2.3488374e-001  6.4527596e-001
 -1.6698714e-001 -2.1757615e-001  6.5767188e-001
 -1.4593723e-001 -2.1909631e-001  6.7299157e-001
 -1.1915711e-001 -2.2342330e-001  6.5802268e-001
 -1.1564866e-001 -2.0412742e-001  6.2761718e-001
 -1.2079420e-001 -1.9898188e-001  5.7499241e-001
 -1.3704937e-001 -1.6343084e-001  5.2119790e-001
 -1.4289692e-001 -1.1981087e-001  4.7406949e-001
 -1.3693244e-001 -7.6190506e-002  4.5044662e-001
 -1.3131915e-001 -3.7131010e-002  4.5301958e-001
 -1.4979649e-001 -3.3739497e-002  4.4179263e-001
 -1.6441456e-001 -4.0522523e-002  3.9735411e-001
 -1.5283719e-001 -4.2042681e-002  3.6098412e-001
 -1.2874658e-001 -4.8240639e-002  3.2601775e-001
 -9.3897143e-002 -4.6252740e-002  2.3982984e-001
 -6.6415017e-002 -3.1001198e-003  1.6533662e-001
 -5.2031203e-002  4.2858945e-002  1.3621740e-001
 -4.1973991e-002  7.7474511e-002  1.1855862e-001
 -3.0162358e-002  1.1197275e-001  1.0475948e-001
 -3.6477251e-002  1.2144529e-001  1.1119131e-001
 -4.3728019e-002  1.2483680e-001  1.1738927e-001
 -3.1682908e-002  1.2682470e-001  9.7274843e-002
 -1.7298701e-002  1.3723271e-001  7.6575743e-002
  1.1235842e-002  1.4775806e-001  2.8745322e-002
  3.4858714e-002  1.5746407e-001 -2.1540738e-002
  5.3101783e-002  1.8284137e-001 -6.1418388e-002
  8.2221002e-002  2.0225379e-001 -1.3135113e-001
  9.1108862e-002  2.3359517e-001 -1.7497149e-001
  8.8302025e-002  2.6259706e-001 -1.8982344e-001
  6.5615026e-002  3.0972587e-001 -2.0713103e-001
  3.3455099e-002  3.5849138e-001 -2.4420262e-001
  4.8073177e-002  3.7158930e-001 -3.1226401e-001
  6.9942021e-002  4.0141013e-001 -3.5623518e-001
  1.0128301e-001  4.0316416e-001 -4.2780501e-001
  1.2128050e-001  4.3731198e-001 -5.0919819e-001
  1.0946926e-001  5.0198225e-001 -5.3188558e-001
  1.1110635e-001  5.2923011e-001 -5.6696889e-001
  7.0409762e-002  5.7600812e-001 -6.0240300e-001
  2.8192623e-002  5.8536332e-001 -6.8426392e-001
  7.8443287e-003  5.7811295e-001 -8.0109121e-001
 -1.2971707e-002  5.6595090e-001 -8.7546788e-001
 -7.1245541e-003  5.5098202e-001 -9.3662970e-001
 -2.4081335e-002  5.9425118e-001 -9.5545784e-001
 -3.8816348e-002  6.5763516e-001 -9.5463929e-001
 -3.4840159e-002  7.0803816e-001 -9.2914546e-001
 -4.1857055e-002  7.4885168e-001 -9.2037453e-001
 -4.5715917e-002  7.7703542e-001 -1.0051592e+000
 -5.3785231e-002  7.4253679e-001 -1.0775476e+000
 -7.8109714e-002  6.9330315e-001 -1.1046789e+000
 -1.0769667e-001  6.4091186e-001 -1.1267812e+000
 -1.3529534e-001  5.8875484e-001 -1.1342655e+000
 -1.6020450e-001  6.0302211e-001 -1.1353183e+000
 -1.5295413e-001  6.0068301e-001 -1.1598767e+000
 -1.4593723e-001  6.1623696e-001 -1.2010410e+000
 -1.6874156e-001  6.6009080e-001 -1.2492218e+000
 -1.7809716e-001  6.5202188e-001 -1.3079280e+000
 -2.0370793e-001  6.4418644e-001 -1.3165820e+000
 -2.2990338e-001  6.3564938e-001 -1.3053550e+000
 -2.3528279e-001  6.2185025e-001 -1.3233646e+000
 -2.4475532e-001  6.0933700e-001 -1.3347081e+000
 -2.3411344e-001  5.9659028e-001 -1.3494431e+000
 -2.3808962e-001  5.7834682e-001 -1.3679205e+000
 -2.4791257e-001  5.7846376e-001 -1.3814861e+000
 -2.4498919e-001  6.1214384e-001 -1.3896720e+000
 -2.4990086e-001  6.1506722e-001 -1.3799656e+000
 -2.4136381e-001  6.0699830e-001 -1.3627749e+000
 -2.3610133e-001  5.9811044e-001 -1.3552903e+000
 -2.3586746e-001  5.7998391e-001 -1.3444145e+000
 -2.3575053e-001  5.6150697e-001 -1.3294456e+000
 -2.4522306e-001  5.5811546e-001 -1.3199731e+000
 -2.3481505e-001  5.6068843e-001 -1.3191546e+000
 -2.1177685e-001  5.4735664e-001 -1.3312001e+000
 -2.1095830e-001  5.5191750e-001 -1.3414911e+000
 -2.1727320e-001  5.3753330e-001 -1.3550564e+000
 -2.1376514e-001  5.3121840e-001 -1.3626580e+000
 -1.9505394e-001  5.3940426e-001 -1.3807841e+000
 -1.5505896e-001  5.2572206e-001 -1.4025360e+000
 -1.1424544e-001  5.1274107e-001 -1.3964550e+000
 -9.0622565e-002  4.7145981e-001 -1.4146981e+000
 -7.6472229e-002  4.0983025e-001 -1.4289653e+000
 -6.9221854e-002  3.6106435e-001 -1.4114239e+000
 -5.3200555e-002  3.2387621e-001 -1.4267436e+000
 -1.6012022e-002  2.8271148e-001 -1.4617100e+000
  9.9495547e-003  2.6750873e-001 -1.4794853e+000
  2.8075688e-002  2.4762818e-001 -1.5137500e+000
  5.0061467e-002  2.0693159e-001 -1.5615801e+000
  6.6550508e-002  1.8541394e-001 -1.5600599e+000
  9.2161279e-002  1.3980568e-001 -1.5412318e+000
  1.0327091e-001  1.1127114e-001 -1.5323443e+000
  1.0537613e-001  1.0238367e-001 -1.5133992e+000
  1.1391280e-001  8.4724886e-002 -1.5199480e+000
  9.8359237e-002  8.6595849e-002 -1.5233395e+000
  9.1927408e-002  6.2271758e-002 -1.5277834e+000
  8.1051650e-002  2.7422322e-002 -1.5562007e+000
  6.4094869e-002 -6.4916330e-003 -1.5751457e+000
  7.6139979e-002 -2.2746803e-002 -1.5867231e+000
  7.2982336e-002 -2.1343581e-002 -1.5657901e+000
  7.4736757e-002 -3.9937847e-002 -1.5453249e+000
  6.7953730e-002 -3.9236236e-002 -1.5280173e+000
  4.5500602e-002 -5.7947045e-002 -1.4787837e+000
  4.4915926e-002 -8.5429171e-002 -1.4534068e+000
  4.0004255e-002 -1.0390611e-001 -1.4394903e+000
  5.3569523e-002 -1.4834502e-001 -1.4276791e+000
  7.0058956e-002 -1.8915854e-001 -1.3878010e+000
  7.9648427e-002 -2.4821553e-001 -1.3075772e+000
  9.1693538e-002 -2.9078347e-001 -1.2578758e+000
  8.1636326e-002 -3.0399793e-001 -1.2231433e+000
  8.1987131e-002 -3.3241554e-001 -1.2013918e+000
  8.2454872e-002 -3.6328879e-001 -1.1992866e+000
  8.4443163e-002 -4.1299017e-001 -1.2010410e+000
  9.4617310e-002 -4.6655042e-001 -1.1698169e+000
  1.0841645e-001 -5.0876756e-001 -1.0957911e+000
  1.3402722e-001 -5.4583876e-001 -1.0322902e+000
  1.4034251e-001 -5.6665480e-001 -9.7650774e-001
  1.5168600e-001 -5.8396278e-001 -9.4563450e-001
  1.5683155e-001 -5.8875751e-001 -9.1511206e-001
  1.5905331e-001 -5.9390305e-001 -8.6377358e-001
  1.6630408e-001 -6.0887194e-001 -8.1781451e-001
  1.5519445e-001 -6.1659005e-001 -7.6787926e-001
  1.5671461e-001 -6.4021292e-001 -7.1081017e-001
  1.5320616e-001 -6.6044428e-001 -6.3994195e-001
  1.4770982e-001 -6.6360193e-001 -5.7819545e-001
  1.4525418e-001 -6.8722441e-001 -5.1633202e-001
  1.3063610e-001 -7.1377105e-001 -4.2874050e-001
  1.2221598e-001 -7.4136972e-001 -3.3027360e-001
  1.3098690e-001 -7.7154136e-001 -2.5601386e-001
  1.3122077e-001 -7.6850065e-001 -1.9906211e-001
  1.1952647e-001 -7.8113083e-001 -1.3977125e-001
  1.1496560e-001 -7.9761987e-001 -9.9542402e-002
  8.9939510e-002 -7.7949373e-001 -5.8495008e-002
  6.9708151e-002 -7.9072030e-001 -1.1015392e-002
  3.9419579e-002 -8.0042671e-001  7.0377785e-002
 -9.2620374e-004 -8.0557225e-001  1.8357969e-001
 -6.1886801e-003 -8.5246679e-001  2.8684171e-001
 -1.4725735e-002 -8.9082468e-001  4.1618185e-001
 -1.4141059e-002 -9.1199152e-001  5.2517409e-001
 -1.6597090e-002 -9.0941855e-001  5.8189198e-001
 -3.5307899e-002 -8.5889862e-001  6.2855305e-001
 -4.9575171e-002 -8.1410891e-001  6.5159086e-001
 -6.8169437e-002 -8.1071779e-001  6.9871966e-001
 -7.6823035e-002 -8.4626884e-001  7.9461398e-001
 -9.1324177e-002 -8.9222790e-001  8.9226233e-001
 -1.0781361e-001 -9.0205124e-001  9.8102321e-001
 -1.1342689e-001 -8.8252149e-001  1.0717720e+000
 -9.9627361e-002 -8.4439748e-001  1.1521128e+000
 -6.0333994e-002 -8.0007590e-001  1.1901194e+000
 -3.0747034e-002 -7.6733130e-001  1.2420426e+000
 -2.6771237e-002 -7.4990677e-001  1.3326744e+000
 -3.8699413e-002 -7.4733381e-001  1.4095071e+000
 -5.6357805e-002 -7.3049396e-001  1.5187329e+000
 -6.6531952e-002 -7.0441545e-001  1.6430448e+000
 -5.9515448e-002 -6.7365914e-001  1.7112235e+000
 -7.7641973e-002 -6.3097426e-001  1.7826764e+000
 -1.0488984e-001 -6.0840420e-001  1.8351842e+000
 -1.2137888e-001 -5.9799618e-001  1.8261794e+000
 -1.5026423e-001 -5.9554015e-001  1.8354181e+000
 -1.5599444e-001 -5.9378612e-001  1.8959952e+000
 -1.6523311e-001 -5.5355727e-001  2.0077939e+000
 -1.5494203e-001 -5.1204174e-001  2.1329244e+000
 -1.2523813e-001 -4.7801125e-001  2.2368880e+000
 -1.4453401e-001 -4.3088244e-001  2.2933721e+000
 -1.6815688e-001 -4.0901398e-001  2.2690476e+000
 -1.8312576e-001 -3.8293547e-001  2.2414489e+000
 -1.6722101e-001 -3.4282356e-001  2.2276494e+000
 -1.3026674e-001 -3.2212446e-001  2.2309239e+000
 -1.1915711e-001 -3.0048949e-001  2.2987515e+000
 -1.1681801e-001 -2.9043227e-001  2.3567560e+000
 -1.4231185e-001 -2.7300775e-001  2.4105501e+000
 -1.5704686e-001 -2.2517772e-001  2.4869151e+000
 -1.5190132e-001 -1.5524498e-001  2.5257403e+000
 -1.4815939e-001 -7.2565122e-002  2.5307689e+000
 -1.2629055e-001 -1.9121812e-002  2.5291319e+000
 -1.3447680e-001  1.0699019e-002  2.5286641e+000
 -1.4500175e-001  9.4127314e-003  2.5117073e+000
 -1.4137637e-001 -7.0763090e-003  2.5341605e+000
 -1.3985621e-001  4.0793619e-004  2.6112266e+000
 -1.3494454e-001  3.4438826e-002  2.6564841e+000
 -1.4465094e-001  1.0846469e-001  2.6780021e+000
 -1.4289692e-001  1.9886267e-001  2.6773001e+000
 -1.3763444e-001  2.8212681e-001  2.6412813e+000
 -1.1471318e-001  3.2563023e-001  2.6239738e+000
 -7.4133525e-002  3.4527692e-001  2.6562502e+000
 -4.0102635e-002  3.5837444e-001  2.6934388e+000
 -1.1451157e-002  3.4960391e-001  2.7006891e+000
 -3.7179255e-002  3.8889689e-001  2.6718038e+000
 -9.2961662e-002  4.5766028e-001  2.5719337e+000
 -1.2056033e-001  5.0607537e-001  2.4686716e+000
 -1.1833856e-001  5.7694360e-001  2.4475048e+000
 -9.9042685e-002  6.2734659e-001  2.4300799e+000
 -1.0477290e-001  6.3062078e-001  2.3962833e+000
 -1.2734336e-001  6.2009583e-001  2.3642403e+000
 -1.3014980e-001  5.9015806e-001  2.2955942e+000
 -1.3634776e-001  5.9097700e-001  2.2264800e+000
 -1.3190383e-001  6.4874730e-001  2.1360820e+000
 -1.3225464e-001  7.4908555e-001  2.0474381e+000
 -1.5318800e-001  8.6754994e-001  1.9992573e+000
 -1.5342187e-001  9.4590280e-001  1.9260499e+000
 -1.6277747e-001  9.7478815e-001  1.8528430e+000
 -1.7833103e-001  9.6309345e-001  1.8029078e+000
 -1.6266053e-001  9.2894602e-001  1.7576503e+000
 -1.2640748e-001  9.0906546e-001  1.6900563e+000
 -1.1459624e-001  9.3292181e-001  1.5954486e+000
 -1.1833856e-001  9.8507923e-001  1.4904326e+000
 -1.0793054e-001  1.0577015e+000  1.3841302e+000
 -1.0056284e-001  1.1365221e+000  1.2916270e+000
 -7.4133525e-002  1.1821303e+000  1.2263721e+000
 -5.2498943e-002  1.2041157e+000  1.2055561e+000
 -5.1680005e-002  1.1931230e+000  1.1763199e+000
 -3.9985700e-002  1.1813118e+000  1.1084924e+000
 -1.7415637e-002  1.2063379e+000  1.0269823e+000
  1.4627355e-002  1.2593135e+000  9.5400883e-001
  5.2750977e-002  1.3258551e+000  8.8723373e-001
  8.0700844e-002  1.3769597e+000  8.1753485e-001
  8.1870196e-002  1.4161357e+000  7.4081948e-001
  6.6316637e-002  1.4318066e+000  6.4691305e-001
  4.1758283e-002  1.4463074e+000  5.7160090e-001
  3.5911131e-002  1.4769471e+000  4.8821982e-001
  5.1581625e-002  1.5038442e+000  3.9828959e-001
  5.8364259e-002  1.5377581e+000  3.5092691e-001
  6.6550508e-002  1.5589250e+000  3.0052392e-001
  7.6023044e-002  1.5502710e+000  2.3725726e-001
  8.8652830e-002  1.5273501e+000  1.8077325e-001
  1.0186769e-001  1.5053644e+000  1.1095744e-001
  8.2454872e-002  1.4735556e+000  2.9330391e-002
  4.1758283e-002  1.4640831e+000 -2.9726594e-002
  1.7784605e-002  1.4823265e+000 -8.3871908e-002
  1.1937453e-002  1.4594053e+000 -1.6596670e-001
  1.4276549e-002  1.4403433e+000 -2.2560836e-001
  1.8837415e-002  1.4289998e+000 -2.7577748e-001
  2.7491012e-002  1.3759069e+000 -3.5225899e-001
  2.2930147e-002  1.3325208e+000 -3.8582214e-001
  5.3886895e-003  1.2712420e+000 -3.9049994e-001
 -4.6685225e-003  1.1955791e+000 -4.0289585e-001
 -1.2036225e-002  1.1748800e+000 -4.2534938e-001
 -9.2293877e-003  1.1615482e+000 -4.6943708e-001
 -8.2939061e-003  1.1419015e+000 -5.0685949e-001
 -5.4870689e-003  1.1254125e+000 -5.5714555e-001
  3.1665283e-003  1.0847159e+000 -5.9562037e-001
 -7.9431005e-003  1.0230859e+000 -5.9187805e-001
 -1.5661216e-002  9.5420598e-001 -5.8591396e-001
 -8.9955173e-003  9.1140417e-001 -5.9117644e-001
 -1.1100351e-002  8.8602727e-001 -5.8147003e-001
 -1.1802355e-002  8.7211080e-001 -5.5504032e-001
 -1.8468053e-002  8.6649752e-001 -5.5574233e-001
 -3.1799843e-002  8.2474851e-001 -5.6486366e-001
 -2.5835363e-002  7.8791118e-001 -5.6977533e-001
 -2.5601493e-002  7.5563432e-001 -5.7398539e-001
 -3.7763931e-002  6.8991163e-001 -5.5983506e-001
 -6.3023896e-002  6.5015053e-001 -5.5293549e-001
 -9.1207241e-002  6.0430840e-001 -5.7948174e-001
 -9.2844727e-002  5.1999145e-001 -6.1655334e-001
 -9.6352783e-002  4.5286554e-001 -6.4567217e-001
 -9.0973371e-002  3.7626710e-001 -7.0788679e-001
 -7.9512937e-002  3.0539887e-001 -7.3946165e-001
 -8.8751602e-002  2.7546111e-001 -7.1548797e-001
 -9.0388695e-002  2.3792177e-001 -7.3349756e-001
 -1.0149832e-001  2.0658078e-001 -7.3408224e-001
 -1.1822163e-001  1.8798691e-001 -7.1326620e-001
 -1.2605668e-001  1.3793472e-001 -7.2484357e-001
 -1.3950540e-001  7.5486221e-002 -7.2063351e-001
 -1.4055782e-001  1.9353008e-002 -7.3700601e-001
 -1.5003036e-001 -5.5140600e-002 -7.7653286e-001
 -1.5763193e-001 -1.1992780e-001 -8.0541821e-001
 -1.4430014e-001 -1.6085826e-001 -8.5055872e-001
 -1.4663884e-001 -2.1430157e-001 -8.8599284e-001
 -1.5272026e-001 -2.7008398e-001 -8.8108117e-001
 -1.6336215e-001 -3.3744415e-001 -8.5476878e-001
 -1.8172215e-001 -4.1918813e-001 -8.3979990e-001
 -1.8125441e-001 -4.8760072e-001 -8.4295754e-001
 -1.7996812e-001 -5.4385086e-001 -8.4681641e-001
 -1.7377016e-001 -5.9273370e-001 -8.7172556e-001
 -1.7201574e-001 -6.1214612e-001 -9.1487819e-001
 -1.8967453e-001 -6.1214612e-001 -9.5545784e-001
 -1.9786078e-001 -6.4325363e-001 -9.8399238e-001
 -2.0055029e-001 -6.9505985e-001 -9.7487065e-001
 -1.9704184e-001 -7.5891157e-001 -9.7393517e-001
 -1.9727571e-001 -8.3632856e-001 -9.9042421e-001
 -2.1282927e-001 -9.0111576e-001 -9.8317344e-001
