**************************************************************************************
            UNIVERSIDAD AUTONOMA METROPOLITANA - AZCAPOTZALCO
                        Departamento de Materiales
                           Area de Estructuras
     AV. SAN PABLO 180,COL.REYNOSA, AZCAPOTZALCO, C.P.02200 CIUDAD DE MEXICO.
**************************************************************************************
ARCHIVO ESTANDAR DE ACELERACION:
VERSION DEL FORMATO                    : 2.0
NOMBRE DEL ARCHIVO                     : RIML201606271
FECHA Y HORA DE CREACION               : MON JUL 18 12:30:07 2018
REF. CATALOGO ACELEROGRAMAS, SMIS 1995 : REGISTRO NO.      /PAG.    


================================================================================
DATOS DE LA ESTACION:
NOMBRE DE LA ESTACION                  : UAM-LERMA.
CLAVE DE LA ESTACION                   : RIML
LOCALIZACION DE LA ESTACION            : AV. DE LAS GARZAS 10, EL PANTEON, C.P.52005,
                                       : LERMA DE VILLADA, ESTADO DE MEXICO. 
                                       :
                                       : 
                                       : 
COORDENADAS DE LA ESTACION             : 19.291481 LAT. N
                                       : 99.502060 LONG. W
ALTITUD (msnm)                         : 2570
TIPO DE SUELO                          : DEPOSITOS LACUSTRES
                                       : 
                                       : 
INSTITUCION RESPONSABLE                : UNIVERSIDAD AUTONOMA METROPOLITANA
                                       : 

================================================================================
DATOS DEL ACELEROGRAFO: 
MODELO DEL ACELEROGRAFO                : BASALT KINEMETRICS
NUMERO DE SERIE DEL ACELEROGRAFO       : 1730
NUMERO DE CANALES                      : 3
ORIENTACION C1-C6 (rumbo;orientacion)  : /V/N00E/N90E
ORIENTACION C7-C12 (rumbo;orientacion) : 
VEL. DE MUESTREO, C1-C6 (muestras/s)   : /250/250/250
VEL. DE MUESTREO, C7-C12 (muestras/s)  : 
ESC. COMPLETA DE SENSORES, C1-C6, (g)  : /2/2/2
ESC. COMPLETA DE SENSORES, C7-C12 (g)  : 
FREC. NAT. DE SENSORES, C1-C6, (Hz)    : /210/212/212
FREC. NAT. DE SENSORES, C7-C12 (Hz)    : 
AMORTIGUAMIENTO DE SENSORES, C1-C6     : /0.7/0.7/0.7
AMORTIGUAMIENTO DE SENSORES, C7-C12    : 
INTERVALO DE MUESTREO, C1-C6 (s)       : /0.004/0.004/0.004
INTERVALO DE MUESTREO, C7-C12 (s)      : 
UMBRAL DE DISPARO, C1-C6 (Gal)         : /2/2/2
UMBRAL DE DISPARO, C7-C12 (Gal)        : 
MEMORIA DE PREEVENTO (s)               : 20
TIEMPO DE POSEVENTO (s)                : 30


================================================================================
DATOS DEL SISMO:
FECHA DEL SISMO [GMT]                  : 2016/06/27
HORA EPICENTRO (GMT)                   : 20:50:31
MAGNITUD(ES)                           : /M=5.7
COORDENADAS DEL EPICENTRO              : 16.208 LAT. N
                                       : 98.003 LONG. W
PROFUNDIDAD FOCAL (Km)                 : 4.4
FUENTE DE LOS DATOS EPICENTRALES       : SSN
                                       : INSTITUTO DE GEOFISICA, UNAM

================================================================================
DATOS DE ESTE REGISTRO:
HORA DE LA PRIMERA MUESTRA (GMT)       : 20:51:56.00
EXACTITUD DEL TIEMPO (s)               : 
DURACION DEL REGISTRO (s), C1-C6       : /103.00/103.00/103.00
DURACION DEL REGISTRO (s), C7-C12      : 
NUM. TOTAL DE MUESTRAS, C1-C6          : /25750/25750/25750
NUM. TOTAL DE MUESTRAS, C7-C12         : 
ACEL. MAX.(Gal), C1-C6                 : /-1.334/-4.118/3.766
ACEL. MAX., C1-C6, EN LA MUESTRA       : /8753/8509/7603
ACEL. MAX.(Gal), C7-C12                : 
ACEL. MAX., C7-C12,EN LA MUESTRA       : 
UNIDADES DE LOS DATOS                  : Gal (cm/s/s)
FACTOR DE DECIMACION                   : 1
FORMATO DATOS (FORTRAN,16 campos/dato) : 3E16.7


================================================================================
CALIDAD DEL ACELEROGRAMA:
REGISTRO DIGITAL COMPLETO CON TIEMPO ABSOLUTO CORRECTO


================================================================================
COMENTARIOS:














================================================================================
DATOS DE ACELERACION:
---------+---------+---------+---------+---------+---------+---------+---------+
   CANAL-1   CANAL-2   CANAL-3
         V      N00E      N90E
---------+---------+---------+---------+---------+---------+---------+---------+ 
[...]
 -4.2142930e-001  4.2887846e-001  4.9889151e-001
 -4.3660414e-001  4.3986627e-001  4.9631900e-001
 -4.5960002e-001  7.4926917e-001  6.2425285e-001
 -4.8668112e-001  9.3032901e-001  7.4750940e-001
 -5.1621374e-001  8.0689488e-001  7.8563211e-001
 -5.5310053e-001  7.5043796e-001  7.8399505e-001
 -5.6559040e-001  9.6878537e-001  8.7743110e-001
 -6.2862453e-001  1.1991717e+000  1.0226725e+000
 -6.6364340e-001  1.1345329e+000  1.0487504e+000
 -6.7088046e-001  1.0094624e+000  1.0805588e+000
 -7.1033510e-001  1.1366367e+000  1.1412514e+000
 -7.5807728e-001  1.4213765e+000  1.2523458e+000
 -7.5294119e-001  1.4113242e+000  1.3432093e+000
 -8.0395233e-001  1.2397319e+000  1.3635571e+000
 -8.6126637e-001  1.2984099e+000  1.4057729e+000
 -8.3465215e-001  1.5337060e+000  1.4878661e+000
 -8.7842545e-001  1.6587764e+000  1.5952182e+000
 -8.8904818e-001  1.5097438e+000  1.6262077e+000
 -8.9896981e-001  1.4311948e+000  1.6154491e+000
 -9.5558392e-001  1.6164627e+000  1.6684238e+000
 -9.6177050e-001  1.8142378e+000  1.7848975e+000
 -1.0060111e+000  1.7071679e+000  1.8265286e+000
 -1.0370611e+000  1.5227186e+000  1.7977608e+000
 -1.0381115e+000  1.6663740e+000  1.8330772e+000
 -1.0565549e+000  1.9268010e+000  1.9334130e+000
 -1.0395122e+000  1.8785260e+000  1.9881417e+000
 -1.0437145e+000  1.6204369e+000  1.9263967e+000
 -1.0510687e+000  1.7082202e+000  1.9434700e+000
 -1.0220029e+000  1.9700498e+000  2.0260309e+000
 -1.0262053e+000  1.9865309e+000  2.0482497e+000
 -9.7391020e-001  1.8121336e+000  2.0074371e+000
 -9.6188722e-001  1.7563779e+000  1.9715361e+000
 -1.0168668e+000  1.9898035e+000  2.0227564e+000
 -9.3655692e-001  2.0767686e+000  2.0100096e+000
 -9.3877461e-001  1.9414120e+000  1.9762138e+000
 -1.0044933e+000  1.8169260e+000  1.9503698e+000
 -9.7320988e-001  1.9354508e+000  1.9168074e+000
 -9.8943520e-001  2.1820849e+000  1.9366875e+000
 -9.9212016e-001  2.1006135e+000  1.9230052e+000
 -9.5966953e-001  1.9300740e+000  1.8666395e+000
 -9.5873537e-001  1.9587113e+000  1.8084025e+000
 -9.9188672e-001  2.1980985e+000  1.8195122e+000
 -9.7426037e-001  2.2720889e+000  1.8314401e+000
 -9.3679036e-001  2.0283768e+000  1.7528553e+000
 -9.7682861e-001  2.0214805e+000  1.6663186e+000
 -9.7671189e-001  2.2426330e+000  1.6802348e+000
 -9.6247082e-001  2.3335720e+000  1.6959049e+000
 -9.2114865e-001  2.1848900e+000  1.5989605e+000
 -9.1823025e-001  2.0317666e+000  1.5179200e+000
 -9.6877411e-001  2.2151641e+000  1.5116049e+000
 -8.9430099e-001  2.4097831e+000  1.5408404e+000
 -8.9278324e-001  2.2733746e+000  1.4461177e+000
 -9.3352180e-001  2.1428104e+000  1.3552541e+000
 -8.9044883e-001  2.2128265e+000  1.3920910e+000
 -8.5321188e-001  2.3881589e+000  1.3572424e+000
 -7.9858279e-001  2.4407584e+000  1.3191193e+000
 -7.7908892e-001  2.2411132e+000  1.2588944e+000
 -7.6099568e-001  2.2217101e+000  1.2229934e+000
 -6.9819539e-001  2.4089649e+000  1.2358571e+000
 -6.7484934e-001  2.4969815e+000  1.1895480e+000
 -6.7589983e-001  2.3682878e+000  1.1667446e+000
 -5.9605678e-001  2.2065146e+000  1.1299081e+000
 -5.6383959e-001  2.4053413e+000  1.1124837e+000
 -5.5321725e-001  2.5525034e+000  1.1244119e+000
 -4.4932784e-001  2.4360828e+000  1.1172783e+000
 -4.5854954e-001  2.3180259e+000  1.0777520e+000
 -4.7360765e-001  2.3858209e+000  1.0814942e+000
 -3.5757853e-001  2.6015966e+000  1.1412514e+000
 -2.7154891e-001  2.5477110e+000  1.1276860e+000
 -2.7084858e-001  2.4139911e+000  1.1293231e+000
 -2.2975947e-001  2.4345634e+000  1.1390293e+000
 -1.4816562e-001  2.5896741e+000  1.1821809e+000
 -1.0976146e-001  2.6650670e+000  1.2193681e+000
 -1.0707689e-001  2.4949946e+000  1.2001900e+000
 -1.2283532e-001  2.4436808e+000  1.2570235e+000
 -6.8906174e-002  2.6033498e+000  1.3035661e+000
 -2.9101373e-002  2.7145104e+000  1.3229784e+000
 -1.9880067e-002  2.6065059e+000  1.3677671e+000
  1.1403751e-002  2.5056314e+000  1.4242497e+000
  8.9522306e-003  2.6061552e+000  1.4589814e+000
  3.1131072e-002  2.7600972e+000  1.5059918e+000
  8.5526711e-002  2.6952242e+000  1.5776772e+000
  8.0857502e-002  2.5408147e+000  1.6398899e+000
  5.3893123e-002  2.6242731e+000  1.6919288e+000
  1.0548747e-001  2.7442001e+000  1.7105226e+000
  1.3630402e-001  2.7480575e+000  1.8018539e+000
  1.2428103e-001  2.6018303e+000  1.8635989e+000
  8.0740781e-002  2.5471266e+000  1.8641835e+000
  6.8367632e-002  2.7141598e+000  1.9339977e+000
  1.7645898e-001  2.7486419e+000  2.0087234e+000
  1.7435801e-001  2.6149220e+000  2.0600606e+000
  9.9067456e-002  2.5211775e+000  2.0887114e+000
  1.6105071e-001  2.6055709e+000  2.1326815e+000
  1.8439675e-001  2.6815481e+000  2.1706873e+000
  1.7844362e-001  2.6101295e+000  2.2310291e+000
  2.2490188e-001  2.4719675e+000  2.2484536e+000
  1.8171218e-001  2.4688117e+000  2.2340697e+000
  2.0389063e-001  2.5972717e+000  2.3075088e+000
  2.0377391e-001  2.5218788e+000  2.3486725e+000
  1.3945586e-001  2.3526249e+000  2.3577936e+000
  1.9408533e-001  2.2689328e+000  2.3239978e+000
  1.4073978e-001  2.3613912e+000  2.3363934e+000
  1.5836614e-001  2.3987956e+000  2.4035181e+000
  2.2747012e-001  2.1843056e+000  2.3525313e+000
  1.3525353e-001  2.0835480e+000  2.2954640e+000
  1.2930040e-001  2.1230563e+000  2.3245825e+000
  1.8661483e-001  2.1666557e+000  2.3384986e+000
  2.0879328e-001  2.0339874e+000  2.2972179e+000
  1.6887176e-001  1.8366801e+000  2.2578090e+000
  1.5509757e-001  1.8405375e+000  2.2295090e+000
  1.5836614e-001  1.8856564e+000  2.2334851e+000
  1.7132289e-001  1.8227703e+000  2.1778209e+000
  1.8509707e-001  1.5977608e+000  2.0964297e+000
  1.3560369e-001  1.4926783e+000  2.0825136e+000
  1.7412457e-001  1.5607070e+000  2.0254459e+000
  1.6782128e-001  1.5372127e+000  1.9808915e+000
  1.3910570e-001  1.3371000e+000  1.9392600e+000
  1.5007820e-001  1.1607158e+000  1.8506186e+000
  1.1844462e-001  1.2311993e+000  1.7988132e+000
  1.1751085e-001  1.2825132e+000  1.7810383e+000
  1.6735439e-001  1.1267012e+000  1.7238541e+000
  2.2058283e-001  8.8228778e-001  1.6230505e+000
  1.5358021e-001  9.1489980e-001  1.5636441e+000
  1.4716019e-001  9.9824087e-001  1.5507804e+000
  1.6933864e-001  8.2863635e-001  1.4886846e+000
  1.1482589e-001  6.7235684e-001  1.3760697e+000
  1.1494261e-001  5.7872923e-001  1.3394671e+000
  1.0268618e-001  6.7130454e-001  1.3240308e+000
  1.5661533e-001  6.3729037e-001  1.2351555e+000
  1.2860008e-001  4.3121644e-001  1.1744625e+000
  4.5721909e-002  3.5360244e-001  1.1500221e+000
  7.1519475e-002  3.9287695e-001  1.1101450e+000
  5.8328891e-002  4.6873737e-001  1.0280518e+000
  4.0118937e-002  3.1947139e-001  1.0046637e+000
  9.8859941e-003  1.8995915e-001  1.0265317e+000
  5.5293768e-002  2.0620652e-001  9.3204284e-001
  6.8601073e-002  2.8498931e-001  8.8292771e-001
  2.6461862e-002  2.3729872e-001  8.9345241e-001
  4.1986855e-002  2.6432350e-002  8.6129325e-001
 -2.3381680e-002  3.0406631e-002  7.9206417e-001
 -7.5560022e-002  1.0977381e-001  7.4166239e-001
 -7.7194109e-002  1.2344985e-001  7.8539824e-001
 -6.6921927e-002 -1.8569633e-002  7.4973112e-001
 -1.2458613e-001 -1.0366389e-001  6.6892455e-001
 -1.8073336e-001  1.1353770e-002  6.7617475e-001
 -1.4618137e-001  6.2668008e-002  6.9932933e-001
 -1.6742605e-001 -1.8803391e-002  6.6108969e-001
 -2.5940881e-001 -1.7508290e-001  6.1782117e-001
 -3.0936907e-001 -8.1221536e-002  6.6635204e-001
 -2.4003165e-001  1.8484179e-002  6.4156041e-001
 -2.6641282e-001 -5.2817562e-002  5.9864269e-001
 -3.7823961e-001 -1.7625169e-001  6.4015683e-001
 -3.8255866e-001 -2.2955249e-001  6.1840584e-001
 -4.3765501e-001 -5.3168199e-002  5.9946122e-001
 -4.6987220e-001 -8.6832125e-002  5.7794409e-001
 -4.7162301e-001 -2.3773481e-001  6.0753034e-001
 -5.7224386e-001 -2.7034682e-001  6.2015982e-001
 -5.8239932e-001 -1.8466777e-001  5.3514330e-001
 -5.6932584e-001 -1.0904111e-001  5.6917337e-001
 -5.5391757e-001 -2.5795646e-001  5.8121859e-001
 -5.4948180e-001 -3.4924609e-001  5.4718851e-001
 -6.6247580e-001 -3.1476402e-001  5.2274768e-001
 -6.4671737e-001 -2.3165670e-001  5.2274768e-001
 -5.8345019e-001 -3.1897206e-001  5.5455565e-001
 -6.4053079e-001 -4.8799257e-001  4.9795605e-001
 -6.8757265e-001 -5.0435682e-001  4.9713753e-001
 -6.4975249e-001 -4.5491304e-001  5.0017816e-001
 -5.9582334e-001 -4.4649735e-001  4.7433375e-001
 -6.4508328e-001 -6.7805288e-001  4.5574032e-001
 -6.8932385e-001 -7.8769371e-001  4.5468793e-001
 -6.7088046e-001 -6.9932645e-001  4.4486482e-001
 -6.6422700e-001 -6.9733911e-001  3.7095766e-001
 -6.2360516e-001 -8.5806042e-001  4.1902041e-001
 -5.7971475e-001 -1.0533807e+000  4.1317340e-001
 -5.5730246e-001 -1.0123530e+000  3.1529353e-001
 -5.3710826e-001 -1.0144568e+000  2.8886485e-001
 -5.2403479e-001 -1.1593983e+000  2.9798596e-001
 -4.9777073e-001 -1.3402244e+000  2.9003417e-001
 -5.4259491e-001 -1.4288258e+000  1.9320669e-001
 -5.2777024e-001 -1.3876812e+000  1.5590212e-001
 -4.3613725e-001 -1.4508006e+000  1.7800430e-001
 -4.0742207e-001 -1.6754599e+000  1.4116746e-001
 -4.1057352e-001 -1.8341939e+000  5.9191574e-002
 -4.1489257e-001 -1.7952704e+000  4.5798300e-003
 -3.1310452e-001 -1.8445969e+000 -1.4832517e-002
 -3.0913563e-001 -2.0052013e+000 -2.8982514e-002
 -3.3843481e-001 -2.1840405e+000 -8.1606015e-002
 -2.7738532e-001 -2.2092883e+000 -1.7130022e-001
 -2.0162788e-001 -2.1718839e+000 -1.8498249e-001
 -1.3065638e-001 -2.3711784e+000 -2.0170500e-001
 -1.7676447e-001 -2.5557450e+000 -2.6263149e-001
 -1.0322472e-001 -2.6244750e+000 -3.5688645e-001
 -6.6571766e-002 -2.6078770e+000 -4.0752210e-001
 -8.5131881e-002 -2.6864260e+000 -3.8588765e-001
 -2.8284330e-002 -2.8928506e+000 -4.3628943e-001
 -4.8711972e-002 -3.0097387e+000 -5.3370196e-001
 -2.4782717e-002 -2.9972315e+000 -5.7521610e-001
  3.7084205e-002 -2.9829715e+000 -5.4317427e-001
  9.0429361e-002 -3.1805124e+000 -5.9930614e-001
  6.2764659e-002 -3.3004398e+000 -7.1484437e-001
  7.0118438e-002 -3.2843089e+000 -7.4583381e-001
  1.3863882e-001 -3.3037124e+000 -7.2712305e-001
  1.7680953e-001 -3.3764171e+000 -7.6372564e-001
  2.1112769e-001 -3.5602820e+000 -8.7622363e-001
  1.7038913e-001 -3.6169731e+000 -8.7903000e-001
  2.4894824e-001 -3.5279042e+000 -8.9399853e-001
  3.0742988e-001 -3.5582951e+000 -9.5340489e-001
  1.9910470e-001 -3.7616804e+000 -9.6673636e-001
  2.3505734e-001 -3.8481776e+000 -1.0297676e+000
  2.9447274e-001 -3.7543166e+000 -1.0388891e+000
  2.9458946e-001 -3.7194839e+000 -1.0551439e+000
  3.1665119e-001 -3.8460738e+000 -1.0719838e+000
  3.2645649e-001 -3.9821316e+000 -1.1034409e+000
  3.8470468e-001 -3.8992581e+000 -1.1674080e+000
  4.1143562e-001 -3.8111242e+000 -1.1498666e+000
  4.0688313e-001 -3.9094273e+000 -1.1842475e+000
  4.4190201e-001 -4.0659406e+000 -1.2411979e+000
  4.2637701e-001 -4.0403421e+000 -1.2797887e+000
  3.9999624e-001 -3.8834778e+000 -1.2958096e+000
  4.5194075e-001 -3.9145704e+000 -1.2974467e+000
  4.5859460e-001 -4.0736550e+000 -1.3481997e+000
  4.1738876e-001 -4.1192414e+000 -1.3962624e+000
  4.1096874e-001 -3.9464808e+000 -1.3978995e+000
  4.6431429e-001 -3.8703866e+000 -1.3912339e+000
  5.0178429e-001 -4.0465371e+000 -1.4688829e+000
  4.4762170e-001 -4.0999548e+000 -1.4929729e+000
  5.0260133e-001 -3.9610918e+000 -1.4817466e+000
  5.7112171e-001 -3.8420995e+000 -1.5520285e+000
  5.3411859e-001 -3.9510394e+000 -1.5591618e+000
  5.5046063e-001 -4.1187739e+000 -1.5675817e+000
  5.7439027e-001 -4.0060938e+000 -1.6421904e+000
  5.8279454e-001 -3.8184884e+000 -1.6877976e+000
  6.2166558e-001 -3.8683993e+000 -1.6908382e+000
  6.5399949e-001 -4.0373029e+000 -1.6844062e+000
  6.5831853e-001 -3.9942878e+000 -1.7497765e+000
  6.6543926e-001 -3.8034098e+000 -1.7956175e+000
  6.9380429e-001 -3.7771096e+000 -1.7290779e+000
  7.2870644e-001 -3.9060375e+000 -1.7302472e+000
  7.1703361e-001 -3.9335060e+000 -1.8165504e+000
  7.4936752e-001 -3.7864607e+000 -1.8525683e+000
  8.6107799e-001 -3.6783393e+000 -1.8278936e+000
  8.9878143e-001 -3.7820189e+000 -1.8136267e+000
  8.6714784e-001 -3.9129337e+000 -1.9009818e+000
  8.2279055e-001 -3.7757071e+000 -1.9591020e+000
  9.2352812e-001 -3.6312331e+000 -1.9103372e+000
  9.4687417e-001 -3.6921318e+000 -1.9143133e+000
  8.2944401e-001 -3.7939418e+000 -1.9541904e+000
  9.2843077e-001 -3.7840063e+000 -1.9931320e+000
  9.7839103e-001 -3.5961667e+000 -2.0092699e+000
  9.5282730e-001 -3.5753606e+000 -1.9806191e+000
  9.3485079e-001 -3.7070935e+000 -1.9886882e+000
  9.5329418e-001 -3.7074442e+000 -2.0341784e+000
  9.9858523e-001 -3.5442684e+000 -2.0820073e+000
  9.8446089e-001 -3.4245748e+000 -2.0800195e+000
  1.0163283e+000 -3.5847117e+000 -2.0541754e+000
  9.7652351e-001 -3.6219993e+000 -2.1325260e+000
  9.7232118e-001 -3.4964613e+000 -2.2205832e+000
  9.3520095e-001 -3.3702217e+000 -2.1699475e+000
  9.4488953e-001 -3.3744298e+000 -2.1369699e+000
  9.1407298e-001 -3.5117737e+000 -2.2095908e+000
  8.2757648e-001 -3.4048207e+000 -2.3060674e+000
  9.3905311e-001 -3.2438656e+000 -2.2691137e+000
  9.2224419e-001 -3.1782913e+000 -2.1988318e+000
  8.8395676e-001 -3.2963486e+000 -2.3175276e+000
  8.1718758e-001 -3.3247522e+000 -2.3693326e+000
  8.5454086e-001 -3.0642087e+000 -2.3515577e+000
  9.0765297e-001 -2.9636848e+000 -2.3444240e+000
  7.6979556e-001 -3.0653775e+000 -2.3560015e+000
  7.7423093e-001 -3.1318868e+000 -2.4509581e+000
  8.0037866e-001 -2.9378526e+000 -2.4404330e+000
  8.2395776e-001 -2.7408956e+000 -2.4275696e+000
  7.3185828e-001 -2.7842613e+000 -2.4474497e+000
  6.8224818e-001 -2.8785902e+000 -2.4496714e+000
  7.1248112e-001 -2.7608835e+000 -2.5070899e+000
  6.4664571e-001 -2.4883003e+000 -2.5025292e+000
  6.7150912e-001 -2.4706504e+000 -2.4272188e+000
  6.4209322e-001 -2.5710573e+000 -2.4281543e+000
  5.9691889e-001 -2.5029113e+000 -2.5118845e+000
  5.8851423e-001 -2.2646933e+000 -2.4934077e+000
  6.0637402e-001 -2.0985952e+000 -2.3775186e+000
  5.9295000e-001 -2.1869624e+000 -2.3638364e+000
  4.9968332e-001 -2.2375750e+000 -2.4608981e+000
  4.8882754e-001 -2.0401509e+000 -2.4271019e+000
  5.2571394e-001 -1.7762175e+000 -2.2850180e+000
  4.7341927e-001 -1.7937506e+000 -2.2687629e+000
  3.7735051e-001 -1.9388089e+000 -2.2944900e+000
  4.1061858e-001 -1.7626584e+000 -2.2526250e+000
  3.9544375e-001 -1.4453069e+000 -2.1382561e+000
  3.4431628e-001 -1.4394626e+000 -2.0431830e+000
  3.3742938e-001 -1.5832348e+000 -2.0227179e+000
  3.1058133e-001 -1.4558268e+000 -1.9851798e+000
  3.4840189e-001 -1.1723730e+000 -1.8674199e+000
  3.2202072e-001 -1.0413414e+000 -1.7305980e+000
  2.9213833e-001 -1.1473589e+000 -1.6690869e+000
  2.8525104e-001 -1.1561257e+000 -1.6231289e+000
  2.8711896e-001 -9.1977768e-001 -1.5528470e+000
  2.7929791e-001 -7.1054763e-001 -1.3745114e+000
  2.6400636e-001 -7.1335312e-001 -1.2471618e+000
  2.5455122e-001 -8.4368351e-001 -1.2615457e+000
  1.9385189e-001 -6.6087009e-001 -1.1424995e+000
  2.4567968e-001 -3.3218057e-001 -9.4919493e-001
  2.5210009e-001 -3.1453026e-001 -8.1880511e-001
  2.1649722e-001 -4.6157593e-001 -7.8617862e-001
  2.3494062e-001 -3.6607825e-001 -6.8677824e-001
  2.9727442e-001 -2.4297101e-002 -4.8891333e-001
  3.2890801e-001  7.3421669e-002 -3.9500916e-001
  2.1964907e-001 -6.8597809e-002 -3.1244861e-001
  2.3412357e-001 -6.9299083e-002 -2.1655659e-001
  2.7171030e-001  2.0714156e-001 -1.0148609e-001
  2.6085451e-001  4.2022902e-001  2.1536204e-002
  2.0867656e-001  2.8148254e-001  1.3496965e-001
  1.9408533e-001  2.1754458e-001  1.9741626e-001
  2.4147735e-001  4.5155497e-001  2.3331764e-001
  1.5521429e-001  6.9386416e-001  4.1446005e-001
  1.5568118e-001  6.6768128e-001  5.2403394e-001
  1.2603183e-001  5.2940233e-001  5.4017179e-001
