**************************************************************************************
            UNIVERSIDAD AUTONOMA METROPOLITANA - AZCAPOTZALCO
                        Departamento de Materiales
                           Area de Estructuras
     AV. SAN PABLO 180,COL.REYNOSA, AZCAPOTZALCO, C.P.02200 CIUDAD DE MEXICO.
**************************************************************************************
ARCHIVO ESTANDAR DE ACELERACION:
VERSION DEL FORMATO                    : 2.0
NOMBRE DEL ARCHIVO                     : RIML201609221
FECHA Y HORA DE CREACION               : MON JUL 18 12:30:07 2018
REF. CATALOGO ACELEROGRAMAS, SMIS 1995 : REGISTRO NO.      /PAG.    


================================================================================
DATOS DE LA ESTACION:
NOMBRE DE LA ESTACION                  : UAM-LERMA.
CLAVE DE LA ESTACION                   : RIML
LOCALIZACION DE LA ESTACION            : AV. DE LAS GARZAS 10, EL PANTEON, C.P.52005,
                                       : LERMA DE VILLADA, ESTADO DE MEXICO. 
                                       :
                                       : 
                                       : 
COORDENADAS DE LA ESTACION             : 19.291481 LAT. N
                                       : 99.502060 LONG. W
ALTITUD (msnm)                         : 2570
TIPO DE SUELO                          : DEPOSITOS LACUSTRES
                                       : 
                                       : 
INSTITUCION RESPONSABLE                : UNIVERSIDAD AUTONOMA METROPOLITANA
                                       : 

================================================================================
DATOS DEL ACELEROGRAFO: 
MODELO DEL ACELEROGRAFO                : BASALT KINEMETRICS
NUMERO DE SERIE DEL ACELEROGRAFO       : 978
NUMERO DE CANALES                      : 3
ORIENTACION C1-C6 (rumbo;orientacion)  : /V/N00E/N90E
ORIENTACION C7-C12 (rumbo;orientacion) : 
VEL. DE MUESTREO, C1-C6 (muestras/s)   : /250/250/250
VEL. DE MUESTREO, C7-C12 (muestras/s)  : 
ESC. COMPLETA DE SENSORES, C1-C6, (g)  : /2/2/2
ESC. COMPLETA DE SENSORES, C7-C12 (g)  : 
FREC. NAT. DE SENSORES, C1-C6, (Hz)    : /210/212/212
FREC. NAT. DE SENSORES, C7-C12 (Hz)    : 
AMORTIGUAMIENTO DE SENSORES, C1-C6     : /0.7/0.7/0.7
AMORTIGUAMIENTO DE SENSORES, C7-C12    : 
INTERVALO DE MUESTREO, C1-C6 (s)       : /0.004/0.004/0.004
INTERVALO DE MUESTREO, C7-C12 (s)      : 
UMBRAL DE DISPARO, C1-C6 (Gal)         : /2/2/2
UMBRAL DE DISPARO, C7-C12 (Gal)        : 
MEMORIA DE PREEVENTO (s)               : 20
TIEMPO DE POSEVENTO (s)                : 30


================================================================================
DATOS DEL SISMO:
FECHA DEL SISMO [GMT]                  : 2016/09/22
HORA EPICENTRO (GMT)                   : 18:09:00
MAGNITUD(ES)                           : /M=4.9
COORDENADAS DEL EPICENTRO              : 17.977 LAT. N
                                       : 98.494 LONG. W
PROFUNDIDAD FOCAL (Km)                 : 55.3
FUENTE DE LOS DATOS EPICENTRALES       : SSN
                                       : INSTITUTO DE GEOFISICA, UNAM

================================================================================
DATOS DE ESTE REGISTRO:
HORA DE LA PRIMERA MUESTRA (GMT)       : 18:09:28.00
EXACTITUD DEL TIEMPO (s)               : 
DURACION DEL REGISTRO (s), C1-C6       : /51.00/51.00/51.00
DURACION DEL REGISTRO (s), C7-C12      : 
NUM. TOTAL DE MUESTRAS, C1-C6          : /12750/12750/12750
NUM. TOTAL DE MUESTRAS, C7-C12         : 
ACEL. MAX.(Gal), C1-C6                 : /0.758/-0.906/1.614
ACEL. MAX., C1-C6, EN LA MUESTRA       : /5988/7343/5512
ACEL. MAX.(Gal), C7-C12                : 
ACEL. MAX., C7-C12,EN LA MUESTRA       : 
UNIDADES DE LOS DATOS                  : Gal (cm/s/s)
FACTOR DE DECIMACION                   : 1
FORMATO DATOS (FORTRAN,16 campos/dato) : 3E16.7


================================================================================
CALIDAD DEL ACELEROGRAMA:
REGISTRO DIGITAL COMPLETO CON TIEMPO ABSOLUTO CORRECTO


================================================================================
COMENTARIOS:














================================================================================
DATOS DE ACELERACION:
---------+---------+---------+---------+---------+---------+---------+---------+
   CANAL-1   CANAL-2   CANAL-3
         V      N00E      N90E
---------+---------+---------+---------+---------+---------+---------+---------+ 
[...]
 -1.4993013e-001 -2.7516723e-001  5.8926590e-001
 -1.6884041e-001 -2.3285386e-001  6.0867825e-001
 -1.0907485e-001 -1.2204384e-001  6.5147864e-001
 -4.5690953e-002 -1.0696526e-001  6.9311011e-001
 -1.0032043e-001 -1.3490172e-001  7.0983262e-001
 -2.1878026e-002 -8.8496796e-002  6.9696888e-001
  2.9132720e-002  8.0550229e-004  7.0059417e-001
  1.1784730e-001  4.3353024e-002  7.0714278e-001
  1.0640791e-001  3.2599362e-002  6.9065413e-001
  1.1201089e-001  7.9003894e-002  6.5124478e-001
  1.9255425e-001  1.5404616e-001  6.1265434e-001
  1.8940241e-001  2.1704870e-001  5.8680993e-001
  2.4683317e-001  2.2324408e-001  5.5090894e-001
  1.6920821e-001  2.2207489e-001  4.9349082e-001
  1.9535554e-001  3.1348180e-001  4.1549063e-001
  2.2547177e-001  3.9203044e-001  3.9607868e-001
  1.3687430e-001  4.1283648e-001  3.6158087e-001
  9.0765810e-002  3.9635535e-001  2.8358069e-001
 -2.8510289e-003  4.4626665e-001  2.4440520e-001
  3.6953773e-002  5.4071241e-001  1.7985381e-001
 -1.7792420e-002  5.5789482e-001  1.4781159e-001
 -1.2891889e-001  5.4036178e-001  9.0042667e-002
 -1.9288678e-001  5.3650438e-001  1.2510211e-002
 -2.3806111e-001  5.8594816e-001 -3.3447751e-002
 -2.1740003e-001  6.0897491e-001 -9.4491169e-002
 -3.1790416e-001  5.4316688e-001 -1.3039216e-001
 -3.5887616e-001  5.2598447e-001 -2.0804116e-001
 -3.3564684e-001  5.4830995e-001 -2.5633816e-001
 -3.4113309e-001  5.3369888e-001 -2.8697680e-001
 -3.4405149e-001  4.9302182e-001 -3.2954333e-001
 -3.7801988e-001  4.0114779e-001 -3.8053017e-001
 -3.7136642e-001  4.0278410e-001 -4.3911762e-001
 -2.8673745e-001  4.1716140e-001 -4.4882379e-001
 -2.6689341e-001  3.4375584e-001 -4.8905167e-001
 -3.1358511e-001  2.8320776e-001 -5.2354947e-001
 -2.5860548e-001  2.1178875e-001 -5.6026899e-001
 -2.0911210e-001  2.2078922e-001 -5.7582218e-001
 -1.4584492e-001  1.8373580e-001 -5.7909668e-001
 -1.3417170e-001  1.0331671e-001 -5.9745663e-001
 -1.7140865e-001  7.7367587e-002 -6.0494070e-001
 -5.0126722e-002  5.8548483e-002 -6.0891679e-001
 -8.1038401e-003  6.9535903e-002 -5.6903971e-001
 -6.4017237e-002  5.7148166e-003 -5.6716879e-001
 -3.3901015e-002 -3.7066071e-002 -5.5290186e-001
  3.2188254e-003 -1.8363846e-002 -5.3091661e-001
  2.4113350e-002 -4.1038120e-003 -5.0214928e-001
  3.6837052e-002 -3.0052933e-002 -4.5841303e-001
  8.3549162e-003 -8.2301812e-002 -4.7525247e-001
  1.7693334e-002 -6.9678085e-002 -4.4636821e-001
  1.0629119e-001 -4.5715909e-002 -4.0263196e-001
  1.3162149e-001 -5.1443377e-002 -3.6673097e-001
  1.0722496e-001 -1.0825093e-001 -3.5971424e-001
  1.5041465e-001 -1.0603023e-001 -3.5632320e-001
  2.1776783e-001 -3.8351741e-002 -2.9387620e-001
  2.1263174e-001 -3.5429764e-002 -2.5949573e-001
  1.7130918e-001 -5.7988998e-002 -2.3622422e-001
  1.7831319e-001 -6.4651891e-002 -2.1973557e-001
  1.8601713e-001  9.2238139e-004 -1.6325252e-001
  2.1916847e-001  5.2821015e-002 -9.4841966e-002
  2.0749564e-001  1.1793314e-002 -8.3615672e-002
  1.3430606e-001  2.7923806e-002 -5.2625841e-002
  1.7597839e-001  8.2978176e-002 -1.5321660e-002
  1.9920771e-001  1.2201854e-001  3.8120760e-002
  1.4481168e-001  1.3744815e-001  8.0102628e-002
  1.1656338e-001  1.1395349e-001  8.7118964e-002
  9.4734696e-002  1.6024114e-001  1.2629446e-001
  7.3723451e-002  2.1494487e-001  1.9704405e-001
  7.1038881e-002  1.9846375e-001  2.4499025e-001
  7.4211527e-003  1.8934639e-001  2.5130499e-001
 -5.9932021e-002  2.1155499e-001  2.8919384e-001
 -4.9738449e-005  2.4767338e-001  3.3269622e-001
 -2.2344908e-002  2.7058364e-001  3.8356573e-001
 -5.8881146e-002  2.3317958e-001  4.0391354e-001
 -5.0593603e-002  2.0161948e-001  3.7140398e-001
 -4.3939755e-002  2.4253030e-001  4.1268425e-001
  5.7870666e-003  2.4697210e-001  4.4191971e-001
 -5.0126722e-002  1.9156709e-001  4.3969760e-001
 -6.7869403e-002  1.4714951e-001  4.1408744e-001
 -6.6702198e-002  1.6164369e-001  3.9490896e-001
 -4.8842405e-002  1.6491670e-001  4.3291513e-001
 -4.6274556e-002  1.0331671e-001  4.1361971e-001
 -1.3452186e-001  5.5976751e-002  3.7935577e-001
 -1.1316046e-001  4.3002387e-002  3.4930180e-001
 -9.9736431e-002  4.6625639e-002  3.4170080e-001
 -9.9970264e-002 -5.8569985e-003  3.4649542e-001
 -1.4526132e-001 -8.5808577e-002  2.8159284e-001
 -1.4701212e-001 -1.1023827e-001  2.2779962e-001
 -5.5496253e-002 -1.0065340e-001  2.3259424e-001
 -7.3005493e-002 -1.4109670e-001  2.1914584e-001
 -7.6740939e-002 -2.3004837e-001  1.7377254e-001
 -7.6157337e-002 -2.6277726e-001  1.3354466e-001
 -2.6547235e-002 -2.8440146e-001  7.6828129e-002
  2.0377904e-002 -3.2379285e-001  8.3494060e-002
  1.9444141e-002 -3.6563871e-001  7.0981117e-002
  1.6993012e-002 -4.0678368e-001 -2.5612496e-002
  4.5027502e-003 -4.1496561e-001 -4.9819463e-002
  1.1492890e-001 -4.3074547e-001 -6.4671054e-002
  1.0594064e-001 -4.8603359e-001 -1.1355272e-001
  6.9054242e-002 -5.1513884e-001 -1.6980152e-001
  1.3068733e-001 -5.0263199e-001 -2.4370828e-001
  1.2403388e-001 -4.9924211e-001 -2.8639214e-001
  1.2695228e-001 -5.1513884e-001 -3.0182839e-001
  1.0897576e-001 -5.6797251e-001 -3.8473974e-001
  1.3243853e-001 -5.6142649e-001 -4.8425705e-001
  1.6173771e-001 -5.0578773e-001 -5.1138772e-001
  1.6664036e-001 -5.2098319e-001 -5.5547437e-001
  1.1679682e-001 -5.3921790e-001 -6.0856600e-001
  6.0065985e-002 -5.4155548e-001 -6.8808630e-001
  1.0022095e-001 -5.1747682e-001 -7.7064685e-001
  6.1583743e-002 -4.6955246e-001 -7.7462294e-001
  3.8120977e-002 -4.9515095e-001 -8.1181019e-001
  3.7420654e-002 -5.0824258e-001 -8.9285062e-001
  1.5825807e-002 -4.5891568e-001 -9.3799005e-001
  3.4735693e-002 -4.3226529e-001 -9.3646993e-001
  9.4054001e-003 -4.4301895e-001 -9.4220001e-001
 -1.1255684e-002 -4.8217658e-001 -9.8254483e-001
  2.8899279e-002 -4.6511067e-001 -1.0086227e+000
  5.2478766e-002 -4.0760184e-001 -1.0081550e+000
  3.9988504e-002 -4.1555001e-001 -9.6944761e-001
  4.3373788e-002 -4.5926632e-001 -9.5436216e-001
  3.0533365e-002 -4.6008447e-001 -9.6675778e-001
  8.9598605e-002 -4.1929053e-001 -9.2711456e-001
  1.0489016e-001 -4.1484873e-001 -8.6724046e-001
  4.6992513e-002 -4.6172117e-001 -8.1637095e-001
  8.5396278e-002 -4.5809753e-001 -7.9368449e-001
  9.0765810e-002 -4.1543313e-001 -7.6479984e-001
  8.7847799e-002 -4.2338169e-001 -6.7522256e-001
  5.4929895e-002 -4.3518726e-001 -5.9780743e-001
  1.9327420e-002 -4.5353885e-001 -5.7593911e-001
  2.7381914e-002 -4.2548551e-001 -5.2542039e-001
  2.5047113e-002 -3.9567899e-001 -4.4461383e-001
 -2.7364278e-002 -4.3203153e-001 -3.7444890e-001
 -1.0732404e-001 -4.2700533e-001 -3.1784931e-001
 -7.1137967e-002 -4.2992731e-001 -2.8978357e-001
 -6.8453005e-002 -3.7463918e-001 -2.2663498e-001
 -1.0872469e-001 -3.6762605e-001 -1.3729156e-001
 -1.7642802e-001 -4.5926632e-001 -7.8821051e-002
 -2.1226394e-001 -4.0643304e-001 -6.1396555e-002
 -1.9954024e-001 -3.5628799e-001 -1.7426836e-002
 -2.5580419e-001 -3.8095105e-001  8.5131114e-002
 -2.7051174e-001 -4.0456259e-001  1.2220143e-001
 -3.5654175e-001 -4.1321242e-001  1.4804545e-001
 -3.6961523e-001 -3.7510670e-001  1.9084624e-001
 -3.1778744e-001 -3.5266434e-001  2.3844125e-001
 -3.7965397e-001 -3.8925025e-001  3.1316694e-001
 -3.7965397e-001 -4.2864164e-001  3.2263925e-001
 -3.3541340e-001 -3.7989914e-001  3.3714004e-001
 -2.9537515e-001 -3.5044325e-001  3.7982350e-001
 -2.7354687e-001 -3.9778321e-001  4.2636652e-001
 -2.4343064e-001 -4.3822651e-001  4.4905297e-001
 -2.0946226e-001 -3.9965327e-001  4.4227050e-001
 -1.0580668e-001 -3.5359938e-001  4.8846233e-001
 -9.5067614e-002 -4.0082206e-001  5.1196770e-001
 -1.5261510e-001 -4.2805725e-001  5.2974260e-001
 -3.6585976e-002 -4.3869403e-001  5.3243244e-001
 -8.3372810e-003 -4.0608201e-001  5.0424938e-001
  2.4813672e-002 -3.8761394e-001  5.3278324e-001
  1.1273319e-002 -4.5494140e-001  5.2611731e-001
 -4.4173196e-002 -4.5026584e-001  4.7384460e-001
  5.7614856e-002 -4.0900438e-001  4.4227050e-001
  7.1389043e-002 -3.8773082e-001  4.1841433e-001
  2.8899279e-002 -4.1251115e-001  3.8052549e-001
  7.8880344e-003 -4.4851266e-001  3.1585678e-001
  6.2284065e-002 -3.8457469e-001  2.5586575e-001
  8.7147476e-002 -3.1701347e-001  2.0160480e-001
  4.8393159e-002 -3.4787191e-001  1.4406975e-001
  4.1272820e-002 -3.6365176e-001  8.3377128e-002
  4.6292191e-002 -2.9328506e-001  1.7516464e-003
  1.3068733e-001 -2.2841206e-001 -6.5255716e-002
  1.2204963e-001 -2.1087902e-001 -1.0817344e-001
  9.1349804e-002 -2.2233395e-001 -1.9178638e-001
  1.2286667e-001 -1.7803325e-001 -2.7423038e-001
  1.9220409e-001 -6.9444327e-002 -3.2170847e-001
  2.4403188e-001 -1.6026264e-002 -3.7936045e-001
  1.7866335e-001 -2.8884142e-002 -4.1526184e-001
  2.3002426e-001 -3.2852661e-003 -4.7291382e-001
  2.8488717e-001  1.0343359e-001 -5.2109389e-001
  3.2002276e-001  1.7496909e-001 -5.0168155e-001
  3.6029444e-001  1.7017665e-001 -5.2927955e-001
  2.8080156e-001  1.8525523e-001 -5.5407118e-001
  3.3438055e-001  2.6473929e-001 -5.3617935e-001
  4.2531282e-001  3.4375584e-001 -5.2261402e-001
  3.6461349e-001  3.4539215e-001 -4.9454789e-001
  3.1967260e-001  3.2622240e-001 -4.7314769e-001
  3.5118947e-001  3.7286069e-001 -4.4356144e-001
  3.5399115e-001  4.5725407e-001 -3.8684491e-001
  3.3029494e-001  4.5409794e-001 -3.2369632e-001
  2.5955687e-001  4.0757653e-001 -2.6978656e-001
  1.9488866e-001  4.3481172e-001 -2.0944474e-001
  2.5161910e-001  4.8869690e-001 -1.3378359e-001
  2.2010223e-001  4.9407373e-001 -4.3972451e-002
  1.2450076e-001  4.4614977e-001  3.1805626e-002
  9.8236701e-002  4.3259062e-001  8.6534302e-002
  8.5396278e-002  4.6368281e-001  1.6780859e-001
  9.4968137e-002  4.8238504e-001  2.5317591e-001
  4.3723950e-002  4.1751204e-001  3.2439323e-001
 -4.3005992e-002  3.7999110e-001  3.8251334e-001
 -3.1333165e-002  4.2323951e-001  4.3887907e-001
  7.8880344e-003  4.1809644e-001  5.2997647e-001
 -6.1799548e-002  3.9390050e-001  6.0704120e-001
 -1.5775119e-001  3.3206675e-001  6.4832147e-001
 -1.9253662e-001  3.4410648e-001  7.1521190e-001
 -1.9954024e-001  3.8688736e-001  7.9683699e-001
 -1.9720583e-001  3.4819724e-001  8.7682502e-001
 -2.9689291e-001  3.0249399e-001  9.3950589e-001
 -3.6658050e-001  2.7409041e-001  9.8768557e-001
 -2.9327419e-001  3.3300178e-001  1.0755089e+000
 -3.3272883e-001  3.2411858e-001  1.1539764e+000
 -3.6179457e-001  2.4171215e-001  1.2035596e+000
 -3.6926507e-001  2.1926979e-001  1.2511547e+000
 -3.8058773e-001  2.4708898e-001  1.3114965e+000
 -2.8136792e-001  2.6742751e-001  1.3970977e+000
 -3.4265085e-001  2.0384058e-001  1.4431729e+000
 -3.7942053e-001  1.5357864e-001  1.4594277e+000
 -3.5782568e-001  1.6538422e-001  1.5060873e+000
 -3.3716460e-001  1.7894337e-001  1.5578923e+000
 -2.7343015e-001  1.3008398e-001  1.5942614e+000
 -3.6342865e-001  6.8834628e-002  1.5963662e+000
 -3.2000512e-001  5.5275476e-002  1.5831516e+000
 -2.3082405e-001  7.2107635e-002  1.6040845e+000
 -2.1249738e-001  6.1938369e-002  1.6151938e+000
 -1.4607836e-001 -3.2039878e-002  1.5725100e+000
 -1.4689540e-001 -4.2326023e-002  1.5019943e+000
 -6.4834671e-002  1.2260831e-002  1.4838686e+000
  5.3762690e-002 -2.1052458e-002  1.4600124e+000
  9.2983890e-002 -4.8871644e-002  1.3707859e+000
  1.1446202e-001 -6.9911843e-002  1.2814425e+000
  1.9558899e-001 -3.8234862e-002  1.2027411e+000
  3.2235756e-001  1.1442677e-002  1.1539764e+000
  3.4838818e-001 -3.9871562e-002  1.0574997e+000
  3.2889430e-001 -4.9923948e-002  9.4313079e-001
  3.8562474e-001 -1.4974353e-002  8.4501706e-001
  4.8472822e-001  4.0313775e-002  7.6023440e-001
  4.6044841e-001  4.4521815e-002  6.9743661e-001
  4.4002077e-001  4.1953883e-003  5.5161092e-001
  4.9488368e-001  5.6561146e-002  4.3431832e-001
  4.6640154e-001  1.1979784e-001  3.6918187e-001
  5.0643979e-001  1.5451367e-001  2.8755678e-001
  4.6325009e-001  1.1804465e-001  1.7178469e-001
  3.8247289e-001  1.3405826e-001  5.6129526e-002
  4.5507888e-001  2.2312720e-001 -1.4503133e-002
  4.0395141e-001  2.4358261e-001 -7.7066673e-002
  3.4056712e-001  2.2873779e-001 -1.4407443e-001
  3.1138466e-001  2.2032171e-001 -2.6019732e-001
  2.7519859e-001  2.8215546e-001 -3.2299472e-001
  2.8547077e-001  3.1920927e-001 -3.4778635e-001
  2.2395440e-001  2.9781843e-001 -3.9760348e-001
  1.5706850e-001  2.7876596e-001 -4.6426004e-001
  1.1247777e-001  2.9325975e-001 -5.1992418e-001
  9.0649089e-002  3.3370345e-001 -5.1267398e-001
  3.1817682e-002  3.1815696e-001 -5.3840107e-001
 -4.7675201e-002  2.5492066e-001 -5.6681799e-001
 -8.3394395e-002  2.5328436e-001 -5.9932755e-001
 -1.4642852e-001  3.1126070e-001 -6.0119847e-001
 -1.7572770e-001  2.7327225e-001 -5.5793034e-001
 -2.5136842e-001  2.1295793e-001 -5.6880584e-001
 -3.3844852e-001  2.0536000e-001 -5.8938751e-001
 -3.2070545e-001  2.3797202e-001 -5.8038293e-001
 -3.4440165e-001  2.4942695e-001 -5.3115086e-001
 -3.8992615e-001  1.9600889e-001 -5.0951641e-001
 -4.1128755e-001  2.0126884e-001 -5.2109389e-001
 -4.1268859e-001  2.4136151e-001 -4.9899171e-001
 -3.9226095e-001  2.6754439e-001 -4.3958535e-001
 -4.2541190e-001  2.5328436e-001 -3.8602638e-001
 -4.2494502e-001  2.4066024e-001 -3.7421504e-001
 -4.0358361e-001  2.9653276e-001 -3.4158854e-001
 -4.0930331e-001  3.5731460e-001 -2.6171744e-001
 -3.7930381e-001  3.3043044e-001 -1.8418538e-001
 -3.6389553e-001  2.8835083e-001 -1.4863518e-001
 -3.3156162e-001  3.5778211e-001 -1.1062902e-001
 -2.9420795e-001  3.9834230e-001 -3.9060898e-002
 -2.8288529e-001  3.7519867e-001  3.9173151e-002
 -2.8148464e-001  3.4469087e-001  9.9047246e-002
 -2.5533691e-001  3.1897551e-001  1.1740681e-001
 -1.7164209e-001  3.5801587e-001  1.6769166e-001
 -1.2436640e-001  3.4504151e-001  2.5387751e-001
 -1.2996937e-001  2.6696000e-001  2.9188367e-001
 -8.2927514e-002  2.3060785e-001  3.0369463e-001
  1.4774932e-002  2.1997107e-001  3.1562291e-001
  2.0144463e-002  2.1143811e-001  3.7491195e-001
  4.8626599e-002  1.1418725e-001  4.2145497e-001
  1.0885904e-001  3.1196421e-002  3.9865119e-001
  1.2893653e-001  4.8496096e-002  4.0496593e-001
  1.9325458e-001 -1.0065038e-002  4.1841433e-001
  1.8496664e-001 -8.9899738e-002  4.2683425e-001
  1.6815772e-001 -1.6166899e-001  4.1209959e-001
  2.0095852e-001 -1.9708611e-001  3.6520578e-001
  1.9582243e-001 -1.8154001e-001  3.5327789e-001
  1.6290491e-001 -2.5821858e-001  3.5058844e-001
  1.2671884e-001 -3.2250718e-001  3.0205758e-001
  9.4617976e-002 -3.0684421e-001  2.3844125e-001
  1.0839216e-001 -2.8977829e-001  2.0102014e-001
  9.5901901e-002 -3.0135050e-001  1.6114306e-001
  4.9910524e-002 -3.3524779e-001  1.2372194e-001
  6.4034872e-002 -3.1829914e-001  5.0048649e-002
  8.3645472e-002 -2.6195911e-001 -3.1576440e-002
  1.4831368e-001 -2.5295863e-001 -6.9582607e-002
  1.2613484e-001 -2.4851683e-001 -1.1823041e-001
  1.0383967e-001 -2.3507456e-001 -2.0114175e-001
  1.8683456e-001 -1.9299495e-001 -2.9446126e-001
  1.8963585e-001 -1.2064129e-001 -3.2977759e-001
  1.8088104e-001 -1.3396630e-001 -3.7830806e-001
  1.4562872e-001 -1.5524025e-001 -4.6496164e-001
  1.2975357e-001 -1.0357538e-001 -5.3009808e-001
  1.1971483e-001 -2.3273161e-002 -5.8973831e-001
  3.3918650e-002 -3.8234862e-002 -6.2984926e-001
 -4.5107351e-002 -1.0018588e-001 -6.8761857e-001
 -1.1351062e-001 -4.7702853e-002 -7.5579526e-001
 -1.6603912e-001  2.4422019e-003 -8.0830222e-001
 -2.2417021e-001  9.6890982e-003 -8.3753728e-001
 -3.4370133e-001 -2.1519974e-002 -8.6384942e-001
 -4.2762998e-001 -4.7819732e-002 -9.3471595e-001
 -3.9622944e-001  1.0039735e-002 -9.7447610e-001
 -4.1584004e-001  4.7561064e-002 -9.7915340e-001
 -4.7525544e-001  3.6109929e-003 -1.0011386e+000
 -4.8307650e-001 -2.9117900e-002 -1.0348179e+000
