**************************************************************************************
            UNIVERSIDAD AUTONOMA METROPOLITANA - AZCAPOTZALCO
                        Departamento de Materiales
                           Area de Estructuras
     AV. SAN PABLO 180,COL.REYNOSA, AZCAPOTZALCO, C.P.02200 CIUDAD DE MEXICO.
**************************************************************************************
ARCHIVO ESTANDAR DE ACELERACION:
VERSION DEL FORMATO                    : 2.0
NOMBRE DEL ARCHIVO                     : RIML201607191
FECHA Y HORA DE CREACION               : MON JUL 18 12:30:07 2018
REF. CATALOGO ACELEROGRAMAS, SMIS 1995 : REGISTRO NO.      /PAG.    


================================================================================
DATOS DE LA ESTACION:
NOMBRE DE LA ESTACION                  : UAM-LERMA.
CLAVE DE LA ESTACION                   : RIML
LOCALIZACION DE LA ESTACION            : AV. DE LAS GARZAS 10, EL PANTEON, C.P.52005,
                                       : LERMA DE VILLADA, ESTADO DE MEXICO. 
                                       :
                                       : 
                                       : 
COORDENADAS DE LA ESTACION             : 19.291481 LAT. N
                                       : 99.502060 LONG. W
ALTITUD (msnm)                         : 2570
TIPO DE SUELO                          : DEPOSITOS LACUSTRES
                                       : 
                                       : 
INSTITUCION RESPONSABLE                : UNIVERSIDAD AUTONOMA METROPOLITANA
                                       : 

================================================================================
DATOS DEL ACELEROGRAFO: 
MODELO DEL ACELEROGRAFO                : BASALT KINEMETRICS
NUMERO DE SERIE DEL ACELEROGRAFO       : 978
NUMERO DE CANALES                      : 3
ORIENTACION C1-C6 (rumbo;orientacion)  : /V/N00E/N90E
ORIENTACION C7-C12 (rumbo;orientacion) : 
VEL. DE MUESTREO, C1-C6 (muestras/s)   : /250/250/250
VEL. DE MUESTREO, C7-C12 (muestras/s)  : 
ESC. COMPLETA DE SENSORES, C1-C6, (g)  : /2/2/2
ESC. COMPLETA DE SENSORES, C7-C12 (g)  : 
FREC. NAT. DE SENSORES, C1-C6, (Hz)    : /210/212/212
FREC. NAT. DE SENSORES, C7-C12 (Hz)    : 
AMORTIGUAMIENTO DE SENSORES, C1-C6     : /0.7/0.7/0.7
AMORTIGUAMIENTO DE SENSORES, C7-C12    : 
INTERVALO DE MUESTREO, C1-C6 (s)       : /0.004/0.004/0.004
INTERVALO DE MUESTREO, C7-C12 (s)      : 
UMBRAL DE DISPARO, C1-C6 (Gal)         : /2/2/2
UMBRAL DE DISPARO, C7-C12 (Gal)        : 
MEMORIA DE PREEVENTO (s)               : 20
TIEMPO DE POSEVENTO (s)                : 30


================================================================================
DATOS DEL SISMO:
FECHA DEL SISMO [GMT]                  : 2016/07/19
HORA EPICENTRO (GMT)                   : 13:42:46
MAGNITUD(ES)                           : /M=5.0
COORDENADAS DEL EPICENTRO              : 17.4812 LAT. N
                                       : 98.8102 LONG. W
PROFUNDIDAD FOCAL (Km)                 : 56
FUENTE DE LOS DATOS EPICENTRALES       : SSN
                                       : INSTITUTO DE GEOFISICA, UNAM

================================================================================
DATOS DE ESTE REGISTRO:
HORA DE LA PRIMERA MUESTRA (GMT)       : 13:43:22.00
EXACTITUD DEL TIEMPO (s)               : 
DURACION DEL REGISTRO (s), C1-C6       : /51.00/51.00/51.00
DURACION DEL REGISTRO (s), C7-C12      : 
NUM. TOTAL DE MUESTRAS, C1-C6          : /12750/12750/12750
NUM. TOTAL DE MUESTRAS, C7-C12         : 
ACEL. MAX.(Gal), C1-C6                 : /-0.685/-1.050/1.014
ACEL. MAX., C1-C6, EN LA MUESTRA       : /10554/11663/5052
ACEL. MAX.(Gal), C7-C12                : 
ACEL. MAX., C7-C12,EN LA MUESTRA       : 
UNIDADES DE LOS DATOS                  : Gal (cm/s/s)
FACTOR DE DECIMACION                   : 1
FORMATO DATOS (FORTRAN,16 campos/dato) : 3E16.7


================================================================================
CALIDAD DEL ACELEROGRAMA:
REGISTRO DIGITAL COMPLETO CON TIEMPO ABSOLUTO CORRECTO


================================================================================
COMENTARIOS:














================================================================================
DATOS DE ACELERACION:
---------+---------+---------+---------+---------+---------+---------+---------+
   CANAL-1          CANAL-2         CANAL-3
         V            N00E             N90E
---------+---------+---------+---------+---------+---------+---------+---------+ 
[...]
 -3.7005781e-001 -7.0566503e-002  2.7848939e-001
 -3.5254857e-001 -5.7825505e-002  2.5942784e-001
 -3.3550621e-001 -4.4851141e-002  2.3498740e-001
 -3.6352107e-001 -2.2642151e-002  2.0797366e-001
 -3.4601183e-001 -1.9979540e-004  1.7651649e-001
 -3.6678963e-001  2.7034996e-002  1.3991391e-001
 -3.3130388e-001  3.2061189e-002  1.1570694e-001
 -3.1904706e-001  4.4217792e-002  9.1266108e-002
 -2.9114892e-001  1.0055783e-001  6.4837425e-002
 -2.2017741e-001  9.3310935e-002  2.1335043e-002
 -2.7504032e-001  1.2311746e-001  3.6770749e-003
 -2.4597458e-001  1.5198856e-001 -1.7723515e-002
 -2.1515804e-001  1.4520918e-001 -4.1813158e-002
 -1.9741497e-001  2.0762732e-001 -6.8476098e-002
 -1.6648170e-001  2.0482222e-001 -1.0636494e-001
 -1.9064479e-001  2.1721219e-001 -1.2449103e-001
 -1.3134611e-001  2.7285096e-001 -1.4928266e-001
 -1.1126863e-001  2.5999347e-001 -1.7231991e-001
 -1.4138485e-001  3.0908622e-001 -2.0377747e-001
 -1.3286347e-001  3.2147658e-001 -2.1851174e-001
 -1.3741596e-001  3.3071082e-001 -2.2389141e-001
 -1.0052956e-001  4.0703875e-001 -2.5090476e-001
 -8.5121292e-002  3.8973947e-001 -2.8177726e-001
 -1.2854443e-001  4.2632537e-001 -3.0317746e-001
 -9.4809871e-002  4.5928763e-001 -3.1510574e-001
 -7.6133035e-002  4.6197624e-001 -3.4024817e-001
 -7.5432713e-002  4.9154901e-001 -3.6293462e-001
 -6.4927090e-002  4.8874352e-001 -3.7685076e-001
 -8.3486814e-002  5.3970673e-001 -3.8889558e-001
 -6.5627413e-002  5.3608347e-001 -4.1088083e-001
 -6.5160531e-002  5.6425330e-001 -4.2514737e-001
 -5.3837866e-002  5.9896913e-001 -4.4596329e-001
 -5.0919463e-002  5.8248800e-001 -4.4572943e-001
 -6.2942451e-002  6.2129500e-001 -4.3005892e-001
 -6.0958204e-002  6.1358020e-001 -4.6338740e-001
 -8.1969449e-002  6.4186729e-001 -4.6163341e-001
 -1.0321413e-001  6.6466029e-001 -4.5403202e-001
 -1.1371976e-001  6.5788091e-001 -4.5473362e-001
 -6.3292612e-002  6.8231060e-001 -4.4105174e-001
 -4.3799125e-002  6.9259674e-001 -4.5227804e-001
 -4.8584663e-002  6.9516808e-001 -4.4818501e-001
  6.7488575e-004  6.9738918e-001 -4.4467665e-001
 -2.8157020e-002  7.3409196e-001 -4.2584935e-001
  5.5775357e-003  7.3818312e-001 -4.2140553e-001
  3.0090785e-002  7.2123408e-001 -4.4444278e-001
 -2.6406213e-002  7.3666330e-001 -4.2000195e-001
  5.8339480e-002  7.5010557e-001 -3.9825095e-001
  5.8339480e-002  7.6144363e-001 -3.9240394e-001
  6.2191647e-002  7.3853376e-001 -3.9988801e-001
  7.7950080e-002  7.1574037e-001 -3.8889558e-001
  5.2036185e-002  7.4543002e-001 -3.4375614e-001
  1.3047819e-001  7.3678018e-001 -3.4153443e-001
  1.4005005e-001  7.1948090e-001 -3.1674280e-001
  1.6164490e-001  7.0896099e-001 -3.0282666e-001
  1.5324064e-001  6.8558321e-001 -2.8891053e-001
  2.1090484e-001  7.0825972e-001 -2.2985536e-001
  2.4919227e-001  6.8242748e-001 -2.2517767e-001
  2.1895933e-001  6.5402350e-001 -1.9921672e-001
  2.9296557e-001  6.2842502e-001 -1.6717449e-001
  2.7113728e-001  5.9861850e-001 -1.3934262e-001
  2.9471677e-001  6.2047646e-001 -9.2565741e-002
  3.0697320e-001  5.8470871e-001 -9.0227093e-002
  2.9716790e-001  5.4239534e-001 -5.7366343e-002
  2.7090384e-001  5.1492640e-001 -1.7021528e-002
  2.4323914e-001  4.9622456e-001 -4.7428423e-003
  3.0253743e-001  4.7763922e-001  1.4084843e-002
  2.3436760e-001  4.1638986e-001  2.4726475e-002
  2.3693545e-001  3.9394712e-001  6.1679858e-002
  2.6518415e-001  3.6998533e-001  9.0447582e-002
  2.5642933e-001  3.4064632e-001  8.9161325e-002
  2.5351132e-001  3.2229474e-001  1.1629160e-001
  1.8382374e-001  2.6700661e-001  1.3652248e-001
  2.0179986e-001  2.4210940e-001  1.6482247e-001
  1.7763716e-001  2.1206912e-001  1.8411749e-001
  1.1682073e-001  1.8354866e-001  1.8189578e-001
  9.6743245e-002  1.6858696e-001  2.0820753e-001
  6.7561178e-002  1.1610393e-001  2.1499039e-001
  5.5887960e-002  1.0102535e-001  2.2808760e-001
  3.4059672e-002  6.8881243e-002  2.2457963e-001
  2.6705893e-002  3.1476793e-002  2.1066350e-001
  6.3945787e-003  7.9825259e-003  2.2680135e-001
  6.5112992e-003 -1.6797804e-002  2.2493043e-001
  3.7678397e-002 -2.8253132e-002  2.0890912e-001
 -7.2575946e-004 -8.5761963e-002  1.8797665e-001
 -1.1114661e-002 -9.3476375e-002  2.0598581e-001
  3.9312483e-002 -1.1136045e-001  1.9744896e-001
  1.9118281e-002 -1.4198512e-001  1.8060952e-001
  8.8460995e-003 -1.5320630e-001  1.7511331e-001
 -9.1304141e-003 -2.0183193e-001  1.3114319e-001
 -4.7650899e-002 -1.9119515e-001  1.5839040e-001
 -9.2471345e-003 -2.0791003e-001  1.4634558e-001
 -4.3565292e-002 -2.3526210e-001  1.0108921e-001
 -7.2864471e-002 -2.5396393e-001  1.0307706e-001
 -8.9907222e-002 -2.7535476e-001  8.8225474e-002
 -1.0158005e-001 -2.5641878e-001  8.5652961e-002
 -7.2514310e-002 -2.8634218e-001  3.9578066e-002
 -1.4406942e-001 -2.9499202e-001  2.4726475e-002
 -1.2702706e-001 -3.1778501e-001  3.2093608e-002
 -9.7611162e-002 -3.2877243e-001  2.2734937e-003
 -7.0646783e-002 -3.0188828e-001 -6.8476254e-003
 -5.3604033e-002 -3.3075977e-001 -4.4619928e-002
 -1.1757192e-001 -3.1591495e-001 -5.3624507e-002
 -5.4188027e-002 -3.2152554e-001 -5.9939248e-002
 -5.4538188e-002 -3.2257745e-001 -9.3735457e-002
 -4.0180400e-002 -3.0107013e-001 -1.2039800e-001
 -1.2515307e-002 -3.2456439e-001 -1.5080278e-001
 -3.9480077e-002 -2.9627769e-001 -1.6062589e-001
  2.5655017e-002 -2.8038096e-001 -1.8214302e-001
  2.0518926e-002 -2.6939315e-001 -2.0073684e-001
  4.4798735e-002 -2.6039306e-001 -2.3932767e-001
  4.4215133e-002 -2.6050994e-001 -2.5078783e-001
  1.6433319e-002 -2.1866369e-001 -2.4084779e-001
  6.9311985e-002 -2.2965151e-001 -2.9358822e-001
  4.1997445e-002 -2.1083240e-001 -3.1229897e-001
  8.3792178e-003 -1.8102588e-001 -3.0914141e-001
  1.6900593e-002 -1.9984498e-001 -3.2270674e-001
  2.8923581e-002 -1.4490749e-001 -3.4551052e-001
  8.6126587e-003 -1.4198512e-001 -3.7018522e-001
 -9.1304141e-003 -1.5718058e-001 -3.8141151e-001
  1.5032674e-002 -1.0645113e-001 -3.9181928e-001
  8.7293791e-003 -9.3242617e-002 -3.9638003e-001
 -4.1110437e-003 -5.7825505e-002 -4.1661091e-001
 -2.1153402e-002 -5.8877809e-002 -4.3730951e-001
 -1.5316989e-002 -6.3436486e-002 -4.3614019e-001
 -5.8618503e-003 -8.8496331e-003 -4.2935732e-001
 -3.2709509e-002  3.7744861e-003 -4.4339039e-001
 -3.9946959e-002  1.4060631e-002 -4.5064098e-001
 -3.7495438e-002  1.3593115e-002 -4.4724955e-001
 -6.1891967e-002  3.0892398e-002 -4.4771728e-001
 -8.5938335e-002  7.4725590e-002 -4.3578939e-001
 -6.6211015e-002  7.1218824e-002 -4.4257186e-001
 -9.2591792e-002  8.4076702e-002 -4.3590632e-001
 -1.1325288e-001  9.2726147e-002 -4.2467964e-001
 -8.3253373e-002  1.1692208e-001 -4.3228103e-001
 -9.8895087e-002  1.5058601e-001 -4.2877266e-001
 -1.4582062e-001  1.5117040e-001 -4.2070393e-001
 -1.5247407e-001  1.6847008e-001 -4.1509079e-001
 -1.5095671e-001  1.5888521e-001 -4.1169936e-001
 -1.7208467e-001  2.0645853e-001 -3.9275474e-001
 -1.3706580e-001  2.1031593e-001 -4.0900952e-001
 -1.7885485e-001  1.9336689e-001 -4.0105772e-001
 -1.7955557e-001  2.2831649e-001 -3.6948323e-001
 -1.4325238e-001  2.0552350e-001 -3.8024219e-001
 -1.5924425e-001  2.5099300e-001 -3.6082984e-001
 -1.3286347e-001  2.2632955e-001 -3.7088681e-001
 -1.6239609e-001  2.3451187e-001 -3.4609518e-001
 -1.1325288e-001  2.6922771e-001 -3.2668283e-001
 -1.1348632e-001  2.2971943e-001 -3.6340235e-001
 -1.2072377e-001  2.6303233e-001 -3.2937228e-001
 -9.4693151e-002  2.4421362e-001 -3.2305754e-001
 -1.0006268e-001  2.6946146e-001 -3.1826292e-001
 -6.5393972e-002  2.5379810e-001 -3.1697666e-001
 -1.1196895e-001  2.2703082e-001 -3.2539658e-001
 -7.6950078e-002  2.5835677e-001 -2.9651192e-001
 -9.4693151e-002  2.3170638e-001 -3.0808901e-001
 -9.9712521e-002  2.4339507e-001 -2.9312049e-001
 -7.6716637e-002  2.1393958e-001 -2.9733045e-001
 -9.7727882e-002  1.9535423e-001 -3.2317447e-001
 -4.1581045e-002  2.0306864e-001 -2.8551949e-001
 -9.5860355e-002  1.8939301e-001 -2.8516870e-001
 -3.8662642e-002  1.7150893e-001 -3.0843981e-001
 -1.8235000e-002  1.3936483e-001 -3.0224200e-001
 -5.8973956e-002  1.3726061e-001 -2.9908444e-001
  6.1611379e-003  1.2264955e-001 -2.9183423e-001
  3.3598474e-003  1.1516890e-001 -2.9604419e-001
  2.4837974e-002  8.6764921e-002 -3.0364519e-001
 -4.8113663e-003  4.3282759e-002 -2.8715655e-001
  4.6666262e-002  5.8361339e-002 -2.7721651e-001
  8.0167768e-002  3.1593673e-002 -2.8154340e-001
  4.4215133e-002 -1.4343343e-002 -2.8762428e-001
  9.7210519e-002 -2.3110060e-002 -2.8212806e-001
  6.6393582e-002 -6.6124705e-002 -2.7546252e-001
  9.4292116e-002 -6.7410376e-002 -2.6680874e-001
  1.2650931e-001 -7.5475818e-002 -2.6891352e-001
  8.3436332e-002 -1.3333529e-001 -2.8715655e-001
  9.6743245e-002 -1.5086872e-001 -2.6610715e-001
  1.1518664e-001 -1.8219467e-001 -2.6014320e-001
  1.2674275e-001 -1.9505255e-001 -2.6470396e-001
  1.6573051e-001 -2.3152157e-001 -2.5850576e-001
  1.6082786e-001 -2.6822435e-001 -2.5873962e-001
  1.5359080e-001 -2.8143287e-001 -2.4002926e-001
  2.0285074e-001 -3.3672100e-001 -2.4879958e-001
  1.9397920e-001 -3.3426614e-001 -2.3441611e-001
  2.0273402e-001 -3.7669679e-001 -2.2283863e-001
  1.8510766e-001 -4.1608818e-001 -2.1278166e-001
  1.8977687e-001 -4.1550339e-001 -1.8097369e-001
  2.0168314e-001 -4.7172694e-001 -1.9746234e-001
  1.5195632e-001 -4.7172694e-001 -1.6951353e-001
  1.9619689e-001 -5.1392344e-001 -1.5138744e-001
  1.4915503e-001 -5.4665233e-001 -1.3922569e-001
  1.4471926e-001 -5.4466499e-001 -1.0800239e-001
  1.6514690e-001 -6.1094054e-001 -1.3267669e-001
  1.2148994e-001 -6.1853847e-001 -9.1864146e-002
  1.5417440e-001 -6.4261752e-001 -6.0991640e-002
  1.0339709e-001 -6.6400797e-001 -6.3096815e-002
  1.1425288e-001 -6.8948957e-001 -2.7663553e-002
  1.0923351e-001 -7.4384266e-001 -2.4505986e-002
  9.2191148e-002 -7.3869959e-001  7.7697086e-003
  1.1098431e-001 -7.6979179e-001  4.3671093e-002
  7.1179512e-002 -7.7996105e-001  4.7412929e-002
  6.2074926e-002 -8.1093637e-001  7.3842004e-002
  8.9628200e-003 -8.3513230e-001  1.1219858e-001
  5.3203390e-002 -8.2449552e-001  1.4026471e-001
  3.1608151e-002 -8.7417306e-001  1.4622865e-001
 -3.4577427e-002 -8.7499121e-001  1.6002785e-001
 -5.2782481e-003 -8.9825172e-001  1.8844438e-001
 -2.1386843e-002 -9.2700633e-001  2.0820753e-001
  1.6900593e-002 -9.1531764e-001  2.2516429e-001
 -1.1931705e-002 -9.4640983e-001  2.3299916e-001
 -1.9986198e-002 -9.6955385e-001  2.4235453e-001
 -3.8776029e-003 -9.8089191e-001  2.8421947e-001
  1.1417675e-003 -9.8381389e-001  3.0807564e-001
  6.1140771e-002 -9.9328188e-001  2.9825253e-001
  1.1997943e-002 -1.0125685e+000  3.2035472e-001
  1.1997943e-002 -1.0125685e+000  3.5099336e-001
  3.8378719e-002 -1.0365307e+000  3.5134416e-001
  4.6316101e-002 -1.0296340e+000  3.5450133e-001
  9.8027562e-002 -1.0295171e+000  3.6444137e-001
  7.3514312e-002 -1.0502067e+000  3.7040531e-001
  1.0234661e-001 -1.0198158e+000  3.8245053e-001
  1.2207354e-001 -1.0531287e+000  3.6221965e-001
  9.8027562e-002 -1.0458818e+000  3.5274734e-001
  1.6678099e-001 -1.0284652e+000  3.7461527e-001
  1.6701443e-001 -1.0457649e+000  3.7297822e-001
  1.5615865e-001 -1.0101140e+000  3.6794973e-001
  1.6608067e-001 -1.0428425e+000  3.4795272e-001
  1.4401894e-001 -1.0229715e+000  3.5157802e-001
  1.7588597e-001 -1.0070748e+000  3.5286428e-001
  1.5802657e-001 -1.0152571e+000  3.4678340e-001
  1.5697569e-001 -9.8568434e-001  3.3871428e-001
  1.7868765e-001 -1.0260108e+000  2.9392564e-001
  1.6911579e-001 -9.9187933e-001  3.1357185e-001
  2.0705267e-001 -9.7306023e-001  2.9883720e-001
  1.9036048e-001 -9.6569645e-001  2.6784776e-001
  2.0436810e-001 -9.4313682e-001  2.6749696e-001
  2.2327838e-001 -9.8194382e-001  2.3229756e-001
  1.9479624e-001 -9.2034383e-001  2.4562903e-001
  2.4849195e-001 -9.0760283e-001  2.1744597e-001
  2.3763578e-001 -9.0561589e-001  1.9136809e-001
  2.0039922e-001 -8.7803007e-001  1.8212964e-001
  2.0822027e-001 -9.0339479e-001  1.4938622e-001
  2.0495170e-001 -8.2893732e-001  1.5581789e-001
  2.2222750e-001 -8.2040436e-001  1.1254937e-001
  2.2327838e-001 -8.3209305e-001  8.8108541e-002
  1.9106080e-001 -7.9726033e-001  7.8402760e-002
  1.8102206e-001 -7.7516862e-001  5.7703765e-002
  2.0751955e-001 -7.2280286e-001  5.3494198e-002
  1.8172238e-001 -7.3215358e-001  2.1919705e-002
  1.6876563e-001 -6.9673647e-001  2.7766718e-002
  1.5604193e-001 -6.5722859e-001  1.0693411e-002
  1.2767690e-001 -6.4039643e-001 -1.3162759e-002
  1.4752094e-001 -5.8066650e-001 -1.4098219e-002
  1.1518664e-001 -5.7119851e-001 -3.9474510e-002
  9.4292116e-002 -5.3285942e-001 -4.5087657e-002
  7.2930710e-002 -4.8750680e-001 -6.8943827e-002
  5.5070917e-002 -4.6576533e-001 -8.0871716e-002
  7.6665764e-002 -4.1445148e-001 -9.1279484e-002
  4.6199380e-002 -3.8219050e-001 -1.0063486e-001
  7.0129028e-002 -3.5273461e-001 -9.1864146e-002
  5.8222760e-002 -3.1486264e-001 -1.1607111e-001
  3.2425586e-002 -2.8377045e-001 -1.0788506e-001
  8.7755380e-002 -2.4741831e-001 -1.0133645e-001
  5.2036185e-002 -2.0709188e-001 -1.0309083e-001
  5.3553551e-002 -1.7038910e-001 -8.9876295e-002
  4.9351224e-002 -1.4490749e-001 -9.8530077e-002
  6.8618521e-003 -1.1182796e-001 -8.9759363e-002
  3.1257990e-002 -6.9047075e-002 -7.9234663e-002
  9.4297017e-003 -3.9006794e-002 -8.4029283e-002
  8.7293791e-003 -1.2239127e-002 -7.8766933e-002
  1.6090409e-003  1.3593115e-002 -7.0931678e-002
 -2.8507181e-002  5.5789607e-002 -5.9705384e-002
 -4.1110437e-003  9.1323598e-002 -4.7426305e-002
 -9.4805754e-003  1.0967519e-001 -4.8011359e-002
 -3.9596798e-002  1.4146865e-001 -1.9711366e-002
 -1.2982188e-002  1.5058601e-001 -1.3513557e-002
 -1.0180898e-002  1.9313314e-001  3.7940072e-003
 -2.3604531e-002  2.1873201e-001  3.8642607e-002
 -1.8702273e-002  2.1510837e-001  2.1568908e-002
 -3.9246636e-002  2.6046099e-001  5.9808940e-002
 -5.2086667e-002  2.6361672e-001  7.1035235e-002
 -8.0101922e-002  2.9038439e-001  8.6822285e-002
 -4.6833856e-002  3.0978789e-001  1.0939220e-001
 -6.9946461e-002  3.1563224e-001  9.8633634e-002
 -1.1932312e-001  3.5853000e-001  1.3874419e-001
 -7.4615670e-002  3.6484226e-001  1.2740096e-001
 -9.7144280e-002  3.8938844e-001  1.4693024e-001
 -1.1477063e-001  4.0481805e-001  1.5944319e-001
 -1.1675488e-001  4.2901359e-001  1.5499936e-001
 -1.2877787e-001  4.4140395e-001  1.8750892e-001
 -1.3403068e-001  4.5110570e-001  1.8177884e-001
 -9.7844603e-002  4.7822361e-001  1.9090036e-001
 -1.1593784e-001  4.6197624e-001  1.9522725e-001
 -1.4360254e-001  4.9061397e-001  2.2539816e-001
 -7.6833358e-002  4.9049709e-001  2.3510433e-001
 -1.0263053e-001  4.7962616e-001  2.3662445e-001
 -6.2709010e-002  5.0393898e-001  2.6667843e-001
 -5.0569302e-002  4.8652281e-001  2.6352087e-001
 -7.8350724e-002  5.0101700e-001  2.8082843e-001
 -2.8157020e-002  5.0370522e-001  2.9462724e-001
 -8.8622905e-002  4.9482162e-001  2.9848640e-001
 -6.2242129e-002  5.0919893e-001  2.9860333e-001
 -5.8740124e-002  5.0510777e-001  3.0585392e-001
 -1.0940110e-001  5.0312082e-001  3.1754795e-001
 -9.8311485e-002  4.9599080e-001  3.1181787e-001
 -1.2574314e-001  4.9295156e-001  3.1544316e-001
 -6.4343488e-002  4.8511987e-001  3.1906807e-001
 -5.7689640e-002  4.8804224e-001  3.2210870e-001
 -7.6599917e-002  4.7880801e-001  3.0526926e-001
 -4.3915845e-002  4.5215761e-001  2.9731707e-001
 -4.4616168e-002  4.5659941e-001  3.0433341e-001
 -2.5005568e-002  4.5624877e-001  3.0293022e-001
 -3.8312481e-002  4.5940451e-001  2.9591389e-001
 -7.3331353e-002  4.5659941e-001  2.7872325e-001
 -7.7183519e-002  4.4900149e-001  2.8386867e-001
 -5.4888349e-002  4.5215761e-001  2.7954178e-001
