**************************************************************************************
            UNIVERSIDAD AUTONOMA METROPOLITANA - AZCAPOTZALCO
                        Departamento de Materiales
                           Area de Estructuras
     AV. SAN PABLO 180,COL.REYNOSA, AZCAPOTZALCO, C.P.02200 CIUDAD DE MEXICO.
**************************************************************************************
ARCHIVO ESTANDAR DE ACELERACION:
VERSION DEL FORMATO                    : 2.0
NOMBRE DEL ARCHIVO                     : RIDA201805161
FECHA Y HORA DE CREACION               : MON JUL 18 12:30:07 2018
REF. CATALOGO ACELEROGRAMAS, SMIS 1995 : REGISTRO NO.      /PAG.    


================================================================================
DATOS DE LA ESTACION:
NOMBRE DE LA ESTACION                  : UAM-AZCAPOTZALCO.
CLAVE DE LA ESTACION                   : RIDA
LOCALIZACION DE LA ESTACION            : AV. SAN PABLO 180,COL.REYNOSA, AZCAPOTZALCO,
                                       : C.P.02200 CIUDAD DE MEXICO.
                                       :
                                       : 
                                       : 
COORDENADAS DE LA ESTACION             : 19.498596 LAT. N
                                       : 99.195595 LONG. W
ALTITUD (msnm)                         : 2246
TIPO DE SUELO                          : TRANSICION 
                                       : 
                                       : 
INSTITUCION RESPONSABLE                : UNIVERSIDAD AUTONOMA METROPOLITANA
                                       : 

================================================================================
DATOS DEL ACELEROGRAFO: 
MODELO DEL ACELEROGRAFO                : BASALT KINEMETRICS
NUMERO DE SERIE DEL ACELEROGRAFO       : 1730
NUMERO DE CANALES                      : 3
ORIENTACION C1-C6 (rumbo;orientacion)  : /V/N00E/N90E
ORIENTACION C7-C12 (rumbo;orientacion) : 
VEL. DE MUESTREO, C1-C6 (muestras/s)   : /250/250/250
VEL. DE MUESTREO, C7-C12 (muestras/s)  : 
ESC. COMPLETA DE SENSORES, C1-C6, (g)  : /2/2/2
ESC. COMPLETA DE SENSORES, C7-C12 (g)  : 
FREC. NAT. DE SENSORES, C1-C6, (Hz)    : /210/206/212
FREC. NAT. DE SENSORES, C7-C12 (Hz)    : 
AMORTIGUAMIENTO DE SENSORES, C1-C6     : /0.7/0.7/0.7   
AMORTIGUAMIENTO DE SENSORES, C7-C12    : 
INTERVALO DE MUESTREO, C1-C6 (s)       : /0.004/0.004/0.004
INTERVALO DE MUESTREO, C7-C12 (s)      : 
UMBRAL DE DISPARO, C1-C6 (Gal)         : /2/2/2
UMBRAL DE DISPARO, C7-C12 (Gal)        : 
MEMORIA DE PREEVENTO (s)               : 30
TIEMPO DE POSEVENTO (s)                : 60


================================================================================
DATOS DEL SISMO:
FECHA DEL SISMO [GMT]                  : 2018/05/16
HORA EPICENTRO (GMT)                   : 14:20:29
MAGNITUD(ES)                           : /M=5.1
COORDENADAS DEL EPICENTRO              : 18.1868 LAT. N
                                       : 100.479 LONG. W
PROFUNDIDAD FOCAL (Km)                 : 53.0
FUENTE DE LOS DATOS EPICENTRALES       : SSN
                                       : INSTITUTO DE GEOFISICA, UNAM

================================================================================
DATOS DE ESTE REGISTRO:
HORA DE LA PRIMERA MUESTRA (GMT)       : 14:21:06.00
EXACTITUD DEL TIEMPO (s)               : 
DURACION DEL REGISTRO (s), C1-C6       : /95.00/95.00/95.00
DURACION DEL REGISTRO (s), C7-C12      : 
NUM. TOTAL DE MUESTRAS, C1-C6          : /23750/23750/23750
NUM. TOTAL DE MUESTRAS, C7-C12         : 
ACEL. MAX.(Gal), C1-C6                 : /0.887/1.195/1.550
ACEL. MAX., C1-C6, EN LA MUESTRA       : /2040/7743/8441
ACEL. MAX.(Gal), C7-C12                : 
ACEL. MAX., C7-C12,EN LA MUESTRA       : 
UNIDADES DE LOS DATOS                  : Gal (cm/s/s)
FACTOR DE DECIMACION                   : 1
FORMATO DATOS (FORTRAN,16 campos/dato) : 3E16.7


================================================================================
CALIDAD DEL ACELEROGRAMA:
REGISTRO DIGITAL COMPLETO CON TIEMPO ABSOLUTO CORRECTO


================================================================================
COMENTARIOS:














================================================================================
DATOS DE ACELERACION:
---------+---------+---------+---------+---------+---------+---------+---------+
   CANAL-1          CANAL-2         CANAL-3
         V           N00E             N90E
---------+---------+---------+---------+---------+---------+---------+---------+ 
[...]
 -6.4488834e-002  6.0796233e-002 -2.8367622e-001
 -5.1858655e-002  1.7855900e-001 -3.0608832e-002
 -2.3909181e-002  3.2801396e-001 -5.1190997e-002
 -1.4553580e-002  4.4682915e-001 -3.3232519e-001
  3.5729459e-003  4.3571952e-001 -6.6643496e-001
  2.9768393e-002  3.2707848e-001 -8.3693982e-001
  6.2629538e-002  1.9469724e-001 -7.3671851e-001
  1.0777006e-001  9.0733998e-002 -4.5289480e-001
  1.4951906e-001  8.6056198e-002 -1.8181782e-001
  1.6565769e-001  1.9282628e-001 -3.9613627e-002
  1.6554075e-001  3.6987990e-001 -6.8849781e-002
  1.5010413e-001  5.5897903e-001 -1.9526654e-001
  1.2940464e-001  6.9159375e-001 -3.3782154e-001
  1.3911105e-001  6.8598047e-001 -3.8565196e-001
  1.7653345e-001  5.2179050e-001 -2.9560479e-001
  2.2728725e-001  2.5012884e-001 -1.6661506e-001
  2.7079068e-001 -5.1603212e-003 -3.9262821e-002
  2.7476647e-001 -6.3515695e-002  5.8385919e-002
  2.3290053e-001  1.3259994e-001  9.6743411e-002
  1.8214673e-001  4.6682664e-001  8.2710010e-002
  1.6635930e-001  7.2667706e-001  3.4646111e-002
  1.7781974e-001  7.3077018e-001 -3.4779034e-003
  2.0062406e-001  4.7700079e-001  3.8897990e-003
  2.0366438e-001  1.2745440e-001  6.8092325e-002
  1.5255977e-001 -1.1380175e-001  2.0105785e-001
  1.0168903e-001 -1.3134321e-001  3.5694464e-001
  7.7832291e-002  4.8750730e-002  4.6675542e-001
  7.9469777e-002  2.6369450e-001  4.6090827e-001
  1.1034302e-001  3.5058403e-001  3.2256294e-001
  1.3092519e-001  2.9304759e-001  1.7123702e-001
  1.2952197e-001  1.5692442e-001  8.6686199e-002
  1.0496361e-001  4.5125739e-002  1.2633037e-001
  8.8474179e-002  2.0333514e-002  2.5660639e-001
  9.6777363e-002  6.3018002e-002  3.4092334e-001
  1.0753619e-001  1.3786242e-001  3.1683272e-001
  1.2273894e-001  1.8838235e-001  1.7954020e-001
  1.4577714e-001  1.7388120e-001  5.4292794e-002
  1.7208952e-001  1.2008709e-001  4.8913383e-002
  1.7466209e-001  3.2612495e-002  1.7439466e-001
  1.4636181e-001 -4.9014553e-002  3.7132884e-001
  1.1829501e-001 -5.4627835e-002  5.2791724e-001
  1.3045745e-001 -2.5508616e-002  5.9527702e-001
  1.5197509e-001  4.5008804e-002  5.5493123e-001
  1.5805612e-001  1.0476740e-001  4.5459298e-001
  1.4788197e-001  7.8454625e-002  3.7156271e-001
  1.1057689e-001  2.3239240e-003  3.4934306e-001
  1.0239065e-001 -9.8832872e-002  3.5109748e-001
  1.2519497e-001 -1.4023107e-001  3.1963956e-001
  1.6460488e-001 -1.1988278e-001  2.9016954e-001
  1.9255475e-001 -6.1878602e-002  3.1192105e-001
  1.6448795e-001 -2.1766689e-002  4.2898221e-001
  9.5257206e-002 -5.6264928e-002  5.7340856e-001
  1.6787408e-002 -8.5033341e-002  6.5047475e-001
 -1.5956802e-002 -8.6436564e-002  6.3000952e-001
 -9.8791931e-004 -4.5856910e-002  4.6734010e-001
  1.9828116e-002 -1.7692004e-003  2.8174942e-001
  2.3570042e-002 -8.4348992e-003  1.8386720e-001
  1.7956760e-002 -7.1467681e-002  1.8293132e-001
 -3.5608861e-003 -1.7063658e-001  2.4713385e-001
 -3.3147846e-002 -2.7050709e-001  2.9905700e-001
 -3.6422032e-002 -3.7388604e-001  3.5238377e-001
 -1.4085839e-002 -4.0920322e-001  3.6162244e-001
  3.8305055e-002 -3.6464738e-001  3.2864396e-001
  8.4615318e-002 -2.6232084e-001  2.8245103e-001
  9.9584201e-002 -1.4619516e-001  2.0070704e-001
  9.3385850e-002 -1.1614046e-001  1.3662145e-001
  7.1985139e-002 -1.4338871e-001  8.0020500e-002
  7.1283528e-002 -2.1297065e-001  3.9908587e-002
  9.8531391e-002 -2.8418968e-001  6.1893975e-002
  1.4566020e-001 -3.0021098e-001  1.3299607e-001
  1.9875271e-001 -2.6267164e-001  2.0187640e-001
  2.2225864e-001 -1.4292097e-001  2.7297849e-001
  2.0623734e-001 -2.4708116e-003  3.4010479e-001
  1.6296779e-001  1.0090815e-001  3.2443390e-001
  9.5491076e-002  1.4265715e-001  2.5181165e-001
  1.7722890e-002  1.2628505e-001  1.6422052e-001
 -2.0634603e-002  8.9681582e-002  7.6628987e-002
 -2.1453149e-002  3.6237879e-002  3.0202181e-002
 -1.4085839e-002  5.5985020e-003  3.4061435e-002
 -7.0693345e-003  5.5985020e-003  8.2359204e-002
 -2.6247885e-002  2.5595991e-002  1.6153061e-001
 -7.4546046e-002  5.2726919e-002  2.1228441e-001
 -1.4050260e-001  6.0562362e-002  1.9462602e-001
 -1.9160721e-001  4.8049119e-002  1.4515851e-001
 -2.2037562e-001  4.0681809e-002  1.0259056e-001
 -2.3522757e-001  6.1965585e-002  7.3354801e-002
 -2.2891267e-001  8.4419105e-002  6.6220969e-002
 -2.1183857e-001  8.0442916e-002  8.6686199e-002
 -1.8505844e-001  4.5008804e-002  9.8731702e-002
 -1.7698913e-001  1.5421844e-002  9.9082507e-002
 -1.7581978e-001  1.5655714e-002  9.1013194e-002
 -1.9043785e-001  5.9158748e-002  7.1132640e-002
 -2.3967150e-001  1.3599145e-001  7.6161246e-002
 -2.6341131e-001  1.8814848e-001  1.0036879e-001
 -2.6165688e-001  2.1633221e-001  1.5802216e-001
 -2.3651385e-001  2.1621528e-001  2.3052787e-001
 -1.9991039e-001  1.8300293e-001  2.5064230e-001
 -1.6938795e-001  1.3447090e-001  2.1403883e-001
 -1.2670307e-001  9.9621858e-002  1.4141619e-001
 -8.7877836e-002  1.0394846e-001  9.2065611e-002
 -7.0452922e-002  1.3131365e-001  7.3939477e-002
 -5.4665493e-002  1.3564065e-001  4.6574286e-002
 -4.6362309e-002  1.0792465e-001  4.6574286e-002
 -7.6650880e-002  9.9387596e-002  8.9142231e-002
 -8.6123416e-002  8.5471522e-002  1.2469328e-001
 -8.2030291e-002  1.0663836e-001  1.3510130e-001
 -8.2030291e-002  1.6628002e-001  1.2726585e-001
 -6.9517440e-002  1.8814848e-001  1.0340950e-001
 -8.1328680e-002  1.9890730e-001  8.7621681e-002
 -7.4312176e-002  1.4499625e-001  7.3120931e-002
 -6.7412607e-002  6.6409515e-002  5.7566980e-002
 -8.1211745e-002  3.5302397e-002  4.9147253e-002
 -9.4543535e-002  4.6295091e-002  1.2894594e-002
 -1.1769867e-001  1.2780520e-001 -2.0668555e-002
 -1.3418771e-001  2.1212215e-001 -1.6692366e-002
 -1.4903965e-001  2.4170911e-001  3.3051230e-003
 -1.4962433e-001  1.9235854e-001 -6.7106619e-004
 -1.4342637e-001  1.0348072e-001 -7.0954615e-002
 -1.3290142e-001  4.2669707e-002 -1.8064847e-001
 -1.1255313e-001  4.4774933e-002 -2.9934672e-001
 -9.9104400e-002  1.2394595e-001 -3.7126775e-001
 -8.5187934e-002  1.9025370e-001 -3.6015773e-001
 -9.1736698e-002  2.0112946e-001 -3.0753297e-001
 -1.3067926e-001  1.4207248e-001 -2.2812769e-001
 -1.6412547e-001  2.0900536e-003 -1.8298717e-001
 -1.6728272e-001 -1.2140294e-001 -1.9374599e-001
 -1.3769616e-001 -1.6315233e-001 -2.3362403e-001
 -7.9574652e-002 -1.2912144e-001 -3.2437281e-001
 -3.9111934e-002 -3.9658952e-002 -4.2973967e-001
 -3.2680105e-002  4.4072930e-002 -4.9019988e-001
 -4.4725216e-002  6.4655487e-002 -4.8224789e-001
 -7.1973079e-002  2.6999213e-002 -4.2821951e-001
 -7.4312176e-002 -4.3518206e-002 -3.6542060e-001
 -4.6713114e-002 -1.2046745e-001 -3.3209132e-001
 -1.4670515e-002 -1.5905921e-001 -3.5816983e-001
  1.9945051e-002 -1.5917614e-001 -4.6400443e-001
  3.4563128e-002 -1.4631209e-001 -6.2433515e-001
  1.6670473e-002 -1.0853928e-001 -7.7542720e-001
  6.4497491e-005 -6.6672945e-002 -8.7038603e-001
  1.2343478e-002 -4.3284336e-002 -8.5915947e-001
  4.9999752e-002 -2.8081582e-002 -7.8162515e-001
  8.7889503e-002 -3.4162605e-002 -6.6585028e-001
  1.1373414e-001 -6.7141078e-002 -5.7451683e-001
  1.2636432e-001 -9.8832872e-002 -5.9217561e-001
  1.3034051e-001 -1.0210745e-001 -6.6421319e-001
  1.4636181e-001 -7.8133772e-002 -7.7320543e-001
  1.6062908e-001 -2.9484805e-002 -8.8067712e-001
  1.7700119e-001  2.1152061e-002 -9.3739500e-001
  1.9208701e-001  3.1209273e-002 -9.3412043e-001
  1.7396048e-001  8.1710764e-003 -8.9237142e-001
  1.3478444e-001 -2.6093292e-002 -8.7494690e-001
  8.1106869e-002 -2.6795295e-002 -8.9985606e-001
  4.0878021e-002  4.2085031e-002 -9.7505128e-001
  4.6608239e-002  1.2382901e-001 -1.0521175e+000
  6.1343251e-002  1.8276906e-001 -1.0905923e+000
  4.0644151e-002  1.8826541e-001 -1.0965564e+000
 -8.2386865e-003  1.1178390e-001 -1.0993628e+000
 -5.9811034e-002  9.2238856e-003 -1.1022866e+000
 -8.5304869e-002 -5.6849996e-002 -1.1011172e+000
 -6.3319482e-002 -4.2231919e-002 -1.1282482e+000
 -2.2505958e-002  4.2903578e-002 -1.1150333e+000
  7.5487427e-003  1.4827043e-001 -1.0650981e+000
  8.2503539e-003  1.8955170e-001 -9.9668586e-001
 -2.4844662e-002  1.1400567e-001 -9.1131649e-001
 -7.5832333e-002 -1.3112700e-002 -8.6605904e-001
 -1.1956963e-001 -1.3625488e-001 -8.4828332e-001
 -1.2728775e-001 -1.8560546e-001 -8.8699201e-001
 -1.0191084e-001 -1.1941504e-001 -9.2628538e-001
 -4.2035706e-002  8.4049468e-003 -9.2733779e-001
  1.8073695e-002  1.4932285e-001 -8.8792749e-001
  3.3276449e-002  2.3866841e-001 -7.8595215e-001
  2.2400690e-002  2.4065670e-001 -6.9134412e-001
 -1.0460455e-002  1.9212466e-001 -5.8165027e-001
 -4.2971188e-002  1.6663083e-001 -5.1581065e-001
 -4.5777633e-002  1.9072144e-001 -5.2235980e-001
 -3.5018809e-002  2.4439862e-001 -5.3428798e-001
  4.5084275e-003  2.8755124e-001 -5.5393466e-001
  4.3333661e-002  2.7433639e-001 -5.0259618e-001
  3.1405485e-002  2.3375674e-001 -3.8331286e-001
 -2.5084693e-003  1.8206745e-001 -2.4812518e-001
 -5.5016298e-002  1.7423201e-001 -1.3351966e-001
 -8.6474221e-002  2.4755627e-001 -1.0709034e-001
 -8.7058897e-002  3.6110898e-001 -1.5410221e-001
 -8.4720193e-002  4.6554035e-001 -2.3303936e-001
 -5.9109423e-002  4.7033509e-001 -2.7268353e-001
 -5.5250169e-002  4.0402773e-001 -2.0965075e-001
 -5.9577163e-002  3.0848421e-001 -9.0133557e-002
 -5.9811034e-002  2.3223658e-001  3.3476759e-002
 -7.0803727e-002  2.3749905e-001  1.3825855e-001
 -5.7823135e-002  2.8521215e-001  1.7977407e-001
 -2.8586981e-002  3.5514489e-001  1.6386971e-001
  9.5370335e-003  3.9443826e-001  1.2948801e-001
  3.6200221e-002  3.9630922e-001  1.0878891e-001
  3.8773188e-002  3.8718788e-001  1.4352142e-001
  3.5849415e-002  3.7736454e-001  2.3894760e-001
  4.3450596e-002  3.9701122e-001  3.7425222e-001
  4.9064270e-002  4.2601312e-001  5.3809139e-001
  5.4443682e-002  4.3607033e-001  6.8754634e-001
  5.9004547e-002  4.4203481e-001  7.7560522e-001
  6.3798890e-002  4.5489846e-001  8.2858118e-001
  8.5199994e-002  4.6647583e-001  8.8588375e-001
  8.9643924e-002  4.8238059e-001  9.5102176e-001
  1.0274145e-001  4.5852385e-001  1.0174460e+000
  1.0882247e-001  4.2344054e-001  1.0810639e+000
  9.0345535e-002  4.0028541e-001  1.1451491e+000
  7.6546004e-002  3.7853389e-001  1.1968388e+000
  4.7426785e-002  4.0613256e-001  1.2431486e+000
  4.6608239e-002  4.1303252e-001  1.2899263e+000
  6.2044862e-002  3.8262702e-001  1.3317926e+000
  5.5379163e-002  3.3011880e-001  1.3820783e+000
  5.0350557e-002  2.5808122e-001  1.3874581e+000
  3.9591734e-002  2.2451807e-001  1.3696823e+000
  2.9768393e-002  2.2194550e-001  1.3676944e+000
  2.7780102e-002  2.4662078e-001  1.3452409e+000
  1.4799510e-002  2.5106471e-001  1.3269979e+000
  2.2166820e-002  1.9458030e-001  1.2774134e+000
  5.3624743e-002  1.2464756e-001  1.2326237e+000
  7.3271426e-002  8.7576356e-002  1.2451365e+000
  1.0320919e-001  8.8745708e-002  1.2906279e+000
  1.2940464e-001  1.1821573e-001  1.3938899e+000
  1.4624488e-001  1.5271436e-001  1.4949297e+000
  1.5828999e-001  1.4183860e-001  1.5489581e+000
  1.3303002e-001  8.6173133e-002  1.5303639e+000
  9.6543493e-002 -9.9550568e-003  1.4660444e+000
  7.6195199e-002 -9.1231299e-002  1.4261664e+000
  8.2393157e-002 -9.0529688e-002  1.4147059e+000
  1.0753619e-001 -4.9482294e-002  1.4485029e+000
  1.0730232e-001  2.6063732e-002  1.4970346e+000
  7.5259717e-002  8.9330384e-002  1.5344570e+000
  2.7078491e-002  9.5294864e-002  1.5228792e+000
 -3.6655902e-002  8.8979578e-002  1.4723593e+000
 -8.4018582e-002  5.7170849e-002  1.4087418e+000
 -8.8228642e-002 -4.8252077e-004  1.3287519e+000
 -7.2090407e-002 -7.0532199e-002  1.2865351e+000
 -5.8992487e-002 -1.4748184e-001  1.2700457e+000
 -6.9751311e-002 -2.1308759e-001  1.2962411e+000
 -1.0670558e-001 -2.3741168e-001  1.3316753e+000
 -1.3886551e-001 -2.1074849e-001  1.3055967e+000
 -1.4997514e-001 -1.8642401e-001  1.2334422e+000
 -1.3138087e-001 -1.8420224e-001  1.1256197e+000
 -8.4135517e-002 -2.3554072e-001  1.0333504e+000
 -5.1624785e-002 -3.3786686e-001  9.6832934e-001
 -3.4668004e-002 -4.4054421e-001  9.1547071e-001
 -3.0808750e-002 -5.1117856e-001  8.8857326e-001
 -4.1450638e-002 -5.2193739e-001  8.6354755e-001
 -5.0338498e-002 -4.8814037e-001  8.1641875e-001
 -6.0278775e-002 -4.3925753e-001  7.6016860e-001
 -4.9286081e-002 -4.3224103e-001  6.9327656e-001
 -4.7882859e-002 -4.5317400e-001  6.0755639e-001
 -5.5016298e-002 -4.8463192e-001  5.0078592e-001
 -5.1975983e-002 -5.3901110e-001  3.7203045e-001
 -6.9634375e-002 -5.6614242e-001  2.6724827e-001
 -8.7877836e-002 -5.7526376e-001  1.9497683e-001
 -9.9806011e-002 -5.7327586e-001  1.4656173e-001
 -9.2555637e-002 -5.6567468e-001  1.1393446e-001
 -6.9634375e-002 -5.7713512e-001  6.5285488e-002
 -6.0395710e-002 -5.9795115e-001  1.1490979e-002
 -4.7765923e-002 -6.2578409e-001 -6.3587305e-002
 -2.5312403e-002 -6.6507706e-001 -1.4743612e-001
 -3.2100805e-003 -7.0413656e-001 -2.3385791e-001
  8.4842243e-003 -7.2390017e-001 -3.5758516e-001
  1.3630158e-002 -7.2846104e-001 -4.9031681e-001
  3.3276449e-002 -7.2354937e-001 -6.0585781e-001
  6.5085570e-002 -7.2834410e-001 -6.6877405e-001
  9.9233395e-002 -7.5664478e-001 -6.7508895e-001
  1.2004943e-001 -8.0634577e-001 -6.3801774e-001
  1.3688928e-001 -8.7300433e-001 -5.9322803e-001
  1.5981054e-001 -9.1393478e-001 -5.8001317e-001
  1.8869549e-001 -9.1416866e-001 -6.1649970e-001
  2.1980261e-001 -8.7347207e-001 -7.2514114e-001
  2.0717283e-001 -8.0599496e-001 -8.4325471e-001
  1.6963349e-001 -7.6167338e-001 -9.6768358e-001
  1.3724008e-001 -7.6237499e-001 -1.0633440e+000
  1.2952197e-001 -8.2494003e-001 -1.0924632e+000
  1.3992998e-001 -9.1019247e-001 -1.0681388e+000
  1.1934782e-001 -9.6702729e-001 -9.7563595e-001
  9.5724947e-002 -9.5439750e-001 -9.1108262e-001
  7.6779875e-002 -8.5335764e-001 -9.1084875e-001
  6.6839598e-002 -7.1910544e-001 -9.8931816e-001
  6.8359755e-002 -5.8777701e-001 -1.1372530e+000
  4.6959044e-002 -5.1024308e-001 -1.2693999e+000
  1.9711181e-002 -5.3398250e-001 -1.3298601e+000
  7.7826131e-003 -6.6098433e-001 -1.2807434e+000
 -8.4725569e-003 -8.1546750e-001 -1.1714008e+000
 -2.1687412e-002 -9.1077714e-001 -1.1048592e+000
 -2.8353111e-002 -8.6820959e-001 -1.1510525e+000
 -3.7357906e-002 -6.5747588e-001 -1.2758318e+000
 -2.4026116e-002 -4.0838428e-001 -1.4135924e+000
 -1.8062028e-002 -2.3554072e-001 -1.4839929e+000
 -2.1687412e-002 -2.2910889e-001 -1.4337068e+000
 -3.6773230e-002 -3.7224856e-001 -1.3104473e+000
 -6.8581959e-002 -5.7070329e-001 -1.1963099e+000
 -7.7703689e-002 -7.2740862e-001 -1.1770141e+000
 -8.3550841e-002 -7.3711503e-001 -1.2257796e+000
 -5.9109423e-002 -6.4800334e-001 -1.3040155e+000
 -1.3033422e-002 -5.1176324e-001 -1.3469339e+000
  3.1048127e-003 -3.9739159e-001 -1.2803926e+000
  2.8709423e-003 -3.6803850e-001 -1.2053143e+000
 -3.3966393e-002 -3.7224856e-001 -1.1420477e+000
 -8.7058897e-002 -3.7213162e-001 -1.0790145e+000
 -1.0354833e-001 -3.6172361e-001 -1.0432296e+000
 -9.2906442e-002 -3.5657807e-001 -9.7528515e-001
 -6.2617871e-002 -3.5014624e-001 -9.0582015e-001
 -2.5546273e-002 -3.0816297e-001 -8.7506383e-001
  2.8709423e-003 -2.1846700e-001 -8.9517826e-001
  2.7780102e-002 -9.3804266e-002 -9.2172451e-001
  4.5438887e-002  1.5772649e-002 -8.8477024e-001
  4.3450596e-002  5.9276075e-002 -7.8279451e-001
  1.5384186e-002  4.4891868e-002 -6.3345688e-001
 -4.3794325e-003  6.6509188e-003 -5.3990126e-001
 -1.7594287e-002  2.4660509e-002 -5.1160098e-001
 -1.0694326e-002  1.2301047e-001 -5.3300169e-001
  3.2107097e-002  2.5831509e-001 -5.8036398e-001
  5.4092876e-002  3.9888219e-001 -5.7217812e-001
  6.0056964e-002  4.4261948e-001 -5.4855525e-001
  4.8596137e-002  4.0508014e-001 -5.1721426e-001
