**************************************************************************************
            UNIVERSIDAD AUTONOMA METROPOLITANA - AZCAPOTZALCO
                        Departamento de Materiales
                           Area de Estructuras
     AV. SAN PABLO 180,COL.REYNOSA, AZCAPOTZALCO, C.P.02200 CIUDAD DE MEXICO.
**************************************************************************************
ARCHIVO ESTANDAR DE ACELERACION:
VERSION DEL FORMATO                    : 2.0
NOMBRE DEL ARCHIVO                     : RIDA201805161
FECHA Y HORA DE CREACION               : THURSDAY JUL 19 12:30:07 2018
REF. CATALOGO ACELEROGRAMAS, SMIS 1995 : REGISTRO NO.      /PAG.    


================================================================================
DATOS DE LA ESTACION:
NOMBRE DE LA ESTACION                  : UAM-AZCAPOTZALCO.
CLAVE DE LA ESTACION                   : RIDA
LOCALIZACION DE LA ESTACION            : AV. SAN PABLO 180,COL.REYNOSA, AZCAPOTZALCO,
                                       : C.P.02200 CIUDAD DE MEXICO.
                                       :
                                       : 
                                       : 
COORDENADAS DE LA ESTACION             : 19.498596 LAT. N
                                       : 99.195595 LONG. W
ALTITUD (msnm)                         : 2246
TIPO DE SUELO                          : TRANSICION 
                                       : 
                                       : 
INSTITUCION RESPONSABLE                : UNIVERSIDAD AUTONOMA METROPOLITANA
                                       : 

================================================================================
DATOS DEL ACELEROGRAFO: 
MODELO DEL ACELEROGRAFO                : BASALT KINEMETRICS
NUMERO DE SERIE DEL ACELEROGRAFO       : 1730
NUMERO DE CANALES                      : 3
ORIENTACION C1-C6 (rumbo;orientacion)  : /V/N00E/N90E
ORIENTACION C7-C12 (rumbo;orientacion) : 
VEL. DE MUESTREO, C1-C6 (muestras/s)   : /250/250/250
VEL. DE MUESTREO, C7-C12 (muestras/s)  : 
ESC. COMPLETA DE SENSORES, C1-C6, (g)  : /2/2/2
ESC. COMPLETA DE SENSORES, C7-C12 (g)  : 
FREC. NAT. DE SENSORES, C1-C6, (Hz)    : /210/106/212
FREC. NAT. DE SENSORES, C7-C12 (Hz)    : 
AMORTIGUAMIENTO DE SENSORES, C1-C6     : /0.7/0.7/0.7   
AMORTIGUAMIENTO DE SENSORES, C7-C12    : 
INTERVALO DE MUESTREO, C1-C6 (s)       : /0.004/0.004/0.004
INTERVALO DE MUESTREO, C7-C12 (s)      : 
UMBRAL DE DISPARO, C1-C6 (Gal)         : /2/2/2
UMBRAL DE DISPARO, C7-C12 (Gal)        : 
MEMORIA DE PREEVENTO (s)               : 30
TIEMPO DE POSEVENTO (s)                : 60


================================================================================
DATOS DEL SISMO:
FECHA DEL SISMO [GMT]                  : 2018/07/19
HORA EPICENTRO (GMT)                   : 13:31:56
MAGNITUD(ES)                           : /M=5.9
COORDENADAS DEL EPICENTRO              : 17.7213 LAT. N
                                       : 97.8123 LONG. W
PROFUNDIDAD FOCAL (Km)                 : 55.6
FUENTE DE LOS DATOS EPICENTRALES       : SSN
                                       : INSTITUTO DE GEOFISICA, UNAM

================================================================================
DATOS DE ESTE REGISTRO:
HORA DE LA PRIMERA MUESTRA (GMT)       : 13:32:24.000
EXACTITUD DEL TIEMPO (s)               : 
DURACION DEL REGISTRO (s), C1-C6       : /134.00/134.00/134.00
DURACION DEL REGISTRO (s), C7-C12      : 
NUM. TOTAL DE MUESTRAS, C1-C6          : /33500/33500/33500
NUM. TOTAL DE MUESTRAS, C7-C12         : 
ACEL. MAX.(Gal), C1-C6                 : /3.655/2.562/-2.335
ACEL. MAX., C1-C6, EN LA MUESTRA       : /7621/9605/11.232
ACEL. MAX.(Gal), C7-C12                : 
ACEL. MAX., C7-C12,EN LA MUESTRA       : 
UNIDADES DE LOS DATOS                  : Gal (cm/s/s)
FACTOR DE DECIMACION                   : 1
FORMATO DATOS (FORTRAN,16 campos/dato) : 3E16.7


================================================================================
CALIDAD DEL ACELEROGRAMA:
REGISTRO DIGITAL COMPLETO CON TIEMPO ABSOLUTO CORRECTO


================================================================================
COMENTARIOS:














================================================================================
DATOS DE ACELERACION:
---------+---------+---------+---------+---------+---------+---------+---------+
   CANAL-1   CANAL-2   CANAL-3
         V      N00E      N90E
---------+---------+---------+---------+---------+---------+---------+---------+ 
[...]
  1.2606955e+000 -1.5576913e-001 -7.8021120e-002
  1.2654902e+000 -1.3366680e-001 -1.2830718e-001
  1.2744950e+000 -1.5834209e-001 -1.6491064e-001
  1.2725067e+000 -2.1541079e-001 -1.7274569e-001
  1.2522754e+000 -2.9750557e-001 -1.8268597e-001
  1.2318101e+000 -4.2006308e-001 -2.1157132e-001
  1.2092401e+000 -5.0016997e-001 -2.1519670e-001
  1.1899442e+000 -5.5466609e-001 -2.2665714e-001
  1.1851495e+000 -5.6998578e-001 -2.6267593e-001
  1.1683092e+000 -4.9198412e-001 -2.7027750e-001
  1.1501831e+000 -4.4006057e-001 -2.7355169e-001
  1.1281973e+000 -4.2626143e-001 -2.6630131e-001
  1.0763911e+000 -4.1082481e-001 -2.5109856e-001
  1.0209595e+000 -4.4321821e-001 -2.3191961e-001
  9.6833473e-001 -4.8017248e-001 -1.6572919e-001
  9.2108899e-001 -4.9221799e-001 -7.9424342e-002
  8.6472191e-001 -4.9631111e-001 -7.8545061e-003
  7.8730492e-001 -4.8637083e-001  3.7402948e-002
  6.9222914e-001 -4.4473837e-001  5.8687116e-002
  5.7165954e-001 -4.0018292e-001  3.9742044e-002
  4.3916175e-001 -3.5282024e-001  3.3174273e-004
  3.2864935e-001 -3.1493049e-001 -4.1768068e-002
  2.4678804e-001 -3.2288248e-001 -9.6848864e-002
  1.7007267e-001 -3.1820467e-001 -1.3193217e-001
  1.1008020e-001 -3.1376074e-001 -1.6724935e-001
  5.7104631e-002 -2.9949387e-001 -1.7286263e-001
  8.5725988e-003 -2.6768474e-001 -1.4245712e-001
 -3.5749374e-002 -2.3798085e-001 -1.1883464e-001
 -8.4047143e-002 -1.9950642e-001 -1.0947904e-001
 -1.2953847e-001 -1.7518194e-001 -1.1708022e-001
 -1.7210641e-001 -1.4606272e-001 -1.1193468e-001
 -2.0134257e-001 -1.1144715e-001 -1.1216855e-001
 -2.3677668e-001 -9.3087149e-002 -1.2608502e-001
 -2.5747578e-001 -1.0349517e-001 -1.4105390e-001
 -2.6308906e-001 -8.6771864e-002 -1.4877241e-001
 -2.5607216e-001 -6.9581212e-002 -1.6549532e-001
 -2.1221832e-001 -6.0225611e-002 -1.8865045e-001
 -1.6345242e-001  5.1462668e-003 -1.8958593e-001
 -1.0895630e-001  3.3330004e-002 -1.9332825e-001
 -6.0307728e-002  7.2038302e-002 -2.0163104e-001
 -1.7505913e-002  1.4594723e-001 -2.2466924e-001
  5.1842154e-002  1.7693742e-001 -2.6244206e-001
  1.2762205e-001  2.2511864e-001 -2.7729400e-001
  1.9544957e-001  2.6721845e-001 -2.9004112e-001
  2.7403630e-001  2.6593217e-001 -3.1050635e-001
  3.5636496e-001  2.6792007e-001 -2.7635852e-001
  4.3892788e-001  2.6546443e-001 -2.1800315e-001
  5.2534966e-001  2.4277704e-001 -1.6374129e-001
  5.9446347e-001  2.4336171e-001 -9.2873067e-002
  6.5539181e-001  2.3774843e-001 -5.2878090e-002
  7.0006420e-001  2.3131660e-001 -7.5037005e-003
  7.2719552e-001  2.5201570e-001  4.3016230e-002
  7.6134334e-001  2.2313035e-001  7.4357610e-002
  7.8695411e-001  2.0547196e-001  1.3119243e-001
  8.1198021e-001  1.9155549e-001  2.0615378e-001
  8.3735711e-001  1.4501175e-001  2.8684535e-001
  8.5255986e-001  1.4618111e-001  3.5490674e-001
  8.5255986e-001  1.3881380e-001  4.1454840e-001
  8.1595600e-001  1.4045089e-001  4.6401591e-001
  7.6672275e-001  1.5296374e-001  4.9980083e-001
  7.2052982e-001  1.2302597e-001  5.1979832e-001
  6.6615063e-001  7.7417714e-002  5.2014912e-001
  6.1913876e-001  6.3156188e-003  5.3394865e-001
  5.6440916e-001 -7.0282823e-002  5.4587683e-001
  4.7658376e-001 -1.4009863e-001  5.7569766e-001
  3.8408096e-001 -1.9003389e-001  6.1113177e-001
  2.9403379e-001 -2.3529134e-001  6.2072124e-001
  1.9451409e-001 -2.7388270e-001  6.4142034e-001
  1.0470079e-001 -2.9060601e-001  6.2972604e-001
  9.7419508e-003 -3.2884656e-001  5.9347338e-001
 -1.0077045e-001 -3.5235250e-001  5.8014159e-001
 -2.1572638e-001 -3.7258386e-001  5.8341617e-001
 -3.4588546e-001 -3.9760995e-001  6.0271205e-001
 -4.6703975e-001 -4.1164336e-001  6.3732722e-001
 -5.7041870e-001 -4.3561703e-001  6.8960157e-001
 -6.6888560e-001 -4.5514639e-001  7.3509289e-001
 -7.3881834e-001 -4.9888369e-001  7.7146249e-001
 -7.9881081e-001 -5.2893839e-001  7.9356481e-001
 -8.7213506e-001 -5.3993108e-001  7.9800874e-001
 -9.3762388e-001 -5.3677383e-001  7.9157691e-001
 -9.8872848e-001 -4.8169303e-001  7.5684441e-001
 -1.0314130e+000 -4.2053122e-001  7.2784213e-001
 -1.0549189e+000 -3.3609733e-001  7.1322444e-001
 -1.0659116e+000 -2.4605016e-001  6.8936770e-001
 -1.0688354e+000 -1.7974280e-001  6.5521987e-001
 -1.0324658e+000 -1.4138492e-001  6.2773814e-001
 -9.6358545e-001 -1.4957117e-001  5.9323951e-001
 -8.8967652e-001 -1.5284535e-001  5.1360036e-001
 -8.2746228e-001 -1.6138241e-001  4.4144585e-001
 -7.8735037e-001 -1.5647074e-001  3.7525503e-001
 -7.5963437e-001 -1.1472173e-001  2.7994539e-001
 -7.4244372e-001 -5.2156298e-002  2.1012997e-001
 -7.3753205e-001  3.7773542e-002  1.6966725e-001
 -7.3495948e-001  1.1179941e-001  1.6066246e-001
 -7.3180184e-001  1.7834064e-001  1.8861193e-001
 -7.1823617e-001  2.1435982e-001  1.8557162e-001
 -7.0502171e-001  2.0968202e-001  1.5633546e-001
 -7.0361810e-001  1.9681797e-001  1.3060776e-001
 -7.0163020e-001  1.7237655e-001  7.2135449e-002
 -7.1344144e-001  1.6921930e-001 -1.0310145e-002
 -6.9800482e-001  1.6161773e-001 -8.8896878e-002
 -6.5999813e-001  1.7436484e-001 -1.4339300e-001
 -6.2865675e-001  1.8828092e-001 -1.9730405e-001
 -5.5381273e-001  1.7085639e-001 -2.6361141e-001
 -4.9265052e-001  1.9377726e-001 -2.9530359e-001
 -4.3441247e-001  1.8103054e-001 -3.1962808e-001
 -3.3863509e-001  1.7845757e-001 -3.3904050e-001
 -2.5887900e-001  2.1611385e-001 -3.5143681e-001
 -1.5187505e-001  2.1740014e-001 -3.4184734e-001
 -2.5692162e-002  2.5914914e-001 -2.8910564e-001
  1.0119273e-001  2.8604659e-001 -2.8898870e-001
  2.4596950e-001  2.9037359e-001 -3.3412883e-001
  3.8677047e-001  3.0616102e-001 -4.0593293e-001
  5.3692703e-001  2.8932078e-001 -5.2977672e-001
  6.8205500e-001  2.9551913e-001 -6.4964472e-001
  8.1583907e-001  3.2253312e-001 -7.4694226e-001
  9.4985740e-001  3.4206287e-001 -8.1395162e-001
  1.0732338e+000  3.7410547e-001 -8.2412577e-001
  1.1773140e+000  4.3152536e-001 -8.0915689e-001
  1.2804591e+000  4.6824576e-001 -8.1933104e-001
  1.3827853e+000  4.9982062e-001 -8.1184640e-001
  1.4681546e+000  5.4086801e-001 -7.9009488e-001
  1.5380874e+000  5.3209748e-001 -8.0997543e-001
  1.5527054e+000  5.3139548e-001 -8.1441936e-001
  1.5350467e+000  5.1116412e-001 -8.0997543e-001
  1.4979755e+000  4.5959177e-001 -8.1968184e-001
  1.4293290e+000  4.5608371e-001 -7.9874887e-001
  1.3733127e+000  4.5292607e-001 -7.8237637e-001
  1.3026784e+000  4.6847963e-001 -7.5770148e-001
  1.2071349e+000  5.1607579e-001 -7.2682784e-001
  1.0921785e+000  5.3198054e-001 -7.3571570e-001
  9.5792672e-001  5.5431674e-001 -7.3536489e-001
  8.2110154e-001  5.8109686e-001 -7.2986854e-001
  6.8521264e-001  5.5794212e-001 -7.1454886e-001
  5.6616319e-001  5.3888011e-001 -6.6999301e-001
  4.3881095e-001  5.1642659e-001 -6.2590491e-001
  3.1157525e-001  4.5970871e-001 -5.7480030e-001
  1.7884359e-001  4.3363019e-001 -5.3924926e-001
 -2.3031596e-003  4.2684756e-001 -5.2626866e-001
 -1.7198948e-001  4.0345856e-001 -5.3726136e-001
 -3.2413394e-001  4.0474484e-001 -5.5819433e-001
 -4.7429051e-001  4.1947986e-001 -5.7292934e-001
 -5.8164527e-001  3.8334413e-001 -5.9830624e-001
 -6.9215766e-001  3.6895993e-001 -5.6778380e-001
 -8.1120711e-001  3.6802445e-001 -5.2849043e-001
 -9.2943763e-001  3.2405328e-001 -5.0381514e-001
 -1.0477855e+000  3.1715371e-001 -4.5235973e-001
 -1.1298803e+000  2.8382443e-001 -4.6288469e-001
 -1.2123258e+000  2.3330450e-001 -4.7387738e-001
 -1.2751252e+000  1.9974174e-001 -4.7691809e-001
 -1.3256451e+000  1.2524813e-001 -5.1048084e-001
 -1.3848190e+000  6.9465728e-002 -5.0837601e-001
 -1.4273866e+000  3.1341714e-002 -5.1492477e-001
 -1.4945125e+000  6.9002948e-003 -5.1773161e-001
 -1.5422259e+000  1.5437349e-002 -4.9118536e-001
 -1.5636267e+000  4.2802148e-002 -4.5914237e-001
 -1.5957862e+000  7.4026593e-002 -4.0593293e-001
 -1.6268937e+000  9.5544240e-002 -3.3015303e-001
 -1.6639649e+000  1.1940098e-001 -2.7168072e-001
 -1.7067667e+000  1.0174220e-001 -2.5413926e-001
 -1.7503867e+000  7.5663686e-002 -2.3519419e-001
 -1.7721386e+000  7.6014492e-002 -2.4770704e-001
 -1.8039473e+000  2.5494561e-002 -2.7904842e-001
 -1.8459302e+000 -4.2093340e-003 -2.5449007e-001
 -1.8817151e+000 -2.3037471e-002 -2.2034225e-001
 -1.9258032e+000 -1.0349517e-001 -1.7274569e-001
 -1.9454499e+000 -1.3413454e-001 -6.8665519e-002
 -1.9669676e+000 -1.6559247e-001  3.0620314e-002
 -1.9910582e+000 -2.1389063e-001  9.2951484e-002
 -2.0105879e+000 -2.2079020e-001  1.6615881e-001
 -2.0433321e+000 -2.5388521e-001  2.2509886e-001
 -2.0522200e+000 -2.7166093e-001  2.6790028e-001
 -2.0558454e+000 -2.7435084e-001  3.5572568e-001
 -2.0653179e+000 -2.7774196e-001  4.4799461e-001
 -2.0718667e+000 -2.5002635e-001  5.3722323e-001
 -2.0594708e+000 -2.0874509e-001  6.0703865e-001
 -2.0131605e+000 -1.7424646e-001  6.4142034e-001
 -1.9594833e+000 -1.6524166e-001  6.8702860e-001
 -1.8840542e+000 -1.3273093e-001  6.8679473e-001
 -1.8220735e+000 -1.0747096e-001  6.5463520e-001
 -1.7678116e+000 -1.0606774e-001  6.5288117e-001
 -1.6848979e+000 -7.6013040e-002  6.5767551e-001
 -1.6104043e+000 -6.6540504e-002  6.4750137e-001
 -1.5307655e+000 -2.8767688e-002  6.4820337e-001
 -1.4439925e+000  4.1632796e-002  6.7591897e-001
 -1.3414325e+000  9.8233749e-002  6.8106452e-001
 -1.2145480e+000  1.4933875e-001  6.7299559e-001
 -1.0809974e+000  1.5156052e-001  6.3194781e-001
 -9.4089806e-001  1.3331706e-001  5.5499856e-001
 -7.9284672e-001  8.7942667e-002  4.8576743e-001
 -6.3415349e-001  4.9234369e-002  3.9630533e-001
 -4.6645507e-001  4.3854957e-002  3.2999758e-001
 -2.9770463e-001  4.5141244e-002  3.1958956e-001
 -1.5643592e-001  9.0047893e-002  3.3373990e-001
 -2.2534519e-002  1.1589253e-001  3.4847491e-001
  1.0657214e-001  1.4115250e-001  3.7899735e-001
  2.2398411e-001  1.5226213e-001  4.1080608e-001
  3.4958233e-001  1.0115752e-001  3.8180419e-001
  4.6687736e-001  4.9117434e-002  3.2988064e-001
  5.9937514e-001 -3.6602739e-002  2.6205313e-001
  7.5771796e-001 -1.3015835e-001  1.9328973e-001
  9.3301756e-001 -2.1330556e-001  1.6428784e-001
  1.1066797e+000 -2.8709756e-001  1.3224485e-001
  1.2720390e+000 -3.4135981e-001  1.2394206e-001
  1.4445318e+000 -3.8345962e-001  1.5610159e-001
  1.6264971e+000 -3.8731887e-001  1.6510639e-001
  1.8331376e+000 -4.0193695e-001  1.6896525e-001
  2.0313585e+000 -3.8088704e-001  2.1515858e-001
  2.2261878e+000 -3.5831659e-001  2.4708424e-001
  2.4106088e+000 -3.7550763e-001  2.5339914e-001
  2.5687177e+000 -3.6311132e-001  2.6298861e-001
  2.7380528e+000 -3.9269828e-001  2.5258059e-001
  2.8870401e+000 -4.0626394e-001  2.5339914e-001
  3.0272564e+000 -3.8907290e-001  2.5117737e-001
  3.1657182e+000 -3.5656256e-001  2.3585768e-001
  3.2929535e+000 -2.5844608e-001  2.4673344e-001
  3.4127046e+000 -1.6325337e-001  2.6485957e-001
  3.4929284e+000 -6.1161093e-002  2.8590987e-001
  3.5585342e+000  1.2513577e-002  3.2461817e-001
  3.6025053e+000  5.3327493e-002  3.7572316e-001
  3.6295193e+000  6.7126632e-002  3.9174446e-001
  3.6555978e+000  1.4969608e-002  3.7361794e-001
  3.6497507e+000 -4.0345058e-002  3.4356324e-001
  3.6326770e+000 -1.2793619e-001  2.8883325e-001
  3.5943191e+000 -1.9903868e-001  2.4053548e-001
  3.5166682e+000 -2.0535357e-001  1.9118490e-001
  3.4217094e+000 -2.1178540e-001  1.4276980e-001
  3.2833641e+000 -1.7448033e-001  1.4581051e-001
  3.1039717e+000 -1.2454507e-001  1.5972698e-001
  2.9078561e+000 -9.0280312e-002  1.6861444e-001
  2.6956022e+000 -5.3326042e-002  2.2416298e-001
  2.4872072e+000 -5.8822389e-002  2.5679065e-001
  2.2564764e+000 -8.6187188e-002  2.2767143e-001
  2.0062155e+000 -1.2314185e-001  1.7048580e-001
  1.7568900e+000 -1.5810783e-001  9.3887358e-002
  1.5037057e+000 -1.8781172e-001  2.6644125e-002
  1.2643209e+000 -2.0149432e-001 -3.2295925e-002
  1.0289119e+000 -2.0710760e-001 -5.8374436e-002
  7.9888229e-001 -2.3458973e-001 -4.8200289e-002
  5.6101765e-001 -2.4745339e-001 -2.7384254e-002
  3.2046311e-001 -2.9668703e-001 -9.7254693e-003
  8.6808526e-002 -3.4007352e-001  6.2958303e-003
 -1.2813524e-001 -3.5609482e-001  1.0505890e-002
 -3.1173764e-001 -3.9351683e-001 -1.0193210e-002
 -4.9931661e-001 -3.9223054e-001 -1.0777886e-002
 -6.7379727e-001 -3.8872209e-001 -1.4169399e-002
 -8.3845498e-001 -4.0334017e-001  1.1090566e-002
 -9.9516031e-001 -4.2731385e-001  7.4825351e-002
 -1.1455507e+000 -4.3795574e-001  8.5934980e-002
 -1.2868195e+000 -4.3374568e-001  7.9970892e-002
 -1.3955778e+000 -4.1667196e-001  5.8804052e-002
 -1.5166152e+000 -3.5071541e-001  6.0619599e-003
 -1.6451368e+000 -2.6686620e-001 -9.7254693e-003
 -1.7646540e+000 -1.6524166e-001 -2.0073537e-003
 -1.8840542e+000 -8.5602512e-002  3.8455757e-002
 -1.9966715e+000 -2.7364466e-002  1.5118992e-001
 -2.0793513e+000  2.6902352e-003  2.6041603e-001
 -2.1408639e+000 -2.3154406e-002  3.4625314e-001
 -2.2003887e+000 -4.1397474e-002  4.4273214e-001
 -2.2362905e+000 -4.7244627e-002  5.0120405e-001
 -2.2716077e+000 -3.2158809e-002  4.9184884e-001
 -2.3032995e+000  9.9410024e-003  4.7723077e-001
 -2.3415404e+000  8.2212450e-002  4.8038802e-001
 -2.3834064e+000  1.5214519e-001  4.7641183e-001
 -2.4016498e+000  2.0664131e-001  5.0377702e-001
 -2.4087833e+000  2.6148824e-001  5.4330426e-001
 -2.3856281e+000  2.6218985e-001  5.8914639e-001
 -2.3684375e+000  2.5564109e-001  6.3931551e-001
 -2.3734661e+000  2.3201821e-001  6.4937272e-001
 -2.3782608e+000  1.8056280e-001  6.8328668e-001
 -2.3660984e+000  1.5729073e-001  7.1766798e-001
 -2.3209579e+000  1.1495705e-001  7.0468739e-001
 -2.2810802e+000  1.0326236e-001  7.0457045e-001
 -2.2457630e+000  1.1004538e-001  7.1088535e-001
 -2.2050661e+000  7.4494334e-002  7.0492126e-001
 -2.1669424e+000  5.4262975e-002  7.0129588e-001
 -2.1173580e+000 -4.4432044e-003  6.7907662e-001
 -2.0670719e+000 -1.0349517e-001  6.3791229e-001
 -2.0349124e+000 -1.8067828e-001  6.0247818e-001
 -2.0014662e+000 -2.6850329e-001  5.5149011e-001
 -1.9631083e+000 -3.5106621e-001  5.1558826e-001
 -1.9207746e+000 -4.1164336e-001  5.2798457e-001
 -1.8555197e+000 -4.6298183e-001  5.2927085e-001
 -1.7740096e+000 -5.2145414e-001  5.0763627e-001
 -1.6705137e+000 -5.7197407e-001  4.8015415e-001
 -1.5502949e+000 -6.2763954e-001  4.3758659e-001
 -1.4300765e+000 -6.8961991e-001  3.9361543e-001
 -1.2919650e+000 -7.0774643e-001  3.3151813e-001
 -1.1188876e+000 -7.3674832e-001  2.5994829e-001
 -8.9903212e-001 -7.4785835e-001  2.0977917e-001
 -6.5040866e-001 -7.3920436e-001  1.4990364e-001
 -4.0868476e-001 -7.5335469e-001  9.8097026e-002
 -1.7655034e-001 -7.3288946e-001  5.9739533e-002
  2.1085842e-002 -7.1944074e-001  2.6644125e-002
  2.2199621e-001 -7.1441213e-001 -1.7443977e-002
  4.4769841e-001 -7.1125449e-001 -9.2521869e-002
  6.4498379e-001 -7.2598950e-001 -1.4467928e-001
  8.4004662e-001 -7.2797779e-001 -1.8584361e-001
  1.0297304e+000 -7.2446934e-001 -2.5390539e-001
  1.2164905e+000 -6.8400663e-001 -3.2699539e-001
  1.3933102e+000 -6.0729125e-001 -3.7155123e-001
  1.5307197e+000 -5.1338483e-001 -4.3072515e-001
  1.6524590e+000 -4.3000336e-001 -5.1083204e-001
  1.7506920e+000 -3.8427816e-001 -5.4135448e-001
  1.8462356e+000 -3.5071541e-001 -5.5304879e-001
  1.9458722e+000 -3.6124036e-001 -5.7947810e-001
  2.0091388e+000 -3.6778912e-001 -6.1409367e-001
  2.0362702e+000 -3.5960287e-001 -6.3911977e-001
  2.0380242e+000 -3.5469160e-001 -6.4660440e-001
  2.0203658e+000 -2.8440805e-001 -6.7396920e-001
  2.0106594e+000 -2.2032246e-001 -7.5898776e-001
  1.9934684e+000 -1.4898649e-001 -8.5113976e-001
  1.9469246e+000 -7.9755359e-002 -9.0715604e-001
  1.8961708e+000 -6.2798578e-002 -9.8480729e-001
  1.8271736e+000 -3.2860812e-002 -1.0291289e+000
  1.7634392e+000 -2.9703170e-002 -1.0189547e+000
