**************************************************************************************
            UNIVERSIDAD AUTONOMA METROPOLITANA - AZCAPOTZALCO
                        Departamento de Materiales
                           Area de Estructuras
     AV. SAN PABLO 180,COL.REYNOSA, AZCAPOTZALCO, C.P.02200 CIUDAD DE MEXICO.
**************************************************************************************
ARCHIVO ESTANDAR DE ACELERACION:
VERSION DEL FORMATO                    : 2.0
NOMBRE DEL ARCHIVO                     : RIDA201802191
FECHA Y HORA DE CREACION               : MON JUL 18 12:30:07 2018
REF. CATALOGO ACELEROGRAMAS, SMIS 1995 : REGISTRO NO.      /PAG.    


================================================================================
DATOS DE LA ESTACION:
NOMBRE DE LA ESTACION                  : UAM-AZCAPOTZALCO.
CLAVE DE LA ESTACION                   : RIDA
LOCALIZACION DE LA ESTACION            : AV. SAN PABLO 180,COL.REYNOSA, AZCAPOTZALCO,
                                       : C.P.02200 CIUDAD DE MEXICO.
                                       :
                                       : 
                                       : 
COORDENADAS DE LA ESTACION             : 19.498596 LAT. N
                                       : 99.195595 LONG. W
ALTITUD (msnm)                         : 2246
TIPO DE SUELO                          : TRANSICION 
                                       : 
                                       : 
INSTITUCION RESPONSABLE                : UNIVERSIDAD AUTONOMA METROPOLITANA
                                       : 

================================================================================
DATOS DEL ACELEROGRAFO: 
MODELO DEL ACELEROGRAFO                : BASALT KINEMETRICS
NUMERO DE SERIE DEL ACELEROGRAFO       : 1730
NUMERO DE CANALES                      : 3
ORIENTACION C1-C6 (rumbo;orientacion)  : /V/N00E/N90E
ORIENTACION C7-C12 (rumbo;orientacion) : 
VEL. DE MUESTREO, C1-C6 (muestras/s)   : /250/250/250
VEL. DE MUESTREO, C7-C12 (muestras/s)  : 
ESC. COMPLETA DE SENSORES, C1-C6, (g)  : /2/2/2
ESC. COMPLETA DE SENSORES, C7-C12 (g)  : 
FREC. NAT. DE SENSORES, C1-C6, (Hz)    : /210/206/212
FREC. NAT. DE SENSORES, C7-C12 (Hz)    : 
AMORTIGUAMIENTO DE SENSORES, C1-C6     : /0.7/0.7/0.7   
AMORTIGUAMIENTO DE SENSORES, C7-C12    : 
INTERVALO DE MUESTREO, C1-C6 (s)       : /0.004/0.004/0.004
INTERVALO DE MUESTREO, C7-C12 (s)      : 
UMBRAL DE DISPARO, C1-C6 (Gal)         : /2/2/2
UMBRAL DE DISPARO, C7-C12 (Gal)        : 
MEMORIA DE PREEVENTO (s)               : 30
TIEMPO DE POSEVENTO (s)                : 60


================================================================================
DATOS DEL SISMO:
FECHA DEL SISMO [GMT]                  : 2018/02/19
HORA EPICENTRO (GMT)                   : 06:56:58
MAGNITUD(ES)                           : /M=6
COORDENADAS DEL EPICENTRO              : 16.2477 LAT. N
                                       : 99.775 LONG. W
PROFUNDIDAD FOCAL (Km)                 : 10.2
FUENTE DE LOS DATOS EPICENTRALES       : SSN
                                       : INSTITUTO DE GEOFISICA, UNAM

================================================================================
DATOS DE ESTE REGISTRO:
HORA DE LA PRIMERA MUESTRA (GMT)       : 06:58:18.00
EXACTITUD DEL TIEMPO (s)               : 
DURACION DEL REGISTRO (s), C1-C6       : /127/127/127
DURACION DEL REGISTRO (s), C7-C12      : 
NUM. TOTAL DE MUESTRAS, C1-C6          : /31750/31750/31750
NUM. TOTAL DE MUESTRAS, C7-C12         : 
ACEL. MAX.(Gal), C1-C6                 : /0.717/-4.632/3.355
ACEL. MAX., C1-C6, EN LA MUESTRA       : /11034/9217/8023
ACEL. MAX.(Gal), C7-C12                : 
ACEL. MAX., C7-C12,EN LA MUESTRA       : 
UNIDADES DE LOS DATOS                  : Gal (cm/s/s)
FACTOR DE DECIMACION                   : 1
FORMATO DATOS (FORTRAN,16 campos/dato) : 3E16.7


================================================================================
CALIDAD DEL ACELEROGRAMA:
REGISTRO DIGITAL COMPLETO CON TIEMPO ABSOLUTO CORRECTO


================================================================================
COMENTARIOS:














================================================================================
DATOS DE ACELERACION:
---------+---------+---------+---------+---------+---------+---------+---------+
   CANAL-1          CANAL-2        CANAL-3
         V            N00E            N90E
---------+---------+---------+---------+---------+---------+---------+---------+ 
[...]
  2.3045512e-001  1.3526831e+000 -6.9087935e-001
  2.4635987e-001  1.3637927e+000 -7.1882922e-001
  2.5641708e-001  1.3844918e+000 -7.3391504e-001
  2.6249811e-001  1.4008643e+000 -7.5052102e-001
  2.7606377e-001  1.4050744e+000 -7.7507937e-001
  2.7863634e-001  1.4196921e+000 -7.9355670e-001
  2.7875328e-001  1.4299831e+000 -8.2220818e-001
  2.8378188e-001  1.4394557e+000 -8.5226249e-001
  2.9056452e-001  1.4360646e+000 -8.8453935e-001
  2.9243587e-001  1.4261243e+000 -9.1038399e-001
  2.8775807e-001  1.4151316e+000 -9.3272018e-001
  2.9033065e-001  1.3806330e+000 -9.5692773e-001
  2.7898715e-001  1.3604016e+000 -9.5926683e-001
  2.7828554e-001  1.3295283e+000 -9.8265544e-001
  2.8144318e-001  1.2910535e+000 -1.0128271e+000
  2.6729284e-001  1.2730439e+000 -1.0287318e+000
  2.7454322e-001  1.2268510e+000 -1.0663877e+000
  2.6776058e-001  1.1833476e+000 -1.0882562e+000
  2.5852192e-001  1.1338805e+000 -1.1087214e+000
  2.6238117e-001  1.0625441e+000 -1.1392438e+000
  2.4846471e-001  9.9904357e-001 -1.1559671e+000
  2.4577480e-001  9.1893668e-001 -1.1946754e+000
  2.3536679e-001  8.4432614e-001 -1.2357232e+000
  2.2016403e-001  7.7287324e-001 -1.2793432e+000
  2.1045763e-001  6.9639173e-001 -1.3339562e+000
  1.8227428e-001  6.2704366e-001 -1.3588654e+000
  1.5958689e-001  5.5570770e-001 -1.3865814e+000
  1.4157769e-001  4.9150517e-001 -1.4195595e+000
  1.2064472e-001  4.2473007e-001 -1.4332421e+000
  1.0134884e-001  3.6298357e-001 -1.4489126e+000
  8.9420277e-002  3.0334191e-001 -1.4781487e+000
  6.9305853e-002  2.5609617e-001 -1.5009527e+000
  4.2642666e-002  2.2136367e-001 -1.5159215e+000
  2.7322977e-002  1.8242150e-001 -1.5346327e+000
 -2.7317237e-003  1.7365057e-001 -1.5313582e+000
 -2.3781629e-002  1.6090346e-001 -1.5292533e+000
 -3.8750512e-002  1.3517575e-001 -1.5194300e+000
 -6.4595153e-002  1.2313064e-001 -1.4901938e+000
 -7.5938652e-002  9.6467457e-002 -1.4835281e+000
 -8.9972054e-002  6.4658336e-002 -1.4645831e+000
 -1.0552561e-001  3.4603635e-002 -1.4346453e+000
 -1.2061143e-001  1.0864220e-002 -1.4090345e+000
 -1.3780247e-001 -3.1691816e-003 -1.3781613e+000
 -1.5288829e-001 -1.7436453e-002 -1.3496267e+000
 -1.7230111e-001 -2.9013823e-002 -1.3093979e+000
 -1.8598331e-001 -4.9946793e-002 -1.2751331e+000
 -2.0106913e-001 -6.7020902e-002 -1.2483530e+000
 -2.1416705e-001 -8.9123224e-002 -1.2146729e+000
 -2.2586135e-001 -1.1824244e-001 -1.1690647e+000
 -2.4387094e-001 -1.2537588e-001 -1.1222871e+000
 -2.5661766e-001 -1.3800606e-001 -1.0763280e+000
 -2.8070828e-001 -1.4408708e-001 -1.0076815e+000
 -3.0421421e-001 -1.5098705e-001 -9.4944349e-001
 -3.1859842e-001 -1.7390792e-001 -8.9950823e-001
 -3.4877006e-001 -1.8291271e-001 -8.3986657e-001
 -3.7578405e-001 -2.1074525e-001 -7.8291481e-001
 -3.9683395e-001 -2.5226078e-001 -7.2116793e-001
 -4.2069070e-001 -2.8512192e-001 -6.6830929e-001
 -4.3776441e-001 -3.2254433e-001 -6.1276075e-001
 -4.5121314e-001 -3.6078488e-001 -5.5042958e-001
 -4.7027515e-001 -3.8370614e-001 -4.8915044e-001
 -4.9155892e-001 -3.9048878e-001 -4.2576685e-001
 -4.9869236e-001 -4.0253389e-001 -3.7653321e-001
 -5.0395484e-001 -4.0183228e-001 -3.2110161e-001
 -5.2032734e-001 -3.8709727e-001 -2.5643134e-001
 -5.3143696e-001 -3.7247919e-001 -2.0906905e-001
 -5.3377567e-001 -3.5306677e-001 -1.6544869e-001
 -5.4207885e-001 -3.2464916e-001 -1.0393607e-001
 -5.5026510e-001 -2.7904090e-001 -5.0726235e-002
 -5.5307155e-001 -2.2735162e-001 -4.7671695e-003
 -5.6149167e-001 -1.6478618e-001  5.6394649e-002
 -5.6768962e-001 -9.4619571e-002  1.0749926e-001
 -5.7610974e-001 -3.0651308e-002  1.6994775e-001
 -5.8546534e-001  3.4369764e-002  2.4198533e-001
 -5.9914755e-001  1.0991579e-001  3.1507532e-001
 -6.1014024e-001  1.7774370e-001  4.0126324e-001
 -6.0277293e-001  2.2978379e-001  4.7400282e-001
 -6.0487776e-001  2.8989319e-001  5.5235529e-001
 -6.0078503e-001  3.3561838e-001  6.2942186e-001
 -5.8546534e-001  3.8637218e-001  6.9736631e-001
 -5.7271823e-001  4.5244567e-001  7.6577890e-001
 -5.4313127e-001  5.0050996e-001  8.2612217e-001
 -5.1003625e-001  5.6190565e-001  8.8354167e-001
 -4.7811020e-001  6.2119651e-001  9.3873940e-001
 -4.3764748e-001  6.7428901e-001  9.9534036e-001
 -3.9519686e-001  7.4656085e-001  1.0435216e+000
 -3.5356479e-001  8.1602586e-001  1.1002395e+000
 -3.1087991e-001  8.9414446e-001  1.1653775e+000
 -2.6421924e-001  9.7998156e-001  1.2189381e+000
 -2.1463479e-001  1.0582175e+000  1.2715629e+000
 -1.6890959e-001  1.1492001e+000  1.3313215e+000
 -1.2061143e-001  1.2384284e+000  1.3876886e+000
 -7.6172523e-002  1.3248505e+000  1.4318936e+000
 -3.9685994e-002  1.4239021e+000  1.4783204e+000
  3.0898390e-004  1.5175747e+000  1.5148073e+000
  3.0597555e-002  1.6155738e+000  1.5508261e+000
  6.2406284e-002  1.7127548e+000  1.5856755e+000
  9.7957332e-002  1.8031528e+000  1.6084795e+000
  1.2847977e-001  1.8928488e+000  1.6356108e+000
  1.5958689e-001  1.9826621e+000  1.6568946e+000
  1.8531460e-001  2.0744633e+000  1.6785292e+000
  2.1735759e-001  2.1505943e+000  1.6878848e+000
  2.4846471e-001  2.2353786e+000  1.6931472e+000
  2.7360774e-001  2.3240226e+000  1.7018012e+000
  2.9816609e-001  2.4024924e+000  1.7008657e+000
  3.1734503e-001  2.4896158e+000  1.7084669e+000
  3.4085058e-001  2.5601332e+000  1.7140802e+000
  3.6143274e-001  2.6314692e+000  1.7251898e+000
  3.8224917e-001  2.7040914e+000  1.7367676e+000
  4.0224666e-001  2.7615113e+000  1.7465909e+000
  4.1019864e-001  2.8336658e+000  1.7720848e+000
  4.2072360e-001  2.8959974e+000  1.7964093e+000
  4.2774049e-001  2.9495576e+000  1.8259958e+000
  4.3616022e-001  2.9994929e+000  1.8549981e+000
  4.4469728e-001  3.0330560e+000  1.8920697e+000
  4.4458034e-001  3.0642801e+000  1.9389643e+000
  4.5604077e-001  3.0736357e+000  1.9721762e+000
  4.6563025e-001  3.0812369e+000  2.0031668e+000
  4.7358262e-001  3.0898909e+000  2.0246844e+000
  4.8773296e-001  3.0882538e+000  2.0396533e+000
  4.9966114e-001  3.0931654e+000  2.0394194e+000
  5.1357760e-001  3.0917618e+000  2.0287776e+000
  5.2913116e-001  3.0877860e+000  2.0156796e+000
  5.4831010e-001  3.0793659e+000  1.9856249e+000
  5.5848425e-001  3.0730510e+000  1.9596634e+000
  5.6924307e-001  3.0622922e+000  1.9153414e+000
  5.7930029e-001  3.0422947e+000  1.8658739e+000
  5.7766280e-001  3.0253375e+000  1.8220200e+000
  5.8035270e-001  2.9941135e+000  1.7561804e+000
  5.7567490e-001  2.9617201e+000  1.6915101e+000
  5.6573462e-001  2.9225436e+000  1.6214605e+000
  5.5076574e-001  2.8754152e+000  1.5559717e+000
  5.2994971e-001  2.8288711e+000  1.4957453e+000
  5.1404534e-001  2.7622129e+000  1.4261634e+000
  4.8504306e-001  2.6912278e+000  1.3673403e+000
  4.5440368e-001  2.6179035e+000  1.3006821e+000
  4.2692156e-001  2.5331192e+000  1.2215107e+000
  3.9101970e-001  2.4479837e+000  1.1409361e+000
  3.6423958e-001  2.3513874e+000  1.0466792e+000
  3.2939014e-001  2.2601709e+000  9.5008290e-001
  2.9758141e-001  2.1673173e+000  8.4822449e-001
  2.7770086e-001  2.0625351e+000  7.4741850e-001
  2.4238368e-001  1.9713186e+000  6.6380356e-001
  2.2273700e-001  1.8603384e+000  5.7749832e-001
  2.0753425e-001  1.7529837e+000  4.9704062e-001
  1.8309283e-001  1.6690175e+000  4.1845428e-001
  1.6531750e-001  1.5768655e+000  3.3039501e-001
  1.4181156e-001  1.4943026e+000  2.4525952e-001
  1.2134633e-001  1.4094010e+000  1.5860386e-001
  1.0392142e-001  1.3133897e+000  7.2766754e-002
  8.3573125e-002  1.2186647e+000 -5.5857159e-003
  5.9014771e-002  1.1274482e+000 -8.1482547e-002
  3.6795513e-002  1.0316708e+000 -1.5585922e-001
  1.5394802e-002  9.3495798e-001 -2.2134803e-001
 -7.6433945e-003  8.4362452e-001 -2.8169131e-001
 -2.4483240e-002  7.4176612e-001 -3.4495835e-001
 -4.3194442e-002  6.4306496e-001 -4.1734673e-001
 -5.9917353e-002  5.4705371e-001 -4.9371130e-001
 -6.9623759e-002  4.3946508e-001 -5.7732664e-001
 -8.2721679e-002  3.4415544e-001 -6.6281294e-001
 -9.3129696e-002  2.4674057e-001 -7.5052102e-001
 -9.7807497e-002  1.3353866e-001 -8.4372583e-001
 -1.1476428e-001  3.2498801e-002 -9.2336497e-001
 -1.3066864e-001 -7.3335795e-002 -1.0120085e+000
 -1.4154440e-001 -1.8069055e-001 -1.0998339e+000
 -1.6060641e-001 -2.6863288e-001 -1.1710530e+000
 -1.8130551e-001 -3.5903086e-001 -1.2460143e+000
 -2.0504532e-001 -4.5480824e-001 -1.3276414e+000
 -2.3299518e-001 -5.4696024e-001 -1.4057600e+000
 -2.5755314e-001 -6.4776623e-001 -1.4823588e+000
 -2.7825264e-001 -7.5184680e-001 -1.5568520e+000
 -3.0129044e-001 -8.5230198e-001 -1.6190666e+000
 -3.2222341e-001 -9.6667324e-001 -1.6923905e+000
 -3.4537854e-001 -1.0795247e+000 -1.7567100e+000
 -3.5508495e-001 -1.2006790e+000 -1.8314374e+000
 -3.6280306e-001 -1.3304873e+000 -1.9148185e+000
 -3.7917556e-001 -1.4526940e+000 -1.9764485e+000
 -3.7777195e-001 -1.5926764e+000 -2.0592449e+000
 -3.7987717e-001 -1.7320738e+000 -2.1374808e+000
 -3.7098931e-001 -1.8753308e+000 -2.2206280e+000
 -3.5578656e-001 -2.0185874e+000 -2.3062312e+000
 -3.4397532e-001 -2.1501501e+000 -2.3883264e+000
 -3.2082019e-001 -2.2813616e+000 -2.4797768e+000
 -3.1310168e-001 -2.3902365e+000 -2.5449148e+000
 -2.9450781e-001 -2.5021521e+000 -2.6225657e+000
 -2.7883731e-001 -2.6093903e+000 -2.6822073e+000
 -2.6948171e-001 -2.7144064e+000 -2.7199801e+000
 -2.4808100e-001 -2.8266728e+000 -2.7652376e+000
 -2.4539110e-001 -2.9264264e+000 -2.7872234e+000
 -2.2995448e-001 -3.0448907e+000 -2.8145882e+000
 -2.2363958e-001 -3.1503745e+000 -2.8281538e+000
 -2.3159157e-001 -3.2438132e+000 -2.8347026e+000
 -2.2141742e-001 -3.3460224e+000 -2.8398481e+000
 -2.1907872e-001 -3.4338474e+000 -2.8281538e+000
 -2.1276382e-001 -3.5227252e+000 -2.8212539e+000
 -2.0527919e-001 -3.6104337e+000 -2.8101442e+000
 -2.0539612e-001 -3.6932301e+000 -2.7985669e+000
 -1.9662520e-001 -3.7789503e+000 -2.7851182e+000
 -1.9031030e-001 -3.8542624e+000 -2.7688630e+000
 -1.8399541e-001 -3.9186988e+000 -2.7614957e+000
 -1.6809105e-001 -3.9882808e+000 -2.7589227e+000
 -1.6902653e-001 -4.0370463e+000 -2.7336627e+000
 -1.6610275e-001 -4.0816021e+000 -2.7172906e+000
 -1.5721529e-001 -4.1363321e+000 -2.7141330e+000
 -1.6212696e-001 -4.1762102e+000 -2.6848968e+000
 -1.5511006e-001 -4.2241571e+000 -2.6694602e+000
 -1.5639635e-001 -4.2647368e+000 -2.6568304e+000
 -1.5779996e-001 -4.3041471e+000 -2.6381192e+000
 -1.5698102e-001 -4.3461303e+000 -2.6211624e+000
 -1.6013867e-001 -4.3836693e+000 -2.6077137e+000
 -1.6072334e-001 -4.4191034e+000 -2.5902892e+000
 -1.7417207e-001 -4.4401533e+000 -2.5556736e+000
 -1.7007894e-001 -4.4781604e+000 -2.5404709e+000
 -1.6633663e-001 -4.5037712e+000 -2.5167311e+000
 -1.7405513e-001 -4.5086828e+000 -2.4876119e+000
 -1.6563501e-001 -4.5262243e+000 -2.4781393e+000
 -1.6177576e-001 -4.5360476e+000 -2.4610656e+000
 -1.6890959e-001 -4.5392053e+000 -2.4420036e+000
 -1.6610275e-001 -4.5556943e+000 -2.4332327e+000
 -1.6107415e-001 -4.5741716e+000 -2.4244621e+000
 -1.6212696e-001 -4.5830595e+000 -2.4073880e+000
 -1.5873544e-001 -4.5894913e+000 -2.3918345e+000
 -1.6130802e-001 -4.5820067e+000 -2.3617798e+000
 -1.5370684e-001 -4.5801357e+000 -2.3286848e+000
 -1.4879517e-001 -4.5662193e+000 -2.2808543e+000
 -1.5031533e-001 -4.5289142e+000 -2.2108047e+000
 -1.4189521e-001 -4.5015490e+000 -2.1506953e+000
 -1.4411737e-001 -4.4583968e+000 -2.0750323e+000
 -1.3932263e-001 -4.4151272e+000 -1.9960951e+000
 -1.3300774e-001 -4.3744306e+000 -1.9221862e+000
 -1.3464483e-001 -4.3172450e+000 -1.8388047e+000
 -1.3312467e-001 -4.2656726e+000 -1.7540204e+000
 -1.2938236e-001 -4.2172576e+000 -1.6673644e+000
 -1.3581418e-001 -4.1562127e+000 -1.5692483e+000
 -1.3218919e-001 -4.1021843e+000 -1.4727693e+000
 -1.1113889e-001 -4.0578623e+000 -1.3903233e+000
 -1.1265944e-001 -3.9908533e+000 -1.2863601e+000
 -9.6170012e-002 -3.9376435e+000 -1.1928045e+000
 -8.0148712e-002 -3.8879425e+000 -1.1104758e+000
 -7.0793111e-002 -3.8243247e+000 -1.0183234e+000
 -4.0153734e-002 -3.7763773e+000 -9.4616891e-001
 -2.8810235e-002 -3.7094853e+000 -8.7003821e-001
  1.9460767e-003 -3.6485573e+000 -8.0700503e-001
  3.1533037e-002 -3.5880971e+000 -7.5040408e-001
  5.0244238e-002 -3.5041310e+000 -6.8713743e-001
  9.0239216e-002 -3.4296378e+000 -6.3661750e-001
  1.1351089e-001 -3.3310535e+000 -5.7089481e-001
  1.3023419e-001 -3.2158633e+000 -5.0061127e-001
  1.4730791e-001 -3.1073392e+000 -4.3313416e-001
  1.5911915e-001 -2.9850152e+000 -3.5337808e-001
  1.6941023e-001 -2.8632763e+000 -2.6929539e-001
  1.8543192e-001 -2.7506590e+000 -1.9608807e-001
  1.9513794e-001 -2.6247100e+000 -1.1446102e-001
  1.9958187e-001 -2.5010997e+000 -2.6284816e-002
  2.1034069e-001 -2.3760861e+000  5.3470876e-002
  2.0613102e-001 -2.2210183e+000  1.5205510e-001
  2.1045763e-001 -2.0777613e+000  2.4666313e-001
  2.0671570e-001 -1.9294761e+000  3.4969089e-001
  1.8765369e-001 -1.7638829e+000  4.6382867e-001
  1.8110493e-001 -1.6206259e+000  5.5633148e-001
  1.6099051e-001 -1.4710544e+000  6.6918297e-001
  1.4368253e-001 -1.3240551e+000  7.8063085e-001
  1.2754429e-001 -1.1892186e+000  8.8681625e-001
  9.4917016e-002 -1.0472479e+000  1.0156887e+000
  7.7609037e-002 -9.2048031e-001  1.1285401e+000
  6.2990960e-002 -7.8868413e-001  1.2502791e+000
  4.5566438e-002 -6.3969731e-001  1.3752926e+000
  3.7497124e-002 -4.9936408e-001  1.4839337e+000
  2.6036690e-002 -3.5575628e-001  1.6047372e+000
  2.6621366e-002 -2.2852097e-001  1.7154834e+000
  3.0363685e-002 -1.1485093e-001  1.8204995e+000
  2.9662074e-002 -3.6273680e-004  1.9280885e+000
  4.0654767e-002  9.7169068e-002  2.0318179e+000
  6.0535321e-002  1.8955494e-001  2.1314545e+000
  8.4742869e-002  2.8042065e-001  2.2269980e+000
  1.1234154e-001  3.7865407e-001  2.3223077e+000
  1.5444135e-001  4.7489919e-001  2.4048702e+000
  1.9116214e-001  5.8459304e-001  2.4922279e+000
  2.2881802e-001  6.9849656e-001  2.5682416e+000
  2.7138597e-001  7.9801627e-001  2.6324441e+000
  2.9687980e-001  9.1963829e-001  2.7091595e+000
  3.4038284e-001  1.0271100e+000  2.7631879e+000
  3.7534921e-001  1.1336466e+000  2.8087962e+000
  3.8891487e-001  1.2489537e+000  2.8659818e+000
  4.2165908e-001  1.3398194e+000  2.9112392e+000
  4.4189044e-001  1.4381694e+000  2.9486613e+000
  4.4879040e-001  1.5468108e+000  2.9916969e+000
  4.6329154e-001  1.6517095e+000  3.0240903e+000
  4.6551331e-001  1.7553224e+000  3.0438540e+000
  4.6001696e-001  1.8610400e+000  3.0723885e+000
  4.5452062e-001  1.9555311e+000  3.0958944e+000
  4.3861625e-001  2.0366904e+000  3.1106295e+000
  4.2411511e-001  2.1012438e+000  3.1279370e+000
  4.0832768e-001  2.1541024e+000  3.1474668e+000
  3.8669271e-001  2.2032191e+000  3.1633712e+000
  3.7347824e-001  2.2380685e+000  3.1742469e+000
  3.6038033e-001  2.2828583e+000  3.1806787e+000
  3.4213726e-001  2.3323258e+000  3.1754163e+000
  3.1933293e-001  2.3849505e+000  3.1632542e+000
  2.9500845e-001  2.4314943e+000  3.1439583e+000
  2.7407548e-001  2.4643558e+000  3.1226746e+000
  2.5138848e-001  2.4967492e+000  3.1008061e+000
  2.2683012e-001  2.5104318e+000  3.0749611e+000
  2.0484434e-001  2.5231789e+000  3.0478302e+000
  1.8320976e-001  2.5270378e+000  3.0133315e+000
  1.5982076e-001  2.5257515e+000  2.9819905e+000
  1.4298092e-001  2.5271547e+000  2.9335754e+000
  1.2754429e-001  2.5159282e+000  2.8744019e+000
  1.0473997e-001  2.5139403e+000  2.8301969e+000
  8.6496897e-002  2.4951121e+000  2.7670468e+000
  7.3165107e-002  2.4626018e+000  2.7049495e+000
  5.2115202e-002  2.4318451e+000  2.6511550e+000
  2.5919755e-002  2.3910316e+000  2.5873036e+000
  1.6096413e-002  2.3435523e+000  2.5133947e+000
  5.4545251e-003  2.2974763e+000  2.4302471e+000
 -1.4776834e-002  2.2666031e+000  2.3529470e+000
