**************************************************************************************
            UNIVERSIDAD AUTONOMA METROPOLITANA - AZCAPOTZALCO
                        Departamento de Materiales
                           Area de Estructuras
     AV. SAN PABLO 180,COL.REYNOSA, AZCAPOTZALCO, C.P.02200 CIUDAD DE MEXICO.
**************************************************************************************
ARCHIVO ESTANDAR DE ACELERACION:
VERSION DEL FORMATO                    : 2.0
NOMBRE DEL ARCHIVO                     : RIDA201802161
FECHA Y HORA DE CREACION               : MON JUL 18 12:30:07 2018
REF. CATALOGO ACELEROGRAMAS, SMIS 1995 : REGISTRO NO.      /PAG.    


================================================================================
DATOS DE LA ESTACION:
NOMBRE DE LA ESTACION                  : UAM-AZCAPOTZALCO.
CLAVE DE LA ESTACION                   : RIDA
LOCALIZACION DE LA ESTACION            : AV. SAN PABLO 180,COL.REYNOSA, AZCAPOTZALCO,
                                       : C.P.02200 CIUDAD DE MEXICO.
                                       :
                                       : 
                                       : 
COORDENADAS DE LA ESTACION             : 19.498596 LAT. N
                                       : 99.195595 LONG. W
ALTITUD (msnm)                         : 2246
TIPO DE SUELO                          : TRANSICION 
                                       : 
                                       : 
INSTITUCION RESPONSABLE                : UNIVERSIDAD AUTONOMA METROPOLITANA
                                       : 

================================================================================
DATOS DEL ACELEROGRAFO: 
MODELO DEL ACELEROGRAFO                : BASALT KINEMETRICS
NUMERO DE SERIE DEL ACELEROGRAFO       : 1730
NUMERO DE CANALES                      : 3
ORIENTACION C1-C6 (rumbo;orientacion)  : /V/N00E/N90E
ORIENTACION C7-C12 (rumbo;orientacion) : 
VEL. DE MUESTREO, C1-C6 (muestras/s)   : /250/250/250
VEL. DE MUESTREO, C7-C12 (muestras/s)  : 
ESC. COMPLETA DE SENSORES, C1-C6, (g)  : /2/2/2
ESC. COMPLETA DE SENSORES, C7-C12 (g)  : 
FREC. NAT. DE SENSORES, C1-C6, (Hz)    : /210/106/212
FREC. NAT. DE SENSORES, C7-C12 (Hz)    : 
AMORTIGUAMIENTO DE SENSORES, C1-C6     : /0.7/0.7/0.7   
AMORTIGUAMIENTO DE SENSORES, C7-C12    : 
INTERVALO DE MUESTREO, C1-C6 (s)       : /0.004/0.004/0.004
INTERVALO DE MUESTREO, C7-C12 (s)      : 
UMBRAL DE DISPARO, C1-C6 (Gal)         : /2/2/2
UMBRAL DE DISPARO, C7-C12 (Gal)        : 
MEMORIA DE PREEVENTO (s)               : 30
TIEMPO DE POSEVENTO (s)                : 60


================================================================================
DATOS DEL SISMO:
FECHA DEL SISMO [GMT]                  : 2018/02/16
HORA EPICENTRO (GMT)                   : 23:39:39
MAGNITUD(ES)                           : /M=7.2
COORDENADAS DEL EPICENTRO              : 16.218 LAT. N
                                       : 98.0135 LONG. W
PROFUNDIDAD FOCAL (Km)                 : 16
FUENTE DE LOS DATOS EPICENTRALES       : SSN
                                       : INSTITUTO DE GEOFISICA, UNAM

================================================================================
DATOS DE ESTE REGISTRO:
HORA DE LA PRIMERA MUESTRA (GMT)       : 23:40:22.00
EXACTITUD DEL TIEMPO (s)               : 
DURACION DEL REGISTRO (s), C1-C6       : /239.00/239.00/239.00
DURACION DEL REGISTRO (s), C7-C12      : 
NUM. TOTAL DE MUESTRAS, C1-C6          : /59750/59750/59750
NUM. TOTAL DE MUESTRAS, C7-C12         : 
ACEL. MAX.(Gal), C1-C6                 : /-3.741/15.834/14.677
ACEL. MAX., C1-C6, EN LA MUESTRA       : /20938/22040/19025
ACEL. MAX.(Gal), C7-C12                : 
ACEL. MAX., C7-C12,EN LA MUESTRA       : 
UNIDADES DE LOS DATOS                  : Gal (cm/s/s)
FACTOR DE DECIMACION                   : 1
FORMATO DATOS (FORTRAN,16 campos/dato) : 3E16.7


================================================================================
CALIDAD DEL ACELEROGRAMA:
REGISTRO DIGITAL COMPLETO CON TIEMPO ABSOLUTO CORRECTO


================================================================================
COMENTARIOS:














================================================================================
DATOS DE ACELERACION:
---------+---------+---------+---------+---------+---------+---------+---------+
   CANAL-1           CANAL-2        CANAL-3
         V            N00E             N90E
---------+---------+---------+---------+---------+---------+---------+---------+ 
[...]
  8.8764019e-001 -1.7291914e+000  1.1602175e+000
  8.0131219e-001 -1.5514362e+000  1.0286552e+000
  7.6207219e-001 -1.3722773e+000  8.8598288e-001
  7.2675619e-001 -1.1947560e+000  7.7161123e-001
  6.9144019e-001 -1.0347761e+000  7.0647361e-001
  6.7574419e-001 -9.0414925e-001  6.1151477e-001
  6.7182019e-001 -7.5785194e-001  4.9152984e-001
  6.9928819e-001 -6.3049969e-001  4.0908425e-001
  7.1890819e-001 -4.7028591e-001  3.0184604e-001
  7.3460419e-001 -3.0516046e-001  1.2888553e-001
  7.5814819e-001 -1.4588255e-001 -4.5946325e-002
  8.0131219e-001  3.5381133e-002 -1.8955374e-001
  8.5624819e-001  1.6308457e-001 -2.7761301e-001
  9.3080419e-001  3.0821214e-001 -3.1714024e-001
  1.0524482e+000  4.8585084e-001 -3.2614504e-001
  1.1858642e+000  6.5600450e-001 -3.1772492e-001
  1.3192802e+000  8.3364320e-001 -3.1129309e-001
  1.4173802e+000  1.0315129e+000 -2.9421898e-001
  1.5115562e+000  1.2444683e+000 -3.1012335e-001
  1.6135802e+000  1.4697032e+000 -2.6638644e-001
  1.6685162e+000  1.7191456e+000 -9.8921894e-002
  1.7313002e+000  1.9349075e+000  3.9890783e-002
  1.7823122e+000  2.1720709e+000  1.8572036e-001
  1.8215522e+000  2.3948498e+000  3.1552863e-001
  1.8804122e+000  2.5616123e+000  3.8709847e-001
  1.8804122e+000  2.7546872e+000  5.0778501e-001
  1.8843362e+000  2.9277651e+000  6.1666032e-001
  1.8921842e+000  3.1305464e+000  7.7476887e-001
  1.8843362e+000  3.3438527e+000  1.0243282e+000
  1.8647162e+000  3.5479207e+000  1.2696771e+000
  1.8294002e+000  3.7946732e+000  1.4808785e+000
  1.8137042e+000  4.0214282e+000  1.6479923e+000
  1.7862362e+000  4.2518086e+000  1.8237592e+000
  1.7548442e+000  4.4707282e+000  1.9549711e+000
  1.7156042e+000  4.6808772e+000  2.0399893e+000
  1.6606682e+000  4.9293837e+000  2.1529577e+000
  1.6175042e+000  5.1737975e+000  2.3000736e+000
  1.5586442e+000  5.3929510e+000  2.4691752e+000
  1.4880122e+000  5.6018137e+000  2.6130165e+000
  1.4095322e+000  5.8186284e+000  2.7563904e+000
  1.3192802e+000  6.0276077e+000  2.8884205e+000
  1.2290282e+000  6.2280504e+000  2.9686443e+000
  1.1427002e+000  6.4407720e+000  2.9839640e+000
  1.0642202e+000  6.6794556e+000  2.9558972e+000
  9.9358819e-001  6.9125255e+000  2.9519210e+000
  9.0726019e-001  7.1060681e+000  2.9412791e+000
  8.0131219e-001  7.2777423e+000  2.9182413e+000
  7.0321219e-001  7.3853314e+000  2.9104059e+000
  6.1688419e-001  7.4457916e+000  2.8849120e+000
  5.3055619e-001  7.4805241e+000  2.8338074e+000
  4.4030419e-001  7.4818104e+000  2.7384978e+000
  3.4612819e-001  7.5043804e+000  2.5838973e+000
  2.6764819e-001  7.5260154e+000  2.4397052e+000
  1.9309219e-001  7.5125667e+000  2.3075582e+000
  1.2638419e-001  7.4574859e+000  2.1559980e+000
  8.3220192e-002  7.3766774e+000  2.0527364e+000
  5.9676192e-002  7.2628904e+000  1.9715771e+000
  3.6132192e-002  7.1218556e+000  1.8901839e+000
  4.7401920e-003  6.9756752e+000  1.8272677e+000
 -1.4879808e-002  6.8079771e+000  1.7165214e+000
 -3.0575808e-002  6.6596919e+000  1.5946655e+000
 -4.6271808e-002  6.5094184e+000  1.5218090e+000
 -6.1967808e-002  6.3711900e+000  1.4438073e+000
 -5.8043808e-002  6.2541289e+000  1.3536432e+000
 -3.4499808e-002  6.0900562e+000  1.2909613e+000
 -1.8803808e-002  5.9224748e+000  1.2377514e+000
 -1.0955808e-002  5.7381708e+000  1.2012649e+000
 -1.8803808e-002  5.5577256e+000  1.1679356e+000
 -5.4119808e-002  5.4233565e+000  1.1605683e+000
 -1.0120781e-001  5.2514484e+000  1.2459377e+000
 -1.4044781e-001  5.0918193e+000  1.3086197e+000
 -1.7576381e-001  4.9476272e+000  1.3296696e+000
 -1.9930781e-001  4.7623873e+000  1.3967959e+000
 -2.4639581e-001  4.6232234e+000  1.4538646e+000
 -3.2095181e-001  4.4804346e+000  1.4887140e+000
 -3.8765981e-001  4.2830327e+000  1.5037998e+000
 -4.6613981e-001  4.1222342e+000  1.5020458e+000
 -5.1715181e-001  3.9275218e+000  1.5214582e+000
 -5.6031581e-001  3.6839269e+000  1.5241481e+000
 -6.3094781e-001  3.4951786e+000  1.4864918e+000
 -6.7018781e-001  3.2745046e+000  1.4105950e+000
 -6.9765581e-001  3.0647068e+000  1.3012523e+000
 -7.3297181e-001  2.9049607e+000  1.1717949e+000
 -7.5651581e-001  2.6847545e+000  1.0210536e+000
 -7.8005981e-001  2.4957727e+000  8.7007851e-001
 -7.8790781e-001  2.3095973e+000  7.3594324e-001
 -7.9183181e-001  2.0607396e+000  6.1537364e-001
 -7.9575581e-001  1.8660276e+000  4.6638681e-001
 -7.8005981e-001  1.6711982e+000  2.6196799e-001
 -7.4474381e-001  1.4377775e+000  4.5036324e-002
 -7.1335181e-001  1.2494969e+000 -1.8394046e-001
 -7.0157981e-001  1.0400499e+000 -4.4975496e-001
 -7.1335181e-001  8.3107023e-001 -7.1919485e-001
 -7.2512381e-001  6.3530540e-001 -9.5214782e-001
 -7.2119981e-001  3.5148170e-001 -1.1392587e+000
 -7.0157981e-001  7.3388212e-002 -1.3197038e+000
 -6.7018781e-001 -1.8377230e-001 -1.4971082e+000
 -6.3094781e-001 -4.6794721e-001 -1.6648063e+000
 -5.9170781e-001 -7.1317916e-001 -1.8365974e+000
 -5.6816381e-001 -9.4168859e-001 -1.9858185e+000
 -5.4461981e-001 -1.1599065e+000 -2.1470847e+000
 -5.0537981e-001 -1.3457311e+000 -2.3007497e+000
 -4.6613981e-001 -1.5682760e+000 -2.4100924e+000
 -4.1512781e-001 -1.8283603e+000 -2.5283233e+000
 -3.6411581e-001 -2.0856378e+000 -2.6771932e+000
 -3.0917981e-001 -2.3719175e+000 -2.8506218e+000
 -2.5031981e-001 -2.6597174e+000 -3.0134081e+000
 -2.1107981e-001 -2.9150070e+000 -3.1749082e+000
 -1.9145981e-001 -3.1810554e+000 -3.3471671e+000
 -1.6399181e-001 -3.4570436e+000 -3.4949850e+000
 -1.3259981e-001 -3.7325645e+000 -3.5898269e+000
 -1.0120781e-001 -4.0605933e+000 -3.6547310e+000
 -4.6271808e-002 -4.4032401e+000 -3.7431407e+000
  8.1619200e-004 -4.7308011e+000 -3.8280423e+000
  4.7904192e-002 -5.0706415e+000 -3.9007815e+000
  8.3220192e-002 -5.3735272e+000 -3.9751582e+000
  9.8916192e-002 -5.6599238e+000 -4.0673102e+000
  1.1853619e-001 -5.9374327e+000 -4.1625029e+000
  1.1461219e-001 -6.1823142e+000 -4.2173498e+000
  1.1853619e-001 -6.4709326e+000 -4.3123087e+000
  1.4992819e-001 -6.7818877e+000 -4.4299545e+000
  1.7347219e-001 -7.0536663e+000 -4.5320472e+000
  1.9701619e-001 -7.3358529e+000 -4.6564756e+000
  1.8916819e-001 -7.5958198e+000 -4.7385708e+000
  1.4208019e-001 -7.8139212e+000 -4.8283841e+000
  1.0284019e-001 -8.0460557e+000 -4.9619343e+000
  5.5752192e-002 -8.2604144e+000 -5.0651963e+000
  8.1619200e-004 -8.4801529e+000 -5.1829591e+000
 -4.2347808e-002 -8.7293610e+000 -5.3579079e+000
 -9.3359808e-002 -8.9356508e+000 -5.5463050e+000
 -1.7183981e-001 -9.1144588e+000 -5.7032442e+000
 -2.5816781e-001 -9.3021544e+000 -5.8345727e+000
 -3.7588781e-001 -9.4554686e+000 -5.9570136e+000
 -5.0930381e-001 -9.5828208e+000 -6.0730224e+000
 -6.2702381e-001 -9.7173069e+000 -6.1799094e+000
 -7.3689581e-001 -9.8486353e+000 -6.2683195e+000
 -8.4284381e-001 -9.9699065e+000 -6.3646815e+000
 -9.4486781e-001 -1.0069543e+001 -6.4637331e+000
 -1.0468918e+000 -1.0151989e+001 -6.5253630e+000
 -1.1410678e+000 -1.0241217e+001 -6.5622004e+000
 -1.2470158e+000 -1.0336878e+001 -6.6079256e+000
 -1.3529638e+000 -1.0422715e+001 -6.6576269e+000
 -1.4353678e+000 -1.0493466e+001 -6.6920086e+000
 -1.5177718e+000 -1.0545389e+001 -6.7239343e+000
 -1.6119478e+000 -1.0554745e+001 -6.7721155e+000
 -1.6786558e+000 -1.0529368e+001 -6.8393584e+000
 -1.7335918e+000 -1.0512762e+001 -6.9132673e+000
 -1.7846038e+000 -1.0494402e+001 -6.9620328e+000
 -1.8277678e+000 -1.0492297e+001 -6.9754815e+000
 -1.8709318e+000 -1.0515802e+001 -6.9775864e+000
 -1.8827038e+000 -1.0523170e+001 -6.9451930e+000
 -1.8866278e+000 -1.0520597e+001 -6.8952577e+000
 -1.8905518e+000 -1.0479316e+001 -6.9306918e+000
 -1.8630838e+000 -1.0398274e+001 -7.0258845e+000
 -1.8356158e+000 -1.0261566e+001 -7.1312514e+000
 -1.8081478e+000 -1.0079951e+001 -7.2562649e+000
 -1.7728318e+000 -9.9112004e+000 -7.3362549e+000
 -1.7453638e+000 -9.7230371e+000 -7.3505218e+000
 -1.7021998e+000 -9.5345226e+000 -7.3226892e+000
 -1.6237198e+000 -9.3572352e+000 -7.2272626e+000
 -1.5530878e+000 -9.1531675e+000 -7.1069269e+000
 -1.4824558e+000 -8.8989304e+000 -7.0569917e+000
 -1.4157478e+000 -8.5932378e+000 -7.0614356e+000
 -1.3647358e+000 -8.2344528e+000 -7.0733638e+000
 -1.3137238e+000 -7.8471332e+000 -7.0871633e+000
 -1.2627118e+000 -7.4603983e+000 -7.0883326e+000
 -1.2234718e+000 -7.0491054e+000 -7.0550038e+000
 -1.1606878e+000 -6.6637737e+000 -6.9587586e+000
 -1.1135998e+000 -6.2900198e+000 -6.8367854e+000
 -1.0822078e+000 -5.8711253e+000 -6.7294307e+000
 -1.0351198e+000 -5.4328180e+000 -6.6196199e+000
 -1.0194238e+000 -4.9450432e+000 -6.4998692e+000
 -1.0194238e+000 -4.4223021e+000 -6.3863161e+000
 -1.0272718e+000 -3.8938307e+000 -6.2863287e+000
 -1.0704358e+000 -3.3208035e+000 -6.1863412e+000
 -1.0979038e+000 -2.7564303e+000 -6.0755949e+000
 -1.1214478e+000 -2.2349758e+000 -5.9248537e+000
 -1.1489158e+000 -1.7197189e+000 -5.7748145e+000
 -1.1489158e+000 -1.2307748e+000 -5.6468771e+000
 -1.1528398e+000 -7.4218144e-001 -5.5251382e+000
 -1.1685358e+000 -2.1055282e-001 -5.4363773e+000
 -1.1999278e+000  3.4738858e-001 -5.3562704e+000
 -1.2352438e+000  9.3760644e-001 -5.2925360e+000
 -1.2430918e+000  1.5610366e+000 -5.1930163e+000
 -1.2470158e+000  2.1608440e+000 -5.0712774e+000
 -1.2430918e+000  2.7470861e+000 -4.9919890e+000
 -1.2352438e+000  3.3290007e+000 -4.8920016e+000
 -1.2077758e+000  3.8842526e+000 -4.8007850e+000
 -1.1763838e+000  4.4597355e+000 -4.7101532e+000
 -1.1489158e+000  5.0377913e+000 -4.6010440e+000
 -1.1175238e+000  5.6149112e+000 -4.5087751e+000
 -1.0782838e+000  6.1913300e+000 -4.4230549e+000
 -1.0429678e+000  6.7231925e+000 -4.3030700e+000
 -1.0115758e+000  7.2218430e+000 -4.1419207e+000
 -9.4094381e-001  7.7057585e+000 -3.9953895e+000
 -8.8208381e-001  8.1924809e+000 -3.8163480e+000
 -8.3891981e-001  8.6841149e+000 -3.5888910e+000
 -7.8790781e-001  9.1756316e+000 -3.3594465e+000
 -7.4474381e-001  9.6613016e+000 -3.1415793e+000
 -6.8980781e-001  1.0155391e+001 -2.9144735e+000
 -6.1525181e-001  1.0609486e+001 -2.6495945e+000
 -5.2499981e-001  1.1013996e+001 -2.4047130e+000
 -4.4259581e-001  1.1438855e+001 -2.1893018e+000
 -3.3272381e-001  1.1824771e+001 -1.9834798e+000
 -2.1107981e-001  1.2196654e+001 -1.7678344e+000
 -1.0905581e-001  1.2592043e+001 -1.5172227e+000
 -7.0318080e-003  1.2953050e+001 -1.2668448e+000
  9.4992192e-002  1.3307976e+001 -1.0200923e+000
  1.9701619e-001  1.3642437e+001 -7.7170268e-001
  2.9904019e-001  1.3932108e+001 -5.3243443e-001
  4.1283619e-001  1.4202483e+001 -3.0322378e-001
  5.5017619e-001  1.4461749e+001 -7.5767155e-002
  6.9928819e-001  1.4693532e+001  1.8490181e-001
  8.2878019e-001  1.4895729e+001  4.8720285e-001
  9.0333619e-001  1.5080618e+001  7.9336314e-001
  9.5042419e-001  1.5254982e+001  1.0802275e+000
  9.7789219e-001  1.5434257e+001  1.3665073e+000
  9.8181619e-001  1.5581139e+001  1.6375839e+000
  9.7004419e-001  1.5703931e+001  1.8835178e+000
  9.6219619e-001  1.5807661e+001  2.1289840e+000
  9.5827219e-001  1.5849878e+001  2.3653285e+000
  9.2295619e-001  1.5869992e+001  2.6395628e+000
  8.6802019e-001  1.5841341e+001  2.9211647e+000
  7.9738819e-001  1.5766262e+001  3.1624208e+000
  7.0713619e-001  1.5680308e+001  3.4303402e+000
  6.2865619e-001  1.5538455e+001  3.6883196e+000
  5.2270819e-001  1.5389000e+001  3.9363584e+000
  4.0106419e-001  1.5219314e+001  4.1895428e+000
  3.0296419e-001  1.5006826e+001  4.4472880e+000
  2.0094019e-001  1.4799367e+001  4.7231597e+000
  9.1068192e-002  1.4570975e+001  4.9916641e+000
 -1.8803808e-002  1.4307148e+001  5.2503448e+000
 -1.1297981e-001  1.4019114e+001  5.4604938e+000
 -2.2285181e-001  1.3702195e+001  5.6684207e+000
 -3.2095181e-001  1.3319203e+001  5.8686294e+000
 -3.9158381e-001  1.2915628e+001  6.0276735e+000
 -4.6613981e-001  1.2500710e+001  6.1575987e+000
 -5.1715181e-001  1.2033049e+001  6.2650704e+000
 -5.6816381e-001  1.1559074e+001  6.3893823e+000
 -5.9563181e-001  1.1076562e+001  6.4532340e+000
 -6.2309981e-001  1.0611006e+001  6.5001286e+000
 -6.5056781e-001  1.0140305e+001  6.5618750e+000
 -6.6233981e-001  9.6334687e+000  6.5725169e+000
 -6.5841581e-001  9.1412503e+000  6.5512332e+000
 -6.2702381e-001  8.6597904e+000  6.4892528e+000
 -5.9955581e-001  8.1789152e+000  6.4339381e+000
 -5.7208781e-001  7.6877493e+000  6.4064564e+000
 -5.3284781e-001  7.1888649e+000  6.3656425e+000
 -4.8968381e-001  6.7057679e+000  6.3164092e+000
 -4.5436781e-001  6.2203319e+000  6.3022589e+000
 -4.1512781e-001  5.6998129e+000  6.2948912e+000
 -3.3664781e-001  5.2023317e+000  6.2241399e+000
 -2.6209181e-001  4.7336189e+000  6.1166682e+000
 -1.8753581e-001  4.2492356e+000  6.0155114e+000
 -1.2475181e-001  3.7792366e+000  5.9104954e+000
 -7.7663808e-002  3.3120440e+000  5.7485276e+000
 -3.8423808e-002  2.8718653e+000  5.5631707e+000
  8.1619200e-004  2.4509830e+000  5.4171073e+000
  2.0436192e-002  2.0139620e+000  5.2726809e+000
  4.3980192e-002  1.5830224e+000  5.1192502e+000
  9.1068192e-002  1.1642445e+000  4.9457046e+000
  1.3423219e-001  7.5564114e-001  4.7615176e+000
  1.7739619e-001  3.3674669e-001  4.6093731e+000
  2.0878819e-001 -5.9694640e-002  4.4431952e+000
  2.2056019e-001 -4.2058453e-001  4.2478981e+000
  2.4802819e-001 -7.9188283e-001  4.0805509e+000
  2.6372419e-001 -1.1618948e+000  3.9465326e+000
  2.7157219e-001 -1.5128444e+000  3.7810563e+000
  3.0296419e-001 -1.8692908e+000  3.5925423e+000
  3.4612819e-001 -2.2299472e+000  3.4306914e+000
  3.8536819e-001 -2.5899016e+000  3.2542224e+000
  3.8929219e-001 -2.9368754e+000  3.0469968e+000
  3.6574819e-001 -3.2363700e+000  2.7961515e+000
  3.3828019e-001 -3.5335255e+000  2.5168883e+000
  3.1081219e-001 -3.8559410e+000  2.2679140e+000
  2.8726819e-001 -4.1678315e+000  1.9929778e+000
  2.9119219e-001 -4.4769151e+000  1.6685745e+000
  3.1866019e-001 -4.7821400e+000  1.4047478e+000
  3.4220419e-001 -5.0819850e+000  1.2000955e+000
  3.5790019e-001 -5.3846368e+000  9.8047398e-001
  3.3435619e-001 -5.6442534e+000  7.2822513e-001
  2.9511619e-001 -5.8841059e+000  4.3188818e-001
  2.7157219e-001 -6.1267657e+000  1.6502126e-001
  2.4018019e-001 -6.3415921e+000 -1.3821526e-001
  2.3233219e-001 -6.5391110e+000 -5.0869501e-001
  2.4410419e-001 -6.7153460e+000 -8.0339448e-001
  2.5980019e-001 -6.8706481e+000 -1.0860488e+000
  2.6372419e-001 -7.0205708e+000 -1.3740830e+000
  2.3625619e-001 -7.1713121e+000 -1.6634030e+000
  2.2448419e-001 -7.2904785e+000 -1.9650025e+000
  2.2840819e-001 -7.4571241e+000 -2.2264900e+000
  2.3233219e-001 -7.6513684e+000 -2.4842352e+000
  2.5587619e-001 -7.7796565e+000 -2.7435009e+000
  3.2258419e-001 -7.9170659e+000 -3.0053392e+000
  3.7359619e-001 -7.9936644e+000 -3.2250773e+000
  4.1676019e-001 -8.0425472e+000 -3.4238829e+000
  4.4815219e-001 -8.0968095e+000 -3.6861889e+000
  4.5207619e-001 -8.0845301e+000 -3.9628792e+000
  4.6384819e-001 -8.0893248e+000 -4.1799278e+000
  4.7954419e-001 -8.1350500e+000 -4.3713656e+000
  5.1878419e-001 -8.1972647e+000 -4.5751994e+000
  5.6979619e-001 -8.2339850e+000 -4.7526042e+000
  6.3650419e-001 -8.2655599e+000 -4.8931709e+000
  6.8751619e-001 -8.2728107e+000 -4.9947958e+000
  7.1498419e-001 -8.2239278e+000 -5.1150147e+000
  7.4245219e-001 -8.1579713e+000 -5.2415483e+000
  7.6599619e-001 -8.0661701e+000 -5.3189653e+000
  8.0131219e-001 -8.0250058e+000 -5.3782562e+000
  8.4447619e-001 -8.0151824e+000 -5.4245661e+000
  8.9156419e-001 -7.9864140e+000 -5.4812840e+000
  9.3472819e-001 -7.9935474e+000 -5.4946157e+000
  9.6219619e-001 -7.9757721e+000 -5.4432773e+000
  9.7004419e-001 -7.9040853e+000 -5.4135734e+000
  9.4650019e-001 -7.8316966e+000 -5.4070246e+000
  9.2688019e-001 -7.7294874e+000 -5.3587264e+000
  9.2295619e-001 -7.6491466e+000 -5.3050489e+000
