**************************************************************************************
            UNIVERSIDAD AUTONOMA METROPOLITANA - AZCAPOTZALCO
                        Departamento de Materiales
                           Area de Estructuras
     AV. SAN PABLO 180,COL.REYNOSA, AZCAPOTZALCO, C.P.02200 CIUDAD DE MEXICO.
**************************************************************************************
ARCHIVO ESTANDAR DE ACELERACION:
VERSION DEL FORMATO                    : 2.0
NOMBRE DEL ARCHIVO                     : RIDA201802171
FECHA Y HORA DE CREACION               : MON JUL 18 12:30:07 2018
REF. CATALOGO ACELEROGRAMAS, SMIS 1995 : REGISTRO NO.      /PAG.    


================================================================================
DATOS DE LA ESTACION:
NOMBRE DE LA ESTACION                  : UAM-AZCAPOTZALCO.
CLAVE DE LA ESTACION                   : RIDA
LOCALIZACION DE LA ESTACION            : AV. SAN PABLO 180,COL.REYNOSA, AZCAPOTZALCO,
                                       : C.P.02200 CIUDAD DE MEXICO.
                                       :
                                       : 
                                       : 
COORDENADAS DE LA ESTACION             : 19.498596 LAT. N
                                       : 99.195595 LONG. W
ALTITUD (msnm)                         : 2246
TIPO DE SUELO                          : TRANSICION 
                                       : 
                                       : 
INSTITUCION RESPONSABLE                : UNIVERSIDAD AUTONOMA METROPOLITANA
                                       : 

================================================================================
DATOS DEL ACELEROGRAFO: 
MODELO DEL ACELEROGRAFO                : BASALT KINEMETRICS
NUMERO DE SERIE DEL ACELEROGRAFO       : 1730
NUMERO DE CANALES                      : 3
ORIENTACION C1-C6 (rumbo;orientacion)  : /V/N00E/N90E
ORIENTACION C7-C12 (rumbo;orientacion) : 
VEL. DE MUESTREO, C1-C6 (muestras/s)   : /250/250/250
VEL. DE MUESTREO, C7-C12 (muestras/s)  : 
ESC. COMPLETA DE SENSORES, C1-C6, (g)  : /2/2/2
ESC. COMPLETA DE SENSORES, C7-C12 (g)  : 
FREC. NAT. DE SENSORES, C1-C6, (Hz)    : /210/106/212
FREC. NAT. DE SENSORES, C7-C12 (Hz)    : 
AMORTIGUAMIENTO DE SENSORES, C1-C6     : /0.7/0.7/0.7   
AMORTIGUAMIENTO DE SENSORES, C7-C12    : 
INTERVALO DE MUESTREO, C1-C6 (s)       : /0.004/0.004/0.004
INTERVALO DE MUESTREO, C7-C12 (s)      : 
UMBRAL DE DISPARO, C1-C6 (Gal)         : /2/2/2
UMBRAL DE DISPARO, C7-C12 (Gal)        : 
MEMORIA DE PREEVENTO (s)               : 30
TIEMPO DE POSEVENTO (s)                : 60


================================================================================
DATOS DEL SISMO:
FECHA DEL SISMO [GMT]                  : 2018/02/17
HORA EPICENTRO (GMT)                   : 00:36:51
MAGNITUD(ES)                           : /M=5.9
COORDENADAS DEL EPICENTRO              : 15.8438 LAT. N
                                       : 97.9887 LONG. W
PROFUNDIDAD FOCAL (Km)                 : 24.3
FUENTE DE LOS DATOS EPICENTRALES       : SSN
                                       : INSTITUTO DE GEOFISICA, UNAM

================================================================================
DATOS DE ESTE REGISTRO:
HORA DE LA PRIMERA MUESTRA (GMT)       : 00:38:23.00
EXACTITUD DEL TIEMPO (s)               : 
DURACION DEL REGISTRO (s), C1-C6       : /107.00/107.00/107.00
DURACION DEL REGISTRO (s), C7-C12      : 
NUM. TOTAL DE MUESTRAS, C1-C6          : /26750/26750/26750
NUM. TOTAL DE MUESTRAS, C7-C12         : 
ACEL. MAX.(Gal), C1-C6                 : /0.400/2.087/-2.955
ACEL. MAX., C1-C6, EN LA MUESTRA       : /8553/7550/7638
ACEL. MAX.(Gal), C7-C12                : 
ACEL. MAX., C7-C12,EN LA MUESTRA       : 
UNIDADES DE LOS DATOS                  : Gal (cm/s/s)
FACTOR DE DECIMACION                   : 1
FORMATO DATOS (FORTRAN,16 campos/dato) : 3E16.7


================================================================================
CALIDAD DEL ACELEROGRAMA:
REGISTRO DIGITAL COMPLETO CON TIEMPO ABSOLUTO CORRECTO


================================================================================
COMENTARIOS:














================================================================================
DATOS DE ACELERACION:
---------+---------+---------+---------+---------+---------+---------+---------+
   CANAL-1          CANAL-2         CANAL-3
         V            N00E            N90E
---------+---------+---------+---------+---------+---------+---------+---------+  
[...]
  2.7990241e-002  8.3655532e-002  5.7985218e-001
  1.8985838e-002  9.0906299e-002  4.5752855e-001
  3.4773267e-002  1.9453006e-002  3.1251752e-001
  5.6173979e-002 -1.3245759e-001  2.1744175e-001
  3.9334133e-002 -2.3700551e-001  2.4071381e-001
  3.8983327e-002 -3.1839908e-001  2.9287084e-001
  1.7231418e-002 -3.3535586e-001  3.3239807e-001
  4.3677611e-003 -2.8401738e-001  3.1403768e-001
  2.5066861e-002 -2.5489816e-001  2.2095019e-001
  4.4011933e-002 -2.5840661e-001  1.1219183e-001
  4.4362739e-002 -2.9793385e-001  2.6705523e-002
  3.9217197e-002 -3.6868514e-001 -6.2756575e-002
  3.2317236e-002 -4.5814724e-001 -8.5794772e-002
  2.0856801e-002 -4.9814221e-001 -3.7028869e-002
  2.4365250e-002 -4.9124264e-001 -7.2112176e-002
  2.1909218e-002 -4.6060327e-001 -1.3128610e-001
  6.9739639e-002 -4.1932200e-001 -1.8601609e-001
  1.1850515e-001 -4.2727399e-001 -2.9079827e-001
  1.2423576e-001 -4.5767950e-001 -4.2352992e-001
  1.5066508e-001 -5.2316831e-001 -5.3462699e-001
  1.4049093e-001 -5.8409626e-001 -5.7029498e-001
  1.1815434e-001 -6.0888848e-001 -5.7438810e-001
  9.8858466e-002 -6.6782853e-001 -5.4480114e-001
  8.0498462e-002 -6.9928645e-001 -5.2538833e-001
  1.0587536e-001 -7.2910728e-001 -5.2831210e-001
  1.5078201e-001 -7.5600473e-001 -5.2784436e-001
  1.8083671e-001 -7.3881369e-001 -6.0678150e-001
  1.5920174e-001 -7.4501165e-001 -7.0653508e-001
  1.3756716e-001 -7.4887090e-001 -7.5389776e-001
  1.1698499e-001 -7.9284207e-001 -7.7588315e-001
  8.3071037e-002 -8.8277230e-001 -7.9658225e-001
  7.8978305e-002 -9.6229452e-001 -7.9868747e-001
  8.1083138e-002 -1.0112939e+000 -8.2804017e-001
  1.1616645e-001 -1.0174919e+000 -8.9142415e-001
  1.5873400e-001 -1.0064992e+000 -8.9738824e-001
  1.6446461e-001 -1.0028742e+000 -9.2627358e-001
  1.4972959e-001 -1.0277833e+000 -9.4089166e-001
  1.3733329e-001 -1.0372555e+000 -9.0779625e-001
  1.4236189e-001 -1.0743271e+000 -9.4720656e-001
  1.2938130e-001 -1.1378276e+000 -9.6977701e-001
  1.1733580e-001 -1.1959491e+000 -9.3913724e-001
  8.9854063e-002 -1.2650633e+000 -9.0943374e-001
  5.4186080e-002 -1.2810846e+000 -8.7189440e-001
  6.7868283e-002 -1.2838910e+000 -8.2441518e-001
  7.1376732e-002 -1.2640105e+000 -8.0430075e-001
  5.3484077e-002 -1.2704427e+000 -8.4148889e-001
  4.7052248e-002 -1.3348787e+000 -8.5692552e-001
  2.5066861e-002 -1.3539407e+000 -8.6253880e-001
 -2.0073658e-002 -1.4059812e+000 -8.7060811e-001
 -6.2641602e-002 -1.4649209e+000 -8.1669667e-001
 -7.9715319e-002 -1.4669091e+000 -8.0044150e-001
 -7.5739129e-002 -1.4540451e+000 -8.3564174e-001
 -7.1529070e-002 -1.4119453e+000 -8.2535066e-001
 -6.2875473e-002 -1.3762773e+000 -8.2897604e-001
 -5.2701325e-002 -1.3900764e+000 -8.5540536e-001
 -6.9307301e-002 -1.4294867e+000 -8.1915270e-001
 -5.5507770e-002 -1.4635176e+000 -7.8091175e-001
 -3.3873189e-002 -1.4809425e+000 -7.7997627e-001
 -6.3460149e-002 -1.4538112e+000 -7.5939411e-001
 -5.1180775e-002 -1.4624652e+000 -7.5085705e-001
 -5.4572289e-002 -1.4962622e+000 -7.3156117e-001
 -8.9889466e-002 -1.4753289e+000 -7.0840643e-001
 -8.5679406e-002 -1.4739256e+000 -7.3705752e-001
 -9.3982590e-002 -1.4462100e+000 -7.7716943e-001
 -6.7436338e-002 -1.4282005e+000 -8.2932685e-001
 -5.4338418e-002 -1.4417661e+000 -8.4979208e-001
 -7.3283490e-002 -1.4064489e+000 -8.1728135e-001
 -7.2464944e-002 -1.3823583e+000 -7.2360919e-001
 -9.2228170e-002 -1.3300844e+000 -5.9356704e-001
 -7.4920583e-002 -1.2643613e+000 -5.2889678e-001
 -5.2584390e-002 -1.2289272e+000 -4.9170864e-001
 -4.6386040e-002 -1.2006269e+000 -5.1568192e-001
 -3.6562698e-002 -1.2160635e+000 -5.6292767e-001
 -6.9658107e-002 -1.2389844e+000 -5.2047666e-001
 -1.2485584e-001 -1.2347747e+000 -4.5393543e-001
 -1.7432335e-001 -1.1947797e+000 -3.7464708e-001
 -1.8484830e-001 -1.1132692e+000 -2.7910357e-001
 -1.7233506e-001 -1.0132822e+000 -2.3922553e-001
 -1.5736618e-001 -9.0581011e-001 -2.7688180e-001
 -1.6005608e-001 -8.2219516e-001 -2.9126601e-001
 -1.7362174e-001 -8.0114525e-001 -2.9313697e-001
 -1.7011329e-001 -7.9214046e-001 -3.0541634e-001
 -1.7865035e-001 -7.6360592e-001 -2.4074608e-001
 -1.7876728e-001 -7.1893314e-001 -1.7163188e-001
 -1.8671927e-001 -6.1496990e-001 -1.3596390e-001
 -1.7818260e-001 -5.1661955e-001 -1.0824790e-001
 -1.5678150e-001 -4.3043163e-001 -8.1818583e-002
 -1.5818512e-001 -3.5652270e-001 -2.9895430e-002
 -1.3771989e-001 -2.9933707e-001  4.8106627e-002
 -1.2579132e-001 -2.0320888e-001  1.1827324e-001
 -9.9011196e-002 -1.4543818e-001  1.4540417e-001
 -7.2698814e-002 -7.7259860e-002  1.8270924e-001
 -6.5331112e-002 -1.7138350e-003  2.2106713e-001
 -3.0715546e-002  6.8452779e-002  2.2995499e-001
 -1.0016446e-002  2.0317272e-001  2.8562046e-001
 -4.2697452e-004  2.9988559e-001  3.8069623e-001
 -2.2983301e-003  3.8981582e-001  4.3799880e-001
 -1.0834992e-002  4.5647399e-001  5.1003638e-001
  5.0850708e-004  4.5577238e-001  5.8733682e-001
  1.5126584e-002  4.9681977e-001  6.1739152e-001
  3.4773267e-002  5.4301271e-001  7.0580120e-001
  5.4186080e-002  6.2241799e-001  7.9491289e-001
  6.3307418e-002  7.7678461e-001  8.1175274e-001
  6.7400543e-002  9.1805332e-001  8.5361907e-001
  6.8452959e-002  1.0496156e+000  8.9033947e-001
  7.6171467e-002  1.1299564e+000  9.0121523e-001
  1.0961768e-001  1.1449253e+000  9.5863473e-001
  1.4189415e-001  1.1546317e+000  1.0342977e+000
  1.5557675e-001  1.1539301e+000  1.0766318e+000
  1.7346901e-001  1.2067887e+000  1.1215384e+000
  1.8340929e-001  1.3264228e+000  1.1622350e+000
  1.8715161e-001  1.4508517e+000  1.1669128e+000
  1.9393424e-001  1.5487339e+000  1.2099481e+000
  2.0703216e-001  1.6007740e+000  1.2763724e+000
  2.2387200e-001  1.6084925e+000  1.3043223e+000
  2.3591751e-001  1.5739939e+000  1.3426801e+000
  2.1790792e-001  1.5631181e+000  1.3788159e+000
  1.7042869e-001  1.5762160e+000  1.3917965e+000
  1.5276991e-001  1.6327001e+000  1.3924985e+000
  1.4622115e-001  1.7419262e+000  1.3850138e+000
  1.5499207e-001  1.7722147e+000  1.3845461e+000
  1.6949321e-001  1.8113908e+000  1.3964743e+000
  1.5487514e-001  1.8609752e+000  1.4114431e+000
  1.3756716e-001  1.8565313e+000  1.4170564e+000
  1.0295159e-001  1.9070512e+000  1.4634836e+000
  8.5176263e-002  1.9262302e+000  1.5267503e+000
  8.8333513e-002  1.9164068e+000  1.5559864e+000
  1.0435521e-001  1.9510224e+000  1.5914205e+000
  1.4084173e-001  1.9700844e+000  1.6074418e+000
  1.3733329e-001  1.9930053e+000  1.6000745e+000
  1.0926688e-001  2.0394325e+000  1.6312986e+000
  1.0108063e-001  2.0508929e+000  1.6722290e+000
  1.0587536e-001  2.0489046e+000  1.6980737e+000
  1.2704220e-001  2.0621195e+000  1.7280114e+000
  1.4891066e-001  2.0511268e+000  1.7422787e+000
  1.5733077e-001  2.0460982e+000  1.7131595e+000
  1.8797015e-001  2.0111318e+000  1.6662649e+000
  2.0703216e-001  1.9735928e+000  1.6432268e+000
  1.9323263e-001  1.9406144e+000  1.6595993e+000
  1.9030925e-001  1.8638990e+000  1.7435650e+000
  1.8890563e-001  1.8191093e+000  1.8130300e+000
  2.0644748e-001  1.7630930e+000  1.8111590e+000
  2.4117998e-001  1.7083630e+000  1.7988797e+000
  2.3954250e-001  1.6869623e+000  1.7445005e+000
  2.3743767e-001  1.6470843e+000  1.6369119e+000
  2.5275735e-001  1.6102465e+000  1.5596118e+000
  2.5310816e-001  1.5585572e+000  1.5177455e+000
  2.6971413e-001  1.4424316e+000  1.4859367e+000
  2.8538502e-001  1.3286446e+000  1.5157576e+000
  2.9918416e-001  1.2541514e+000  1.5279196e+000
  3.0935831e-001  1.1587248e+000  1.5049988e+000
  2.9848255e-001  1.1089065e+000  1.4910823e+000
  2.9427249e-001  1.0953408e+000  1.3893408e+000
  2.6725850e-001  1.0730046e+000  1.2398859e+000
  2.3428002e-001  1.0540596e+000  1.1127675e+000
  2.0060033e-001  9.5874991e-001  1.0381569e+000
  1.8644999e-001  8.2262674e-001  9.9979945e-001
  2.0305597e-001  7.1492118e-001  9.9208094e-001
  1.9381730e-001  6.1423213e-001  1.0207324e+000
  1.5358846e-001  5.4628728e-001  1.0128970e+000
  7.5586791e-002  5.1471243e-001  9.7781367e-001
  1.2904423e-002  4.5740947e-001  8.8893625e-001
 -1.2355542e-002  3.7987555e-001  7.7596782e-001
 -2.5453069e-002  2.8573525e-001  7.1106368e-001
 -3.6679633e-002  1.8270749e-001  6.6159617e-001
 -5.4338418e-002  1.2575574e-001  6.0078515e-001
 -7.0476653e-002  7.2195097e-002  5.3295764e-001
 -1.0053135e-001 -1.8319811e-002  4.6898898e-001
 -1.2380342e-001 -1.3152211e-001  3.8549097e-001
 -1.4964806e-001 -2.4296999e-001  3.1602597e-001
 -1.6730645e-001 -3.1968536e-001  2.6959916e-001
 -1.5713231e-001 -3.7464923e-001  2.2375664e-001
 -1.6286252e-001 -4.1604743e-001  1.7101494e-001
 -1.9280029e-001 -4.7744311e-001  8.7867342e-002
 -2.5162340e-001 -5.6585319e-001  1.0450353e-002
 -2.9793327e-001 -6.4736330e-001 -6.3224709e-002
 -3.0342962e-001 -7.1624363e-001 -1.1795431e-001
 -2.9676392e-001 -7.5343177e-001 -1.6262708e-001
 -2.8869461e-001 -8.1833591e-001 -2.1887723e-001
 -3.2354405e-001 -8.6944051e-001 -2.4285091e-001
 -3.7242688e-001 -8.6944051e-001 -2.8471724e-001
 -3.8447239e-001 -8.9551902e-001 -3.4915325e-001
 -3.7850791e-001 -8.8756704e-001 -4.3510729e-001
 -3.4517902e-001 -9.0405608e-001 -5.4257937e-001
 -3.1161587e-001 -9.7375495e-001 -6.1730685e-001
 -3.0226027e-001 -1.0210003e+000 -6.8618678e-001
 -3.1594287e-001 -1.0837996e+000 -7.3004102e-001
 -3.5020763e-001 -1.1495223e+000 -7.4851835e-001
 -3.6751521e-001 -1.2002761e+000 -8.0582091e-001
 -3.6038177e-001 -1.2417912e+000 -8.8978706e-001
 -3.4459434e-001 -1.2821370e+000 -9.6954314e-001
 -3.2026986e-001 -1.3090341e+000 -1.0971293e+000
 -3.0015544e-001 -1.3375686e+000 -1.2538346e+000
 -3.0717194e-001 -1.3818906e+000 -1.3610724e+000
 -3.3944880e-001 -1.3907784e+000 -1.4362676e+000
 -3.7160834e-001 -1.4013034e+000 -1.4734562e+000
 -3.6564425e-001 -1.3942865e+000 -1.5244438e+000
 -3.3933187e-001 -1.3748737e+000 -1.6113334e+000
 -3.2085454e-001 -1.4084368e+000 -1.6830201e+000
 -2.9734860e-001 -1.4158045e+000 -1.7897902e+000
 -2.7957327e-001 -1.4158045e+000 -1.9300065e+000
 -2.7056848e-001 -1.4072675e+000 -2.0179488e+000
 -2.7279024e-001 -1.3507835e+000 -2.0563063e+000
 -2.7056848e-001 -1.3220151e+000 -2.0881154e+000
 -2.2612957e-001 -1.2966382e+000 -2.1113871e+000
 -1.5526134e-001 -1.2643613e+000 -2.1566446e+000
 -9.7022905e-002 -1.2757052e+000 -2.2103221e+000
 -5.3636807e-002 -1.3057599e+000 -2.2816581e+000
 -4.7088043e-002 -1.2934805e+000 -2.3848032e+000
 -5.5741641e-002 -1.2806169e+000 -2.4661964e+000
 -5.0245294e-002 -1.2435453e+000 -2.5112200e+000
 -6.1705728e-002 -1.1675315e+000 -2.5370646e+000
 -3.8667924e-002 -1.1635553e+000 -2.5954196e+000
  6.3556595e-003 -1.1513933e+000 -2.6432500e+000
  4.0737355e-002 -1.1428562e+000 -2.6667559e+000
  7.2195278e-002 -1.1388804e+000 -2.6778656e+000
  5.2782465e-002 -1.0558497e+000 -2.6839466e+000
  1.6997547e-002 -9.9667582e-001 -2.7292040e+000
  8.5778207e-003 -9.7656140e-001 -2.7612466e+000
  3.9684938e-002 -9.9386937e-001 -2.8214730e+000
  8.4942392e-002 -1.0294204e+000 -2.9166657e+000
  1.2107812e-001 -1.0429861e+000 -2.9522167e+000
  1.4282963e-001 -1.0524582e+000 -2.9012291e+000
  1.1640032e-001 -1.0326946e+000 -2.8234613e+000
  9.3947187e-002 -1.0084875e+000 -2.7786716e+000
  1.0727859e-001 -1.0007689e+000 -2.7420681e+000
  1.3803490e-001 -9.8112226e-001 -2.7718885e+000
  1.7896536e-001 -9.6358080e-001 -2.8407689e+000
  1.9358343e-001 -9.3668335e-001 -2.8548023e+000
  1.9182941e-001 -8.9165977e-001 -2.8550361e+000
  1.6972708e-001 -8.6944051e-001 -2.7883780e+000
  1.3967238e-001 -8.2722377e-001 -2.6802043e+000
  1.4470099e-001 -7.6360592e-001 -2.6400924e+000
  1.5908480e-001 -7.2653471e-001 -2.5769426e+000
  1.9779349e-001 -7.0150862e-001 -2.4984728e+000
  2.2574336e-001 -6.8852763e-001 -2.4680673e+000
  2.2352120e-001 -6.6046122e-001 -2.4214067e+000
  2.3229212e-001 -6.0304133e-001 -2.3408320e+000
  2.1907727e-001 -5.4433554e-001 -2.2545272e+000
  2.1217770e-001 -4.8691565e-001 -2.1587498e+000
  2.1486760e-001 -4.4762228e-001 -2.0407528e+000
  1.8855483e-001 -4.2867760e-001 -1.9470806e+000
  1.4914453e-001 -4.0528860e-001 -1.8399593e+000
  1.0926688e-001 -3.7757261e-001 -1.7059414e+000
  7.3481565e-002 -3.2319381e-001 -1.6305123e+000
  5.9214686e-002 -2.5466429e-001 -1.5467800e+000
  4.5532091e-002 -2.1045926e-001 -1.3920626e+000
  1.9102773e-002 -1.8987709e-001 -1.2603833e+000
 -2.2983301e-003 -1.5678207e-001 -1.1589927e+000
 -2.7792166e-002 -1.1281091e-001 -1.0250917e+000
 -1.2355542e-002 -8.2522337e-002 -9.3527838e-001
  1.4775779e-002 -2.2412935e-002 -8.8019758e-001
  1.9921320e-002  3.2433990e-002 -7.8208110e-001
  2.3078570e-002  4.9390771e-002 -6.7250458e-001
  1.5126584e-002  2.8925542e-002 -5.5485835e-001
  2.9978532e-002 -1.1771047e-002 -4.2388073e-001
  3.4305527e-002 -1.9723033e-002 -3.1991748e-001
  2.0739866e-002 -2.2296000e-002 -2.4437146e-001
  1.8401162e-002 -1.5396038e-002 -1.2532201e-001
  1.1852006e-002  4.3671878e-003  2.4983675e-003
  1.2436682e-002  3.2550925e-002  9.8392687e-002
  1.3723362e-002  6.7166491e-002  2.2913644e-001
  7.4237748e-004  1.0143125e-001  3.5765804e-001
 -7.5608065e-003  1.4306332e-001  4.2291298e-001
 -3.3507469e-003  1.6165759e-001  4.6852124e-001
  1.9336644e-002  1.3651456e-001  5.2465445e-001
  4.4479674e-002  1.1815416e-001  6.0136983e-001
  5.0677632e-002  1.5241892e-001  7.0825724e-001
  8.2486361e-002  2.0200337e-001  7.9491289e-001
  9.7572179e-002  2.9169973e-001  8.7268068e-001
  1.0669391e-001  3.3976363e-001  9.6073995e-001
  1.2739301e-001  3.2631491e-001  1.0010857e+000
  9.3128249e-002  3.4034831e-001  9.9208094e-001
  8.0615397e-002  2.8573525e-001  1.0189780e+000
  6.3658224e-002  2.6679057e-001  1.1344021e+000
  3.3252717e-002  3.1637463e-001  1.2498261e+000
  4.3543800e-002  3.5882564e-001  1.3449019e+000
  3.5241008e-002  4.5050990e-001  1.4410301e+000
  1.2202812e-002  5.1003463e-001  1.4758795e+000
 -8.4962881e-003  5.2044264e-001  1.4762303e+000
 -1.7267213e-002  5.0570763e-001  1.4786864e+000
 -2.8259907e-002  4.7857670e-001  1.4942399e+000
 -2.6739357e-002  4.6688200e-001  1.5667452e+000
 -1.7734954e-002  5.0278386e-001  1.6620549e+000
 -3.7381637e-002  5.6149004e-001  1.7140950e+000
 -6.0536376e-002  5.8441130e-001  1.7593524e+000
 -7.1996811e-002  6.0803378e-001  1.7823906e+000
 -4.6502975e-002  6.1879260e-001  1.7365485e+000
 -3.5393346e-002  6.5773516e-001  1.7162002e+000
 -5.6209381e-002  6.6206216e-001  1.7339755e+000
 -8.4510054e-002  6.1586922e-001  1.7704625e+000
 -1.1362927e-001  6.0604588e-001  1.8253094e+000
 -1.2263407e-001  5.7564037e-001  1.8620298e+000
 -1.3888924e-001  5.8417743e-001  1.9251795e+000
 -1.2567438e-001  6.0230356e-001  1.9892651e+000
 -1.2087965e-001  6.2768046e-001  2.0056372e+000
 -1.5339038e-001  6.5142027e-001  1.9721914e+000
 -1.8812288e-001  6.1505068e-001  1.9168767e+000
 -2.3454969e-001  6.0815071e-001  1.8774664e+000
 -2.4916776e-001  6.1399826e-001  1.8278820e+000
 -2.4413916e-001  6.5095253e-001  1.7909277e+000
 -2.2858560e-001  6.5715049e-001  1.7750233e+000
 -2.1560462e-001  6.3422962e-001  1.7551428e+000
 -2.2811747e-001  6.6989760e-001  1.7360808e+000
 -2.3490049e-001  7.1000951e-001  1.7181881e+000
 -2.3466662e-001  7.8707570e-001  1.6855608e+000
 -2.1759251e-001  8.5595602e-001  1.6407711e+000
 -1.9853090e-001  8.7361441e-001  1.5918883e+000
 -1.9420390e-001  8.7022290e-001  1.5200846e+000
 -1.9244948e-001  8.6180317e-001  1.4651207e+000
 -1.9911558e-001  8.5174596e-001  1.4377559e+000
 -2.0893892e-001  8.5408467e-001  1.4088706e+000
 -2.1513687e-001  9.0133041e-001  1.3860662e+000
 -2.1338285e-001  9.1466181e-001  1.3638470e+000
 -1.9876477e-001  9.1501261e-001  1.3299330e+000
 -1.6882700e-001  9.2530370e-001  1.2756708e+000
