**************************************************************************************
            UNIVERSIDAD AUTONOMA METROPOLITANA - AZCAPOTZALCO
                        Departamento de Materiales
                           Area de Estructuras
     AV. SAN PABLO 180,COL.REYNOSA, AZCAPOTZALCO, C.P.02200 CIUDAD DE MEXICO.
**************************************************************************************
ARCHIVO ESTANDAR DE ACELERACION:
VERSION DEL FORMATO                    : 2.0
NOMBRE DEL ARCHIVO                     : RIDA201805211
FECHA Y HORA DE CREACION               : MON JUL 18 12:30:07 2018
REF. CATALOGO ACELEROGRAMAS, SMIS 1995 : REGISTRO NO.      /PAG.    


================================================================================
DATOS DE LA ESTACION:
NOMBRE DE LA ESTACION                  : UAM-AZCAPOTZALCO.
CLAVE DE LA ESTACION                   : RIDA
LOCALIZACION DE LA ESTACION            : AV. SAN PABLO 180,COL.REYNOSA, AZCAPOTZALCO,
                                       : C.P.02200 CIUDAD DE MEXICO.
                                       :
                                       : 
                                       : 
COORDENADAS DE LA ESTACION             : 19.498596 LAT. N
                                       : 99.195595 LONG. W
ALTITUD (msnm)                         : 2246
TIPO DE SUELO                          : TRANSICION 
                                       : 
                                       : 
INSTITUCION RESPONSABLE                : UNIVERSIDAD AUTONOMA METROPOLITANA
                                       : 

================================================================================
DATOS DEL ACELEROGRAFO: 
MODELO DEL ACELEROGRAFO                : BASALT KINEMETRICS
NUMERO DE SERIE DEL ACELEROGRAFO       : 1730
NUMERO DE CANALES                      : 3
ORIENTACION C1-C6 (rumbo;orientacion)  : /V/N00E/N90E
ORIENTACION C7-C12 (rumbo;orientacion) : 
VEL. DE MUESTREO, C1-C6 (muestras/s)   : /250/250/250
VEL. DE MUESTREO, C7-C12 (muestras/s)  : 
ESC. COMPLETA DE SENSORES, C1-C6, (g)  : /2/2/2
ESC. COMPLETA DE SENSORES, C7-C12 (g)  : 
FREC. NAT. DE SENSORES, C1-C6, (Hz)    : /210/206/212
FREC. NAT. DE SENSORES, C7-C12 (Hz)    : 
AMORTIGUAMIENTO DE SENSORES, C1-C6     : /0.7/0.7/0.7   
AMORTIGUAMIENTO DE SENSORES, C7-C12    : 
INTERVALO DE MUESTREO, C1-C6 (s)       : /0.004/0.004/0.004
INTERVALO DE MUESTREO, C7-C12 (s)      : 
UMBRAL DE DISPARO, C1-C6 (Gal)         : /2/2/2
UMBRAL DE DISPARO, C7-C12 (Gal)        : 
MEMORIA DE PREEVENTO (s)               : 30
TIEMPO DE POSEVENTO (s)                : 60


================================================================================
DATOS DEL SISMO:
FECHA DEL SISMO [GMT]                  : 2018/05/21
HORA EPICENTRO (GMT)                   : 02:15:20
MAGNITUD(ES)                           : /M=5.0
COORDENADAS DEL EPICENTRO              : 17.0585 LAT. N
                                       : 98.6643 LONG. W
PROFUNDIDAD FOCAL (Km)                 : 36.2
FUENTE DE LOS DATOS EPICENTRALES       : SSN
                                       : INSTITUTO DE GEOFISICA, UNAM

================================================================================
DATOS DE ESTE REGISTRO:
HORA DE LA PRIMERA MUESTRA (GMT)       : 02:16:07.00
EXACTITUD DEL TIEMPO (s)               : 
DURACION DEL REGISTRO (s), C1-C6       : /115.00/115.00/115.00
DURACION DEL REGISTRO (s), C7-C12      : 
NUM. TOTAL DE MUESTRAS, C1-C6          : /28750/28750/28750
NUM. TOTAL DE MUESTRAS, C7-C12         : 
ACEL. MAX.(Gal), C1-C6                 : /0.632/-1.874/2.358
ACEL. MAX., C1-C6, EN LA MUESTRA       : /3438/10797/8540
ACEL. MAX.(Gal), C7-C12                : 
ACEL. MAX., C7-C12,EN LA MUESTRA       : 
UNIDADES DE LOS DATOS                  : Gal (cm/s/s)
FACTOR DE DECIMACION                   : 1
FORMATO DATOS (FORTRAN,16 campos/dato) : 3E16.7


================================================================================
CALIDAD DEL ACELEROGRAMA:
REGISTRO DIGITAL COMPLETO CON TIEMPO ABSOLUTO CORRECTO


================================================================================
COMENTARIOS:














================================================================================
DATOS DE ACELERACION:
---------+---------+---------+---------+---------+---------+---------+---------+
   CANAL-1  		CANAL-2  	CANAL-3
         V      	N00E   	   	N90E
---------+---------+---------+---------+---------+---------+---------+---------+ 
[...]
 -8.2609949e-002  8.1999514e-001  1.9266424e-001
 -7.3137413e-002  7.6561596e-001  2.0003194e-001
 -6.3080201e-002  7.3509352e-001  2.0716538e-001
 -3.7235560e-002  6.9802231e-001  1.9324891e-001
 -1.4197756e-002  6.9053767e-001  1.8833724e-001
  1.9408717e-003  6.7311315e-001  1.7290062e-001
  1.1296080e-002  6.4387700e-001  1.6892443e-001
  1.5155334e-002  6.8048046e-001  1.5664545e-001
  3.4802017e-002  6.7510105e-001  1.1980812e-001
  4.3105201e-002  6.6480997e-001  1.2928065e-001
  6.5675264e-002  6.6071684e-001  1.2483672e-001
  8.4620336e-002  6.4411087e-001  1.0483923e-001
  6.8482102e-002  6.1756461e-001  1.0869809e-001
  7.0470000e-002  6.0189373e-001  1.2495366e-001
  6.6493811e-002  6.0657153e-001  1.5021362e-001
  7.3627643e-002  6.1101546e-001  1.5161684e-001
  7.9825601e-002  6.5147818e-001  1.9091021e-001
  6.4856718e-002  6.4165484e-001  2.3441324e-001
  5.9243436e-002  6.4913947e-001  2.4973293e-001
  4.0064494e-002  6.5030883e-001  2.7429129e-001
  3.7491919e-002  6.0493444e-001  3.0037019e-001
  3.4451212e-002  6.0060744e-001  3.4855102e-001
  3.7725790e-002  5.4845042e-001  3.8246498e-001
  6.0763594e-002  5.0190668e-001  4.2491560e-001
  4.6262452e-002  4.5466093e-001  4.5859568e-001
  4.4274553e-002  3.8987373e-001  4.8970280e-001
  6.2868820e-002  3.5291946e-001  5.3484332e-001
  7.1405482e-002  3.0976684e-001  5.4478359e-001
  7.5147800e-002  2.4918970e-001  5.8290761e-001
  8.4854207e-002  1.6651023e-001  6.1892640e-001
  1.1186820e-001  9.9969003e-002  6.3260899e-001
  1.1385649e-001  9.5710297e-003  6.5962299e-001
  1.0695653e-001 -4.8901279e-002  7.0207360e-001
  9.5262224e-002 -7.8488239e-002  7.1751023e-001
  7.7369569e-002 -1.5765926e-001  6.9879942e-001
  8.4152596e-002 -2.2197872e-001  7.3961294e-001
  6.6727681e-002 -2.7846273e-001  7.5914269e-001
  4.3689877e-002 -3.3050322e-001  7.1903078e-001
  1.6324686e-002 -3.6067485e-001  7.3657223e-001
 -2.0044908e-002 -3.6090872e-001  7.4300406e-001
 -1.7121136e-002 -3.8885820e-001  6.8722165e-001
 -4.6474225e-002 -4.1131172e-001  6.9634339e-001
 -9.5473998e-002 -4.0183918e-001  7.1306630e-001
 -1.3757381e-001 -4.4265270e-001  6.6886165e-001
 -1.7429421e-001 -4.3013946e-001  6.3143925e-001
 -1.8236352e-001 -4.0113757e-001  5.8512938e-001
 -2.1838231e-001 -4.0382708e-001  5.3250461e-001
 -2.4317454e-001 -3.7213529e-001  4.9473140e-001
 -2.7018892e-001 -3.3868907e-001  4.9379592e-001
 -3.0071136e-001 -3.2313551e-001  4.8233549e-001
 -3.0445329e-001 -3.1144121e-001  4.5543804e-001
 -3.2866084e-001 -2.6583295e-001  4.2854098e-001
 -3.3813337e-001 -2.5554187e-001  3.5393044e-001
 -3.5193290e-001 -2.3940363e-001  3.2761805e-001
 -3.5310226e-001 -2.0408645e-001  3.0551573e-001
 -3.4140795e-001 -2.1730092e-001  2.3862330e-001
 -3.4456520e-001 -1.8701235e-001  2.1511776e-001
 -3.1193793e-001 -1.7894342e-001  2.0026581e-001
 -2.7872558e-001 -2.0443726e-001  1.7114659e-001
 -2.5697407e-001 -2.0396952e-001  1.2378391e-001
 -2.3264958e-001 -2.2724119e-001  9.9109016e-002
 -2.1078113e-001 -2.4513385e-001  8.9636480e-002
 -1.7791959e-001 -2.4209314e-001  4.9173761e-002
 -1.4201774e-001 -2.3987137e-001  1.6312223e-002
 -1.0178889e-001 -2.6431279e-001 -2.3215013e-002
 -5.0567350e-002 -2.9062517e-001 -5.4439066e-002
 -1.5367108e-002 -3.1155814e-001 -7.8880485e-002
  9.7759225e-003 -3.4114510e-001 -1.0764890e-001
  3.0942763e-002 -3.2360325e-001 -1.3033590e-001
  5.5734988e-002 -3.3132176e-001 -1.7173410e-001
  9.6080771e-002 -3.5400876e-001 -2.1418511e-001
  1.0520250e-001 -3.1354604e-001 -2.7932311e-001
  1.2215928e-001 -3.2629316e-001 -3.2493137e-001
  1.5127850e-001 -3.1951052e-001 -3.2504831e-001
  1.5537163e-001 -2.6454666e-001 -3.6948722e-001
  1.6940503e-001 -2.8360828e-001 -4.3064903e-001
  1.7127599e-001 -2.5542493e-001 -4.5204975e-001
  1.6250507e-001 -2.0771145e-001 -4.8409235e-001
  1.6309013e-001 -2.0923200e-001 -5.4958116e-001
  1.6531190e-001 -1.5415120e-001 -5.7484112e-001
  1.7653847e-001 -1.1123245e-001 -5.8723743e-001
  1.8753116e-001 -1.1170019e-001 -6.2886950e-001
  1.8145014e-001 -7.4862855e-002 -6.4079768e-001
  1.7653847e-001 -5.0070631e-002 -6.5962581e-001
  1.8308723e-001 -5.8373815e-002 -6.8640594e-001
  1.8273642e-001 -4.2469058e-002 -6.7728460e-001
  1.7139293e-001 -3.1710235e-002 -7.0429859e-001
  1.7045744e-001 -4.8433538e-002 -7.4745121e-001
  1.7490137e-001 -2.5746147e-002 -7.3528877e-001
  1.6437642e-001 -1.9080449e-002 -7.3271620e-001
  1.7232841e-001 -6.1063325e-002 -7.4522905e-001
  1.6554577e-001 -4.6796053e-002 -7.4125286e-001
  1.4297571e-001 -8.0826943e-002 -7.4160367e-001
  1.4812125e-001 -1.4853792e-001 -7.3751094e-001
  1.4145516e-001 -1.2409650e-001 -7.5984713e-001
  1.3642655e-001 -1.6561163e-001 -7.8194945e-001
  1.3689429e-001 -2.1964001e-001 -7.5493546e-001
  1.2028832e-001 -2.1145376e-001 -7.4499518e-001
  1.0099244e-001 -2.5250116e-001 -7.7259424e-001
  9.0701359e-002 -2.5413864e-001 -7.7119063e-001
  8.6257429e-002 -2.5916725e-001 -7.2605011e-001
  8.1228823e-002 -3.0804969e-001 -7.0862559e-001
  7.1405482e-002 -3.0676341e-001 -6.9997160e-001
  4.4508424e-002 -3.3798746e-001 -6.3682188e-001
  3.0124217e-002 -3.9061262e-001 -5.8103947e-001
  2.1587162e-002 -4.3154308e-001 -5.4747632e-001
 -9.1691495e-003 -4.7457837e-001 -5.2502280e-001
 -2.7061412e-002 -5.1761405e-001 -4.9368182e-001
 -4.4486327e-002 -5.6708157e-001 -4.2433375e-001
 -5.5595956e-002 -5.8438915e-001 -3.9100486e-001
 -5.1619766e-002 -6.0614067e-001 -3.5217924e-001
 -8.4598240e-002 -5.8906695e-001 -2.7359250e-001
 -1.2845208e-001 -5.9023631e-001 -2.1406817e-001
 -1.5593421e-001 -6.3175183e-001 -1.8144050e-001
 -1.6353539e-001 -6.1456079e-001 -1.8506589e-001
 -1.5792210e-001 -6.6192347e-001 -1.5980592e-001
 -1.5523259e-001 -7.2156474e-001 -1.2694438e-001
 -1.5967652e-001 -7.2133087e-001 -1.3361048e-001
 -1.9066671e-001 -7.2179861e-001 -1.3103751e-001
 -2.1487425e-001 -7.1805668e-001 -1.1875853e-001
 -2.2984314e-001 -7.1735507e-001 -1.1443153e-001
 -2.4855395e-001 -6.9045762e-001 -1.5664828e-001
 -2.6410751e-001 -6.9232898e-001 -1.7898486e-001
 -2.9088802e-001 -7.3407798e-001 -1.6261237e-001
 -3.0094523e-001 -7.6039036e-001 -1.8869127e-001
 -2.9919081e-001 -7.5594643e-001 -2.2026613e-001
 -3.2374917e-001 -7.3606588e-001 -2.3944507e-001
 -3.5158210e-001 -7.5442628e-001 -2.3535195e-001
 -3.7181346e-001 -7.4273197e-001 -2.3979588e-001
 -3.8491098e-001 -7.0074870e-001 -3.0037302e-001
 -3.7134572e-001 -7.1197527e-001 -3.1604351e-001
 -3.4947687e-001 -7.1513291e-001 -2.8481946e-001
 -3.3941966e-001 -6.8262257e-001 -3.3276642e-001
 -3.4035514e-001 -6.9607090e-001 -4.0281610e-001
 -3.3170154e-001 -6.9911161e-001 -4.0293304e-001
 -3.1123632e-001 -6.6695208e-001 -4.1766805e-001
 -2.7580220e-001 -6.6613314e-001 -4.7017588e-001
 -2.3393587e-001 -6.1666602e-001 -4.9496810e-001
 -2.1206742e-001 -6.1035073e-001 -5.0256968e-001
 -1.8458568e-001 -6.4005463e-001 -5.2455506e-001
 -1.6131362e-001 -6.0169713e-001 -5.5355735e-001
 -1.4844957e-001 -6.0847977e-001 -5.6712301e-001
 -1.2178638e-001 -6.0988299e-001 -5.5893676e-001
 -8.2259143e-002 -5.8579238e-001 -5.4829487e-001
 -7.0330968e-002 -5.7327953e-001 -5.8045441e-001
 -6.0507626e-002 -5.8988550e-001 -6.0489582e-001
 -1.8641686e-002 -5.7550129e-001 -5.6501778e-001
 -2.2851353e-002 -5.2135637e-001 -5.8840678e-001
 -1.1741724e-002 -5.3375229e-001 -6.4161662e-001
  1.6207751e-002 -4.8872871e-001 -6.0618250e-001
  2.6732704e-002 -4.8346623e-001 -5.9858093e-001
  7.9708666e-002 -4.9831818e-001 -6.1179579e-001
  1.0730733e-001 -4.0429482e-001 -5.8875759e-001
  1.2169154e-001 -3.7926873e-001 -5.7858344e-001
  1.2859150e-001 -3.2173229e-001 -5.8934227e-001
  1.2812376e-001 -2.5402171e-001 -6.0583131e-001
  1.5502082e-001 -2.3156819e-001 -6.0349260e-001
  1.7595379e-001 -1.7005556e-001 -6.0781960e-001
  1.9045493e-001 -1.2491505e-001 -5.8758824e-001
  1.9676983e-001 -5.6619395e-002 -5.9051162e-001
  2.0951694e-001 -1.6507482e-002 -6.1670746e-001
  2.2050963e-001  1.7873821e-002 -5.9308458e-001
  2.3021604e-001  9.0613402e-002 -5.9624223e-001
  2.2659066e-001  1.5715463e-001 -6.0559744e-001
  2.1583183e-001  2.3118050e-001 -6.2875257e-001
  2.1396087e-001  2.8368833e-001 -6.0290793e-001
  2.1290806e-001  3.3783364e-001 -5.8957614e-001
  2.3360755e-001  3.8741809e-001 -6.5237544e-001
  2.2366728e-001  4.2694533e-001 -6.0746879e-001
  2.0343592e-001  4.7793300e-001 -5.8127334e-001
  1.8928558e-001  5.0798770e-001 -5.7718022e-001
  1.8074853e-001  5.4833348e-001 -5.4560497e-001
  1.7408283e-001  6.2925892e-001 -5.2853125e-001
  1.3642655e-001  6.9802231e-001 -4.7929761e-001
  1.3654349e-001  7.9578759e-001 -4.6257470e-001
  1.2859150e-001  8.9191578e-001 -4.1766805e-001
  1.1315488e-001  9.1600640e-001 -3.6586183e-001
  1.2098993e-001  9.4956955e-001 -2.8470253e-001
  1.0742427e-001  9.6991784e-001 -1.7079862e-001
  1.0672266e-001  1.0245305e+000 -1.2109723e-001
  9.9355349e-002  1.0861605e+000 -2.6606134e-002
  9.4677548e-002  1.1221792e+000  7.2094630e-002
  9.3274326e-002  1.2059111e+000  1.2015892e-001
  9.0467489e-002  1.2322239e+000  1.7336836e-001
  1.0333154e-001  1.2690612e+000  2.7218645e-001
  1.0836014e-001  1.2973619e+000  3.9965563e-001
  1.2215928e-001  1.2814571e+000  4.8175081e-001
  1.2484918e-001  1.3019224e+000  5.6267625e-001
  1.1713068e-001  1.2989990e+000  6.4640813e-001
  1.2601854e-001  1.3324452e+000  7.2417632e-001
  1.4192290e-001  1.3639031e+000  7.8580588e-001
  1.4554828e-001  1.3722059e+000  8.3059559e-001
  1.3163182e-001  1.3771176e+000  8.9690295e-001
  1.4133822e-001  1.3580560e+000  9.6870666e-001
  1.4730231e-001  1.3847192e+000  1.0303362e+000
  1.4613296e-001  1.3770007e+000  1.0598062e+000
  1.6192039e-001  1.3729079e+000  1.1124314e+000
  1.5724259e-001  1.3920865e+000  1.1656408e+000
  1.5852927e-001  1.3744281e+000  1.2001395e+000
  1.5291559e-001  1.4175803e+000  1.2674996e+000
  1.3514027e-001  1.4165279e+000  1.3259716e+000
  1.4472974e-001  1.3780535e+000  1.3845608e+000
  1.3093021e-001  1.4062368e+000  1.4319231e+000
  9.7952126e-002  1.3831990e+000  1.4851329e+000
  9.1753776e-002  1.3586407e+000  1.5650059e+000
  7.5615541e-002  1.3851869e+000  1.6447620e+000
  5.2226932e-002  1.3863563e+000  1.7048710e+000
  5.3513219e-002  1.3836668e+000  1.7556252e+000
  2.9656476e-002  1.3978171e+000  1.8502329e+000
 -6.1284419e-003  1.4009743e+000  1.9188793e+000
 -2.8113829e-002  1.4036642e+000  1.9644876e+000
 -5.9922950e-002  1.4256496e+000  2.0505586e+000
 -6.7290260e-002  1.4208549e+000  2.1130067e+000
 -6.3431006e-002  1.3817954e+000  2.1527678e+000
 -7.0097098e-002  1.3733757e+000  2.1922950e+000
 -7.9218828e-002  1.3628507e+000  2.2259751e+000
 -9.4421581e-002  1.3462444e+000  2.2922825e+000
 -1.0623282e-001  1.3622657e+000  2.3371891e+000
 -1.0260744e-001  1.3346670e+000  2.3237404e+000
 -8.0855921e-002  1.3085885e+000  2.3268980e+000
 -5.3490730e-002  1.2985313e+000  2.3562511e+000
 -2.4021097e-002  1.2363166e+000  2.3681793e+000
 -1.2209465e-002  1.1990116e+000  2.3522749e+000
 -9.5199551e-003  1.1490763e+000  2.3492342e+000
  1.0360598e-002  1.0688525e+000  2.3478310e+000
  2.9773411e-002  1.0162277e+000  2.3052634e+000
  5.0823317e-002  9.6687713e-001  2.2181396e+000
  6.6727681e-002  9.0045284e-001  2.1408396e+000
  8.6959040e-002  8.1227663e-001  2.0924245e+000
  1.0379928e-001  7.5719584e-001  1.9954778e+000
  8.8830396e-002  6.8246836e-001  1.8977125e+000
  9.4794484e-002  6.0493444e-001  1.8398248e+000
  1.0707346e-001  5.5055525e-001  1.7634603e+000
  1.1525971e-001  4.4986620e-001  1.6637067e+000
  1.3864872e-001  4.1302886e-001  1.5475810e+000
  1.4671764e-001  3.5748033e-001  1.4485295e+000
  1.6554577e-001  2.8345446e-001  1.3538045e+000
  1.6952196e-001  2.7901053e-001  1.2406022e+000
  1.5747646e-001  2.3889861e-001  1.1401470e+000
  1.6192039e-001  2.1936926e-001  1.0462410e+000
  1.7069131e-001  1.8370088e-001  9.7888080e-001
  1.9571741e-001  1.3891156e-001  8.8228487e-001
  2.0752865e-001  1.2686606e-001  7.6370355e-001
  2.0542382e-001  8.4181573e-002  6.8336279e-001
  1.8145014e-001  4.9682943e-002  5.7717700e-001
  1.5560550e-001  1.6470599e-002  4.8081494e-001
  1.5888007e-001 -1.1361941e-002  3.7965814e-001
  1.4320958e-001 -6.1998806e-002  2.9756335e-001
  1.3408785e-001 -1.2690294e-001  2.2178346e-001
  1.1958671e-001 -1.6561163e-001  1.0741181e-001
  1.1023111e-001 -2.2314807e-001  3.8414938e-002
  1.1011417e-001 -2.5788057e-001 -4.2627826e-002
  6.2166816e-002 -2.8547963e-001 -1.1489927e-001
  2.5797222e-002 -3.3892294e-001 -1.9570778e-001
 -2.5030583e-003 -3.8441427e-001 -2.6318449e-001
 -3.2557759e-002 -4.5118976e-001 -2.9557828e-001
 -3.6650884e-002 -5.2521523e-001 -3.8878270e-001
 -5.1853637e-002 -5.8158271e-001 -4.5777996e-001
 -7.4424092e-002 -6.2567042e-001 -5.4069369e-001
 -1.0295824e-001 -6.6239121e-001 -6.1787681e-001
 -1.4576006e-001 -6.9794226e-001 -6.7260680e-001
 -1.8329900e-001 -7.1349582e-001 -7.6569428e-001
 -2.0072392e-001 -7.5419241e-001 -8.2264604e-001
 -2.0470011e-001 -8.1020868e-001 -8.9421627e-001
 -2.1463999e-001 -8.4318716e-001 -9.9701016e-001
 -2.3346813e-001 -9.0809090e-001 -1.1060024e+000
 -2.5124385e-001 -9.3990002e-001 -1.1904363e+000
 -2.6726515e-001 -9.3884761e-001 -1.2606025e+000
 -2.7428165e-001 -9.5311449e-001 -1.3829265e+000
 -2.7580220e-001 -9.3194764e-001 -1.4746108e+000
 -2.8468967e-001 -9.5416729e-001 -1.5403335e+000
 -2.7603607e-001 -9.7860832e-001 -1.6225452e+000
 -2.6141800e-001 -9.7393052e-001 -1.6880340e+000
 -2.5989745e-001 -9.8223370e-001 -1.7523535e+000
 -2.5662326e-001 -9.6223622e-001 -1.7991311e+000
 -2.4340841e-001 -9.6200235e-001 -1.8557324e+000
 -2.0832510e-001 -9.4130325e-001 -1.9305768e+000
 -1.6996761e-001 -9.3674238e-001 -1.9672972e+000
 -1.3897703e-001 -9.3487142e-001 -1.9715073e+000
 -1.2061703e-001 -9.1662796e-001 -1.9702206e+000
 -9.3953840e-002 -9.5954671e-001 -1.9803948e+000
 -4.9865738e-002 -9.5241287e-001 -1.9670634e+000
 -2.5892060e-002 -9.8083048e-001 -1.9409849e+000
 -3.9822474e-004 -9.9264172e-001 -1.9399321e+000
  2.0183940e-002 -9.4761814e-001 -1.9458965e+000
  4.0532234e-002 -9.8819779e-001 -1.9320970e+000
  6.6961552e-002 -9.7089021e-001 -1.8882428e+000
  7.7252634e-002 -9.8726231e-001 -1.8814601e+000
  9.7133188e-002 -1.0233980e+000 -1.8692977e+000
  1.0298073e-001 -9.9065382e-001 -1.8174915e+000
  1.0836014e-001 -1.0361451e+000 -1.8019379e+000
  1.2087300e-001 -1.0383669e+000 -1.7903606e+000
  1.2274435e-001 -1.0198900e+000 -1.7739881e+000
  1.3478946e-001 -1.0439802e+000 -1.7689594e+000
  1.3315237e-001 -1.0235150e+000 -1.7622938e+000
  1.3350317e-001 -1.0057396e+000 -1.7559789e+000
  1.4426200e-001 -1.0053888e+000 -1.7631123e+000
  1.5279866e-001 -1.0113529e+000 -1.7507164e+000
  1.5794420e-001 -9.9205705e-001 -1.7239359e+000
  1.5981556e-001 -9.7510026e-001 -1.7233512e+000
  1.6718287e-001 -9.6890191e-001 -1.6856953e+000
  1.7408283e-001 -9.3416981e-001 -1.6405548e+000
  1.9033800e-001 -9.2656823e-001 -1.6082783e+000
  2.0472220e-001 -9.0528446e-001 -1.5778724e+000
  2.0343592e-001 -8.5336130e-001 -1.5358895e+000
  1.9302751e-001 -8.2178605e-001 -1.4773007e+000
  2.0074602e-001 -7.7863383e-001 -1.4534440e+000
  2.0799639e-001 -7.4086062e-001 -1.3898261e+000
  1.9337871e-001 -7.1899216e-001 -1.3338098e+000
  1.7256228e-001 -6.7771090e-001 -1.2857455e+000
  1.5700872e-001 -6.5970131e-001 -1.2203737e+000
  1.6589658e-001 -6.3023128e-001 -1.1887988e+000
  1.3537414e-001 -5.8251819e-001 -1.1133697e+000
  9.5963836e-002 -5.5035826e-001 -1.0717376e+000
  7.0586935e-002 -4.7177192e-001 -1.0381745e+000
  2.7785513e-002 -4.3119227e-001 -9.7514171e-001
