**************************************************************************************
            UNIVERSIDAD AUTONOMA METROPOLITANA - AZCAPOTZALCO
                        Departamento de Materiales
                           Area de Estructuras
     AV. SAN PABLO 180,COL.REYNOSA, AZCAPOTZALCO, C.P.02200 CIUDAD DE MEXICO.
**************************************************************************************
ARCHIVO ESTANDAR DE ACELERACION:
VERSION DEL FORMATO                    : 2.0
NOMBRE DEL ARCHIVO                     : RIDR201807191
FECHA Y HORA DE CREACION               : JUL 20 12:30:07 2018
REF. CATALOGO ACELEROGRAMAS, SMIS 1995 : REGISTRO NO.      /PAG.    


================================================================================
DATOS DE LA ESTACION:
NOMBRE DE LA ESTACION                  : UAM-RECTORIA.
CLAVE DE LA ESTACION                   : RIDR
LOCALIZACION DE LA ESTACION            : PROL. CANAL DE MIRAMONTES 3855, COL. EX
                                       : DE SAN JUAN DE DIOS, C.P.14387 CIUDAD DE MEXICO. 
                                       :
                                       : 
                                       : 
COORDENADAS DE LA ESTACION             : 19.287271 LAT. N
                                       : 99.137132 LONG. W
ALTITUD (msnm)                         : 2240
TIPO DE SUELO                          : TRANSICION 
                                       : 
                                       : 
INSTITUCION RESPONSABLE                : UNIVERSIDAD AUTONOMA METROPOLITANA
                                       : 

================================================================================
DATOS DEL ACELEROGRAFO: 
MODELO DEL ACELEROGRAFO                : BASALT KINEMETRICS
NUMERO DE SERIE DEL ACELEROGRAFO       : 985
NUMERO DE CANALES                      : 3
ORIENTACION C1-C6 (rumbo;orientacion)  : /V/N00E/N90E
ORIENTACION C7-C12 (rumbo;orientacion) : 
VEL. DE MUESTREO, C1-C6 (muestras/s)   : /200/200/200
VEL. DE MUESTREO, C7-C12 (muestras/s)  : 
ESC. COMPLETA DE SENSORES, C1-C6, (g)  : /2/2/2
ESC. COMPLETA DE SENSORES, C7-C12 (g)  : 
FREC. NAT. DE SENSORES, C1-C6, (Hz)    : /208/204/204
FREC. NAT. DE SENSORES, C7-C12 (Hz)    : 
AMORTIGUAMIENTO DE SENSORES, C1-C6     : /0.7/0.7/.7   
AMORTIGUAMIENTO DE SENSORES, C7-C12    : 
INTERVALO DE MUESTREO, C1-C6 (s)       : /0.005/0.005/0.005
INTERVALO DE MUESTREO, C7-C12 (s)      : 
UMBRAL DE DISPARO, C1-C6 (Gal)         : /2/2/2
UMBRAL DE DISPARO, C7-C12 (Gal)        : 
MEMORIA DE PREEVENTO (s)               : 60
TIEMPO DE POSEVENTO (s)                : 90


================================================================================
DATOS DEL SISMO:
FECHA DEL SISMO [GMT]                  : 2018/07/19
HORA EPICENTRO (GMT)                   : 13:31:56
MAGNITUD(ES)                           : /M=5.9
COORDENADAS DEL EPICENTRO              : 17.7213 LAT. N
                                       : 97.8123 LONG. W
PROFUNDIDAD FOCAL (Km)                 : 55.6
FUENTE DE LOS DATOS EPICENTRALES       : SSN
                                       : INSTITUTO DE GEOFISICA, UNAM

================================================================================
DATOS DE ESTE REGISTRO:
HORA DE LA PRIMERA MUESTRA (GMT)       : 13:31:52.00
EXACTITUD DEL TIEMPO (s)               : 
DURACION DEL REGISTRO (s), C1-C6       : /194.00/194.00/194.00
DURACION DEL REGISTRO (s), C7-C12      : 
NUM. TOTAL DE MUESTRAS, C1-C6          : /38800/38800/38800
NUM. TOTAL DE MUESTRAS, C7-C12         : 
ACEL. MAX.(Gal), C1-C6                 : /-3.810/4.284/-3.575
ACEL. MAX., C1-C6, EN LA MUESTRA       : /11071/11115/16010
ACEL. MAX.(Gal), C7-C12                : 
ACEL. MAX., C7-C12,EN LA MUESTRA       : 
UNIDADES DE LOS DATOS                  : Gal (cm/s/s)
FACTOR DE DECIMACION                   : 1
FORMATO DATOS (FORTRAN,16 campos/dato) : 3E16.7


================================================================================
CALIDAD DEL ACELEROGRAMA:
REGISTRO DIGITAL COMPLETO CON TIEMPO ABSOLUTO CORRECTO


================================================================================
COMENTARIOS:














================================================================================
DATOS DE ACELERACION:
---------+---------+---------+---------+---------+---------+---------+---------+
   CANAL-1   CANAL-2   CANAL-3
         V      N00E      N90E
---------+---------+---------+---------+---------+---------+---------+---------+  
[...]
  1.6132614e-002 -9.7711774e-001  1.2636253e-001
  7.7989266e-002 -3.5435250e-001  2.8493886e-003
  7.9576132e-001  4.4624536e-001  7.0688152e-002
  8.6088601e-001  1.3661561e-001  5.9459399e-002
  6.3913536e-001  4.0067720e-001 -1.8639656e-001
  9.5868955e-001  2.2705094e-001  2.0613099e-001
  1.3664774e+000  2.9832418e-001  2.7186458e-001
  1.6274429e+000  2.6958106e-001  3.2332823e-001
  1.0723661e+000 -5.7144394e-001  4.5806934e-001
  1.2957538e-001 -8.2498982e-001  7.9810950e-002
 -5.0392892e-002 -1.1297126e+000  6.0629331e-002
 -1.3162361e-001 -2.2512569e-001  2.8426248e-001
  2.3135114e-002  6.9488428e-001  4.7982473e-001
  1.4098939e+000  4.0020987e-001  8.5808312e-001
  1.4971935e+000  4.1423093e-001  7.2310770e-001
  1.4824923e-001 -2.1975100e-001  3.7970433e-001
  4.4632872e-001 -7.4273354e-001  4.3584652e-001
  1.0800688e+000 -1.0166102e+000  2.2905592e-001
  1.7602622e-001 -1.3961112e+000  3.3221712e-001
 -6.8249877e-001 -6.6071094e-001  5.8626103e-001
 -5.2960332e-002 -7.0955079e-001  5.8415586e-001
  4.4282767e-001 -8.1657749e-001  5.4275064e-001
 -5.5925228e-001 -4.8147594e-001  1.7314763e-001
 -7.9290729e-001 -9.8926909e-001  1.5607118e-001
 -4.4557019e-002 -8.5606998e-001  4.1915135e-002
 -4.2129979e-001 -1.0993338e+000  6.2266686e-002
 -1.3701594e+000 -1.1168599e+000  7.7705780e-002
 -1.9016609e+000 -6.1818042e-001 -3.1622561e-001
 -1.7473690e+000 -3.0621364e-001 -1.9139517e-002
 -1.5758040e+000  7.6195117e-001 -1.0990282e-001
 -1.4789341e+000  9.6829324e-001 -1.5785785e-001
 -9.0448321e-001  6.2384470e-001  2.2578081e-001
 -6.4958652e-001  4.3806670e-001 -1.0952350e-002
 -1.0260959e+000  2.0228051e-001  2.1993273e-001
 -1.5853744e+000  3.0860622e-001  3.5982059e-001
 -8.3235563e-001  1.8966144e-001 -2.5308838e-003
 -3.1579314e-001  4.3843248e-002 -7.8556814e-002
 -1.7702445e+000  4.7942850e-001 -2.8043497e-001
 -1.5692683e+000  9.1454603e-001  9.2209242e-002
  2.1407413e-001  1.0937810e+000  3.9467561e-001
  2.4278513e-001  9.7577090e-001 -2.1712895e-002
 -6.6989420e-001  2.1957288e-001 -2.1984813e-001
 -6.1130520e-001 -2.4966245e-001 -5.6722833e-001
 -1.5683315e-001 -4.4805952e-001 -4.2336403e-001
 -5.2937427e-001  1.7307006e-001 -2.0978931e-001
 -6.9323651e-001  1.0797600e+000 -1.7259522e-001
  3.8867373e-001  9.2225775e-001  2.2063445e-001
  9.1737399e-001  9.4188716e-001  1.1840888e-001
  4.0875353e-002  7.6101651e-001  2.6905729e-001
  6.7251917e-002  9.5380484e-001  4.5900536e-001
  1.6246421e+000  1.5515660e+000  5.5163993e-001
  1.7896714e+000  1.5284312e+000  5.9210912e-001
  3.8003701e-001  1.4293499e+000  2.1993273e-001
  3.2098120e-001  6.0491628e-001  2.9198183e-001
  8.9426507e-001  5.3901772e-001  2.2999155e-001
  4.4959677e-001  1.2246435e+000  1.9069189e-001
  3.3335277e-001  1.1641196e+000  3.9701469e-001
  1.2201219e+000  1.2517506e+000  3.2356213e-001
  1.7152097e+000  9.1080739e-001  4.3958944e-001
  1.4703502e+000  8.2714873e-001  5.0298317e-001
  1.4617135e+000  6.8016222e-001  2.9455521e-001
  1.7527905e+000 -2.7279722e-001  1.9466872e-001
  1.1465943e+000 -5.8149230e-001 -3.6450266e-002
 -8.3305148e-002 -6.5416793e-001 -2.5119413e-001
  2.0567674e-002  3.2776830e-001  7.2793323e-002
  9.1714058e-001  1.5651197e+000  3.5982059e-001
  1.4843556e+000  9.7249959e-001  5.1304199e-001
  1.1893103e+000 -5.9060601e-001  3.9748250e-001
  3.2942420e-003 -1.7681346e+000 -1.3774020e-001
 -7.4108777e-001 -6.5370021e-001 -4.6757575e-001
 -3.5990994e-001  2.0752495e+000 -3.4102180e-001
  1.2535014e+000  3.6098457e+000  2.5151264e-001
  2.4642602e+000  2.5472892e+000  4.3444308e-001
  1.3274962e+000 -6.8174233e-001 -3.2239532e-002
 -9.8104547e-001 -2.6575321e+000 -7.8805459e-001
 -1.4838360e+000 -1.1759818e+000 -1.0374196e+000
 -1.5449873e-001  1.6810265e+000 -3.5225016e-001
  9.2647751e-001  3.1258883e+000  1.9794382e-001
  1.1939788e+000  1.5943298e+000  4.3841990e-001
  3.9054096e-001 -9.0537677e-001 -8.6276557e-002
 -7.7890229e-001 -1.3075452e+000 -5.3307504e-001
 -8.5546454e-001  5.8097976e-002  9.7589515e-002
  4.7060466e-001  1.8621308e+000  6.5152642e-001
  1.3125572e+000  2.4806897e+000  9.3083394e-001
  4.7177167e-001  1.6099869e+000  7.7082883e-001
  1.3727848e-001  2.2331191e-001  5.6146484e-001
  5.9081690e-001 -8.3597324e-001  4.1432544e-001
 -7.6536053e-002 -5.9060601e-001 -3.1537809e-002
 -4.1499750e-001  1.7937940e-001  6.0863239e-002
  7.8082231e-001  4.4297405e-001  4.4403408e-001
  9.3558103e-001  3.3688162e-001  6.4240323e-001
 -4.7498692e-001  4.0805606e-002  7.5515543e-001
 -7.5089151e-001  1.6582567e-001  8.0685338e-001
  2.1407413e-001  5.6332042e-001  8.1083020e-001
  1.6132614e-002  4.7382015e-001  6.1363021e-001
 -7.5719380e-001  6.4640981e-002  3.7923651e-001
 -2.6934230e-001 -1.2084639e+000  3.7876870e-001
  2.1174010e-001 -2.0852424e+000  2.9455521e-001
 -1.1852893e+000 -1.4573361e+000  2.9750751e-002
 -2.3050136e+000 -3.5248318e-001 -4.5339156e-002
 -5.3567656e-001  6.4090340e-001  1.1794107e-001
  5.8007956e-001  8.1826869e-001  3.9023097e-001
 -9.0424942e-001  9.5614188e-001  1.6542789e-001
 -1.1351036e+000  3.0533452e-001 -1.3844193e-001
  2.8643473e-001 -5.4971154e-001 -1.6206858e-001
 -1.6733710e-001 -8.9556207e-001 -2.2242151e-001
 -1.6175864e+000 -1.6655479e+000 -6.2649904e-002
 -1.2046633e+000 -1.6704552e+000 -1.1855819e-001
 -6.4538486e-001 -1.9268051e+000 -1.0241737e-001
 -1.2620853e+000 -1.3605914e+000 -1.1294401e-001
 -1.5909764e+000 -2.2699540e-001 -3.5271837e-001
 -2.1565517e-001  2.3746509e-002 -9.3528092e-002
  9.3861528e-001  3.0580185e-001  2.6250748e-001
 -2.6840869e-001 -1.2651170e-001  2.2554691e-001
 -7.2708238e-001 -4.5296688e-001  9.8759054e-002
  4.3465776e-001 -1.3031056e+000 -1.3525337e-002
  4.6477431e-002 -1.9976114e+000 -4.0207645e-001
 -1.7791146e+000 -1.6482551e+000 -4.5868686e-001
 -1.3577882e+000 -1.3421303e+000 -1.4054710e-001
  5.5837146e-001 -8.9486108e-001 -1.0569208e-001
 -7.5602438e-002 -1.1420976e+000 -2.9049379e-001
 -1.3706262e+000 -1.5092136e+000 -3.7119827e-001
 -6.2367676e-001 -1.7499071e+000 -2.9657578e-001
  1.2654113e-001 -1.3813892e+000 -1.3212602e-001
 -7.7796828e-001  1.1605154e-001  3.0920682e-002
 -9.1265273e-001  8.6173387e-001 -1.2159939e-001
  6.3726774e-001  2.4410964e-001  4.1681227e-002
  7.1429720e-001 -6.3266881e-001 -1.3282775e-001
 -7.4785687e-001 -9.7711774e-001 -7.6700131e-001
 -8.6643529e-001 -8.5209728e-001 -9.1039780e-001
  7.9179306e-001 -7.9367639e-001 -9.7355801e-001
  1.2579365e+000 -8.0185544e-001 -6.9284664e-001
 -4.5211180e-001 -3.1696300e-001 -5.6348541e-001
 -3.2559688e-001  4.8180944e-003 -3.7470728e-001
  1.8412575e+000  1.2095890e-001 -9.2358553e-002
  1.6451832e+000 -1.2230534e-001 -4.9681658e-001
  1.3190980e-001 -6.3313614e-001 -9.0010507e-001
  4.6943764e-001 -4.4946151e-001 -1.0521569e+000
  1.4871564e+000 -7.6737185e-002 -8.1682760e-001
  1.4992946e+000  6.8179787e-001 -6.6079892e-001
  1.3508381e+000  1.1124758e+000 -8.0255805e-001
  1.7693637e+000  2.3242562e-001 -7.6536356e-001
  1.4901910e+000 -8.8598142e-001 -8.0513103e-001
  3.6649843e-001 -1.7197620e+000 -7.9647605e-001
 -3.2979853e-001 -1.8461845e+000 -4.2546920e-001
  2.1850919e-001 -4.9526334e-001  5.5716874e-002
  1.3604085e+000  8.6640755e-001  2.7022683e-001
  1.9511992e+000  1.4573916e+000  7.6302333e-002
  2.0730452e+000  1.1933301e+000 -1.9598757e-001
  2.0408332e+000 -2.1858268e-001 -3.4148962e-001
  1.5492469e+000 -1.1785525e+000 -3.2183979e-001
  2.8666813e-001 -1.7816883e+000 -2.2546231e-001
 -2.9851809e-002 -1.6202134e+000 -4.2172628e-001
  7.5164451e-001 -1.1285443e+000 -3.2488098e-001
  2.3951708e-001 -7.5909126e-001 -1.6347203e-001
 -5.0533174e-001  4.8363486e-001 -4.1143355e-001
  7.8735800e-001  9.4702817e-001 -2.6733534e-001
  1.9117508e+000  1.0129267e+000 -1.6332623e-002
  1.0240477e+000  8.8369992e-001  5.4313035e-002
  7.2993641e-001  1.5334185e-002 -7.2708726e-002
  1.6995705e+000 -4.6652022e-001 -7.1506946e-001
  1.5784247e+000 -9.5702100e-001 -9.9858811e-001
 -2.7867923e-001 -9.2290320e-001 -7.2512828e-001
 -9.3786228e-001  9.8057789e-002 -4.7646503e-001
  6.5337377e-001  2.6958106e-001 -1.8429139e-001
  9.6639266e-001 -2.5059711e-001 -3.9131591e-001
 -8.1648301e-001 -1.0509613e+000 -7.8665114e-001
 -1.6551675e+000 -1.3096486e+000 -7.7050993e-001
 -4.4160747e-001 -3.4336947e-001 -5.5225705e-001
  2.7896542e-001  6.4407317e-002 -2.7879761e-001
 -5.7139005e-001  2.8103142e-001 -1.6978793e-001
 -1.1386050e+000 -2.9382862e-001 -4.1596630e-002
 -7.8893943e-001 -7.7825334e-001  2.4028428e-001
 -1.3085362e+000 -9.5665600e-002  4.1245378e-001
 -1.9593159e+000 -2.5620545e-001  1.1256079e-001
 -1.4352841e+000 -9.3809259e-001 -2.6125295e-001
 -2.2667327e+000 -1.6660152e+000 -5.3822140e-001
 -3.8124515e+000 -1.4844436e+000 -2.6873879e-001
 -3.4898627e+000  3.4495873e-002  4.5479463e-001
 -1.6264565e+000  1.4527180e+000  1.0007779e+000
 -5.2750704e-001  1.6078835e+000  1.0396097e+000
 -8.3889132e-001  1.1311701e+000  1.8882063e-001
 -1.0709129e+000  5.9112889e-001 -1.4639558e-001
 -7.9617533e-001  3.8431949e-001 -2.1283050e-001
 -4.7078527e-001  5.4602806e-001  5.7822045e-002
 -1.4513901e+000  5.4813104e-001  2.3607354e-001
 -1.8057246e+000  8.5308748e-001 -1.3586855e-001
 -7.5509317e-001  7.7270053e-001  1.7946353e-001
 -9.2899216e-001  1.3590113e+000  9.8759054e-002
 -9.1872162e-001  2.0764179e+000  4.6766034e-001
  3.5436066e-001  2.2236380e+000  4.6438563e-001
  9.8459931e-001  2.1979329e+000  1.6885036e-002
  7.0052521e-001  1.2040794e+000  2.2437737e-001
  9.2437649e-001  3.2356194e-001 -2.4815333e-001
  1.0035066e+000 -2.2933204e-001 -2.9213114e-001
 -9.3103352e-003  4.7826017e-001 -2.2546231e-001
  1.1533658e-001  1.4721137e+000 -8.7913912e-002
  1.4182973e+000  1.8368930e+000  2.8309294e-001
  8.2890697e-001  1.8193666e+000  2.5057701e-001
 -1.4913005e-001  1.0115247e+000  1.9700819e-001
  3.1071066e-001  8.4233812e-001  1.6449225e-001
  3.8050382e-001  1.1101387e+000  2.1876319e-001
  5.8124657e-001  1.6139592e+000  2.7818048e-001
  9.6639266e-001  1.8345560e+000  4.5034999e-001
  7.9576132e-001  1.3851837e+000  3.8929534e-001
  6.0995757e-001  8.4537616e-001  5.9561813e-001
  2.6519344e-001  4.3386034e-001  6.0637867e-001
  2.7219633e-001 -1.7067748e-001  4.4684098e-001
  3.5856232e-001 -4.7820463e-001  6.1363021e-001
 -6.2087553e-001 -2.1587985e-002  2.3045936e-001
 -1.1374380e+000  2.1793723e-001  2.2437737e-001
  1.2070526e-001  1.0052150e+000  3.6379742e-001
  5.2359158e-001  1.6106879e+000  4.1713233e-001
 -2.2896035e-001  1.9448544e+000  8.6650458e-001
  2.9553825e-001  2.0170623e+000  1.2763429e+000
  1.0478568e+000  9.3674614e-001  1.0176208e+000
  2.9437124e-001 -4.4759180e-001  1.3197671e-001
 -1.3017671e+000 -2.0815033e+000 -6.8653074e-001
 -2.1285468e+000 -1.9796176e+000 -1.1560202e+000
 -2.1360165e+000 -7.0995932e-003 -2.6897270e-001
 -1.7349978e+000  2.4512456e+000  9.3831978e-001
  8.4291555e-002  4.2840211e+000  1.2761090e+000
  1.9925147e+000  3.3686848e+000  1.1427709e+000
  1.5329070e+000  1.2248772e+000  3.4017077e-001
 -9.4042497e-002 -7.1679479e-001 -3.7447337e-001
 -5.3217511e-001 -1.8725909e+000 -1.8873603e-001
 -1.9348026e-001 -1.5781502e+000  9.8992962e-002
 -1.1901911e+000 -7.0043708e-001 -1.7914503e-001
 -2.7338097e+000  7.7714055e-001 -5.4126260e-001
 -1.6845787e+000  7.9232994e-001 -1.0140272e+000
  4.6827062e-001 -7.1679479e-001 -9.1250336e-001
 -6.2694441e-001 -1.0843781e+000 -3.5809864e-001
 -2.4630404e+000 -9.3645693e-001  6.7880866e-002
 -5.0953340e-001  1.0140951e+000  7.7082883e-001
  1.4507427e+000  2.6683370e+000  8.5901875e-001
  7.2153310e-001  1.8705431e+000  6.5597106e-001
  2.5959136e-001  1.1699616e+000  1.8460990e-001
  2.2971335e-001 -5.1839811e-001 -5.8991935e-001
 -2.1565517e-001 -8.3410353e-001 -4.8418477e-001
 -1.2135335e+000  1.2609991e-001 -3.1131315e-001
 -1.2009289e+000  6.8847339e-002 -1.0250627e-002
  6.3750115e-001  5.2008930e-001  7.3199699e-001
  2.2014302e-001  2.3265928e-001  5.8860011e-001
 -1.4436874e+000  9.1524702e-001  1.9303136e-001
 -1.5263150e-001  1.5197852e+000  4.2953062e-001
  1.7670292e+000  1.2524516e+000  7.5164681e-001
  1.3788489e+000  1.8985852e+000  1.1575083e+000
  3.7700237e-001  1.1449575e+000  1.4120200e+000
  1.1970134e+000  1.0103560e+000  1.0454578e+000
  1.6584880e+000  5.6892916e-001  4.1292199e-001
  1.7135814e-001 -7.5558628e-001  3.2090222e-002
 -7.4925768e-001 -8.7897069e-001 -4.7108476e-001
 -3.9725765e-001 -1.8634772e+000 -4.9658267e-001
 -3.4030248e-001 -1.1537820e+000  2.7350194e-001
 -6.0360248e-001  1.9773816e-002  6.3538560e-001
  8.5505053e-001  2.5602733e-001  1.4531909e+000
  2.3284087e+000  1.2746517e+000  1.9973029e+000
  1.7523236e+000  3.7754281e-001  1.4330733e+000
  1.0704985e+000 -3.9150794e-001  1.1542336e+000
  8.1116713e-001 -1.2729605e+000  4.7631572e-001
  9.7409537e-001 -2.7290390e+000 -4.6360543e-003
  2.1524115e-001 -2.2960244e+000 -3.9491067e-002
 -8.6270045e-001 -2.1336149e+000 -2.6157536e-002
  1.3891230e-001 -1.3292780e+000  5.4298455e-001
  6.5640840e-001 -4.4899418e-001  6.7468486e-001
 -3.2279603e-001 -9.6075964e-001  6.8287242e-001
 -4.0285973e-001 -3.3028307e-001  6.4801741e-001
  8.2423851e-001 -1.4216842e-001  6.5035688e-001
  1.1953792e+000 -5.2026743e-001  9.7387652e-001
  4.2672126e-001  3.8245017e-001  1.0197260e+000
  2.3741645e-001 -8.7352467e-003  8.9785059e-001
  7.9436089e-001 -6.1911547e-001  2.9899985e-001
  1.7275857e-001 -1.0565696e+000 -4.9315981e-002
 -2.0968016e+000 -1.9144201e+000 -1.7142568e-001
 -1.8239312e+000 -1.2533311e+000 -2.2414619e-002
 -3.7041389e-001 -1.1472390e+000  4.3701606e-001
 -1.3344459e+000 -2.7046018e-001 -8.0194169e-002
 -1.8773850e+000  7.4455686e-002  5.4079127e-002
 -7.8800542e-001 -7.5231458e-001  2.6858948e-001
  1.4988306e-001 -2.4288578e-001 -5.9842618e-002
 -2.6980911e-001 -9.4954295e-001  6.2181777e-001
 -6.6149088e-001 -4.5483620e-001  3.3151539e-001
 -1.3255722e-001 -5.7027561e-001 -1.5481665e-001
 -6.3137947e-001 -1.4155070e+000  3.3727576e-002
 -1.9191673e+000 -6.6561829e-001 -4.9307366e-001
 -1.7655760e+000 -1.4433150e+000 -7.4579988e-002
 -1.5774379e+000 -6.7029198e-001  3.6730604e-001
 -2.0414806e+000  6.9548334e-002  1.9303136e-001
 -1.0769818e+000 -3.3605648e-003  6.8100116e-001
 -3.3119895e-001  7.8158058e-001  6.5456722e-001
 -1.5473213e-001 -2.2349003e-001  6.8240460e-001
  4.2905568e-001 -2.5363514e-001  4.7491227e-001
  6.0785654e-001 -4.8848667e-001 -3.4733771e-001
  7.0472686e-001 -1.7211644e+000 -5.3564842e-001
  5.3899739e-001 -1.5103823e+000 -8.1308468e-001
 -5.0159489e-002 -2.4479183e+000 -6.7787537e-001
 -8.0551226e-001 -1.9230665e+000 -3.4172353e-001
 -1.2891621e+000 -4.4081513e-001 -2.7505469e-001
 -9.0681725e-001 -6.3991320e-001  2.0893827e-001
  6.7251917e-002  5.8552054e-001  3.7385624e-001
  3.1024386e-001 -1.4216842e-001  3.1794795e-001
  2.0683823e-001 -1.2666507e+000 -1.1060454e-001
  4.3605818e-001 -1.0575047e+000 -5.2722695e-001
 -3.9422301e-001 -1.7877640e+000 -5.7050343e-001
 -6.9230251e-001 -8.5015819e-003 -6.3413107e-001
  4.8040839e-001  3.0229688e-001 -1.9762532e-001
  7.6938475e-001 -3.1135465e-001 -3.3353636e-001
 -2.1798960e-001  9.5721141e-002 -5.1974151e-001
 -6.5798944e-001 -1.3066106e+000 -3.6488236e-001
  4.1831833e-001 -1.0121702e+000 -8.7718053e-001
  4.7177167e-001 -1.0236206e+000 -6.6594528e-001
 -1.0914540e+000 -7.8152503e-001 -4.4675638e-001
 -3.9095497e-001  5.0116089e-001 -3.3774709e-001
  1.6188066e+000  3.8234902e-002  2.7139637e-001
  1.2619047e+000  7.6288582e-001 -1.2604403e-001
  9.7853043e-001  3.7801014e-001 -2.0745023e-001
