**************************************************************************************
            UNIVERSIDAD AUTONOMA METROPOLITANA - AZCAPOTZALCO
                        Departamento de Materiales
                           Area de Estructuras
     AV. SAN PABLO 180,COL.REYNOSA, AZCAPOTZALCO, C.P.02200 CIUDAD DE MEXICO.
**************************************************************************************
ARCHIVO ESTANDAR DE ACELERACION:
VERSION DEL FORMATO                    : 2.0
NOMBRE DEL ARCHIVO                     : RIDR201802161
FECHA Y HORA DE CREACION               : MON JUL 18 12:30:07 2018
REF. CATALOGO ACELEROGRAMAS, SMIS 1995 : REGISTRO NO.      /PAG.    


================================================================================
DATOS DE LA ESTACION:
NOMBRE DE LA ESTACION                  : UAM-RECTORIA.
CLAVE DE LA ESTACION                   : RIDR
LOCALIZACION DE LA ESTACION            : PROL. CANAL DE MIRAMONTES 3855, COL. EX
                                       : DE SAN JUAN DE DIOS, C.P.14387 CIUDAD DE MEXICO. 
                                       :
                                       : 
                                       : 
COORDENADAS DE LA ESTACION             : 19.287271 LAT. N
                                       : 99.137132 LONG. W
ALTITUD (msnm)                         : 2240
TIPO DE SUELO                          : TRANSICION 
                                       : 
                                       : 
INSTITUCION RESPONSABLE                : UNIVERSIDAD AUTONOMA METROPOLITANA
                                       : 

================================================================================
DATOS DEL ACELEROGRAFO: 
MODELO DEL ACELEROGRAFO                : BASALT KINEMETRICS
NUMERO DE SERIE DEL ACELEROGRAFO       : 0
NUMERO DE CANALES                      : 3
ORIENTACION C1-C6 (rumbo;orientacion)  : /V/N00E/N90E
ORIENTACION C7-C12 (rumbo;orientacion) : 
VEL. DE MUESTREO, C1-C6 (muestras/s)   : /200/200/200
VEL. DE MUESTREO, C7-C12 (muestras/s)  : 
ESC. COMPLETA DE SENSORES, C1-C6, (g)  : /2/2/2
ESC. COMPLETA DE SENSORES, C7-C12 (g)  : 
FREC. NAT. DE SENSORES, C1-C6, (Hz)    : /208/204/204
FREC. NAT. DE SENSORES, C7-C12 (Hz)    : 
AMORTIGUAMIENTO DE SENSORES, C1-C6     : /0.7/0.7/0.7   
AMORTIGUAMIENTO DE SENSORES, C7-C12    : 
INTERVALO DE MUESTREO, C1-C6 (s)       : /0.005/0.005/0.005
INTERVALO DE MUESTREO, C7-C12 (s)      : 
UMBRAL DE DISPARO, C1-C6 (Gal)         : /2/2/2
UMBRAL DE DISPARO, C7-C12 (Gal)        : 
MEMORIA DE PREEVENTO (s)               : 60
TIEMPO DE POSEVENTO (s)                : 90


================================================================================
DATOS DEL SISMO:
FECHA DEL SISMO [GMT]                  : 2018/02/16
HORA EPICENTRO (GMT)                   : 23:39:39
MAGNITUD(ES)                           : /M=7.2
COORDENADAS DEL EPICENTRO              : 16.218 LAT. N
                                       : 98.0135 LONG. W
PROFUNDIDAD FOCAL (Km)                 : 16.0
FUENTE DE LOS DATOS EPICENTRALES       : SSN
                                       : INSTITUTO DE GEOFISICA, UNAM

================================================================================
DATOS DE ESTE REGISTRO:
HORA DE LA PRIMERA MUESTRA (GMT)       : 23:39:46.00
EXACTITUD DEL TIEMPO (s)               : 
DURACION DEL REGISTRO (s), C1-C6       : /296.00/296.00/296.00
DURACION DEL REGISTRO (s), C7-C12      : 
NUM. TOTAL DE MUESTRAS, C1-C6          : /59200/59200/59200
NUM. TOTAL DE MUESTRAS, C7-C12         : 
ACEL. MAX.(Gal), C1-C6                 : /-6.753/27.569/-29.211
ACEL. MAX., C1-C6, EN LA MUESTRA       : /11964/12071/14741
ACEL. MAX.(Gal), C7-C12                : 
ACEL. MAX., C7-C12,EN LA MUESTRA       : 
UNIDADES DE LOS DATOS                  : Gal (cm/s/s)
FACTOR DE DECIMACION                   : 1
FORMATO DATOS (FORTRAN,16 campos/dato) : 3E16.7


================================================================================
CALIDAD DEL ACELEROGRAMA:
REGISTRO DIGITAL COMPLETO CON TIEMPO ABSOLUTO CORRECTO


================================================================================
COMENTARIOS:














================================================================================
DATOS DE ACELERACION:
---------+---------+---------+---------+---------+---------+---------+---------+
   CANAL-1            CANAL-2        CANAL-3
         V             N00E            N90E
---------+---------+---------+---------+---------+---------+---------+---------+
[...]
   4.3904326e-01  -8.2466602e+00  -1.1300060e+01
   5.6509099e-01  -7.9704473e+00  -1.2080671e+01
   4.6868748e-01  -7.5000432e+00  -1.2904091e+01
   6.6032710e-01  -6.9452799e+00  -1.3716750e+01
   8.9584934e-01  -6.5597028e+00  -1.4488238e+01
   9.0588648e-01  -6.2196943e+00  -1.4972465e+01
   7.2241716e-01  -5.8161235e+00  -1.5473535e+01
   5.1863976e-01  -5.4730769e+00  -1.6196600e+01
   6.0010427e-01  -5.1015209e+00  -1.6763871e+01
   5.4501672e-01  -4.5958312e+00  -1.7355938e+01
   3.0879388e-01  -4.3275628e+00  -1.7929290e+01
   3.4170613e-01  -3.9380135e+00  -1.8180995e+01
   1.1762145e-01  -3.7449915e+00  -1.8477613e+01
  -6.1413201e-02  -3.7877553e+00  -1.8972367e+01
  -1.7462295e-01  -3.5937986e+00  -1.9239745e+01
  -4.3068666e-01  -3.5257967e+00  -1.9735434e+01
  -4.5307178e-02  -3.1687290e+00  -2.0411480e+01
   6.5123359e-03  -2.6688813e+00  -2.0920269e+01
  -2.3573922e-03  -2.5707342e+00  -2.1428824e+01
   9.7754726e-01  -2.3807503e+00  -2.1557016e+01
   7.8497402e-01  -2.1204273e+00  -2.1762637e+01
   4.9695525e-02  -1.8766957e+00  -2.2025336e+01
   6.4328707e-01  -1.3520775e+00  -2.2335288e+01
   6.9090532e-01  -9.6579949e-01  -2.2846183e+01
   4.1570095e-01  -6.2345393e-01  -2.3057418e+01
   1.0522423e+00  -4.9294887e-02  -2.3127596e+01
   1.0928576e+00   4.2017411e-01  -2.3246196e+01
   6.1714391e-01   7.2279351e-01  -2.3141163e+01
   1.0571441e+00   8.9665383e-01  -2.2795888e+01
   1.4523270e+00   1.1057999e+00  -2.2725009e+01
   1.1115311e+00   1.3506998e+00  -2.2218793e+01
   1.1787568e+00   1.6481782e+00  -2.1736671e+01
   1.6572714e+00   1.6848667e+00  -2.1554677e+01
   1.6124544e+00   1.7858177e+00  -2.0857811e+01
   1.2147037e+00   2.0075828e+00  -2.0460137e+01
   1.5979822e+00   2.0230059e+00  -1.9888187e+01
   2.0792980e+00   2.2349563e+00  -1.9184304e+01
   1.7926560e+00   1.9898227e+00  -1.8695399e+01
   1.9705233e+00   1.9461243e+00  -1.8170234e+01
   2.5057596e+00   1.9965998e+00  -1.7577934e+01
   2.7956692e+00   1.7421188e+00  -1.6857442e+01
   3.0769425e+00   1.7776386e+00  -1.6398011e+01
   3.3586825e+00   1.5068000e+00  -1.5808985e+01
   3.7779083e+00   1.4476781e+00  -1.5298558e+01
   4.2386830e+00   1.4532868e+00  -1.4776201e+01
   4.4653355e+00   1.5493305e+00  -1.4208697e+01
   4.6014204e+00   1.7647859e+00  -1.3808683e+01
   4.9889005e+00   1.8063818e+00  -1.3355334e+01
   5.1336221e+00   1.9423852e+00  -1.3121175e+01
   5.1315211e+00   2.1569060e+00  -1.2703149e+01
   5.3756804e+00   2.4985505e+00  -1.2277871e+01
   5.3565398e+00   2.6172616e+00  -1.1945228e+01
   5.1280200e+00   2.9285274e+00  -1.1428954e+01
   4.9076698e+00   3.1189791e+00  -1.0967885e+01
   4.8556165e+00   3.3117675e+00  -1.0516876e+01
   4.6240621e+00   3.4900674e+00  -1.0096511e+01
   4.1649216e+00   3.5103978e+00  -9.6464370e+00
   3.6696004e+00   3.6150879e+00  -9.2747284e+00
   3.2160620e+00   3.3024201e+00  -8.9862977e+00
   3.1686775e+00   3.3358369e+00  -8.5266327e+00
   2.7382476e+00   3.0759813e+00  -8.1331692e+00
   2.3776109e+00   2.7352714e+00  -7.7553786e+00
   2.3923165e+00   2.4641991e+00  -7.2454199e+00
   2.0032025e+00   1.9517326e+00  -6.8870452e+00
   1.5851442e+00   1.7932954e+00  -6.3803612e+00
   1.5090484e+00   1.1364127e+00  -5.9349662e+00
   1.6376639e+00   6.4380894e-01  -5.6266518e+00
   1.1374409e+00   7.7828552e-02  -5.0392633e+00
   7.9804579e-01  -6.8023918e-01  -4.5573755e+00
   9.5513855e-01  -1.0835759e+00  -4.0230884e+00
   7.1074619e-01  -1.5729080e+00  -3.3753474e+00
   6.3371674e-01  -2.1391217e+00  -2.7657361e+00
   6.5542523e-01  -2.8509202e+00  -2.2936732e+00
   4.6565323e-01  -3.3283346e+00  -1.6697924e+00
   4.0192896e-01  -3.7933636e+00  -9.8813203e-01
   9.0145181e-01  -4.2495129e+00  -6.3654109e-01
   1.0359025e+00  -4.7348723e+00  -2.6695904e-02
   6.7479891e-01  -5.1938260e+00   4.4466526e-01
   1.1056956e+00  -5.5840763e+00   8.3134511e-01
   1.3633932e+00  -6.0023688e+00   1.1965035e+00
   1.3113402e+00  -6.1816038e+00   1.6725432e+00
   1.5400938e+00  -6.3753272e+00   2.2608673e+00
   1.5375259e+00  -6.5045536e+00   2.5193555e+00
   1.7321998e+00  -6.7887124e+00   3.1656930e+00
   1.7574094e+00  -6.9342969e+00   3.5252376e+00
   1.3995738e+00  -6.9595346e+00   3.8871209e+00
   1.6280936e+00  -7.0345469e+00   4.5605941e+00
   1.7571760e+00  -6.7630073e+00   4.9769826e+00
   1.2170377e+00  -6.6400898e+00   5.5529084e+00
   1.0559767e+00  -6.5583008e+00   6.0787744e+00
   1.2210060e+00  -6.2330140e+00   6.6708410e+00
   6.4048623e-01  -6.0808865e+00   7.2006834e+00
   2.3110713e-03  -5.8822557e+00   7.7265494e+00
  -1.5688271e-01  -5.5506599e+00   8.3015396e+00
  -6.7764685e-01  -5.4046081e+00   8.8519675e+00
  -1.0681612e+00  -5.0003363e+00   9.6222860e+00
  -1.3548032e+00  -4.8208680e+00   1.0167334e+01
  -1.9073125e+00  -4.6960812e+00   1.0717996e+01
  -2.3048298e+00  -4.5007222e+00   1.1479191e+01
  -2.7677055e+00  -4.7395460e+00   1.1814641e+01
  -3.1288087e+00  -4.3906574e+00   1.2337232e+01
  -3.3638645e+00  -4.1319705e+00   1.3115036e+01
  -3.6031220e+00  -4.2303508e+00   1.3412122e+01
  -3.8804270e+00  -4.1777723e+00   1.3942432e+01
  -4.4364378e+00  -4.1903910e+00   1.4467362e+01
  -4.6108036e+00  -3.9478282e+00   1.4731231e+01
  -4.4588462e+00  -3.8022436e+00   1.5180837e+01
  -4.8306871e+00  -3.6641372e+00   1.5584359e+01
  -4.9023474e+00  -3.5241610e+00   1.5826239e+01
  -4.5988993e+00  -3.5409860e+00   1.6186485e+01
  -5.0750798e+00  -3.4764895e+00   1.6663226e+01
  -5.2321726e+00  -3.4970535e+00   1.6956570e+01
  -4.8832072e+00  -3.3636208e+00   1.7331787e+01
  -5.1628462e+00  -3.3276336e+00   1.7677998e+01
  -4.8334883e+00  -3.4398014e+00   1.8194506e+01
  -4.3477374e+00  -3.3147809e+00   1.8623059e+01
  -4.6516524e+00  -3.5309377e+00   1.9009037e+01
  -4.1621671e+00  -3.4776582e+00   1.9704733e+01
  -3.4541988e+00  -3.1647563e+00   2.0036674e+01
  -3.3661990e+00  -3.1397523e+00   2.0581254e+01
  -2.9392705e+00  -2.8266172e+00   2.1179637e+01
  -2.1419016e+00  -2.7312745e+00   2.1566784e+01
  -1.7133393e+00  -2.6247151e+00   2.2082123e+01
  -1.5688511e+00  -2.2550288e+00   2.2563543e+01
  -8.1396513e-01  -1.9353503e+00   2.3037010e+01
  -1.1229910e-01  -1.5656640e+00   2.3494569e+01
  -1.2840512e-01  -1.2392088e+00   2.4051547e+01
   1.4376461e-01  -9.4219778e-01   2.4439864e+01
   9.4346759e-01  -5.9891717e-01   2.4918243e+01
   1.1255365e+00  -1.7665199e-01   2.5366913e+01
   9.3436407e-01   1.1662004e-01   2.5597798e+01
   1.5779079e+00   5.7931236e-01   2.6092786e+01
   1.9086666e+00   9.0436516e-01   2.6414200e+01
   1.6446664e+00   1.0915455e+00   2.6666840e+01
   1.8269691e+00   1.5182504e+00   2.7047204e+01
   2.0043696e+00   1.7178158e+00   2.7168378e+01
   1.8764546e+00   1.9781387e+00   2.7338442e+01
   1.6579716e+00   2.2291143e+00   2.7487453e+01
   1.7165606e+00   2.4249406e+00   2.7450492e+01
   1.7891546e+00   2.7567705e+00   2.7483710e+01
   1.5172183e+00   2.8743129e+00   2.7370490e+01
   1.4439237e+00   3.0883667e+00   2.7290487e+01
   1.4819716e+00   3.4870298e+00   2.7232240e+01
   1.3963058e+00   3.6957085e+00   2.6988956e+01
   1.5727726e+00   4.0964749e+00   2.6886029e+01
   1.5461627e+00   4.5318261e+00   2.6766493e+01
   1.3823004e+00   4.8335109e+00   2.6619821e+01
   1.7539079e+00   5.2520374e+00   2.6524145e+01
   1.8057274e+00   5.5939157e+00   2.6371859e+01
   1.4555950e+00   6.0358098e+00   2.6335835e+01
   1.6528363e+00   6.3615640e+00   2.6231738e+01
   2.0067036e+00   6.6924592e+00   2.5995238e+01
   1.7819187e+00   7.0614445e+00   2.5897224e+01
   1.6897168e+00   7.3685040e+00   2.5698854e+01
   1.9952660e+00   7.5921388e+00   2.5281998e+01
   1.9742581e+00   7.7395926e+00   2.4896254e+01
   1.8412079e+00   8.3139853e+00   2.4616010e+01
   1.7513405e+00   8.5815523e+00   2.4241729e+01
   1.9443801e+00   8.8897804e+00   2.3729197e+01
   1.9124015e+00   9.2928835e+00   2.3209179e+01
   1.3356162e+00   9.4321583e+00   2.2600737e+01
   1.3134413e+00   9.9177518e+00   2.2011478e+01
   1.4350539e+00   1.0115915e+01   2.1374731e+01
   1.1495790e+00   1.0297486e+01   2.0758102e+01
   8.1135097e-01   1.0349364e+01   2.0071295e+01
   8.0294766e-01   1.0318285e+01   1.9325539e+01
   8.0598230e-01   1.0512942e+01   1.8771836e+01
   6.1200864e-01   1.0214996e+01   1.7994734e+01
   7.8147296e-01   1.0176672e+01   1.7306289e+01
   6.1247545e-01   1.0209622e+01   1.6605681e+01
   4.6892088e-01   9.9182191e+00   1.5758401e+01
   7.1634827e-01   9.9203221e+00   1.4992292e+01
   6.0523955e-01   9.8004430e+00   1.4039512e+01
   8.4099558e-01   9.6560268e+00   1.3275041e+01
   1.0074253e+00   9.5155833e+00   1.2415597e+01
   8.0668251e-01   9.3005949e+00   1.1423751e+01
   1.1075632e+00   9.2454457e+00   1.0623256e+01
   1.2483166e+00   9.0505543e+00   9.5642726e+00
   1.0835207e+00   8.8619720e+00   8.4175669e+00
   1.2968680e+00   8.7374188e+00   7.4605755e+00
   1.4161467e+00   8.6892804e+00   6.2259138e+00
   1.2957010e+00   8.3485705e+00   4.9451688e+00
   1.4441575e+00   8.0188440e+00   3.8836122e+00
   1.4343537e+00   7.9442990e+00   2.5004073e+00
   1.2660564e+00   7.4222512e+00   1.2636405e+00
   1.3617593e+00   7.2397449e+00   1.1599925e-01
   1.2212394e+00   6.8945949e+00  -1.3439333e+00
   1.0844543e+00   6.3856335e+00  -2.6632763e+00
   1.1017274e+00   6.1175992e+00  -3.9819175e+00
   8.4776468e-01   5.5927469e+00  -5.4282822e+00
   6.1387587e-01   5.5450758e+00  -6.6854010e+00
   5.0883603e-01   5.1344946e+00  -7.9233377e+00
   5.3614660e-01   4.6262342e+00  -9.3566024e+00
   2.7564783e-01   4.4240984e+00  -1.0543076e+01
  -2.4231508e-01   3.8803182e+00  -1.1769550e+01
  -1.1440012e-01   3.4363206e+00  -1.3084916e+01
   1.9817516e-02   2.9504935e+00  -1.4222498e+01
  -4.7386946e-01   2.5181799e+00  -1.5392831e+01
  -5.8054313e-01   2.0524500e+00  -1.6454387e+01
  -3.3708438e-01   1.6886053e+00  -1.7526470e+01
  -5.7517445e-01   1.3831819e+00  -1.8405798e+01
  -7.7101534e-01   1.0646717e+00  -1.9332847e+01
  -8.1886699e-01   8.3122259e-01  -2.0341536e+01
  -9.1667054e-01   5.0149572e-01  -2.0987640e+01
  -8.6718506e-01   3.5497654e-01  -2.1875155e+01
  -1.0422515e+00  -2.7095165e-02  -2.2845481e+01
  -1.1328191e+00  -3.7317936e-01  -2.3628665e+01
  -9.1713735e-01  -7.1061795e-01  -2.4426821e+01
  -8.9076078e-01  -1.1345188e+00  -2.5218427e+01
  -1.0350156e+00  -1.3915700e+00  -2.5968160e+01
  -7.9295724e-01  -1.7710710e+00  -2.6490516e+01
  -5.1681925e-01  -2.0110636e+00  -2.7148784e+01
  -6.6317466e-01  -2.4426761e+00  -2.7745062e+01
  -4.7386946e-01  -2.6466812e+00  -2.8083553e+01
  -3.1724351e-01  -2.8009121e+00  -2.8572926e+01
  -4.0641073e-01  -3.0081888e+00  -2.8834689e+01
  -3.4362007e-01  -2.8177371e+00  -2.8944401e+01
  -2.5958852e-01  -2.9247642e+00  -2.9143940e+01
  -2.7289330e-01  -2.7910974e+00  -2.9150723e+01
  -7.2666513e-01  -2.7261335e+00  -2.9177391e+01
  -7.6027799e-01  -2.7707670e+00  -2.9211311e+01
  -6.1158855e-01  -2.6483172e+00  -2.9065341e+01
  -1.1638641e+00  -2.9278018e+00  -2.9031889e+01
  -1.4421031e+00  -3.1121779e+00  -2.8891533e+01
  -1.5436415e+00  -3.3750711e+00  -2.8673514e+01
  -1.9731374e+00  -3.8688432e+00  -2.8491052e+01
  -2.2401723e+00  -4.3366765e+00  -2.8095249e+01
  -2.3417107e+00  -4.6792558e+00  -2.7797695e+01
  -2.6031431e+00  -5.0206667e+00  -2.7613361e+01
  -2.5363846e+00  -5.2487415e+00  -2.7371248e+01
  -2.2161298e+00  -5.4618603e+00  -2.6870646e+01
  -2.1493713e+00  -5.8408939e+00  -2.6321388e+01
  -1.9754719e+00  -5.9320302e+00  -2.5774469e+01
  -1.9645011e+00  -6.0988802e+00  -2.5235503e+01
  -1.7889679e+00  -5.9965268e+00  -2.4781219e+01
  -1.3253923e+00  -5.7677514e+00  -2.4228919e+01
  -1.1099440e+00  -5.6216995e+00  -2.3867503e+01
  -6.0598608e-01  -5.1160093e+00  -2.3149818e+01
  -1.5429168e-02  -4.8049772e+00  -2.2562898e+01
   3.1929782e-01  -4.4563223e+00  -2.2044050e+01
   3.0365861e-01  -3.9527355e+00  -2.1294083e+01
   5.5575407e-01  -3.5021946e+00  -2.0971499e+01
   1.2067672e+00  -2.9775764e+00  -2.0201415e+01
   9.7778066e-01  -2.3809839e+00  -1.9666425e+01
   9.1382298e-01  -2.0297583e+00  -1.9212609e+01
   1.3332817e+00  -1.4738263e+00  -1.8424044e+01
   8.8207775e-01  -1.0319317e+00  -1.7937010e+01
   7.1448065e-01  -8.5503376e-01  -1.7192891e+01
   1.0352023e+00  -1.6263132e-01  -1.6462106e+01
   5.2540925e-01  -1.4487123e-01  -1.5814365e+01
   2.9245406e-01   9.0681291e-02  -1.5080071e+01
   4.8362648e-01   4.8537168e-01  -1.4196533e+01
   2.0958952e-01   3.0146338e-01  -1.3437677e+01
   3.6061339e-01   4.8326869e-01  -1.2531681e+01
   4.2410426e-01   4.5616123e-01  -1.1544981e+01
   2.8451795e-01   6.4077091e-01  -1.0680390e+01
   5.9683623e-01   6.9919180e-01  -9.5502934e+00
   6.4608831e-01   8.3402657e-01  -8.8152977e+00
   6.1387587e-01   1.1039306e+00  -7.8349135e+00
   8.4402983e-01   1.0868719e+00  -6.9272805e+00
   9.8151512e-01   1.2200710e+00  -6.2580180e+00
   9.2736157e-01   1.2252120e+00  -5.3681632e+00
   1.0165284e+00   1.5582102e+00  -4.6308284e+00
   1.0877224e+00   1.5028273e+00  -3.7765303e+00
   1.3498550e+00   1.5142781e+00  -3.0342831e+00
   1.5970486e+00   1.6876706e+00  -2.1236089e+00
   1.2408469e+00   1.4724485e+00  -1.4529430e+00
   1.5734728e+00   1.6862687e+00  -6.1057536e-01
   2.0379824e+00   1.6353258e+00   3.4010022e-01
   1.7765500e+00   1.6509825e+00   8.9263367e-01
   1.8836905e+00   1.6159301e+00   1.7824885e+00
   2.4740140e+00   1.5663892e+00   2.5666084e+00
   2.5561787e+00   1.7769376e+00   3.3500269e+00
   2.1750009e+00   1.7453905e+00   4.0943797e+00
   2.6299397e+00   1.8603622e+00   4.8520660e+00
   2.9084122e+00   1.9645850e+00   5.4747773e+00
   2.4555739e+00   2.2571560e+00   6.0623993e+00
   2.5636480e+00   2.4270436e+00   6.7314279e+00
   3.0465977e+00   2.7214844e+00   7.2605686e+00
   2.7970700e+00   3.1930563e+00   7.9457380e+00
   2.3458656e+00   3.3372389e+00   8.3602552e+00
   2.8442211e+00   3.6798181e+00   8.8788693e+00
   2.7478180e+00   3.7667481e+00   9.1656626e+00
   2.1810698e+00   4.0408584e+00   9.4164311e+00
   2.3953511e+00   4.4921004e+00   9.8445157e+00
   2.4681785e+00   4.6874590e+00   9.9776199e+00
   2.1964756e+00   5.0202239e+00   1.0405237e+01
   1.7709479e+00   4.8905298e+00   1.0509567e+01
   1.7513405e+00   4.9391356e+00   1.0555417e+01
   1.7053561e+00   5.1786608e+00   1.0729224e+01
   1.2868309e+00   5.1552924e+00   1.0721504e+01
   1.3101732e+00   5.3962196e+00   1.0955899e+01
   8.9164808e-01   5.3434074e+00   1.1035667e+01
   4.7312254e-01   5.4282344e+00   1.1121986e+01
   6.1527668e-01   5.4581458e+00   1.1254622e+01
   3.4217294e-01   5.2232943e+00   1.1230996e+01
  -3.3402420e-02   5.2020292e+00   1.1345385e+01
  -1.5524889e-01   4.9987248e+00   1.1510537e+01
  -1.6061756e-01   5.1910458e+00   1.1679666e+01
  -4.7970494e-01   5.2548414e+00   1.1880842e+01
  -6.9025143e-01   5.1122949e+00   1.2098160e+01
  -5.8497819e-01   4.8501026e+00   1.2169741e+01
  -6.9725432e-01   4.5252831e+00   1.2280856e+01
  -1.0767979e+00   4.7211095e+00   1.2589872e+01
  -1.3288934e+00   4.4561129e+00   1.2694203e+01
  -7.3226760e-01   4.3617052e+00   1.2948247e+01
  -8.0976347e-01   4.0810519e+00   1.3118311e+01
  -1.2831428e+00   3.5480210e+00   1.3139598e+01
  -9.6825704e-01   3.6274733e+00   1.3344517e+01
  -9.7525954e-01   3.4106155e+00   1.3422649e+01
  -6.6387487e-01   3.4222995e+00   1.3735408e+01
  -4.2251676e-01   3.1825407e+00   1.3718097e+01
  -3.9240534e-01   2.7518631e+00   1.3719735e+01
  -6.5614857e-02   2.6534824e+00   1.3974246e+01
   9.0544287e-02   2.4831275e+00   1.3857049e+01
