**************************************************************************************
            UNIVERSIDAD AUTONOMA METROPOLITANA - AZCAPOTZALCO
                        Departamento de Materiales
                           Area de Estructuras
     AV. SAN PABLO 180,COL.REYNOSA, AZCAPOTZALCO, C.P.02200 CIUDAD DE MEXICO.
**************************************************************************************
ARCHIVO ESTANDAR DE ACELERACION:
VERSION DEL FORMATO                    : 2.0
NOMBRE DEL ARCHIVO                     : RIDR201805211
FECHA Y HORA DE CREACION               : 12:30:07 22 05 2018
REF. CATALOGO ACELEROGRAMAS, SMIS 1995 : REGISTRO NO.      /PAG.    


================================================================================
DATOS DE LA ESTACION:
NOMBRE DE LA ESTACION                  : UAM-RECTORIA.
CLAVE DE LA ESTACION                   : RIDR
LOCALIZACION DE LA ESTACION            : PROL. CANAL DE MIRAMONTES 3855, COL. EX
                                       : DE SAN JUAN DE DIOS, C.P.14387 CIUDAD DE MEXICO. 
                                       :
                                       : 
                                       : 
COORDENADAS DE LA ESTACION             : 19.287271 LAT. N
                                       : 99.137132 LONG. W
ALTITUD (msnm)                         : 2240
TIPO DE SUELO                          : TRANSICION 
                                       : 
                                       : 
INSTITUCION RESPONSABLE                : UNIVERSIDAD AUTONOMA METROPOLITANA
                                       : 

================================================================================
DATOS DEL ACELEROGRAFO: 
MODELO DEL ACELEROGRAFO                : BASALT KINEMETRICS
NUMERO DE SERIE DEL ACELEROGRAFO       : 0
NUMERO DE CANALES                      : 3
ORIENTACION C1-C6 (rumbo;orientacion)  : /V/N00E/N90E
ORIENTACION C7-C12 (rumbo;orientacion) : 
VEL. DE MUESTREO, C1-C6 (muestras/s)   : /200/200/200
VEL. DE MUESTREO, C7-C12 (muestras/s)  : 
ESC. COMPLETA DE SENSORES, C1-C6, (g)  : /2/2/2
ESC. COMPLETA DE SENSORES, C7-C12 (g)  : 
FREC. NAT. DE SENSORES, C1-C6, (Hz)    : /208/204/204
FREC. NAT. DE SENSORES, C7-C12 (Hz)    : 
AMORTIGUAMIENTO DE SENSORES, C1-C6     : /0.7/0.7/0.7   
AMORTIGUAMIENTO DE SENSORES, C7-C12    : 
INTERVALO DE MUESTREO, C1-C6 (s)       : /0.005/0.005/0.005
INTERVALO DE MUESTREO, C7-C12 (s)      : 
UMBRAL DE DISPARO, C1-C6 (Gal)         : /2/2/2
UMBRAL DE DISPARO, C7-C12 (Gal)        : 
MEMORIA DE PREEVENTO (s)               : 60
TIEMPO DE POSEVENTO (s)                : 90


================================================================================
DATOS DEL SISMO:
FECHA DEL SISMO [GMT]                  : 2018/05/21
HORA EPICENTRO (GMT)                   : 02:15:20
MAGNITUD(ES)                           : /M=5.0
COORDENADAS DEL EPICENTRO              : 17.0585 LAT. N
                                       : 98.6643 LONG. W
PROFUNDIDAD FOCAL (Km)                 : 36.2
FUENTE DE LOS DATOS EPICENTRALES       : SSN
                                       : INSTITUTO DE GEOFISICA, UNAM

================================================================================
DATOS DE ESTE REGISTRO:
HORA DE LA PRIMERA MUESTRA (GMT)       : 02:15:35.00
EXACTITUD DEL TIEMPO (s)               : 
DURACION DEL REGISTRO (s), C1-C6       : /151.00/151.00/151.00
DURACION DEL REGISTRO (s), C7-C12      : 
NUM. TOTAL DE MUESTRAS, C1-C6          : /30200/30200/30200
NUM. TOTAL DE MUESTRAS, C7-C12         : 
ACEL. MAX.(Gal), C1-C6                 : /2.090/3.067/-2.441
ACEL. MAX., C1-C6, EN LA MUESTRA       : /8095/12140/11511
ACEL. MAX.(Gal), C7-C12                : 
ACEL. MAX., C7-C12,EN LA MUESTRA       : 
UNIDADES DE LOS DATOS                  : Gal (cm/s/s)
FACTOR DE DECIMACION                   : 1
FORMATO DATOS (FORTRAN,16 campos/dato) : 3E16.7


================================================================================
CALIDAD DEL ACELEROGRAMA:
REGISTRO DIGITAL COMPLETO CON TIEMPO ABSOLUTO CORRECTO


================================================================================
COMENTARIOS:














================================================================================
DATOS DE ACELERACION:
---------+---------+---------+---------+---------+---------+---------+---------+
   CANAL-1   CANAL-2   CANAL-3
         V      N00E      N90E
---------+---------+---------+---------+---------+---------+---------+---------+ 
[...]
 -6.6276604e-001 -6.1336588e-002  7.4718579e-001
 -6.4105794e-001 -1.2980546e-001  7.5958369e-001
 -6.8890920e-001 -1.7700967e-001  7.3782870e-001
 -5.9297288e-001  4.9429140e-002  8.2742206e-001
 -5.0053801e-001  1.3846248e-001  8.3514181e-001
 -4.2304175e-001  2.7960698e-001  8.4332937e-001
 -4.5688802e-001 -1.3898719e-002  8.6812556e-001
 -4.3564672e-001  1.0247536e-001  8.2391345e-001
 -5.2341313e-001  3.7565065e-001  9.4508712e-001
 -4.9096768e-001  4.0018741e-001  8.9315566e-001
 -2.4824287e-002  6.9439449e-001  9.8532241e-001
 -9.5317655e-002  4.8221041e-001  9.7619922e-001
 -1.1912678e-001  6.9532915e-001  9.5257256e-001
  1.3188732e-003  8.1941495e-001  1.1432224e+000
 -7.8175910e-004  8.0329051e-001  1.0831033e+000
  1.0892615e-001  8.1988228e-001  1.1722293e+000
 -3.8129467e-002  4.7075966e-001  1.0445058e+000
 -1.6347699e-001  5.5605397e-001  9.2894630e-001
 -2.0549277e-001  4.2051781e-001  1.0204113e+000
 -1.5157223e-001  5.1399117e-001  9.3877122e-001
 -2.2393322e-001  5.7708537e-001  8.9034837e-001
 -1.4620355e-001  5.2006685e-001  8.0449753e-001
 -5.2168190e-003  6.4275027e-001  7.7174768e-001
 -2.3350355e-001  7.9184015e-001  6.8192041e-001
 -2.7948758e-001  1.2538315e+000  6.9478612e-001
 -2.4357480e-002  1.2956606e+000  4.7910623e-001
  4.1821019e-001  1.2951933e+000  2.0705024e-001
  3.3091059e-001  1.1486741e+000  3.8155838e-002
  2.1933467e-001  9.4910870e-001 -3.1039390e-001
  5.4145669e-001  8.6802075e-001 -1.5085660e-001
  1.3273528e-001  8.6521677e-001 -1.4126559e-001
 -2.4330728e-001  1.2260230e+000 -9.7989113e-002
 -6.0304375e-002  1.2645808e+000  1.3991359e-001
 -1.6627783e-001  1.1963452e+000 -1.2886730e-001
 -3.2103655e-001  9.4747305e-001 -2.3039154e-001
 -4.5035232e-001  6.5396735e-001 -4.3811778e-001
 -6.0441084e-001  7.3271826e-001 -7.5555542e-001
 -4.7602868e-001  1.0853459e+000 -6.7648830e-001
 -3.1263324e-001  1.9277732e+000 -7.4783568e-001
  1.9179109e-001  2.3820528e+000 -8.7860036e-001
  9.7165319e-001  2.1509403e+000 -9.0433218e-001
  1.0661891e+000  1.9051058e+000 -1.1127605e+000
  6.1615171e-001  1.4924216e+000 -1.0231668e+000
  4.3968489e-001  1.3889003e+000 -8.2082081e-001
  4.9687347e-001  1.3713739e+000 -7.4853740e-001
  2.5434795e-001  1.2267240e+000 -7.4923952e-001
 -2.0759379e-001  1.4232518e+000 -1.0467934e+000
 -3.7939215e-001  1.2164420e+000 -1.1674993e+000
 -1.7821788e-002  1.0418811e+000 -1.2402501e+000
  1.1356011e-002  8.9839952e-001 -1.3967466e+000
 -3.7168905e-001  8.5657039e-001 -1.6414334e+000
 -1.0745582e-001  1.3106163e+000 -1.8358257e+000
  3.4071433e-001  1.4751293e+000 -1.8683417e+000
  3.6195562e-001  1.5059754e+000 -1.9759475e+000
  3.8343032e-001  1.1718089e+000 -1.8718503e+000
  3.4888384e-001  6.8995447e-001 -1.8751254e+000
  1.0635871e-001  6.3971262e-001 -1.9511513e+000
  1.6121287e-001  8.3834297e-001 -1.8131351e+000
  2.3730831e-001  8.9582921e-001 -1.7682213e+000
  2.1676723e-001  5.6773838e-001 -1.8496275e+000
  1.8152055e-001  1.7842229e-001 -1.8922022e+000
 -2.6991725e-001  1.3729415e-001 -2.0945482e+000
 -4.6272350e-001  2.3637586e-001 -2.2634426e+000
 -1.3756723e-001  4.4505458e-001 -2.1303389e+000
  6.9244801e-002  7.9628018e-001 -2.1808669e+000
  1.3296868e-001  7.0280682e-001 -2.1750188e+000
  2.9239587e-001  6.6775436e-001 -2.0685825e+000
  2.9426310e-001  3.8429703e-001 -2.0393416e+000
  2.1676723e-001  1.6790659e-001 -1.8781666e+000
 -1.1002326e-001  3.2353948e-001 -1.7410860e+000
 -4.6342371e-001  3.3732688e-001 -1.6271639e+000
 -1.7841599e-001  6.3573993e-001 -1.3630611e+000
 -3.1333384e-001  4.9015541e-001 -1.2552214e+000
 -6.5039487e-001  4.2635983e-001 -1.3265688e+000
 -4.4918531e-001  3.3125081e-001 -1.1703062e+000
 -3.3830998e-001  2.7937331e-001 -1.2093719e+000
 -4.7672889e-001  6.8037343e-001 -1.1228194e+000
 -4.7066000e-001  6.9953551e-001 -8.6222563e-001
 -3.1593775e-002  6.5607033e-001 -8.8748964e-001
  6.5976759e-002  4.6071129e-001 -8.5240072e-001
 -2.3933903e-001  5.4203291e-001 -9.1251974e-001
  1.7658300e-002  4.8641638e-001 -8.9941972e-001
  6.1965316e-001  1.4664153e-001 -7.5929834e-001
  2.9286267e-001 -4.6147202e-002 -6.6876895e-001
 -4.9867039e-001 -2.5459226e-001 -5.5367727e-001
 -4.5362037e-001 -1.4896754e-001 -2.3390016e-001
 -3.1216643e-001  2.5827430e-002  1.0365513e-001
 -4.7579527e-001  3.6887398e-001  2.6997655e-001
 -5.1967867e-001  3.4527188e-001  3.4366301e-001
 -1.2356184e-001 -7.8862623e-002  1.6541151e-001
  2.3684150e-001 -3.0319845e-001  1.2190112e-001
 -2.0362554e-001 -2.2024079e-001 -1.2021232e-001
 -1.3383238e-001 -3.7968151e-002 -2.3202889e-001
  6.9061333e-001 -1.1391508e-001 -4.7227190e-002
  6.0984943e-001 -7.3955270e-002 -1.7050643e-001
 -4.9333623e-002 -7.2553282e-002  1.7804287e-002
  4.1234021e-002 -1.5714660e-001  1.8599696e-001
  5.3818904e-001 -1.5597788e-001  3.2611874e-001
  2.3987575e-001 -1.2653377e-001  4.6553879e-001
 -2.4587472e-001 -1.7817799e-001  3.4576857e-001
  2.1536681e-001 -4.0414947e-001  3.8085749e-001
  3.7526041e-001 -4.8570475e-001  2.9313499e-001
 -1.8821973e-001 -2.8917739e-001  2.0728415e-001
  1.5324264e-002 -2.6347230e-001  1.9254678e-001
  8.4607227e-001 -4.0508413e-001  1.2704748e-001
  7.7557890e-001 -4.4177225e-001  1.6634714e-001
  5.3838598e-002 -5.8081376e-001  1.8880425e-001
  3.3978032e-001 -6.8199845e-001  2.9009419e-001
  8.0732414e-001 -9.3811504e-001  4.4308168e-001
  2.4617843e-001 -9.5751079e-001  4.0331421e-001
 -2.7481912e-001 -9.2222466e-001  3.6916092e-001
  9.9555894e-003 -1.1654885e+000  5.2097927e-001
  1.2923383e-001 -1.0811289e+000  6.4379029e-001
 -5.5072370e-001 -1.1105730e+000  6.7607193e-001
 -5.9927557e-001 -1.0005082e+000  7.2402696e-001
  1.3923842e-002 -9.7059680e-001  7.2332523e-001
  6.0841489e-002 -7.8528613e-001  7.2168749e-001
 -1.5927533e-001 -5.3618026e-001  7.2683385e-001
  2.8002430e-001 -8.5983107e-001  5.6706264e-001
  8.1969570e-001 -1.0234093e+000  4.4916368e-001
  3.3721288e-001 -1.2500818e+000  2.8073709e-001
  1.4277242e-001 -1.2154967e+000  2.2810351e-001
  5.3865585e-001 -1.2965846e+000  3.1395475e-001
  5.4915979e-001 -1.5188171e+000  2.3395199e-001
  1.3997157e-001 -1.6697763e+000  3.5255229e-001
 -3.0259610e-001 -2.0576900e+000  2.6038554e-001
 -4.1580585e-001 -2.1969652e+000  1.6728277e-001
 -7.8928058e-001 -2.0146926e+000  1.8903816e-001
 -9.7345050e-001 -1.4419355e+000 -4.8396730e-002
 -3.8079257e-001 -1.2631678e+000 -1.3752268e-001
  2.8842761e-001 -1.2157304e+000 -2.8653373e-001
  1.3226847e-001 -1.2975193e+000 -4.8303161e-001
 -9.6718468e-002 -1.3531358e+000 -4.7928870e-001
  3.2320749e-001 -1.2746186e+000 -3.4103857e-001
  5.5382826e-001 -1.3811780e+000 -3.6326139e-001
  4.4201932e-001 -1.1755369e+000 -3.8548420e-001
  2.4617843e-001 -1.3353761e+000 -3.9484130e-001
  4.8730314e-001 -1.5463919e+000 -2.9939945e-001
  3.5775396e-001 -2.0576900e+000  1.2657922e-002
 -2.1272906e-001 -2.3750315e+000 -9.7991911e-003
 -3.4577929e-001 -2.2098179e+000  6.1548190e-002
 -5.4815587e-001 -2.1806075e+000  5.7103941e-002
 -6.4339198e-001 -1.8945795e+000 -3.9040024e-002
 -4.1370522e-001 -1.8606953e+000  5.1720871e-003
  3.1861020e-003 -1.7186162e+000 -1.2559259e-001
  1.7591847e-001 -1.8193335e+000 -8.4889490e-002
  1.9785997e-001 -2.0347893e+000  6.0378651e-002
  2.9566391e-001 -1.7340392e+000  2.6693535e-001
  2.7792367e-001 -1.5010574e+000  5.6869999e-001
  4.2264525e-001 -1.4664723e+000  8.7397365e-001
  5.7366913e-001 -1.7709610e+000  9.5561376e-001
  4.2054423e-001 -2.1266266e+000  8.4987918e-001
  3.4698328e-002 -2.2808575e+000  7.9794772e-001
  2.4661191e-002 -2.3934926e+000  8.4145771e-001
  3.8459734e-001 -2.2673038e+000  1.0152650e+000
  2.6158424e-001 -2.1619127e+000  1.0321075e+000
  1.0472489e-001 -2.1700918e+000  1.0201774e+000
  2.8702719e-001 -2.0689071e+000  1.0190079e+000
  1.8922326e-001 -2.0754501e+000  9.5561376e-001
 -4.5598773e-002 -1.7803084e+000  1.0456753e+000
 -2.1856454e-001 -1.6354248e+000  1.0552663e+000
  2.3026974e-002 -1.5777053e+000  1.0332770e+000
 -2.5291094e-002 -1.3557065e+000  1.1226369e+000
 -7.5403390e-001 -1.3173824e+000  9.4672447e-001
 -5.4418801e-001 -1.1820799e+000  9.8508850e-001
 -1.5484027e-001 -1.2306861e+000  1.1011158e+000
 -6.1117993e-001 -9.9770426e-001  9.6146184e-001
 -8.9221979e-001 -8.5772809e-001  1.1333974e+000
 -5.7943469e-001 -7.3995163e-001  9.6614039e-001
 -3.9316414e-001 -5.0626882e-001  8.0894217e-001
 -6.4432559e-001 -4.2962089e-001  7.5841415e-001
 -6.3078740e-001 -1.4522852e-001  4.2109277e-001
 -2.0619298e-001 -2.0341575e-001  5.1325952e-001
 -9.8352293e-002 -1.3728352e-001  5.5092182e-001
 -5.2854840e-001 -1.0036135e-001  5.0132944e-001
 -5.0660690e-001 -9.9660356e-002  6.7373285e-001
 -3.3947700e-001 -1.7473661e-003  7.7923352e-001
 -6.7723824e-001 -1.5901591e-001  7.7666014e-001
 -9.4824096e-001 -8.2367986e-002  7.7385325e-001
 -8.5253804e-001  5.0831521e-002  7.4578195e-001
 -5.9530731e-001  1.3262046e-001  7.3198061e-001
 -6.9451128e-001  4.7099333e-001  7.1303250e-001
 -7.8881377e-001  6.9509549e-001  5.6659482e-001
 -3.5511622e-001  6.7733540e-001  5.6542489e-001
 -1.3386728e-002  8.7105879e-001  5.3571664e-001
 -2.3887222e-001  9.8182451e-001  4.0214467e-001
  3.1430286e-002  1.0881502e+000  3.6658793e-001
  7.9075131e-001  7.8810113e-001  3.5348792e-001
  7.4733472e-001  3.4947823e-001  2.6225680e-001
  2.0462907e-001  1.4383716e-001  2.0120215e-001
  3.1897094e-002 -1.7256965e-001  3.5676302e-001
 -7.8044614e-002  6.0646225e-002  6.0963700e-001
 -6.2238409e-001  4.6959134e-001  8.0332799e-001
 -6.4619321e-001  1.0126706e+000  9.2613902e-001
 -1.2262822e-001  9.5752142e-001  8.3841691e-001
  2.1606702e-001  4.4949460e-001  6.1221038e-001
  3.5165136e-002  3.0367641e-001  5.7595192e-001
 -3.8569444e-001  2.0225806e-001  4.1243740e-001
 -6.2638802e-002  5.2287122e-001  4.8939896e-001
 -1.3153324e-002  7.9628018e-001  6.9595566e-001
 -4.3564672e-001  1.0227190e+000  5.2355225e-001
 -3.0282990e-001  8.8321014e-001  6.2975465e-001
 -2.7038406e-001  6.6775436e-001  6.4870275e-001
 -6.2681915e-001  9.6990643e-001  6.5969720e-001
 -6.1374737e-001  1.4019863e+000  8.9736600e-001
 -1.4246910e-001  1.9230995e+000  8.9105009e-001
  2.5995003e-001  2.0485873e+000  8.6087363e-001
  3.2320749e-001  2.0079265e+000  8.8683936e-001
  1.5724461e-001  1.8765967e+000  6.8519512e-001
  4.2427908e-001  1.5688359e+000  6.0916919e-001
  6.4112786e-001  1.4524618e+000  7.4905706e-001
  2.2657096e-001  1.5604236e+000  4.9735261e-001
  1.0635871e-001  1.7095131e+000  5.4203254e-001
  2.3263985e-001  1.7436309e+000  6.9034148e-001
  1.4767428e-001  1.6293602e+000  4.9314188e-001
 -2.3657269e-002  1.5083120e+000  4.3980697e-001
 -2.6268135e-001  1.4522282e+000  2.0354162e-001
 -1.7094629e-001  1.5312131e+000  1.8646478e-001
 -1.0302076e-001  1.9777814e+000  3.2167410e-001
 -4.0903676e-001  2.4956229e+000  3.1021183e-001
 -5.0267237e-002  2.9155511e+000  4.4752632e-001
  6.2992370e-001  3.0695483e+000  4.0565368e-001
  6.3272494e-001  3.0307568e+000  2.2670007e-001
  5.2558407e-001  2.7830530e+000  7.7689400e-002
  7.8001396e-001  2.2930195e+000 -9.5883943e-002
  8.3883636e-001  2.1098122e+000 -1.7986352e-001
  4.8870356e-001  2.1771128e+000 -2.3881261e-001
  5.7296892e-001  2.2979269e+000 -2.0348978e-001
  9.4317560e-001  2.1044375e+000 -1.1483205e-001
  6.8010939e-001  1.6978291e+000 -2.9144619e-001
  8.3213726e-003  1.5915034e+000 -4.8420115e-001
 -3.9503137e-001  1.7380225e+000 -6.1683709e-001
 -1.3616642e-001  2.2021168e+000 -7.2725022e-001
  3.9253384e-001  2.7367838e+000 -6.7087412e-001
  5.9561063e-001  2.7732383e+000 -8.5801490e-001
  9.4877807e-001  2.3684991e+000 -1.0467934e+000
  1.1805659e+000  1.9382889e+000 -1.0474952e+000
  7.6624197e-001  1.9212302e+000 -1.1375567e+000
  5.9374340e-001  2.3226973e+000 -9.5836921e-001
  7.4033222e-001  2.6019486e+000 -9.6094258e-001
  8.7244883e-001  2.6608369e+000 -1.1134623e+000
  7.3986541e-001  2.4367347e+000 -1.0678467e+000
  3.7946206e-001  2.1002312e+000 -1.2386128e+000
  5.0527639e-001  1.9537120e+000 -1.0889000e+000
  5.7927120e-001  1.9773141e+000 -8.9520938e-001
  4.2661351e-001  2.1616897e+000 -9.6070868e-001
  6.1801933e-001  2.1329470e+000 -8.5801490e-001
  6.4766394e-001  1.8969271e+000 -8.8936090e-001
  4.6886269e-001  1.7553153e+000 -1.0004758e+000
  4.8240127e-001  1.6359032e+000 -9.2117511e-001
  3.1293695e-001  1.5566846e+000 -8.5240072e-001
  1.9015726e-001  1.4826069e+000 -8.1661007e-001
  2.6205105e-001  1.4022200e+000 -6.0093018e-001
 -6.1004585e-002  1.5517772e+000 -6.1286066e-001
 -1.1399151e-001  1.5529455e+000 -5.5437899e-001
  2.6275126e-001  1.3127197e+000 -4.8630632e-001
  2.5995003e-001  1.1580215e+000 -6.5660456e-001
 -2.4357480e-002  1.0171106e+000 -5.5086998e-001
 -7.1041723e-002  1.0304303e+000 -6.4467448e-001
  3.2974318e-001  8.4441865e-001 -5.7870737e-001
  4.1891040e-001  6.1494220e-001 -5.4291673e-001
  2.1023154e-001  4.4201693e-001 -7.4011633e-001
  3.6452306e-001  1.6416756e-001 -6.7110803e-001
  4.2778052e-001  1.0130703e-001 -7.1976478e-001
  1.5934525e-001 -1.0433404e-001 -5.6397000e-001
 -1.6954587e-001 -1.5013587e-001 -4.6010668e-001
 -2.4073945e-001 -3.0857313e-001 -4.5472641e-001
 -1.4410292e-001 -4.3733222e-001 -3.3846520e-001
 -4.1907389e-001 -2.2561547e-001 -3.7004511e-001
 -5.2154590e-001 -2.1883880e-001 -3.1834755e-001
 -6.6607055e-002 -2.5816406e-002 -1.4524242e-001
 -2.7625522e-002 -1.6111890e-001 -1.0430541e-001
  6.6875475e-003 -3.5601061e-001 -9.8690837e-002
  3.1363716e-001 -4.8033007e-001  5.4998378e-002
  2.4104316e-001 -6.7171642e-001 -7.3894645e-002
  1.9552594e-001 -6.9812250e-001 -2.5238285e-002
  7.2979259e-002 -8.2337662e-001 -4.4186389e-002
 -1.6888173e-002 -8.2501227e-001 -2.5963198e-001
  9.5387962e-002 -1.0079863e+000 -2.8512995e-002
 -1.4830458e-001 -8.9885622e-001 -1.0945177e-001
 -4.9330172e-001 -8.0421454e-001 -1.8571161e-001
 -2.3770520e-001 -8.4627773e-001 -6.6877018e-002
 -2.5524498e-002 -9.7503682e-001 -4.6993283e-002
 -5.1127536e-001 -1.2318544e+000 -4.2314734e-002
 -5.9764135e-001 -1.0479461e+000  1.0318452e-002
 -1.6067575e-001 -1.2239094e+000  2.3886283e-002
 -1.1095687e-001 -1.1365117e+000 -1.7588670e-001
 -4.1790648e-001 -1.0259797e+000 -1.5296177e-001
 -2.4937617e-001 -1.1575431e+000 -2.7132855e-001
  2.0206163e-001 -1.0348597e+000 -3.2279219e-001
 -3.3227600e-002 -1.2304524e+000 -2.7670882e-001
 -1.5834172e-001 -1.2154967e+000 -3.7051292e-001
  1.7591847e-001 -1.3856180e+000 -3.4922574e-001
  2.7348861e-001 -1.7735317e+000 -4.8443506e-001
  1.4157246e-002 -1.9801074e+000 -4.4022295e-001
 -3.9666519e-001 -2.3018889e+000 -5.6256655e-001
 -1.3710042e-001 -2.4624292e+000 -5.7332710e-001
  1.1009356e-001 -2.5168774e+000 -3.9507521e-001
 -4.8583241e-001 -2.4142903e+000 -7.0853642e-001
 -4.1954070e-001 -2.4346207e+000 -6.9122567e-001
  2.4197678e-001 -2.7106004e+000 -6.3765646e-001
  7.8545655e-003 -2.7923893e+000 -7.4549660e-001
 -6.7887206e-001 -2.9160078e+000 -5.9016964e-001
 -7.2088824e-001 -2.8727763e+000 -5.7777174e-001
 -4.9190130e-001 -2.7996337e+000 -6.0233363e-001
 -7.4469697e-001 -2.8379575e+000 -5.7005200e-001
 -1.1856308e+000 -2.5131383e+000 -6.0209972e-001
 -1.1319441e+000 -2.2600598e+000 -5.5975927e-001
 -5.4582183e-001 -1.8791564e+000 -2.8138737e-001
 -4.5105254e-001 -1.3980030e+000 -1.2418875e-001
 -5.4745566e-001 -1.0935143e+000 -5.3309186e-002
  4.7769713e-002 -1.0713142e+000  1.8903816e-001
  5.0364257e-001 -1.3592119e+000  2.6459627e-001
  1.9715976e-001 -1.3568749e+000  2.9173154e-001
 -1.6464400e-001 -1.4512829e+000  3.2050456e-001
  2.6858674e-001 -1.5050297e+000  3.1559210e-001
