**************************************************************************************
            UNIVERSIDAD AUTONOMA METROPOLITANA - AZCAPOTZALCO
                        Departamento de Materiales
                           Area de Estructuras
     AV. SAN PABLO 180,COL.REYNOSA, AZCAPOTZALCO, C.P.02200 CIUDAD DE MEXICO.
**************************************************************************************
ARCHIVO ESTANDAR DE ACELERACION:
VERSION DEL FORMATO                    : 2.0
NOMBRE DEL ARCHIVO                     : RIDR201802171
FECHA Y HORA DE CREACION               : MON JUL 18 12:30:07 2018
REF. CATALOGO ACELEROGRAMAS, SMIS 1995 : REGISTRO NO.      /PAG.    


================================================================================
DATOS DE LA ESTACION:
NOMBRE DE LA ESTACION                  : UAM-RECTORIA.
CLAVE DE LA ESTACION                   : RIDR
LOCALIZACION DE LA ESTACION            : PROL. CANAL DE MIRAMONTES 3855, COL. EX
                                       : DE SAN JUAN DE DIOS, C.P.14387 CIUDAD DE MEXICO. 
                                       :
                                       : 
                                       : 
COORDENADAS DE LA ESTACION             : 19.287271 LAT. N
                                       : 99.137132 LONG. W
ALTITUD (msnm)                         : 2240
TIPO DE SUELO                          : TRANSICION 
                                       : 
                                       : 
INSTITUCION RESPONSABLE                : UNIVERSIDAD AUTONOMA METROPOLITANA
                                       : 

================================================================================
DATOS DEL ACELEROGRAFO: 
MODELO DEL ACELEROGRAFO                : BASALT KINEMETRICS
NUMERO DE SERIE DEL ACELEROGRAFO       : 0
NUMERO DE CANALES                      : 3
ORIENTACION C1-C6 (rumbo;orientacion)  : /V/N00E/N90E
ORIENTACION C7-C12 (rumbo;orientacion) : 
VEL. DE MUESTREO, C1-C6 (muestras/s)   : /200/200/200
VEL. DE MUESTREO, C7-C12 (muestras/s)  : 
ESC. COMPLETA DE SENSORES, C1-C6, (g)  : /2/2/2
ESC. COMPLETA DE SENSORES, C7-C12 (g)  : 
FREC. NAT. DE SENSORES, C1-C6, (Hz)    : /208/204/204
FREC. NAT. DE SENSORES, C7-C12 (Hz)    : 
AMORTIGUAMIENTO DE SENSORES, C1-C6     : /0.7/0.7/0.7   
AMORTIGUAMIENTO DE SENSORES, C7-C12    : 
INTERVALO DE MUESTREO, C1-C6 (s)       : /0.005/0.005/0.005
INTERVALO DE MUESTREO, C7-C12 (s)      : 
UMBRAL DE DISPARO, C1-C6 (Gal)         : /2/2/2
UMBRAL DE DISPARO, C7-C12 (Gal)        : 
MEMORIA DE PREEVENTO (s)               : 60
TIEMPO DE POSEVENTO (s)                : 90


================================================================================
DATOS DEL SISMO:
FECHA DEL SISMO [GMT]                  : 2018/02/17
HORA EPICENTRO (GMT)                   : 00:36:51
MAGNITUD(ES)                           : /M=5.9
COORDENADAS DEL EPICENTRO              : 15.8438 LAT. N
                                       : 97.9887 LONG. W
PROFUNDIDAD FOCAL (Km)                 : 24.3
FUENTE DE LOS DATOS EPICENTRALES       : SSN
                                       : INSTITUTO DE GEOFISICA, UNAM

================================================================================
DATOS DE ESTE REGISTRO:
HORA DE LA PRIMERA MUESTRA (GMT)       : 00:37:52.00
EXACTITUD DEL TIEMPO (s)               : 
DURACION DEL REGISTRO (s), C1-C6       : /152.00/152.00/152.00
DURACION DEL REGISTRO (s), C7-C12      : 
NUM. TOTAL DE MUESTRAS, C1-C6          : /30400/30400/30400
NUM. TOTAL DE MUESTRAS, C7-C12         : 
ACEL. MAX.(Gal), C1-C6                 : /-4.5/-3.2/-5.251
ACEL. MAX., C1-C6, EN LA MUESTRA       : /2897/13114/11346
ACEL. MAX.(Gal), C7-C12                : 
ACEL. MAX., C7-C12,EN LA MUESTRA       : 
UNIDADES DE LOS DATOS                  : Gal (cm/s/s)
FACTOR DE DECIMACION                   : 1
FORMATO DATOS (FORTRAN,10 campos/dato) : 3E16.7


================================================================================
CALIDAD DEL ACELEROGRAMA:
REGISTRO DIGITAL COMPLETO CON TIEMPO ABSOLUTO CORRECTO


================================================================================
COMENTARIOS:














================================================================================
DATOS DE ACELERACION:
---------+---------+---------+---------+---------+---------+---------+---------+
   CANAL-1          CANAL-2        CANAL-3
         V           N00E             N90E
---------+---------+---------+---------+---------+---------+---------+---------+  
[...]
  6.1199937e-001 -1.6782290e-001 -1.8246691e+000
  5.1723007e-001 -5.7057174e-002 -1.7575321e+000
 -1.0763991e-001 -1.8441467e-001 -1.9954348e+000
  2.9057756e-001  3.8986498e-002 -1.9530943e+000
  4.2549541e-001 -4.3492252e-001 -2.3715880e+000
  7.2567553e-001 -5.2185287e-001 -2.5762734e+000
  4.5047155e-001 -3.6575265e-001 -2.5671503e+000
 -1.0133762e-001 -3.0663076e-001 -2.6429423e+000
  4.5910788e-001 -2.8045834e-001 -2.2024597e+000
  7.8706577e-001 -4.5548659e-001 -2.4143967e+000
  5.9005786e-001 -5.0082108e-001 -2.5900748e+000
  4.7848194e-001 -1.8675132e-001 -2.7610748e+000
  3.2325641e-001 -2.2203744e-001 -3.1005017e+000
  3.4216367e-001 -3.2111915e-001 -2.9849422e+000
  4.6050869e-001 -3.5091117e-002 -3.2322020e+000
  3.0084810e-001 -1.6688824e-001 -3.2153595e+000
  2.8007361e-001 -2.1666276e-001 -2.6148710e+000
  5.9402573e-001 -5.2629250e-001 -2.5269150e+000
  9.1731516e-001 -7.5576935e-001 -2.9751173e+000
  6.7665726e-001 -8.1278786e-001 -2.9678654e+000
  3.6247135e-001 -1.0513784e+000 -3.2202719e+000
  7.1727261e-001 -8.6209505e-001 -3.3395739e+000
  2.2101780e-001 -5.0222346e-001 -3.2946601e+000
 -5.4203807e-001 -4.3679223e-001 -3.8092977e+000
 -7.7295092e-002 -4.7978968e-001 -3.3872951e+000
 -7.4494249e-002 -3.4729156e-001 -3.1161747e+000
 -2.7967206e-001 -6.4710660e-001 -3.2516179e+000
  6.4625258e-002 -3.4098222e-001 -3.1388653e+000
 -1.7323141e-001 -6.6182866e-001 -3.2750103e+000
  1.1434414e-001 -1.0656331e+000 -3.4085822e+000
  2.3665702e-001 -3.8257769e-001 -3.5646109e+000
 -4.0315196e-001 -9.6912175e-001 -3.5122116e+000
  3.1485349e-001 -8.1722789e-001 -3.4691691e+000
 -6.0255455e-002 -6.7234436e-001 -3.6768953e+000
 -1.1620062e+000 -9.8080617e-001 -3.9260268e+000
 -1.5899301e-001 -7.9245746e-001 -3.5510431e+000
 -1.7066397e-001 -9.8033884e-001 -3.5662483e+000
 -1.0917462e+000 -8.2377128e-001 -3.6876559e+000
 -3.2705652e-001 -8.9317482e-001 -3.1620242e+000
  4.6844480e-001 -8.8476250e-001 -3.3802770e+000
 -1.8653659e-001 -1.1630788e+000 -3.3393400e+000
 -8.6859515e-001 -7.9479450e-001 -3.0838931e+000
 -7.0216546e-001 -8.8756647e-001 -3.0796823e+000
 -4.0414583e-002 -1.4806539e+000 -3.1140695e+000
 -3.6860549e-001 -8.8966985e-001 -3.1575795e+000
 -1.7072797e+000 -1.1478894e+000 -3.2584016e+000
 -4.6570922e-001 -9.3477068e-001 -3.1255318e+000
  7.8006288e-001 -1.3308631e+000 -2.4216482e+000
 -7.1080179e-001 -1.6115164e+000 -2.6558084e+000
 -1.2138257e+000 -1.1390094e+000 -2.5154527e+000
 -1.4755506e-001 -1.5752956e+000 -2.1755579e+000
  2.6956967e-001 -1.1245210e+000 -2.5360382e+000
 -9.7386839e-001 -8.2867864e-001 -2.5269150e+000
 -1.1937514e+000 -7.9526183e-001 -2.4272624e+000
  3.8394604e-001 -1.1109676e+000 -2.1123981e+000
  4.1289044e-001 -8.9153917e-001 -2.1678386e+000
 -1.0987491e+000 -6.7421407e-001 -1.8936770e+000
 -3.7514157e-001 -1.1927566e+000 -1.6361245e+000
  1.5608590e+000 -1.0974139e+000 -1.7837317e+000
 -7.9162713e-002 -1.2044406e+000 -1.8843199e+000
 -1.4915979e+000 -1.0247387e+000 -1.9332106e+000
  1.2368107e-001 -1.2406614e+000 -1.3355294e+000
  1.3511863e-001 -9.5463375e-001 -1.3696827e+000
 -1.2854865e+000 -8.6536675e-001 -1.2209059e+000
 -6.1953393e-001 -9.7589882e-001 -9.1259108e-001
  6.8319295e-001 -9.7052413e-001 -9.7060493e-001
  2.4225910e-001 -1.4406941e+000 -7.2357904e-001
 -4.6664283e-001 -7.1861390e-001 -8.3329044e-001
 -3.2478078e-002 -1.2275754e+000 -8.6627380e-001
  1.1203919e+000 -9.1771158e-001 -6.9808113e-001
  4.9686253e-002 -5.4966094e-001 -5.4556145e-001
 -9.0174081e-001 -1.0226353e+000 -6.0755173e-001
  8.2558010e-001 -7.3964530e-001 -2.1993625e-001
  3.9024872e-001 -1.2133207e+000 -3.4508674e-001
 -1.0457622e+000 -7.6979041e-001 -4.6579260e-001
 -1.7976749e-001 -1.1002183e+000  4.0979268e-001
  1.1640419e+000 -1.0254397e+000  2.0721280e-001
  2.2615308e-001 -9.2448864e-001  2.2920171e-001
 -7.0449950e-001 -8.4199831e-001  5.2886118e-001
  4.1919312e-001 -5.3891158e-001  4.5470651e-001
  7.2660954e-001 -1.0537151e+000  4.0464631e-001
  4.3383964e-002 -3.2789582e-001  6.8956841e-001
 -8.6112545e-001 -7.6020937e-001  7.4781578e-001
 -3.4549697e-001 -3.4355253e-001  4.6055460e-001
 -3.2244674e-002 -5.1086945e-001  1.3045600e+000
 -9.8857399e-001 -5.9382711e-001  1.0902835e+000
 -1.1958524e+000  2.3808418e-001  1.1588240e+000
 -1.0263881e+000 -7.4899268e-001  1.9876238e+000
 -1.3658430e-001 -2.9728338e-001  2.0185024e+000
 -5.6327936e-001 -3.4074856e-001  1.9083232e+000
 -1.2987913e+000 -9.7331506e-004  1.6956841e+000
 -4.6454181e-001  2.0396677e-001  2.0716034e+000
  2.2918771e-001  2.2382984e-001  1.6369689e+000
 -8.1263345e-002  9.6343649e-001  1.7637567e+000
 -7.4021299e-001  5.0658617e-001  2.1401439e+000
 -1.7323141e-001  6.7834311e-001  2.2192106e+000
 -4.7948081e-001  3.8974477e-001  2.7083503e+000
 -1.1437995e+000  6.3744864e-001  2.5490465e+000
 -6.5991589e-001  1.0795769e+000  2.6594597e+000
 -5.2032957e-001  8.8725550e-001  2.2800317e+000
 -2.0987891e-001  1.0569095e+000  2.5408590e+000
 -1.7766647e-001  1.1891743e+000  2.5766496e+000
 -3.3686025e-001  1.3408345e+000  2.5235486e+000
  1.1947941e-001  8.7931050e-001  3.2882530e+000
  2.9081096e-001  7.4307335e-001  2.8061313e+000
 -5.4764014e-001  8.6388745e-001  2.6543133e+000
 -1.1456668e+000  8.3117164e-001  2.9368959e+000
 -4.8508289e-001  1.0052656e+000  2.9130354e+000
 -2.6519987e-001  1.3857017e+000  2.7144323e+000
 -5.8312023e-001  1.6906577e+000  3.2332803e+000
 -2.9624489e-001  1.4871200e+000  3.5277930e+000
 -4.0647987e-002  1.2158140e+000  3.4693117e+000
 -5.4087105e-001  1.2443231e+000  3.8014868e+000
 -6.5174637e-001  9.0197755e-001  3.4403048e+000
 -6.3290093e-002  1.0583114e+000  3.6653418e+000
 -7.4884971e-001  1.4368782e+000  3.4454512e+000
 -7.0426609e-001  1.2690935e+000  3.1413475e+000
  5.4640787e-001  1.8418506e+000  3.0318700e+000
 -4.2281812e-002  1.0863536e+000  2.9425101e+000
 -3.7514157e-001  9.3656268e-001  3.7231214e+000
 -3.4112295e-002  1.0305034e+000  3.8141186e+000
 -3.9754988e-001  5.1640088e-001  3.9320175e+000
 -5.7168267e-001  1.2548392e+000  4.1404455e+000
 -4.1622374e-001  5.5823001e-001  4.1411472e+000
 -2.1332610e-003  1.4373455e+000  3.8164580e+000
 -8.6398616e-002  1.2555402e+000  3.8414881e+000
  5.3030185e-001  6.6408839e-001  4.2019680e+000
  3.5616906e-001  1.2312371e+000  3.8244113e+000
 -1.0273217e+000  1.9555405e-001  4.1446562e+000
 -1.8910442e-001  1.0382151e+000  4.4819776e+000
  1.3161718e-001  3.4277423e-001  4.2372908e+000
 -7.2340676e-001  1.0931302e+000  4.0372839e+000
 -6.7788953e-001  1.3649035e+000  4.1189244e+000
  8.3771827e-001  5.2341121e-001  4.1224330e+000
  1.0781428e+000  1.8418506e+000  3.9516670e+000
 -6.2046755e-001  4.0166246e-001  4.1837220e+000
  7.3361204e-001  1.1099557e+000  4.5140253e+000
  9.1451392e-001  6.6829474e-001  4.6125084e+000
 -9.7130056e-001  6.1291188e-001  4.4319174e+000
 -9.0710948e-001  1.6598116e+000  4.4199869e+000
  3.0248192e-001  6.5287169e-001  3.9624279e+000
  1.2186627e+000  1.8743327e+000  4.1523756e+000
  1.3885347e-001  4.3601392e-001  4.8880730e+000
  1.4889061e-001  4.2596555e-001  4.7395301e+000
 -1.6226066e-001  2.2990552e-001  4.3722662e+000
 -5.5814409e-001 -5.0082108e-001  3.8800857e+000
  2.3315557e-001  9.0992294e-001  3.6632362e+000
 -5.8125300e-001  2.7968003e-001  3.2094197e+000
 -1.9447309e-001  1.3992550e+000  3.6220653e+000
  3.7227508e-001  6.5053465e-001  3.9467545e+000
  8.4262013e-001  5.3976892e-001  3.5792567e+000
  2.1168088e-001  8.9192918e-001  3.7331802e+000
 -8.3871714e-001 -7.6686583e-002  3.1769042e+000
  4.3693297e-001  1.0132110e+000  3.1893021e+000
  8.0497877e-002  2.3200850e-001  2.8636769e+000
 -3.7467437e-001  1.1298187e+000  2.9226264e+000
 -5.6053799e-002  1.0143793e+000  3.3986661e+000
  7.7562782e-001  2.2803581e-001  2.9953776e+000
  7.8729917e-001  1.2775063e+000  2.9163105e+000
 -3.4713079e-001  3.9511945e-001  2.2456445e+000
  1.1915855e+000  1.0120423e+000  2.2931314e+000
  1.2219303e+000  5.7669110e-001  2.1176868e+000
 -5.9088437e-002  1.4320922e-001  1.8907785e+000
 -3.5340742e-003  9.2978601e-001  1.8947553e+000
  1.1947941e-001  2.5093692e-001  1.4105285e+000
  2.2475265e-001  9.9217921e-001  1.7155678e+000
 -7.7353389e-003  1.0092383e+000  1.3616378e+000
  1.0048482e+000  8.0383090e-001  1.1922756e+000
  1.0786096e+000  1.1006083e+000  9.3495656e-001
  2.5042901e-001  5.3439424e-001  8.5004174e-001
  7.0700207e-001  6.8325047e-001  1.2301714e+000
  8.1320893e-001  3.8507108e-001  1.1104012e+000
  3.2932569e-001  5.9281514e-001  9.0805520e-001
 -3.8377790e-001  1.0094720e+000  3.7821277e-001
  3.3119292e-001  7.4774704e-001  4.2499786e-001
  1.3472779e+000  7.7555511e-001  6.8026657e-002
  6.2927241e-001  4.8111475e-001  5.3757102e-002
 -4.8117293e-002  4.3998662e-001  2.0814843e-001
  1.9744208e-001  4.4676329e-001 -3.6824519e-001
  4.8338381e-001  5.5963200e-001 -4.3678568e-001
  1.2017962e-001  7.1059120e-001 -5.0205106e-001
 -6.0955666e-002  6.0146152e-001 -7.0884167e-001
  7.3028570e-002  6.3838330e-001 -1.3004405e+000
  2.6536801e-001  7.9097816e-001 -1.0611343e+000
  4.0658815e-001  7.8747319e-001 -8.8077727e-001
  5.0929356e-001  7.3980165e-001 -1.1404354e+000
  2.4996220e-001  1.1611322e+000 -1.0307240e+000
 -9.6902560e-002  7.0124422e-001 -1.5121435e+000
  7.1423797e-001  4.8695676e-001 -1.6592833e+000
  4.2129375e-001  7.8840785e-001 -1.9537961e+000
 -2.1408056e-001  4.4886627e-001 -1.9675978e+000
  7.7002574e-001  4.9233145e-001 -2.0242078e+000
  7.5742116e-001  4.2725526e-002 -2.4153323e+000
 -2.5516273e-001  4.5026865e-001 -2.3874949e+000
  4.3383964e-002  8.2556329e-001 -2.7676250e+000
  1.4273416e+000  2.7173465e-001 -2.5715949e+000
  6.7502304e-001  8.0756993e-001 -2.4696032e+000
 -6.3120529e-001  4.9443443e-001 -2.5793142e+000
  7.9780312e-001  3.2291115e-001 -2.5065634e+000
  1.1992886e+000  5.2855223e-001 -2.9676315e+000
 -2.6519987e-001  5.0074416e-001 -3.1194498e+000
 -1.6482849e-001  1.0253624e+000 -3.0623716e+000
  1.0704397e+000  3.0071143e-001 -3.1996865e+000
  9.8594090e-001  9.9977709e-002 -3.3311529e+000
 -7.6915738e-001  4.2853587e-001 -3.5173580e+000
 -6.7392128e-001 -7.8555901e-002 -3.8282455e+000
  1.5032036e+000 -2.9015440e-002 -3.6165424e+000
  7.6815851e-001  9.9276715e-002 -3.6570116e+000
 -1.1020168e+000  2.4229053e-001 -4.0930499e+000
  3.0458295e-001  6.7963282e-002 -4.0034562e+000
  1.6990445e+000 -3.1971677e-001 -4.0923482e+000
 -6.5683209e-003  9.1798658e-002 -4.3166831e+000
 -8.8843602e-001  1.1703641e-001 -4.4621851e+000
  1.0860789e+000 -1.5964424e-001 -4.2865066e+000
  1.1472353e+000 -4.0699463e-002 -4.4292018e+000
 -5.7331650e-001 -4.2651020e-001 -4.4240554e+000
 -3.3079137e-001 -4.0290809e-001 -4.1917669e+000
  4.9435456e-001 -3.8818604e-001 -4.7793888e+000
  1.0710784e-001 -5.4148189e-001 -4.7241823e+000
 -8.8936963e-001  1.4250783e-001 -4.9770563e+000
  1.7946883e-001 -3.1597813e-001 -5.2572998e+000
  1.8220580e+000 -3.0803274e-001 -4.4841744e+000
  8.0964684e-002 -4.9112179e-002 -4.4794959e+000
 -7.6215488e-001 -8.8102347e-001 -4.5363398e+000
  1.1063866e+000 -1.4515585e-001 -4.1854506e+000
  4.3506574e-001 -3.3537388e-001 -4.3428831e+000
 -1.0595342e+000 -5.5503562e-001 -4.3300170e+000
 -4.4516774e-001 -4.0933128e-002 -4.2261537e+000
  3.2278960e-001 -8.1045122e-001 -4.6736543e+000
  4.7451408e-001 -1.5695372e-002 -4.6261674e+000
 -4.0875404e-001 -2.9050671e-001 -4.4593782e+000
 -5.6754010e-002 -1.0997506e+000 -4.4072125e+000
  8.2581351e-001 -7.4221561e-001 -4.0083686e+000
 -8.2191051e-001 -1.3128697e+000 -4.1987845e+000
 -1.2691467e+000 -4.3655856e-001 -4.3325900e+000
  2.5859892e-001 -5.0981497e-002 -4.3938789e+000
  6.9019545e-001 -1.3347144e-001 -4.3711879e+000
  1.4608938e-001  1.3923653e-001 -4.0086025e+000
  6.1876846e-001 -8.9878356e-001 -3.8797095e+000
  8.5872616e-001 -1.0011366e+000 -3.6499940e+000
 -6.3493974e-001 -8.8078980e-001 -3.6074192e+000
 -5.5300882e-001 -7.9643015e-001 -3.4396943e+000
  3.1158545e-001 -2.7812130e-001 -3.3362992e+000
  1.0004509e-002 -4.8212672e-001 -3.3856573e+000
 -2.3718908e-001 -7.9152280e-001 -3.4078805e+000
 -1.9190526e-001 -8.9153917e-001 -3.7924548e+000
  8.9367996e-002 -9.1467394e-001 -3.6434441e+000
  2.3899145e-001 -6.8730008e-001 -3.4263608e+000
  3.7017445e-001 -6.3004790e-001 -3.1938380e+000
 -3.1311060e-002 -8.1979859e-001 -2.9201446e+000
 -3.3966149e-001 -5.6228001e-001 -2.9194429e+000
  1.2928314e-001 -5.6438300e-001 -2.7337056e+000
  2.6577339e-002 -6.6556769e-001 -2.9082145e+000
 -2.9717851e-001 -3.4238421e-001 -2.9288000e+000
 -4.4149432e-002 -5.1858117e-001 -2.7255180e+000
  2.2755350e-001 -4.0524474e-001 -2.6137014e+000
 -3.7584178e-001 -2.5381820e-001 -2.5011831e+000
 -6.3820779e-001 -4.9521274e-001 -2.3575524e+000
 -1.1003381e-002 -1.8020831e-001 -2.3580202e+000
 -4.2509347e-001 -2.7625198e-001 -2.6642295e+000
 -5.6701421e-001 -1.8721865e-001 -2.1563759e+000
  3.5383463e-001  1.3152481e-001 -1.4772889e+000
  4.2456179e-001  1.0243378e-002 -1.5734325e+000
 -6.1889280e-002 -1.0379366e-001 -1.6831435e+000
 -4.9051299e-002 -4.0828277e-001 -1.7636141e+000
  2.3689042e-001 -1.5333451e-001 -1.9631532e+000
 -5.9788648e-002 -1.8441467e-001 -1.4552996e+000
 -7.5771983e-001  2.9440209e-001 -1.0265132e+000
 -9.8763999e-001  5.2574825e-001 -1.2531876e+000
 -3.3826067e-001 -8.0425611e-002 -7.0392921e-001
 -5.0165611e-001  4.5073598e-001 -1.8250785e-001
 -1.6769348e+000  2.9814073e-001 -1.3034249e-001
 -1.0987491e+000  4.9887445e-001  1.0171213e-001
 -2.1641460e-001  7.2414494e-001 -5.9696827e-002
 -5.0562436e-001  3.2361215e-001 -4.7210851e-001
 -5.7611773e-001  7.2858496e-001 -1.8788852e-001
 -2.4909345e-001  5.6687639e-001  1.5808823e-001
  2.5649789e-001  4.5751265e-001 -1.5250808e-002
 -9.0133465e-002  6.1922122e-001  3.6581447e-001
 -1.0324570e+000  2.3013918e-001  4.5915115e-001
 -3.0184697e-001 -6.8153265e-003  5.3751655e-001
  1.1200971e-001  5.6243637e-001  1.2116911e+000
 -1.4684890e+000  9.6296916e-001  9.2209085e-001
 -7.4301422e-001  8.4566003e-001  9.3986902e-001
  5.1186140e-001  9.0408093e-001  1.4212890e+000
 -9.1808063e-001  8.3981802e-001  1.2584766e+000
 -9.5309391e-001  1.0085373e+000  1.7193107e+000
 -2.1991604e-001  1.0230253e+000  1.9614242e+000
 -3.8284428e-001  3.2711751e-001  1.9661027e+000
 -1.5595837e-001  4.9046213e-001  2.2765227e+000
 -1.0028124e+000  9.3819873e-001  1.6470277e+000
 -7.4231401e-001  6.4959999e-001  1.7071467e+000
  8.6222760e-001  9.9708657e-001  2.3799178e+000
 -2.9624489e-001  9.1880299e-001  1.9911328e+000
 -6.6621818e-001  4.8882608e-001  2.2236552e+000
  7.7492761e-001  8.8024516e-001  2.8653146e+000
 -3.9947776e-002  5.8229944e-001  2.7434392e+000
 -3.8914657e-001  4.8485378e-001  3.5069736e+000
  3.1625391e-001  9.4263875e-001  4.1023154e+000
  3.7315079e-002  2.0864045e-001  3.6674470e+000
  5.1302841e-001  1.0324941e-001  4.0328396e+000
  1.9977651e-001  5.1266185e-001  3.7051089e+000
 -6.5571423e-001 -3.8596480e-002  3.4094266e+000
  2.8590909e-001  1.1399877e-001  4.3222060e+000
 -5.2085546e-002  8.9600314e-004  3.9722528e+000
 -9.5262671e-001  2.8412006e-001  3.6208958e+000
 -2.6519987e-001  9.9895628e-001  4.0962334e+000
  2.2288503e-001  1.8083199e-001  3.9434798e+000
  1.4352194e-001  3.4254056e-001  3.9231282e+000
 -5.1892915e-001  5.8416876e-001  3.9635974e+000
 -2.4769303e-001  3.7003725e-003  3.7355196e+000
  8.5895956e-001  4.2222653e-001  3.7659300e+000
  2.9804686e-001  3.4043758e-001  3.7282677e+000
 -9.3634910e-002 -6.3366515e-002  3.7532978e+000
  6.9579792e-001 -5.0514168e-002  3.8707286e+000
