
**************************************************************************************
            UNIVERSIDAD AUTONOMA METROPOLITANA - AZCAPOTZALCO
                        Departamento de Materiales
                           Area de Estructuras
     AV. SAN PABLO 180,COL.REYNOSA, AZCAPOTZALCO, C.P.02200 CIUDAD DE MEXICO.
**************************************************************************************
ARCHIVO ESTANDAR DE ACELERACION:
VERSION DEL FORMATO                    : 2.0
NOMBRE DEL ARCHIVO                     : RIDR201802191
FECHA Y HORA DE CREACION               : MON JUL 18 12:30:07 2018
REF. CATALOGO ACELEROGRAMAS, SMIS 1995 : REGISTRO NO.      /PAG.    


================================================================================
DATOS DE LA ESTACION:
NOMBRE DE LA ESTACION                  : UAM-RECTORIA.
CLAVE DE LA ESTACION                   : RIDR
LOCALIZACION DE LA ESTACION            : PROL. CANAL DE MIRAMONTES 3855, COL. EX
                                       : DE SAN JUAN DE DIOS, C.P.14387 CIUDAD DE MEXICO. 
                                       :
                                       : 
                                       : 
COORDENADAS DE LA ESTACION             : 19.287271 LAT. N
                                       : 99.137132 LONG. W
ALTITUD (msnm)                         : 2240
TIPO DE SUELO                          : TRANSICION 
                                       : 
                                       : 
INSTITUCION RESPONSABLE                : UNIVERSIDAD AUTONOMA METROPOLITANA
                                       : 

================================================================================
DATOS DEL ACELEROGRAFO: 
MODELO DEL ACELEROGRAFO                : BASALT KINEMETRICS
NUMERO DE SERIE DEL ACELEROGRAFO       : 985
NUMERO DE CANALES                      : 3
ORIENTACION C1-C6 (rumbo;orientacion)  : /V/N00E/N90E
ORIENTACION C7-C12 (rumbo;orientacion) : 
VEL. DE MUESTREO, C1-C6 (muestras/s)   : /200/200/200
VEL. DE MUESTREO, C7-C12 (muestras/s)  : 
ESC. COMPLETA DE SENSORES, C1-C6, (g)  : /2/2/2
ESC. COMPLETA DE SENSORES, C7-C12 (g)  : 
FREC. NAT. DE SENSORES, C1-C6, (Hz)    : /208/204/204
FREC. NAT. DE SENSORES, C7-C12 (Hz)    : 
AMORTIGUAMIENTO DE SENSORES, C1-C6     : /0.7/0.7/0.7  
AMORTIGUAMIENTO DE SENSORES, C7-C12    : 
INTERVALO DE MUESTREO, C1-C6 (s)       : /0.005/0.005/0.005
INTERVALO DE MUESTREO, C7-C12 (s)      : 
UMBRAL DE DISPARO, C1-C6 (Gal)         : /2/2/2
UMBRAL DE DISPARO, C7-C12 (Gal)        : 
MEMORIA DE PREEVENTO (s)               : 60
TIEMPO DE POSEVENTO (s)                : 90


================================================================================
DATOS DEL SISMO:
FECHA DEL SISMO [GMT]                  : 2018/02/19
HORA EPICENTRO (GMT)                   : 06:56:58
MAGNITUD(ES)                           : /M=6
COORDENADAS DEL EPICENTRO              : 16.2477 LAT. N
                                       : 99.775 LONG. W
PROFUNDIDAD FOCAL (Km)                 : 10.2
FUENTE DE LOS DATOS EPICENTRALES       : SSN
                                       : INSTITUTO DE GEOFISICA, UNAM

================================================================================
DATOS DE ESTE REGISTRO:
HORA DE LA PRIMERA MUESTRA (GMT)       : 06:57:45.00
EXACTITUD DEL TIEMPO (s)               : 
DURACION DEL REGISTRO (s), C1-C6       : /194.00/194.00/194.00
DURACION DEL REGISTRO (s), C7-C12      : 
NUM. TOTAL DE MUESTRAS, C1-C6          : /38800/38800/38800
NUM. TOTAL DE MUESTRAS, C7-C12         : 
ACEL. MAX.(Gal), C1-C6                 : /3.272/6.165/-5.469
ACEL. MAX., C1-C6, EN LA MUESTRA       : /2668/20402/13702
ACEL. MAX.(Gal), C7-C12                : 
ACEL. MAX., C7-C12,EN LA MUESTRA       : 
UNIDADES DE LOS DATOS                  : Gal (cm/s/s)
FACTOR DE DECIMACION                   : 1
FORMATO DATOS (FORTRAN,16 campos/dato) : 3E16.7


================================================================================
CALIDAD DEL ACELEROGRAMA:
REGISTRO DIGITAL COMPLETO CON TIEMPO ABSOLUTO CORRECTO


================================================================================
COMENTARIOS:














================================================================================
DATOS DE ACELERACION:
---------+---------+---------+---------+---------+---------+---------+---------+
   CANAL-1           CANAL-2        CANAL-3
         V            N00E            N90E
---------+---------+---------+---------+---------+---------+---------+---------+ 
  1.1917497e+002  2.5798528e+003  3.9930517e+003
  2.3039805e+002  5.4164413e+003  8.3796044e+003
  2.4861606e+002  6.4623185e+003  9.9629563e+003
  2.2296908e+002  5.5759253e+003  8.5169899e+003
  2.5065545e+001  5.1644782e+002  7.9887941e+002
  2.6527152e+002  5.0074809e+003  7.5815156e+003
  3.2241624e+002  5.3351879e+003  8.0998844e+003
  3.1564519e+002  5.5035990e+003  8.4273004e+003
  2.9568056e+002  5.2526603e+003  8.1179259e+003
  3.1061683e+002  5.0895380e+003  7.8932135e+003
  3.1836301e+002  5.1367140e+003  7.9313883e+003
  2.7896636e+002  5.1448687e+003  7.9215258e+003
  2.2186080e+002  5.0492935e+003  7.8042775e+003
  2.0131267e+002  4.9734897e+003  7.7158909e+003
  2.1466680e+002  4.9653036e+003  7.6606714e+003
  2.2145744e+002  4.9690124e+003  7.5650989e+003
  2.2920753e+002  4.9455754e+003  7.4605390e+003
  2.4920740e+002  4.9068835e+003  7.4210376e+003
  2.5094226e+002  4.8589822e+003  7.4191381e+003
  2.4208781e+002  4.7915213e+003  7.3769365e+003
  2.4456283e+002  4.7156861e+003  7.2823962e+003
  2.3537158e+002  4.6627273e+003  7.1855481e+003
  2.2515822e+002  4.6455161e+003  7.1264275e+003
  2.4975175e+002  4.6370124e+003  7.0876718e+003
  2.7873922e+002  4.5980030e+003  7.0260238e+003
  2.6939525e+002  4.5253513e+003  6.9415933e+003
  2.3668741e+002  4.4524525e+003  6.8661894e+003
  2.1162786e+002  4.4090834e+003  6.8064683e+003
  2.0120302e+002  4.3977374e+003  6.7497103e+003
  1.9443196e+002  4.3898492e+003  6.6924108e+003
  1.8561276e+002  4.3482286e+003  6.6377721e+003
  1.7731048e+002  4.2703469e+003  6.5838987e+003
  1.6710886e+002  4.1976129e+003  6.5228276e+003
  1.6788035e+002  4.1716628e+003  6.4537110e+003
  1.9962872e+002  4.1817543e+003  6.3870708e+003
  2.4176668e+002  4.1749639e+003  6.3247948e+003
  2.5838298e+002  4.1210210e+003  6.2575345e+003
  2.4617629e+002  4.0458602e+003  6.1850388e+003
  2.2056064e+002  3.9899296e+003  6.1152746e+003
  1.9847737e+002  3.9519865e+003  6.0580535e+003
  1.8433217e+002  3.9122282e+003  6.0148512e+003
  1.6259352e+002  3.8746027e+003  5.9657149e+003
  1.3592834e+002  3.8484565e+003  5.9001108e+003
  1.3328101e+002  3.8242942e+003  5.8354172e+003
  1.6722243e+002  3.7881703e+003  5.7805745e+003
  2.1379350e+002  3.7461929e+003  5.7240638e+003
  2.3170605e+002  3.7088497e+003  5.6610421e+003
  2.2018860e+002  3.6682406e+003  5.6026005e+003
  2.2144569e+002  3.6165129e+003  5.5548809e+003
  2.2910180e+002  3.5663495e+003  5.5026991e+003
  1.9785861e+002  3.5327268e+003  5.4302504e+003
  1.4959184e+002  3.5069218e+003  5.3511849e+003
  1.3650010e+002  3.4762866e+003  5.2865698e+003
  1.4381941e+002  3.4468197e+003  5.2318801e+003
  1.3799607e+002  3.4279188e+003  5.1778851e+003
  1.3256043e+002  3.4099901e+003  5.1242197e+003
  1.5322605e+002  3.3708591e+003  5.0687883e+003
  1.8808777e+002  3.3111256e+003  5.0176896e+003
  1.9471001e+002  3.2524036e+003  4.9806921e+003
  1.7424020e+002  3.2086267e+003  4.9528665e+003
  1.7672697e+002  3.1786267e+003  4.9168777e+003
  2.0056860e+002  3.1507986e+003  4.8524275e+003
  2.0244836e+002  3.1148511e+003  4.7612701e+003
  1.8917255e+002  3.0683573e+003  4.6812234e+003
  1.8965032e+002  3.0195504e+003  4.6428288e+003
  1.8582814e+002  2.9800195e+003  4.6324992e+003
  1.4319674e+002  2.9503331e+003  4.6106311e+003
  8.3436025e+001  2.9194038e+003  4.5486848e+003
  7.1699270e+001  2.8827153e+003  4.4586538e+003
  1.1334380e+002  2.8530681e+003  4.3840074e+003
  1.3650793e+002  2.8349866e+003  4.3470413e+003
  1.1799229e+002  2.8186927e+003  4.3187409e+003
  1.1852880e+002  2.7957144e+003  4.2592631e+003
  1.6330626e+002  2.7580850e+003  4.1736395e+003
  1.9548541e+002  2.7054633e+003  4.1045700e+003
  1.6591835e+002  2.6491525e+003  4.0779178e+003
  1.0395674e+002  2.6042544e+003  4.0717444e+003
  6.9373066e+001  2.5751011e+003  4.0414973e+003
  6.7512887e+001  2.5535891e+003  3.9695785e+003
  6.6263629e+001  2.5394359e+003  3.8813136e+003
  7.3430216e+001  2.5326769e+003  3.8082174e+003
  1.2016968e+002  2.5139406e+003  3.7534100e+003
  1.8074104e+002  2.4656511e+003  3.7073388e+003
  1.9705580e+002  2.3959477e+003  3.6722094e+003
  1.6605541e+002  2.3314742e+003  3.6501177e+003
  1.2435606e+002  2.2973772e+003  3.6276099e+003
  9.2353138e+001  2.2884972e+003  3.5883754e+003
  8.5033821e+001  2.2736226e+003  3.5296983e+003
  1.0312260e+002  2.2382436e+003  3.4632858e+003
  1.0730507e+002  2.1987597e+003  3.3998285e+003
  7.9613845e+001  2.1765576e+003  3.3358256e+003
  6.6753150e+001  2.1691360e+003  3.2694406e+003
  1.0103528e+002  2.1556376e+003  3.2153631e+003
  1.3824279e+002  2.1213837e+003  3.1841780e+003
  1.2197895e+002  2.0723847e+003  3.1611130e+003
  7.0857294e+001  2.0340927e+003  3.1266116e+003
  5.8740671e+001  2.0196455e+003  3.0821220e+003
  1.0925140e+002  2.0062882e+003  3.0360900e+003
  1.5445573e+002  1.9648166e+003  2.9878406e+003
  1.3747131e+002  1.9029307e+003  2.9355999e+003
  9.8219557e+001  1.8580012e+003  2.8822760e+003
  9.8759989e+001  1.8449497e+003  2.8351255e+003
  1.2928652e+002  1.8355874e+003  2.8053023e+003
  1.3535658e+002  1.8054462e+003  2.7856948e+003
  9.5067042e+001  1.7690753e+003  2.7458088e+003
  5.0501054e+001  1.7443366e+003  2.6804677e+003
  5.9860695e+001  1.7198959e+003  2.6222616e+003
  1.0667456e+002  1.6847795e+003  2.5856134e+003
  1.1317932e+002  1.6515803e+003  2.5478938e+003
  7.4186037e+001  1.6244462e+003  2.5013398e+003
  6.5147522e+001  1.5946030e+003  2.4624468e+003
  9.4495282e+001  1.5720912e+003  2.4248881e+003
  9.7718288e+001  1.5656419e+003  2.3740995e+003
  7.0814216e+001  1.5500146e+003  2.3239467e+003
  6.3303007e+001  1.5035208e+003  2.2910151e+003
  6.9792096e+001  1.4526751e+003  2.2606974e+003
  5.8760252e+001  1.4249569e+003  2.2088648e+003
  5.8063174e+001  1.4060912e+003  2.1463533e+003
  7.9277054e+001  1.3815132e+003  2.0994579e+003
  6.5864180e+001  1.3573391e+003  2.0627234e+003
  2.8057498e+001  1.3358702e+003  2.0232927e+003
  4.3244396e+001  1.3084656e+003  1.9917897e+003
  8.4740108e+001  1.2750115e+003  1.9663581e+003
  6.3455737e+001  1.2464189e+003  1.9282460e+003
  1.0501318e+001  1.2222213e+003  1.8831403e+003
  2.6393126e+001  1.1905785e+003  1.8463548e+003
  8.9760635e+001  1.1571559e+003  1.8083526e+003
  9.3300851e+001  1.1433046e+003  1.7491888e+003
  4.4900935e+001  1.1440455e+003  1.6731413e+003
  4.1305893e+001  1.1298100e+003  1.6184516e+003
  7.3485042e+001  1.0850530e+003  1.6191973e+003
  6.4744156e+001  1.0290205e+003  1.6512851e+003
  1.9770887e+001  9.9722878e+002  1.6502176e+003
 -1.4726634e+001  9.8674915e+002  1.5888638e+003
 -9.3575683e+000  9.6353165e+002  1.4969334e+003
  4.2312348e+001  9.2848978e+002  1.4159094e+003
  8.7172048e+001  9.1089043e+002  1.3650619e+003
  8.3110983e+001  9.0849498e+002  1.3438768e+003
  6.9079354e+001  8.9766642e+002  1.3408038e+003
  6.5014372e+001  8.7260626e+002  1.3305605e+003
  5.4150923e+001  8.4013235e+002  1.2955136e+003
  4.7344623e+001  8.1090465e+002  1.2517736e+003
  3.3426563e+001  7.8509175e+002  1.2272290e+003
  3.2015814e+000  7.5328824e+002  1.2127511e+003
  3.5844370e-001  7.2044188e+002  1.1643251e+003
  2.4998971e+001  6.9645595e+002  1.0749888e+003
  3.9234240e+001  6.7911536e+002  1.0016453e+003
  5.3583078e+001  6.6460541e+002  9.7942800e+002
  7.1092264e+001  6.5275750e+002  9.7142176e+002
  6.9643282e+001  6.3756145e+002  9.4467542e+002
  5.2690192e+001  6.1725692e+002  9.1020933e+002
  2.2899905e+001  5.9553316e+002  8.7886725e+002
 -4.1921431e+000  5.7083761e+002  8.5186189e+002
  6.9885156e+000  5.4584411e+002  8.2624977e+002
  3.0497270e+001  5.2231297e+002  7.9077113e+002
  2.0511042e+001  4.9482207e+002  7.4890320e+002
  6.6908868e+000  4.6210900e+002  7.1516317e+002
  2.3224947e+001  4.3317534e+002  6.7997496e+002
  4.2210528e+001  4.1914762e+002  6.2846029e+002
  4.2621725e+001  4.1646988e+002  5.7342916e+002
  4.2061713e+001  4.0593928e+002  5.3897878e+002
  3.8909198e+001  3.7438670e+002  5.3398665e+002
  1.8486384e+001  3.3257403e+002  5.3862948e+002
  4.3451024e+000  2.9970806e+002  5.2317038e+002
  4.6936413e+000  2.7866255e+002  4.8416742e+002
 -1.7569772e+001  2.6022813e+002  4.3478383e+002
 -3.7377748e+001  2.4388335e+002  3.7840655e+002
  8.7938688e+000  2.3467790e+002  3.2333225e+002
  7.2247534e+001  2.2660549e+002  2.8883084e+002
  6.8961869e+001  2.1210338e+002  2.7606010e+002
  3.0505102e+001  1.8704714e+002  2.6532232e+002
  2.0413138e+001  1.4559125e+002  2.4136247e+002
  2.7763785e+001  9.6211920e+001  2.1181787e+002
  9.4635335e+000  6.6227554e+001  1.9405108e+002
 -4.0444107e+001  6.5188609e+001  1.7760296e+002
 -7.1612886e+001  7.0101058e+001  1.3262280e+002
 -4.6690395e+001  6.5263099e+001  5.9832725e+001
  3.9760537e-001  5.1149119e+001  6.9250677e-001
  2.9996001e+001  2.8343281e+001 -1.6473816e+001
  3.0904551e+001  4.6866824e+000 -1.7788566e+001
  6.7104676e+000 -1.4959193e+001 -3.7721752e+001
  4.3098569e+000 -3.9721387e+001 -6.5880957e+001
  3.7703019e+001 -7.4375127e+001 -7.8102248e+001
  2.6729917e+001 -1.1036185e+002 -7.8537882e+001
 -4.4618742e+001 -1.3648448e+002 -9.3753665e+001
 -7.7334407e+001 -1.4672496e+002 -1.4842766e+002
 -4.1505389e+001 -1.5026129e+002 -2.2745004e+002
 -1.0763472e+001 -1.5925111e+002 -2.8183361e+002
 -2.2480646e+001 -1.6488102e+002 -2.9954546e+002
 -4.1399652e+001 -1.6264631e+002 -3.1044022e+002
 -2.7798802e+001 -1.7115782e+002 -3.2568348e+002
  4.9159340e-001 -2.0147543e+002 -3.3848561e+002
 -7.4543108e+000 -2.3506671e+002 -3.5447847e+002
 -3.3387173e+001 -2.5323846e+002 -3.7870913e+002
 -1.1711185e+001 -2.7264910e+002 -4.0255516e+002
  2.9988168e+001 -3.0961596e+002 -4.2014535e+002
  8.1986114e+000 -3.4586145e+002 -4.4498824e+002
 -4.9494371e+001 -3.5955201e+002 -4.9762535e+002
 -5.3535856e+001 -3.5462388e+002 -5.6460305e+002
 -1.9073580e+001 -3.5253814e+002 -6.0323317e+002
 -1.5529449e+001 -3.6341375e+002 -6.0362170e+002
 -3.6406538e+001 -3.8071906e+002 -5.9512881e+002
 -3.6876478e+001 -4.0127842e+002 -5.9699693e+002
 -1.4605233e+001 -4.2941621e+002 -6.1043486e+002
 -2.2027300e+000 -4.6302316e+002 -6.4222827e+002
 -1.9367293e+001 -4.8664055e+002 -7.0110554e+002
 -3.5474490e+001 -4.8535461e+002 -7.7277709e+002
 -1.2627568e+001 -4.6728480e+002 -8.1889932e+002
  1.2980252e+001 -4.6492071e+002 -8.2035536e+002
 -6.5340114e+000 -4.9478354e+002 -8.0534366e+002
 -3.5682047e+001 -5.3445558e+002 -8.0532403e+002
 -3.3692634e+001 -5.6056644e+002 -8.1814579e+002
 -1.9915556e+001 -5.7566840e+002 -8.4224693e+002
 -1.1867832e+001 -5.8902571e+002 -8.9440524e+002
 -6.4752689e+000 -6.0419040e+002 -9.6304305e+002
 -2.8645623e+000 -6.2422441e+002 -9.9633960e+002
  1.4353898e+000 -6.4178848e+002 -9.7323531e+002
 -3.4128258e+000 -6.4579528e+002 -9.4296073e+002
 -2.9380934e+001 -6.4781436e+002 -9.6028797e+002
 -5.3426203e+001 -6.7078878e+002 -1.0126268e+003
 -5.0383341e+001 -7.1256616e+002 -1.0505387e+003
 -3.8607425e+001 -7.3519166e+002 -1.0690394e+003
 -4.3780682e+001 -7.1966236e+002 -1.0988548e+003
 -4.9118419e+001 -7.0713228e+002 -1.1375713e+003
 -2.7101724e+001 -7.3116133e+002 -1.1564526e+003
 -7.3877359e+000 -7.6569354e+002 -1.1559267e+003
 -3.4483700e+001 -7.8029366e+002 -1.1606441e+003
 -6.9674383e+001 -7.8806027e+002 -1.1824062e+003
 -5.6371161e+001 -8.0709062e+002 -1.2210599e+003
 -3.6085413e+001 -8.2309431e+002 -1.2656633e+003
 -5.4632383e+001 -8.2691684e+002 -1.2890344e+003
 -5.9527592e+001 -8.3376604e+002 -1.2847056e+003
 -2.8143425e+001 -8.4724881e+002 -1.2896270e+003
 -2.5092730e+001 -8.6022583e+002 -1.3302666e+003
 -5.1656095e+001 -8.7644123e+002 -1.3803841e+003
 -5.1334969e+001 -8.9737697e+002 -1.4054310e+003
 -4.2742898e+001 -9.1185556e+002 -1.4065888e+003
 -5.5642754e+001 -9.1224761e+002 -1.4036061e+003
 -5.3778658e+001 -9.1568593e+002 -1.4148619e+003
 -3.0923904e+001 -9.4520767e+002 -1.4537236e+003
 -2.7743975e+001 -9.8496597e+002 -1.5120789e+003
 -3.7675377e+001 -9.9917796e+002 -1.5514194e+003
 -2.7634323e+001 -9.8623623e+002 -1.5441235e+003
 -1.5396299e+001 -9.7759534e+002 -1.5193316e+003
 -3.7871185e+001 -9.9195239e+002 -1.5280953e+003
 -7.6104730e+001 -1.0146759e+003 -1.5700064e+003
 -7.7847425e+001 -1.0284096e+003 -1.5986954e+003
 -4.8942191e+001 -1.0346315e+003 -1.5971216e+003
 -4.4144886e+001 -1.0447387e+003 -1.5938878e+003
 -6.5409676e+001 -1.0655882e+003 -1.6111090e+003
 -7.2059329e+001 -1.0914756e+003 -1.6461559e+003
 -6.3482922e+001 -1.1135443e+003 -1.6860537e+003
 -5.6766694e+001 -1.1246787e+003 -1.7177608e+003
 -4.8386095e+001 -1.1238279e+003 -1.7326704e+003
 -4.6224371e+001 -1.1268193e+003 -1.7237733e+003
 -6.6619772e+001 -1.1466455e+003 -1.7059280e+003
 -9.7118886e+001 -1.1696827e+003 -1.7216422e+003
 -1.0905536e+002 -1.1772925e+003 -1.7758021e+003
 -9.1694993e+001 -1.1742932e+003 -1.8166810e+003
 -6.2891580e+001 -1.1787431e+003 -1.8218301e+003
 -5.3997963e+001 -1.1949193e+003 -1.8228270e+003
 -7.2290383e+001 -1.2100604e+003 -1.8394792e+003
 -8.5213736e+001 -1.2147690e+003 -1.8626973e+003
 -6.6674598e+001 -1.2147964e+003 -1.8799303e+003
 -4.5327568e+001 -1.2220103e+003 -1.8883722e+003
 -5.7812311e+001 -1.2343561e+003 -1.8994632e+003
 -7.8920455e+001 -1.2404133e+003 -1.9158328e+003
 -7.1205604e+001 -1.2445534e+003 -1.9239176e+003
 -5.2823113e+001 -1.2604356e+003 -1.9300714e+003
 -5.3058083e+001 -1.2864798e+003 -1.9507738e+003
 -6.5515413e+001 -1.3045849e+003 -1.9773239e+003
 -6.9008634e+001 -1.3069019e+003 -1.9960601e+003
 -5.4154610e+001 -1.3030912e+003 -2.0071746e+003
 -4.2104562e+001 -1.3022992e+003 -2.0153300e+003
 -6.1963449e+001 -1.3119516e+003 -2.0263974e+003
 -9.5994946e+001 -1.3283865e+003 -2.0403299e+003
 -1.0255453e+002 -1.3376978e+003 -2.0552984e+003
 -7.4017413e+001 -1.3403717e+003 -2.0810714e+003
 -4.0518514e+001 -1.3506631e+003 -2.1161419e+003
 -4.3514383e+001 -1.3722575e+003 -2.1355963e+003
 -7.5889341e+001 -1.3891982e+003 -2.1336301e+003
 -7.6022490e+001 -1.3948516e+003 -2.1325900e+003
 -4.0726071e+001 -1.4035317e+003 -2.1392187e+003
 -3.7839856e+001 -1.4166460e+003 -2.1454118e+003
 -7.0230478e+001 -1.4168459e+003 -2.1607728e+003
 -7.8215544e+001 -1.4089774e+003 -2.1925309e+003
 -5.7679161e+001 -1.4207273e+003 -2.2214946e+003
 -4.7085928e+001 -1.4511860e+003 -2.2355526e+003
 -5.6837185e+001 -1.4721688e+003 -2.2462473e+003
 -6.7524407e+001 -1.4760423e+003 -2.2546656e+003
 -6.0921748e+001 -1.4792924e+003 -2.2460314e+003
 -5.2361005e+001 -1.4906032e+003 -2.2317497e+003
 -6.5468419e+001 -1.5036155e+003 -2.2473501e+003
 -7.8509257e+001 -1.5069754e+003 -2.2954268e+003
 -6.5272610e+001 -1.4958568e+003 -2.3400616e+003
 -4.6792215e+001 -1.4906934e+003 -2.3544335e+003
 -4.6067724e+001 -1.5105980e+003 -2.3398653e+003
 -6.1415185e+001 -1.5362698e+003 -2.3199596e+003
 -8.4970934e+001 -1.5429112e+003 -2.3262979e+003
 -9.5951868e+001 -1.5432993e+003 -2.3606148e+003
 -8.1884993e+001 -1.5633412e+003 -2.3880833e+003
 -6.7571401e+001 -1.5887542e+003 -2.3904930e+003
 -7.6590335e+001 -1.5849081e+003 -2.3886720e+003
 -9.3790143e+001 -1.5616318e+003 -2.4021963e+003
 -9.2862011e+001 -1.5588914e+003 -2.4274277e+003
 -7.8344778e+001 -1.5793841e+003 -2.4603946e+003
 -7.0919724e+001 -1.5909066e+003 -2.4915365e+003
 -6.6780335e+001 -1.5841475e+003 -2.4893466e+003
 -6.4148670e+001 -1.5802858e+003 -2.4562619e+003
 -8.5029676e+001 -1.5946389e+003 -2.4493860e+003
 -1.0756330e+002 -1.6204832e+003 -2.4860381e+003
 -8.0396850e+001 -1.6405486e+003 -2.5132986e+003
 -4.1701197e+001 -1.6461746e+003 -2.5037225e+003
 -6.9466826e+001 -1.6436105e+003 -2.4971919e+003
 -1.2450073e+002 -1.6422618e+003 -2.5279806e+003
