**************************************************************************************
            UNIVERSIDAD AUTONOMA METROPOLITANA - AZCAPOTZALCO
                        Departamento de Materiales
                           Area de Estructuras
     AV. SAN PABLO 180,COL.REYNOSA, AZCAPOTZALCO, C.P.02200 CIUDAD DE MEXICO.
**************************************************************************************
ARCHIVO ESTANDAR DE ACELERACION:
VERSION DEL FORMATO                    : 2.0
NOMBRE DEL ARCHIVO                     : RIML201807191
FECHA Y HORA DE CREACION               : THURSDAY JUL 19 11:43:00 2018
REF. CATALOGO ACELEROGRAMAS, SMIS 1995 : REGISTRO NO.      /PAG.    


================================================================================
DATOS DE LA ESTACION:
NOMBRE DE LA ESTACION                  : UAM-LERMA.
CLAVE DE LA ESTACION                   : RIML
LOCALIZACION DE LA ESTACION            : AV. DE LAS GARZAS 10, EL PANTEON, C.P.52005,
                                       : LERMA DE VILLADA, ESTADO DE MEXICO. 
                                       :
                                       : 
                                       : 
COORDENADAS DE LA ESTACION             : 19.291481 LAT. N
                                       : 99.502060 LONG. W
ALTITUD (msnm)                         : 2570
TIPO DE SUELO                          : DEPOSITOS LACUSTRES
                                       : 
                                       : 
INSTITUCION RESPONSABLE                : UNIVERSIDAD AUTONOMA METROPOLITANA
                                       : 

================================================================================
DATOS DEL ACELEROGRAFO: 
MODELO DEL ACELEROGRAFO                : BASALT KINEMETRICS
NUMERO DE SERIE DEL ACELEROGRAFO       : 978
NUMERO DE CANALES                      : 3
ORIENTACION C1-C6 (rumbo;orientacion)  : /V/N00E/N90E
ORIENTACION C7-C12 (rumbo;orientacion) : 
VEL. DE MUESTREO, C1-C6 (muestras/s)   : /250/250/250
VEL. DE MUESTREO, C7-C12 (muestras/s)  : 
ESC. COMPLETA DE SENSORES, C1-C6, (g)  : /2/2/2
ESC. COMPLETA DE SENSORES, C7-C12 (g)  : 
FREC. NAT. DE SENSORES, C1-C6, (Hz)    : /210/212/212
FREC. NAT. DE SENSORES, C7-C12 (Hz)    : 
AMORTIGUAMIENTO DE SENSORES, C1-C6     : /0.7/0.7/0.7
AMORTIGUAMIENTO DE SENSORES, C7-C12    : 
INTERVALO DE MUESTREO, C1-C6 (s)       : /0.004/0.004/0.004
INTERVALO DE MUESTREO, C7-C12 (s)      : 
UMBRAL DE DISPARO, C1-C6 (Gal)         : /2/2/2
UMBRAL DE DISPARO, C7-C12 (Gal)        : 
MEMORIA DE PREEVENTO (s)               : 90
TIEMPO DE POSEVENTO (s)                : 120


================================================================================
DATOS DEL SISMO:
FECHA DEL SISMO [GMT]                  : 2018/07/19
HORA EPICENTRO (GMT)                   : 13:31:56
MAGNITUD(ES)                           : /M=5.9
COORDENADAS DEL EPICENTRO              : 17.7213 LAT. N
                                       : 97.8123 LONG. W
PROFUNDIDAD FOCAL (Km)                 : 55.6
FUENTE DE LOS DATOS EPICENTRALES       : SSN
                                       : INSTITUTO DE GEOFISICA, UNAM

================================================================================
DATOS DE ESTE REGISTRO:
HORA DE LA PRIMERA MUESTRA (GMT)       : 13:31:41.00
EXACTITUD DEL TIEMPO (s)               : 
DURACION DEL REGISTRO (s), C1-C6       : /263.00/263.00/263.00
DURACION DEL REGISTRO (s), C7-C12      : 
NUM. TOTAL DE MUESTRAS, C1-C6          : /65750/65750/65750
NUM. TOTAL DE MUESTRAS, C7-C12         : 
ACEL. MAX.(Gal), C1-C6                 : /-1.960/-2.847/-2.502
ACEL. MAX., C1-C6, EN LA MUESTRA       : /62661/22632/22658
ACEL. MAX.(Gal), C7-C12                : 
ACEL. MAX., C7-C12,EN LA MUESTRA       : 
UNIDADES DE LOS DATOS                  : Gal (cm/s/s)
FACTOR DE DECIMACION                   : 1
FORMATO DATOS (FORTRAN,16 campos/dato) : 3E16.7


================================================================================
CALIDAD DEL ACELEROGRAMA:
REGISTRO DIGITAL COMPLETO CON TIEMPO ABSOLUTO CORRECTO


================================================================================
COMENTARIOS:














================================================================================
DATOS DE ACELERACION:
---------+---------+---------+---------+---------+---------+---------+---------+
   CANAL-1   CANAL-2   CANAL-3
         V      N00E      N90E
---------+---------+---------+---------+---------+---------+---------+---------+ 
[...]
  8.9103348e-003 -1.0770101e+000 -4.8205572e-001
 -5.0388346e-002 -6.5106973e-001 -4.4720712e-001
  3.3073623e-003 -2.1975213e-001 -3.1038562e-001
  1.0135997e-001 -4.7597111e-001 -2.6360874e-001
 -1.0898670e-001 -7.7497099e-001 -3.2301511e-001
 -2.6937311e-001 -4.2173490e-001 -3.3658044e-001
 -1.1995921e-001  5.5636598e-002 -1.7613664e-001
 -8.5992971e-003 -3.4133609e-002 -8.8430283e-002
 -1.2626250e-001 -3.9087646e-001 -1.5695816e-001
 -2.2174726e-001 -2.7539089e-001 -1.7613664e-001
 -1.4447246e-001  2.4569652e-001 -6.8082477e-002
  4.6030175e-002  2.8754277e-001  8.6046190e-002
  3.9026557e-002 -1.2063081e-001  5.3536630e-002
 -1.1715753e-001 -1.6902268e-001 -2.3878893e-002
 -4.5719137e-002  3.1980375e-001  1.0499081e-001
  1.1163215e-001  5.8841310e-001  2.9724257e-001
  1.6579474e-001  1.4634184e-001  3.2601030e-001
 -1.8287285e-003 -5.9381455e-002  2.4719158e-001
 -7.4201273e-002  4.0022285e-001  3.3676886e-001
  1.1490071e-001  7.4878338e-001  5.4983616e-001
  1.5668976e-001  4.6217348e-001  6.2678396e-001
 -4.2808330e-004  7.5040097e-002  5.6831305e-001
 -1.6408306e-001  4.0045661e-001  5.9287082e-001
 -3.8948960e-002  8.4463170e-001  7.9424409e-001
  9.5290115e-002  7.3101658e-001  9.3854965e-001
 -3.9415842e-002  3.0624460e-001  8.7867595e-001
 -1.1318903e-001  3.1816745e-001  8.4312576e-001
 -7.7002563e-002  8.9816664e-001  1.0129245e+000
  1.0883086e-001  8.9956919e-001  1.1997970e+000
  1.0065965e-001  3.7216991e-001  1.1637791e+000
 -8.3072809e-002  2.9782892e-001  1.1010986e+000
  9.3772165e-003  7.3896475e-001  1.2458719e+000
  1.2610666e-001  9.4538932e-001  1.4318089e+000
  2.0104705e-001  4.5001727e-001  1.4610444e+000
  7.3811988e-002  1.5849805e-001  1.3728707e+000
 -4.2917847e-002  5.0168175e-001  1.4339141e+000
  1.5739009e-001  7.4153649e-001  1.6584416e+000
  1.6089209e-001  4.3038001e-001  1.7084926e+000
 -2.2960019e-003 -2.6419196e-002  1.6217221e+000
 -7.8637041e-002  1.5803053e-001  1.6572723e+000
  3.7742440e-003  5.2996885e-001  1.8153774e+000
  1.2867490e-001  2.9525718e-001  1.9285766e+000
  3.6925197e-002 -1.8608820e-001  1.8523308e+000
 -7.9804246e-002 -2.1858334e-001  1.7840368e+000
  9.1437757e-003  2.4055345e-001  1.9393352e+000
  1.5715665e-001  2.1390306e-001  2.0841088e+000
  1.4128149e-001 -3.8292790e-001  2.0162826e+000
  4.3929207e-002 -4.6545121e-001  1.9063579e+000
  4.0894084e-002  4.6534973e-004  1.9980399e+000
  2.1692221e-001  1.0800236e-001  2.1778961e+000
  2.9022852e-001 -3.9181150e-001  2.1257399e+000
  1.0556230e-001 -5.9005413e-001  1.9830714e+000
  6.6341097e-002 -1.4938542e-001  2.0394371e+000
  2.8112354e-001  5.5870357e-002  2.2036232e+000
  3.3738710e-001 -2.9339184e-001  2.1970742e+000
  1.5225400e-001 -6.1249649e-001  2.0441148e+000
  1.4665102e-001 -3.7684979e-001  2.0172184e+000
  2.5987885e-001  9.4910721e-002  2.1393053e+000
  3.6633611e-001 -1.1244888e-001  2.2164865e+000
  3.3972190e-001 -6.1927587e-001  2.0438810e+000
  1.7770101e-001 -4.4043712e-001  1.8818001e+000
  3.0166790e-001  3.1791301e-002  2.0038869e+000
  4.2890297e-001  1.2154044e-002  2.0656320e+000
  3.7053844e-001 -4.7363314e-001  1.9065917e+000
  2.8625963e-001 -5.0379030e-001  1.7187834e+000
  2.8742683e-001  2.0570123e-002  1.7260340e+000
  4.3894171e-001  1.2974344e-001  1.8174822e+000
  4.5528414e-001 -2.6533851e-001  1.6628854e+000
  3.2104506e-001 -4.6171069e-001  1.4406966e+000
  3.3598645e-001 -5.2835833e-002  1.4037432e+000
  5.6314204e-001  2.7000934e-001  1.4615121e+000
  5.6897846e-001 -5.0030343e-002  1.3794193e+000
  4.3357218e-001 -3.7451221e-001  1.1324389e+000
  4.3847483e-001 -1.0099355e-001  9.9374606e-001
  4.6999169e-001  3.8035183e-001  1.0611046e+000
  5.6174140e-001  2.0431819e-001  1.0477731e+000
  4.5901919e-001 -2.9011884e-001  7.9237278e-001
  3.3481925e-001 -1.0169522e-001  6.3169551e-001
  4.3730762e-001  4.4440668e-001  6.9484371e-001
  5.0150895e-001  4.0372961e-001  7.2828912e-001
  3.9318377e-001 -3.0860602e-002  5.2621425e-001
  2.2952919e-001 -1.2626286e-002  3.1197723e-001
  2.8812716e-001  4.9022682e-001  3.5430990e-001
  3.6120002e-001  7.0787256e-001  4.1090988e-001
  3.4392383e-001  3.2237549e-001  2.9350034e-001
  2.5567653e-001  1.6247233e-001  6.8037424e-002
  2.2952919e-001  6.7000099e-001  3.5527472e-002
  4.2540135e-001  1.0047686e+000  1.3633104e-001
  3.7800894e-001  7.1488609e-001  4.1374484e-002
  2.8579275e-001  4.0653471e-001 -1.5555497e-001
  2.9583149e-001  7.8712286e-001 -2.5916492e-001
  3.2968316e-001  1.3056389e+000 -1.5181274e-001
  4.1186061e-001  1.0704598e+000 -1.2094023e-001
  2.2882848e-001  7.1628864e-001 -3.2932985e-001
  1.5645632e-001  9.4188295e-001 -4.5118321e-001
  2.0408218e-001  1.4328132e+000 -3.5248442e-001
  1.6649506e-001  1.4388917e+000 -2.7273025e-001
  6.0504684e-002  9.8676805e-001 -4.3294019e-001
 -1.2299433e-001  9.9939178e-001 -5.9431945e-001
 -8.6107541e-002  1.4994398e+000 -5.2579157e-001
 -7.7936719e-002  1.6904351e+000 -3.9481709e-001
 -2.1427676e-001  1.2551432e+000 -4.5679636e-001
 -3.4361279e-001  1.0110809e+000 -6.3899115e-001
 -3.7139461e-001  1.4826076e+000 -6.1349793e-001
 -3.0299095e-001  1.7872185e+000 -4.4744098e-001
 -3.8890385e-001  1.3764732e+000 -4.6217564e-001
 -5.0960218e-001  9.4702602e-001 -6.4811267e-001
 -5.7520455e-001  1.2642606e+000 -6.8179155e-001
 -4.9886311e-001  1.6925390e+000 -4.8977365e-001
 -4.6781313e-001  1.3729664e+000 -4.6919198e-001
 -6.8446310e-001  8.8975056e-001 -6.2823259e-001
 -7.0897635e-001  1.0274451e+000 -6.8062223e-001
 -6.0812206e-001  1.4470736e+000 -5.6999555e-001
 -5.8150784e-001  1.3119508e+000 -4.7574058e-001
 -6.9170055e-001  7.7917430e-001 -5.9759395e-001
 -8.4018030e-001  6.8472893e-001 -6.9699394e-001
 -7.0664194e-001  1.1513464e+000 -6.1443339e-001
 -6.0882238e-001  1.2507015e+000 -4.6778879e-001
 -7.5356708e-001  6.7303984e-001 -5.3514695e-001
 -9.1442037e-001  4.8461623e-001 -6.8342900e-001
 -8.0282702e-001  8.4977477e-001 -6.0811865e-001
 -6.9753696e-001  1.0573685e+000 -4.8930592e-001
 -8.3667869e-001  6.6976723e-001 -4.4931190e-001
 -8.9761145e-001  2.2489048e-001 -5.8753698e-001
 -9.0508195e-001  5.8420506e-001 -5.8800471e-001
 -7.5146611e-001  9.2084314e-001 -3.7213064e-001
 -6.9240087e-001  5.7064591e-001 -3.3564498e-001
 -8.7286476e-001  1.3862703e-001 -4.2756091e-001
 -7.8671842e-001  2.6650296e-001 -4.3691628e-001
 -5.8687737e-001  7.2634103e-001 -2.5565695e-001
 -5.8127440e-001  5.6597035e-001 -1.5508724e-001
 -6.3426939e-001 -2.1063826e-003 -2.2501831e-001
 -6.3170154e-001 -1.7535600e-002 -2.5097926e-001
 -5.5932900e-001  4.6825198e-001 -1.1064940e-001
 -4.7388298e-001  4.9630492e-001  7.6456949e-002
 -5.4578865e-001 -6.0316488e-002  1.7986436e-002
 -6.0065156e-001 -2.2723317e-001 -6.0832276e-002
 -4.7458331e-001  2.3564414e-001  5.7044602e-002
 -3.9100521e-001  4.4370540e-001  2.3315852e-001
 -4.4936973e-001 -1.8470633e-002  2.2076290e-001
 -5.8991210e-001 -3.1069113e-001  7.8328260e-002
 -5.6750021e-001  5.2831108e-002  1.5387247e-001
 -4.1108269e-001  4.1448328e-001  3.0285572e-001
 -4.2975953e-001  1.5732926e-001  3.2109874e-001
 -5.5092474e-001 -2.9830116e-001  2.1655294e-001
 -5.2524428e-001 -1.0379904e-001  1.5971948e-001
 -3.6952708e-001  4.0232707e-001  3.0496090e-001
 -3.2913868e-001  2.7258107e-001  3.5781826e-001
 -4.5053733e-001 -2.5972792e-001  2.1187526e-001
 -4.9792935e-001 -2.1414154e-001  1.2229798e-001
 -3.2073402e-001  3.2938863e-001  2.3058601e-001
 -2.0353770e-001  3.6772811e-001  2.9209716e-001
 -3.3707606e-001 -1.4634617e-001  1.3025017e-001
 -4.1505158e-001 -3.1980848e-001  1.1671302e-002
 -3.0322439e-001  1.5616047e-001  2.9446595e-002
 -1.7015291e-001  4.2056138e-001  1.1247487e-001
 -2.4345922e-001 -6.3589495e-002  1.6816720e-002
 -4.2322240e-001 -3.8620091e-001 -1.9484739e-001
 -3.4174527e-001  1.3089077e-002 -1.7660437e-001
 -1.4423902e-001  3.6866314e-001 -1.0456852e-001
 -2.1567741e-001  2.3141464e-002 -1.6701513e-001
 -3.9964330e-001 -3.9672081e-001 -3.3774977e-001
 -3.8913729e-001 -1.0940963e-001 -4.0885015e-001
 -2.1100820e-001  3.2775232e-001 -3.0196571e-001
 -1.1972577e-001  1.1641844e-001 -2.9003782e-001
 -3.2213467e-001 -3.1606796e-001 -4.8275731e-001
 -3.8423503e-001 -2.0362164e-001 -5.8356088e-001
 -1.3209892e-001  2.4616443e-001 -4.5328800e-001
 -4.6186019e-002  2.4429397e-001 -4.2568960e-001
 -1.7108668e-001 -2.2723317e-001 -5.7139874e-001
 -2.8221315e-001 -2.3611638e-001 -6.7313816e-001
 -1.0922015e-001  1.9590250e-001 -5.8566567e-001
  1.0859742e-001  2.7398362e-001 -4.7784576e-001
 -4.9454583e-002 -9.5149204e-002 -5.8660113e-001
 -2.2875127e-001 -3.5113443e-001 -7.2061624e-001
 -1.8859631e-001  4.8389310e-002 -6.7407362e-001
 -3.6614160e-002  3.3920725e-001 -5.1246050e-001
 -5.4590673e-002 -6.8732567e-002 -5.3771985e-001
 -3.3450821e-001 -4.0724071e-001 -7.2786644e-001
 -3.6112243e-001 -1.7884131e-001 -7.0751864e-001
 -1.8346022e-001  2.1226675e-001 -5.5198678e-001
 -1.7762341e-001 -1.9639424e-002 -5.3608241e-001
 -3.7419629e-001 -5.0846586e-001 -6.8132382e-001
 -5.1030289e-001 -4.1752686e-001 -7.5640030e-001
 -3.0602607e-001 -3.8107890e-002 -6.0507801e-001
 -2.1801182e-001 -2.6419196e-002 -5.1269436e-001
 -3.5715354e-001 -5.5592269e-001 -6.4203140e-001
 -4.6104295e-001 -7.3943700e-001 -7.5499711e-001
 -3.6765916e-001 -2.6089671e-001 -6.6097601e-001
 -1.6571714e-001 -1.7042523e-001 -4.8111987e-001
 -2.8641547e-001 -6.6790150e-001 -5.3561468e-001
 -4.3629626e-001 -9.9892899e-001 -7.0985768e-001
 -3.8213367e-001 -7.1465667e-001 -6.6261346e-001
 -2.3552145e-001 -4.2407287e-001 -4.7784576e-001
 -2.2758367e-001 -8.0980370e-001 -4.4814258e-001
 -3.9590786e-001 -1.2892794e+000 -6.1700590e-001
 -3.7863167e-001 -1.1758977e+000 -6.4600749e-001
 -1.8439398e-001 -8.0466063e-001 -4.4697325e-001
 -9.1243631e-002 -9.8186307e-001 -3.8312307e-001
 -2.3808930e-001 -1.5733176e+000 -5.3350990e-001
 -2.0960755e-001 -1.6654254e+000 -6.1419953e-001
 -2.7976456e-002 -1.2397188e+000 -5.0380671e-001
  4.6263616e-002 -1.2081587e+000 -3.5318602e-001
  7.9648402e-002 -1.8159774e+000 -4.4299716e-001
 -1.4669151e-002 -2.0923012e+000 -6.3431347e-001
  1.0696294e-001 -1.6530354e+000 -5.3374376e-001
  3.4135598e-001 -1.5225881e+000 -3.7774378e-001
  2.7902218e-001 -2.0308181e+000 -4.6124018e-001
  2.4003481e-001 -2.3646507e+000 -6.2776486e-001
  3.7707518e-001 -2.1395239e+000 -6.3852343e-001
  5.2228676e-001 -1.8286015e+000 -4.9164496e-001
  6.0142948e-001 -2.1081979e+000 -4.9538680e-001
  5.2018540e-001 -2.5853357e+000 -7.1336604e-001
  5.3419302e-001 -2.4789674e+000 -8.2258914e-001
  7.5924765e-001 -2.1037561e+000 -6.8038836e-001
  7.7745760e-001 -2.1811364e+000 -6.4577363e-001
  7.0788674e-001 -2.6725341e+000 -8.4176762e-001
  7.5761356e-001 -2.7566937e+000 -9.8326680e-001
  8.0080326e-001 -2.3092457e+000 -9.3789350e-001
  8.6710555e-001 -2.1960981e+000 -8.1627440e-001
  8.2064730e-001 -2.6360651e+000 -9.5332976e-001
  6.8547446e-001 -2.8483340e+000 -1.1776237e+000
  7.7162080e-001 -2.4612002e+000 -1.1292098e+000
  9.1309732e-001 -2.1956305e+000 -9.9963852e-001
  7.5597908e-001 -2.4862143e+000 -1.0576417e+000
  6.1030062e-001 -2.7824091e+000 -1.2751528e+000
  7.4220529e-001 -2.5540097e+000 -1.3368978e+000
  8.1644497e-001 -2.1067954e+000 -1.1986731e+000
  7.7699072e-001 -2.2208784e+000 -1.2035847e+000
  7.2142709e-001 -2.6246102e+000 -1.4391050e+000
  7.4850858e-001 -2.4525508e+000 -1.5567480e+000
  9.2803871e-001 -1.9630227e+000 -1.4505651e+000
  9.0049034e-001 -1.9013058e+000 -1.4353628e+000
  8.1270991e-001 -2.2907776e+000 -1.6465591e+000
  8.6803971e-001 -2.2839978e+000 -1.8439563e+000
  9.4414731e-001 -1.7502863e+000 -1.8023252e+000
  1.0027453e+000 -1.5840712e+000 -1.7443221e+000
  8.8905095e-001 -1.8617976e+000 -1.9089758e+000
  8.6173602e-001 -1.9733088e+000 -2.1278905e+000
  9.3877778e-001 -1.5508748e+000 -2.1412216e+000
  9.7146185e-001 -1.1796382e+000 -2.0275547e+000
  9.2523703e-001 -1.3867640e+000 -2.1330360e+000
  8.2321554e-001 -1.5768244e+000 -2.3535873e+000
  8.6803971e-001 -1.2600573e+000 -2.3769758e+000
  8.9745522e-001 -7.8128324e-001 -2.2635423e+000
  8.0804071e-001 -8.2733714e-001 -2.2682200e+000
  6.9948208e-001 -1.1237657e+000 -2.4597702e+000
  7.0765330e-001 -9.0915878e-001 -2.5028048e+000
  7.1699172e-001 -3.6960290e-001 -2.3491435e+000
  6.0889998e-001 -2.8754710e-001 -2.2834224e+000
  4.9870727e-001 -6.2395143e-001 -2.3989606e+000
  4.2516791e-001 -5.3862302e-001 -2.4976594e+000
  4.0999308e-001 -2.0808215e-002 -2.3199084e+000
  3.4415727e-001  1.5218619e-001 -2.1512786e+000
  2.3279736e-001 -1.7767252e-001 -2.2389849e+000
  1.6416065e-001 -2.0058239e-001 -2.3119563e+000
  1.8984111e-001  2.6182741e-001 -2.1222770e+000
  2.2719439e-001  4.5913462e-001 -1.8678125e+000
  9.3422588e-002  1.9169446e-001 -1.8720224e+000
  5.2800352e-002 -1.6366809e-002 -1.9721244e+000
  1.4268214e-001  3.3172660e-001 -1.7967121e+000
  1.1956992e-001  6.7420903e-001 -1.4472906e+000
  7.1243747e-002  4.0770390e-001 -1.3836747e+000
 -7.8989745e-003  1.1852226e-001 -1.4772277e+000
  7.6146397e-002  3.0110153e-001 -1.3235668e+000
  1.4851855e-001  6.7771540e-001 -9.9051740e-001
  6.0271243e-002  5.4913859e-001 -7.8470030e-001
  8.3383847e-002  1.0566477e-001 -8.5533296e-001
  4.6030175e-002  1.8772018e-001 -8.1416961e-001
  1.4501694e-001  5.5194369e-001 -4.3270632e-001
  1.6719539e-001  5.4703437e-001 -1.4713505e-001
  2.0116280e-002  7.1299574e-002 -1.8432269e-001
  7.6146397e-002 -9.9824761e-002 -1.7239441e-001
  1.4618414e-001  3.0040026e-001  1.5176730e-001
  1.9801193e-001  3.9227468e-001  4.9814812e-001
  8.5951697e-002  5.6084223e-003  5.2177043e-001
  4.2761611e-002 -3.3640649e-001  4.2587841e-001
  1.2307154e-001 -7.6213614e-002  6.5040587e-001
  8.8286105e-002  2.8543855e-001  1.0316353e+000
  2.1283484e-002 -8.3694268e-002  1.0982919e+000
 -8.7274745e-002 -5.1197262e-001  9.5609108e-001
 -4.2808330e-004 -3.1723675e-001  1.0793472e+000
  3.6224875e-002  1.1478174e-001  1.4334464e+000
 -3.8482078e-002 -4.6991486e-002  1.5660579e+000
 -7.4668155e-002 -5.5942946e-001  1.4245587e+000
 -6.6730382e-002 -4.9116657e-001  1.4126309e+000
  1.1490071e-001 -5.4472141e-002  1.7288404e+000
  6.9843102e-002 -3.5089318e-003  1.9182858e+000
 -5.2723146e-002 -4.5095703e-001  1.7590113e+000
  1.6147393e-002 -5.5335096e-001  1.6897822e+000
  1.3964740e-001 -1.0496783e-001  1.8925587e+000
  2.1318676e-001  5.6337873e-002  2.1184897e+000
  1.0299406e-001 -2.9993746e-001  2.0420100e+000
  8.4784492e-002 -5.6807890e-001  1.8368945e+000
  2.1668877e-001 -1.9614059e-001  1.9786276e+000
  2.8415827e-001  1.7509606e-001  2.2466574e+000
  1.5272088e-001 -1.1127970e-001  2.1821056e+000
  3.7858961e-002 -4.5376252e-001  1.9662320e+000
  1.4688446e-001 -2.1156981e-001  2.0064599e+000
  2.1038547e-001  2.4616443e-001  2.2576499e+000
  1.6205930e-001  1.3909455e-001  2.2878208e+000
  3.9259998e-002 -2.1507657e-001  2.0614220e+000
  6.3539807e-002 -9.0707407e-002  2.0230654e+000
  2.1668877e-001  3.6305255e-001  2.2225674e+000
  1.5388847e-001  4.6918701e-001  2.3016200e+000
 -3.5680396e-002  1.0402807e-001  2.0831734e+000
 -8.3306250e-002  8.0416928e-002  1.9213264e+000
  3.9493439e-002  5.9425745e-001  2.0845766e+000
 -2.2960019e-003  8.7712683e-001  2.2036232e+000
 -1.3233236e-001  5.4376176e-001  2.0230654e+000
 -1.5777937e-001  3.3897350e-001  1.7884806e+000
 -8.8675782e-002  8.1213695e-001  1.8478870e+000
 -7.1986519e-003  1.1733216e+000  2.0015483e+000
 -1.9163104e-001  9.5824720e-001  1.8644925e+000
 -3.4968304e-001  6.8800155e-001  1.5740101e+000
 -3.1793234e-001  9.7204011e-001  1.5239591e+000
