**************************************************************************************
            UNIVERSIDAD AUTONOMA METROPOLITANA - AZCAPOTZALCO
                        Departamento de Materiales
                           Area de Estructuras
     AV. SAN PABLO 180,COL.REYNOSA, AZCAPOTZALCO, C.P.02200 CIUDAD DE MEXICO.
**************************************************************************************
ARCHIVO ESTANDAR DE ACELERACION:
VERSION DEL FORMATO                    : 2.0
NOMBRE DEL ARCHIVO                     : RIML201805211
FECHA Y HORA DE CREACION               : MON JUL 18 12:30:07 2018
REF. CATALOGO ACELEROGRAMAS, SMIS 1995 : REGISTRO NO.      /PAG.    


================================================================================
DATOS DE LA ESTACION:
NOMBRE DE LA ESTACION                  : UAM-LERMA.
CLAVE DE LA ESTACION                   : RIML
LOCALIZACION DE LA ESTACION            : AV. DE LAS GARZAS 10, EL PANTEON, C.P.52005,
                                       : LERMA DE VILLADA, ESTADO DE MEXICO. 
                                       :
                                       : 
                                       : 
COORDENADAS DE LA ESTACION             : 19.291481 LAT. N
                                       : 99.502060 LONG. W
ALTITUD (msnm)                         : 2570
TIPO DE SUELO                          : DEPOSITOS LACUSTRES
                                       : 
                                       : 
INSTITUCION RESPONSABLE                : UNIVERSIDAD AUTONOMA METROPOLITANA
                                       : 

================================================================================
DATOS DEL ACELEROGRAFO: 
MODELO DEL ACELEROGRAFO                : BASALT KINEMETRICS
NUMERO DE SERIE DEL ACELEROGRAFO       : 978
NUMERO DE CANALES                      : 3
ORIENTACION C1-C6 (rumbo;orientacion)  : /V/N00E/N90E
ORIENTACION C7-C12 (rumbo;orientacion) : 
VEL. DE MUESTREO, C1-C6 (muestras/s)   : /250/250/250
VEL. DE MUESTREO, C7-C12 (muestras/s)  : 
ESC. COMPLETA DE SENSORES, C1-C6, (g)  : /2/2/2
ESC. COMPLETA DE SENSORES, C7-C12 (g)  : 
FREC. NAT. DE SENSORES, C1-C6, (Hz)    : /210/212/212
FREC. NAT. DE SENSORES, C7-C12 (Hz)    : 
AMORTIGUAMIENTO DE SENSORES, C1-C6     : /0.7/0.7/0.7
AMORTIGUAMIENTO DE SENSORES, C7-C12    : 
INTERVALO DE MUESTREO, C1-C6 (s)       : /0.004/0.004/0.004
INTERVALO DE MUESTREO, C7-C12 (s)      : 
UMBRAL DE DISPARO, C1-C6 (Gal)         : /2/2/2
UMBRAL DE DISPARO, C7-C12 (Gal)        : 
MEMORIA DE PREEVENTO (s)               : 30
TIEMPO DE POSEVENTO (s)                : 60


================================================================================
DATOS DEL SISMO:
FECHA DEL SISMO [GMT]                  : 2018/05/21
HORA EPICENTRO (GMT)                   : 02:15:20
MAGNITUD(ES)                           : /M=5.0
COORDENADAS DEL EPICENTRO              : 17.0585 LAT. N
                                       : 98.6643 LONG. W
PROFUNDIDAD FOCAL (Km)                 : 36.2
FUENTE DE LOS DATOS EPICENTRALES       : SSN
                                       : INSTITUTO DE GEOFISICA, UNAM

================================================================================
DATOS DE ESTE REGISTRO:
HORA DE LA PRIMERA MUESTRA (GMT)       : 02:16:11.00
EXACTITUD DEL TIEMPO (s)               : 
DURACION DEL REGISTRO (s), C1-C6       : /91.00/91.00/91.00
DURACION DEL REGISTRO (s), C7-C12      : 
NUM. TOTAL DE MUESTRAS, C1-C6          : /22750/22750/22750
NUM. TOTAL DE MUESTRAS, C7-C12         : 
ACEL. MAX.(Gal), C1-C6                 : /-1.935/2.747/-2.574
ACEL. MAX., C1-C6, EN LA MUESTRA       : /8320/7369/11485
ACEL. MAX.(Gal), C7-C12                : 
ACEL. MAX., C7-C12,EN LA MUESTRA       : 
UNIDADES DE LOS DATOS                  : Gal (cm/s/s)
FACTOR DE DECIMACION                   : 1
FORMATO DATOS (FORTRAN,16 campos/dato) : 3E16.7


================================================================================
CALIDAD DEL ACELEROGRAMA:
REGISTRO DIGITAL COMPLETO CON TIEMPO ABSOLUTO CORRECTO


================================================================================
COMENTARIOS:














================================================================================
DATOS DE ACELERACION:
---------+---------+---------+---------+---------+---------+---------+---------+
   CANAL-1   CANAL-2   CANAL-3
         V      N00E      N90E
---------+---------+---------+---------+---------+---------+---------+---------+ 
[...]
 -4.4205189e-001  1.1980446e+000  7.3017958e-001
 -4.3855028e-001  1.1650819e+000  7.7695607e-001
 -3.7644992e-001  8.1932688e-001  6.9556485e-001
 -3.1458339e-001  7.5199903e-001  6.7872541e-001
 -3.0150952e-001  1.0072830e+000  7.6175368e-001
 -2.9263838e-001  1.1159888e+000  8.5343614e-001
 -2.7045954e-001  8.4270427e-001  8.3332220e-001
 -1.2828308e-001  5.9209587e-001  7.2784094e-001
 -8.5092995e-002  7.8145492e-001  7.9262658e-001
 -1.8407976e-001  1.0708703e+000  8.9389788e-001
 -1.9014961e-001  8.7356271e-001  8.3799988e-001
 -8.3692349e-002  4.7380521e-001  7.6222141e-001
  3.3877531e-003  5.7386156e-001  7.4117201e-001
 -2.1125497e-002  9.2101954e-001  8.0057838e-001
 -1.7856933e-002  8.3896375e-001  8.3191861e-001
  6.2219552e-002  4.6422034e-001  6.9252461e-001
  1.0424204e-001  4.3546572e-001  5.9242263e-001
  5.3348016e-002  7.7210381e-001  6.6960390e-001
  3.7472862e-002  8.1722267e-001  6.8199991e-001
  8.7433124e-002  4.7053220e-001  5.3652463e-001
  1.1358046e-001  3.1226574e-001  4.1467127e-001
  1.3972780e-001  5.6264038e-001  4.3080951e-001
  4.6811280e-002  7.9361113e-001  4.5957684e-001
 -2.0424782e-002  5.9069333e-001  3.5924099e-001
  1.3132353e-001  2.6270508e-001  2.0581392e-001
  1.8361820e-001  3.7982696e-001  1.4898046e-001
  9.8172188e-002  7.3540102e-001  2.0066850e-001
  6.8756288e-002  6.6129379e-001  1.4827887e-001
  1.5093413e-001  2.7626423e-001 -3.4617913e-002
  2.3287814e-001  3.1436957e-001 -1.1016213e-001
  1.3786027e-001  6.5638448e-001 -5.2158950e-002
  1.1544838e-001  6.3791640e-001 -7.5547390e-002
  2.0486289e-001  3.5013732e-001 -2.3645892e-001
  2.5388939e-001  2.5358773e-001 -3.2042305e-001
  2.7209934e-001  4.9180576e-001 -2.8534058e-001
  1.5536990e-001  6.3955271e-001 -2.8229995e-001
  1.1171293e-001  3.3634480e-001 -3.8661189e-001
  2.1280066e-001  8.4333852e-002 -5.0215012e-001
  2.0906522e-001  2.7906933e-001 -4.9817402e-001
  1.4976654e-001  4.7123347e-001 -4.5209913e-001
  1.2385264e-001  2.4891217e-001 -5.1758637e-001
  1.5910495e-001 -9.3336497e-002 -6.6376324e-001
  2.2797549e-001 -3.6996457e-002 -6.8153814e-001
  1.4976654e-001  2.2062547e-001 -5.9687242e-001
  7.4125820e-002  6.3293653e-002 -6.3382619e-001
  1.7357946e-001 -3.1519028e-001 -7.7719629e-001
  2.3101062e-001 -3.5539983e-001 -8.0479469e-001
  2.2820894e-001 -1.2232487e-001 -6.9463575e-001
  1.8688677e-001 -1.4102670e-001 -6.9744212e-001
  1.7638115e-001 -5.0361390e-001 -8.0292338e-001
  2.8984202e-001 -6.5697144e-001 -8.2069868e-001
  3.2579466e-001 -4.6644360e-001 -7.3509749e-001
  2.8400561e-001 -3.9607689e-001 -6.7592499e-001
  3.0641789e-001 -7.2710439e-001 -7.4562219e-001
  4.0283641e-001 -1.0240004e+000 -7.9497159e-001
  4.3108472e-001 -8.6666862e-001 -7.0937040e-001
  3.4283741e-001 -6.4949039e-001 -5.8751743e-001
  3.7482116e-001 -8.9729369e-001 -6.1160708e-001
  4.9738741e-001 -1.3152859e+000 -7.0282141e-001
  5.2703636e-001 -1.2470230e+000 -6.3148715e-001
  5.6205523e-001 -1.0275068e+000 -5.1290868e-001
  5.2376818e-001 -1.1647339e+000 -5.0495649e-001
  4.9201748e-001 -1.5051121e+000 -5.7418596e-001
  5.9520657e-001 -1.6306500e+000 -5.5360429e-001
  5.5948738e-001 -1.3727947e+000 -4.2216208e-001
  5.1396288e-001 -1.3239353e+000 -3.5948122e-001
  5.7396189e-001 -1.6984454e+000 -4.2496846e-001
  6.6827944e-001 -1.9450795e+000 -4.7969713e-001
  6.8111947e-001 -1.7328106e+000 -3.7234496e-001
  5.3964334e-001 -1.5135281e+000 -2.7949318e-001
  5.4711384e-001 -1.8132293e+000 -3.3188321e-001
  6.4936916e-001 -2.0975016e+000 -3.8240193e-001
  6.7668370e-001 -1.9184287e+000 -3.1831787e-001
  6.8065259e-001 -1.6907306e+000 -2.1821590e-001
  6.6804600e-001 -1.8188403e+000 -2.4183820e-001
  6.8392115e-001 -2.1818950e+000 -3.3211707e-001
  7.3224694e-001 -2.1185414e+000 -3.2837484e-001
  7.1520458e-001 -1.7767603e+000 -1.9810196e-001
  6.3956386e-001 -1.8279572e+000 -1.5927765e-001
  6.4399963e-001 -2.0327455e+000 -2.5329836e-001
  7.2757773e-001 -2.0680457e+000 -2.6241987e-001
  7.6166284e-001 -1.8634912e+000 -1.6652786e-001
  6.6921320e-001 -1.6862888e+000 -1.1296850e-001
  6.2298839e-001 -1.8878040e+000 -1.8500474e-001
  6.7411585e-001 -2.0404603e+000 -2.1353821e-001
  6.8111947e-001 -1.7610973e+000 -1.3612308e-001
  6.2205423e-001 -1.4805655e+000 -3.8125885e-002
  5.6018770e-001 -1.5927784e+000 -4.5142614e-002
  6.1855262e-001 -1.7903194e+000 -1.2466292e-001
  6.7925195e-001 -1.6367281e+000 -5.6135043e-002
  6.2438903e-001 -1.2954149e+000  6.5484063e-002
  5.2096650e-001 -1.3087399e+000  8.2557762e-002
  5.1513009e-001 -1.5637901e+000  2.8035917e-003
  5.6158835e-001 -1.4875790e+000  1.4263751e-002
  4.5793277e-001 -1.1441616e+000  1.8289321e-001
  3.5987977e-001 -1.0027265e+000  2.4557408e-001
  3.1902448e-001 -1.1773576e+000  1.6862667e-001
  3.4517182e-001 -1.2956486e+000  1.8195775e-001
  3.7692252e-001 -1.0235329e+000  2.8954419e-001
  2.4431753e-001 -7.4557246e-001  3.5924099e-001
  1.5513607e-001 -8.8466957e-001  3.4988601e-001
  1.8291788e-001 -1.0567289e+000  3.0404459e-001
  2.0649737e-001 -8.3066711e-001  3.7865334e-001
  1.0330828e-001 -4.1711670e-001  5.0331308e-001
  1.8562585e-002 -4.2787036e-001  5.0916010e-001
  1.4999998e-001 -7.5539109e-001  4.3151110e-001
  2.0159472e-001 -6.3499620e-001  4.3314815e-001
  7.4359261e-002 -1.7282056e-001  5.5546885e-001
 -3.4432409e-002 -5.9906329e-002  5.6412264e-001
 -2.3459905e-002 -3.0864466e-001  4.8179595e-001
  3.0702685e-002 -2.9391672e-001  4.7805372e-001
  1.9963622e-002  1.0677621e-001  5.5032344e-001
 -5.4509891e-002  3.7982696e-001  5.9382582e-001
 -6.1513900e-002  1.9654641e-001  4.8483620e-001
  5.7083461e-002 -1.3618677e-002  3.8496848e-001
 -2.6728469e-002  3.7678810e-001  4.3034178e-001
 -2.1793142e-001  8.0272848e-001  4.8202982e-001
 -1.9108337e-001  6.6012500e-001  3.9829955e-001
 -1.0400327e-001  4.6492161e-001  2.7363981e-001
 -8.2525145e-002  6.9378893e-001  2.7644658e-001
 -1.3528670e-001  1.1117811e+000  3.0895614e-001
 -2.2026583e-001  1.1468476e+000  2.3294420e-001
 -2.2213375e-001  8.9997974e-001  8.2089640e-002
 -1.9155065e-001  1.0082180e+000  3.5313151e-002
 -2.9473935e-001  1.4339250e+000  9.1211152e-002
 -3.9115787e-001  1.5828404e+000  5.8701592e-002
 -2.8189892e-001  1.3712727e+000 -6.1280461e-002
 -2.1302877e-001  1.3497654e+000 -1.6816491e-001
 -2.5411750e-001  1.6508695e+000 -1.4992228e-001
 -3.4539993e-001  1.9204135e+000 -1.3004220e-001
 -4.4742142e-001  1.8596317e+000 -2.4230593e-001
 -3.4586681e-001  1.6611556e+000 -3.2790712e-001
 -3.1715163e-001  1.9054518e+000 -3.0989796e-001
 -4.1216911e-001  2.2264269e+000 -2.7224298e-001
 -4.2874498e-001  2.1773337e+000 -3.3258480e-001
 -3.7318174e-001  1.9975600e+000 -4.2496846e-001
 -3.2275460e-001  2.0319248e+000 -4.4812303e-001
 -4.9411351e-001  2.4216303e+000 -3.8661189e-001
 -5.6928735e-001  2.4866202e+000 -3.6018281e-001
 -5.0882146e-001  2.2018803e+000 -4.6005092e-001
 -4.7590356e-001  2.1929967e+000 -4.7127722e-001
 -4.2641018e-001  2.4382283e+000 -3.8263579e-001
 -5.2726447e-001  2.6299249e+000 -3.4451269e-001
 -4.9948305e-001  2.4690867e+000 -3.9479755e-001
 -3.1575059e-001  2.2280632e+000 -4.3338837e-001
 -3.2158700e-001  2.3860963e+000 -3.5994895e-001
 -3.8999066e-001  2.7002916e+000 -2.7785613e-001
 -3.5964100e-001  2.6086514e+000 -2.5961310e-001
 -2.3380658e-001  2.2759876e+000 -2.9539756e-001
 -1.3015061e-001  2.3115215e+000 -2.4417685e-001
 -1.9785394e-001  2.6752775e+000 -1.1296850e-001
 -2.3707514e-001  2.6787843e+000 -9.9871290e-002
 -9.3964531e-002  2.2542465e+000 -1.2536451e-001
 -2.6961910e-002  2.1904254e+000 -6.7595203e-002
 -1.9528570e-001  2.5672730e+000  4.3499204e-002
 -2.7115986e-001  2.6790181e+000  1.3822190e-001
 -1.3878870e-001  2.3012354e+000  1.3705218e-001
 -1.0517048e-001  2.0662900e+000  1.4757688e-001
 -1.7544166e-001  2.3489256e+000  2.5399399e-001
 -2.4010987e-001  2.5527788e+000  3.4403861e-001
 -2.4010987e-001  2.2633634e+000  3.4754697e-001
 -2.3287282e-001  1.9335051e+000  3.2088442e-001
 -3.2578933e-001  2.1095388e+000  4.0695334e-001
 -4.5349167e-001  2.4253708e+000  5.2389475e-001
 -4.5792744e-001  2.1929967e+000  5.1968480e-001
 -3.5567211e-001  1.7619133e+000  4.7898918e-001
 -4.2454265e-001  1.8086684e+000  4.8343301e-001
 -5.1255652e-001  2.1004214e+000  5.5336407e-001
 -5.2446318e-001  2.0143917e+000  5.6669554e-001
 -5.7909265e-001  1.5877497e+000  4.7641667e-001
 -5.6204990e-001  1.5075644e+000  4.6799675e-001
 -5.4967675e-001  1.7619133e+000  5.2412862e-001
 -5.4360690e-001  1.7628483e+000  5.0822464e-001
 -4.8874398e-001  1.4329896e+000  4.1630871e-001
 -4.2687706e-001  1.1246386e+000  3.1784379e-001
 -4.6212937e-001  1.2705151e+000  3.2766689e-001
 -5.1886021e-001  1.4068067e+000  3.4544219e-001
 -4.7660388e-001  1.0891046e+000  2.2218563e-001
 -4.3294731e-001  7.8566296e-001  1.1062350e-001
 -3.4610025e-001  7.4592093e-001  1.0150199e-001
 -3.6314300e-001  8.4995156e-001  7.9517128e-002
 -4.1030158e-001  6.9659402e-001 -2.8068915e-002
 -3.1318274e-001  3.2582489e-001 -1.4805097e-001
 -3.3839631e-001  2.2366433e-001 -2.0137646e-001
 -3.7131383e-001  3.1460332e-001 -2.0207805e-001
 -3.4703402e-001  2.8958924e-001 -2.5844378e-001
 -3.1668435e-001 -5.3360708e-002 -3.8684575e-001
 -1.3201853e-001 -3.7971264e-001 -4.3876766e-001
 -1.4159039e-001 -2.4435606e-001 -4.3970312e-001
 -2.8796917e-001 -1.4593601e-001 -4.8227004e-001
 -1.7544166e-001 -4.4774138e-001 -5.8073457e-001
 -2.8595996e-002 -8.4095326e-001 -6.3101942e-001
 -5.1475160e-002 -8.5848669e-001 -6.1301066e-001
 -1.0517048e-001 -6.1559310e-001 -6.1160708e-001
  7.3566396e-003 -8.3931695e-001 -6.5043177e-001
  5.3814898e-002 -1.2711021e+000 -7.3369430e-001
  7.8235213e-003 -1.3253383e+000 -7.0422499e-001
  9.6914399e-003 -1.1212513e+000 -6.4084253e-001
 -6.2214223e-002 -1.1448628e+000 -6.7077958e-001
  6.9456611e-002 -1.5824923e+000 -6.9674053e-001
  1.5630366e-001 -1.7952287e+000 -7.0656364e-001
 -1.5522132e-002 -1.5567769e+000 -6.4201185e-001
  2.4398998e-002 -1.4768254e+000 -5.9336445e-001
  1.1404734e-001 -1.8309965e+000 -6.5089950e-001
  8.1830152e-002 -2.1402825e+000 -6.6048874e-001
  8.2763915e-002 -2.0117057e+000 -6.0622779e-001
  3.3037094e-002 -1.7730201e+000 -5.5173298e-001
  5.1480489e-002 -1.9988478e+000 -5.5524135e-001
  1.7708147e-001 -2.4018783e+000 -6.0459074e-001
  1.1241326e-001 -2.3237972e+000 -5.6038676e-001
  5.7225535e-003 -2.0703837e+000 -4.6987403e-001
  6.7822525e-002 -2.1823625e+000 -4.7010789e-001
  1.1871655e-001 -2.5465860e+000 -5.2974812e-001
  1.1358046e-001 -2.5708988e+000 -4.8601188e-001
  6.1519230e-002 -2.2845227e+000 -3.8754734e-001
  3.8406625e-002 -2.2910683e+000 -3.9713659e-001
  9.9339392e-002 -2.5601452e+000 -4.3619514e-001
  1.4999998e-001 -2.6922287e+000 -4.3502543e-001
  1.2548712e-001 -2.4876742e+000 -3.7632105e-001
  4.2842393e-002 -2.2929388e+000 -3.5246488e-001
  1.1171293e-001 -2.5206369e+000 -4.3736447e-001
  1.6891025e-001 -2.7488025e+000 -4.6566407e-001
  7.2958616e-002 -2.5346636e+000 -4.2333140e-001
  7.0624207e-002 -2.2690935e+000 -4.2777523e-001
  8.8366888e-002 -2.3595649e+000 -4.8063259e-001
  1.7544699e-001 -2.6244338e+000 -5.5383816e-001
  2.1326754e-001 -2.5395729e+000 -5.8494453e-001
  6.2686434e-002 -2.1720764e+000 -5.4261186e-001
  7.2491734e-002 -2.1377112e+000 -5.8892062e-001
  1.8758709e-001 -2.3721891e+000 -7.0562818e-001
  1.8034964e-001 -2.4042163e+000 -7.2387120e-001
  7.5059975e-002 -2.0872155e+000 -7.0609591e-001
  7.7160943e-002 -1.8571794e+000 -7.1568515e-001
  1.7404635e-001 -2.0287712e+000 -8.1040784e-001
  1.6680929e-001 -2.1720764e+000 -8.8641978e-001
  8.1830152e-002 -1.9102468e+000 -8.4315127e-001
 -4.0969537e-002 -1.5574782e+000 -8.3917556e-001
  2.5566594e-002 -1.6196626e+000 -9.0372695e-001
  1.5303510e-001 -1.8508675e+000 -9.5331021e-001
  5.1480489e-002 -1.6869901e+000 -9.3226081e-001
 -3.3031764e-002 -1.2675953e+000 -8.9834767e-001
  3.0235803e-002 -1.2128916e+000 -9.2524448e-001
  1.3015594e-001 -1.4550839e+000 -9.5564925e-001
  1.1894999e-001 -1.3798079e+000 -9.4021300e-001
  1.8329144e-002 -9.6485490e-001 -8.6186202e-001
  5.7783784e-002 -7.7736632e-001 -8.1906162e-001
  2.4291689e-001 -1.0221300e+000 -8.6630584e-001
  2.6766358e-001 -1.0880549e+000 -8.3800585e-001
  1.2221856e-001 -7.1237644e-001 -7.2153216e-001
  7.0857648e-002 -4.1010356e-001 -6.5066563e-001
  1.9178942e-001 -5.2816047e-001 -6.4715727e-001
  2.9544500e-001 -7.0957095e-001 -6.1324452e-001
  1.9272318e-001 -4.6013174e-001 -4.9045570e-001
  1.3272418e-001 -8.1413652e-002 -3.8123260e-001
  2.0999898e-001 -1.3635114e-001 -3.4100472e-001
  2.9241027e-001 -4.0566176e-001 -3.0545453e-001
  2.1933740e-001 -2.5721354e-001 -2.0044100e-001
  2.7901003e-002  1.5914197e-001 -6.0812732e-002
  1.1007846e-001  2.1291066e-001  2.1046222e-002
  2.7396687e-001 -9.8245811e-002  4.5837852e-002
  2.1793675e-001 -1.6113147e-001  1.0851872e-001
  7.1324529e-002  2.0402707e-001  2.5586491e-001
 -1.8090374e-002  3.8590507e-001  3.6742705e-001
  8.9067211e-002  1.0654245e-001  3.9175095e-001
  1.5957184e-001 -1.1040202e-001  4.2566409e-001
  3.3877531e-003  1.6709053e-001  5.4728319e-001
 -4.1436419e-002  4.5346667e-001  6.7591864e-001
  1.1894999e-001  2.3184665e-001  6.8199991e-001
  2.1723643e-001 -7.2997965e-002  7.0304931e-001
  1.1241326e-001  9.0879473e-002  7.9636842e-001
  1.6461617e-002  3.9642536e-001  8.9576880e-001
  1.6400760e-001  2.6948446e-001  9.4932816e-001
  3.3023043e-001 -2.9982927e-002  9.3623055e-001
  2.8167120e-001  3.4468484e-003  1.0052262e+000
  1.8665333e-001  2.9403103e-001  1.1050943e+000
  2.7069831e-001  3.3143548e-001  1.1521046e+000
  3.8929567e-001  3.6643258e-002  1.1600564e+000
  3.8135790e-001 -1.1858434e-001  1.1867194e+000
  2.8820794e-001  1.3412788e-001  1.2856516e+000
  2.4548473e-001  3.4359169e-001  1.3513727e+000
  4.0073505e-001  4.2020088e-002  1.3569863e+000
  4.4602611e-001 -1.9619795e-001  1.3574540e+000
  2.6112684e-001  1.1862928e-002  1.4372082e+000
  2.1887052e-001  2.4260031e-001  1.5307611e+000
  3.5801224e-001  8.7372708e-002  1.5239787e+000
  4.2921719e-001 -2.5417469e-001  1.5295918e+000
  3.2579466e-001 -2.0578282e-001  1.5854898e+000
  2.3988176e-001  8.5970159e-002  1.6563563e+000
  2.8587314e-001  9.6256304e-002  1.6970520e+000
  3.8626055e-001 -2.6469459e-001  1.6696878e+000
  3.9279767e-001 -4.1454536e-001  1.6930759e+000
  2.3521255e-001 -9.3102739e-002  1.7632408e+000
  2.2797549e-001  9.5253459e-003  1.7800806e+000
  3.8999599e-001 -3.0139737e-001  1.7637085e+000
  3.4330429e-001 -5.0548436e-001  1.7531838e+000
  1.4789901e-001 -3.0513790e-001  1.7856938e+000
  1.0494236e-001 -4.0269072e-002  1.8198408e+000
  2.1069970e-001 -2.4692740e-001  1.8025332e+000
  3.2462746e-001 -6.0998212e-001  1.7606683e+000
  2.2260596e-001 -4.9753579e-001  1.7424253e+000
  9.6914399e-003 -1.5131284e-001  1.7697898e+000
  1.2642088e-001 -1.9292533e-001  1.7536515e+000
  2.3988176e-001 -5.3914789e-001  1.6961165e+000
  7.4359261e-002 -5.4171962e-001  1.6802125e+000
 -1.5148968e-003 -2.0648409e-001  1.6750671e+000
  9.2102333e-002 -1.4710480e-001  1.6530818e+000
  2.3871456e-001 -4.5452115e-001  1.5892320e+000
  1.8525229e-001 -5.7304558e-001  1.5279548e+000
 -1.9024137e-002 -2.6072031e-001  1.5104133e+000
 -9.9191598e-003 -6.6919860e-002  1.4893639e+000
  8.4398001e-002 -2.9040995e-001  1.4545153e+000
  1.0587652e-001 -4.8491207e-001  1.3857536e+000
  3.8640066e-002 -2.6773345e-001  1.3340656e+000
 -3.6158646e-003  5.5510643e-003  1.3357026e+000
  1.3459171e-001 -1.3307853e-001  1.2765305e+000
  1.7054473e-001 -4.1173987e-001  1.1689441e+000
