**************************************************************************************
            UNIVERSIDAD AUTONOMA METROPOLITANA - AZCAPOTZALCO
                        Departamento de Materiales
                           Area de Estructuras
     AV. SAN PABLO 180,COL.REYNOSA, AZCAPOTZALCO, C.P.02200 CIUDAD DE MEXICO.
**************************************************************************************
ARCHIVO ESTANDAR DE ACELERACION:
VERSION DEL FORMATO                    : 2.0
NOMBRE DEL ARCHIVO                     : RIML201802161
FECHA Y HORA DE CREACION               : MON JUL 18 12:30:07 2018
REF. CATALOGO ACELEROGRAMAS, SMIS 1995 : REGISTRO NO.      /PAG.    


================================================================================
DATOS DE LA ESTACION:
NOMBRE DE LA ESTACION                  : UAM-LERMA.
CLAVE DE LA ESTACION                   : RIML
LOCALIZACION DE LA ESTACION            : AV. DE LAS GARZAS 10, EL PANTEON, C.P.52005,
                                       : LERMA DE VILLADA, ESTADO DE MEXICO. 
                                       :
                                       : 
                                       : 
COORDENADAS DE LA ESTACION             : 19.291481 LAT. N
                                       : 99.502060 LONG. W
ALTITUD (msnm)                         : 2570
TIPO DE SUELO                          : DEPOSITOS LACUSTRES
                                       : 
                                       : 
INSTITUCION RESPONSABLE                : UNIVERSIDAD AUTONOMA METROPOLITANA
                                       : 

================================================================================
DATOS DEL ACELEROGRAFO: 
MODELO DEL ACELEROGRAFO                : BASALT KINEMETRICS
NUMERO DE SERIE DEL ACELEROGRAFO       : 978
NUMERO DE CANALES                      : 3
ORIENTACION C1-C6 (rumbo;orientacion)  : /V/N00E/N90E
ORIENTACION C7-C12 (rumbo;orientacion) : 
VEL. DE MUESTREO, C1-C6 (muestras/s)   : /250/250/250
VEL. DE MUESTREO, C7-C12 (muestras/s)  : 
ESC. COMPLETA DE SENSORES, C1-C6, (g)  : /2/2/2
ESC. COMPLETA DE SENSORES, C7-C12 (g)  : 
FREC. NAT. DE SENSORES, C1-C6, (Hz)    : /210/212/212
FREC. NAT. DE SENSORES, C7-C12 (Hz)    : 
AMORTIGUAMIENTO DE SENSORES, C1-C6     : /0.7/0.7/0.7
AMORTIGUAMIENTO DE SENSORES, C7-C12    : 
INTERVALO DE MUESTREO, C1-C6 (s)       : /0.004/0.004/0.004
INTERVALO DE MUESTREO, C7-C12 (s)      : 
UMBRAL DE DISPARO, C1-C6 (Gal)         : /2/2/2
UMBRAL DE DISPARO, C7-C12 (Gal)        : 
MEMORIA DE PREEVENTO (s)               : 30
TIEMPO DE POSEVENTO (s)                : 60


================================================================================
DATOS DEL SISMO:
FECHA DEL SISMO [GMT]                  : 2018/02/16
HORA EPICENTRO (GMT)                   : 23:39:39
MAGNITUD(ES)                           : /M=7.2
COORDENADAS DEL EPICENTRO              : 16.218 LAT. N
                                       : 98.0135 LONG. W
PROFUNDIDAD FOCAL (Km)                 : 16.0
FUENTE DE LOS DATOS EPICENTRALES       : SSN
                                       : INSTITUTO DE GEOFISICA, UNAM

================================================================================
DATOS DE ESTE REGISTRO:
HORA DE LA PRIMERA MUESTRA (GMT)       : 23:40:28.00
EXACTITUD DEL TIEMPO (s)               : 
DURACION DEL REGISTRO (s), C1-C6       : /280.00/280.00/280.00
DURACION DEL REGISTRO (s), C7-C12      : 
NUM. TOTAL DE MUESTRAS, C1-C6          : /70000/70000/70000
NUM. TOTAL DE MUESTRAS, C7-C12         : 
ACEL. MAX.(Gal), C1-C6                 : /-12.695/-30.543/-30.398
ACEL. MAX., C1-C6, EN LA MUESTRA       : /17625/19256/17462
ACEL. MAX.(Gal), C7-C12                : 
ACEL. MAX., C7-C12,EN LA MUESTRA       : 
UNIDADES DE LOS DATOS                  : Gal (cm/s/s)
FACTOR DE DECIMACION                   : 1
FORMATO DATOS (FORTRAN,16 campos/dato) : 3E16.7


================================================================================
CALIDAD DEL ACELEROGRAMA:
REGISTRO DIGITAL COMPLETO CON TIEMPO ABSOLUTO CORRECTO


================================================================================
COMENTARIOS:














================================================================================
DATOS DE ACELERACION:
---------+---------+---------+---------+---------+---------+---------+---------+
   CANAL-1           CANAL-2        CANAL-3
         V             N00E            N90E
---------+---------+---------+---------+---------+---------+---------+---------+  
[...]
 -3.4707814e+000  7.7944256e+000  2.6146924e+001
 -3.5193406e+000  8.1191412e+000  2.6583350e+001
 -3.6335022e+000  8.4819622e+000  2.6948207e+001
 -3.5359165e+000  8.8707323e+000  2.7386036e+001
 -3.5494568e+000  9.3216871e+000  2.7732417e+001
 -3.5805072e+000  9.4965516e+000  2.8107331e+001
 -3.6878982e+000  9.7777847e+000  2.8395475e+001
 -3.6608171e+000  1.0137567e+001  2.8621640e+001
 -3.4980959e+000  1.0444048e+001  2.8909082e+001
 -3.4707814e+000  1.0800557e+001  2.9053154e+001
 -3.3391105e+000  1.0970746e+001  2.9225994e+001
 -3.1700860e+000  1.1240056e+001  2.9359073e+001
 -2.9975599e+000  1.1670438e+001  2.9436021e+001
 -2.8350721e+000  1.1905618e+001  2.9534953e+001
 -2.6613788e+000  1.2101522e+001  2.9536824e+001
 -2.4916540e+000  1.2382054e+001  2.9544308e+001
 -2.3151590e+000  1.2714250e+001  2.9504783e+001
 -2.0441130e+000  1.3065616e+001  2.9451691e+001
 -1.9462934e+000  1.3276015e+001  2.9345040e+001
 -1.8171908e+000  1.3456490e+001  2.9165184e+001
 -1.6434971e+000  1.3773024e+001  2.9011289e+001
 -1.5204644e+000  1.4037659e+001  2.8811787e+001
 -1.4088706e+000  1.4199432e+001  2.8583284e+001
 -1.4319832e+000  1.4394869e+001  2.8279001e+001
 -1.2129989e+000  1.4565760e+001  2.7966768e+001
 -1.0923005e+000  1.4846525e+001  2.7658510e+001
 -1.1238174e+000  1.5062534e+001  2.7285700e+001
 -9.9144586e-001  1.5121680e+001  2.6910084e+001
 -1.0206283e+000  1.5340495e+001  2.6501958e+001
 -9.2514356e-001  1.5566556e+001  2.6068807e+001
 -8.6607832e-001  1.5820438e+001  2.5639164e+001
 -9.2607733e-001  1.6029433e+001  2.5170463e+001
 -7.5378465e-001  1.6195415e+001  2.4637677e+001
 -6.8608170e-001  1.6576938e+001  2.4132022e+001
 -6.8024529e-001  1.6918719e+001  2.3579590e+001
 -5.5627840e-001  1.7127014e+001  2.2949977e+001
 -5.2079264e-001  1.7380194e+001  2.2314751e+001
 -4.5822540e-001  1.7705143e+001  2.1631111e+001
 -2.8149695e-001  1.8103732e+001  2.0996586e+001
 -2.3270389e-001  1.8432421e+001  2.0282307e+001
 -1.8577875e-001  1.8679289e+001  1.9491549e+001
 -1.8388727e-002  1.9008213e+001  1.8813522e+001
  1.0674537e-001  1.9402126e+001  1.8100881e+001
  1.8472089e-001  1.9754895e+001  1.7381456e+001
  2.9491320e-001  1.9985164e+001  1.6660161e+001
  4.0090397e-001  2.0333258e+001  1.5907292e+001
  5.4308043e-001  2.0720625e+001  1.5264348e+001
  7.7794035e-001  2.1040665e+001  1.4606435e+001
  8.4704394e-001  2.1372160e+001  1.3910867e+001
  9.7101084e-001  2.1640535e+001  1.3277044e+001
  1.1661827e+000  2.2019721e+001  1.2674093e+001
  1.2943515e+000  2.2372255e+001  1.2064828e+001
  1.4566058e+000  2.2764299e+001  1.1436150e+001
  1.4120151e+000  2.3094157e+001  1.0840216e+001
  1.5581604e+000  2.3344531e+001  1.0272582e+001
  1.6471085e+000  2.3858138e+001  9.7091580e+000
  1.5952803e+000  2.4128384e+001  9.1345075e+000
  1.6987028e+000  2.4338315e+001  8.5879231e+000
  1.6270310e+000  2.4698798e+001  8.0621538e+000
  1.7318538e+000  2.4844675e+001  7.6065499e+000
  1.7173793e+000  2.5213106e+001  7.1518811e+000
  1.6265637e+000  2.5460909e+001  6.6518393e+000
  1.7850826e+000  2.5489196e+001  6.2331888e+000
  1.8474160e+000  2.5829341e+001  5.8500884e+000
  1.8072610e+000  2.6022440e+001  5.5147000e+000
  1.8712289e+000  2.6125302e+001  5.0904363e+000
  1.9653130e+000  2.6271646e+001  4.7693149e+000
  1.9190882e+000  2.6439497e+001  4.5080675e+000
  2.0948829e+000  2.6696184e+001  4.1888173e+000
  2.1170614e+000  2.6755095e+001  3.9832341e+000
  2.1292011e+000  2.6812137e+001  3.6609433e+000
  2.3586915e+000  2.6954974e+001  3.5044756e+000
  2.3717653e+000  2.7113709e+001  3.3646135e+000
  2.4261614e+000  2.7206518e+001  3.1103828e+000
  2.5489607e+000  2.7127267e+001  2.9969494e+000
  2.6862345e+000  2.7163971e+001  2.8491355e+000
  2.6649898e+000  2.7278287e+001  2.7808415e+000
  2.6799312e+000  2.7286002e+001  2.7083379e+000
  2.7980616e+000  2.7211895e+001  2.5680080e+000
  2.8214073e+000  2.7153451e+001  2.5090694e+000
  2.8793053e+000  2.7237376e+001  2.4847459e+000
  2.9500434e+000  2.7199037e+001  2.4351626e+000
  3.0614033e+000  2.7036328e+001  2.3790308e+000
  3.0452947e+000  2.6944688e+001  2.3310845e+000
  3.0964222e+000  2.6902609e+001  2.3189228e+000
  3.1877046e+000  2.6877361e+001  2.2981073e+000
  3.0936205e+000  2.6702262e+001  2.2372973e+000
  3.1732301e+000  2.6535813e+001  2.1668989e+000
  3.2449019e+000  2.6427341e+001  2.1294774e+000
  3.2040467e+000  2.6325414e+001  2.1580113e+000
  3.2024126e+000  2.6220916e+001  2.0548687e+000
  3.1321414e+000  2.5974750e+001  1.9697352e+000
  3.0922199e+000  2.5834016e+001  1.9903169e+000
  2.9894980e+000  2.5764117e+001  1.9673966e+000
  2.8790719e+000  2.5591356e+001  1.9575734e+000
  2.8127692e+000  2.5413219e+001  1.8986348e+000
  2.6941722e+000  2.5211002e+001  1.8761822e+000
  2.6430448e+000  2.5114920e+001  1.8803922e+000
  2.5088057e+000  2.5068399e+001  1.8387607e+000
  2.3614931e+000  2.4836960e+001  1.8219213e+000
  2.3341782e+000  2.4584949e+001  1.8436723e+000
  2.2828173e+000  2.4497517e+001  1.7938551e+000
  2.2393938e+000  2.4411020e+001  1.7255615e+000
  2.1924686e+000  2.4235921e+001  1.6778492e+000
  2.0783070e+000  2.4077654e+001  1.4951867e+000
  1.9790872e+000  2.3933180e+001  1.4219815e+000
  1.8887386e+000  2.3820266e+001  1.3637445e+000
  1.7899852e+000  2.3610335e+001  1.2283261e+000
  1.7143445e+000  2.3309699e+001  1.1034325e+000
  1.6246962e+000  2.3192811e+001  9.3480308e-001
  1.5499892e+000  2.3152134e+001  9.1118077e-001
  1.4397965e+000  2.2884459e+001  8.1669194e-001
  1.3839999e+000  2.2458285e+001  6.9858120e-001
  1.3256353e+000  2.2221703e+001  6.1859316e-001
  1.1932638e+000  2.2079567e+001  5.1942665e-001
  1.2656363e+000  2.1824517e+001  4.7054537e-001
  1.3214330e+000  2.1502607e+001  3.1010157e-001
  1.2980870e+000  2.1203373e+001  2.8905217e-001
  1.3258688e+000  2.1046743e+001  2.5046134e-001
  1.2070380e+000  2.0884502e+001  8.5807586e-002
  1.0494532e+000  2.0594853e+001 -5.6393192e-002
  9.5536912e-001  2.0267566e+001 -2.8279196e-001
  9.9622441e-001  2.0046648e+001 -4.0862103e-001
  1.0994135e+000  1.9897498e+001 -5.5199113e-001
  1.1295297e+000  1.9630993e+001 -5.3047400e-001
  1.2140416e+000  1.9403996e+001 -3.1880989e-001
  1.2768423e+000  1.9263029e+001 -3.4921466e-001
  1.2980870e+000  1.9017564e+001 -3.7798239e-001
  1.2889820e+000  1.8708511e+001 -3.5880391e-001
  1.2245472e+000  1.8306182e+001 -4.4089672e-001
  1.2152092e+000  1.7948972e+001 -5.3772459e-001
  1.1790227e+000  1.7722443e+001 -6.2075287e-001
  1.1304635e+000  1.7381129e+001 -6.6448912e-001
  1.0664956e+000  1.6966176e+001 -7.2646800e-001
  9.9739161e-001  1.6548417e+001 -8.2189228e-001
  1.0424492e+000  1.6215286e+001 -8.8527474e-001
  1.0468850e+000  1.5898285e+001 -9.3298669e-001
  1.0410486e+000  1.5396367e+001 -1.0150795e+000
  1.1152887e+000  1.4915957e+001 -1.1069958e+000
  1.1920966e+000  1.4453780e+001 -1.1542400e+000
  1.2390217e+000  1.3972435e+001 -1.1556432e+000
  1.3165303e+000  1.3447139e+001 -1.1474576e+000
  1.3438449e+000  1.2790695e+001 -1.1549416e+000
  1.2931843e+000  1.2262828e+001 -1.2239372e+000
  1.3625217e+000  1.1753429e+001 -1.2926990e+000
  1.3242343e+000  1.1185586e+001 -1.3104739e+000
  1.2824452e+000  1.0534519e+001 -1.3829775e+000
  1.3646227e+000  9.8168254e+000 -1.4973464e+000
  1.3566853e+000  9.2732953e+000 -1.5759312e+000
  1.4124820e+000  8.6402286e+000 -1.6531125e+000
  1.4589402e+000  7.9215999e+000 -1.7677153e+000
  1.4976946e+000  7.1929191e+000 -1.9082790e+000
  1.5618959e+000  6.4850440e+000 -2.0649805e+000
  1.5859419e+000  5.8688095e+000 -2.1788817e+000
  1.6286651e+000  5.0749047e+000 -2.3112594e+000
  1.6816601e+000  4.2555183e+000 -2.5402307e+000
  1.7967554e+000  3.5174860e+000 -2.7193852e+000
  1.8749644e+000  2.8152219e+000 -2.8847406e+000
  1.8796336e+000  2.0806964e+000 -3.0971063e+000
  1.8688945e+000  1.1273563e+000 -3.2762605e+000
  1.9160531e+000  3.0563194e-001 -3.5379756e+000
  2.0605644e+000 -4.2234756e-001 -3.8282245e+000
  2.0794746e+000 -1.2122781e+000 -3.9697237e+000
  2.0330160e+000 -2.0162353e+000 -4.1979938e+000
  2.1065557e+000 -3.0090836e+000 -4.5581734e+000
  2.1175282e+000 -3.6924121e+000 -4.8182515e+000
  2.0276465e+000 -4.3460511e+000 -5.0881522e+000
  1.9636786e+000 -5.1829705e+000 -5.4789709e+000
  1.9415001e+000 -5.9581731e+000 -5.8548210e+000
  1.9608773e+000 -6.7041535e+000 -6.2323082e+000
  1.8205684e+000 -7.0340122e+000 -6.7344548e+000
  1.6886641e+000 -7.8019679e+000 -7.1018850e+000
  1.8147319e+000 -8.7934137e+000 -7.5659088e+000
  1.8102962e+000 -9.3318004e+000 -8.2495490e+000
  1.6347349e+000 -9.9517758e+000 -8.6239959e+000
  1.4575396e+000 -1.0560296e+001 -8.9799656e+000
  1.4257889e+000 -1.1495635e+001 -9.3897289e+000
  1.4442323e+000 -1.2350088e+001 -9.8116535e+000
  1.1640813e+000 -1.2615658e+001 -1.0379989e+001
  1.0263406e+000 -1.3345274e+001 -1.0613873e+001
  1.0650949e+000 -1.4189441e+001 -1.0968907e+001
  8.2906782e-001 -1.4575639e+001 -1.1588229e+001
  6.8105456e-001 -1.5367206e+001 -1.1759899e+001
  6.4276752e-001 -1.5911672e+001 -1.2109321e+001
  3.6868639e-001 -1.6417564e+001 -1.2521422e+001
  2.3164603e-001 -1.7425140e+001 -1.2655437e+001
  3.0168377e-001 -1.7961657e+001 -1.3104492e+001
  9.3904948e-002 -1.8457263e+001 -1.3353812e+001
 -6.8582430e-002 -1.9135916e+001 -1.3498586e+001
  1.7097027e-002 -1.9809893e+001 -1.3940858e+001
 -1.2764767e-001 -2.0371190e+001 -1.4314370e+001
 -1.9745158e-001 -2.0849964e+001 -1.4553164e+001
 -2.0422215e-001 -2.1521136e+001 -1.4726003e+001
 -3.2118503e-001 -2.2101136e+001 -1.5050399e+001
 -2.3410493e-001 -2.2698201e+001 -1.5421104e+001
 -3.0997909e-001 -2.3248978e+001 -1.5662471e+001
 -3.7954995e-001 -2.3683802e+001 -1.5936816e+001
 -3.9892711e-001 -2.4311492e+001 -1.6175844e+001
 -5.6094761e-001 -2.4878633e+001 -1.6504684e+001
 -4.0686449e-001 -2.5253845e+001 -1.6924036e+001
 -4.5589099e-001 -2.5643316e+001 -1.7100150e+001
 -6.7300784e-001 -2.6169313e+001 -1.7398117e+001
 -4.3744760e-001 -2.6805886e+001 -1.7819340e+001
 -4.1900459e-001 -2.7157486e+001 -1.8124557e+001
 -5.5300983e-001 -2.7481734e+001 -1.8505553e+001
 -4.8063768e-001 -2.7968690e+001 -1.8826207e+001
 -5.0935326e-001 -2.8432970e+001 -1.9216090e+001
 -4.0733137e-001 -2.8908004e+001 -1.9656491e+001
 -3.3752707e-001 -2.9125883e+001 -1.9950950e+001
 -4.1456882e-001 -2.9406649e+001 -2.0212197e+001
 -3.5480326e-001 -2.9767833e+001 -2.0508761e+001
 -2.4857944e-001 -2.9974258e+001 -2.0878062e+001
 -2.1659530e-001 -3.0101198e+001 -2.1091130e+001
 -2.6959069e-001 -3.0062859e+001 -2.1235669e+001
 -2.4531088e-001 -3.0267881e+001 -2.1453882e+001
 -1.5402845e-001 -3.0498852e+001 -2.1642392e+001
 -3.4263881e-002 -3.0424511e+001 -2.1966320e+001
 -3.6364848e-002 -3.0433862e+001 -2.2158104e+001
 -8.2123176e-002 -3.0449759e+001 -2.2369768e+001
  9.1596461e-003 -3.0518489e+001 -2.2742578e+001
  8.9936454e-002 -3.0552855e+001 -2.2935064e+001
  1.5110266e-001 -3.0359521e+001 -2.3120299e+001
  5.8419195e-002 -3.0326559e+001 -2.3208473e+001
  1.7725000e-001 -3.0369106e+001 -2.3391603e+001
  2.3281323e-001 -3.0359755e+001 -2.3494044e+001
  3.2386222e-001 -3.0176942e+001 -2.3617534e+001
  7.5973040e-001 -2.9992025e+001 -2.3839255e+001
  4.6207018e-001 -3.0060288e+001 -2.3599993e+001
  5.6175727e-001 -2.9955556e+001 -2.3868023e+001
  1.1038489e+000 -2.9853863e+001 -2.4013498e+001
  9.7311180e-001 -2.9673388e+001 -2.3738218e+001
  1.1449380e+000 -2.9581046e+001 -2.3926961e+001
  1.3592532e+000 -2.9710090e+001 -2.3892814e+001
  1.5999495e+000 -2.9530784e+001 -2.4009054e+001
  1.8198680e+000 -2.9348204e+001 -2.3970463e+001
  1.7372233e+000 -2.9117234e+001 -2.3841360e+001
  2.0855445e+000 -2.9101570e+001 -2.4010224e+001
  2.2970584e+000 -2.9048971e+001 -2.3805342e+001
  2.2604054e+000 -2.8545884e+001 -2.3740089e+001
  2.4726196e+000 -2.8392527e+001 -2.3612155e+001
  2.5179107e+000 -2.8218597e+001 -2.3351609e+001
  2.5979872e+000 -2.7929650e+001 -2.3218530e+001
  2.8463874e+000 -2.7640468e+001 -2.2920563e+001
  2.9677861e+000 -2.7239074e+001 -2.2598740e+001
  3.0891847e+000 -2.7093197e+001 -2.2332113e+001
  3.2864579e+000 -2.6909215e+001 -2.2064083e+001
  3.4484784e+000 -2.6678478e+001 -2.1683789e+001
  3.5764138e+000 -2.6404960e+001 -2.1312383e+001
  3.6693307e+000 -2.6086322e+001 -2.0882974e+001
  3.7578115e+000 -2.5854884e+001 -2.0530044e+001
  3.9392095e+000 -2.5535311e+001 -2.0205649e+001
  4.1434860e+000 -2.5134618e+001 -1.9738117e+001
  4.2186598e+000 -2.4671975e+001 -1.9399454e+001
  4.0914247e+000 -2.4217514e+001 -1.9020096e+001
  4.2357025e+000 -2.3809808e+001 -1.8637931e+001
  4.2907985e+000 -2.3331034e+001 -1.8149115e+001
  4.1761704e+000 -2.2900417e+001 -1.7615160e+001
  4.4222363e+000 -2.2572897e+001 -1.7330993e+001
  4.2833280e+000 -2.2085005e+001 -1.6947658e+001
  4.3463621e+000 -2.1637557e+001 -1.6369500e+001
  4.4658929e+000 -2.1199928e+001 -1.5873200e+001
  4.3174131e+000 -2.0776091e+001 -1.5478639e+001
  4.5324290e+000 -2.0474987e+001 -1.5035431e+001
  4.4107965e+000 -1.9950626e+001 -1.4601110e+001
  4.3601359e+000 -1.9491723e+001 -1.4119311e+001
  4.4012246e+000 -1.9100148e+001 -1.3633536e+001
  4.3363234e+000 -1.8715118e+001 -1.3212781e+001
  4.4021588e+000 -1.8328920e+001 -1.2749224e+001
  4.3500972e+000 -1.7767623e+001 -1.2274676e+001
  4.3073744e+000 -1.7306382e+001 -1.1828193e+001
  4.2109558e+000 -1.6848180e+001 -1.1389896e+001
  4.2228621e+000 -1.6367535e+001 -1.0871845e+001
  4.2032515e+000 -1.5838967e+001 -1.0383030e+001
  4.0965608e+000 -1.5282112e+001 -9.9145623e+000
  4.1016969e+000 -1.4910875e+001 -9.4531109e+000
  4.0550052e+000 -1.4452673e+001 -9.0742206e+000
  4.0314257e+000 -1.3873843e+001 -8.5989704e+000
  3.9499486e+000 -1.3322598e+001 -8.0722657e+000
  3.8152426e+000 -1.2846395e+001 -7.6882299e+000
  3.8098731e+000 -1.2517705e+001 -7.3095730e+000
  3.7979664e+000 -1.2122390e+001 -6.8651954e+000
  3.7038827e+000 -1.1603406e+001 -6.4334472e+000
  3.5084774e+000 -1.1126502e+001 -5.9771417e+000
  3.3896466e+000 -1.0907220e+001 -5.6471326e+000
  3.3644331e+000 -1.0678119e+001 -5.3178255e+000
  3.2565752e+000 -1.0261529e+001 -4.9113367e+000
  3.2182877e+000 -9.9891798e+000 -4.5934897e+000
  3.0156454e+000 -9.6242550e+000 -4.2924822e+000
  2.9126897e+000 -9.4842229e+000 -4.0324046e+000
  2.9575139e+000 -9.4720663e+000 -3.8200385e+000
  2.7623421e+000 -9.0884393e+000 -3.6196010e+000
  2.6661570e+000 -8.8932359e+000 -3.3366023e+000
  2.4560437e+000 -8.8310515e+000 -3.1179218e+000
  2.3213382e+000 -8.8572344e+000 -2.9595832e+000
  2.2513004e+000 -8.8048686e+000 -2.6836012e+000
  1.9937948e+000 -8.5605721e+000 -2.4469116e+000
  1.9249246e+000 -8.5839499e+000 -2.2174722e+000
  1.7393247e+000 -8.5666502e+000 -2.0296642e+000
  1.5296783e+000 -8.3899153e+000 -1.8149595e+000
  1.3952058e+000 -8.1673602e+000 -1.5403810e+000
  1.1213585e+000 -7.9707543e+000 -1.4033257e+000
  1.0620598e+000 -8.0083925e+000 -1.2541082e+000
  1.1255608e+000 -8.0025477e+000 -1.0443150e+000
  8.6105157e-001 -7.8096823e+000 -9.1825203e-001
  5.3490922e-001 -7.6163494e+000 -7.7792217e-001
  4.3872414e-001 -7.4019763e+000 -5.5596722e-001
  3.7802481e-001 -7.3757934e+000 -4.6989831e-001
  2.1483711e-001 -7.4192755e+000 -4.4908278e-001
  2.1766236e-002 -7.1366399e+000 -3.1436606e-001
 -1.5052644e-001 -6.7948588e+000 -1.7754457e-001
 -3.5690423e-001 -6.6531903e+000 -8.4693186e-002
 -3.3589298e-001 -6.8362375e+000 -7.1361716e-002
 -4.8787474e-001 -6.8252497e+000 -2.6923874e-002
 -7.9697473e-001 -6.4455970e+000  9.9372920e-002
 -7.7923166e-001 -6.2749401e+000  1.6790080e-001
