**************************************************************************************
            UNIVERSIDAD AUTONOMA METROPOLITANA - AZCAPOTZALCO
                        Departamento de Materiales
                           Area de Estructuras
     AV. SAN PABLO 180,COL.REYNOSA, AZCAPOTZALCO, C.P.02200 CIUDAD DE MEXICO.
**************************************************************************************
ARCHIVO ESTANDAR DE ACELERACION:
VERSION DEL FORMATO                    : 2.0
NOMBRE DEL ARCHIVO                     : RIML201802171
FECHA Y HORA DE CREACION               : MON JUL 18 12:30:07 2018
REF. CATALOGO ACELEROGRAMAS, SMIS 1995 : REGISTRO NO.      /PAG.    


================================================================================
DATOS DE LA ESTACION:
NOMBRE DE LA ESTACION                  : UAM-LERMA.
CLAVE DE LA ESTACION                   : RIML
LOCALIZACION DE LA ESTACION            : AV. DE LAS GARZAS 10, EL PANTEON, C.P.52005,
                                       : LERMA DE VILLADA, ESTADO DE MEXICO. 
                                       :
                                       : 
                                       : 
COORDENADAS DE LA ESTACION             : 19.291481 LAT. N
                                       : 99.502060 LONG. W
ALTITUD (msnm)                         : 2570
TIPO DE SUELO                          : DEPOSITOS LACUSTRES
                                       : 
                                       : 
INSTITUCION RESPONSABLE                : UNIVERSIDAD AUTONOMA METROPOLITANA
                                       : 

================================================================================
DATOS DEL ACELEROGRAFO: 
MODELO DEL ACELEROGRAFO                : BASALT KINEMETRICS
NUMERO DE SERIE DEL ACELEROGRAFO       : 978
NUMERO DE CANALES                      : 3
ORIENTACION C1-C6 (rumbo;orientacion)  : /V/N00E/N90E
ORIENTACION C7-C12 (rumbo;orientacion) : 
VEL. DE MUESTREO, C1-C6 (muestras/s)   : /250/250/250
VEL. DE MUESTREO, C7-C12 (muestras/s)  : 
ESC. COMPLETA DE SENSORES, C1-C6, (g)  : /2/2/2
ESC. COMPLETA DE SENSORES, C7-C12 (g)  : 
FREC. NAT. DE SENSORES, C1-C6, (Hz)    : /210/212/212
FREC. NAT. DE SENSORES, C7-C12 (Hz)    : 
AMORTIGUAMIENTO DE SENSORES, C1-C6     : /0.7/0.7/0.7
AMORTIGUAMIENTO DE SENSORES, C7-C12    : 
INTERVALO DE MUESTREO, C1-C6 (s)       : /0.004/0.004/0.004
INTERVALO DE MUESTREO, C7-C12 (s)      : 
UMBRAL DE DISPARO, C1-C6 (Gal)         : /2/2/2
UMBRAL DE DISPARO, C7-C12 (Gal)        : 
MEMORIA DE PREEVENTO (s)               : 30
TIEMPO DE POSEVENTO (s)                : 60


================================================================================
DATOS DEL SISMO:
FECHA DEL SISMO [GMT]                  : 2018/02/17
HORA EPICENTRO (GMT)                   : 00:36:51
MAGNITUD(ES)                           : /M=5.9
COORDENADAS DEL EPICENTRO              : 15.8438 LAT. N
                                       : 97.9887 LONG. W
PROFUNDIDAD FOCAL (Km)                 : 24.3
FUENTE DE LOS DATOS EPICENTRALES       : SSN
                                       : INSTITUTO DE GEOFISICA, UNAM

================================================================================
DATOS DE ESTE REGISTRO:
HORA DE LA PRIMERA MUESTRA (GMT)       : 00:38:23.00
EXACTITUD DEL TIEMPO (s)               : 
DURACION DEL REGISTRO (s), C1-C6       : /105.00/105.00/105.00
DURACION DEL REGISTRO (s), C7-C12      : 
NUM. TOTAL DE MUESTRAS, C1-C6          : /26250/26250/26250
NUM. TOTAL DE MUESTRAS, C7-C12         : 
ACEL. MAX.(Gal), C1-C6                 : /1.309/-4.021/3.495
ACEL. MAX., C1-C6, EN LA MUESTRA       : /8875/8550/9406
ACEL. MAX.(Gal), C7-C12                : 
ACEL. MAX., C7-C12,EN LA MUESTRA       : 
UNIDADES DE LOS DATOS                  : Gal (cm/s/s)
FACTOR DE DECIMACION                   : 1
FORMATO DATOS (FORTRAN,16 campos/dato) : 3E16.7


================================================================================
CALIDAD DEL ACELEROGRAMA:
REGISTRO DIGITAL COMPLETO CON TIEMPO ABSOLUTO CORRECTO


================================================================================
COMENTARIOS:














================================================================================
DATOS DE ACELERACION:
---------+---------+---------+---------+---------+---------+---------+---------+
   CANAL-1          CANAL-2         CANAL-3
         V           N00E              N90E
---------+---------+---------+---------+---------+---------+---------+---------+ 
[...]
  7.6956611e-002  8.8352927e-001  1.0945991e+000
  1.2154734e-001  9.0410156e-001  1.0064254e+000
  5.5711925e-002  9.3075195e-001  9.5614053e-001
  4.0537094e-002  1.0572253e+000  9.5543894e-001
  1.1804534e-001  1.1000062e+000  9.2035647e-001
  3.7501971e-002  1.1123966e+000  8.6586166e-001
  3.2599321e-002  1.1607881e+000  7.5827522e-001
  1.1664469e-001  1.1829971e+000  7.2202344e-001
  6.0614575e-002  1.2664550e+000  7.4471028e-001
 -3.7438424e-002  1.3445365e+000  6.4180153e-001
 -4.6543401e-002  1.3309774e+000  5.4824856e-001
  2.2560580e-002  1.3239642e+000  5.0264139e-001
 -3.1819196e-004  1.4223839e+000  4.7784976e-001
 -7.0822818e-002  1.4766201e+000  4.5726809e-001
 -7.2924177e-002  1.4144357e+000  3.1647050e-001
 -8.5997649e-002  1.4359430e+000  2.6080637e-001
 -1.2918774e-001  1.5133229e+000  2.6641951e-001
 -1.7004302e-001  1.5259470e+000  2.0420638e-001
 -2.4054765e-001  1.5359994e+000  1.3731595e-001
 -2.2934170e-001  1.5343627e+000  5.4053415e-002
 -1.5837019e-001  1.5189335e+000  5.7561779e-002
 -2.5011951e-001  1.6091712e+000  4.6335484e-002
 -2.9354303e-001  1.5974825e+000 -2.4063310e-002
 -3.0124697e-001  1.5507273e+000 -8.5808323e-002
 -3.4817250e-001  1.5923394e+000 -1.0381748e-001
 -3.0078009e-001  1.5949108e+000 -4.7451751e-002
 -4.0793767e-001  1.6491470e+000 -9.2825051e-002
 -4.3712013e-001  1.5918719e+000 -1.6392544e-001
 -3.6544830e-001  1.5981838e+000 -1.2814138e-001
 -4.5883209e-001  1.6510174e+000 -1.0498680e-001
 -4.8731384e-001  1.6084699e+000 -9.1187605e-002
 -5.2466751e-001  1.6624724e+000 -1.2346369e-001
 -5.2046518e-001  1.5752739e+000 -1.5269915e-001
 -5.0248867e-001  1.6103404e+000 -6.2654139e-002
 -5.4988108e-001  1.7134356e+000 -4.6048170e-002
 -5.8186483e-001  1.6152493e+000 -4.3007927e-002
 -6.1735058e-001  1.6479782e+000 -3.4588010e-002
 -5.3820786e-001  1.6295097e+000 -1.0497975e-002
 -5.6715688e-001  1.6517187e+000  1.0714504e-001
 -6.5120225e-001  1.7234880e+000  7.8377315e-002
 -6.0544432e-001  1.6297435e+000  8.9604001e-002
 -5.9657278e-001  1.6669142e+000  1.6093826e-001
 -6.1291482e-001  1.7146044e+000  2.2385259e-001
 -6.2622212e-001  1.7232542e+000  3.1226054e-001
 -6.3486022e-001  1.7143706e+000  2.7413744e-001
 -6.0451055e-001  1.6542900e+000  3.2676134e-001
 -5.4544531e-001  1.7370471e+000  4.2031432e-001
 -6.0170887e-001  1.7774904e+000  4.7200236e-001
 -6.5727211e-001  1.7592557e+000  5.2462625e-001
 -5.8700092e-001  1.7445278e+000  5.1854537e-001
 -5.6295455e-001  1.7480345e+000  6.1396966e-001
 -5.3517313e-001  1.8382723e+000  7.1243419e-001
 -5.3213801e-001  1.8233106e+000  7.0892622e-001
 -5.6062015e-001  1.7672043e+000  7.5196048e-001
 -4.6583571e-001  1.7828673e+000  8.1300390e-001
 -4.3875461e-001  1.8445841e+000  8.8293497e-001
 -5.1556253e-001  1.8735725e+000  9.4093814e-001
 -4.6210026e-001  1.8018032e+000  9.2433217e-001
 -4.1470824e-001  1.8244794e+000  9.7742379e-001
 -3.8225722e-001  1.8871316e+000  1.0684043e+000
 -3.5540956e-001  1.8721699e+000  1.1023174e+000
 -4.2311251e-001  1.8728712e+000  1.0796306e+000
 -3.4397018e-001  1.8408436e+000  1.0871150e+000
 -2.8140293e-001  1.8738063e+000  1.1918943e+000
 -3.2319237e-001  1.9376273e+000  1.2115405e+000
 -3.2062413e-001  1.9044309e+000  1.1998465e+000
 -2.9144167e-001  1.8883004e+000  1.2033548e+000
 -1.9058738e-001  1.8789493e+000  1.2286142e+000
 -2.2000328e-001  1.9313151e+000  1.3057955e+000
 -2.4895230e-001  1.9631089e+000  1.2711807e+000
 -1.9198803e-001  1.8941448e+000  1.2325903e+000
 -1.8521785e-001  1.9095740e+000  1.2784313e+000
 -9.5336067e-002  1.9469781e+000  1.3081345e+000
 -1.3479071e-001  1.9743301e+000  1.2980775e+000
 -1.5696916e-001  1.9544591e+000  1.2522361e+000
 -3.2302333e-002  1.9257045e+000  1.2393728e+000
 -7.2457296e-002  1.9949024e+000  1.2852138e+000
 -7.5958909e-002  1.9937336e+000  1.2756245e+000
 -5.4247341e-002  1.9820445e+000  1.2120082e+000
 -6.8021527e-002  1.9733951e+000  1.1759903e+000
  3.3999966e-002  1.9745639e+000  1.1911927e+000
  6.2248661e-002  2.0465669e+000  1.1998465e+000
  9.0202262e-003  2.0227216e+000  1.1184552e+000
  3.2832761e-002  1.9600697e+000  1.0674688e+000
  1.0660595e-001  1.9752652e+000  1.0466533e+000
  1.1010796e-001  2.0325402e+000  1.0340234e+000
  7.9291411e-002  2.0234233e+000  1.0094656e+000
  1.2644999e-001  1.9411337e+000  8.8433815e-001
  1.6263607e-001  1.9359906e+000  8.5416724e-001
  1.9275229e-001  1.9785382e+000  8.7591863e-001
  2.0092350e-001  1.9694208e+000  7.8283299e-001
  1.2108046e-001  1.9366919e+000  7.0097403e-001
  1.8224667e-001  1.8798844e+000  6.5279396e-001
  2.6909333e-001  1.8759101e+000  6.1958281e-001
  2.1189601e-001  1.9163534e+000  6.0531588e-001
  2.1773242e-001  1.8553378e+000  4.9632626e-001
  2.4131191e-001  1.7877766e+000  4.0160396e-001
  2.7679766e-001  1.7924521e+000  4.1446730e-001
  2.6932677e-001  1.8216743e+000  3.7728006e-001
  2.2146787e-001  1.7919846e+000  2.8933983e-001
  2.4551424e-001  1.6947334e+000  2.1332789e-001
  2.5975491e-001  1.6809408e+000  1.9672231e-001
  2.9127217e-001  1.7309686e+000  1.7918089e-001
  2.1983339e-001  1.7082925e+000  1.0784663e-001
  1.9508709e-001  1.6143143e+000  2.8092461e-002
  2.6115595e-001  1.5570392e+000 -1.8684028e-002
  2.1633178e-001  1.5888327e+000  4.0028187e-003
  2.3314069e-001  1.5874301e+000 -6.8267286e-002
  1.9485326e-001  1.5306226e+000 -1.4638401e-001
  1.6473743e-001  1.4976599e+000 -1.5363460e-001
  2.6512444e-001  1.4434237e+000 -1.8333779e-001
  2.0442512e-001  1.4661002e+000 -1.8287006e-001
  1.2574967e-001  1.4457617e+000 -2.6122065e-001
  2.0162383e-001  1.2987164e+000 -3.1080391e-001
  1.9368605e-001  1.3335491e+000 -2.9419833e-001
  1.6286951e-001  1.3637063e+000 -2.9864215e-001
  1.2108046e-001  1.3307436e+000 -3.1735251e-001
  7.4622202e-002  1.2863260e+000 -4.0739752e-001
  1.8738276e-001  1.1586842e+000 -3.7558955e-001
  1.5516557e-001  1.2358303e+000 -3.4682183e-001
  9.3298647e-002  1.2398046e+000 -4.0973656e-001
  1.3065232e-001  1.1095911e+000 -4.1207521e-001
  1.0613907e-001  1.1051493e+000 -4.5815010e-001
  1.6637151e-001  1.0957982e+000 -4.1113975e-001
  1.4279203e-001  1.1509694e+000 -3.9009035e-001
  9.8668178e-002  1.0848108e+000 -4.8153854e-001
  1.3999074e-001  9.6815640e-001 -4.6259392e-001
  1.7874466e-001  9.9737853e-001 -4.3990747e-001
  1.8574867e-001  1.0015866e+000 -4.3218915e-001
  6.4816902e-002  9.8849493e-001 -4.6961065e-001
  7.7656933e-002  8.9942600e-001 -5.0118475e-001
  1.1781190e-001  8.9381541e-001 -4.6236006e-001
  6.3182425e-002  9.5950657e-001 -4.4341544e-001
  8.3960229e-002  9.3823300e-001 -4.5089990e-001
  2.1393376e-002  8.7184057e-001 -5.0188635e-001
  5.1276157e-002  7.9095396e-001 -4.8504691e-001
  9.8668178e-002  8.6739878e-001 -4.6493296e-001
 -3.1368569e-002  8.8119169e-001 -4.7569153e-001
 -6.1951673e-002  8.2064361e-001 -4.8504691e-001
 -4.7243723e-002  8.2064361e-001 -5.1966125e-001
 -2.7866565e-002  7.6921249e-001 -4.4692381e-001
 -4.7710605e-002  8.3279982e-001 -4.2634214e-001
 -1.3689207e-001  8.2555292e-001 -5.1825806e-001
 -1.2241756e-001  7.0048248e-001 -4.9136165e-001
 -1.4786457e-001  7.3110716e-001 -4.3943974e-001
 -2.1136519e-001  7.7365429e-001 -4.5019831e-001
 -2.6646154e-001  7.4466631e-001 -4.4879472e-001
 -3.2529334e-001  7.0959984e-001 -4.7311862e-001
 -2.4848542e-001  6.6401346e-001 -4.3452819e-001
 -2.7159763e-001  6.8294905e-001 -3.7956565e-001
 -3.7151816e-001  7.2900294e-001 -4.1184134e-001
 -3.4723835e-001  6.3689515e-001 -4.2704373e-001
 -4.0747079e-001  5.7260655e-001 -4.0365529e-001
 -4.0770423e-001  6.1234858e-001 -3.4097482e-001
 -3.9906653e-001  5.9762064e-001 -3.3395848e-001
 -5.1136021e-001  5.4899540e-001 -3.6342741e-001
 -4.3245092e-001  4.3841915e-001 -3.4097482e-001
 -4.0443606e-001  4.2088571e-001 -2.9513379e-001
 -5.5828534e-001  5.0130481e-001 -2.6355969e-001
 -5.7859627e-001  4.2976931e-001 -2.9489992e-001
 -5.1766350e-001  2.8529537e-001 -3.0565849e-001
 -5.2046518e-001  2.3246210e-001 -2.6309157e-001
 -5.0995956e-001  2.7804848e-001 -2.1397643e-001
 -4.9385096e-001  2.3526720e-001 -2.5046208e-001
 -5.5011452e-001  9.8040545e-002 -2.8811706e-001
 -5.2723536e-001  4.4038087e-002 -2.3315491e-001
 -4.8497943e-001  3.0011811e-002 -2.3525969e-001
 -5.4077610e-001 -7.1588801e-003 -2.3245292e-001
 -5.3890819e-001 -1.0885154e-001 -2.6683379e-001
 -4.8567975e-001 -2.7717038e-001 -2.9045610e-001
 -5.0248867e-001 -2.8441767e-001 -2.3923579e-001
 -5.2910328e-001 -2.5262420e-001 -2.6636606e-001
 -5.2583471e-001 -4.2772243e-001 -2.9887602e-001
 -5.3610690e-001 -5.5349414e-001 -3.6062103e-001
 -4.6793668e-001 -6.0001595e-001 -3.3349036e-001
 -4.4248967e-001 -6.5682350e-001 -3.1898996e-001
 -4.9408441e-001 -7.3911266e-001 -4.3125369e-001
 -4.6186682e-001 -9.0883445e-001 -4.3616524e-001
 -4.2287907e-001 -9.9907217e-001 -4.6165847e-001
 -4.3198404e-001 -1.0203457e+000 -4.7382022e-001
 -4.5066088e-001 -1.1105835e+000 -5.0235408e-001
 -3.9696517e-001 -1.2929290e+000 -6.0409311e-001
 -3.8762675e-001 -1.4182332e+000 -6.2514251e-001
 -3.7735457e-001 -1.4243113e+000 -6.1555327e-001
 -3.5050691e-001 -1.5355892e+000 -6.5414410e-001
 -4.2264562e-001 -1.6877776e+000 -7.6313372e-001
 -3.5237444e-001 -1.8112113e+000 -8.0242614e-001
 -3.3206352e-001 -1.9040207e+000 -8.0149029e-001
 -3.8949467e-001 -1.9376843e+000 -8.3704049e-001
 -3.1758901e-001 -2.1102116e+000 -9.3129545e-001
 -3.3089631e-001 -2.2556205e+000 -1.0077751e+000
 -3.3206352e-001 -2.3030770e+000 -9.6941855e-001
 -3.0521586e-001 -2.3884054e+000 -1.0096464e+000
 -3.3206352e-001 -2.4746688e+000 -1.0961831e+000
 -2.7883508e-001 -2.6661317e+000 -1.1590974e+000
 -2.3284371e-001 -2.7591749e+000 -1.1551217e+000
 -2.5058639e-001 -2.7886304e+000 -1.1579281e+000
 -2.8116949e-001 -2.9001421e+000 -1.2330046e+000
 -2.7066387e-001 -2.9821975e+000 -1.2690225e+000
 -2.3914700e-001 -3.1311132e+000 -1.3027018e+000
 -2.6109201e-001 -3.1748291e+000 -1.2559253e+000
 -2.3377747e-001 -3.2003107e+000 -1.2977902e+000
 -2.4078109e-001 -3.3380053e+000 -1.3897061e+000
 -2.8093605e-001 -3.4191257e+000 -1.3504137e+000
 -1.8358377e-001 -3.5070254e+000 -1.3567289e+000
 -2.1906952e-001 -3.5177791e+000 -1.3387197e+000
 -3.2365925e-001 -3.5114672e+000 -1.3649145e+000
 -1.8054864e-001 -3.6730067e+000 -1.4100539e+000
 -1.6607413e-001 -3.7291130e+000 -1.3349775e+000
 -2.5011951e-001 -3.6702016e+000 -1.3122910e+000
 -1.4973210e-001 -3.7679200e+000 -1.3345097e+000
 -1.8895330e-001 -3.8492741e+000 -1.3452683e+000
 -2.2140393e-001 -3.8738207e+000 -1.3204767e+000
 -1.5650228e-001 -3.8710156e+000 -1.2421261e+000
 -2.2233808e-001 -3.8410922e+000 -1.2449325e+000
 -1.9642380e-001 -3.9161344e+000 -1.2734663e+000
 -1.4342880e-001 -3.9801889e+000 -1.2206090e+000
 -1.8475097e-001 -3.9600841e+000 -1.1614365e+000
 -1.7798079e-001 -3.9011727e+000 -1.1310317e+000
 -1.7004302e-001 -3.9434861e+000 -1.1488066e+000
 -1.9082082e-001 -4.0239052e+000 -1.1331365e+000
 -1.6397317e-001 -3.9516684e+000 -1.0632054e+000
 -1.1751491e-001 -3.9081859e+000 -1.0213405e+000
 -1.7587943e-001 -3.9275894e+000 -1.0271875e+000
 -1.4996554e-001 -3.9670976e+000 -1.0463660e+000
 -9.8604631e-002 -3.9530710e+000 -9.6614405e-001
 -1.7704664e-001 -3.8544172e+000 -9.1726239e-001
 -1.2988806e-001 -3.8810680e+000 -9.3527154e-001
 -1.2778709e-001 -3.9053804e+000 -9.2895680e-001
 -1.5790331e-001 -3.9002373e+000 -9.1281895e-001
 -8.7165245e-002 -3.8403905e+000 -8.2534646e-001
 -1.1471323e-001 -3.7419708e+000 -8.0032097e-001
 -1.3992680e-001 -3.8125713e+000 -8.6323570e-001
 -7.5958909e-002 -3.7856872e+000 -8.1154726e-001
 -5.2146373e-002 -3.6991896e+000 -7.2805125e-001
 -6.4752964e-002 -3.6896047e+000 -7.4395524e-001
 -2.0862555e-002 -3.6783835e+000 -7.5868990e-001
 -2.6699360e-002 -3.6987220e+000 -7.5237515e-001
 -5.7982787e-002 -3.5944580e+000 -6.9320265e-001
 -4.7944046e-002 -3.5067917e+000 -6.3987717e-001
 -1.1057255e-002 -3.5465337e+000 -6.8665405e-001
  3.6101325e-002 -3.5397543e+000 -6.9764648e-001
  5.1042716e-002 -3.4997785e+000 -6.3824011e-001
  7.3688047e-002 -3.4160864e+000 -5.9590745e-001
  7.0419875e-002 -3.3927090e+000 -6.3426402e-001
  9.1431120e-002 -3.4338536e+000 -6.5975724e-001
  1.0053610e-001 -3.3466547e+000 -6.3098991e-001
  1.4559371e-001 -3.2811974e+000 -5.7134968e-001
  2.1306321e-001 -3.2589888e+000 -5.6573654e-001
  2.0162383e-001 -3.2363123e+000 -6.5157158e-001
  2.7189501e-001 -3.2594563e+000 -6.1438394e-001
  2.8940425e-001 -3.1647768e+000 -5.6433295e-001
  2.7142813e-001 -3.0913712e+000 -5.7579351e-001
  3.1368406e-001 -3.1070342e+000 -5.8982618e-001
  3.8208772e-001 -3.1131123e+000 -6.2677995e-001
  4.2877942e-001 -3.0591098e+000 -5.7134968e-001
  4.0286552e-001 -2.9471310e+000 -5.4351742e-001
  4.7570456e-001 -2.9761194e+000 -5.7626124e-001
  4.7500423e-001 -3.0018347e+000 -6.2210227e-001
  4.8224169e-001 -2.9253899e+000 -6.0549630e-001
  5.5554760e-001 -2.8400615e+000 -5.2059710e-001
  5.1842776e-001 -2.8295416e+000 -5.6971224e-001
  6.0294001e-001 -2.8868167e+000 -6.0549630e-001
  6.7227704e-001 -2.8438016e+000 -6.0222219e-001
  6.3865921e-001 -2.7776430e+000 -5.4936443e-001
  6.5079892e-001 -2.7004969e+000 -4.8925647e-001
  6.7881417e-001 -2.7357971e+000 -5.9660904e-001
  7.0286054e-001 -2.8003195e+000 -5.9427000e-001
  7.4651712e-001 -2.6871715e+000 -4.9370030e-001
  7.7966846e-001 -2.6535080e+000 -4.8294173e-001
  7.6099162e-001 -2.6593523e+000 -5.1568555e-001
  8.2776081e-001 -2.6862365e+000 -5.2223415e-001
  8.4013435e-001 -2.6507025e+000 -4.6867480e-001
  7.5188665e-001 -2.5092678e+000 -4.1628516e-001
  8.1632142e-001 -2.5604647e+000 -3.9383218e-001
  8.7421945e-001 -2.5924924e+000 -4.4177839e-001
  8.5974495e-001 -2.5485423e+000 -4.1581744e-001
  8.9873270e-001 -2.4809807e+000 -2.9513379e-001
  8.8075619e-001 -2.4159908e+000 -3.0098080e-001
  8.7328530e-001 -2.4697595e+000 -3.4331347e-001
  9.5056049e-001 -2.4190301e+000 -2.9045610e-001
  9.1227306e-001 -2.3486634e+000 -2.0789555e-001
  8.8192340e-001 -2.2680105e+000 -1.5597325e-001
  9.9795252e-001 -2.2768941e+000 -1.9690273e-001
  9.9701875e-001 -2.3442216e+000 -2.1210512e-001
  9.3071645e-001 -2.1744998e+000 -9.0719876e-002
  9.1717571e-001 -2.0763139e+000 -3.0611917e-002
  9.1414098e-001 -2.0601834e+000 -5.7976451e-002
  9.6620221e-001 -2.0608847e+000 -6.1016693e-002
  9.7133830e-001 -1.9975311e+000  1.3591667e-002
  9.2978269e-001 -1.8065357e+000  9.9192850e-002
  9.5452938e-001 -1.8030294e+000  8.4926313e-002
  9.8184392e-001 -1.8023281e+000  5.9433090e-002
  9.3888767e-001 -1.6831020e+000  8.8200420e-002
  9.2698101e-001 -1.5606029e+000  2.0210160e-001
  9.3888767e-001 -1.4402084e+000  2.2595777e-001
  9.5593003e-001 -1.4334286e+000  1.6421236e-001
  9.7694127e-001 -1.3841017e+000  2.0327092e-001
  9.4122208e-001 -1.2321471e+000  2.6852430e-001
  9.1577506e-001 -1.1073105e+000  3.3003545e-001
  8.5974495e-001 -1.0152027e+000  2.9916294e-001
  8.7608698e-001 -1.0035140e+000  2.6829043e-001
  9.3398502e-001 -8.9293771e-001  3.4593943e-001
  8.5670982e-001 -6.8207135e-001  4.1259639e-001
  8.2636016e-001 -5.9089859e-001  3.9224858e-001
  8.6955025e-001 -5.7149509e-001  3.5880317e-001
  8.4853900e-001 -4.5858126e-001  4.1470117e-001
  7.8200287e-001 -2.5776728e-001  4.6732506e-001
  7.6332643e-001 -1.6168521e-001  4.7013144e-001
  7.9531017e-001 -1.2311197e-001  4.3013742e-001
  7.8200287e-001 -8.3276711e-003  4.6311510e-001
  6.9842477e-001  1.7682333e-001  5.3351390e-001
  6.7040952e-001  3.0049083e-001  5.2649717e-001
  6.8301650e-001  3.3812904e-001  5.1433542e-001
  6.5219956e-001  4.3678245e-001  5.0193941e-001
