**************************************************************************************
            UNIVERSIDAD AUTONOMA METROPOLITANA - AZCAPOTZALCO
                        Departamento de Materiales
                           Area de Estructuras
     AV. SAN PABLO 180,COL.REYNOSA, AZCAPOTZALCO, C.P.02200 CIUDAD DE MEXICO.
**************************************************************************************
ARCHIVO ESTANDAR DE ACELERACION:
VERSION DEL FORMATO                    : 2.0
NOMBRE DEL ARCHIVO                     : RIML201802191
FECHA Y HORA DE CREACION               : MON JUL 18 12:30:07 2018
REF. CATALOGO ACELEROGRAMAS, SMIS 1995 : REGISTRO NO.      /PAG.    


================================================================================
DATOS DE LA ESTACION:
NOMBRE DE LA ESTACION                  : UAM-LERMA.
CLAVE DE LA ESTACION                   : RIML
LOCALIZACION DE LA ESTACION            : AV. DE LAS GARZAS 10, EL PANTEON, C.P.52005,
                                       : LERMA DE VILLADA, ESTADO DE MEXICO. 
                                       :
                                       : 
                                       : 
COORDENADAS DE LA ESTACION             : 19.291481 LAT. N
                                       : 99.502060 LONG. W
ALTITUD (msnm)                         : 2570
TIPO DE SUELO                          : DEPOSITOS LACUSTRES
                                       : 
                                       : 
INSTITUCION RESPONSABLE                : UNIVERSIDAD AUTONOMA METROPOLITANA
                                       : 

================================================================================
DATOS DEL ACELEROGRAFO: 
MODELO DEL ACELEROGRAFO                : BASALT KINEMETRICS
NUMERO DE SERIE DEL ACELEROGRAFO       : 978
NUMERO DE CANALES                      : 3
ORIENTACION C1-C6 (rumbo;orientacion)  : /V/N00E/N90E
ORIENTACION C7-C12 (rumbo;orientacion) : 
VEL. DE MUESTREO, C1-C6 (muestras/s)   : /250/250/250
VEL. DE MUESTREO, C7-C12 (muestras/s)  : 
ESC. COMPLETA DE SENSORES, C1-C6, (g)  : /2/2/2
ESC. COMPLETA DE SENSORES, C7-C12 (g)  : 
FREC. NAT. DE SENSORES, C1-C6, (Hz)    : /210/212/212
FREC. NAT. DE SENSORES, C7-C12 (Hz)    : 
AMORTIGUAMIENTO DE SENSORES, C1-C6     : /0.7/0.7/0.7
AMORTIGUAMIENTO DE SENSORES, C7-C12    : 
INTERVALO DE MUESTREO, C1-C6 (s)       : /0.004/0.004/0.004
INTERVALO DE MUESTREO, C7-C12 (s)      : 
UMBRAL DE DISPARO, C1-C6 (Gal)         : /2/2/2
UMBRAL DE DISPARO, C7-C12 (Gal)        : 
MEMORIA DE PREEVENTO (s)               : 30
TIEMPO DE POSEVENTO (s)                : 60


================================================================================
DATOS DEL SISMO:
FECHA DEL SISMO [GMT]                  : 2018/02/19
HORA EPICENTRO (GMT)                   : 06:56:58
MAGNITUD(ES)                           : /M=6
COORDENADAS DEL EPICENTRO              : 16.2477 LAT. N
                                       : 99.775 LONG. W
PROFUNDIDAD FOCAL (Km)                 : 10.2
FUENTE DE LOS DATOS EPICENTRALES       : SSN
                                       : INSTITUTO DE GEOFISICA, UNAM

================================================================================
DATOS DE ESTE REGISTRO:
HORA DE LA PRIMERA MUESTRA (GMT)       : 06:58:51.00
EXACTITUD DEL TIEMPO (s)               : 
DURACION DEL REGISTRO (s), C1-C6       : /137.00/137.00/137.00
DURACION DEL REGISTRO (s), C7-C12      : 
NUM. TOTAL DE MUESTRAS, C1-C6          : /34250/34250/34250
NUM. TOTAL DE MUESTRAS, C7-C12         : 
ACEL. MAX.(Gal), C1-C6                 : /-2.232/7.502/-10.536
ACEL. MAX., C1-C6, EN LA MUESTRA       : /9636/8340/9526
ACEL. MAX.(Gal), C7-C12                : 
ACEL. MAX., C7-C12,EN LA MUESTRA       : 
UNIDADES DE LOS DATOS                  : Gal (cm/s/s)
FACTOR DE DECIMACION                   : 1
FORMATO DATOS (FORTRAN,16 campos/dato) : 3E16.7


================================================================================
CALIDAD DEL ACELEROGRAMA:
REGISTRO DIGITAL COMPLETO CON TIEMPO ABSOLUTO CORRECTO


================================================================================
COMENTARIOS:














================================================================================
DATOS DE ACELERACION:
---------+---------+---------+---------+---------+---------+---------+---------+
   CANAL-1           CANAL-2        CANAL-3
         V            N00E            N90E
---------+---------+---------+---------+---------+---------+---------+---------+ 
[...]
  3.7591287e-001 -7.9578886e-001  4.9306792e+000
  3.8128280e-001 -6.8965441e-001  5.0728800e+000
  3.4276192e-001 -7.1934405e-001  5.0885501e+000
  3.4976554e-001 -8.9046838e-001  5.0731138e+000
  3.8851986e-001 -9.1594999e-001  5.1533357e+000
  3.2945462e-001 -7.7054102e-001  5.2337915e+000
  3.4883177e-001 -8.1308854e-001  5.2599863e+000
  3.4252848e-001 -9.4657467e-001  5.2655995e+000
  3.1894899e-001 -1.0115645e+000  5.2936656e+000
  3.5957084e-001 -9.4353542e-001  5.3635967e+000
  2.8626492e-001 -8.8135103e-001  5.4522381e+000
  2.8206259e-001 -1.0510728e+000  5.4190269e+000
  3.1474667e-001 -1.1681947e+000  5.4375034e+000
  3.0657584e-001 -1.1207382e+000  5.5355006e+000
  2.8696524e-001 -1.0704763e+000  5.6129157e+000
  2.2930065e-001 -1.1237771e+000  5.6220373e+000
  2.6642088e-001 -1.3140712e+000  5.6299894e+000
  2.4681028e-001 -1.3093956e+000  5.7420193e+000
  2.1062420e-001 -1.2233659e+000  5.7951105e+000
  1.9638314e-001 -1.3302017e+000  5.8729938e+000
  1.8330927e-001 -1.4522333e+000  5.8919384e+000
  2.3560434e-001 -1.5045990e+000  5.9389488e+000
  1.8657784e-001 -1.4185693e+000  6.0869966e+000
  1.6299835e-001 -1.4468560e+000  6.1356444e+000
  1.9638314e-001 -1.6072267e+000  6.2001961e+000
  2.0478740e-001 -1.6995686e+000  6.2474404e+000
  1.7910695e-001 -1.6652034e+000  6.3590025e+000
  1.4222055e-001 -1.5642121e+000  6.4986308e+000
  1.7186989e-001 -1.7498306e+000  6.5033084e+000
  1.7023580e-001 -1.8732643e+000  6.5739411e+000
  1.5412681e-001 -1.8150542e+000  6.7208196e+000
  1.4829040e-001 -1.7963520e+000  6.8094614e+000
  1.3054772e-001 -1.8237037e+000  6.8840701e+000
  1.6509971e-001 -2.0149328e+000  6.9303789e+000
  1.6159771e-001 -2.0139977e+000  7.0318841e+000
  8.6890752e-002 -1.8758361e+000  7.1726817e+000
  1.5809570e-001 -1.9447998e+000  7.2372334e+000
  1.8120830e-001 -2.0684677e+000  7.2903247e+000
  1.7116956e-001 -2.1170933e+000  7.3593203e+000
  2.3396986e-001 -2.0436874e+000  7.5054971e+000
  1.0603447e-001 -1.9534497e+000  7.5688796e+000
  1.9078016e-001 -2.1315871e+000  7.5896951e+000
  2.9630366e-001 -2.2199548e+000  7.6788043e+000
  1.5646161e-001 -2.0649609e+000  7.7618330e+000
  1.9124705e-001 -2.0691690e+000  7.8785405e+000
  2.1739438e-001 -2.1002612e+000  7.8670804e+000
  2.7225729e-001 -2.2386570e+000  7.8900007e+000
  2.8836589e-001 -2.2024217e+000  8.0104505e+000
  2.2206359e-001 -2.0149328e+000  8.0506783e+000
  3.1894899e-001 -2.1346264e+000  8.0773413e+000
  3.5373442e-001 -2.1720308e+000  8.0406214e+000
  3.9715795e-001 -2.1687578e+000  8.0909062e+000
  3.9132154e-001 -2.0743121e+000  8.1914759e+000
  3.7778079e-001 -2.0002048e+000  8.1475058e+000
  5.2742814e-001 -2.1647835e+000  8.1599018e+000
  5.0408209e-001 -2.0897413e+000  8.1313680e+000
  4.8470494e-001 -1.9903862e+000  8.1554580e+000
  5.0921818e-001 -1.9637358e+000  8.2291313e+000
  5.5661021e-001 -1.9588265e+000  8.0394520e+000
  6.9575193e-001 -2.0736108e+000  8.0394520e+000
  6.2291290e-001 -1.8870572e+000  8.0906724e+000
  6.1450824e-001 -1.7704029e+000  7.9912720e+000
  7.0298938e-001 -1.8445097e+000  7.9435600e+000
  7.1559597e-001 -1.8316522e+000  7.7976170e+000
  7.5831918e-001 -1.8187943e+000  7.8228764e+000
  7.6298799e-001 -1.6313058e+000  7.7669784e+000
  8.4446551e-001 -1.6612292e+000  7.6025585e+000
  8.7411486e-001 -1.7348689e+000  7.5756621e+000
  8.1598338e-001 -1.6069929e+000  7.4379051e+000
  8.5660522e-001 -1.5413018e+000  7.4121776e+000
  8.1995227e-001 -1.4424146e+000  7.3031884e+000
  8.2602212e-001 -1.5134826e+000  7.0863789e+000
  8.7995127e-001 -1.5167552e+000  7.0386665e+000
  8.2158635e-001 -1.3411891e+000  6.9147088e+000
  8.6804461e-001 -1.3129024e+000  6.8176470e+000
  8.5333666e-001 -1.3264615e+000  6.6534614e+000
  8.5380393e-001 -1.3545145e+000  6.4661212e+000
  9.4065059e-001 -1.2991095e+000  6.4745407e+000
  8.1458273e-001 -1.1254138e+000  6.2832244e+000
  7.9894102e-001 -1.2041962e+000  6.1068766e+000
  8.7808335e-001 -1.2666147e+000  6.0102830e+000
  8.4820057e-001 -1.1625841e+000  5.8608316e+000
  7.9590590e-001 -1.0975942e+000  5.8383791e+000
  7.8493339e-001 -1.0489686e+000  5.6023910e+000
  8.0524432e-001 -1.2109760e+000  5.4824090e+000
  7.2796951e-001 -1.1335957e+000  5.4370357e+000
  7.1956486e-001 -1.0075903e+000  5.2443162e+000
  6.3551949e-001 -1.0620602e+000  5.2242023e+000
  5.7552048e-001 -1.0321368e+000  5.0249338e+000
  6.6610259e-001 -1.1307906e+000  4.9168800e+000
  5.6804998e-001 -9.8561542e-001  4.9281063e+000
  5.5987877e-001 -9.4540587e-001  4.7662593e+000
  5.4493738e-001 -1.0880094e+000  4.6769159e+000
  5.1435428e-001 -1.0569172e+000  4.5702653e+000
  5.9256323e-001 -1.0391500e+000  4.5309729e+000
  4.4898574e-001 -8.9420891e-001  4.4774139e+000
  4.8050261e-001 -9.6293892e-001  4.3146311e+000
  5.4563770e-001 -1.1130234e+000  4.2638785e+000
  4.5598936e-001 -1.0050189e+000  4.2280944e+000
  4.9451023e-001 -9.5990006e-001  4.1888020e+000
  4.1490063e-001 -1.0012784e+000  4.1230809e+000
  4.0649637e-001 -1.0714113e+000  4.0047363e+000
  4.7513308e-001 -1.0524754e+000  4.0063734e+000
  4.2050360e-001 -9.5826336e-001  4.0038008e+000
  3.9132154e-001 -1.0001096e+000  3.9282566e+000
  4.0999798e-001 -1.0996981e+000  3.8601965e+000
  4.4968606e-001 -1.1268164e+000  3.8398487e+000
  4.4408309e-001 -1.0344748e+000  3.8679148e+000
  4.0322780e-001 -9.9403111e-001  3.8138877e+000
  4.0743013e-001 -1.1109196e+000  3.7257136e+000
  4.6836290e-001 -1.1558047e+000  3.7105112e+000
  4.4991950e-001 -1.0795933e+000  3.7294559e+000
  4.1583440e-001 -1.0279288e+000  3.7009220e+000
  4.4384965e-001 -1.1104521e+000  3.6228053e+000
  4.6462745e-001 -1.1955468e+000  3.5832790e+000
  4.7513308e-001 -1.1029711e+000  3.6071352e+000
  4.4268245e-001 -1.0344748e+000  3.5886583e+000
  4.7396587e-001 -1.1116209e+000  3.5032910e+000
  5.1038539e-001 -1.1667921e+000  3.4394412e+000
  5.3279767e-001 -1.1660909e+000  3.4555790e+000
  5.2859534e-001 -1.0566834e+000  3.4385053e+000
  5.1131915e-001 -1.0503715e+000  3.3500977e+000
  5.7061783e-001 -1.1836239e+000  3.3030870e+000
  5.5170756e-001 -1.1174652e+000  3.2464874e+000
  5.4960659e-001 -1.0410204e+000  3.2497619e+000
  5.5287515e-001 -1.0101620e+000  3.1622894e+000
  5.9723205e-001 -1.1027373e+000  3.0261695e+000
  6.2874931e-001 -1.1317257e+000  3.0219599e+000
  5.6641551e-001 -9.4143159e-001  2.9602145e+000
  6.0236853e-001 -9.5802960e-001  2.8919209e+000
  5.9746588e-001 -9.7883565e-001  2.7455102e+000
  6.4182278e-001 -9.8912219e-001  2.6454082e+000
  6.4906023e-001 -9.0683263e-001  2.6348835e+000
  5.9933341e-001 -7.6165742e-001  2.5312732e+000
  6.6283442e-001 -8.3389459e-001  2.3841608e+000
  6.6096650e-001 -8.1449109e-001  2.2510812e+000
  6.8267807e-001 -7.3828003e-001  2.2101517e+000
  6.5699761e-001 -6.0479351e-001  2.0992912e+000
  5.9980029e-001 -5.6785697e-001  1.9472673e+000
  6.5232840e-001 -6.3962623e-001  1.7996872e+000
  6.4625855e-001 -5.1362076e-001  1.6761968e+000
  5.9162908e-001 -3.6938057e-001  1.5901279e+000
  5.3536552e-001 -2.8031203e-001  1.4123769e+000
  5.1552148e-001 -3.1771609e-001  1.2217622e+000
  5.2882878e-001 -3.0135184e-001  1.0849407e+000
  4.4571718e-001 -8.0900605e-002  9.7899172e-001
  3.6260596e-001  1.9155747e-002  7.9890171e-001
  3.4089400e-001  6.5316281e-003  5.9729456e-001
  3.1427978e-001  5.0481699e-002  4.1322885e-001
  2.7038938e-001  1.8396822e-001  3.0002927e-001
  1.7957383e-001  3.5859893e-001  1.6250618e-001
  9.5528847e-002  3.5158579e-001 -1.0178183e-001
  4.6035466e-002  3.2563667e-001 -2.6643519e-001
  2.6191426e-002  4.8694237e-001 -4.0208737e-001
 -5.8087386e-002  6.3024713e-001 -5.6767658e-001
 -1.8695693e-001  6.8611965e-001 -7.7372755e-001
 -1.9676184e-001  6.2416902e-001 -1.0048040e+000
 -2.1894068e-001  7.1440675e-001 -1.1521502e+000
 -3.1442544e-001  9.1218148e-001 -1.3009000e+000
 -4.0594131e-001  9.0540210e-001 -1.5188788e+000
 -4.8134858e-001  8.9137543e-001 -1.7579075e+000
 -4.9582309e-001  9.5005344e-001 -1.9384652e+000
 -5.2593931e-001  1.1085537e+000 -2.0769238e+000
 -6.3636546e-001  1.1922458e+000 -2.2715146e+000
 -6.9262902e-001  1.1139305e+000 -2.5273823e+000
 -6.7161777e-001  1.1158009e+000 -2.7378771e+000
 -7.0313464e-001  1.2577032e+000 -2.8976193e+000
 -7.9395019e-001  1.3710845e+000 -3.0559579e+000
 -8.9340383e-001  1.3374210e+000 -3.2954543e+000
 -8.9247007e-001  1.2878603e+000 -3.5480479e+000
 -8.4974687e-001  1.3629026e+000 -3.6895470e+000
 -9.3519288e-001  1.5017655e+000 -3.8647255e+000
 -9.9939421e-001  1.4741801e+000 -4.1065605e+000
 -9.5900581e-001  1.3832411e+000 -4.3383386e+000
 -9.3776112e-001  1.4723100e+000 -4.5329294e+000
 -9.9449156e-001  1.6055624e+000 -4.6819126e+000
 -1.0635955e+000  1.5936400e+000 -4.8739305e+000
 -1.0484207e+000  1.5321565e+000 -5.1358799e+000
 -9.6857767e-001  1.5263121e+000 -5.3295349e+000
 -9.5270251e-001  1.6298752e+000 -5.4581707e+000
 -1.0605604e+000  1.7128657e+000 -5.6270340e+000
 -1.0799376e+000  1.6086017e+000 -5.8597475e+000
 -9.7581473e-001  1.5842888e+000 -6.0891869e+000
 -9.6787735e-001  1.6749941e+000 -6.1834419e+000
 -1.0596267e+000  1.7563482e+000 -6.3141825e+000
 -1.0748015e+000  1.7166062e+000 -6.5613968e+000
 -9.4336410e-001  1.6230958e+000 -6.7669797e+000
 -9.0484322e-001  1.7479321e+000 -6.9052047e+000
 -9.6834423e-001  1.8720675e+000 -7.0172346e+000
 -9.4126313e-001  1.8416766e+000 -7.2300680e+000
 -9.0741146e-001  1.8171301e+000 -7.4590397e+000
 -8.0562341e-001  1.8629502e+000 -7.5829975e+000
 -7.7527375e-001  1.9852151e+000 -7.7083588e+000
 -8.7846244e-001  2.0455295e+000 -7.8751177e+000
 -7.4982673e-001  1.9363561e+000 -8.0739181e+000
 -6.4453668e-001  1.9735264e+000 -8.2439512e+000
 -6.8422436e-001  2.1451183e+000 -8.3178579e+000
 -6.5504230e-001  2.1652231e+000 -8.4413483e+000
 -6.6157903e-001  2.1327283e+000 -8.6553511e+000
 -5.5512177e-001  2.1313254e+000 -8.7856240e+000
 -4.6290519e-001  2.2627081e+000 -8.8707574e+000
 -4.8111514e-001  2.3805312e+000 -8.9666495e+000
 -4.5006516e-001  2.3419580e+000 -9.1060439e+000
 -3.7652541e-001  2.3199832e+000 -9.2835610e+000
 -2.4742281e-001  2.4413131e+000 -9.3520888e+000
 -2.8944530e-001  2.6012162e+000 -9.4079868e+000
 -2.9644892e-001  2.5841503e+000 -9.5427036e+000
 -1.6734633e-001  2.5878908e+000 -9.6975338e+000
 -8.7970168e-002  2.6785961e+000 -9.7723764e+000
 -3.1473169e-002  2.8162906e+000 -9.7971681e+000
 -6.9760213e-002  2.8889949e+000 -9.9134079e+000
  3.5996726e-002  2.6799986e+000 -9.9674350e+000
  9.9263901e-002  2.7580801e+000 -1.0048826e+001
  8.3622188e-002  3.0358064e+000 -1.0165768e+001
  1.5132552e-001  3.0054155e+000 -1.0143783e+001
  1.2097586e-001  2.9902201e+000 -1.0285750e+001
  1.8284239e-001  2.9902201e+000 -1.0407603e+001
  2.4284139e-001  3.0942507e+000 -1.0385384e+001
  2.9583678e-001  3.2436336e+000 -1.0456250e+001
  4.0556221e-001  3.1625132e+000 -1.0479639e+001
  5.0618306e-001  3.1891640e+000 -1.0543255e+001
  6.0026717e-001  3.3771201e+000 -1.0522439e+001
  5.7505360e-001  3.4893326e+000 -1.0445024e+001
  5.5661021e-001  3.4537987e+000 -1.0492736e+001
  5.9653173e-001  3.4168621e+000 -1.0477534e+001
  6.6610259e-001  3.5096712e+000 -1.0464436e+001
  6.3295164e-001  3.6204812e+000 -1.0411111e+001
  5.7855561e-001  3.6312349e+000 -1.0393570e+001
  6.3318508e-001  3.5351528e+000 -1.0438709e+001
  6.9855361e-001  3.5461406e+000 -1.0394272e+001
  7.5248237e-001  3.6707431e+000 -1.0346559e+001
  6.5349600e-001  3.6742499e+000 -1.0297444e+001
  6.4485790e-001  3.5727910e+000 -1.0246691e+001
  8.0010822e-001  3.5346853e+000 -1.0187753e+001
  8.3932942e-001  3.5938308e+000 -1.0105426e+001
  7.4711284e-001  3.6160394e+000 -9.9774919e+000
  7.1559597e-001  3.4958787e+000 -9.8886163e+000
  8.3606086e-001  3.3913805e+000 -9.8675669e+000
  8.7061285e-001  3.4238752e+000 -9.7274709e+000
  8.2415459e-001  3.4561366e+000 -9.5679629e+000
  7.7746250e-001  3.3600546e+000 -9.5209522e+000
  8.2088603e-001  3.1933716e+000 -9.4128984e+000
  8.9652675e-001  3.1739685e+000 -9.2795849e+000
  8.3279230e-001  3.1868260e+000 -9.1315371e+000
  7.8540027e-001  3.0732109e+000 -8.9591654e+000
  8.3932942e-001  2.9112035e+000 -8.9023319e+000
  9.0236316e-001  2.8001597e+000 -8.7325328e+000
  8.6804461e-001  2.8081083e+000 -8.5255463e+000
  8.1668370e-001  2.7012726e+000 -8.3789017e+000
  8.2555524e-001  2.4901725e+000 -8.2310874e+000
  8.5590490e-001  2.3541146e+000 -8.1068958e+000
  8.4726681e-001  2.2949691e+000 -7.8337201e+000
  8.1574994e-001  2.2360573e+000 -7.6578401e+000
  8.3792839e-001  2.0041511e+000 -7.5350517e+000
  8.6664396e-001  1.8304554e+000 -7.3196453e+000
  8.7995127e-001  1.7972590e+000 -7.1243529e+000
  8.4283104e-001  1.6901895e+000 -6.8736306e+000
  8.1621682e-001  1.5207015e+000 -6.7349378e+000
  8.5637178e-001  1.3278361e+000 -6.5773008e+000
  8.2975757e-001  1.2656513e+000 -6.3132467e+000
  7.9613934e-001  1.2457807e+000 -6.1324551e+000
  7.8656748e-001  1.0758252e+000 -5.9242993e+000
  7.5551749e-001  8.8740115e-001 -5.7804615e+000
  8.2065259e-001  7.8664352e-001 -5.6359217e+000
  7.8329931e-001  7.7144806e-001 -5.3377209e+000
  6.7684165e-001  6.7676854e-001 -5.1763416e+000
  7.4174331e-001  4.3434246e-001 -5.0593998e+000
  7.3497313e-001  3.3218229e-001 -4.8584943e+000
  6.8758072e-001  3.4480641e-001 -4.6585246e+000
  6.4252350e-001  2.4755515e-001 -4.4349322e+000
  5.8812747e-001  4.7676208e-002 -4.3200956e+000
  6.9505161e-001 -1.5477408e-001 -4.1692414e+000
  6.5069432e-001 -1.1853881e-001 -3.9379311e+000
  5.1225331e-001 -1.2788953e-001 -3.7421709e+000
  5.8439202e-001 -3.8551146e-001 -3.5777510e+000
  5.7085127e-001 -5.2343938e-001 -3.4666566e+000
  5.3443176e-001 -5.3793357e-001 -3.2409595e+000
  5.5427580e-001 -5.3956988e-001 -3.0246177e+000
  4.3824668e-001 -6.9970679e-001 -2.8959822e+000
  4.3731291e-001 -8.8205230e-001 -2.7434902e+000
  5.2089101e-001 -8.6802564e-001 -2.6033946e+000
  4.1770231e-001 -8.7737675e-001 -2.3706807e+000
  2.9093413e-001 -9.3021041e-001 -2.1966720e+000
  2.9887151e-001 -1.1057765e+000 -2.1197246e+000
  3.0120631e-001 -1.1845589e+000 -1.9531995e+000
  2.4190763e-001 -1.0466310e+000 -1.7712386e+000
  1.6346523e-001 -1.1109196e+000 -1.5817936e+000
  6.3311266e-002 -1.2345871e+000 -1.4742071e+000
  7.6618570e-002 -1.3093956e+000 -1.3977275e+000
  9.1559961e-002 -1.2761996e+000 -1.1783454e+000
 -9.2172495e-002 -1.1490250e+000 -1.0183693e+000
 -2.1964100e-001 -1.2974732e+000 -9.2388051e-001
 -1.8999166e-001 -1.4033739e+000 -7.9547894e-001
 -2.3831784e-001 -1.2899921e+000 -6.8274708e-001
 -3.7185620e-001 -1.2184566e+000 -4.8558377e-001
 -5.0306015e-001 -1.2310807e+000 -3.6162562e-001
 -5.5138633e-001 -1.3636318e+000 -3.2701088e-001
 -5.8220287e-001 -1.3418908e+000 -1.6656747e-001
 -7.0290120e-001 -1.1476224e+000 -1.7116104e-002
 -8.3924124e-001 -1.1441156e+000  1.0964842e-001
 -9.6811079e-001 -1.2399639e+000  1.9665318e-001
 -9.5550380e-001 -1.2462762e+000  2.5629302e-001
 -1.0017290e+000 -1.1069453e+000  4.3825395e-001
 -1.1971343e+000 -9.8280993e-001  5.6455114e-001
 -1.2531644e+000 -1.1057765e+000  6.1109376e-001
 -1.2786114e+000 -1.1597786e+000  7.0698578e-001
 -1.3397776e+000 -1.0071227e+000  8.3281485e-001
 -1.4581412e+000 -8.9257221e-001  9.7665268e-001
 -1.5627309e+000 -9.1641750e-001  1.0517292e+000
 -1.5676335e+000 -1.0103958e+000  1.1104339e+000
 -1.5828084e+000 -9.2413231e-001  1.2315853e+000
 -1.6766591e+000 -7.6399539e-001  1.3562450e+000
 -1.7989915e+000 -7.4155265e-001  1.4512016e+000
 -1.8125322e+000 -8.1495860e-001  1.4813725e+000
 -1.8333100e+000 -7.9321752e-001  1.5912972e+000
