**************************************************************************************
  	RED ACELEROGRÁFICA DE LA UNIVERSIDAD AUTONOMA METROPOLITANA (RA-UAM)
	   UNIDAD AZCAPOTZALCO. DIVISIÓN CBI-DEPARTAMENTO DE MATERIALES
     Av. San Pablo 420, Col. Nueva el Rosario, Azcapotzalco, C.P. 02128, Ciudad de México
		Área de Estructuras. e-mail: agb@azc.uam.mx
**************************************************************************************
ARCHIVO ESTANDAR DE ACELERACION:
VERSION DEL FORMATO                    : 2.0
NOMBRE DEL ARCHIVO                     : RIDA202206.021
FECHA Y HORA DE CREACION               : 11:30 a. m. 08/06/2022
REF. CATALOGO ACELEROGRAMAS, SMIS 1999 : REGISTRO NO.      /PAG.    


================================================================================
DATOS DE LA ESTACION:
NOMBRE DE LA ESTACION                  : UAM-AZCAPOTZALCO.
CLAVE DE LA ESTACION                   : RIDA
LOCALIZACION DE LA ESTACION            : AV. SAN PABLO 420, COL. NUEVA EL ROSARIO,
                                       : AZCAPOTZALCO, C.P.02128, CIUDAD DE MEXICO. 
                                       :
                                       : 
                                       : 
COORDENADAS DE LA ESTACION             : 19.498596 LAT. N
                                       : 99.195595 LONG. W
ALTITUD (msnm)                         : 2546
TIPO DE SUELO                          : ZONA DE TRANSICION
                                       : 
                                       : 
INSTITUCION RESPONSABLE                : UNIVERSIDAD AUTONOMA METROPOLITANA
                                       : 

================================================================================
DATOS DEL ACELEROGRAFO: 
MODELO DEL ACELEROGRAFO                : ETNA2 KINEMETRICS
NUMERO DE SERIE DEL ACELEROGRAFO       : 103732
NUMERO DE CANALES                      : 3
ORIENTACION C1-C6 (rumbo;orientacion)  : /N90E/N00E/V
ORIENTACION C7-C12 (rumbo;orientacion) : 
VEL. DE MUESTREO, C1-C6 (muestras/s)   : /200/200/200
VEL. DE MUESTREO, C7-C12 (muestras/s)  : 
ESC. COMPLETA DE SENSORES, C1-C6, (g)  : /2/2/2
ESC. COMPLETA DE SENSORES, C7-C12 (g)  : 
FREC. NAT. DE SENSORES, C1-C6, (Hz)    : /198/212/200   
FREC. NAT. DE SENSORES, C7-C12 (Hz)    : 
AMORTIGUAMIENTO DE SENSORES, C1-C6     : /0.7/0.7/0.7      
AMORTIGUAMIENTO DE SENSORES, C7-C12    : 
INTERVALO DE MUESTREO, C1-C6 (s)       : /0.005/0.005/0.005
INTERVALO DE MUESTREO, C7-C12 (s)      : 
UMBRAL DE DISPARO, C1-C6 (Gal)         : /2/2/2
UMBRAL DE DISPARO, C7-C12 (Gal)        : 
MEMORIA DE PREEVENTO (s)               : 50
TIEMPO DE POSEVENTO (s)                : 60


================================================================================
DATOS DEL SISMO:
FECHA DEL SISMO [GMT]                  : 2022/06/02
HORA EPICENTRO (GMT)                   : 21:05:56
MAGNITUD(ES)                           : /M=4.5
COORDENADAS DEL EPICENTRO              : 16.6900 LAT. N
                                       : -99.8800 LONG. W
PROFUNDIDAD FOCAL (Km)                 : 16.0
FUENTE DE LOS DATOS EPICENTRALES       : SSN
                                       : INSTITUTO DE GEOFISICA, UNAM

================================================================================
DATOS DE ESTE REGISTRO:
HORA DE LA PRIMERA MUESTRA (GMT)       : 21:06:42.000
EXACTITUD DEL TIEMPO (s)               : 
DURACION DEL REGISTRO (s), C1-C6       : /115/115/115
DURACION DEL REGISTRO (s), C7-C12      : 
NUM. TOTAL DE MUESTRAS, C1-C6          : /23000/23000/23000
NUM. TOTAL DE MUESTRAS, C7-C12         : 
ACEL. MAX.(Gal), C1-C6                 : /0.510/0.565/0.141
ACEL. MAX., C1-C6, EN LA MUESTRA       : /10950/10206/1786
ACEL. MAX.(Gal), C7-C12                : 
ACEL. MAX., C7-C12,EN LA MUESTRA       : 
UNIDADES DE LOS DATOS                  : Gal (cm/s/s)
FACTOR DE DECIMACION                   : 1
FORMATO DATOS (FORTRAN,16 campos/dato) : 3E16.7


================================================================================
CALIDAD DEL ACELEROGRAMA:
REGISTRO DIGITAL COMPLETO CON TIEMPO ABSOLUTO CORRECTO


================================================================================
COMENTARIOS:














================================================================================
DATOS DE ACELERACION:
---------+---------+---------+---------+---------+---------+---------+---------+
   CANAL-1   	     CANAL-2          CANAL-3
     N90E             N00E              V
---------+---------+---------+---------+---------+---------+---------+---------+ 
[...]
   4.8917700e-02   1.5059500e-01  -1.6301700e-02
   4.7513100e-02   1.2420400e-01  -2.7299500e-02
   3.5106400e-02   9.8981000e-02  -3.4319400e-02
   2.6679100e-02   7.7027600e-02  -3.1043500e-02
   1.2867800e-02   4.7133500e-02  -3.3851400e-02
  -2.8161600e-03   1.4904000e-02  -4.6019200e-02
  -8.2002200e-03  -1.8493200e-02  -4.8593200e-02
  -2.1543300e-02  -3.8111200e-02  -4.8359200e-02
  -2.4820600e-02  -7.4544600e-02  -5.2103100e-02
  -2.9502400e-02  -7.7347100e-02  -5.5145000e-02
  -3.7461400e-02  -7.9916100e-02  -5.4209100e-02
  -4.6356800e-02  -8.9491600e-02  -5.1869100e-02
  -6.5786300e-02  -9.2294100e-02  -4.4615200e-02
  -7.9363500e-02  -1.0187000e-01  -3.2915400e-02
  -9.3642900e-02  -9.1126400e-02  -2.3087600e-02
  -1.0207000e-01  -1.2732600e-01  -1.3259800e-02
  -9.8558800e-02  -1.1027700e-01  -4.6019200e-03
  -9.9963400e-02  -9.8833500e-02   6.1619000e-03
  -1.0511300e-01  -1.1961900e-01   2.5817600e-02
  -1.1564700e-01  -1.1728400e-01   4.4069200e-02
  -1.2899000e-01  -1.2732600e-01   4.7345200e-02
  -1.2618100e-01  -1.3012900e-01   5.3897100e-02
  -1.3016100e-01  -1.3853600e-01   6.0215000e-02
  -1.4092900e-01  -1.3269800e-01   5.9279000e-02
  -1.4865400e-01  -1.5395100e-01   6.3256900e-02
  -1.6363600e-01  -1.6095700e-01   7.2148800e-02
  -1.7323300e-01  -1.4577600e-01   7.6126700e-02
  -1.8844900e-01  -1.6773000e-01   6.8638800e-02
  -1.9921700e-01  -1.6095700e-01   6.7936800e-02
  -2.0717600e-01  -1.5605300e-01   7.1680800e-02
  -2.2309500e-01  -1.6889800e-01   7.8934600e-02
  -2.3760800e-01  -1.4484200e-01   8.1274600e-02
  -2.5399400e-01  -1.5605300e-01   8.0104600e-02
  -2.6593300e-01  -1.4227300e-01   8.3848600e-02
  -2.7342400e-01  -1.2265500e-01   8.6188500e-02
  -2.8185100e-01  -1.2989500e-01   9.6250300e-02
  -2.7997800e-01  -1.4133900e-01   1.0514200e-01
  -2.7623300e-01  -1.4484200e-01   1.0631200e-01
  -2.8068100e-01  -1.3129700e-01   1.0397200e-01
  -2.7412600e-01  -1.3713500e-01   1.0444000e-01
  -2.6640100e-01  -1.2008600e-01   1.0303600e-01
  -2.5844200e-01  -1.2499100e-01   9.0868400e-02
  -2.4603500e-01  -1.2148800e-01   8.7358500e-02
  -2.3924700e-01  -1.2709300e-01   8.8996500e-02
  -2.2239200e-01  -1.3199700e-01   7.8466600e-02
  -2.1771000e-01  -1.1588200e-01   6.9106800e-02
  -2.0483600e-01  -9.9067000e-02   7.1914800e-02
  -1.8142700e-01  -5.9130400e-02   6.5362900e-02
  -1.6925400e-01  -7.2676200e-02   5.2259100e-02
  -1.4537700e-01  -5.1656900e-02   4.5707200e-02
  -1.3133100e-01  -3.9045400e-02   3.9389300e-02
  -1.1073100e-01  -5.1656900e-02   3.1199500e-02
  -8.9897500e-02  -2.0128100e-02   1.1543800e-02
  -7.5384000e-02  -2.1449300e-03  -5.3039100e-03
  -4.7761400e-02   7.6640500e-03  -1.9109700e-02
  -1.8968300e-02  -2.7655000e-04  -4.2041300e-02
   7.0156100e-03   2.0275600e-02  -6.0527000e-02
   3.1360900e-02  -2.7655000e-04  -6.8482800e-02
   6.1090300e-02  -6.8158700e-03  -7.6438700e-02
   8.8712900e-02   2.2844600e-02  -9.6094300e-02
   1.1212200e-01   3.1953000e-02  -1.0615600e-01
   1.3646700e-01   4.0127100e-02  -1.0545400e-01
   1.6011000e-01   4.2696100e-02  -1.1130400e-01
   1.8469000e-01   4.6199300e-02  -1.1060200e-01
   2.1769600e-01   2.7982700e-02  -1.1177200e-01
   2.4578700e-01   3.8959400e-02  -1.1504800e-01
   2.6287600e-01   4.3630300e-02  -1.1083600e-01
   2.9752100e-01   4.2696100e-02  -1.0639000e-01
   3.2631400e-01   4.2929700e-02  -1.0662400e-01
   3.5042500e-01   5.1804500e-02  -1.0545400e-01
   3.8483600e-01   4.9469000e-02  -9.9604300e-02
   3.9583900e-01   4.4564500e-02  -1.0007200e-01
   4.1152300e-01   4.6432900e-02  -8.8606500e-02
   4.2112000e-01   3.0551700e-02  -7.1758800e-02
   4.2697200e-01   6.3014700e-02  -6.5206900e-02
   4.4452900e-01   6.3948900e-02  -6.1462900e-02
   4.4687000e-01   8.1465000e-02  -5.3741100e-02
   4.5061600e-01   9.6879100e-02  -3.8063300e-02
   4.4991300e-01   7.5626300e-02  -2.3321600e-02
   4.4335900e-01   1.0482000e-01  -1.9577700e-02
   4.5178600e-01   1.0995800e-01  -1.9811700e-02
   4.5295600e-01   1.1976700e-01  -1.6067700e-02
   4.4523100e-01   1.3448000e-01  -1.6535700e-02
   4.3867700e-01   1.3845000e-01  -1.1855800e-02
   4.2088600e-01   1.4055200e-01  -1.7939700e-03
   4.0145700e-01   1.6063700e-01   4.2899300e-03
   3.7945200e-01   1.5549900e-01   4.7579200e-03
   3.5791600e-01   1.5760100e-01   7.0978800e-03
   3.3403900e-01   1.8632800e-01   1.7393700e-02
   3.0618200e-01   1.7558400e-01   2.5583600e-02
   2.8113500e-01   1.8889700e-01   2.8391500e-02
   2.5561900e-01   1.9777100e-01   2.9093500e-02
   2.2167600e-01   2.0244200e-01   3.5645400e-02
   1.9101000e-01   2.0641300e-01   3.7985300e-02
   1.6057800e-01   2.0804800e-01   3.4241400e-02
   1.2921000e-01   2.0874800e-01   2.8625500e-02
   1.0627000e-01   2.0220900e-01   2.4413600e-02
   7.3497100e-02   2.1271800e-01   2.3477600e-02
   4.0958600e-02   2.0477800e-01   1.5521700e-02
   6.5474300e-03   1.8586100e-01   8.2678600e-03
  -2.4118300e-02   1.9637000e-01   2.1839700e-03
  -4.6825000e-02   1.9753800e-01  -8.3458500e-03
  -6.4615800e-02   1.8375900e-01  -1.5833700e-02
  -7.5852100e-02   1.6460800e-01  -2.0279600e-02
  -8.8727100e-02   1.4475600e-01  -2.8469500e-02
  -1.0534700e-01   1.3378000e-01  -3.2447400e-02
  -1.3765200e-01   1.3074300e-01  -3.3851400e-02
  -1.6714700e-01   1.2070100e-01  -3.4553400e-02
  -1.9383300e-01   1.2373700e-01  -2.6831500e-02
  -2.2379700e-01   1.2443800e-01  -2.1215600e-02
  -2.3924700e-01   1.0014900e-01  -1.4663700e-02
  -2.6265600e-01   1.0388500e-01  -5.7719000e-03
  -2.9449200e-01   9.4076500e-02   7.7998700e-03
  -3.2000800e-01   7.1889500e-02   2.2775600e-02
  -3.5231200e-01   8.6135900e-02   2.7689500e-02
  -3.6963500e-01   6.7452100e-02   4.7579200e-02
  -3.8766000e-01   6.0445700e-02   6.5830900e-02
  -4.0381200e-01   6.4883100e-02   7.3084700e-02
  -4.0428000e-01   3.2653600e-02   8.4550500e-02
  -4.1458000e-01   3.5923300e-02   9.2740400e-02
  -4.2019800e-01   9.9995300e-03   1.0982200e-01
  -4.3283900e-01   1.7473000e-02   1.0865200e-01
  -4.3471200e-01   1.5604700e-02   1.0561000e-01
  -4.2932800e-01  -8.6842500e-03   1.1380000e-01
  -4.2909300e-01   8.5982400e-03   1.0841800e-01
  -4.1855900e-01  -2.1529300e-02   1.1380000e-01
  -4.1364400e-01  -1.0552600e-02   1.2152200e-01
  -4.0872800e-01   3.4602000e-03   1.1707600e-01
  -4.0217300e-01  -1.6858400e-02   1.0724800e-01
  -3.9421400e-01  -4.9474900e-03   1.0186600e-01
  -3.9117100e-01  -8.9178000e-03   1.0046200e-01
  -3.9046900e-01  -2.4098400e-02   8.7826500e-02
  -3.7642300e-01  -1.9661000e-02   7.5892700e-02
  -3.5886700e-01  -4.6986000e-02   7.4020700e-02
  -3.3686200e-01  -4.4650500e-02   6.3724900e-02
  -2.9847100e-01  -4.6518900e-02   4.7345200e-02
  -2.7365800e-01  -4.6518900e-02   4.1729300e-02
  -2.4533300e-01  -4.7453100e-02   4.2899300e-02
  -2.1209200e-01  -8.1317400e-02   3.8219300e-02
  -1.9008800e-01  -7.6179400e-02   3.2369400e-02
  -1.6457200e-01  -1.1448100e-01   3.0965500e-02
  -1.4514300e-01  -1.2545800e-01   3.4943400e-02
  -1.1705200e-01  -1.5068100e-01   3.8687300e-02
  -9.5047500e-02  -1.8968300e-01   4.0793300e-02
  -7.5384000e-02  -1.9645600e-01   4.6877200e-02
  -5.2209100e-02  -2.1817600e-01   4.8983200e-02
  -2.8097800e-02  -2.5063900e-01   5.5301000e-02
  -9.4344200e-04  -2.8076700e-01   6.4192900e-02
   1.7315600e-02  -2.8427000e-01   6.3256900e-02
   4.5640400e-02  -2.9991800e-01   5.6237000e-02
   7.5603900e-02  -3.1042700e-01   5.5301000e-02
   1.0697200e-01  -3.2257200e-01   6.0449000e-02
   1.4372400e-01  -3.2233800e-01   5.2025100e-02
   1.7275100e-01  -3.4265700e-01   3.8921300e-02
   2.1231200e-01  -3.3635100e-01   2.9327500e-02
   2.4766000e-01  -3.3868600e-01   1.4585800e-02
   2.7528200e-01  -3.5970600e-01  -6.2398600e-04
   3.0056400e-01  -3.4592600e-01  -1.5131700e-02
   3.1882300e-01  -3.7465300e-01  -1.5599700e-02
   3.3731600e-01  -3.7558700e-01  -1.8641700e-02
   3.5229800e-01  -3.8212600e-01  -3.4787400e-02
   3.6400200e-01  -3.9637300e-01  -4.2041300e-02
   3.7711100e-01  -3.9754000e-01  -4.7657200e-02
   3.9420000e-01  -4.0244500e-01  -5.6549000e-02
   4.0941600e-01  -4.0127700e-01  -6.3802900e-02
   4.2533400e-01  -3.9637300e-01  -6.8248800e-02
   4.3703800e-01  -3.7815600e-01  -7.8778600e-02
   4.4850900e-01  -4.0244500e-01  -8.3224600e-02
   4.4687000e-01  -3.7768900e-01  -8.5096500e-02
   4.3446300e-01  -3.6274200e-01  -8.6266500e-02
   4.3586800e-01  -3.7745500e-01  -9.1882400e-02
   4.3657000e-01  -3.3868600e-01  -1.0171000e-01
   4.4265600e-01  -3.4032100e-01  -1.0194400e-01
   4.4195400e-01  -3.4008800e-01  -1.0405000e-01
   4.2744100e-01  -3.0972700e-01  -1.0498600e-01
   4.1831100e-01  -3.0949300e-01  -1.0873000e-01
   4.1199100e-01  -2.8450300e-01  -1.1341000e-01
   4.1035200e-01  -2.5601100e-01  -1.1317600e-01
   4.0637300e-01  -2.5764600e-01  -1.1528200e-01
   3.9700900e-01  -2.3078800e-01  -1.1668600e-01
   3.8951800e-01  -2.1280400e-01  -1.1200600e-01
   3.8881600e-01  -1.8874900e-01  -1.0709200e-01
   3.7875000e-01  -1.5698700e-01  -9.6328300e-02
   3.6610900e-01  -1.3596700e-01  -8.8840500e-02
   3.6728000e-01  -1.1004400e-01  -8.7670500e-02
   3.5300000e-01  -8.4820600e-02  -7.9714600e-02
   3.3661400e-01  -6.3567800e-02  -7.1992800e-02
   3.1765300e-01  -4.4417000e-02  -6.9184800e-02
   2.9635000e-01  -1.5457100e-02  -6.8248800e-02
   2.7926200e-01  -1.4442900e-03  -5.8421000e-02
   2.4883000e-01   2.6814900e-02  -4.7891200e-02
   2.2448500e-01   5.3672800e-02  -4.6253200e-02
   1.9101000e-01   7.9363000e-02  -4.4147200e-02
   1.5659900e-01   1.3261200e-01  -3.1277500e-02
   1.3436000e-01   1.5339700e-01  -1.8875700e-02
   9.9246900e-02   1.8422600e-01  -1.1855800e-02
   7.2794800e-02   2.2953400e-01  -7.1758700e-03
   5.4067600e-02   2.6806900e-01   7.8002000e-05
   2.9722300e-02   3.0543700e-01   1.4351800e-02
   4.9088000e-03   3.2295300e-01   1.9265700e-02
  -2.8097800e-02   3.5891900e-01   2.1137600e-02
  -4.5888700e-02   3.7199800e-01   2.5115600e-02
  -7.0234000e-02   4.0282600e-01   2.2307600e-02
  -9.5515700e-02   4.1777300e-01   2.5583600e-02
  -1.0394300e-01   4.0049000e-01   3.0263500e-02
  -1.2430900e-01   4.3015100e-01   3.0965500e-02
  -1.3905600e-01   4.4393000e-01   2.6519500e-02
  -1.5380400e-01   4.3365400e-01   2.3009600e-02
  -1.7487200e-01   4.5864400e-01   1.7861700e-02
  -1.9172700e-01   4.7989600e-01   1.3415800e-02
  -2.0975100e-01   4.7522600e-01   1.3649800e-02
  -2.2286000e-01   5.1165900e-01   3.3539500e-03
  -2.2145600e-01   5.1399400e-01  -1.5599700e-03
  -2.3292600e-01   5.2824100e-01  -5.5379000e-03
  -2.3924700e-01   5.5136200e-01  -4.3679200e-03
  -2.3362900e-01   5.4061900e-01  -9.2818400e-03
  -2.4767400e-01   5.6187200e-01  -1.7237700e-02
  -2.4697200e-01   5.4926000e-01  -1.1387800e-02
  -2.5797400e-01   5.4131900e-01  -1.6067700e-02
  -2.8185100e-01   5.6537500e-01  -1.8407700e-02
  -2.8723500e-01   5.4458900e-01  -1.7003700e-02
  -3.0081200e-01   5.4295400e-01  -1.0685800e-02
  -3.0455800e-01   5.4225400e-01  -1.5599400e-04
  -3.1134600e-01   5.1422800e-01  -3.4319400e-03
  -3.2164600e-01   5.0815600e-01  -1.5599700e-03
  -3.2305100e-01   4.8433400e-01   1.0607800e-02
  -3.3709600e-01   4.6705100e-01   1.8563700e-02
  -3.4833300e-01   4.6144600e-01   2.1605600e-02
  -3.4528900e-01   4.3762400e-01   2.1137600e-02
  -3.4809800e-01   4.3879200e-01   2.3711600e-02
  -3.4575800e-01   4.0796400e-01   2.9795500e-02
  -3.3639400e-01   3.6872800e-01   2.9561500e-02
  -3.3686200e-01   3.6779400e-01   2.6285500e-02
  -3.3218000e-01   3.1361100e-01   3.7517400e-02
  -3.4271400e-01   2.9165700e-01   4.2899300e-02
  -3.5161000e-01   2.6923700e-01   3.4007400e-02
  -3.4552300e-01   2.1855700e-01   3.4709400e-02
  -3.4880100e-01   2.1692200e-01   4.4069200e-02
  -3.4458700e-01   1.8539300e-01   5.5067100e-02
  -3.4107600e-01   1.5526600e-01   5.1089100e-02
  -3.3686200e-01   1.3821700e-01   4.9685100e-02
  -3.2586000e-01   9.6645500e-02   5.1323100e-02
  -3.1860300e-01   7.3057300e-02   4.7345200e-02
  -3.0221700e-01   4.8534800e-02   4.4771200e-02
  -2.8746900e-01   1.9341400e-02   3.9857300e-02
  -2.7155100e-01  -1.2187500e-02   3.4007400e-02
  -2.4907800e-01  -3.1571900e-02   2.2541600e-02
  -2.3550100e-01  -6.1933000e-02   1.4117800e-02
  -2.1185800e-01  -8.4587100e-02  -1.5599400e-04
  -1.9032200e-01  -1.1167900e-01   4.0559300e-03
  -1.7838300e-01  -1.4741100e-01  -6.2398600e-04
  -1.6527400e-01  -1.6212500e-01  -2.8235500e-02
  -1.5825200e-01  -2.0486400e-01  -2.9405500e-02
  -1.3952500e-01  -2.2845200e-01  -2.7065500e-02
  -1.3999300e-01  -2.6114900e-01  -2.5661600e-02
  -1.3882200e-01  -3.0458900e-01  -2.4491600e-02
  -1.1775400e-01  -3.2677600e-01  -2.0747600e-02
  -1.1775400e-01  -3.3354800e-01  -1.1855800e-02
  -1.0277200e-01  -3.6507700e-01  -1.4897700e-02
  -9.0833900e-02  -3.8165900e-01  -1.8173700e-02
  -7.4447600e-02  -3.9357000e-01  -1.7939700e-03
  -5.2443200e-02  -4.1972700e-01   4.9919200e-03
  -4.1206900e-02  -4.2299700e-01  -1.0919800e-03
  -1.7095600e-02  -4.5662800e-01   8.7358500e-03
   2.3338100e-03  -4.6783800e-01   1.9499700e-02
   2.0592800e-02  -4.6083200e-01   2.4647600e-02
   4.1426800e-02  -4.7788100e-01   2.6051600e-02
   7.0688000e-02  -4.8815700e-01   3.2135400e-02
   9.0585600e-02  -4.9002500e-01   3.7985300e-02
   1.0790800e-01  -4.9049200e-01   3.7283400e-02
   1.3131700e-01  -4.8909100e-01   4.0559300e-02
   1.4372400e-01  -4.8278500e-01   4.0091300e-02
   1.7532600e-01  -4.9236000e-01   3.6347400e-02
   2.0318300e-01  -4.7811400e-01   3.5177400e-02
   2.3080500e-01  -4.6363400e-01   3.8921300e-02
   2.5515100e-01  -4.5802900e-01   3.4475400e-02
   2.6123700e-01  -4.3000300e-01   2.4647600e-02
   2.8534800e-01  -4.3374000e-01   2.7455500e-02
   2.8745500e-01  -4.0221100e-01   2.3243600e-02
   2.9447800e-01  -4.0174400e-01   1.6925700e-02
   3.0758700e-01  -3.9847400e-01   1.7393700e-02
   3.0267100e-01  -3.7068200e-01   2.4881600e-02
   3.0899100e-01  -3.5596900e-01   1.7861700e-02
   3.1203400e-01  -3.2490700e-01  -4.8359100e-03
   3.1812100e-01  -3.1579900e-01  -6.2398600e-04
   3.2233400e-01  -3.0085200e-01   1.7159700e-03
   3.2093000e-01  -2.9314500e-01  -9.2818400e-03
   3.2631400e-01  -2.8964200e-01  -2.2853600e-02
   3.2631400e-01  -2.6885600e-01  -2.8937500e-02
   3.1601400e-01  -2.5881300e-01  -2.7767500e-02
   3.1180000e-01  -2.4970500e-01  -4.2275300e-02
   3.0313900e-01  -2.1770900e-01  -4.1105300e-02
   2.9377500e-01  -2.2471500e-01  -3.3383400e-02
   2.8698700e-01  -2.0229500e-01  -4.3679200e-02
   2.6545100e-01  -1.6773000e-01  -5.1401100e-02
   2.4508500e-01  -1.5838800e-01  -4.8593200e-02
   2.2588900e-01  -1.4764500e-01  -3.9233300e-02
   2.0294900e-01  -1.1961900e-01  -3.3149400e-02
   1.9264900e-01  -1.1004400e-01  -2.8001500e-02
   1.7673100e-01  -9.4162500e-02  -2.7767500e-02
   1.6549400e-01  -5.6094300e-02  -2.6129500e-02
   1.5847200e-01  -5.7028500e-02  -1.6535700e-02
   1.3927600e-01  -3.0404100e-02  -1.3727800e-02
   1.3787200e-01  -1.8259700e-02  -1.4663700e-02
   1.3295600e-01   3.6937500e-03  -1.0451800e-02
   1.3084900e-01   1.5371100e-02  -3.1979400e-03
   1.3459400e-01   1.8874300e-02  -6.9418800e-03
   1.2382600e-01   4.5265200e-02  -5.5379000e-03
   1.2031500e-01   4.7367100e-02   1.1777800e-02
   1.0112000e-01   6.1146400e-02   1.6925700e-02
   8.1456100e-02   8.2399200e-02   9.4378400e-03
   7.1390300e-02   1.0271800e-01   1.3415800e-02
   5.1024500e-02   1.0295100e-01   2.8625500e-02
   3.8617700e-02   1.0482000e-01   3.5645400e-02
