**************************************************************************************
  	RED ACELEROGRÁFICA DE LA UNIVERSIDAD AUTONOMA METROPOLITANA (RA-UAM)
	   UNIDAD AZCAPOTZALCO. DIVISIÓN CBI-DEPARTAMENTO DE MATERIALES
     Av. San Pablo 420, Col. Nueva el Rosario, Azcapotzalco, C.P. 02128, Ciudad de México
		Área de Estructuras. e-mail: agb@azc.uam.mx
**************************************************************************************
ARCHIVO ESTANDAR DE ACELERACION:
VERSION DEL FORMATO                    : 2.0
NOMBRE DEL ARCHIVO                     : RIDA202210.141
FECHA Y HORA DE CREACION               : 11:30 a. m. 21/10/2022
REF. CATALOGO ACELEROGRAMAS, SMIS 1999 : REGISTRO NO.      /PAG.    


================================================================================
DATOS DE LA ESTACION:
NOMBRE DE LA ESTACION                  : UAM-AZCAPOTZALCO.
CLAVE DE LA ESTACION                   : RIDA
LOCALIZACION DE LA ESTACION            : AV. SAN PABLO 420, COL. NUEVA EL ROSARIO,
                                       : AZCAPOTZALCO, C.P.02128, CIUDAD DE MEXICO. 
                                       :
                                       : 
                                       : 
COORDENADAS DE LA ESTACION             : 19.498596 LAT. N
                                       : 99.195595 LONG. W
ALTITUD (msnm)                         : 2546
TIPO DE SUELO                          : ZONA DE TRANSICION
                                       : 
                                       : 
INSTITUCION RESPONSABLE                : UNIVERSIDAD AUTONOMA METROPOLITANA
                                       : 

================================================================================
DATOS DEL ACELEROGRAFO: 
MODELO DEL ACELEROGRAFO                : ETNA2 KINEMETRICS
NUMERO DE SERIE DEL ACELEROGRAFO       : 103732
NUMERO DE CANALES                      : 3
ORIENTACION C1-C6 (rumbo;orientacion)  : /N90E/N00E/V
ORIENTACION C7-C12 (rumbo;orientacion) : 
VEL. DE MUESTREO, C1-C6 (muestras/s)   : /200/200/200
VEL. DE MUESTREO, C7-C12 (muestras/s)  : 
ESC. COMPLETA DE SENSORES, C1-C6, (g)  : /2/2/2
ESC. COMPLETA DE SENSORES, C7-C12 (g)  : 
FREC. NAT. DE SENSORES, C1-C6, (Hz)    : /198/212/200   
FREC. NAT. DE SENSORES, C7-C12 (Hz)    : 
AMORTIGUAMIENTO DE SENSORES, C1-C6     : /0.7/0.7/0.7      
AMORTIGUAMIENTO DE SENSORES, C7-C12    : 
INTERVALO DE MUESTREO, C1-C6 (s)       : /0.005/0.005/0.005
INTERVALO DE MUESTREO, C7-C12 (s)      : 
UMBRAL DE DISPARO, C1-C6 (Gal)         : /2/2/2
UMBRAL DE DISPARO, C7-C12 (Gal)        : 
MEMORIA DE PREEVENTO (s)               : 50
TIEMPO DE POSEVENTO (s)                : 60


================================================================================
DATOS DEL SISMO:
FECHA DEL SISMO [GMT]                  : 2022/10/14
HORA EPICENTRO (GMT)                   : 23:28:02
MAGNITUD(ES)                           : /M=5.0
COORDENADAS DEL EPICENTRO              : 16.5100 LAT. N
                                       : -98.5300 LONG. W
PROFUNDIDAD FOCAL (Km)                 : 16.0
FUENTE DE LOS DATOS EPICENTRALES       : SSN
                                       : INSTITUTO DE GEOFISICA, UNAM

================================================================================
DATOS DE ESTE REGISTRO:
HORA DE LA PRIMERA MUESTRA (GMT)       : 23:28:48.000
EXACTITUD DEL TIEMPO (s)               : 
DURACION DEL REGISTRO (s), C1-C6       : /125/125/125
DURACION DEL REGISTRO (s), C7-C12      : 
NUM. TOTAL DE MUESTRAS, C1-C6          : /25000/25000/25000
NUM. TOTAL DE MUESTRAS, C7-C12         : 
ACEL. MAX.(Gal), C1-C6                 : /-0.450/0.569/-0.196
ACEL. MAX., C1-C6, EN LA MUESTRA       : /10523/11565/2056
ACEL. MAX.(Gal), C7-C12                : 
ACEL. MAX., C7-C12,EN LA MUESTRA       : 
UNIDADES DE LOS DATOS                  : Gal (cm/s/s)
FACTOR DE DECIMACION                   : 1
FORMATO DATOS (FORTRAN,16 campos/dato) : 3E16.7


================================================================================
CALIDAD DEL ACELEROGRAMA:
REGISTRO DIGITAL COMPLETO CON TIEMPO ABSOLUTO CORRECTO


================================================================================
COMENTARIOS:














================================================================================
DATOS DE ACELERACION:
---------+---------+---------+---------+---------+---------+---------+---------+
   CANAL-1   	     CANAL-2          CANAL-3
     N90E             N00E              V
---------+---------+---------+---------+---------+---------+---------+---------+ 
[...]
  -5.8499700e-03   1.1573300e-01   9.4391100e-03
  -1.5681700e-02   1.0195400e-01   8.2691300e-03
  -1.9427200e-02   9.9852100e-02   2.2308900e-02
  -1.0297700e-02   8.4437900e-02   3.0030800e-02
  -8.8931300e-03   7.0658700e-02   3.6816600e-02
  -3.9772500e-03   7.3227700e-02   4.9686400e-02
   2.3431700e-03   3.0488500e-02   5.8578300e-02
   3.7477100e-03   3.8662700e-02   5.3196400e-02
  -3.0408900e-03   3.3291100e-02   5.8110300e-02
  -1.7554400e-02   2.1613700e-02   6.0918200e-02
  -1.9895300e-02   4.1231700e-02   5.9748200e-02
  -4.4474800e-02   2.6284700e-02   6.3726200e-02
  -6.3904200e-02   2.2080800e-02   4.8750400e-02
  -6.2733800e-02  -3.8429000e-03   3.7986600e-02
  -8.2163200e-02  -1.4586100e-02   4.5708500e-02
  -7.7715500e-02  -2.7898300e-02   4.1730500e-02
  -7.1629200e-02  -5.1486500e-02   2.8158800e-02
  -8.2631400e-02  -4.1444000e-02   3.7752600e-02
  -7.6076900e-02  -6.2930300e-02   3.7518600e-02
  -8.8015400e-02  -5.9660700e-02   3.4008700e-02
  -1.0533800e-01  -6.8301900e-02   4.9920400e-02
  -1.0861500e-01  -1.0006400e-01   4.5240500e-02
  -1.0416800e-01  -9.7028200e-02   3.3072700e-02
  -9.2229100e-02  -1.1010700e-01   3.1434700e-02
  -8.4270000e-02  -1.0683700e-01   2.7222800e-02
  -7.4438200e-02  -1.1290900e-01   2.3946900e-02
  -8.0056400e-02  -1.0146600e-01   2.0904900e-02
  -8.2163200e-02  -1.1267600e-01   1.9512400e-03
  -7.4204100e-02  -1.0590300e-01  -1.7470400e-02
  -7.4906400e-02  -8.9087600e-02  -1.0918500e-02
  -7.1863300e-02  -9.2357300e-02  -9.9825600e-03
  -6.3670100e-02  -8.2781800e-02  -1.6066500e-02
  -5.7115600e-02  -8.7686300e-02  -1.3024500e-02
  -5.3604300e-02  -6.6433500e-02  -2.8234200e-02
  -4.7049700e-02  -7.1104500e-02  -2.9638200e-02
  -5.1029300e-02  -5.4289100e-02  -9.2805700e-03
  -5.8520100e-02  -5.9427100e-02  -1.0907100e-03
  -6.3436000e-02  -5.1720100e-02   1.7172400e-03
  -6.6947400e-02  -3.8875000e-02   1.3183000e-02
  -6.2733800e-02  -5.0318800e-02   1.6693000e-02
  -4.2602000e-02  -2.8598900e-02   9.4391100e-03
  -1.7788500e-02  -1.9490600e-02   2.2776900e-02
  -9.5954000e-03  -8.0467500e-03   1.9968900e-02
   1.4515800e-02  -2.1826000e-02   6.3971600e-03
   2.6688500e-02  -1.4119000e-02   1.4119000e-02
   1.7090800e-02  -1.3418300e-02   1.8331000e-02
   3.0199800e-02  -2.6497000e-02   1.8798900e-02
   3.8627100e-02  -1.2484100e-02   2.8392800e-02
   5.1970200e-02  -1.8322800e-02   3.0732700e-02
   7.8890500e-02  -3.1422600e-03   3.2136700e-02
   9.5979000e-02   6.1996300e-03   4.9920400e-02
   1.0440600e-01   7.3673700e-03   5.2962400e-02
   1.2383600e-01   5.9660800e-03   5.8812300e-02
   1.3015600e-01   8.0680100e-03   7.5426000e-02
   1.3530600e-01   8.7686500e-03   7.7297900e-02
   1.6012000e-01  -8.7473900e-03   7.2852000e-02
   1.6363100e-01   8.5351000e-03   8.7359800e-02
   1.6995100e-01   1.3673100e-02   9.3677700e-02
   1.7908100e-01   1.8344100e-02   8.0105900e-02
   1.9031700e-01   2.5817600e-02   8.8295700e-02
   1.9570100e-01   4.8004600e-02   7.9871900e-02
   2.0927800e-01   4.5202000e-02   7.2150000e-02
   2.3619900e-01   3.5159500e-02   7.3554000e-02
   2.5118000e-01   6.6688400e-02   5.9280200e-02
   2.6803500e-01   4.5202000e-02   5.6004300e-02
   2.7622800e-01   5.1274200e-02   4.5708500e-02
   2.8606000e-01   6.3885800e-02   2.3478900e-02
   2.9425300e-01   5.5244500e-02   4.2912000e-03
   3.0197800e-01   7.7898600e-02   8.2691300e-03
   3.0291400e-01   8.4437900e-02   3.3552100e-03
   3.0502100e-01   8.5605700e-02  -2.0980400e-02
   3.1696000e-01   7.7431500e-02  -2.6830300e-02
   3.1344800e-01   7.2994100e-02  -2.7766300e-02
   3.1625700e-01   6.3185100e-02  -2.2384300e-02
   3.2632300e-01   6.3185100e-02  -9.2805700e-03
   3.2281200e-01   7.0658700e-02  -1.4896500e-02
   3.3053700e-01   4.6136200e-02  -2.4490300e-02
   3.4177300e-01   6.3652200e-02  -3.1510200e-02
   3.3287800e-01   8.1401800e-02  -3.1744200e-02
   3.2445100e-01   6.7389000e-02  -1.9576400e-02
   3.2023700e-01   5.7813600e-02  -1.6534400e-02
   3.0993700e-01   6.0149000e-02  -2.6596300e-02
   3.1368200e-01   6.0849700e-02  -3.6658100e-02
   3.2164100e-01   6.0616100e-02  -2.3554300e-02
   3.1415100e-01   7.2994100e-02  -6.4726200e-03
   3.0104200e-01   7.4862500e-02  -8.5671500e-04
   2.7880300e-01   8.9809500e-02   8.5031200e-03
   2.6686400e-01   8.7007000e-02   1.6459000e-02
   2.5726700e-01   8.8641800e-02   2.1606900e-02
   2.4930800e-01   8.0701200e-02   3.7050600e-02
   2.4626500e-01   7.4395400e-02   4.1730500e-02
   2.2987800e-01   8.0934700e-02   1.9734900e-02
   2.2706900e-01   7.7431500e-02   6.6311600e-03
   2.0553300e-01   1.0849300e-01  -2.7286800e-03
   1.7627200e-01   1.1876900e-01  -3.4306700e-03
   1.7603800e-01   1.1223000e-01   9.6731000e-03
   1.4724500e-01   1.1690100e-01  -8.5671500e-04
   1.3156100e-01   1.1853600e-01  -1.0918500e-02
   1.2524000e-01   1.1223000e-01  -5.3026400e-03
   9.6213100e-02   1.0522400e-01  -9.9825600e-03
   7.5847300e-02   1.0428900e-01  -1.3960500e-02
   4.0733900e-02   1.0172000e-01  -1.4662500e-02
   1.8495400e-02   8.2336000e-02  -2.7766300e-02
  -1.8704400e-03   9.0977300e-02  -4.6953900e-02
  -1.8490800e-02   8.6072800e-02  -5.6313800e-02
  -2.8322600e-02   6.2017400e-02  -6.5907600e-02
  -5.7583800e-02   7.9299900e-02  -7.5969400e-02
  -6.7181500e-02   8.0000500e-02  -7.9713400e-02
  -7.2331400e-02   8.0701200e-02  -9.3051100e-02
  -8.6610900e-02   9.2378500e-02  -9.1881100e-02
  -9.4804000e-02   1.0288800e-01  -7.5969400e-02
  -1.1189300e-01   9.4480500e-02  -7.7607400e-02
  -1.2664000e-01   8.9342400e-02  -7.2225500e-02
  -1.3296100e-01   7.4161900e-02  -5.6313800e-02
  -1.4560100e-01   4.8238100e-02  -5.1633800e-02
  -1.5309200e-01   4.1698800e-02  -5.1165800e-02
  -1.6152000e-01   1.7877000e-02  -4.5082000e-02
  -1.6737200e-01   1.1804800e-02  -4.1806000e-02
  -1.6713800e-01   6.4331800e-03  -3.6658100e-02
  -1.6432900e-01   1.0615900e-03  -2.1448400e-02
  -1.5356100e-01   4.5648000e-03  -2.2150300e-02
  -1.4443100e-01  -2.9299500e-02  -2.3788300e-02
  -1.3342900e-01  -3.0934400e-02  -1.4194500e-02
  -1.2429900e-01  -5.0552300e-02  -1.3024500e-02
  -1.2991700e-01  -8.2314800e-02  -4.3666500e-03
  -1.2547000e-01  -9.2123700e-02   3.3552100e-03
  -1.1704300e-01  -1.0590300e-01  -7.4086000e-03
  -1.1399900e-01  -1.0240000e-01  -2.2384300e-02
  -9.9485800e-02  -1.0823800e-01  -2.6830300e-02
  -1.0159300e-01  -1.0800500e-01  -3.7360100e-02
  -9.3165400e-02  -1.3766500e-01  -5.4207800e-02
  -8.7079100e-02  -1.3346200e-01  -5.9823700e-02
  -9.2229100e-02  -1.6966100e-01  -7.2225500e-02
  -7.4672300e-02  -2.0375900e-01  -8.2989300e-02
  -6.9756400e-02  -1.8017100e-01  -8.0883300e-02
  -7.0458700e-02  -2.1823900e-01  -7.8309400e-02
  -5.8988300e-02  -2.1380200e-01  -7.5735400e-02
  -5.5477000e-02  -2.0212400e-01  -7.4565400e-02
  -5.4540600e-02  -2.2921600e-01  -8.6733200e-02
  -5.2199700e-02  -2.2594600e-01  -1.0007100e-01
  -5.9924700e-02  -2.2758100e-01  -9.9837000e-02
  -5.8754200e-02  -2.4743300e-01  -9.8667000e-02
  -5.6881500e-02  -2.4696600e-01  -9.5859100e-02
  -6.6947400e-02  -2.4252800e-01  -9.2115100e-02
  -6.2265600e-02  -2.5467300e-01  -1.0007100e-01
  -6.4372400e-02  -2.5373800e-01  -1.0475100e-01
  -8.5908600e-02  -2.5397200e-01  -8.6733200e-02
  -8.7313200e-02  -2.5397200e-01  -6.8949500e-02
  -8.3099600e-02  -2.4276200e-01  -5.6079800e-02
  -8.9420000e-02  -2.3762400e-01  -3.8296100e-02
  -8.5440500e-02  -2.3108400e-01  -3.6892100e-02
  -8.6142700e-02  -2.3201800e-01  -3.8062100e-02
  -8.5908600e-02  -2.1146600e-01  -2.6830300e-02
  -7.3970100e-02  -2.2267700e-01  -2.0044400e-02
  -6.5308700e-02  -2.2337700e-01  -1.7236400e-02
  -4.4006600e-02  -2.0119000e-01  -2.0980400e-02
  -1.9895300e-02  -1.9815400e-01  -3.0340200e-02
  -1.3574900e-02  -1.7620100e-01  -2.5192300e-02
  -1.6363500e-03  -2.0562800e-01  -7.1746100e-03
  -3.5090700e-03  -2.1520300e-01   5.4611800e-03
  -1.8490800e-02  -2.2431100e-01   1.6693000e-02
  -2.3406700e-02  -2.6214600e-01   2.1606900e-02
  -3.6515700e-02  -2.4673200e-01   1.7395000e-02
  -4.5645200e-02  -2.5023500e-01   2.4414800e-02
  -6.1797400e-02  -2.5467300e-01   4.2666500e-02
  -7.7247300e-02  -2.4579800e-01   6.2088200e-02
  -7.9120000e-02  -2.5397200e-01   6.6534100e-02
  -9.3867700e-02  -2.4649800e-01   6.9576100e-02
  -1.0510400e-01  -2.4392900e-01   7.1682000e-02
  -1.2429900e-01  -2.3949200e-01   6.3258200e-02
  -1.4653800e-01  -2.3809100e-01   6.8640100e-02
  -1.5894500e-01  -2.2291000e-01   7.0980000e-02
  -1.7720400e-01  -2.1076600e-01   6.6534100e-02
  -1.7158500e-01  -2.0913100e-01   6.2790200e-02
  -1.7603300e-01  -1.8857900e-01   5.0622400e-02
  -1.8492900e-01  -1.7853600e-01   4.1964500e-02
  -1.7533100e-01  -1.5121100e-01   4.1028600e-02
  -1.8656700e-01  -1.3556400e-01   4.0326600e-02
  -1.9429200e-01  -1.2412000e-01   4.0326600e-02
  -2.0623100e-01  -1.1290900e-01   4.7814400e-02
  -2.2495800e-01  -1.1197500e-01   4.9452400e-02
  -2.2753300e-01  -1.1290900e-01   4.6644500e-02
  -2.3291700e-01  -1.1267600e-01   5.3430300e-02
  -2.4532400e-01  -9.8429500e-02   5.1792400e-02
  -2.5117600e-01  -1.2131700e-01   5.2962400e-02
  -2.6428500e-01  -1.0964000e-01   5.1558400e-02
  -2.7154200e-01  -1.0169900e-01   4.3368500e-02
  -2.6779600e-01  -9.7261800e-02   4.2900500e-02
  -2.7037100e-01  -7.4374100e-02   3.5178700e-02
  -2.5421900e-01  -4.3545900e-02   3.1902700e-02
  -2.3947100e-01  -8.9809400e-03   2.9562800e-02
  -2.3315100e-01  -2.9087100e-03   2.4882800e-02
  -2.1934000e-01   3.8896200e-02   1.7629000e-02
  -2.0506000e-01   5.1974900e-02   1.3651000e-02
  -1.9101500e-01   8.4437900e-02   1.9500900e-02
  -1.7228800e-01   1.0779300e-01   1.6459000e-02
  -1.4513300e-01   1.2507500e-01   9.9071000e-03
  -1.2991700e-01   1.5029800e-01   6.6311600e-03
  -1.2804500e-01   1.4936400e-01   8.5031200e-03
  -1.3179000e-01   1.6501200e-01   7.5671400e-03
  -1.3647200e-01   1.6361000e-01   5.4726000e-04
  -1.4536700e-01   1.8276100e-01  -9.2805700e-03
  -1.3834500e-01   1.7482100e-01  -2.4724300e-02
  -1.3202400e-01   2.0004400e-01  -4.4380000e-02
  -1.3062000e-01   2.2690200e-01  -6.2163700e-02
  -1.1634000e-01   2.2573400e-01  -6.2865600e-02
  -1.1306300e-01   2.6333500e-01  -5.9823700e-02
  -9.1760900e-02   2.7337800e-01  -6.6141600e-02
  -6.5074700e-02   2.9743300e-01  -7.5501400e-02
  -4.5411100e-02   3.2242300e-01  -6.6375600e-02
  -1.2638600e-02   3.5255000e-01  -5.4441800e-02
   1.9431700e-02   3.6796400e-01  -5.8185700e-02
   5.0799700e-02   3.9505600e-01  -5.7483700e-02
   8.0060900e-02   4.2588400e-01  -5.7717700e-02
   9.0595000e-02   4.3522600e-01  -5.3739800e-02
   1.0417200e-01   4.7656400e-01  -4.8357900e-02
   1.2617700e-01   5.0155300e-01  -4.4848000e-02
   1.4701100e-01   5.2677600e-01  -4.2274000e-02
   1.8891300e-01   5.4522700e-01  -4.3678000e-02
   2.1489700e-01   5.6904800e-01  -4.0636000e-02
   2.3456000e-01   5.6391000e-01  -3.2446200e-02
   2.5445800e-01   5.6694600e-01  -2.9170200e-02
   2.5937400e-01   5.6577900e-01  -3.1744200e-02
   2.6803500e-01   5.4499300e-01  -3.6658100e-02
   2.7341900e-01   5.5410100e-01  -3.6424100e-02
   2.7365300e-01   5.1813500e-01  -2.9872200e-02
   2.7435500e-01   5.0785900e-01  -3.6658100e-02
   2.8418700e-01   4.9127700e-01  -4.2742000e-02
   2.7856900e-01   4.8427100e-01  -4.4614000e-02
   2.9097600e-01   4.8800700e-01  -4.5783900e-02
   3.0712800e-01   4.5461000e-01  -4.2040000e-02
   2.9706200e-01   4.8567200e-01  -3.5020100e-02
   3.0057300e-01   4.8847500e-01  -2.8936200e-02
   2.9355100e-01   4.6301800e-01  -2.2150300e-02
   2.7739900e-01   4.6348500e-01  -9.9825600e-03
   2.6639600e-01   4.3195600e-01  -5.5366300e-03
   2.5867100e-01   4.0860100e-01   5.9291700e-03
   2.5118000e-01   3.8851600e-01   1.9266900e-02
   2.3971000e-01   3.6446100e-01   2.1606900e-02
   2.3011200e-01   3.4717900e-01   3.6582600e-02
   2.1747200e-01   3.0023600e-01   4.8750400e-02
   1.9663800e-01   2.6707200e-01   4.0326600e-02
   1.7416500e-01   2.2643500e-01   4.5006500e-02
   1.6035400e-01   1.7061700e-01   6.6534100e-02
   1.4724500e-01   1.1386500e-01   7.5426000e-02
   1.4326500e-01   7.2293500e-02   8.7359800e-02
   1.4747900e-01   6.9023800e-02   9.5783600e-02
   1.4724500e-01   3.9830400e-02   8.5019800e-02
   1.3296500e-01   3.8662700e-02   9.1571700e-02
   1.1025900e-01   4.4501400e-02   1.0303700e-01
   1.0838600e-01   5.2654400e-03   1.0444100e-01
   9.9256300e-02  -1.9957700e-02   1.1263100e-01
   1.0066100e-01  -3.8641400e-02   1.1450300e-01
   1.1423800e-01  -7.3440000e-02   1.0514300e-01
   1.0019300e-01  -8.4183100e-02   9.3209700e-02
   8.2167700e-02  -7.7643800e-02   8.1275900e-02
   5.4779300e-02  -9.6561100e-02   5.9280200e-02
   2.2006700e-02  -1.2201800e-01   4.5708500e-02
  -7.9567700e-03  -1.4910900e-01   3.3540700e-02
  -2.9961200e-02  -1.9698600e-01   1.7161000e-02
  -4.7517900e-02  -2.4252800e-01   1.1545100e-02
  -7.0224600e-02  -2.6121200e-01  -6.2271900e-04
  -9.1995000e-02  -2.7008700e-01  -1.0684500e-02
  -1.2383100e-01  -2.8223100e-01  -9.9825600e-03
  -1.5168800e-01  -2.8059600e-01  -1.8874400e-02
  -1.7650100e-01  -2.9344100e-01  -3.2212200e-02
  -1.9499400e-01  -3.1913200e-01  -2.9638200e-02
  -1.8844000e-01  -3.3571300e-01  -3.0340200e-02
  -1.9710100e-01  -3.5533100e-01  -2.8000200e-02
  -2.1231700e-01  -3.6280500e-01  -5.0686400e-03
  -2.2425600e-01  -3.7144600e-01   6.1631600e-03
  -2.4087600e-01  -3.7588400e-01   6.1631600e-03
  -2.4672800e-01  -3.7845300e-01   2.7924800e-02
  -2.5117600e-01  -3.9620200e-01   5.4132300e-02
  -2.5562400e-01  -4.0601100e-01   6.4896100e-02
  -2.5187800e-01  -4.2516200e-01   7.5192000e-02
  -2.5141000e-01  -4.3076700e-01   8.3381800e-02
  -2.5187800e-01  -4.3357000e-01   8.1509900e-02
  -2.4649400e-01  -4.5762500e-01   7.9637900e-02
  -2.4087600e-01  -4.5809200e-01   7.6595900e-02
  -2.2683100e-01  -4.7747700e-01   7.3788000e-02
  -2.2589400e-01  -4.7677600e-01   8.3147800e-02
  -2.2729900e-01  -4.6696700e-01   8.7827800e-02
  -2.3361900e-01  -4.7420700e-01   8.3147800e-02
  -2.6334900e-01  -4.4921700e-01   8.8061700e-02
  -2.5656000e-01  -4.4641500e-01   8.6657800e-02
  -2.4649400e-01  -4.2936600e-01   7.4490000e-02
  -2.4274900e-01  -4.1675400e-01   8.2445800e-02
  -2.0178300e-01  -4.3754000e-01   8.5019800e-02
  -1.8563100e-01  -4.1768900e-01   6.8406100e-02
  -1.7135100e-01  -4.1675400e-01   6.7470100e-02
  -1.6175400e-01  -3.9737000e-01   6.0918200e-02
  -1.6269000e-01  -3.6280500e-01   3.6582600e-02
  -1.5402900e-01  -3.6373900e-01   2.3946900e-02
  -1.6924500e-01  -3.2310200e-01   1.9032900e-02
  -1.5004900e-01  -3.2847300e-01   7.5671400e-03
  -1.3459900e-01  -3.2356900e-01  -1.5587000e-03
  -1.3553600e-01  -2.7475800e-01  -1.7938400e-02
  -1.0463600e-01  -2.7989600e-01  -3.5722100e-02
  -1.1282900e-01  -2.4019300e-01  -4.1338000e-02
  -1.0557200e-01  -2.0282500e-01  -5.8887700e-02
  -9.4335900e-02  -1.8320700e-01  -7.8309400e-02
  -9.9017700e-02  -1.6335600e-01  -7.8075400e-02
  -6.1563300e-02  -1.6405600e-01  -8.8839200e-02
  -4.9156600e-02  -1.4584000e-01  -1.0521900e-01
  -3.7452100e-02  -1.4303700e-01  -8.8371200e-02
  -2.7620300e-02  -1.3462900e-01  -7.9713400e-02
  -3.1833900e-02  -1.1454400e-01  -8.8137200e-02
  -2.9493000e-02  -9.6327600e-02  -6.6141600e-02
  -3.2302100e-02  -6.5966400e-02  -3.8296100e-02
  -1.1468100e-02  -5.2887800e-02  -3.8296100e-02
   8.8976800e-03  -4.0276300e-02  -2.8000200e-02
   1.8261300e-02   6.4331800e-03  -1.4662500e-02
   4.9629300e-02   1.2739000e-02  -2.0746400e-02
