**************************************************************************************
  	RED ACELEROGRÁFICA DE LA UNIVERSIDAD AUTONOMA METROPOLITANA (RA-UAM)
	   UNIDAD AZCAPOTZALCO. DIVISIÓN CBI-DEPARTAMENTO DE MATERIALES
     Av. San Pablo 420, Col. Nueva el Rosario, Azcapotzalco, C.P. 02128, Ciudad de México
		Área de Estructuras. e-mail: agb@azc.uam.mx
**************************************************************************************
ARCHIVO ESTANDAR DE ACELERACION:
VERSION DEL FORMATO                    : 2.0
NOMBRE DEL ARCHIVO                     : RIDA202204.181
FECHA Y HORA DE CREACION               : 11:00 a. m. 22/04/2022
REF. CATALOGO ACELEROGRAMAS, SMIS 1999 : REGISTRO NO.      /PAG.    


================================================================================
DATOS DE LA ESTACION:
NOMBRE DE LA ESTACION                  : UAM-AZCAPOTZALCO.
CLAVE DE LA ESTACION                   : RIDA
LOCALIZACION DE LA ESTACION            : AV. SAN PABLO 420, COL. NUEVA EL ROSARIO,
                                       : AZCAPOTZALCO, C.P.02128, CIUDAD DE MEXICO. 
                                       :
                                       : 
                                       : 
COORDENADAS DE LA ESTACION             : 19.498596 LAT. N
                                       : 99.195595 LONG. W
ALTITUD (msnm)                         : 2546
TIPO DE SUELO                          : ZONA DE TRANSICION
                                       : 
                                       : 
INSTITUCION RESPONSABLE                : UNIVERSIDAD AUTONOMA METROPOLITANA
                                       : 

================================================================================
DATOS DEL ACELEROGRAFO: 
MODELO DEL ACELEROGRAFO                : ETNA2 KINEMETRICS
NUMERO DE SERIE DEL ACELEROGRAFO       : 103732
NUMERO DE CANALES                      : 3
ORIENTACION C1-C6 (rumbo;orientacion)  : /N90E/N00E/V
ORIENTACION C7-C12 (rumbo;orientacion) : 
VEL. DE MUESTREO, C1-C6 (muestras/s)   : /200/200/200
VEL. DE MUESTREO, C7-C12 (muestras/s)  : 
ESC. COMPLETA DE SENSORES, C1-C6, (g)  : /2/2/2
ESC. COMPLETA DE SENSORES, C7-C12 (g)  : 
FREC. NAT. DE SENSORES, C1-C6, (Hz)    : /198/212/200   
FREC. NAT. DE SENSORES, C7-C12 (Hz)    : 
AMORTIGUAMIENTO DE SENSORES, C1-C6     : /0.7/0.7/0.7      
AMORTIGUAMIENTO DE SENSORES, C7-C12    : 
INTERVALO DE MUESTREO, C1-C6 (s)       : /0.005/0.005/0.005
INTERVALO DE MUESTREO, C7-C12 (s)      : 
UMBRAL DE DISPARO, C1-C6 (Gal)         : /2/2/2
UMBRAL DE DISPARO, C7-C12 (Gal)        : 
MEMORIA DE PREEVENTO (s)               : 50
TIEMPO DE POSEVENTO (s)                : 60


================================================================================
DATOS DEL SISMO:
FECHA DEL SISMO [GMT]                  : 2022/04/18
HORA EPICENTRO (GMT)                   : 12:27:28
MAGNITUD(ES)                           : /M=4.5
COORDENADAS DEL EPICENTRO              : 17.9700 LAT. N
                                       : -100.3200 LONG. W
PROFUNDIDAD FOCAL (Km)                 : 47.0
FUENTE DE LOS DATOS EPICENTRALES       : SSN
                                       : INSTITUTO DE GEOFISICA, UNAM

================================================================================
DATOS DE ESTE REGISTRO:
HORA DE LA PRIMERA MUESTRA (GMT)       : 12:27:52.000
EXACTITUD DEL TIEMPO (s)               : 
DURACION DEL REGISTRO (s), C1-C6       : /111/111/111
DURACION DEL REGISTRO (s), C7-C12      : 
NUM. TOTAL DE MUESTRAS, C1-C6          : /22200/22200/22200
NUM. TOTAL DE MUESTRAS, C7-C12         : 
ACEL. MAX.(Gal), C1-C6                 : /-0.410/-0.400/0.359
ACEL. MAX., C1-C6, EN LA MUESTRA       : /10152/11163/4793
ACEL. MAX.(Gal), C7-C12                : 
ACEL. MAX., C7-C12,EN LA MUESTRA       : 
UNIDADES DE LOS DATOS                  : Gal (cm/s/s)
FACTOR DE DECIMACION                   : 1
FORMATO DATOS (FORTRAN,16 campos/dato) : 3E16.7


================================================================================
CALIDAD DEL ACELEROGRAMA:
REGISTRO DIGITAL COMPLETO CON TIEMPO ABSOLUTO CORRECTO


================================================================================
COMENTARIOS:














================================================================================
DATOS DE ACELERACION:
---------+---------+---------+---------+---------+---------+---------+---------+
   CANAL-1   	     CANAL-2          CANAL-3
     N90E             N00E              V
---------+---------+---------+---------+---------+---------+---------+---------+ 
[...]
  -2.3141800e-01  -1.2583400e-02   3.8457200e-02
  -2.5272000e-01   1.9879700e-02   5.2964900e-02
  -2.8291800e-01   6.4954300e-02   7.3556600e-02
  -2.9696300e-01   5.4911800e-02   7.2386600e-02
  -2.8455600e-01   7.9687900e-03   6.6536700e-02
  -2.8151300e-01  -3.9908400e-02   8.1512400e-02
  -2.8853600e-01  -6.7233400e-02   9.2744200e-02
  -3.1311500e-01  -3.3836200e-02   8.5256400e-02
  -3.2973600e-01  -2.3326500e-02   7.2620600e-02
  -3.1334900e-01  -6.7446800e-03   6.5132700e-02
  -3.0211300e-01  -3.6405200e-02   5.7878800e-02
  -2.8853600e-01  -7.7509500e-02   5.5538900e-02
  -2.8549300e-01  -9.9930000e-02   5.8580800e-02
  -3.0047400e-01  -7.2137900e-02   4.1031100e-02
  -3.0632700e-01  -1.5853000e-02   1.8801500e-02
  -3.1569000e-01   4.3935100e-02   4.2937600e-03
  -3.1288100e-01   8.7141300e-02  -5.3000700e-03
  -3.1779700e-01   7.2894900e-02  -8.5414900e-04
  -3.2599000e-01   4.8839500e-02  -1.7467900e-02
  -3.2669300e-01   2.7119700e-02  -5.0929300e-02
  -3.3980200e-01   9.7417400e-02  -8.8368600e-02
  -3.3277900e-01   1.9270500e-01  -1.1949000e-01
  -3.3980200e-01   2.2633500e-01  -1.2604200e-01
  -3.6414700e-01   2.0578300e-01  -1.4148600e-01
  -3.5899700e-01   1.2661100e-01  -1.7143700e-01
  -3.5572000e-01   5.4678200e-02  -2.0840900e-01
  -3.3488600e-01   5.7714300e-02  -2.3368000e-01
  -3.3699200e-01   1.2077200e-01  -2.4304000e-01
  -3.6391300e-01   1.6561300e-01  -2.3461600e-01
  -3.4495200e-01   1.3548600e-01  -2.1262000e-01
  -3.2084000e-01   5.6546600e-02  -2.2010800e-01
  -2.8455600e-01   1.8965600e-03  -2.3929600e-01
  -2.5248600e-01  -2.7530400e-02  -2.2993600e-01
  -2.3867500e-01   6.5675000e-03  -2.0466500e-01
  -2.1503200e-01   5.0240800e-02  -1.8828500e-01
  -2.0262500e-01   4.6504100e-02  -1.7167100e-01
  -1.8038600e-01   2.9221600e-02  -1.5552500e-01
  -1.5323200e-01  -1.9122700e-02  -1.4265600e-01
  -1.3825000e-01  -2.1224600e-02  -1.2487200e-01
  -1.1413900e-01  -2.1691700e-02  -1.0287600e-01
  -1.1109600e-01   2.7119700e-02  -8.2518700e-02
  -9.4709700e-02   6.7056200e-02  -6.2395100e-02
  -6.2873500e-02   2.3850000e-02  -4.6717400e-02
  -4.0869000e-02   1.6142900e-02  -3.6655500e-02
   2.6716500e-03  -2.3072900e-03  -2.6827700e-02
   2.9826000e-02   1.3807500e-02  -2.0743800e-02
   4.8787300e-02   6.5421400e-02  -1.5829900e-02
   5.9789500e-02   9.2512900e-02  -1.4659900e-02
   6.9621300e-02   8.8309000e-02  -7.1720400e-03
   1.0192600e-01   7.2194300e-02  -6.2360600e-03
   1.3774100e-01   5.1642100e-02  -1.6531900e-02
   1.7238700e-01   7.9434200e-02  -2.7061700e-02
   1.8619800e-01   1.1423300e-01  -2.9635700e-02
   1.8502700e-01   1.4459400e-01  -2.4721700e-02
   1.8643200e-01   1.8990200e-01  -2.5423700e-02
   1.9837100e-01   1.7355400e-01  -1.9339800e-02
   2.3863400e-01   1.3992300e-01  -2.0041800e-02
   2.8217500e-01   1.1329900e-01  -2.8231700e-02
   2.9294300e-01   9.2512900e-02  -2.6359700e-02
   2.9083600e-01   7.2661400e-02  -2.5423700e-02
   2.8311100e-01   8.4572300e-02  -3.0805600e-02
   2.9013400e-01   1.0372300e-01  -3.0103600e-02
   3.1096800e-01   1.0956200e-01  -1.0916000e-02
   3.1026500e-01   1.0465700e-01   1.6227600e-02
   3.1330900e-01   7.3362000e-02   3.7053200e-02
   3.1939500e-01   4.1599600e-02   3.9159200e-02
   3.3507900e-01   1.8945500e-02   3.2139300e-02
   3.4046300e-01   1.6843600e-02   3.4245200e-02
   3.0886100e-01   5.6333200e-03   5.1327000e-02
   2.6532000e-01  -2.1224600e-02   6.6536700e-02
   2.2131100e-01  -7.1203700e-02   6.9812600e-02
   1.9415700e-01  -9.1522300e-02   6.7472700e-02
   1.9205000e-01  -7.1904300e-02   6.3962700e-02
   1.9766800e-01  -3.8974200e-02   7.2620600e-02
   1.7425900e-01  -4.1756700e-03   8.6894300e-02
   1.5225500e-01  -2.7997500e-02   1.1076200e-01
   1.3469800e-01  -5.7891500e-02   1.1216600e-01
   1.2276000e-01  -6.6299200e-02   8.7362300e-02
   1.3399600e-01  -5.2753500e-02   8.7830300e-02
   1.1620500e-01   1.8011300e-02   1.1427200e-01
   9.7478000e-02   7.6398100e-02   1.2714200e-01
   9.0455300e-02   6.2852400e-02   1.2293000e-01
   7.3600800e-02   1.7077100e-02   1.2105800e-01
   6.5173600e-02  -2.5662000e-02   1.1146400e-01
   2.7953300e-02  -1.3284000e-02   1.1544200e-01
  -8.5646600e-03   3.3191900e-02   1.3158800e-01
  -2.9398600e-02   7.5230400e-02   1.4515900e-01
  -4.7423500e-02   1.1073000e-01   1.5334900e-01
  -2.7994100e-02   8.1769700e-02   1.5475300e-01
  -2.5887300e-02   2.5951900e-02   1.6247500e-01
  -3.2675900e-02  -2.0536400e-04   1.6621900e-01
  -3.2207700e-02  -3.0333000e-02   1.7511100e-01
  -3.6187200e-02  -9.3137000e-03   1.8493900e-01
  -1.8630500e-02   1.7544200e-02   1.7300500e-01
  -1.4416900e-02  -6.7245800e-04   1.5381700e-01
  -1.0671500e-02  -5.1098500e-03   1.4071300e-01
  -2.2442300e-03  -6.3029600e-02   1.2854600e-01
  -2.1673700e-02  -1.0506800e-01   1.1216600e-01
  -3.1271400e-02  -1.2842300e-01   1.0327400e-01
  -2.9866800e-02  -1.7630000e-01   9.6722200e-02
  -2.7291800e-02  -1.6719200e-01   7.2152600e-02
  -2.1439600e-02  -1.5177700e-01   4.4307100e-02
  -2.3312300e-02  -1.7139500e-01   3.6117200e-02
  -2.8930500e-02  -2.0526000e-01   4.3137100e-02
  -5.7489400e-02  -2.4472900e-01   4.1265100e-02
  -7.5280200e-02  -2.8349800e-01   2.4183400e-02
  -7.0832500e-02  -2.9307400e-01   9.6756700e-03
  -7.9025600e-02  -2.7812700e-01   6.8677200e-03
  -8.8155100e-02  -2.9540900e-01   1.9538000e-03
  -9.7284600e-02  -3.3814800e-01  -1.3489900e-02
  -1.0641400e-01  -3.7318000e-01  -4.5079400e-02
  -1.0852100e-01  -3.7948600e-01  -7.8306800e-02
  -1.2209800e-01  -3.6500600e-01  -9.5154500e-02
  -1.2467300e-01  -3.4678900e-01  -1.1855400e-01
  -1.2607800e-01  -3.2109900e-01  -1.3165800e-01
  -1.3099400e-01  -3.1946400e-01  -1.2955200e-01
  -1.3637800e-01  -3.2250000e-01  -1.3821000e-01
  -1.6844800e-01  -3.0381700e-01  -1.5669500e-01
  -1.8694100e-01  -2.6785000e-01  -1.5739700e-01
  -2.1128600e-01  -2.3118400e-01  -1.3587000e-01
  -2.2814100e-01  -2.1179900e-01  -1.3376400e-01
  -2.1713900e-01  -2.1366700e-01  -1.3961400e-01
  -2.0028400e-01  -2.3515400e-01  -1.4499600e-01
  -1.7500200e-01  -2.3725600e-01  -1.5388800e-01
  -1.7359800e-01  -2.2931500e-01  -1.6090700e-01
  -1.7032100e-01  -2.1740400e-01  -1.6184300e-01
  -1.7757700e-01  -1.5808300e-01  -1.4335800e-01
  -1.9349500e-01  -1.1137400e-01  -1.2019200e-01
  -1.9021800e-01  -8.2881100e-02  -1.0802400e-01
  -1.7874800e-01  -5.6723800e-02  -9.3984500e-02
  -1.5042300e-01  -5.9759900e-02  -8.3220700e-02
  -1.2373700e-01  -7.1203700e-02  -7.6902800e-02
  -9.7518700e-02  -7.8210100e-02  -6.1693100e-02
  -8.5346100e-02  -3.5003900e-02  -5.7481200e-02
  -1.0477600e-01   3.5293800e-02  -6.0523100e-02
  -1.0735000e-01   9.5549000e-02  -6.5905000e-02
  -7.1768900e-02   1.2637700e-01  -7.4562900e-02
  -3.9464500e-02   1.3875500e-01  -8.7198700e-02
  -9.9691900e-03   1.2801200e-01  -8.5326700e-02
  -7.3942100e-03   1.1329900e-01  -6.9415000e-02
  -3.1739500e-02   1.3922200e-01  -8.1348800e-02
  -3.6655400e-02   1.9597400e-01  -9.9834400e-02
  -4.1805400e-02   2.6440400e-01  -9.0942600e-02
  -2.3546400e-02   3.0597500e-01  -7.8072800e-02
   2.6716500e-03   2.9756700e-01  -7.9944800e-02
   1.9693800e-03   2.7281100e-01  -7.9008800e-02
   2.1398800e-02   2.6487100e-01  -6.9883000e-02
   4.4573700e-02   2.6253500e-01  -5.7247200e-02
   5.1596400e-02   2.7514700e-01  -3.3379600e-02
   6.5173600e-02   2.8892600e-01  -6.0020600e-03
   6.8450800e-02   2.4735500e-01   1.7198100e-03
   7.7580300e-02   2.0414800e-01  -1.2086000e-02
   1.0145700e-01   2.1372400e-01  -1.7467900e-02
   1.1456700e-01   2.1886200e-01  -3.8961000e-03
   1.0216000e-01   2.4875600e-01   2.1141500e-02
   8.3198500e-02   2.3217400e-01   4.3839100e-02
   8.9518900e-02   2.0298100e-01   4.4775100e-02
   1.3212300e-01   1.6257700e-01   3.1437300e-02
   1.8596400e-01   1.3828800e-01   2.5821400e-02
   1.9322100e-01   1.7075100e-01   3.8691200e-02
   1.7285500e-01   1.4996500e-01   5.6474900e-02
   1.5623400e-01   1.4646200e-01   6.9110600e-02
   1.6793900e-01   1.2964700e-01   7.4726500e-02
   2.1054300e-01   1.7986000e-01   6.6536700e-02
   2.5174300e-01   2.2353300e-01   7.8236500e-02
   2.8521800e-01   1.9994500e-01   1.2082400e-01
   2.9224100e-01   1.8196100e-01   1.5381700e-01
   2.8849500e-01   1.3525200e-01   1.5709300e-01
   3.0277500e-01   1.4856400e-01   1.3439600e-01
   3.3320600e-01   1.9597400e-01   1.1450600e-01
   3.6504200e-01   2.1302300e-01   1.1076200e-01
   3.7768300e-01   1.8896800e-01   1.0912400e-01
   3.7276700e-01   1.7215200e-01   9.5552200e-02
   3.7323600e-01   1.4692900e-01   7.0982600e-02
   3.6176500e-01   1.5650500e-01   5.7644800e-02
   3.4374000e-01   2.0952000e-01   5.1327000e-02
   3.4046300e-01   2.3451000e-01   5.2028900e-02
   3.3016300e-01   2.3848000e-01   4.5711000e-02
   3.3601500e-01   1.7098500e-01   2.2077500e-02
   3.3671800e-01   1.1329900e-01   4.0597700e-03
   3.0324300e-01   1.1913700e-01  -1.5595900e-02
   2.7140700e-01   1.3758700e-01  -1.4893900e-02
   2.3722900e-01   1.3992300e-01  -1.3723900e-02
   2.2599300e-01   1.0605900e-01  -3.9931500e-02
   2.1405500e-01   6.7289800e-02  -6.5437000e-02
   1.6606600e-01   3.7395700e-02  -7.0584900e-02
   1.2931400e-01   3.1090000e-02  -4.8355300e-02
   9.2328000e-02   2.8053800e-02  -3.9931500e-02
   7.7580300e-02   1.1939100e-02  -4.3675400e-02
   7.1728100e-02  -1.4685300e-02  -3.4549600e-02
   4.0828300e-02  -7.3305600e-02  -2.0275800e-02
   1.8823800e-02  -1.2468600e-01  -1.2320000e-02
  -7.6283000e-03  -1.5878400e-01  -5.0660800e-03
  -2.1907800e-02  -1.8260600e-01   4.9957500e-03
  -2.8696400e-02  -1.6205400e-01   6.6337200e-03
  -4.8594000e-02  -1.3052500e-01   5.9317300e-03
  -6.7087100e-02  -1.2608700e-01   1.3887600e-02
  -9.9157400e-02  -1.3472900e-01   3.7287200e-02
  -1.1367100e-01  -1.5154400e-01   5.8814800e-02
  -1.1905500e-01  -1.6111900e-01   7.3556600e-02
  -1.3708000e-01  -1.4780700e-01   7.9406500e-02
  -1.3099400e-01  -1.4897500e-01   7.9406500e-02
  -1.2701400e-01  -1.7092800e-01   7.9640500e-02
  -1.2841900e-01  -1.5154400e-01   8.1980400e-02
  -1.3239800e-01  -1.4173500e-01   9.3446200e-02
  -1.4901800e-01  -1.4523800e-01   1.0327400e-01
  -1.6095700e-01  -1.2118300e-01   1.1357000e-01
  -1.8296100e-01  -1.1394300e-01   1.0959200e-01
  -1.8670700e-01  -1.0390000e-01   9.9062100e-02
  -1.9021800e-01  -1.2351800e-01   1.0210400e-01
  -2.2814100e-01  -1.1954800e-01   1.0350800e-01
  -2.6231800e-01  -1.1254200e-01   1.0491200e-01
  -3.0445400e-01  -1.2235100e-01   1.1614400e-01
  -3.3722700e-01  -1.0460100e-01   1.2293000e-01
  -3.5080400e-01  -1.3426100e-01   1.0678400e-01
  -3.5899700e-01  -1.5621500e-01   8.5022400e-02
  -3.5595400e-01  -1.6345500e-01   6.9344600e-02
  -3.7585100e-01  -1.8027000e-01   5.3666900e-02
  -4.0300600e-01  -2.0128900e-01   4.0797100e-02
  -4.1049700e-01  -2.2674600e-01   2.7693400e-02
  -4.0698500e-01  -2.4146000e-01   8.5056900e-03
  -3.9785600e-01  -2.6061000e-01  -1.4191900e-02
  -3.9879200e-01  -2.9447500e-01  -3.7357500e-02
  -4.0441000e-01  -2.8770200e-01  -6.2629100e-02
  -4.0487800e-01  -2.4683100e-01  -7.3626900e-02
  -3.9996300e-01  -2.0549300e-01  -7.8306800e-02
  -3.6695600e-01  -1.5714900e-01  -8.7900600e-02
  -3.3231100e-01  -1.6952700e-01  -1.0030200e-01
  -3.0375200e-01  -1.9428300e-01  -1.1176800e-01
  -2.6653100e-01  -1.8727700e-01  -1.0708800e-01
  -2.4616600e-01  -1.7583300e-01  -1.0357800e-01
  -2.1784100e-01  -1.0950500e-01  -1.0404600e-01
  -1.7991800e-01  -3.4303300e-02  -1.0217400e-01
  -1.4948700e-01  -2.0737400e-03  -1.0498200e-01
  -1.1507500e-01  -1.5853000e-02  -1.1106600e-01
  -6.4980300e-02  -7.4706900e-02  -1.1223600e-01
  -2.1439600e-02  -9.7594500e-02  -1.2112800e-01
   7.9893100e-04  -5.8125100e-02  -1.3236000e-01
   2.4676100e-02   2.1047400e-02  -1.3376400e-01
   5.3703200e-02   6.8691100e-02  -1.4031600e-01
   8.0623500e-02   9.6249600e-02  -1.5037800e-01
   1.1175700e-01   8.7608400e-02  -1.5154800e-01
   1.5623400e-01   3.8329900e-02  -1.3610400e-01
   1.7964300e-01   3.0622900e-02  -1.2323400e-01
   1.7425900e-01   5.9582700e-02  -1.0474800e-01
   1.5225500e-01   9.2045800e-02  -7.5732900e-02
   1.3212300e-01   9.6483200e-02  -5.7013200e-02
   1.4851000e-01   8.3171000e-02  -5.3737200e-02
   1.7425900e-01   1.8712000e-02  -5.2567300e-02
   1.9462500e-01  -1.0948500e-02  -5.1397300e-02
   1.8830500e-01   1.6610000e-02  -5.5609200e-02
   1.5810700e-01   6.6122000e-02  -4.1803400e-02
   1.5810700e-01   1.1656800e-01  -1.6063900e-02
   1.6793900e-01   1.1026200e-01  -1.0881400e-03
   1.8830500e-01   1.1376600e-01  -5.3000700e-03
   2.0937300e-01   1.0489100e-01   2.4217900e-03
   1.9883900e-01   1.2007100e-01   2.4417400e-02
   1.8783700e-01   1.5510400e-01   2.7459400e-02
   1.6910900e-01   1.7075100e-01   2.6055400e-02
   1.7191800e-01   2.0765200e-01   2.7225400e-02
   2.0820200e-01   1.8780000e-01   4.1031100e-02
   2.2014100e-01   1.7752400e-01   5.6942900e-02
   2.1545900e-01   1.9083600e-01   5.4368900e-02
   1.9181600e-01   2.0508300e-01   5.5538900e-02
   1.7051400e-01   2.5856500e-01   4.7349000e-02
   1.8175000e-01   2.7024200e-01   3.6351200e-02
   1.8596400e-01   2.6463700e-01   3.4947200e-02
   2.1007500e-01   2.2283200e-01   3.2607300e-02
   2.2458900e-01   1.9363900e-01   3.6117200e-02
   2.0141400e-01   2.1932900e-01   4.6413000e-02
   1.7191800e-01   2.6113400e-01   4.8753000e-02
   1.1971600e-01   2.8986000e-01   5.2262900e-02
   1.0894800e-01   2.5973300e-01   7.4726500e-02
   1.2791000e-01   2.0601700e-01   9.6020200e-02
   1.4078500e-01   1.5533700e-01   1.0748600e-01
   1.5717100e-01   1.7845800e-01   1.1848400e-01
   1.5178700e-01   2.2096400e-01   1.2690800e-01
   1.3540000e-01   2.3754600e-01   1.1942000e-01
   1.0637300e-01   1.9831000e-01   1.1918600e-01
   9.3498400e-02   1.1329900e-01   1.2363200e-01
   1.1316200e-01   4.6737600e-02   1.0725200e-01
   1.2954800e-01   2.7820300e-02   7.8236500e-02
   1.2767600e-01   9.2279300e-02   6.7940700e-02
   1.0637300e-01   1.3782100e-01   7.8236500e-02
   8.1559900e-02   1.4973200e-01   8.7128300e-02
   9.1859800e-02   1.0115400e-01   9.5552200e-02
   1.2673900e-01   3.2491200e-02   9.1808300e-02
   1.4687100e-01   6.8010500e-03   8.7128300e-02
   1.2205700e-01   2.0813900e-02   8.7830300e-02
   7.8048500e-02   5.5846000e-02   9.9998100e-02
   5.9555400e-02   5.7714300e-02   1.0491200e-01
   6.6344000e-02   3.4126100e-02   8.0342500e-02
   9.7712100e-02  -5.3687700e-02   6.7004700e-02
   9.8414300e-02  -1.0973900e-01   5.9048800e-02
   3.9657800e-02  -1.0857100e-01   4.7817000e-02
  -2.4716800e-02  -9.2923600e-02   5.2730900e-02
  -5.6084900e-02  -3.8273600e-02   5.1327000e-02
  -3.6889500e-02  -1.8188500e-02   3.0267300e-02
   2.6716500e-03  -4.4345800e-02   5.9317300e-03
   1.6482900e-02  -9.2456500e-02  -1.1852000e-02
  -9.7351000e-03  -1.2258400e-01  -1.5829900e-02
  -7.7387000e-02  -9.9696500e-02  -1.5561400e-03
  -1.4082500e-01  -4.7148300e-02   4.9957500e-03
  -1.6680900e-01  -1.0014300e-02  -6.4700500e-03
  -1.5440300e-01  -4.5513500e-02  -1.1384000e-02
  -1.0758500e-01  -1.1511100e-01  -1.4893900e-02
  -7.4343900e-02  -1.7957000e-01  -2.1679800e-02
  -6.9428000e-02  -1.8190500e-01  -3.2209600e-02
  -8.2771100e-02  -1.1954800e-01  -5.2567300e-02
  -1.1694800e-01  -7.9144300e-02  -7.1988900e-02
  -1.5885000e-01  -3.9441300e-02  -7.7136800e-02
  -1.7757700e-01  -4.2477400e-02  -6.7309000e-02
  -1.7336400e-01  -8.6617800e-02  -5.4673200e-02
  -1.6423400e-01  -9.5959700e-02  -5.2333300e-02
