**************************************************************************************
  	RED ACELEROGRÁFICA DE LA UNIVERSIDAD AUTONOMA METROPOLITANA (RA-UAM)
	   UNIDAD AZCAPOTZALCO. DIVISIÓN CBI-DEPARTAMENTO DE MATERIALES
     Av. San Pablo 420, Col. Nueva el Rosario, Azcapotzalco, C.P. 02128, Ciudad de México
		Área de Estructuras. e-mail: agb@azc.uam.mx
**************************************************************************************
ARCHIVO ESTANDAR DE ACELERACION:
VERSION DEL FORMATO                    : 2.0
NOMBRE DEL ARCHIVO                     : RIDA202205.251
FECHA Y HORA DE CREACION               : 11:00 a. m. 30/05/2022
REF. CATALOGO ACELEROGRAMAS, SMIS 1999 : REGISTRO NO.      /PAG.    


================================================================================
DATOS DE LA ESTACION:
NOMBRE DE LA ESTACION                  : UAM-AZCAPOTZALCO.
CLAVE DE LA ESTACION                   : RIDA
LOCALIZACION DE LA ESTACION            : AV. SAN PABLO 420, COL. NUEVA EL ROSARIO,
                                       : AZCAPOTZALCO, C.P.02128, CIUDAD DE MEXICO. 
                                       :
                                       : 
                                       : 
COORDENADAS DE LA ESTACION             : 19.498596 LAT. N
                                       : 99.195595 LONG. W
ALTITUD (msnm)                         : 2546
TIPO DE SUELO                          : ZONA DE TRANSICION
                                       : 
                                       : 
INSTITUCION RESPONSABLE                : UNIVERSIDAD AUTONOMA METROPOLITANA
                                       : 

================================================================================
DATOS DEL ACELEROGRAFO: 
MODELO DEL ACELEROGRAFO                : ETNA2 KINEMETRICS
NUMERO DE SERIE DEL ACELEROGRAFO       : 103732
NUMERO DE CANALES                      : 3
ORIENTACION C1-C6 (rumbo;orientacion)  : /N90E/N00E/V
ORIENTACION C7-C12 (rumbo;orientacion) : 
VEL. DE MUESTREO, C1-C6 (muestras/s)   : /200/200/200
VEL. DE MUESTREO, C7-C12 (muestras/s)  : 
ESC. COMPLETA DE SENSORES, C1-C6, (g)  : /2/2/2
ESC. COMPLETA DE SENSORES, C7-C12 (g)  : 
FREC. NAT. DE SENSORES, C1-C6, (Hz)    : /198/212/200   
FREC. NAT. DE SENSORES, C7-C12 (Hz)    : 
AMORTIGUAMIENTO DE SENSORES, C1-C6     : /0.7/0.7/0.7      
AMORTIGUAMIENTO DE SENSORES, C7-C12    : 
INTERVALO DE MUESTREO, C1-C6 (s)       : /0.005/0.005/0.005
INTERVALO DE MUESTREO, C7-C12 (s)      : 
UMBRAL DE DISPARO, C1-C6 (Gal)         : /2/2/2
UMBRAL DE DISPARO, C7-C12 (Gal)        : 
MEMORIA DE PREEVENTO (s)               : 50
TIEMPO DE POSEVENTO (s)                : 60


================================================================================
DATOS DEL SISMO:
FECHA DEL SISMO [GMT]                  : 2022/05/25
HORA EPICENTRO (GMT)                   : 21:43:02
MAGNITUD(ES)                           : /M=5.5
COORDENADAS DEL EPICENTRO              : 16.1100 LAT. N
                                       : -95.9900 LONG. W
PROFUNDIDAD FOCAL (Km)                 : 12.0
FUENTE DE LOS DATOS EPICENTRALES       : SSN
                                       : INSTITUTO DE GEOFISICA, UNAM

================================================================================
DATOS DE ESTE REGISTRO:
HORA DE LA PRIMERA MUESTRA (GMT)       : 21:44:37.000
EXACTITUD DEL TIEMPO (s)               : 
DURACION DEL REGISTRO (s), C1-C6       : /141/141/141
DURACION DEL REGISTRO (s), C7-C12      : 
NUM. TOTAL DE MUESTRAS, C1-C6          : /28200/28200/28200
NUM. TOTAL DE MUESTRAS, C7-C12         : 
ACEL. MAX.(Gal), C1-C6                 : /0.789/0.748/0.366
ACEL. MAX., C1-C6, EN LA MUESTRA       : /6791/15869/15870
ACEL. MAX.(Gal), C7-C12                : 
ACEL. MAX., C7-C12,EN LA MUESTRA       : 
UNIDADES DE LOS DATOS                  : Gal (cm/s/s)
FACTOR DE DECIMACION                   : 1
FORMATO DATOS (FORTRAN,16 campos/dato) : 3E16.7


================================================================================
CALIDAD DEL ACELEROGRAMA:
REGISTRO DIGITAL COMPLETO CON TIEMPO ABSOLUTO CORRECTO


================================================================================
COMENTARIOS:














================================================================================
DATOS DE ACELERACION:
---------+---------+---------+---------+---------+---------+---------+---------+
   CANAL-1   	     CANAL-2          CANAL-3
     N90E             N00E              V
---------+---------+---------+---------+---------+---------+---------+---------+ 
[...]
   2.3607000e-02   3.4171000e-02   9.1935200e-02
   6.5040900e-02   2.9967100e-02   7.6023400e-02
   7.0425000e-02   3.6039400e-02   5.8239700e-02
   2.6884300e-02   5.1687000e-02   3.7414100e-02
  -3.0935900e-02   4.4213500e-02   2.0800400e-02
  -6.5815200e-02   5.9627600e-02   2.1502400e-02
  -6.1367500e-02   5.9394100e-02   3.6946100e-02
  -3.3744900e-02   4.8884500e-02   4.2796000e-02
  -1.2064800e-03   4.9818700e-02   3.4840100e-02
   1.1434400e-02   1.1750500e-02   1.9162400e-02
   2.0797900e-02  -6.4662200e-03   3.2506900e-03
   1.8457000e-02  -6.6997600e-03  -5.4071700e-03
  -2.0167700e-02  -2.6551300e-02  -1.5937000e-02
  -4.9194900e-02  -1.1604300e-02  -3.8166600e-02
  -4.0533500e-02   9.1814400e-03  -4.6824500e-02
  -2.2040500e-02   2.1559400e-02  -4.7058400e-02
  -7.0587200e-03   1.1516900e-02  -5.6652300e-02
  -1.4315500e-02   1.8756900e-02  -5.5248300e-02
  -3.9363100e-02   1.1283400e-02  -3.3720700e-02
  -5.0599400e-02  -8.1010500e-03  -2.6232800e-02
  -3.7490400e-02   1.2408400e-03  -1.8510900e-02
  -1.7826800e-02  -6.9333100e-03   8.3986000e-03
  -2.4615400e-02   7.7801600e-03   1.7290400e-02
  -2.3445000e-02  -1.4173300e-02   2.2438400e-02
  -3.5473800e-03   2.6421200e-03   2.3374300e-02
   1.9861600e-02   2.4128500e-02   1.2376500e-02
   3.5545600e-02  -9.9694300e-03   1.4482500e-02
   6.9866600e-03  -2.7952600e-02   2.2438400e-02
  -2.9297200e-02  -3.4258300e-02   9.8025700e-03
  -2.0167700e-02  -1.2538400e-02  -7.7471300e-03
   5.8162100e-03   3.7207100e-02  -1.2661000e-02
   1.2604800e-02   8.4383600e-02  -1.4299000e-02
  -8.9314400e-03   7.7844300e-02  -1.1725100e-02
  -5.6217600e-02   8.1347500e-02   1.8467100e-03
  -7.9392400e-02   4.6315400e-02   1.4950500e-02
  -5.3174400e-02  -1.2304900e-02   1.0972600e-02
  -2.0635900e-02   5.4446900e-03   1.2610500e-02
  -1.4081400e-02  -7.4004100e-03   1.0504600e-02
  -4.0155600e-03  -4.6636300e-02  -1.1023100e-02
   2.2670700e-02  -4.8738300e-02  -1.0321100e-02
   2.9927400e-02  -8.1668400e-02  -3.1848700e-02
   2.5011600e-02  -1.4519300e-01  -7.1394000e-02
   4.1775800e-03  -1.3281500e-01  -5.6886300e-02
  -3.0935900e-02  -9.1944500e-02  -6.4374100e-02
  -4.4279000e-02  -8.9141900e-02  -9.1049700e-02
  -4.3576700e-02  -4.6169200e-02  -8.8475700e-02
  -4.1235800e-02  -2.8186100e-02  -7.3968000e-02
  -4.4747200e-02  -4.2432500e-02  -5.0802400e-02
  -6.0899300e-02  -5.1774400e-02  -3.1848700e-02
  -6.0431200e-02  -6.4619500e-02  -2.2488900e-02
  -3.5383600e-02  -5.3876300e-02  -2.0616900e-02
  -1.4405700e-03  -5.1307300e-02  -1.6405000e-02
   3.1097900e-02  -3.0288000e-02  -3.9804600e-02
   3.2034200e-02  -2.0479000e-02  -5.6418300e-02
   3.0071300e-03  -3.7528000e-02  -4.6590500e-02
  -2.5551800e-02  -5.6678900e-02  -5.0334400e-02
  -3.8894900e-02  -7.7931700e-02  -6.0864200e-02
  -3.0701800e-02  -5.7613100e-02  -4.6122500e-02
  -6.1223700e-03  -4.7804100e-02  -4.5654500e-02
   4.6457600e-03  -1.3005500e-02  -3.3954700e-02
   1.7520700e-02   6.1453300e-03  -3.1380700e-02
   2.9693400e-02  -3.1922900e-02  -4.0038600e-02
  -2.7012500e-04  -8.8016900e-03   2.6650300e-02
  -9.1655300e-03  -1.0670100e-02  -3.9102600e-02
  -2.7424500e-02  -4.6402800e-02  -1.1468300e-01
   1.0263900e-02  -5.2708600e-02  -7.5839900e-02
   6.5184800e-03   9.6761600e-02   2.7820300e-02
  -1.2106000e-01   2.0279200e-01   5.3325800e-02
  -9.5076400e-02  -2.3982300e-02  -5.4546300e-02
   3.9525100e-02  -1.2557500e-01   5.3566500e-03
   3.9056900e-02   6.9670200e-02   8.3043300e-02
  -1.3580800e-01   8.1814600e-02   9.5685800e-03
  -1.7209200e-01   7.1538500e-02   1.6354500e-02
  -1.2667900e-01   5.6358000e-02   6.8769600e-02
  -6.5905500e-03  -4.2432500e-02  -1.5469000e-02
   1.3784300e-01   7.4574700e-02   1.7290400e-02
  -3.1872200e-02   1.4160300e-01   8.7255200e-02
  -2.0088500e-01   7.7377200e-02   9.6147100e-02
  -2.1165300e-01  -3.8228600e-02   6.0345700e-02
  -1.2152900e-01  -9.6381900e-02  -5.5482300e-02
  -2.1572300e-02  -6.2517500e-02  -4.6356500e-02
  -1.3145100e-02   1.3739900e-01   6.0579700e-02
  -1.1216500e-01   2.3408700e-01   8.7489200e-02
  -2.1071700e-01   2.9500000e-02   1.7758400e-02
  -1.2761500e-01  -2.4215800e-02   3.1096200e-02
  -2.8360900e-02  -2.7485500e-02   4.5838000e-02
   1.0263900e-02  -2.2814500e-02   1.7290400e-02
  -1.2676900e-02   9.5360400e-02   5.8473700e-02
  -7.9860600e-02   1.1988300e-01   5.3325800e-02
  -6.4410700e-02   3.3003300e-02   3.3670200e-02
   4.3214400e-04  -1.7910000e-02   3.2500200e-02
   3.4375100e-02  -9.7358800e-03   1.2610500e-02
   5.8252300e-02   5.6591500e-02   3.5776100e-02
   7.1127200e-02   9.9564200e-02   3.4840100e-02
   2.2670700e-02   3.9776100e-02   1.3312500e-02
  -2.9063200e-02  -8.1010500e-03   2.1736400e-02
  -2.7424500e-02  -4.3366700e-02   5.8707700e-02
   2.5389500e-03  -4.5935700e-02   5.7537700e-02
   4.6547800e-02   2.0625300e-02   5.3793800e-02
   5.3336400e-02   6.3130800e-02   5.0517900e-02
   9.0032400e-04   3.9776100e-02   2.7826900e-03
  -3.9363100e-02   2.6697500e-02   1.7992400e-02
  -2.3210900e-02   2.4829100e-02   2.4076300e-02
   3.8588800e-02  -8.8016900e-03   9.1005800e-03
   6.7615900e-02   5.8226400e-02   1.9630400e-02
   5.8252300e-02   9.0689400e-02   7.4626100e-03
   2.9459300e-02   5.9394100e-02   1.3787200e-03
   1.0966200e-02   6.4298600e-02   1.5184500e-02
   2.8757000e-02   3.8841900e-02   2.5012300e-02
   8.8593700e-03   3.9542600e-02   2.9692200e-02
  -2.6488200e-02   6.8969500e-02   5.4027800e-02
  -5.8090300e-02   8.0413300e-02   5.9175700e-02
  -5.7856200e-02   6.9436600e-02   5.4495800e-02
  -1.1974600e-02   7.1305000e-02   7.2981500e-02
   4.3214400e-04   5.9627600e-02   6.9705500e-02
  -4.2172200e-02   3.4638100e-02   7.9767400e-02
  -9.1565100e-02   1.0115600e-02   9.8487000e-02
  -9.9290100e-02  -3.1965600e-03   9.1935200e-02
  -5.3174400e-02  -6.4662200e-03   7.6725400e-02
   6.0503000e-03   8.7143500e-03   6.1515700e-02
   8.8593700e-03   2.8098800e-02   4.7709900e-02
  -1.6188200e-02   2.0391700e-02   3.7414100e-02
  -2.5317700e-02   1.1984000e-02   2.9692200e-02
  -2.3679100e-02  -4.1307500e-03   9.8025700e-03
   3.9434900e-03  -4.3642900e-03   1.1447200e-03
   1.4009300e-02  -3.8972000e-03  -5.1731700e-03
   1.2838900e-02   3.3427600e-03  -2.9040800e-02
   1.1902500e-02  -4.8313900e-03  -4.2144500e-02
  -1.9087500e-03   5.9117800e-03  -3.6996600e-02
  -9.8678000e-03   1.1750500e-02  -3.0444700e-02
  -1.8295000e-02  -2.1179700e-02  -2.5530800e-02
  -6.8246400e-03  -4.8037600e-02  -1.9914900e-02
   2.0797900e-02  -7.1392300e-02  -2.4360800e-02
   4.7952300e-02  -6.6721400e-02  -2.7402800e-02
   6.3168200e-02  -9.5214100e-02  -3.2784700e-02
   5.7315900e-02  -8.7974200e-02  -5.8524200e-02
   4.1163700e-02  -7.3260700e-02  -6.8820100e-02
   3.8354700e-02  -7.4662000e-02  -5.7354300e-02
   3.2268300e-02  -6.2517500e-02  -5.9928200e-02
   3.4375100e-02  -7.0224600e-02  -6.8820100e-02
   4.2568300e-02  -6.2050400e-02  -6.9522100e-02
   3.1332000e-02  -5.1540800e-02  -6.6246100e-02
   1.5648000e-02  -3.2857000e-02  -5.4546300e-02
   3.7094000e-03  -1.3281800e-03  -3.6996600e-02
   9.7957300e-03   1.7355600e-02  -3.2550700e-02
   2.2904800e-02  -2.7294600e-03  -3.2550700e-02
   3.6716000e-02  -3.4959000e-02  -2.0148900e-02
   2.8288800e-02  -4.4768000e-02  -2.2254900e-02
  -3.6034900e-05  -3.7060900e-02  -1.9680900e-02
  -1.6188200e-02  -2.5150000e-02  -1.7341000e-02
  -1.3379100e-02  -1.5574600e-02  -3.2784700e-02
   6.9866600e-03  -1.0670100e-02  -3.8634600e-02
   2.2202500e-02   3.1092200e-03  -2.8806800e-02
   2.8757000e-02  -6.2753800e-04  -1.6639000e-02
   2.1500200e-02   1.3385300e-02  -2.1786900e-02
   2.2436600e-02  -2.0288200e-03  -1.5001000e-02
   2.6416100e-02  -2.5850600e-02  -7.9811200e-03
   1.5648000e-02   3.0665100e-04  -4.9325000e-04
   3.0071300e-03   1.6888500e-02   1.9396400e-02
  -8.9314400e-03   3.8374800e-02   2.2672300e-02
   2.5389500e-03   1.2451100e-02   1.0972600e-02
   1.8457000e-02  -1.6041700e-02  -8.2151200e-03
   4.3972800e-02  -3.4959000e-02  -3.5592600e-02
   4.9591000e-02  -5.0840200e-02  -5.4078300e-02
   1.8691100e-02  -2.9587400e-02  -5.0100400e-02
  -1.5486000e-02  -1.4873900e-02  -5.8992200e-02
  -4.9663000e-02  -1.3005500e-02  -6.5544100e-02
  -5.3174400e-02  -1.2071300e-02  -5.1738400e-02
  -4.0065400e-02   6.1453300e-03  -4.3548500e-02
  -3.4915400e-02  -2.4959200e-03  -3.2784700e-02
  -2.6020000e-02  -3.2156400e-02  -2.5296800e-02
  -3.0233600e-02  -2.9353800e-02  -2.9274800e-02
  -3.7958600e-02   2.6230400e-02  -1.2895000e-02
  -2.5551800e-02   7.6910100e-02   9.3345800e-03
  -1.2676900e-02   5.0052200e-02   5.8246400e-03
   1.2370700e-02  -3.9399100e-04   4.6546600e-03
   6.0503000e-03  -3.9396400e-02   3.7186800e-03
  -5.2940300e-02  -2.3048100e-02  -1.0321100e-02
  -8.1265100e-02   6.2196700e-02  -6.3431500e-03
  -9.3203700e-02   1.2525400e-01  -5.1731700e-03
  -5.4578900e-02   8.5551400e-02  -3.3486700e-02
   1.1200300e-02   3.7674200e-02  -4.2144500e-02
   1.9805500e-04   6.7801800e-02  -4.2371900e-03
  -4.5683500e-02   1.2151800e-01   4.0924000e-02
  -8.4308300e-02   9.9564200e-02   3.2032200e-02
  -4.5449400e-02  -4.0797700e-02  -5.4071700e-03
   3.6482000e-02  -7.2793600e-02  -8.9171000e-03
   3.3672900e-02   2.1092400e-02  -9.6124200e-04
  -3.0701800e-02   9.9097100e-02   9.1072600e-04
  -6.2303900e-02   8.3916500e-02   7.9306000e-03
  -3.9831300e-02  -2.2113900e-02  -2.5925400e-04
   2.3841100e-02  -7.0925200e-02  -4.9391700e-03
   4.7952300e-02  -1.9311300e-02   2.1736400e-02
  -2.8126800e-02   7.5275300e-02   3.9520100e-02
  -8.8756000e-02   8.0413300e-02   4.0222000e-02
  -7.6115200e-02   3.1092200e-03   1.8460400e-02
  -2.4381400e-02  -5.1774400e-02  -4.2371900e-03
   1.9393400e-02  -1.8844200e-02   1.6588500e-02
   1.6116200e-02   6.0328300e-02   3.6244100e-02
  -1.8763200e-02   9.1857100e-02   1.2142500e-02
  -3.7022200e-02   3.7907700e-02  -1.1257100e-02
  -2.6254100e-02  -6.2753800e-04   5.5906400e-03
  -2.8829100e-02  -6.3451700e-02  -6.5771500e-03
  -2.4147300e-02  -1.3842000e-01  -6.3431500e-03
  -4.3576700e-02  -6.2284000e-02   9.1233200e-02
  -1.7045300e-01  -1.9914300e-01   2.1502400e-02
  -7.6583400e-02  -3.3343200e-01  -1.6756600e-01
   2.4786500e-01   2.0092400e-01  -8.3327800e-02
   2.9796000e-01   5.0570300e-01  -8.8943700e-02
   1.1841300e-01   1.1100800e-01  -1.1117300e-01
  -1.9105300e-01   4.0009700e-02   2.5362600e-01
  -4.4012500e-01   4.3980000e-02   3.3926900e-01
  -2.0486400e-01  -2.6850600e-01   3.9754100e-02
   4.0002300e-01  -2.1549100e-01  -3.4656700e-02
   6.6899200e-01   8.7186200e-02  -5.3376300e-02
   1.8185200e-01   2.1236700e-01  -1.4440100e-01
  -5.0847900e-01   3.0718800e-01   3.6244100e-02
  -6.0609400e-01   1.3618800e-02   1.3686200e-01
   9.5706600e-02  -4.0092700e-01   2.8522200e-02
   7.8884600e-01  -1.6994900e-01   3.0394200e-02
   5.2526100e-01   1.1007400e-01  -3.7230600e-02
  -2.3623300e-01   2.7028700e-01  -6.8111400e-03
  -5.4804000e-01   3.1676300e-01   7.8831400e-02
  -2.5683200e-01  -2.0101100e-01  -8.1455900e-02
   3.3728700e-01  -5.2517500e-01  -7.3032000e-02
   5.5358600e-01  -1.7742300e-01   4.6773900e-02
   1.1326300e-01   2.2988400e-01  -2.8104800e-02
  -2.6596200e-01   3.6487400e-01   1.1206500e-02
  -1.5734400e-01   1.1567900e-01   5.5665800e-02
   1.0741100e-01  -3.5188300e-01  -7.4202000e-02
   2.1111300e-01  -4.2942000e-01  -1.3480700e-01
   8.4470300e-02  -1.1343100e-01  -7.9349900e-02
  -1.5219400e-01   6.9903700e-02  -1.1023100e-02
  -1.8122100e-01   1.4183600e-01   3.6946100e-02
   3.4375100e-02   1.1100800e-01   1.6127100e-03
   1.7787200e-01  -5.9715000e-02  -8.2391800e-02
   1.4135400e-01  -9.2645100e-02  -5.5014300e-02
   3.0863800e-02  -7.2560100e-02  -3.5592600e-02
  -3.3510900e-02  -2.1735900e-01  -4.5888500e-02
  -3.6085800e-02  -2.2857000e-01  -1.2427000e-02
   1.8457000e-02  -8.3069700e-02  -4.2378500e-02
   5.8486400e-02   2.2493600e-02  -5.6184300e-02
   6.5509100e-02   9.4426200e-02  -1.0555100e-02
   1.0975200e-01   1.7589100e-02  -4.7051800e-03
   5.4272800e-02  -1.5406800e-01  -4.7058400e-02
  -3.2808600e-02  -3.1591600e-01  -6.6480100e-02
  -8.9314400e-03  -2.7130900e-01  -3.2082700e-02
   8.3065800e-02  -8.0734200e-02   3.7648100e-02
   1.4814300e-01   1.4347100e-01   3.6244100e-02
   6.5977300e-02   1.9158200e-01  -4.2378500e-02
  -7.3774300e-02   3.3703900e-02  -3.1614700e-02
  -9.0394600e-02  -7.3260700e-02   1.3078500e-02
  -6.3564600e-03  -1.7975800e-01   3.2506900e-03
   4.3738700e-02  -1.8139300e-01  -1.1952400e-03
   2.3607000e-02  -9.2178000e-02   2.4310300e-02
  -4.3576700e-02   4.5381300e-02   4.0924000e-02
  -5.7388000e-02   1.5608300e-01   2.8054300e-02
   2.6182000e-02   1.3342900e-01   1.4716500e-02
   8.5172600e-02   2.3427800e-02   3.0166900e-03
   3.8822800e-02  -1.0525700e-01   3.2506900e-03
  -8.0797000e-02  -1.6411100e-01   3.0166900e-03
  -1.6343100e-01  -9.8250300e-02  -1.6639000e-02
  -1.2644400e-01   1.8289800e-02  -1.3831000e-02
  -2.7424500e-02   1.1311000e-01  -1.3129000e-02
   2.0797900e-02   1.5818500e-01  -4.3782500e-02
  -9.1655300e-03   1.1964900e-01  -3.9102600e-02
  -9.3671900e-02   3.7907700e-02  -2.8332100e-03
  -1.5594000e-01  -6.7889100e-02   1.9864400e-02
  -1.3253100e-01  -1.3748600e-01   1.9630400e-02
  -8.3372000e-02  -5.8080100e-02   4.8886600e-03
  -7.1433400e-02   1.0540300e-01  -4.4711800e-03
  -8.6883300e-02   1.7803600e-01   1.4248500e-02
  -8.5946900e-02   1.6332300e-01   3.3670200e-02
  -4.7322100e-02   5.0285700e-02   1.4248500e-02
  -1.6188200e-02  -4.8971800e-02   2.1736400e-02
  -3.8660800e-02  -5.8080100e-02   5.0517900e-02
  -6.8156100e-02  -2.2623700e-03   4.7709900e-02
  -8.1967400e-02   1.2735600e-01   4.3732000e-02
  -8.3137900e-02   1.6565800e-01   4.7709900e-02
  -7.5647000e-02   1.5561600e-01   3.4372100e-02
  -7.7519700e-02   1.2642200e-01   2.7820300e-02
  -7.1667500e-02   5.7992800e-02   5.4963800e-02
  -8.6181000e-02   1.0816300e-02   6.5493600e-02
  -1.1193100e-01  -2.7952600e-02   6.8535600e-02
  -1.0912200e-01   8.0137100e-03   6.2217700e-02
  -9.3906000e-02   6.5466300e-02   3.7414100e-02
  -7.4944700e-02   1.2081700e-01   4.7943900e-02
  -4.4044900e-02   1.4720800e-01   5.4729800e-02
  -3.1404100e-02   1.0260000e-01   2.9224200e-02
  -4.1938100e-02   2.0158200e-02   2.0800400e-02
  -6.3708400e-02  -3.7761500e-02   2.8054300e-02
  -9.0862800e-02  -3.0755100e-02   1.8694400e-02
  -8.1499200e-02   2.6931000e-02   1.4950500e-02
  -6.4878900e-02   1.4090200e-01   1.3546500e-02
  -5.5047100e-02   1.8340800e-01  -1.8972300e-03
  -2.3679100e-02   1.5468100e-01  -7.5131300e-03
  -2.8451100e-03   7.7143700e-02  -1.4065000e-02
   1.1344100e-03  -3.5426100e-02  -1.5937000e-02
  -8.4632600e-03  -6.4385900e-02   9.1072600e-04
  -3.3510900e-02  -1.6975800e-02  -1.8972300e-03
  -3.0935900e-02   5.5657300e-02  -3.4890700e-02
   8.3911900e-03   9.9330700e-02  -4.4250500e-02
   3.2502400e-02   8.6952700e-02  -3.0210700e-02
   3.7184200e-02   4.9775900e-03  -3.1848700e-02
   2.5713800e-02  -5.5978200e-02  -2.0616900e-02
   8.1571000e-03  -7.0458100e-02   1.6127100e-03
   2.7820600e-02  -6.8356200e-02   2.3147000e-03
   6.1997700e-02  -2.7485500e-02  -2.3652200e-03
   8.9854400e-02   1.3852400e-02  -7.0451400e-03
   9.9452100e-02   2.9266500e-02  -1.6873000e-02
   8.7981700e-02  -9.7358800e-03  -1.4299000e-02
   6.3402300e-02  -2.6551300e-02  -1.9446900e-02
   4.3270600e-02  -5.5744700e-02  -4.1676500e-02
   4.5845500e-02  -1.1903600e-01  -2.8338800e-02
