**************************************************************************************
  	RED ACELEROGRÁFICA DE LA UNIVERSIDAD AUTONOMA METROPOLITANA (RA-UAM)
	   UNIDAD AZCAPOTZALCO. DIVISIÓN CBI-DEPARTAMENTO DE MATERIALES
     Av. San Pablo 420, Col. Nueva el Rosario, Azcapotzalco, C.P. 02128, Ciudad de México
		Área de Estructuras. e-mail: agb@azc.uam.mx
**************************************************************************************
ARCHIVO ESTANDAR DE ACELERACION:
VERSION DEL FORMATO                    : 2.0
NOMBRE DEL ARCHIVO                     : RIDA202209.191
FECHA Y HORA DE CREACION               : 11:30 a. m. 26/09/2022
REF. CATALOGO ACELEROGRAMAS, SMIS 1999 : REGISTRO NO.      /PAG.    


================================================================================
DATOS DE LA ESTACION:
NOMBRE DE LA ESTACION                  : UAM-AZCAPOTZALCO.
CLAVE DE LA ESTACION                   : RIDA
LOCALIZACION DE LA ESTACION            : AV. SAN PABLO 420, COL. NUEVA EL ROSARIO,
                                       : AZCAPOTZALCO, C.P.02128, CIUDAD DE MEXICO. 
                                       :
                                       : 
                                       : 
COORDENADAS DE LA ESTACION             : 19.498596 LAT. N
                                       : 99.195595 LONG. W
ALTITUD (msnm)                         : 2546
TIPO DE SUELO                          : ZONA DE TRANSICION
                                       : 
                                       : 
INSTITUCION RESPONSABLE                : UNIVERSIDAD AUTONOMA METROPOLITANA
                                       : 

================================================================================
DATOS DEL ACELEROGRAFO: 
MODELO DEL ACELEROGRAFO                : ETNA2 KINEMETRICS
NUMERO DE SERIE DEL ACELEROGRAFO       : 103732
NUMERO DE CANALES                      : 3
ORIENTACION C1-C6 (rumbo;orientacion)  : /N90E/N00E/V
ORIENTACION C7-C12 (rumbo;orientacion) : 
VEL. DE MUESTREO, C1-C6 (muestras/s)   : /200/200/200
VEL. DE MUESTREO, C7-C12 (muestras/s)  : 
ESC. COMPLETA DE SENSORES, C1-C6, (g)  : /2/2/2
ESC. COMPLETA DE SENSORES, C7-C12 (g)  : 
FREC. NAT. DE SENSORES, C1-C6, (Hz)    : /198/212/200   
FREC. NAT. DE SENSORES, C7-C12 (Hz)    : 
AMORTIGUAMIENTO DE SENSORES, C1-C6     : /0.7/0.7/0.7      
AMORTIGUAMIENTO DE SENSORES, C7-C12    : 
INTERVALO DE MUESTREO, C1-C6 (s)       : /0.005/0.005/0.005
INTERVALO DE MUESTREO, C7-C12 (s)      : 
UMBRAL DE DISPARO, C1-C6 (Gal)         : /2/2/2
UMBRAL DE DISPARO, C7-C12 (Gal)        : 
MEMORIA DE PREEVENTO (s)               : 50
TIEMPO DE POSEVENTO (s)                : 60


================================================================================
DATOS DEL SISMO:
FECHA DEL SISMO [GMT]                  : 2022/09/19
HORA EPICENTRO (GMT)                   : 18:05:09
MAGNITUD(ES)                           : /M=7.7
COORDENADAS DEL EPICENTRO              : 18.2200 LAT. N
                                       : -103.2900 LONG. W
PROFUNDIDAD FOCAL (Km)                 : 15.0
FUENTE DE LOS DATOS EPICENTRALES       : SSN
                                       : INSTITUTO DE GEOFISICA, UNAM

================================================================================
DATOS DE ESTE REGISTRO:
HORA DE LA PRIMERA MUESTRA (GMT)       : 18:05:06.000
EXACTITUD DEL TIEMPO (s)               : 
DURACION DEL REGISTRO (s), C1-C6       : /377/377/377
DURACION DEL REGISTRO (s), C7-C12      : 
NUM. TOTAL DE MUESTRAS, C1-C6          : /75400/75400/75400
NUM. TOTAL DE MUESTRAS, C7-C12         : 
ACEL. MAX.(Gal), C1-C6                 : /8.034/8.793/-2.963
ACEL. MAX., C1-C6, EN LA MUESTRA       : /30714/29739/30807
ACEL. MAX.(Gal), C7-C12                : 
ACEL. MAX., C7-C12,EN LA MUESTRA       : 
UNIDADES DE LOS DATOS                  : Gal (cm/s/s)
FACTOR DE DECIMACION                   : 1
FORMATO DATOS (FORTRAN,16 campos/dato) : 3E16.7


================================================================================
CALIDAD DEL ACELEROGRAMA:
REGISTRO DIGITAL COMPLETO CON TIEMPO ABSOLUTO CORRECTO


================================================================================
COMENTARIOS:














================================================================================
DATOS DE ACELERACION:
---------+---------+---------+---------+---------+---------+---------+---------+
   CANAL-1   	     CANAL-2          CANAL-3
     N90E             N00E              V
---------+---------+---------+---------+---------+---------+---------+---------+ 
[...]
  -4.1394300e+00  -9.3659600e-01   1.5073000e+00
  -4.2316600e+00  -1.0930700e+00   1.4801600e+00
  -4.3384100e+00  -1.2423100e+00   1.4455300e+00
  -4.4156600e+00  -1.3938800e+00   1.4144000e+00
  -4.4887000e+00  -1.5321400e+00   1.3793100e+00
  -4.5327000e+00  -1.7110400e+00   1.3392900e+00
  -4.5533000e+00  -1.9123600e+00   1.2639500e+00
  -4.5837400e+00  -2.1024600e+00   1.1764300e+00
  -4.6209600e+00  -2.2881300e+00   1.1118500e+00
  -4.7115500e+00  -2.4144800e+00   1.0479700e+00
  -4.8138500e+00  -2.5251800e+00   9.9157400e-01
  -4.9053700e+00  -2.6468600e+00   9.4407300e-01
  -4.9692800e+00  -2.7610700e+00   8.9470000e-01
  -4.9795800e+00  -2.9061000e+00   8.3315900e-01
  -4.9859000e+00  -3.0590700e+00   7.8308400e-01
  -5.0083700e+00  -3.2211500e+00   7.5640800e-01
  -5.0748600e+00  -3.3491400e+00   7.4026200e-01
  -5.1619400e+00  -3.4502600e+00   7.3488100e-01
  -5.2176500e+00  -3.5168300e+00   7.2903100e-01
  -5.2576800e+00  -3.5427500e+00   7.3698700e-01
  -5.2693800e+00  -3.6058100e+00   7.4377200e-01
  -5.2546400e+00  -3.6978200e+00   7.4353800e-01
  -5.2387200e+00  -3.7949800e+00   7.4845200e-01
  -5.2148400e+00  -3.8599100e+00   7.4821800e-01
  -5.2139000e+00  -3.8858300e+00   7.5102600e-01
  -5.2298200e+00  -3.8657400e+00   7.4751600e-01
  -5.2216300e+00  -3.8019900e+00   7.2645700e-01
  -5.1902600e+00  -3.7137100e+00   7.0258900e-01
  -5.1139500e+00  -3.6338300e+00   6.8316700e-01
  -5.0221900e+00  -3.5656400e+00   6.6047000e-01
  -4.9250400e+00  -3.5177600e+00   6.3239000e-01
  -4.8342100e+00  -3.4603100e+00   6.0384300e-01
  -4.7679600e+00  -3.3986500e+00   5.7318900e-01
  -4.6860300e+00  -3.3022000e+00   5.1726400e-01
  -4.5938000e+00  -3.1674400e+00   4.4964000e-01
  -4.4683300e+00  -3.0410900e+00   3.8154700e-01
  -4.3068100e+00  -2.8748000e+00   3.0503000e-01
  -4.1399000e+00  -2.7426200e+00   2.2664100e-01
  -3.9786100e+00  -2.6186000e+00   1.4684900e-01
  -3.8374600e+00  -2.4691300e+00   8.9753700e-02
  -3.7096400e+00  -2.2935000e+00   3.6168600e-02
  -3.5687200e+00  -2.0959200e+00  -3.8242100e-02
  -3.3901100e+00  -1.8866700e+00  -1.1475900e-01
  -3.1848200e+00  -1.7019300e+00  -1.9455100e-01
  -2.9741300e+00  -1.5818900e+00  -2.8721400e-01
  -2.7756300e+00  -1.4592700e+00  -3.8221600e-01
  -2.6049800e+00  -1.3478700e+00  -4.5990300e-01
  -2.4249600e+00  -1.2012000e+00  -5.1863600e-01
  -2.2112400e+00  -1.0057300e+00  -5.7245500e-01
  -1.9581900e+00  -7.7801700e-01  -6.2557200e-01
  -1.6655700e+00  -5.4703900e-01  -6.8173100e-01
  -1.3612600e+00  -3.6323700e-01  -7.4116600e-01
  -1.0705200e+00  -1.9485000e-01  -8.0785500e-01
  -7.8071500e-01  -3.8840400e-02  -8.8249900e-01
  -4.6914100e-01   1.1646800e-01  -9.3070300e-01
  -1.5078000e-01   3.0914500e-01  -9.4965600e-01
   1.7577600e-01   5.0065400e-01  -9.5386800e-01
   5.0467200e-01   6.8258700e-01  -9.7095000e-01
   8.2888600e-01   8.5097400e-01  -9.9996500e-01
   1.1547400e+00   9.8503000e-01  -1.0095600e+00
   1.4548400e+00   1.1127800e+00  -9.9902900e-01
   1.7336400e+00   1.2302600e+00  -9.6790800e-01
   2.0054200e+00   1.3706200e+00  -9.2461900e-01
   2.2755600e+00   1.5357300e+00  -8.6518400e-01
   2.5515500e+00   1.6980500e+00  -7.9802700e-01
   2.8188800e+00   1.8561600e+00  -7.3578400e-01
   3.0717000e+00   2.0011900e+00  -6.7003100e-01
   3.2957200e+00   2.1097900e+00  -5.8719700e-01
   3.5050000e+00   2.1976100e+00  -4.7745200e-01
   3.7095900e+00   2.2879900e+00  -3.5998700e-01
   3.8875000e+00   2.3648300e+00  -2.6194200e-01
   4.0511300e+00   2.4271800e+00  -1.9665700e-01
   4.1815200e+00   2.5084600e+00  -1.5360200e-01
   4.3121400e+00   2.6084200e+00  -1.1850300e-01
   4.4947300e+00   2.7051100e+00  -7.5681400e-02
   4.6782600e+00   2.8284200e+00  -2.7712300e-02
   4.8737200e+00   2.9304800e+00   9.9611000e-03
   5.0457800e+00   2.9961100e+00   2.7276800e-02
   5.1670400e+00   3.0320700e+00   1.9320900e-02
   5.2756500e+00   3.0358100e+00   1.8852900e-02
   5.3669500e+00   3.0696700e+00   2.6106800e-02
   5.5064700e+00   3.0738800e+00   2.0490900e-02
   5.6534700e+00   3.0827500e+00   9.7271000e-03
   5.7616200e+00   3.0612600e+00  -1.6012500e-02
   5.8187400e+00   2.9916700e+00  -5.9301700e-02
   5.8000100e+00   2.9374800e+00  -1.0937700e-01
   5.7894800e+00   2.8566800e+00  -1.4330600e-01
   5.7740300e+00   2.7763400e+00  -1.4915600e-01
   5.7620900e+00   2.6934300e+00  -1.5173000e-01
   5.7609200e+00   2.5892700e+00  -1.5570800e-01
   5.7260400e+00   2.4477400e+00  -1.4681600e-01
   5.6574500e+00   2.3519800e+00  -1.4213600e-01
   5.5638200e+00   2.2459500e+00  -1.4260400e-01
   5.4725200e+00   2.1354800e+00  -1.2786300e-01
   5.3950400e+00   2.0413600e+00  -9.2997100e-02
   5.3234100e+00   1.8940000e+00  -5.9067700e-02
   5.2707400e+00   1.7165000e+00  -4.5261900e-02
   5.2222800e+00   1.5165800e+00  -4.6197900e-02
   5.1670400e+00   1.3316100e+00  -5.8833700e-02
   5.1073400e+00   1.1599600e+00  -8.0361300e-02
   5.0186200e+00   1.0233300e+00  -1.0399500e-01
   4.9359900e+00   8.7316100e-01  -1.2528900e-01
   4.8383700e+00   7.0243800e-01  -1.4634800e-01
   4.7435700e+00   5.1793600e-01  -1.7466200e-01
   4.6630400e+00   3.1872000e-01  -2.1935500e-01
   4.5658900e+00   1.2581000e-01  -2.6685600e-01
   4.4802200e+00  -4.5613300e-02  -3.0406100e-01
   4.3797900e+00  -2.0769500e-01  -3.3237500e-01
   4.2608700e+00  -3.7141200e-01  -3.6466600e-01
   4.1567000e+00  -5.2578600e-01  -3.8666200e-01
   4.0633000e+00  -7.0678500e-01  -3.9204400e-01
   3.9722400e+00  -9.0039600e-01  -4.0374400e-01
   3.8772000e+00  -1.1012500e+00  -4.1567800e-01
   3.7718600e+00  -1.2824800e+00  -4.1731600e-01
   3.6662900e+00  -1.4471300e+00  -4.0538200e-01
   3.5450300e+00  -1.6082800e+00  -3.9227800e-01
   3.4134700e+00  -1.7610200e+00  -3.8408800e-01
   3.2732500e+00  -1.9287000e+00  -3.7496200e-01
   3.1412200e+00  -2.1125100e+00  -3.6934600e-01
   3.0445400e+00  -2.2603400e+00  -3.7847200e-01
   2.9724400e+00  -2.3876200e+00  -3.9017200e-01
   2.9139200e+00  -2.4885200e+00  -3.9695800e-01
   2.8561000e+00  -2.5868400e+00  -4.1661400e-01
   2.7968800e+00  -2.6961400e+00  -4.4679900e-01
   2.7341400e+00  -2.7683100e+00  -4.7932400e-01
   2.6758500e+00  -2.8720000e+00  -5.1676400e-01
   2.6119500e+00  -2.9682200e+00  -5.7456100e-01
   2.5634900e+00  -3.0723800e+00  -6.4733400e-01
   2.5279100e+00  -3.1938300e+00  -7.1706400e-01
   2.4878800e+00  -3.3187800e+00  -7.9311300e-01
   2.4752400e+00  -3.4488600e+00  -8.7805400e-01
   2.4621300e+00  -3.5308400e+00  -9.4591200e-01
   2.4466800e+00  -3.5971700e+00  -9.9973100e-01
   2.4321700e+00  -3.6705000e+00  -1.0484000e+00
   2.4267800e+00  -3.7798000e+00  -1.0809300e+00
   2.4396600e+00  -3.9080200e+00  -1.0835000e+00
   2.4567500e+00  -4.0208200e+00  -1.0601000e+00
   2.4738300e+00  -4.1226500e+00  -1.0296800e+00
   2.4553400e+00  -4.1658500e+00  -1.0023100e+00
   2.4087600e+00  -4.1836000e+00  -9.6510000e-01
   2.3521100e+00  -4.2104600e+00  -8.9279500e-01
   2.2811800e+00  -4.2345200e+00  -8.0294100e-01
   2.2156300e+00  -4.2852000e+00  -7.0606700e-01
   2.1442400e+00  -4.2758500e+00  -6.1668000e-01
   2.0831400e+00  -4.2431600e+00  -5.3829100e-01
   2.0311700e+00  -4.1756600e+00  -4.6505100e-01
   1.9515800e+00  -4.0402000e+00  -3.7987600e-01
   1.8567700e+00  -3.9269300e+00  -2.6498400e-01
   1.7324700e+00  -3.8143600e+00  -1.3090400e-01
   1.6006800e+00  -3.7604100e+00   1.7712400e-03
   1.4838700e+00  -3.7281900e+00   9.2561700e-02
   1.3996000e+00  -3.6541500e+00   1.5784700e-01
   1.3649500e+00  -3.5450800e+00   2.0628400e-01
   1.3520800e+00  -3.3946800e+00   2.4957300e-01
   1.3551200e+00  -3.2954200e+00   3.2796200e-01
   1.3200100e+00  -3.2419400e+00   4.0822200e-01
   1.2277700e+00  -3.2134500e+00   4.7561300e-01
   1.1109600e+00  -3.1765500e+00   5.2334800e-01
   9.8947100e-01  -3.0751900e+00   5.6593600e-01
   8.9396300e-01  -2.9271200e+00   6.2045700e-01
   7.9213400e-01  -2.7599000e+00   6.7755200e-01
   6.7579100e-01  -2.6608700e+00   7.3066900e-01
   5.5991700e-01  -2.6265400e+00   7.7606400e-01
   4.4872400e-01  -2.6153300e+00   8.4111500e-01
   3.4876800e-01  -2.5653500e+00   9.1599300e-01
   2.1627300e-01  -2.4376000e+00   9.9789200e-01
   1.7999100e-02  -2.2780900e+00   1.0678600e+00
  -2.0977000e-01  -2.0828500e+00   1.0987400e+00
  -4.0827800e-01  -1.8869000e+00   1.1324400e+00
  -5.4685900e-01  -1.7054300e+00   1.1792400e+00
  -6.3253600e-01  -1.5706800e+00   1.2269700e+00
  -7.4045100e-01  -1.4716500e+00   1.2683900e+00
  -8.9565300e-01  -1.3224200e+00   1.3006800e+00
  -1.0560000e+00  -1.1313700e+00   1.3376500e+00
  -1.1976300e+00  -8.6116000e-01   1.3835200e+00
  -1.2968800e+00  -5.6011800e-01   1.4382700e+00
  -1.3570400e+00  -2.9504200e-01   1.4757100e+00
  -1.3813900e+00  -7.0602800e-02   1.4899900e+00
  -1.3900500e+00   1.1857000e-01   1.5030900e+00
  -1.4158000e+00   3.1802000e-01   1.5112800e+00
  -1.4471700e+00   5.5133300e-01   1.5073000e+00
  -1.5042900e+00   8.2925500e-01   1.4995800e+00
  -1.5728700e+00   1.0840500e+00   1.4984100e+00
  -1.6164100e+00   1.3014900e+00   1.5080000e+00
  -1.6564400e+00   1.5233600e+00   1.5129200e+00
  -1.6573800e+00   1.7515300e+00   1.5204100e+00
  -1.6246100e+00   2.0194100e+00   1.5285900e+00
  -1.6019000e+00   2.2914900e+00   1.5255500e+00
  -1.6122000e+00   2.5556400e+00   1.5105800e+00
  -1.6716600e+00   2.8104400e+00   1.4867100e+00
  -1.7236300e+00   3.0262300e+00   1.4869400e+00
  -1.7540600e+00   3.2768300e+00   1.4984100e+00
  -1.7130900e+00   3.5535800e+00   1.5084700e+00
  -1.5902000e+00   3.8303400e+00   1.4953700e+00
  -1.4712800e+00   4.1010200e+00   1.4684600e+00
  -1.4115900e+00   4.3670300e+00   1.4633100e+00
  -1.4197800e+00   4.6057100e+00   1.4588600e+00
  -1.4502100e+00   4.8700900e+00   1.4310200e+00
  -1.4441200e+00   5.1916800e+00   1.3781400e+00
  -1.3593800e+00   5.4812800e+00   1.3201000e+00
  -1.2301700e+00   5.7486900e+00   1.2377400e+00
  -1.0796500e+00   5.9925200e+00   1.1504600e+00
  -9.3427800e-01   6.2120500e+00   1.0835300e+00
  -8.1934000e-01   6.4458300e+00   1.0039800e+00
  -7.1985200e-01   6.6784400e+00   9.1178200e-01
  -5.9461400e-01   6.9059200e+00   8.1186500e-01
  -4.1857800e-01   7.1121400e+00   7.0656700e-01
  -2.3903100e-01   7.2772600e+00   6.0852300e-01
  -8.9916200e-02   7.4984300e+00   5.4464200e-01
   4.4919400e-02   7.7310400e+00   5.2264600e-01
   1.8631000e-01   7.9167100e+00   4.8169700e-01
   3.7194300e-01   8.0958400e+00   4.1266800e-01
   5.9830700e-01   8.2320000e+00   3.6610300e-01
   8.1624500e-01   8.3268200e+00   3.4363900e-01
   1.0133500e+00   8.3961800e+00   3.4621300e-01
   1.1559100e+00   8.4847000e+00   3.5931700e-01
   1.2750600e+00   8.6089400e+00   3.6095500e-01
   1.4017000e+00   8.7175400e+00   3.4457500e-01
   1.5426300e+00   8.7806000e+00   3.0620000e-01
   1.7163200e+00   8.7932100e+00   2.7578100e-01
   1.8872100e+00   8.7684600e+00   2.6361300e-01
   2.0300000e+00   8.7406700e+00   2.3997900e-01
   2.1418900e+00   8.7362300e+00   1.9832800e-01
   2.2472300e+00   8.7462700e+00   1.5340100e-01
   2.3528100e+00   8.7404300e+00   1.1923700e-01
   2.4836700e+00   8.6717700e+00   8.7413800e-02
   2.6430800e+00   8.5489200e+00   3.8976600e-02
   2.7844700e+00   8.3726000e+00  -4.0348000e-02
   2.8675700e+00   8.1570300e+00  -1.4283800e-01
   2.8832600e+00   7.9919100e+00  -2.3409700e-01
   2.8872400e+00   7.8847100e+00  -3.0055200e-01
   2.9043200e+00   7.8167500e+00  -3.4641500e-01
   2.9335900e+00   7.7471600e+00  -3.9906400e-01
   2.9345200e+00   7.6021200e+00  -4.7113500e-01
   2.8825500e+00   7.3872600e+00  -5.4273700e-01
   2.8106900e+00   7.1280200e+00  -5.9257900e-01
   2.7296900e+00   6.8496300e+00  -6.1363800e-01
   2.6650900e+00   6.6459800e+00  -6.3165600e-01
   2.6156900e+00   6.5126300e+00  -6.5014200e-01
   2.5246300e+00   6.3573200e+00  -6.5856500e-01
   2.3724700e+00   6.1655700e+00  -6.6722300e-01
   2.1732600e+00   5.9121800e+00  -6.7845500e-01
   1.9738200e+00   5.6186100e+00  -6.8781500e-01
   1.8350000e+00   5.3131300e+00  -6.7073300e-01
   1.7240400e+00   5.0247000e+00  -6.2580600e-01
   1.5824200e+00   4.7895100e+00  -5.8930300e-01
   1.3665900e+00   4.6003400e+00  -5.5069300e-01
   1.1016000e+00   4.4363900e+00  -5.0155400e-01
   8.5721100e-01   4.2607600e+00  -4.4867100e-01
   6.4957300e-01   4.0003600e+00  -3.8900200e-01
   4.6721700e-01   3.6836700e+00  -3.1810100e-01
   2.7713600e-01   3.3915000e+00  -2.2988500e-01
   8.6821500e-02   3.1285300e+00  -1.4775200e-01
  -1.0840900e-01   2.9206700e+00  -9.1125200e-02
  -3.2096300e-01   2.7027700e+00  -5.7429700e-02
  -5.3960200e-01   2.4624500e+00  -2.9818200e-02
  -7.6994700e-01   2.1908300e+00  -5.7166300e-03
  -9.9818400e-01   1.8783500e+00   1.2535100e-02
  -1.2287600e+00   1.5731000e+00   2.7042800e-02
  -1.4731500e+00   1.2372600e+00   2.2596900e-02
  -1.7233900e+00   8.9815100e-01   9.2591100e-03
  -1.9698900e+00   5.7608900e-01   2.7072200e-03
  -2.1969600e+00   2.3417600e-01   3.6432100e-03
  -2.4102100e+00  -1.0049700e-01   2.4732300e-03
  -2.6077800e+00  -4.4194300e-01  -2.0224400e-02
  -2.8172900e+00  -7.8222100e-01  -4.3156000e-02
  -3.0616800e+00  -1.1180600e+00  -3.8710100e-02
  -3.3273800e+00  -1.4630100e+00  -1.9054400e-02
  -3.6272500e+00  -1.7741000e+00   6.4511600e-03
  -3.9119000e+00  -2.0994300e+00   3.7806600e-02
  -4.1598000e+00  -2.4165800e+00   7.3374000e-02
  -4.3910800e+00  -2.7321100e+00   1.1221700e-01
  -4.6034000e+00  -3.0361800e+00   1.4895500e-01
  -4.8234400e+00  -3.3206500e+00   1.9856200e-01
  -5.0715800e+00  -3.6352300e+00   2.6174100e-01
  -5.3482700e+00  -3.8804600e+00   3.2000600e-01
  -5.6118600e+00  -4.0978900e+00   3.8271700e-01
  -5.8241800e+00  -4.3045800e+00   4.5595700e-01
  -5.9857000e+00  -4.4844100e+00   5.2568800e-01
  -6.1245100e+00  -4.6770900e+00   5.9331300e-01
  -6.2846300e+00  -4.8737300e+00   6.5719400e-01
  -6.4988200e+00  -5.0472600e+00   7.0937500e-01
  -6.7317400e+00  -5.2168200e+00   7.4892000e-01
  -6.9159700e+00  -5.3674500e+00   7.8519000e-01
  -7.0257600e+00  -5.4629700e+00   8.3152100e-01
  -7.0611100e+00  -5.5538200e+00   8.7036400e-01
  -7.0753900e+00  -5.5928300e+00   8.9376400e-01
  -7.1130700e+00  -5.6474800e+00   9.1365400e-01
  -7.1840000e+00  -5.7345900e+00   9.3775500e-01
  -7.2738900e+00  -5.7939100e+00   9.5483700e-01
  -7.3441200e+00  -5.8200700e+00   9.6021900e-01
  -7.3949200e+00  -5.8030200e+00   9.6209100e-01
  -7.4021800e+00  -5.7621500e+00   9.6653700e-01
  -7.3539500e+00  -5.6797100e+00   9.8221400e-01
  -7.3036200e+00  -5.5841800e+00   9.9344600e-01
  -7.2668700e+00  -5.4910000e+00   9.7800200e-01
  -7.2605500e+00  -5.3985100e+00   9.4056300e-01
  -7.2748300e+00  -5.2910800e+00   9.0640000e-01
  -7.2497800e+00  -5.1553900e+00   8.6474800e-01
  -7.1613000e+00  -5.0411900e+00   8.1654500e-01
  -7.0224800e+00  -4.8945200e+00   7.7255400e-01
  -6.8583800e+00  -4.7326700e+00   7.1639500e-01
  -6.6858600e+00  -4.5722200e+00   6.5368400e-01
  -6.5447000e+00  -4.3741800e+00   5.7927300e-01
  -6.4419400e+00  -4.2090600e+00   5.2077400e-01
  -6.3337900e+00  -4.0637900e+00   4.9129100e-01
  -6.1998900e+00  -3.9323100e+00   4.5502100e-01
  -6.0016200e+00  -3.7898400e+00   4.1898600e-01
  -5.7424800e+00  -3.6130500e+00   3.8014300e-01
  -5.4718700e+00  -3.4014500e+00   3.3311000e-01
  -5.2089900e+00  -3.1830900e+00   2.9707400e-01
  -4.9744300e+00  -2.9948500e+00   2.8584200e-01
  -4.7602400e+00  -2.8227200e+00   3.0526400e-01
  -4.5282600e+00  -2.6956700e+00   3.2538800e-01
