**************************************************************************************
  	RED ACELEROGRÁFICA DE LA UNIVERSIDAD AUTONOMA METROPOLITANA (RA-UAM)
	   UNIDAD AZCAPOTZALCO. DIVISIÓN CBI-DEPARTAMENTO DE MATERIALES
     Av. San Pablo 420, Col. Nueva el Rosario, Azcapotzalco, C.P. 02128, Ciudad de México
		Área de Estructuras. e-mail: agb@azc.uam.mx
**************************************************************************************
ARCHIVO ESTANDAR DE ACELERACION:
VERSION DEL FORMATO                    : 2.0
NOMBRE DEL ARCHIVO                     : RIDA202204.191
FECHA Y HORA DE CREACION               : 11:00 a. m. 25/04/2022
REF. CATALOGO ACELEROGRAMAS, SMIS 1999 : REGISTRO NO.      /PAG.    


================================================================================
DATOS DE LA ESTACION:
NOMBRE DE LA ESTACION                  : UAM-AZCAPOTZALCO.
CLAVE DE LA ESTACION                   : RIDA
LOCALIZACION DE LA ESTACION            : AV. SAN PABLO 420, COL. NUEVA EL ROSARIO,
                                       : AZCAPOTZALCO, C.P.02128, CIUDAD DE MEXICO. 
                                       :
                                       : 
                                       : 
COORDENADAS DE LA ESTACION             : 19.498596 LAT. N
                                       : 99.195595 LONG. W
ALTITUD (msnm)                         : 2546
TIPO DE SUELO                          : ZONA DE TRANSICION
                                       : 
                                       : 
INSTITUCION RESPONSABLE                : UNIVERSIDAD AUTONOMA METROPOLITANA
                                       : 

================================================================================
DATOS DEL ACELEROGRAFO: 
MODELO DEL ACELEROGRAFO                : ETNA2 KINEMETRICS
NUMERO DE SERIE DEL ACELEROGRAFO       : 103732
NUMERO DE CANALES                      : 3
ORIENTACION C1-C6 (rumbo;orientacion)  : /N90E/N00E/V
ORIENTACION C7-C12 (rumbo;orientacion) : 
VEL. DE MUESTREO, C1-C6 (muestras/s)   : /200/200/200
VEL. DE MUESTREO, C7-C12 (muestras/s)  : 
ESC. COMPLETA DE SENSORES, C1-C6, (g)  : /2/2/2
ESC. COMPLETA DE SENSORES, C7-C12 (g)  : 
FREC. NAT. DE SENSORES, C1-C6, (Hz)    : /198/212/200   
FREC. NAT. DE SENSORES, C7-C12 (Hz)    : 
AMORTIGUAMIENTO DE SENSORES, C1-C6     : /0.7/0.7/0.7      
AMORTIGUAMIENTO DE SENSORES, C7-C12    : 
INTERVALO DE MUESTREO, C1-C6 (s)       : /0.005/0.005/0.005
INTERVALO DE MUESTREO, C7-C12 (s)      : 
UMBRAL DE DISPARO, C1-C6 (Gal)         : /2/2/2
UMBRAL DE DISPARO, C7-C12 (Gal)        : 
MEMORIA DE PREEVENTO (s)               : 50
TIEMPO DE POSEVENTO (s)                : 60


================================================================================
DATOS DEL SISMO:
FECHA DEL SISMO [GMT]                  : 2022/04/19
HORA EPICENTRO (GMT)                   : 12:44:10
MAGNITUD(ES)                           : /M=5.0
COORDENADAS DEL EPICENTRO              : 17.7700 LAT. N
                                       : -101.9000 LONG. W
PROFUNDIDAD FOCAL (Km)                 : 15.0
FUENTE DE LOS DATOS EPICENTRALES       : SSN
                                       : INSTITUTO DE GEOFISICA, UNAM

================================================================================
DATOS DE ESTE REGISTRO:
HORA DE LA PRIMERA MUESTRA (GMT)       : 12:44:57.000
EXACTITUD DEL TIEMPO (s)               : 
DURACION DEL REGISTRO (s), C1-C6       : /144/144/144
DURACION DEL REGISTRO (s), C7-C12      : 
NUM. TOTAL DE MUESTRAS, C1-C6          : /28800/28800/28800
NUM. TOTAL DE MUESTRAS, C7-C12         : 
ACEL. MAX.(Gal), C1-C6                 : /1.510/1.062/0.301
ACEL. MAX., C1-C6, EN LA MUESTRA       : /11273/12003/11364
ACEL. MAX.(Gal), C7-C12                : 
ACEL. MAX., C7-C12,EN LA MUESTRA       : 
UNIDADES DE LOS DATOS                  : Gal (cm/s/s)
FACTOR DE DECIMACION                   : 1
FORMATO DATOS (FORTRAN,16 campos/dato) : 3E16.7


================================================================================
CALIDAD DEL ACELEROGRAMA:
REGISTRO DIGITAL COMPLETO CON TIEMPO ABSOLUTO CORRECTO


================================================================================
COMENTARIOS:














================================================================================
DATOS DE ACELERACION:
---------+---------+---------+---------+---------+---------+---------+---------+
   CANAL-1   	     CANAL-2          CANAL-3
     N90E             N00E              V
---------+---------+---------+---------+---------+---------+---------+---------+ 
[...]
  -7.7580400e-02  -2.5508400e-01   1.0514000e-01
  -9.6541700e-02  -2.3383100e-01   1.0092800e-01
  -1.1924800e-01  -2.1911800e-01   8.9930100e-02
  -1.1690800e-01  -2.4153800e-01   8.6186200e-02
  -1.1878000e-01  -2.3453200e-01   1.0163000e-01
  -1.1737600e-01  -2.5952100e-01   1.1403200e-01
  -1.1761000e-01  -2.6349200e-01   1.1894600e-01
  -1.1550300e-01  -2.4924500e-01   1.2666800e-01
  -1.0660800e-01  -2.7260000e-01   1.3087900e-01
  -1.0356400e-01  -2.8988300e-01   1.3672900e-01
  -1.0192600e-01  -3.0296100e-01   1.4562100e-01
  -1.0801200e-01  -3.1020100e-01   1.5615100e-01
  -1.0894800e-01  -3.1393800e-01   1.4819500e-01
  -1.0005300e-01  -3.3098700e-01   1.3836700e-01
  -1.0754400e-01  -3.4102900e-01   1.4140900e-01
  -1.0403300e-01  -3.4453300e-01   1.3181500e-01
  -9.2562200e-02  -3.5994700e-01   1.3134700e-01
  -9.5371300e-02  -3.3145400e-01   1.3579300e-01
  -8.3900900e-02  -3.3028600e-01   1.4257900e-01
  -8.8114500e-02  -3.1253700e-01   1.4679100e-01
  -9.4669000e-02  -2.8334300e-01   1.4749300e-01
  -9.0455400e-02  -2.7750500e-01   1.4866300e-01
  -1.0122300e-01  -2.5064700e-01   1.4866300e-01
  -1.1714200e-01  -2.3850200e-01   1.6363900e-01
  -1.4757300e-01  -2.1000900e-01   1.6246900e-01
  -1.6606600e-01  -1.8875700e-01   1.7042500e-01
  -1.8619800e-01  -1.4998800e-01   1.9382400e-01
  -2.1382100e-01  -1.2009400e-01   1.9593000e-01
  -2.1897100e-01  -9.8841000e-02   1.9265400e-01
  -2.3395200e-01  -7.9923700e-02   2.0318400e-01
  -2.5361600e-01  -5.1197400e-02   2.1348000e-01
  -2.7281100e-01  -7.2905000e-03   2.1816000e-01
  -2.8521800e-01   2.1902900e-02   2.3828400e-01
  -2.8053600e-01   6.7444600e-02   2.5442900e-01
  -2.9317700e-01   8.8463800e-02   2.5817300e-01
  -3.0417900e-01   1.0481200e-01   2.5489700e-01
  -3.0488200e-01   1.1625600e-01   2.6285300e-01
  -3.1424500e-01   1.3330500e-01   2.6238500e-01
  -3.1073400e-01   1.6343200e-01   2.4764300e-01
  -3.0675400e-01   1.5992900e-01   2.4717500e-01
  -3.0160400e-01   1.7511000e-01   2.3875200e-01
  -2.8849500e-01   1.8141600e-01   2.3032800e-01
  -2.9387900e-01   1.9145800e-01   2.3290200e-01
  -2.9364500e-01   2.1364500e-01   2.2541400e-01
  -2.8194100e-01   2.1341200e-01   2.0950200e-01
  -2.8521800e-01   2.1691500e-01   2.2096800e-01
  -3.0020000e-01   2.2462200e-01   2.2962600e-01
  -3.1916100e-01   2.3396400e-01   2.1488400e-01
  -3.2407700e-01   2.2649000e-01   2.1441600e-01
  -3.3812200e-01   2.6969600e-01   2.0154600e-01
  -3.5731800e-01   2.8464300e-01   1.7370100e-01
  -3.5989300e-01   2.9748900e-01   1.6410700e-01
  -3.7698100e-01   3.1360300e-01   1.7182900e-01
  -3.9313300e-01   3.1173500e-01   1.6457500e-01
  -3.8681300e-01   3.2434700e-01   1.4211100e-01
  -3.8330200e-01   3.2411300e-01   1.2409400e-01
  -3.8845200e-01   3.6521700e-01   9.6248000e-02
  -3.7768300e-01   3.3835900e-01   8.4782200e-02
  -3.7557700e-01   3.4466500e-01   7.6826400e-02
  -3.8564200e-01   3.5307300e-01   5.6468700e-02
  -3.7464000e-01   3.3182000e-01   4.0323000e-02
  -3.5544500e-01   3.5143800e-01   2.4879300e-02
  -3.4772000e-01   3.3625700e-01   7.3295700e-03
  -3.4139900e-01   3.3625700e-01  -1.1624100e-02
  -3.3227000e-01   3.1453800e-01  -4.3702300e-03
  -3.4935900e-01   3.1220200e-01  -1.5622800e-03
  -3.4982700e-01   3.1547200e-01  -1.7942000e-02
  -3.1939500e-01   3.0075800e-01  -2.0048000e-02
  -3.1354300e-01   3.0005800e-01  -1.6772000e-02
  -3.0535000e-01   2.9725500e-01  -2.1451900e-02
  -2.7585400e-01   2.7156500e-01  -2.7067800e-02
  -2.5431800e-01   2.4447300e-01  -2.7535800e-02
  -2.4027300e-01   2.4540800e-01  -2.7067800e-02
  -2.2131100e-01   2.0640500e-01  -2.8939800e-02
  -2.0281800e-01   1.9169200e-01  -3.2917700e-02
  -1.8175000e-01   2.0080000e-01  -3.5491700e-02
  -1.5553200e-01   1.7160700e-01  -3.7597700e-02
  -1.2603700e-01   1.5525800e-01  -2.6833800e-02
  -1.1175800e-01   1.4218000e-01  -1.9112000e-02
  -1.0777800e-01   1.2816700e-01  -2.3557900e-02
  -8.6475800e-02   1.2910100e-01  -2.3791900e-02
  -8.1325900e-02   1.2279500e-01  -3.2215800e-02
  -6.7748700e-02   1.2629800e-01  -4.7425500e-02
  -2.2803500e-02   1.2489700e-01  -5.3509400e-02
   7.6282000e-03   1.1649000e-01  -5.9125300e-02
   3.8996200e-02   9.8039300e-02  -8.5800800e-02
   8.9325500e-02   7.8187800e-02  -1.2043200e-01
   1.4714600e-01   7.1181400e-02  -1.4523600e-01
   1.9443200e-01   5.4599500e-02  -1.7284700e-01
   2.3539700e-01   4.2221500e-02  -2.0045900e-01
   2.6465900e-01   3.6616400e-02  -2.1145700e-01
   2.8315200e-01   3.5915700e-02  -2.1683900e-01
   3.3301300e-01   1.8301000e-04  -2.2222000e-01
   4.1026200e-01  -4.6292900e-02  -2.1964700e-01
   4.9500300e-01  -7.5719800e-02  -2.2315600e-01
   5.6733700e-01  -1.1285400e-01  -2.4117400e-01
   6.1415500e-01  -1.1659100e-01  -2.6574400e-01
   6.2890200e-01  -8.5061700e-02  -2.8446300e-01
   6.1555900e-01  -7.9923700e-02  -2.7533800e-01
   6.1415500e-01  -1.0958400e-01  -2.4304600e-01
   6.4411800e-01  -1.6003000e-01  -2.1262700e-01
   7.1223800e-01  -2.2402200e-01  -2.0069300e-01
   8.1570600e-01  -2.6652800e-01  -2.1613700e-01
   8.9693500e-01  -2.7727100e-01  -2.3134600e-01
   8.9389200e-01  -2.4854500e-01  -2.3087800e-01
   8.4590300e-01  -2.0580600e-01  -2.0794700e-01
   8.1102400e-01  -2.2122000e-01  -1.7752700e-01
   7.9885100e-01  -2.3009500e-01  -1.6559300e-01
   8.3349700e-01  -2.5088000e-01  -1.4898000e-01
   8.9342300e-01  -2.8147500e-01  -1.2745200e-01
   9.0161700e-01  -2.4667600e-01  -1.0756200e-01
   8.5292600e-01  -2.5648500e-01  -9.3054700e-02
   8.1921700e-01  -2.6863000e-01  -8.7438800e-02
   8.1172600e-01  -2.7610300e-01  -8.6502800e-02
   7.9768100e-01  -2.8217600e-01  -8.4396900e-02
   7.9065800e-01  -2.7843900e-01  -5.9593300e-02
   7.6584500e-01  -2.7657000e-01  -3.5023700e-02
   7.2019700e-01  -2.5648500e-01  -2.8939800e-02
   7.1106800e-01  -2.7703700e-01  -3.4321700e-02
   7.0474700e-01  -2.7119900e-01  -4.6021500e-02
   6.7220900e-01  -2.5158100e-01  -6.2167200e-02
   6.3405200e-01  -2.2869300e-01  -7.1059100e-02
   5.7927500e-01  -2.0230200e-01  -6.6145200e-02
   5.1349600e-01  -1.9856600e-01  -7.6675000e-02
   4.8236200e-01  -2.1935100e-01  -9.4926700e-02
   4.7276400e-01  -2.1468000e-01  -1.0756200e-01
   4.2056200e-01  -1.9809900e-01  -1.1411400e-01
   3.5220800e-01  -2.1000900e-01  -1.1247600e-01
   2.8385400e-01  -1.8595400e-01  -1.0990200e-01
   1.8577000e-01  -1.8081600e-01  -1.0943400e-01
   1.0898900e-01  -1.7310900e-01  -1.1739000e-01
   7.7621000e-02  -1.6376700e-01  -1.1926200e-01
   1.3246400e-02  -1.7077400e-01  -1.2066600e-01
  -6.5876000e-02  -1.5722800e-01  -1.2113400e-01
  -1.1175800e-01  -1.6003000e-01  -1.0569000e-01
  -1.8549600e-01  -1.4648500e-01  -1.0264900e-01
  -2.6063900e-01  -1.3550800e-01  -1.2207000e-01
  -2.8685700e-01  -1.4765200e-01  -1.2558000e-01
  -3.3250400e-01  -1.3667600e-01  -1.1645400e-01
  -3.8892000e-01  -1.2966900e-01  -1.1996400e-01
  -4.1045600e-01  -1.2756700e-01  -1.0873200e-01
  -4.5142200e-01  -9.0199800e-02  -8.4864800e-02
  -5.1743500e-01  -6.7078600e-02  -6.9655100e-02
  -5.6636000e-01  -6.7545700e-02  -5.5849300e-02
  -6.1411400e-01  -4.8628400e-02  -4.3447600e-02
  -6.6772000e-01  -5.4233500e-02  -3.1981800e-02
  -6.9791800e-01  -3.8352300e-02  -1.8644000e-02
  -7.2647700e-01  -8.4582400e-03  -1.5368000e-02
  -7.8008400e-01   2.2849300e-03  -1.8176000e-02
  -8.2222000e-01   1.4662900e-02  -1.1858100e-02
  -8.6599400e-01   1.9333900e-02  -4.8382200e-03
  -9.2685800e-01   2.6807400e-02  -9.0501500e-03
  -9.6993000e-01   3.7083500e-02  -7.1781800e-03
  -1.0069200e+00   4.5724700e-02   3.8196300e-03
  -1.0418000e+00   2.1435800e-02   7.7767900e-04
  -1.0591200e+00   8.8242600e-03   1.7136600e-03
  -1.0792500e+00  -7.5117900e-04   1.3413500e-02
  -1.0996200e+00  -4.1621900e-02   4.7556100e-03
  -1.1108500e+00  -7.1048900e-02  -5.3062200e-03
  -1.1307500e+00  -9.4170100e-02  -7.1781800e-03
  -1.1375400e+00  -1.2966900e-01  -2.0282000e-02
  -1.1373000e+00  -1.5185600e-01  -2.4259900e-02
  -1.1492400e+00  -1.6470100e-01  -2.3791900e-02
  -1.1415200e+00  -1.7077400e-01  -4.2979600e-02
  -1.1295800e+00  -1.6376700e-01  -4.9999400e-02
  -1.1284100e+00  -1.6540200e-01  -4.1341600e-02
  -1.1253700e+00  -1.6937200e-01  -5.3275400e-02
  -1.1199800e+00  -1.6913900e-01  -5.0935400e-02
  -1.1139000e+00  -1.4461600e-01  -2.1919900e-02
  -1.0989100e+00  -1.5302400e-01  -8.3481600e-03
  -1.0705900e+00  -1.3387300e-01  -4.6042300e-03
  -1.0469500e+00  -9.7673300e-02   5.6915900e-03
  -1.0165100e+00  -1.2453100e-01   5.2236000e-03
  -9.8186900e-01  -1.3761000e-01   1.9731400e-02
  -9.7344200e-01  -1.4578400e-01   4.0557000e-02
  -9.5073500e-01  -1.4671800e-01   2.9559200e-02
  -8.9783100e-01  -1.2943600e-01   3.9621000e-02
  -8.6552600e-01  -9.5804900e-02   5.5064700e-02
  -8.1660200e-01  -9.5804900e-02   5.2958800e-02
  -7.5948400e-01  -9.1133900e-02   7.3082400e-02
  -7.3326600e-01  -7.0815300e-02   1.0022600e-01
  -6.9230000e-01  -6.6611500e-02   1.0256600e-01
  -6.4688700e-01  -2.7609100e-02   1.0326800e-01
  -6.0287800e-01   2.8208700e-02   1.1777600e-01
  -5.4107800e-01   6.6744000e-02   1.2386000e-01
  -4.7810800e-01   9.3368300e-02   1.4211100e-01
  -4.2403300e-01   1.3704200e-01   1.5825700e-01
  -3.7557700e-01   1.7464300e-01   1.5030100e-01
  -3.1822500e-01   2.2976000e-01   1.5685300e-01
  -2.5829800e-01   3.0099200e-01   1.6083100e-01
  -1.9626400e-01   3.5610900e-01   1.4351500e-01
  -1.1058700e-01   4.0071600e-01   1.4749300e-01
  -3.0528400e-02   4.5770200e-01   1.5474700e-01
   4.6487100e-02   4.8479300e-01   1.3719700e-01
   1.3450500e-01   5.1281900e-01   1.1847800e-01
   2.0590200e-01   5.9199200e-01   1.0256600e-01
   2.8619500e-01   6.2422100e-01   7.3082400e-02
   3.5876300e-01   6.6859500e-01   4.3130900e-02
   4.2032800e-01   7.1086700e-01   1.5987400e-02
   5.0858000e-01   6.9615400e-01  -1.0220100e-02
   5.9191600e-01   6.9451900e-01  -2.5195900e-02
   6.7150600e-01   7.1133400e-01  -4.6489500e-02
   7.6092900e-01   7.2161000e-01  -6.8719100e-02
   8.4122200e-01   7.3865900e-01  -8.3694900e-02
   9.1402300e-01   7.5430700e-01  -9.0246700e-02
   9.7793000e-01   7.4146200e-01  -9.0246700e-02
   1.0317700e+00   7.1040000e-01  -7.8079000e-02
   1.0736700e+00   7.0899900e-01  -6.0763300e-02
   1.1268100e+00   6.9592000e-01  -5.5147400e-02
   1.1947000e+00   6.8517700e-01  -4.9063500e-02
   1.2464300e+00   7.2651500e-01  -5.1403400e-02
   1.2962900e+00   7.0316000e-01  -4.5553500e-02
   1.3262600e+00   6.8844700e-01  -2.2387900e-02
   1.3384300e+00   6.9521900e-01  -1.5134000e-02
   1.3681600e+00   6.6742700e-01  -1.1390100e-02
   1.4250400e+00   6.6135500e-01   4.7556100e-03
   1.4655400e+00   6.6836200e-01   1.5987400e-02
   1.4760700e+00   6.3099400e-01   2.6985200e-02
   1.5072100e+00   5.7611000e-01   3.7515000e-02
   1.5100200e+00   5.6349900e-01   5.5532700e-02
   1.4910500e+00   5.0651300e-01   6.6062600e-02
   1.4941000e+00   4.8993100e-01   5.8808700e-02
   1.4926900e+00   5.0090800e-01   6.3254600e-02
   1.4845000e+00   4.4112000e-01   5.8808700e-02
   1.4842700e+00   3.9020700e-01   6.1382600e-02
   1.4660100e+00   3.1944200e-01   6.9806500e-02
   1.4283200e+00   2.2835900e-01   5.8574700e-02
   1.4133400e+00   1.5595900e-01   6.5594600e-02
   1.3754100e+00   1.0714800e-01   5.9042700e-02
   1.3208700e+00   5.5066600e-02   4.0557000e-02
   1.2719500e+00   8.8365200e-04   5.5766700e-02
   1.1942300e+00  -7.2683700e-02   7.2380400e-02
   1.1233000e+00  -1.6400100e-01   6.7232500e-02
   1.0514300e+00  -2.3336400e-01   6.7232500e-02
   9.6622500e-01  -2.9992500e-01   7.2146400e-02
   9.0723500e-01  -3.4756900e-01   6.0914600e-02
   8.4145600e-01  -4.0478800e-01   6.1382600e-02
   7.5390600e-01  -4.6130600e-01   6.7466500e-02
   6.9046800e-01  -5.2179500e-01   6.2318600e-02
   6.1673000e-01  -6.0096700e-01   6.4190600e-02
   5.3198900e-01  -6.3973600e-01   5.4362800e-02
   4.6574200e-01  -6.9789000e-01   3.3069100e-02
   3.7795800e-01  -7.3992800e-01   3.3537100e-02
   2.9251500e-01  -7.5837800e-01   3.6813100e-02
   2.1409500e-01  -8.2377100e-01   1.6455400e-02
   1.1835300e-01  -8.5857000e-01   1.0116800e-03
   3.6655300e-02  -8.9710500e-01  -7.6461800e-03
  -4.9957900e-02  -9.4101200e-01  -2.4961900e-02
  -1.5225500e-01  -9.5876200e-01  -3.4555700e-02
  -2.4027300e-01  -9.6273200e-01  -4.7893500e-02
  -3.3507900e-01  -9.6576800e-01  -6.6145200e-02
  -4.1911700e-01  -9.7978100e-01  -7.0357100e-02
  -4.8911000e-01  -9.9402700e-01  -7.6441000e-02
  -5.7057300e-01  -1.0043000e+00  -7.9014900e-02
  -6.4150200e-01  -9.9799800e-01  -6.4273200e-02
  -7.1219800e-01  -9.9799800e-01  -7.1527100e-02
  -7.8851100e-01  -9.7721200e-01  -9.2118700e-02
  -8.6388800e-01  -9.7067300e-01  -9.6330600e-02
  -9.3903000e-01  -9.5502500e-01  -9.8436600e-02
  -1.0228300e+00  -9.3400600e-01  -1.0311700e-01
  -1.0872100e+00  -9.2606500e-01  -1.1177400e-01
  -1.1316900e+00  -8.8099100e-01  -1.3564200e-01
  -1.1820200e+00  -8.4572500e-01  -1.5529800e-01
  -1.2171300e+00  -8.0578800e-01  -1.5576600e-01
  -1.2637100e+00  -7.6935500e-01  -1.7050700e-01
  -1.3215300e+00  -7.3432300e-01  -1.7799500e-01
  -1.3587500e+00  -6.6893000e-01  -1.7378300e-01
  -1.3842700e+00  -6.2455600e-01  -1.8992900e-01
  -1.4121300e+00  -5.7808000e-01  -2.1075500e-01
  -1.4278100e+00  -5.3697600e-01  -2.0279900e-01
  -1.4547300e+00  -4.8676300e-01  -1.8922700e-01
  -1.4854000e+00  -4.4635900e-01  -1.9437500e-01
  -1.4896100e+00  -4.2020200e-01  -1.8244100e-01
  -1.4868000e+00  -3.6298300e-01  -1.8103700e-01
  -1.4772000e+00  -3.4079600e-01  -1.8010100e-01
  -1.4736900e+00  -2.9829000e-01  -1.5108600e-01
  -1.4566000e+00  -2.4761100e-01  -1.3868400e-01
  -1.4423200e+00  -1.9763100e-01  -1.2979200e-01
  -1.4348300e+00  -1.3644200e-01  -1.0428700e-01
  -1.3990200e+00  -8.1792100e-02  -9.7734600e-02
  -1.3767800e+00  -4.2089000e-02  -8.8140800e-02
  -1.3433000e+00   8.8365200e-04  -5.7019300e-02
  -1.2782300e+00   6.9313000e-02  -4.9063500e-02
  -1.2276600e+00   1.1742400e-01  -4.0405600e-02
  -1.1494800e+00   1.8959000e-01  -2.2153900e-02
  -1.0628600e+00   2.2812500e-01  -1.7006000e-02
  -1.0123000e+00   2.6339100e-01   2.4156500e-03
  -9.3434900e-01   3.3041900e-01   2.3241300e-02
  -8.5850400e-01   3.8390100e-01   1.4817400e-02
  -7.8242400e-01   4.5466600e-01   2.4177300e-02
  -6.7872300e-01   5.0744700e-01   4.6874900e-02
  -6.0521900e-01   5.3991100e-01   5.5766700e-02
  -5.3428900e-01   5.8358400e-01   8.2442300e-02
  -4.5704000e-01   6.4500700e-01   1.0794800e-01
  -3.9758100e-01   6.7303200e-01   1.1824400e-01
  -3.2548100e-01   7.2371200e-01   1.2456200e-01
  -2.4144300e-01   7.6738600e-01   1.4421700e-01
  -1.6419400e-01   7.8583600e-01   1.6972300e-01
  -7.8282700e-02   8.3838400e-01   1.9101600e-01
   1.1841800e-02   8.5870200e-01   2.0435400e-01
   1.0524400e-01   8.7855400e-01   2.0295000e-01
   2.0590200e-01   8.8789600e-01   2.1231000e-01
   2.8362000e-01   8.8626100e-01   2.2564800e-01
   3.5220800e-01   8.9093200e-01   2.3805000e-01
   4.4303500e-01   9.0728000e-01   2.4857900e-01
   5.3901200e-01   9.2946700e-01   2.4928100e-01
   6.0689800e-01   9.3227000e-01   2.5466300e-01
   6.5605700e-01   9.3483900e-01   2.6940500e-01
   6.9678800e-01   9.0050700e-01   2.8578500e-01
   7.4360600e-01   8.6851100e-01   2.9350700e-01
   8.4075300e-01   8.4982800e-01   3.0099400e-01
   9.5218000e-01   8.0568700e-01   2.9467700e-01
   1.0345800e+00   7.8747100e-01   2.7385100e-01
   1.0973200e+00   7.7696100e-01   2.7104300e-01
