**************************************************************************************
  	RED ACELEROGRÁFICA DE LA UNIVERSIDAD AUTONOMA METROPOLITANA (RA-UAM)
	   UNIDAD AZCAPOTZALCO. DIVISIÓN CBI-DEPARTAMENTO DE MATERIALES
     Av. San Pablo 420, Col. Nueva el Rosario, Azcapotzalco, C.P. 02128, Ciudad de México
		Área de Estructuras. e-mail: agb@azc.uam.mx
**************************************************************************************
ARCHIVO ESTANDAR DE ACELERACION:
VERSION DEL FORMATO                    : 2.0
NOMBRE DEL ARCHIVO                     : RIDA202209.241
FECHA Y HORA DE CREACION               : 11:30 a. m. 30/09/2022
REF. CATALOGO ACELEROGRAMAS, SMIS 1999 : REGISTRO NO.      /PAG.    


================================================================================
DATOS DE LA ESTACION:
NOMBRE DE LA ESTACION                  : UAM-AZCAPOTZALCO.
CLAVE DE LA ESTACION                   : RIDA
LOCALIZACION DE LA ESTACION            : AV. SAN PABLO 420, COL. NUEVA EL ROSARIO,
                                       : AZCAPOTZALCO, C.P.02128, CIUDAD DE MEXICO. 
                                       :
                                       : 
                                       : 
COORDENADAS DE LA ESTACION             : 19.498596 LAT. N
                                       : 99.195595 LONG. W
ALTITUD (msnm)                         : 2546
TIPO DE SUELO                          : ZONA DE TRANSICION
                                       : 
                                       : 
INSTITUCION RESPONSABLE                : UNIVERSIDAD AUTONOMA METROPOLITANA
                                       : 

================================================================================
DATOS DEL ACELEROGRAFO: 
MODELO DEL ACELEROGRAFO                : ETNA2 KINEMETRICS
NUMERO DE SERIE DEL ACELEROGRAFO       : 103732
NUMERO DE CANALES                      : 3
ORIENTACION C1-C6 (rumbo;orientacion)  : /N90E/N00E/V
ORIENTACION C7-C12 (rumbo;orientacion) : 
VEL. DE MUESTREO, C1-C6 (muestras/s)   : /200/200/200
VEL. DE MUESTREO, C7-C12 (muestras/s)  : 
ESC. COMPLETA DE SENSORES, C1-C6, (g)  : /2/2/2
ESC. COMPLETA DE SENSORES, C7-C12 (g)  : 
FREC. NAT. DE SENSORES, C1-C6, (Hz)    : /198/212/200   
FREC. NAT. DE SENSORES, C7-C12 (Hz)    : 
AMORTIGUAMIENTO DE SENSORES, C1-C6     : /0.7/0.7/0.7      
AMORTIGUAMIENTO DE SENSORES, C7-C12    : 
INTERVALO DE MUESTREO, C1-C6 (s)       : /0.005/0.005/0.005
INTERVALO DE MUESTREO, C7-C12 (s)      : 
UMBRAL DE DISPARO, C1-C6 (Gal)         : /2/2/2
UMBRAL DE DISPARO, C7-C12 (Gal)        : 
MEMORIA DE PREEVENTO (s)               : 50
TIEMPO DE POSEVENTO (s)                : 60


================================================================================
DATOS DEL SISMO:
FECHA DEL SISMO [GMT]                  : 2022/09/24
HORA EPICENTRO (GMT)                   : 15:27:18
MAGNITUD(ES)                           : /M=4.9
COORDENADAS DEL EPICENTRO              : 16.8700 LAT. N
                                       : -99.3500 LONG. W
PROFUNDIDAD FOCAL (Km)                 : 27.0
FUENTE DE LOS DATOS EPICENTRALES       : SSN
                                       : INSTITUTO DE GEOFISICA, UNAM

================================================================================
DATOS DE ESTE REGISTRO:
HORA DE LA PRIMERA MUESTRA (GMT)       : 15:27:53.000
EXACTITUD DEL TIEMPO (s)               : 
DURACION DEL REGISTRO (s), C1-C6       : /115/115/115
DURACION DEL REGISTRO (s), C7-C12      : 
NUM. TOTAL DE MUESTRAS, C1-C6          : /23000/23000/23000
NUM. TOTAL DE MUESTRAS, C7-C12         : 
ACEL. MAX.(Gal), C1-C6                 : /1.261/1.920/0.929
ACEL. MAX., C1-C6, EN LA MUESTRA       : /10775/10196/407
ACEL. MAX.(Gal), C7-C12                : 
ACEL. MAX., C7-C12,EN LA MUESTRA       : 
UNIDADES DE LOS DATOS                  : Gal (cm/s/s)
FACTOR DE DECIMACION                   : 1
FORMATO DATOS (FORTRAN,16 campos/dato) : 3E16.7


================================================================================
CALIDAD DEL ACELEROGRAMA:
REGISTRO DIGITAL COMPLETO CON TIEMPO ABSOLUTO CORRECTO


================================================================================
COMENTARIOS:














================================================================================
DATOS DE ACELERACION:
---------+---------+---------+---------+---------+---------+---------+---------+
   CANAL-1   	     CANAL-2          CANAL-3
     N90E             N00E              V
---------+---------+---------+---------+---------+---------+---------+---------+ 
[...]
   4.8688500e-01   9.7117400e-02  -4.9871100e-01
   3.7896900e-01  -1.7122800e-01  -6.7222700e-02
   2.3387300e-02  -2.6137700e-01   4.4242100e-01
  -2.8307800e-03  -7.3372000e-02  -1.4771700e-01
   2.7316100e-01   7.1894400e-02  -2.9607100e-01
  -1.5705700e-02   1.7021800e-01   9.8212500e-02
  -3.3430200e-01   1.0832800e-01   3.8228400e-01
   1.5494600e-01   1.8178500e-02   1.7566500e-01
   4.6768900e-01  -2.4560600e-02  -5.2374900e-01
   2.8627000e-01  -1.2054900e-01  -1.7205300e-01
  -2.5330700e-01  -9.5325400e-02   5.2736100e-01
  -3.8697200e-01  -3.7405700e-02   4.0649500e-02
   2.5532900e-03  -3.5070300e-02  -3.2298000e-01
   4.5859900e-02   6.5588600e-02  -5.8330800e-02
  -3.6543600e-01  -1.1003900e-01   1.3307800e-01
  -1.7933400e-01  -1.0490100e-01   1.2442000e-01
   5.5691600e-02  -1.3806500e-01  -3.2929800e-01
   1.4023700e-02  -3.2607000e-01  -1.7860500e-01
  -2.1795900e-01  -2.6791700e-01   3.2916600e-01
  -2.9286800e-01  -2.2284200e-01  -1.6913600e-02
   6.5523400e-02  -2.7749200e-01  -3.0028300e-01
   9.2443700e-02  -1.1237400e-01  -4.8971000e-02
  -3.2400200e-01  -2.1233300e-01   7.7152800e-02
  -4.1646700e-01  -2.6044300e-01   3.0412900e-01
  -3.9348800e-02   9.2913600e-02  -8.6878300e-02
   2.3242900e-01   3.4526800e-02  -3.9083900e-01
   1.3621800e-01  -1.7473100e-01   1.7613300e-01
  -2.5190200e-01  -2.9641000e-01   2.3954600e-01
  -1.5475500e-01  -4.2299200e-01  -2.3933400e-02
   4.3050800e-02  -1.7787800e-02  -4.8737000e-02
  -3.1815000e-01   5.1703500e-01   1.2722800e-01
  -3.9961300e-01   3.9722600e-01   3.6309600e-01
   5.4053000e-02  -8.9953800e-02  -7.4242600e-02
   2.6730900e-01  -4.3607100e-01  -3.5761200e-01
   5.9905300e-02  -2.4386100e-01   4.2323300e-01
  -5.1455100e-01  -4.0208300e-02   3.8509200e-01
  -2.6337300e-01   1.3752100e-01  -2.9373100e-01
   4.2114400e-02   1.8469800e-01  -1.5122700e-01
  -3.2821500e-01  -1.9065600e-03   2.8306900e-01
  -3.8275800e-01  -1.3689700e-01   3.5982000e-01
   8.3548300e-02   4.8663100e-03  -1.6479900e-01
   2.9633600e-01   1.3507600e-02  -5.0853900e-01
   3.2555600e-03  -1.3116800e-02   2.7651700e-01
  -5.1501900e-01   1.0237900e-02   4.1200100e-01
  -4.7896900e-01  -1.8150400e-01  -2.7688300e-01
   5.1946200e-02   1.1639200e-02  -1.7673300e-01
  -6.3928200e-02   3.6452900e-01   8.9788600e-02
  -3.9657000e-01   1.5246800e-01   1.9274700e-01
  -3.9516500e-01  -2.2728000e-01  -3.8441200e-02
  -8.6869000e-02  -3.2817200e-01  -2.7969100e-01
  -1.6603300e-03  -6.8110500e-03   2.3767400e-01
  -2.9872000e-01   3.7387100e-01   2.3088800e-01
  -3.9867600e-01  -5.0717900e-02  -3.8428700e-01
  -1.1706700e-01  -2.8776800e-01  -1.4093100e-01
  -4.1716900e-01   3.7329400e-02   2.7394300e-01
  -6.3206400e-01   2.3841300e-01   2.5171400e-01
  -1.5264800e-01   1.6204400e-01  -1.4818500e-01
   2.3125900e-01  -2.7129700e-02  -4.8373500e-01
   3.4896500e-03  -1.1984800e-01   1.3378000e-01
  -5.9975900e-01  -4.4178600e-02   5.8141400e-01
  -4.9184400e-01   5.9749900e-02  -2.6190700e-01
   2.3992000e-01   3.0801100e-01  -4.9683900e-01
   5.7096200e-02   3.6172600e-01   2.1895400e-01
  -4.0242200e-01   1.4149100e-01   3.9023900e-01
  -1.6060700e-01  -3.0632900e-02  -1.6679600e-02
   1.8069600e-01  -8.7151300e-02  -5.2304700e-01
   1.0044200e-02   1.8913500e-01   6.1475100e-02
  -4.1576500e-01   5.8336300e-01   7.2976800e-01
  -2.9661300e-01   3.2015500e-01  -9.6472200e-02
   2.8112000e-01  -1.1377600e-01  -5.7195200e-01
   2.1908600e-01   5.8815700e-02  -2.5571400e-02
  -4.0663500e-01   2.1342400e-01   3.5701200e-01
  -4.1974400e-01   2.8372200e-01   1.6419900e-01
  -8.9912100e-02   2.3724600e-01  -3.3655200e-01
   1.9333600e-01   1.5083300e-01  -1.5520500e-01
  -5.8739400e-03   1.5597100e-01   3.1419100e-01
  -1.8308000e-01  -7.4773300e-02  -1.7813700e-01
   4.2348500e-02  -1.9364900e-01  -5.0198700e-01
  -2.5915900e-01   1.6157600e-01   1.0406200e-01
  -6.3463900e-01   5.1283100e-01   4.6137400e-01
  -1.0606400e-01   3.9652500e-01   1.0102000e-01
   5.5734600e-01  -6.7066200e-02  -6.8146200e-01
   4.4287600e-01  -3.0668600e-01  -3.6065400e-01
  -3.5349700e-01  -1.5301200e-01   6.4763500e-01
  -5.8079800e-01   1.7372100e-01   2.9055700e-01
   8.1441500e-02   3.8297900e-01  -4.0558100e-01
   2.9422900e-01   6.0625000e-01  -1.5263100e-01
  -1.6552300e-01   3.6663100e-01   4.0264100e-01
   2.3621400e-02  -9.9062200e-02   2.0561700e-01
   4.1478500e-01  -1.7449800e-01  -3.8779700e-01
   9.8998200e-02   6.4420800e-02  -6.1840800e-02
  -3.1697900e-01   6.0788500e-01   6.9326400e-01
  -3.7877900e-01   6.9336300e-01   2.8564300e-01
   1.5494600e-01   3.8017700e-01  -4.2898000e-01
   2.9516500e-01   2.0525000e-01  -5.6817500e-03
  -2.6430900e-01   2.5406100e-01   4.6628800e-01
  -3.1182900e-01   4.3179100e-01   2.9500300e-01
   1.1678900e-01   4.2898800e-01  -1.6737300e-01
   2.5560400e-01   4.3015600e-01  -1.0559800e-01
  -1.3743200e-01   4.8503900e-01   3.6660600e-01
  -4.2934200e-01   2.7040900e-01   4.3800800e-03
  -1.7043900e-01   5.9049300e-02  -1.2385000e-01
  -8.8039400e-02   4.0820200e-01   3.3712200e-01
  -8.8273500e-02   8.0009400e-01   2.3416400e-01
   1.4768900e-01   5.1376600e-01  -5.8330800e-02
   3.0546500e-01   1.0692600e-01  -2.5395100e-01
   2.2493800e-01   1.4908800e-02   9.6574500e-02
  -1.8518700e-01   1.8446400e-01   4.5529000e-01
  -3.1065900e-01   4.5771400e-01  -1.3508200e-01
   1.2310900e-01   5.8593200e-01  -1.4561100e-01
   1.6548000e-01   2.9843500e-01   2.8143100e-01
   1.1725700e-01   1.1837000e-01   3.2927600e-02
   3.9886700e-01   2.0291400e-01  -2.0177000e-01
   3.9910100e-01   2.0514000e-02  -2.7969100e-01
   7.1843800e-02   7.7966600e-02   2.0655300e-01
  -2.9591100e-01   2.6153500e-01   4.1714900e-01
  -1.9525200e-01   1.5550400e-01  -3.6182400e-01
   2.4647500e-01   2.8699100e-01  -2.3640200e-01
   3.0101800e-01   2.3374300e-01   1.6326300e-01
   6.4587000e-02  -1.8500800e-01  -5.3650900e-02
   1.0746400e-02  -2.4176000e-01  -8.2432400e-02
   8.3080100e-02  -5.5856000e-02  -5.7394900e-02
   4.2582600e-02   1.6998400e-01   3.4741800e-01
  -1.7110200e-02   1.9006900e-01   1.5928500e-01
   1.0906400e-01  -6.9635200e-02  -4.8701100e-01
   1.8163200e-01  -8.6217100e-02   4.6967300e-02
  -7.8909900e-02  -1.6152900e-02   3.8532600e-01
  -9.7403000e-02  -2.8407500e-03   4.8605300e-02
   2.6403100e-01   2.7643900e-03  -8.8282300e-02
   3.7873500e-01  -6.1461100e-02  -9.3664200e-02
   1.8818600e-01  -4.6981200e-02   3.3922800e-01
  -1.3041000e-01  -2.1957300e-01   1.4665000e-01
  -8.1250800e-02  -1.4110100e-01  -3.6673800e-01
   8.7761900e-02   2.3421000e-01   2.4890600e-01
  -5.7373700e-02   1.2070600e-01   4.2838100e-01
   1.4488000e-01  -1.8874400e-01  -4.0313100e-02
   5.8005200e-01  -2.6301200e-01  -2.0902400e-01
   4.8899200e-01  -3.4895800e-01  -6.2308800e-02
   3.2555600e-03  -3.7021000e-01   5.0442900e-01
  -1.2011000e-01  -2.5904200e-01   1.2325000e-01
   1.5541400e-01  -9.5325400e-02  -3.4801800e-01
   4.0869900e-01   2.1529200e-01   2.6996500e-01
   3.0101800e-01  -1.2288400e-01   1.8666300e-01
   2.0714800e-01  -8.1044700e-01  -1.7088300e-01
   3.9044000e-01  -6.0445800e-01  -9.4256800e-03
   3.6726500e-01  -1.6422200e-01   2.0795700e-01
   2.4998600e-01  -1.2171600e-01   4.0100300e-01
   2.3945200e-01  -2.6067700e-01  -2.0223800e-01
   2.7737500e-01  -3.7768400e-01  -3.7422500e-01
   1.2334400e-01  -1.9037900e-01   4.0895900e-01
  -8.9171100e-03  -4.7214700e-02   2.2597400e-01
   3.5977400e-01  -2.4386100e-01  -1.9779200e-01
   6.1727300e-01  -4.8768500e-01  -1.5075900e-01
   4.2812800e-01  -4.3140000e-01   5.7263200e-02
   1.2147100e-01  -2.8029500e-01   2.4984200e-01
   1.1916900e-02  -1.8570800e-01  -2.4880400e-01
   2.3477000e-01   2.2972900e-03  -2.5395100e-01
   2.2189500e-01   3.4526800e-02   2.2878200e-01
   7.2780200e-02  -2.3895700e-01  -9.5302200e-02
   3.1740400e-01  -5.0823700e-01  -2.8296700e-01
   5.3089400e-01  -3.7861800e-01  -2.0083400e-01
   3.0780600e-01  -1.4764000e-01   6.7325000e-02
  -7.8675800e-02  -1.7379700e-01   2.2059200e-01
  -9.2721200e-02  -2.5297000e-01  -2.6026900e-01
   1.7812100e-01  -2.8449900e-01  -9.0388300e-02
   2.5092200e-01  -1.1447600e-01   1.1342200e-01
   1.5073200e-01  -1.2311800e-01  -1.0630000e-01
   2.4085700e-01  -4.8114500e-01   1.3505900e-02
   2.6754300e-01  -6.0609300e-01   5.7029200e-02
   8.9868700e-02  -3.2186600e-01   2.7792100e-01
   1.5026400e-01  -4.7915400e-02   1.2582400e-01
   4.1806200e-01  -9.0888000e-02  -3.9879500e-01
   3.4666500e-01  -2.7048600e-01  -4.3823100e-02
  -2.6290400e-01  -5.4840700e-01   4.7237200e-01
  -2.5775400e-01  -3.8936100e-01   2.5662800e-01
   5.5547300e-01  -3.0632900e-02  -1.7930700e-01
   7.3689300e-01  -1.7753400e-01  -2.4108200e-01
   1.9965700e-01  -3.5176000e-01   2.9196100e-01
  -2.1819300e-01  -4.9469100e-01   2.8540900e-01
  -1.7114100e-01  -3.2630400e-01  -2.2095800e-01
   4.1646300e-02   1.3040500e-02   1.9134300e-01
   2.5728200e-02   5.3911200e-02   2.7885700e-01
   2.4179300e-01  -1.7800100e-01  -1.8983700e-01
   4.6792400e-01  -5.8717600e-01  -2.5161200e-01
   2.2540700e-01  -5.1244100e-01  -8.7814300e-02
  -2.0578700e-01  -2.3965800e-01   4.5529000e-01
  -2.2732300e-01   1.1639200e-02  -3.2591300e-02
   5.4755300e-02   1.6858300e-01  -5.4621200e-01
   8.7761900e-02  -8.2123300e-03   6.9431000e-02
   7.0009900e-03  -2.2097400e-01   9.5279900e-03
   1.8237300e-02  -5.0753600e-01  -3.0706900e-01
   1.7250200e-01  -4.7343800e-01  -3.4544400e-01
  -4.6839600e-02  -4.7448300e-02   7.4110900e-02
  -3.0550900e-01   1.8726700e-01   3.8649500e-01
  -9.6193800e-03   1.6391200e-01  -3.5527200e-01
   2.2330000e-01  -1.6422200e-01  -6.4425700e-01
   1.5213700e-01  -5.2622000e-01   5.7029200e-02
  -2.2076800e-01  -4.0244000e-01   1.6560300e-01
  -2.4651800e-01  -9.7894500e-02  -2.7477700e-01
   1.1234100e-01   1.3635300e-01  -3.6018600e-01
  -4.1689700e-02   1.7909300e-01   6.3815100e-02
  -7.5632700e-02  -1.9551700e-01   3.2074300e-01
   1.5705200e-01  -3.5339500e-01  -3.2929800e-01
   2.1487300e-01  -1.2592000e-01  -2.5418500e-01
   8.5655100e-02  -1.8570800e-01   4.8407200e-01
  -7.3291800e-02  -2.9080400e-01   2.0057800e-02
   2.1534100e-01   1.5966500e-03  -4.9964700e-01
   3.0780600e-01   3.5308500e-01  -3.2485200e-01
  -2.0180700e-01   4.2128100e-01   4.8126400e-01
  -2.1632100e-01  -2.2517800e-01   7.2930000e-01
   4.8173500e-01  -9.2745400e-01  -4.8981900e-01
   5.3112800e-01  -6.6377900e-01  -6.7233600e-01
  -3.1768100e-01   5.1399900e-01   1.7121900e-01
  -9.3146400e-01   1.4804200e+00   4.4920600e-01
  -4.5954000e-01   9.9674100e-01   3.8860100e-01
   7.6217400e-01  -4.6923400e-01  -3.8264900e-01
   8.4668100e-01  -1.5697100e+00  -5.5276400e-01
  -3.1300000e-01  -1.0145700e+00   1.4360800e-01
  -1.0108200e+00   9.2807800e-01   2.6294600e-01
  -7.4817200e-01   1.9204200e+00   3.4578000e-01
  -1.4047500e-01   8.6805700e-01   3.0646900e-01
   3.9395100e-01  -7.6233600e-01  -4.2944800e-01
   6.1142100e-01  -1.2373700e+00  -6.5151100e-01
   2.3406800e-01  -3.1672800e-01  -1.3812300e-01
  -3.5747700e-01   7.4544400e-01   2.7487900e-01
  -7.2944500e-01   6.5856500e-01   4.8851800e-01
  -4.2325600e-01   1.7477900e-02  -6.4648700e-02
   2.0110000e-02  -2.3171700e-01  -3.5784600e-01
  -6.2289600e-02  -1.3583900e-02   2.7545700e-02
   1.0695700e-01   5.0092100e-01  -1.4654700e-01
   4.2789400e-01   3.7293700e-01  -1.0559800e-01
   4.0050600e-01  -4.6199500e-01  -3.5757800e-03
  -1.7090700e-01  -8.3333500e-01   5.1647300e-02
  -6.3463900e-01  -3.4008300e-01   2.8985500e-01
  -2.1585200e-01   7.1578400e-01  -2.4599600e-01
   8.1441500e-02   9.8669900e-01  -2.5909900e-01
   7.0009900e-03  -4.0675400e-02   3.3712200e-01
   8.9400600e-02  -5.8203800e-01   1.3846000e-01
   4.4030100e-01  -2.7328800e-01  -3.6229200e-01
   3.4245100e-01   1.0435700e-01  -3.0660100e-01
  -3.2400200e-01   1.4662900e-01   3.0904300e-01
  -4.1014700e-01  -2.3405200e-01   4.7869000e-01
   3.0175900e-02  -1.9551700e-01  -1.6503300e-01
   2.3360000e-01   3.5682200e-01  -3.1759800e-01
   2.8303200e-02   4.6308600e-01   1.4126800e-01
  -1.9993400e-01   2.1412500e-01   5.6093200e-02
  -6.9780400e-02   1.2806900e-02  -1.1846800e-01
  -7.2121300e-02  -2.8963700e-01   6.9197000e-02
  -1.9314600e-01  -3.9800300e-01   3.1138300e-01
   2.1721400e-01  -1.5674800e-01   1.5437100e-01
   3.6773300e-01   2.6807400e-01  -4.9356300e-01
  -2.3458000e-01   5.6327800e-01  -2.5020800e-01
  -7.1797500e-01   2.1505900e-01   4.1129900e-01
  -5.3725700e-01  -7.3882100e-04   2.6458400e-01
   2.5068800e-01   2.9388800e-02  -1.3508200e-01
   6.4185200e-01  -1.6305400e-01  -4.0464500e-01
   1.4066600e-01  -1.7333000e-01  -2.7443400e-02
  -3.5162400e-01  -2.1677000e-01   2.5545800e-01
  -4.1904200e-01   1.9497400e-01  -2.0270600e-01
  -2.4651800e-01   6.7164400e-01  -1.2291400e-01
  -1.5920300e-01   3.1875400e-01   1.9391700e-01
  -4.2860100e-02  -4.9083100e-02  -3.7271200e-02
   2.2962000e-01  -2.8309700e-01  -3.0917500e-01
   1.3270700e-01  -2.0672700e-01  -1.1121400e-01
  -1.4164600e-01   1.5527100e-01   3.6169200e-01
  -4.8946400e-02   1.8960200e-01   1.0265800e-01
   1.1913000e-01   3.1034600e-01  -5.4714800e-01
  -2.0906400e-01   2.6246900e-01  -1.7954100e-01
  -7.0065200e-01  -1.3292700e-01   4.5154600e-01
  -5.0191000e-01  -1.1248400e-02   2.8728100e-01
   2.9422900e-01   3.1384900e-01  -1.4724900e-01
   6.5496100e-01   2.3888100e-01  -2.4459200e-01
   2.6028600e-01  -1.2195000e-01   5.9369100e-02
  -2.5986100e-01  -6.1076400e-01  -1.1285200e-01
  -6.4423600e-01  -3.0715300e-01  -2.1370400e-01
  -6.2785000e-01   4.9578200e-01   4.9577200e-01
  -3.6145600e-01   4.2875400e-01   4.9834600e-01
   7.6057400e-02   1.3121500e-01  -1.8890100e-01
   6.7228400e-01  -2.1490200e-01  -5.7944000e-01
   5.2153000e-01  -4.0944600e-01  -3.3889200e-01
  -2.2381100e-01  -2.7258800e-01   3.1653100e-01
  -7.1586800e-01  -3.3120800e-01   3.2940000e-01
  -5.5013200e-01   9.8051600e-02   2.0057800e-02
   2.0344100e-02   4.2618500e-01  -5.9266800e-02
   1.5892500e-01   3.5227400e-02  -1.4069700e-01
   2.1510700e-01   7.8667200e-02  -1.2502000e-01
   3.2700200e-01   1.8236200e-01  -1.4584500e-01
   1.3317500e-01  -1.0747000e-01   1.3401400e-01
   1.1257500e-01  -3.6904300e-01   2.8611100e-01
   1.6430900e-01  -3.8282200e-01  -3.6299400e-01
   5.1712100e-02   3.5752300e-01  -5.4551000e-01
  -3.0246600e-01   7.4357600e-01   2.0631900e-01
  -5.3491700e-01   3.6499600e-01   5.2291500e-01
   7.5121100e-02   9.9920000e-02  -1.3250800e-01
   7.1629300e-01  -5.0017300e-02  -6.0377500e-01
   5.7513700e-01   4.1066100e-02  -9.2494200e-02
   8.6396200e-03  -4.3945100e-02   3.1091500e-01
  -5.0612400e-01  -2.3078300e-01  -8.0794500e-02
  -6.7185900e-01   2.3070600e-01  -1.6643700e-01
  -6.3183000e-01   5.4295900e-01   2.1380600e-01
  -5.1361400e-01   4.4977400e-01   4.7518000e-01
   1.4441200e-01   4.1193900e-01   1.2582400e-01
   7.7013300e-01   2.6586200e-02  -6.1945300e-01
   2.9024900e-01  -4.5895800e-01  -8.8282300e-02
  -5.4193900e-01  -6.5607200e-01   6.6120700e-01
  -6.0631400e-01  -2.4339400e-01   1.5507300e-01
  -2.6290400e-01   6.9873500e-01  -2.6167300e-01
  -3.2236300e-01   8.3909700e-01   1.0429600e-01
  -1.8612300e-01   2.1856200e-01   5.4795300e-01
   4.6745500e-01  -2.4456200e-01  -1.2665800e-01
   8.2467600e-01  -3.3167500e-01  -6.1851700e-01
   3.1810600e-01  -1.8547500e-01   2.7136900e-01
  -3.7175600e-01  -1.4133400e-01   5.1308700e-01
  -2.9801800e-01   2.0898700e-01  -7.2604600e-02
