**************************************************************************************
  	RED ACELEROGRÁFICA DE LA UNIVERSIDAD AUTONOMA METROPOLITANA (RA-UAM)
	   UNIDAD AZCAPOTZALCO. DIVISIÓN CBI-DEPARTAMENTO DE MATERIALES
     Av. San Pablo 420, Col. Nueva el Rosario, Azcapotzalco, C.P. 02128, Ciudad de México
		Área de Estructuras. e-mail: agb@azc.uam.mx
**************************************************************************************
ARCHIVO ESTANDAR DE ACELERACION:
VERSION DEL FORMATO                    : 2.0
NOMBRE DEL ARCHIVO                     : RIDA202209.201
FECHA Y HORA DE CREACION               : 11:30 a. m. 27/09/2022
REF. CATALOGO ACELEROGRAMAS, SMIS 1999 : REGISTRO NO.      /PAG.    


================================================================================
DATOS DE LA ESTACION:
NOMBRE DE LA ESTACION                  : UAM-AZCAPOTZALCO.
CLAVE DE LA ESTACION                   : RIDA
LOCALIZACION DE LA ESTACION            : AV. SAN PABLO 420, COL. NUEVA EL ROSARIO,
                                       : AZCAPOTZALCO, C.P.02128, CIUDAD DE MEXICO. 
                                       :
                                       : 
                                       : 
COORDENADAS DE LA ESTACION             : 19.498596 LAT. N
                                       : 99.195595 LONG. W
ALTITUD (msnm)                         : 2546
TIPO DE SUELO                          : ZONA DE TRANSICION
                                       : 
                                       : 
INSTITUCION RESPONSABLE                : UNIVERSIDAD AUTONOMA METROPOLITANA
                                       : 

================================================================================
DATOS DEL ACELEROGRAFO: 
MODELO DEL ACELEROGRAFO                : ETNA2 KINEMETRICS
NUMERO DE SERIE DEL ACELEROGRAFO       : 103732
NUMERO DE CANALES                      : 3
ORIENTACION C1-C6 (rumbo;orientacion)  : /N90E/N00E/V
ORIENTACION C7-C12 (rumbo;orientacion) : 
VEL. DE MUESTREO, C1-C6 (muestras/s)   : /200/200/200
VEL. DE MUESTREO, C7-C12 (muestras/s)  : 
ESC. COMPLETA DE SENSORES, C1-C6, (g)  : /2/2/2
ESC. COMPLETA DE SENSORES, C7-C12 (g)  : 
FREC. NAT. DE SENSORES, C1-C6, (Hz)    : /198/212/200   
FREC. NAT. DE SENSORES, C7-C12 (Hz)    : 
AMORTIGUAMIENTO DE SENSORES, C1-C6     : /0.7/0.7/0.7      
AMORTIGUAMIENTO DE SENSORES, C7-C12    : 
INTERVALO DE MUESTREO, C1-C6 (s)       : /0.005/0.005/0.005
INTERVALO DE MUESTREO, C7-C12 (s)      : 
UMBRAL DE DISPARO, C1-C6 (Gal)         : /2/2/2
UMBRAL DE DISPARO, C7-C12 (Gal)        : 
MEMORIA DE PREEVENTO (s)               : 50
TIEMPO DE POSEVENTO (s)                : 60


================================================================================
DATOS DEL SISMO:
FECHA DEL SISMO [GMT]                  : 2022/09/20
HORA EPICENTRO (GMT)                   : 08:17:13
MAGNITUD(ES)                           : /M=5.8
COORDENADAS DEL EPICENTRO              : 18.2700 LAT. N
                                       : -103.7400 LONG. W
PROFUNDIDAD FOCAL (Km)                 : 13.0
FUENTE DE LOS DATOS EPICENTRALES       : SSN
                                       : INSTITUTO DE GEOFISICA, UNAM

================================================================================
DATOS DE ESTE REGISTRO:
HORA DE LA PRIMERA MUESTRA (GMT)       : 08:18:43.000
EXACTITUD DEL TIEMPO (s)               : 
DURACION DEL REGISTRO (s), C1-C6       : /138/138/138
DURACION DEL REGISTRO (s), C7-C12      : 
NUM. TOTAL DE MUESTRAS, C1-C6          : /27600/27600/27600
NUM. TOTAL DE MUESTRAS, C7-C12         : 
ACEL. MAX.(Gal), C1-C6                 : /-0.602/-0.661/0.176
ACEL. MAX., C1-C6, EN LA MUESTRA       : /10786/12286/12564
ACEL. MAX.(Gal), C7-C12                : 
ACEL. MAX., C7-C12,EN LA MUESTRA       : 
UNIDADES DE LOS DATOS                  : Gal (cm/s/s)
FACTOR DE DECIMACION                   : 1
FORMATO DATOS (FORTRAN,16 campos/dato) : 3E16.7


================================================================================
CALIDAD DEL ACELEROGRAMA:
REGISTRO DIGITAL COMPLETO CON TIEMPO ABSOLUTO CORRECTO


================================================================================
COMENTARIOS:














================================================================================
DATOS DE ACELERACION:
---------+---------+---------+---------+---------+---------+---------+---------+
   CANAL-1   	     CANAL-2          CANAL-3
     N90E             N00E              V
---------+---------+---------+---------+---------+---------+---------+---------+
[...]
   8.3264000e-03   7.5177700e-02   2.2418700e-04
   3.6446100e-03   6.5135100e-02  -2.1157700e-03
   4.3468800e-03   6.8638300e-02  -2.4380500e-04
   5.5173200e-03   5.6493900e-02   6.7760700e-03
   1.6519500e-02   5.1122300e-02   7.4780600e-03
   2.6117200e-02   5.1355900e-02   1.1601700e-03
   3.4778500e-02   5.6961000e-02   3.5001300e-03
   4.5780700e-02   4.1079800e-02   1.1222000e-02
   4.6248900e-02   6.4201000e-02   6.0740900e-03
   5.5378400e-02   6.2332600e-02   2.7981400e-03
   6.3805700e-02   4.8319700e-02  -2.3497700e-03
   7.1998800e-02   6.0931300e-02   1.8621600e-03
   8.7448700e-02   4.3181700e-02   2.7981400e-03
   9.6110000e-02   5.1589400e-02  -9.8091800e-06
   1.0524000e-01   3.7343000e-02   7.4780600e-03
   1.0617600e-01   6.4668000e-02   2.7981400e-03
   1.1483700e-01   5.6961000e-02   9.2617500e-04
   1.2443500e-01   3.9678500e-02  -2.1157700e-03
   1.2958500e-01   6.7704200e-02  -3.2857500e-03
   1.4456700e-01   3.7576600e-02   3.9681200e-03
   1.4948200e-01   4.2247500e-02   6.9217900e-04
   1.5673900e-01   4.4583000e-02  -8.4336600e-03
   1.6516600e-01   5.8128700e-02  -1.4751600e-02
   1.7172100e-01   6.9105400e-02  -9.6036400e-03
   1.8319100e-01   7.3776400e-02  -1.2879600e-02
   1.9021400e-01   8.5220200e-02  -2.0367500e-02
   1.9864100e-01   6.3033200e-02  -1.3815600e-02
   2.0402500e-01   7.9381500e-02  -1.2879600e-02
   2.0543000e-01   5.7895200e-02  -1.2879600e-02
   2.0660000e-01   5.3924900e-02  -1.9197500e-02
   2.0496200e-01   7.3776400e-02  -2.2473400e-02
   2.0660000e-01   6.4901600e-02  -2.2239400e-02
   2.0660000e-01   8.3585400e-02  -2.7855300e-02
   2.0777100e-01   6.9572500e-02  -3.0897300e-02
   2.1385700e-01   8.4753100e-02  -2.9727300e-02
   2.1292100e-01   8.5220200e-02  -2.9727300e-02
   2.1432500e-01   8.2884700e-02  -3.7683200e-02
   2.1081400e-01   1.1885100e-01  -4.2831100e-02
   2.0777100e-01   1.0530500e-01  -3.6747200e-02
   2.0379100e-01   1.1745000e-01  -3.3003200e-02
   1.9068200e-01   1.2772600e-01  -3.2769200e-02
   1.8272300e-01   1.1698300e-01  -3.4407200e-02
   1.7078500e-01   1.2422300e-01  -4.0257100e-02
   1.6025100e-01   1.0623900e-01  -3.6513200e-02
   1.4948200e-01   1.2515700e-01  -3.9789100e-02
   1.4105500e-01   1.3730100e-01  -4.0725100e-02
   1.2958500e-01   1.2469000e-01  -3.5109200e-02
   1.1811400e-01   1.4897900e-01  -2.9493300e-02
   1.0477100e-01   1.4524200e-01  -2.3643400e-02
   8.9321400e-02   1.5691900e-01  -2.1771400e-02
   8.0894200e-02   1.6626100e-01  -1.1709600e-02
   6.0996600e-02   1.7186600e-01  -7.9656700e-03
   4.7887600e-02   1.8471100e-01  -3.2857500e-03
   2.7287700e-02   1.8354400e-01  -4.2217400e-03
   4.3468800e-03   1.9241800e-01  -3.5197500e-03
  -1.1805300e-02   1.8844800e-01   1.1601700e-03
  -2.9362000e-02   1.9125100e-01  -9.8091800e-06
  -3.2873400e-02   1.9592200e-01  -1.4137800e-03
  -4.2237000e-02   1.9825700e-01  -4.9237200e-03
  -5.5346000e-02   1.9288500e-01  -4.9237200e-03
  -6.9157300e-02   1.9055000e-01  -7.4976800e-03
  -8.6011700e-02   1.8144200e-01   1.8621600e-03
  -1.0356800e-01   1.7396800e-01   1.1222000e-02
  -1.1691200e-01   1.6509300e-01   1.9645900e-02
  -1.3002100e-01   1.6252400e-01   2.4091800e-02
  -1.4313000e-01   1.7910600e-01   2.2453800e-02
  -1.5225900e-01   1.6836300e-01   2.5261800e-02
  -1.6209100e-01   1.7980700e-01   2.1049800e-02
  -1.7262500e-01   1.7887300e-01   1.6135900e-02
  -1.8503200e-01   1.7163300e-01   1.0520000e-02
  -1.9462900e-01   1.7186600e-01   7.0100700e-03
  -2.0399300e-01   1.6579400e-01   3.2661300e-03
  -2.1007900e-01   1.7093200e-01  -2.3497700e-03
  -2.1710200e-01   1.6205700e-01  -4.6897300e-03
  -2.2108100e-01   1.5318200e-01  -1.6477800e-03
  -2.2763600e-01   1.3776800e-01   1.3941700e-03
  -2.3746800e-01   1.3730100e-01   3.0321400e-03
  -2.3770200e-01   1.1558100e-01   7.0100700e-03
  -2.4355400e-01   1.1558100e-01   6.3080800e-03
  -2.4144700e-01   1.1651600e-01   4.6701100e-03
  -2.3536100e-01   9.0591800e-02   9.2617500e-04
  -2.3536100e-01   9.5029200e-02  -4.4557300e-03
  -2.2646600e-01   7.2141600e-02  -3.7537400e-03
  -2.2365600e-01   5.5559700e-02  -6.0937000e-03
  -2.1874100e-01   5.9296500e-02  -1.1241600e-02
  -2.1850600e-01   5.3691300e-02  -1.4985600e-02
  -2.1827200e-01   5.1122300e-02  -1.5687500e-02
  -2.1382500e-01   5.8128700e-02  -1.8495500e-02
  -2.1686800e-01   3.5241100e-02  -2.0367500e-02
  -2.1382500e-01   1.8192200e-02  -1.5921500e-02
  -2.1359100e-01   1.4221900e-02  -1.4985600e-02
  -2.1312200e-01  -8.6657700e-03  -9.8376400e-03
  -2.1242000e-01  -5.8632000e-03  -1.1475600e-02
  -2.1452700e-01  -1.7073500e-02  -1.3347600e-02
  -2.0961100e-01  -1.8941800e-02  -7.9656700e-03
  -2.0446100e-01  -2.5247600e-02  -7.0296900e-03
  -2.0071600e-01  -4.0661700e-02   1.6281600e-03
  -1.8877700e-01  -4.2763700e-02   1.2158000e-02
  -1.8596800e-01  -4.9069400e-02   1.8007900e-02
  -1.8198800e-01  -3.4823100e-02   2.1049800e-02
  -1.7379500e-01  -4.2997200e-02   2.4793800e-02
  -1.7028400e-01  -3.2721100e-02   2.8069700e-02
  -1.5904800e-01  -2.6181800e-02   3.0409700e-02
  -1.5413200e-01  -4.3931400e-02   3.0877700e-02
  -1.5225900e-01  -4.6266900e-02   2.4325800e-02
  -1.4898200e-01  -5.5842300e-02   2.0815800e-02
  -1.4757700e-01  -5.0470700e-02   1.9411900e-02
  -1.4242700e-01  -4.4164900e-02   1.4029900e-02
  -1.3470200e-01  -3.2487600e-02   1.0988000e-02
  -1.2791400e-01  -3.1086300e-02   1.2626000e-02
  -1.1644300e-01  -3.3188200e-02   1.6369900e-02
  -1.1035700e-01  -2.2445100e-02   1.4965900e-02
  -1.0122800e-01  -2.1277300e-02   1.3328000e-02
  -9.4439000e-02  -7.9651300e-03   1.7071900e-02
  -9.2800300e-02   2.0774000e-03   1.6603900e-02
  -9.0459400e-02   1.3287700e-02   1.0754000e-02
  -8.8586700e-02   2.0060500e-02   9.8180200e-03
  -7.6648100e-02   3.1971400e-02   7.4780600e-03
  -7.4775400e-02   3.4540500e-02  -2.5837600e-03
  -6.5645900e-02   3.8744300e-02  -1.3347600e-02
  -5.2302800e-02   5.2990700e-02  -1.8963500e-02
  -5.0898300e-02   5.2990700e-02  -1.8963500e-02
  -3.9427900e-02   5.7194500e-02  -1.8027500e-02
  -3.4512000e-02   5.9997100e-02  -1.6623500e-02
  -3.1468800e-02   7.0506700e-02  -1.0539600e-02
  -2.7021100e-02   7.8213800e-02  -5.3917200e-03
  -2.9362000e-02   8.8957000e-02   4.5818300e-04
  -3.1468800e-02   9.8532400e-02   6.7760700e-03
  -3.5916500e-02   1.2142000e-01   9.8180200e-03
  -4.2939200e-02   1.3613300e-01   1.2158000e-02
  -4.4577900e-02   1.4010400e-01   1.2626000e-02
  -4.4343800e-02   1.5762000e-01   1.2158000e-02
  -4.5280100e-02   1.7466900e-01   1.1690000e-02
  -4.2939200e-02   1.8984900e-01   1.5667900e-02
  -4.7386900e-02   1.9802300e-01   1.5901900e-02
  -5.0430100e-02   2.2721700e-01   1.6135900e-02
  -5.3239200e-02   2.3118700e-01   2.1049800e-02
  -5.6516400e-02   2.3936100e-01   2.2453800e-02
  -5.7452800e-02   2.6341700e-01   2.1283800e-02
  -5.8857300e-02   2.5010500e-01   2.2219800e-02
  -5.4175500e-02   2.6014700e-01   2.6431700e-02
  -5.4175500e-02   2.5897900e-01   2.9941700e-02
  -5.3941500e-02   2.5711100e-01   2.9473700e-02
  -4.9025600e-02   2.7182400e-01   2.8537700e-02
  -4.3173300e-02   2.8140000e-01   2.5495800e-02
  -3.5916500e-02   2.8980800e-01   2.1985800e-02
  -3.5682500e-02   2.9611300e-01   2.3623800e-02
  -3.5916500e-02   3.0919200e-01   2.3623800e-02
  -3.7087000e-02   3.0662300e-01   2.6665700e-02
  -3.9662000e-02   3.2086900e-01   2.6665700e-02
  -4.1300600e-02   3.1806700e-01   2.4325800e-02
  -4.2939200e-02   3.1292900e-01   2.5729700e-02
  -4.6684700e-02   3.1362900e-01   2.6197700e-02
  -5.5346000e-02   3.0312000e-01   2.9239700e-02
  -5.9793700e-02   3.1176100e-01   2.6899700e-02
  -6.5177800e-02   3.0779100e-01   2.2453800e-02
  -6.5177800e-02   3.0895800e-01   1.6135900e-02
  -6.2836900e-02   3.0685600e-01   1.3328000e-02
  -5.4175500e-02   2.8910700e-01   1.8007900e-02
  -4.3641500e-02   2.8256800e-01   1.9645900e-02
  -4.1300600e-02   2.7369300e-01   2.4793800e-02
  -2.9127900e-02   2.6131500e-01   2.9473700e-02
  -2.6318900e-02   2.5314100e-01   3.2047600e-02
  -2.5850700e-02   2.4169700e-01   3.8833500e-02
  -2.1168900e-02   2.3725900e-01   4.1173500e-02
  -2.4914300e-02   2.2114500e-01   4.4917400e-02
  -2.5850700e-02   1.9358600e-01   4.3279400e-02
  -2.2573400e-02   1.8471100e-01   4.2343500e-02
  -2.1168900e-02   1.6322500e-01   4.6555400e-02
  -1.7423500e-02   1.3379800e-01   4.5619400e-02
  -1.0869000e-02   1.3846900e-01   4.9597300e-02
  -6.4212500e-03   1.1418000e-01   4.8661400e-02
  -1.0371900e-03   9.4095000e-02   5.1001300e-02
  -1.7394600e-03   8.9190500e-02   5.7787200e-02
  -1.5053700e-03   6.0931300e-02   6.1999100e-02
  -4.5485300e-03   4.5750700e-02   6.8551000e-02
  -7.3576100e-03   2.7300500e-02   7.7676900e-02
  -4.7826200e-03   9.0838200e-03   8.2824800e-02
  -8.0309700e-04  -1.0067100e-02   8.3292800e-02
   1.4646800e-02  -3.8092700e-02   8.7270700e-02
   2.7053600e-02  -6.8453800e-02   8.9844600e-02
   3.4310400e-02  -9.1575000e-02   9.1248600e-02
   4.4844400e-02  -1.1329500e-01   8.7270700e-02
   4.9994400e-02  -1.4178800e-01   8.5866700e-02
   5.3973900e-02  -1.6841200e-01   8.7504700e-02
   6.0060200e-02  -1.8639500e-01   8.7036700e-02
   6.4273800e-02  -2.0391100e-01   8.1654800e-02
   6.9189700e-02  -2.3964400e-01   7.9548800e-02
   7.0828300e-02  -2.5739400e-01   8.0250800e-02
   6.9892000e-02  -2.7561000e-01   7.8378800e-02
   6.5210200e-02  -3.0597100e-01   7.3932900e-02
   5.4208000e-02  -3.1834900e-01   6.8551000e-02
   4.7419400e-02  -3.5011200e-01   6.9487000e-02
   3.7821700e-02  -3.6552600e-01   6.1063100e-02
   3.6885300e-02  -3.8210800e-01   5.3341300e-02
   4.3439800e-02  -4.0242600e-01   4.8193400e-02
   3.8289900e-02  -4.1363700e-01   4.9129300e-02
   3.9928500e-02  -4.4376400e-01   5.1001300e-02
   3.0330800e-02  -4.5240500e-01   4.6087400e-02
   2.3542200e-02  -4.6711900e-01   4.7491400e-02
   3.0096700e-02  -4.8346700e-01   5.1469300e-02
   2.0967200e-02  -5.0308500e-01   5.0065300e-02
   2.4010400e-02  -5.2900900e-01   4.5619400e-02
   2.0967200e-02  -5.4816000e-01   4.4215400e-02
   1.5349100e-02  -5.6030400e-01   3.7897500e-02
   2.3074000e-02  -5.8365900e-01   2.9239700e-02
   2.4946800e-02  -6.0421100e-01   2.1049800e-02
   2.7755800e-02  -5.8879700e-01   1.7071900e-02
   2.7521800e-02  -6.1658900e-01   2.2921800e-02
   2.5180900e-02  -6.2756600e-01   2.1751800e-02
   2.2605900e-02  -6.1822400e-01   2.0815800e-02
   1.6753600e-02  -6.4344700e-01   2.6431700e-02
   5.9855000e-03  -6.4041100e-01   2.9005700e-02
  -5.9530700e-03  -6.4695000e-01   2.8069700e-02
  -1.8828000e-02  -6.4531500e-01   2.5261800e-02
  -2.6084800e-02  -6.3340400e-01   2.7835700e-02
  -3.1234800e-02  -6.5022000e-01   2.4325800e-02
  -3.5682500e-02  -6.3690800e-01   1.8007900e-02
  -3.7087000e-02  -6.4461500e-01   1.6135900e-02
  -4.0130200e-02  -6.6119700e-01   1.7071900e-02
  -3.9427900e-02  -6.5605900e-01   2.1049800e-02
  -4.3407400e-02  -6.5932800e-01   2.0815800e-02
  -4.4343800e-02  -6.4881900e-01   2.0815800e-02
  -4.6684700e-02  -6.3060200e-01   2.3623800e-02
  -5.2068700e-02  -6.2546400e-01   2.2219800e-02
  -4.9025600e-02  -6.2686500e-01   1.9411900e-02
  -4.8323300e-02  -6.0257600e-01   2.1751800e-02
  -4.3641500e-02  -6.1051700e-01   2.0581800e-02
  -4.0598300e-02  -5.9253400e-01   1.5433900e-02
  -4.0598300e-02  -5.7992200e-01   8.6480400e-03
  -3.4043800e-02  -5.7501800e-01   3.7341300e-03
  -3.6852900e-02  -5.3554800e-01   5.6060900e-03
  -3.7555200e-02  -5.4512400e-01   7.7120600e-03
  -3.8491500e-02  -5.3134400e-01   5.6060900e-03
  -3.8491500e-02  -5.1102600e-01   6.5420800e-03
  -3.0298400e-02  -5.0892400e-01   1.7071900e-02
  -3.2171100e-02  -4.8370100e-01   1.4965900e-02
  -2.5850700e-02  -4.7015500e-01   1.7773900e-02
  -2.6787100e-02  -4.5357300e-01   3.0409700e-02
  -3.3107500e-02  -4.2858400e-01   3.2281600e-02
  -2.8893900e-02  -4.1877500e-01   3.0175700e-02
  -2.9362000e-02  -4.0312700e-01   2.1283800e-02
  -1.7657600e-02  -3.9145000e-01   2.1283800e-02
  -6.8894300e-03  -3.7603500e-01   2.0113800e-02
   2.9423400e-03  -3.6669400e-01   1.4497900e-02
   1.4646800e-02  -3.5548300e-01   1.3328000e-02
   2.2137700e-02  -3.3539800e-01   1.6603900e-02
   3.2905800e-02  -3.2722400e-01   2.4325800e-02
   3.5714900e-02  -3.1601400e-01   2.5261800e-02
   3.1033100e-02  -3.0854000e-01   3.0175700e-02
   2.5883100e-02  -2.8565300e-01   3.9301500e-02
   1.7924100e-02  -2.6323200e-01   4.2577500e-02
   1.1135500e-02  -2.4524900e-01   4.0705500e-02
   8.0923100e-03  -2.0694700e-01   4.0237500e-02
   7.3900400e-03  -1.8242500e-01   4.2811500e-02
   1.0433200e-02  -1.5416600e-01   4.5151400e-02
   1.4646800e-02  -1.2100200e-01   3.8599500e-02
   1.9094500e-02  -1.1142700e-01   3.0175700e-02
   2.5180900e-02  -8.3167300e-02   3.2983600e-02
   2.7755800e-02  -7.1256400e-02   3.3685600e-02
   2.5414900e-02  -5.9112000e-02   2.9941700e-02
   2.8692200e-02  -3.8092700e-02   3.2749600e-02
   2.9394500e-02  -4.1829500e-02   3.7195500e-02
   2.5649000e-02  -1.8241200e-02   3.5791600e-02
   2.5883100e-02  -6.0967500e-03   2.9473700e-02
   2.4712700e-02  -2.1264500e-03   2.7835700e-02
   2.5180900e-02   2.0060500e-02   2.9941700e-02
   2.7755800e-02   3.4774000e-02   2.8303700e-02
   3.1033100e-02   6.0697700e-02   2.0581800e-02
   2.9160400e-02   8.8022800e-02   1.5199900e-02
   2.3308100e-02   1.0133500e-01   1.6135900e-02
   2.0499100e-02   1.3216300e-01   1.3796000e-02
   1.0901400e-02   1.4033700e-01   1.3796000e-02
   5.2832300e-03   1.3356400e-01   1.6135900e-02
  -1.0082800e-04   1.4944600e-01   2.0347800e-02
  -1.6955300e-02   1.5038000e-01   2.1517800e-02
  -2.4212100e-02   1.5271500e-01   2.4091800e-02
  -3.2639300e-02   1.6766200e-01   2.1049800e-02
  -4.4812000e-02   1.8027400e-01   1.3796000e-02
  -5.1834600e-02   1.8517800e-01   1.5199900e-02
  -6.2602800e-02   1.9148400e-01   1.0988000e-02
  -6.7050500e-02   1.9428700e-01   8.8820400e-03
  -7.2434500e-02   1.9452000e-01   8.4140500e-03
  -7.8286800e-02   2.0409600e-01   5.3721000e-03
  -8.2032200e-02   2.0970100e-01   4.6701100e-03
  -9.1864000e-02   2.1110200e-01   5.1381000e-03
  -9.5375300e-02   2.0269400e-01   6.5420800e-03
  -1.0333400e-01   2.1156900e-01   8.1800500e-03
  -1.0965500e-01   2.0012500e-01   4.9041100e-03
  -1.0942100e-01   1.8658000e-01  -9.4579300e-04
  -1.1644300e-01   1.9311900e-01  -3.2857500e-03
  -1.2065700e-01   1.8634600e-01  -8.1996700e-03
  -1.2299800e-01   1.8821500e-01  -1.2411600e-02
  -1.2908400e-01   1.7747100e-01  -1.7793500e-02
  -1.3587300e-01   2.0573100e-01  -2.5047400e-02
  -1.3938400e-01   1.9498700e-01  -2.6685300e-02
  -1.4828000e-01   1.9475400e-01  -3.1365300e-02
  -1.5647300e-01   2.2861800e-01  -3.4407200e-02
  -1.6373000e-01   2.0759900e-01  -3.6513200e-02
  -1.7145400e-01   2.2254600e-01  -3.7215200e-02
  -1.7613600e-01   2.2301300e-01  -3.6045200e-02
  -1.7754100e-01   2.1507200e-01  -3.8619100e-02
  -1.6887900e-01   2.0713200e-01  -4.5405000e-02
  -1.5998400e-01   2.0106000e-01  -4.8681000e-02
  -1.4945000e-01   1.9895800e-01  -4.6575000e-02
  -1.4710900e-01   1.9265200e-01  -5.4062900e-02
  -1.4664100e-01   1.8658000e-01  -5.9678800e-02
  -1.4617300e-01   1.8331000e-01  -5.9678800e-02
  -1.4968400e-01   1.9942500e-01  -6.4592700e-02
  -1.4430000e-01   1.8377700e-01  -6.5996700e-02
  -1.4008600e-01   1.8868200e-01  -6.6698700e-02
  -1.3610700e-01   1.8517800e-01  -6.8102600e-02
  -1.3283000e-01   1.7560300e-01  -6.7400600e-02
  -1.3025500e-01   1.8424400e-01  -6.5996700e-02
