**************************************************************************************
  	RED ACELEROGRÁFICA DE LA UNIVERSIDAD AUTONOMA METROPOLITANA (RA-UAM)
	   UNIDAD AZCAPOTZALCO. DIVISIÓN CBI-DEPARTAMENTO DE MATERIALES
     Av. San Pablo 420, Col. Nueva el Rosario, Azcapotzalco, C.P. 02128, Ciudad de México
		Área de Estructuras. e-mail: agb@azc.uam.mx
**************************************************************************************
ARCHIVO ESTANDAR DE ACELERACION:
VERSION DEL FORMATO                    : 2.0
NOMBRE DEL ARCHIVO                     : RIDA202203.011
FECHA Y HORA DE CREACION               : 11:00 a. m. 04/03/2022
REF. CATALOGO ACELEROGRAMAS, SMIS 1999 : REGISTRO NO.      /PAG.    


================================================================================
DATOS DE LA ESTACION:
NOMBRE DE LA ESTACION                  : UAM-AZCAPOTZALCO.
CLAVE DE LA ESTACION                   : RIDA
LOCALIZACION DE LA ESTACION            : AV. SAN PABLO 420, COL. NUEVA EL ROSARIO,
                                       : AZCAPOTZALCO, C.P.02128, CIUDAD DE MEXICO. 
                                       :
                                       : 
                                       : 
COORDENADAS DE LA ESTACION             : 19.498596 LAT. N
                                       : 99.195595 LONG. W
ALTITUD (msnm)                         : 2546
TIPO DE SUELO                          : ZONA DE TRANSICION
                                       : 
                                       : 
INSTITUCION RESPONSABLE                : UNIVERSIDAD AUTONOMA METROPOLITANA
                                       : 

================================================================================
DATOS DEL ACELEROGRAFO: 
MODELO DEL ACELEROGRAFO                : ETNA2 KINEMETRICS
NUMERO DE SERIE DEL ACELEROGRAFO       : 103732
NUMERO DE CANALES                      : 3
ORIENTACION C1-C6 (rumbo;orientacion)  : /N90E/N00E/V
ORIENTACION C7-C12 (rumbo;orientacion) : 
VEL. DE MUESTREO, C1-C6 (muestras/s)   : /200/200/200
VEL. DE MUESTREO, C7-C12 (muestras/s)  : 
ESC. COMPLETA DE SENSORES, C1-C6, (g)  : /2/2/2
ESC. COMPLETA DE SENSORES, C7-C12 (g)  : 
FREC. NAT. DE SENSORES, C1-C6, (Hz)    : /198/212/200   
FREC. NAT. DE SENSORES, C7-C12 (Hz)    : 
AMORTIGUAMIENTO DE SENSORES, C1-C6     : /0.7/0.7/0.7      
AMORTIGUAMIENTO DE SENSORES, C7-C12    : 
INTERVALO DE MUESTREO, C1-C6 (s)       : /0.005/0.005/0.005
INTERVALO DE MUESTREO, C7-C12 (s)      : 
UMBRAL DE DISPARO, C1-C6 (Gal)         : /2/2/2
UMBRAL DE DISPARO, C7-C12 (Gal)        : 
MEMORIA DE PREEVENTO (s)               : 50
TIEMPO DE POSEVENTO (s)                : 60


================================================================================
DATOS DEL SISMO:
FECHA DEL SISMO [GMT]                  : 2022/03/01
HORA EPICENTRO (GMT)                   : 19:35:45
MAGNITUD(ES)                           : /M=5.2
COORDENADAS DEL EPICENTRO              : 15.9400 LAT. N
                                       : -96.6100 LONG. W
PROFUNDIDAD FOCAL (Km)                 : 41.0
FUENTE DE LOS DATOS EPICENTRALES       : SSN
                                       : INSTITUTO DE GEOFISICA, UNAM

================================================================================
DATOS DE ESTE REGISTRO:
HORA DE LA PRIMERA MUESTRA (GMT)       : 19:37:11.000
EXACTITUD DEL TIEMPO (s)               : 
DURACION DEL REGISTRO (s), C1-C6       : /137/137/137
DURACION DEL REGISTRO (s), C7-C12      : 
NUM. TOTAL DE MUESTRAS, C1-C6          : /27400/27400/27400
NUM. TOTAL DE MUESTRAS, C7-C12         : 
ACEL. MAX.(Gal), C1-C6                 : /-0.938/0.742/0.229
ACEL. MAX., C1-C6, EN LA MUESTRA       : /10818/14208/12454
ACEL. MAX.(Gal), C7-C12                : 
ACEL. MAX., C7-C12,EN LA MUESTRA       : 
UNIDADES DE LOS DATOS                  : Gal (cm/s/s)
FACTOR DE DECIMACION                   : 1
FORMATO DATOS (FORTRAN,16 campos/dato) : 3E16.7


================================================================================
CALIDAD DEL ACELEROGRAMA:
REGISTRO DIGITAL COMPLETO CON TIEMPO ABSOLUTO CORRECTO


================================================================================
COMENTARIOS:














================================================================================
DATOS DE ACELERACION:
---------+---------+---------+---------+---------+---------+---------+---------+
   CANAL-1   	     CANAL-2          CANAL-3
     N90E             N00E              V
---------+---------+---------+---------+---------+---------+---------+---------+ 
[...]
  -3.2677500e-01  -1.8226400e-01   8.9062600e-02
  -3.2911600e-01  -2.3924900e-01   1.0099600e-01
  -2.9306600e-01  -2.4322000e-01   1.0614400e-01
  -2.1792300e-01  -2.4018400e-01   9.8422500e-02
  -1.6455100e-01  -2.3948300e-01   7.9702800e-02
  -1.5331400e-01  -1.6685000e-01   6.0749100e-02
  -1.4910100e-01  -1.7082000e-01   5.4197200e-02
  -1.7508500e-01  -1.8319800e-01   4.5539400e-02
  -1.7789400e-01  -2.1682900e-01   2.7287700e-02
  -1.4652600e-01  -2.3387800e-01   3.6540900e-03
  -1.2147800e-01  -1.5820900e-01  -1.0619700e-02
  -1.2147800e-01  -1.3532100e-01  -1.2725600e-02
  -1.4535500e-01  -1.1243300e-01   2.4841100e-03
  -1.4184400e-01  -9.1180600e-02   2.8691700e-02
  -1.1679600e-01  -7.0628400e-02   3.8987500e-02
  -7.7703300e-02  -2.8589900e-02   4.8815300e-02
  -4.2589800e-02  -4.2135700e-02   7.0342900e-02
  -1.4265000e-02  -3.1158900e-02   8.0872800e-02
   1.9209800e-02  -2.2751200e-02   7.6660800e-02
   3.7468800e-02  -2.9991200e-02   6.2621100e-02
   3.1616600e-02  -2.6721500e-02   4.5305400e-02
   3.4425700e-02  -2.7655700e-02   2.4479700e-02
   6.6964100e-02  -9.6726000e-03   1.4885900e-02
   9.2714000e-02   1.9520800e-02   1.4651900e-02
   1.0301400e-01   5.9223800e-02   1.3949900e-02
   8.5457200e-02   8.6081700e-02   2.3309700e-02
   8.7564000e-02   1.0172900e-01   3.0095600e-02
   1.3485000e-01   6.6697300e-02   3.4307600e-02
   1.8143400e-01   4.2875500e-02   2.4011700e-02
   2.5025600e-01   3.2599400e-02   5.9940500e-03
   3.0105400e-01   6.2086000e-03  -1.8341500e-02
   2.9028600e-01   3.3300100e-02  -3.5657200e-02
   2.2029300e-01   8.0476600e-02  -2.4425400e-02
   1.7066600e-01   1.1550900e-01  -1.6235600e-02
   1.7277300e-01   1.5124100e-01  -1.1789600e-02
   1.9173400e-01   1.6198500e-01  -9.9176800e-03
   2.4159500e-01   1.2601800e-01  -2.7935400e-02
   2.3597700e-01   1.4026500e-01  -4.8293000e-02
   2.0788600e-01   1.3209100e-01  -3.7763200e-02
   1.8307300e-01   1.3232400e-01  -2.4893400e-02
   1.7675200e-01   1.5170900e-01  -2.2319500e-02
   1.9711800e-01   1.3349200e-01  -1.9277500e-02
   1.9103200e-01   1.4400100e-01  -2.6765400e-02
   2.1210000e-01   9.0752700e-02  -2.6765400e-02
   2.1139700e-01   5.8523200e-02  -1.8341500e-02
   2.0039500e-01   2.4191700e-02  -8.7477000e-03
   1.8915900e-01  -2.0649300e-02  -9.4496900e-03
   1.6013200e-01  -4.0033700e-02  -1.2959600e-02
   1.4866100e-01  -6.5957500e-02  -5.2377600e-03
   1.4210700e-01  -6.5957500e-02   1.4414700e-04
   1.5545000e-01  -6.1987200e-02   6.2280400e-03
   1.5498200e-01  -5.6615600e-02   1.7459800e-02
   1.2665700e-01  -8.1138000e-02   1.7927800e-02
   9.5523100e-02  -1.0776200e-01  -8.9849300e-05
   7.5157300e-02  -1.2130800e-01  -4.3017800e-03
   5.1046000e-02  -1.2878200e-01   6.6960300e-03
   3.1148400e-02  -1.3765600e-01   1.2545900e-02
   3.8171100e-02  -1.5330400e-01   1.2311900e-02
   3.8639300e-02  -1.8296500e-01   4.5900700e-03
   3.1850700e-02  -1.8413200e-01  -2.8978000e-03
   1.3357600e-02  -1.8833600e-01  -5.9397500e-03
  -2.5735400e-02  -2.0468500e-01  -1.9618200e-03
  -6.2019300e-02  -1.9277400e-01   6.4620400e-03
  -8.4257800e-02  -2.2920700e-01   8.5680000e-03
  -8.6364600e-02  -2.4415400e-01   3.4200900e-03
  -8.0278300e-02  -2.3504600e-01  -7.8117200e-03
  -7.9341900e-02  -2.4438800e-01  -1.9745500e-02
  -8.0512400e-02  -2.4905800e-01  -2.0447500e-02
  -8.8003200e-02  -2.6283800e-01  -1.6469600e-02
  -9.2685000e-02  -2.5956800e-01  -2.0213500e-02
  -1.0321900e-01  -2.6657500e-01  -2.1617500e-02
  -1.1258300e-01  -2.8058700e-01  -1.2023600e-02
  -1.2452100e-01  -3.2356000e-01   2.7181000e-03
  -1.5635700e-01  -3.6443100e-01  -1.0258300e-03
  -1.6946600e-01  -3.8521600e-01  -1.5533600e-02
  -1.6946600e-01  -3.9128900e-01  -2.1851500e-02
  -1.8983200e-01  -3.7073700e-01  -2.5595400e-02
  -2.1956200e-01  -3.5952600e-01  -2.3255400e-02
  -2.3103200e-01  -3.4901700e-01  -1.0619700e-02
  -2.3079800e-01  -3.5672400e-01   8.8020000e-03
  -2.2096600e-01  -3.5555600e-01   1.6523900e-02
  -2.0387800e-01  -3.7026900e-01   3.6540900e-03
  -2.0575000e-01  -3.6816800e-01  -9.4496900e-03
  -2.1768900e-01  -3.5835900e-01  -7.5777200e-03
  -2.1230500e-01  -3.7540700e-01  -3.5997900e-03
  -1.8702300e-01  -3.5929300e-01  -6.1737400e-03
  -1.6642300e-01  -3.4411200e-01  -1.3193600e-02
  -1.5869800e-01  -3.1328400e-01  -1.5299600e-02
  -1.4020500e-01  -3.0744500e-01  -1.0853700e-02
  -1.2030800e-01  -2.9319900e-01  -1.7278200e-03
  -8.9875900e-02  -2.7731800e-01   1.2077900e-02
  -4.1653500e-02  -2.6727500e-01   1.5353900e-02
  -2.0585400e-02  -2.2477000e-01   7.1640300e-03
   9.3780800e-03  -2.2850600e-01  -5.4717600e-03
   3.5830200e-02  -2.0982300e-01  -1.9979500e-02
   3.3489300e-02  -1.9954600e-01  -1.8107500e-02
   3.7937000e-02  -1.7759300e-01  -1.7873500e-02
   4.2852900e-02  -1.5890900e-01  -3.4253300e-02
   5.3386900e-02  -1.5307100e-01  -5.1101000e-02
   7.0241400e-02  -1.1313400e-01  -5.7652900e-02
   8.7095800e-02  -9.7719900e-02  -4.5017100e-02
   8.9904900e-02  -6.6891700e-02  -3.9401200e-02
   1.1495300e-01  -4.7974300e-02  -4.6187100e-02
   1.4842700e-01  -4.9142100e-02  -5.2037000e-02
   1.6458000e-01  -5.5214300e-02  -2.8871400e-02
   2.1116300e-01  -6.4556200e-02   8.1000100e-03
   2.6874900e-01  -7.8335500e-02   8.1000100e-03
   2.7226100e-01  -5.7316200e-02  -2.0681500e-02
   2.1373800e-01  -3.4195100e-02  -6.4672700e-02
   1.7207000e-01   1.5550500e-02  -1.0258000e-01
   2.2380400e-01   7.4637900e-02  -9.6496200e-02
   3.4178500e-01   9.4782700e-03  -6.3034800e-02
   3.6823800e-01  -5.1010500e-02  -4.1273100e-02
   3.0082000e-01  -3.4895700e-02  -3.0977300e-02
   2.5634300e-01   4.3109100e-02  -4.5485100e-02
   2.8302900e-01   1.5497800e-01  -3.4487300e-02
   3.7760100e-01   2.0869400e-01   7.8660100e-03
   4.0920300e-01   1.4797200e-01   1.2077900e-02
   3.7713300e-01   6.0625100e-02   2.3075800e-02
   3.9609400e-01   8.9351400e-02   5.8409100e-02
   4.3073900e-01   1.3022200e-01   6.1451100e-02
   4.3963500e-01   1.3302500e-01   3.1733600e-02
   4.4501900e-01   1.6595500e-01   2.6351700e-02
   4.4431700e-01   1.7669800e-01   4.3199400e-02
   4.3799600e-01   1.5941600e-01   5.2325200e-02
   4.4572100e-01   1.3979800e-01   5.8877100e-02
   4.7404600e-01   1.3395900e-01   5.9579100e-02
   4.7521700e-01   1.7739900e-01   5.6537200e-02
   4.6561900e-01   1.9771700e-01   4.1561400e-02
   4.5625500e-01   2.2200600e-01   2.0267800e-02
   4.3706000e-01   2.4956500e-01   1.1376000e-02
   4.4338000e-01   2.4816300e-01   8.1000100e-03
   4.5157300e-01   2.4909800e-01   2.7181000e-03
   4.6444800e-01   2.2457500e-01  -1.1087700e-02
   4.5461700e-01   2.3578500e-01  -2.2553500e-02
   4.3635800e-01   2.2691100e-01  -1.8809500e-02
   4.2816400e-01   2.0705900e-01  -6.1737400e-03
   3.8368700e-01   2.3695300e-01  -7.1097300e-03
   3.3780600e-01   2.6241000e-01  -2.6297400e-02
   3.3663500e-01   2.7689000e-01  -3.1679300e-02
   3.3710400e-01   2.6638000e-01  -4.2677100e-02
   3.4436000e-01   2.3648600e-01  -5.2270900e-02
   3.7479200e-01   2.1803600e-01  -4.9463000e-02
   3.4436000e-01   2.0682600e-01  -5.8120800e-02
   2.7460200e-01   2.3041400e-01  -5.4142900e-02
   2.2520900e-01   2.7805800e-01  -5.0399000e-02
   2.0975900e-01   3.1939500e-01  -5.7652900e-02
   2.3902000e-01   3.2780300e-01  -3.6593200e-02
   2.8326300e-01   2.7595600e-01  -1.1789600e-02
   3.1135400e-01   2.4676200e-01  -4.0677800e-03
   3.1814200e-01   2.4022300e-01  -5.5784100e-04
   3.1041700e-01   2.4279200e-01  -9.4496900e-03
   3.0152200e-01   2.6521200e-01  -1.5533600e-02
   3.0362900e-01   2.7105100e-01  -1.2257600e-02
   3.0245800e-01   2.5236700e-01   2.9521000e-03
   2.9496700e-01   2.5236700e-01   1.1142000e-02
   3.1697200e-01   2.5330200e-01  -3.2384500e-04
   3.5583100e-01   2.1289800e-01  -2.1149500e-02
   3.5840600e-01   1.9655000e-01  -3.1445300e-02
   3.4997900e-01   2.0822700e-01  -2.3957400e-02
   3.3757200e-01   2.0495700e-01  -2.1383500e-02
   3.0831100e-01   2.1102900e-01  -2.4425400e-02
   3.1509900e-01   2.1546700e-01  -3.4721300e-02
   3.6144900e-01   1.8020100e-01  -4.7357000e-02
   3.8509200e-01   1.7973400e-01  -4.8293000e-02
   4.0756500e-01   1.6268500e-01  -4.4549100e-02
   4.2371700e-01   1.3839600e-01  -5.3206900e-02
   4.1224600e-01   1.5778100e-01  -6.0694800e-02
   3.8626200e-01   1.6548800e-01  -5.5780900e-02
   3.4763800e-01   1.7716500e-01  -5.1101000e-02
   3.4482900e-01   1.8487200e-01  -5.1101000e-02
   3.3897600e-01   1.5871500e-01  -4.6421000e-02
   3.2867600e-01   1.0780200e-01  -4.7123000e-02
   3.1275800e-01   9.6591400e-02  -5.3908900e-02
   2.7343100e-01   1.2765300e-01  -4.6187100e-02
   2.4534000e-01   1.5287600e-01  -2.5361400e-02
   2.1725000e-01   1.4750500e-01  -2.6638000e-03
   2.0343800e-01   1.4913900e-01   5.7600500e-03
   2.0273600e-01   9.8459700e-02   6.1213900e-04
   2.0718400e-01   5.0582600e-02  -5.7057500e-03
   2.1092900e-01   5.4085800e-02  -1.2598300e-03
   1.9945900e-01   4.4276800e-02   6.2280400e-03
   1.6715500e-01   4.1707800e-02   7.3980200e-03
   1.4444800e-01   4.8714200e-02   6.1213900e-04
   1.3742500e-01   3.9138800e-02  -4.3017800e-03
   1.1612300e-01   3.6395900e-03  -5.7057500e-03
   9.9502600e-02  -1.7379700e-02   2.4841100e-03
   7.3284600e-02  -4.8675000e-02   1.3949900e-02
   2.6934800e-02  -5.1711100e-02   1.8395800e-02
  -2.1521800e-02  -3.4895700e-02   3.2435600e-02
  -7.2319200e-02  -1.5511300e-02   3.9689500e-02
  -1.0907100e-01  -3.3668300e-03   4.6709300e-02
  -1.5027100e-01  -4.3069900e-02   6.7301000e-02
  -1.8234100e-01  -9.8420500e-02   8.7190600e-02
  -1.8655500e-01  -1.3298600e-01   9.5146500e-02
  -2.0949600e-01  -1.1710400e-01   9.8890400e-02
  -2.4320500e-01  -1.0262400e-01   1.0333600e-01
  -2.7223200e-01  -8.6276100e-02   1.1339800e-01
  -3.1858200e-01  -7.9036100e-02   1.2041800e-01
  -3.7242200e-01  -9.6085100e-02   1.1597200e-01
  -4.1128100e-01  -1.0542700e-01   1.1246200e-01
  -4.4054200e-01  -1.0776200e-01   1.0520800e-01
  -4.8057200e-01  -9.3983100e-02   1.0333600e-01
  -5.2598500e-01  -1.2901500e-01   1.0263400e-01
  -5.6273700e-01  -1.0869700e-01   7.8766800e-02
  -5.7795300e-01  -7.3197400e-02   4.8815300e-02
  -5.9785100e-01  -8.2539300e-02   2.7755700e-02
  -6.3975300e-01  -7.0394900e-02   1.8161800e-02
  -6.7439800e-01  -7.7868400e-02   2.0033800e-02
  -7.1349100e-01  -6.8526500e-02   1.8863800e-02
  -7.4673200e-01  -6.7125200e-02   5.2920600e-03
  -7.5960600e-01  -4.0500800e-02  -2.4425400e-02
  -7.6475600e-01  -2.2984800e-02  -5.0867000e-02
  -7.6803400e-01  -3.6764100e-02  -6.0226800e-02
  -7.7880200e-01  -5.1477500e-02  -4.0103200e-02
  -7.6803400e-01  -4.0734400e-02  -2.7467400e-02
  -7.5024300e-01  -5.8717500e-02  -4.5485100e-02
  -8.0104000e-01  -8.3707100e-02  -7.6372500e-02
  -8.9397400e-01  -4.6106000e-02  -1.1123800e-01
  -9.3798300e-01  -1.7379700e-02  -1.1474800e-01
  -8.6869200e-01   2.8629100e-02  -1.0211200e-01
  -7.5281800e-01  -1.2475200e-02  -1.0258000e-01
  -7.2589800e-01  -3.6063400e-02  -1.1170600e-01
  -7.6288400e-01  -3.0224800e-02  -1.0609000e-01
  -8.0806300e-01  -3.1859600e-02  -8.8540300e-02
  -8.0431800e-01   4.4276800e-02  -6.7012700e-02
  -7.7646100e-01   4.5911600e-02  -6.9586600e-02
  -8.0197700e-01   2.3024000e-02  -1.0304800e-01
  -7.8629300e-01   1.1346600e-02  -9.2752300e-02
  -7.0506400e-01   6.9967000e-02  -5.9290800e-02
  -7.0670200e-01   1.2228200e-01  -4.6187100e-02
  -7.9472000e-01   6.7865100e-02  -4.4315100e-02
  -8.1414900e-01   6.5763100e-02  -3.8699200e-02
  -7.4134700e-01   7.7907600e-02  -2.0447500e-02
  -6.4981800e-01   7.3937300e-02  -1.4831600e-02
  -6.2360000e-01   7.5338600e-02  -1.2725600e-02
  -6.3132500e-01   6.7865100e-02   2.0033800e-02
  -5.8521000e-01   7.9776000e-02   4.7411300e-02
  -5.2715500e-01   1.2204800e-01   3.1499600e-02
  -4.9204200e-01   1.3606100e-01   1.5587900e-02
  -4.7237800e-01   1.3863000e-01   2.0267800e-02
  -4.5341700e-01   1.6151700e-01   2.7053700e-02
  -3.9629900e-01   1.6455400e-01   2.8691700e-02
  -3.2841300e-01   1.7506300e-01   1.6055900e-02
  -3.3215900e-01   1.7412900e-01  -1.6937600e-02
  -3.3145600e-01   1.5964900e-01  -5.3206900e-02
  -2.8417000e-01   1.4960700e-01  -6.4906700e-02
  -2.4226800e-01   1.4937300e-01  -5.6248900e-02
  -2.3009600e-01   1.6735600e-01  -6.1162800e-02
  -2.3173400e-01   1.6198500e-01  -8.6200400e-02
  -1.9615300e-01   1.7062600e-01  -1.0164400e-01
  -1.3575800e-01   1.6805700e-01  -9.9538100e-02
  -6.3189700e-02   1.2391600e-01  -8.8072300e-02
  -1.9883100e-02   8.1877900e-02  -8.9008300e-02
   1.4489600e-05   5.7589000e-02  -1.1638600e-01
   6.3349100e-03   5.6654800e-02  -1.3697700e-01
  -1.2626400e-02   1.0640000e-01  -1.3814700e-01
  -7.7104700e-03   1.3068900e-01  -1.0889800e-01
   1.7103000e-02   9.4022300e-02  -6.0460800e-02
   6.7900500e-02   1.2812000e-01  -2.6765400e-02
   1.2689100e-01   1.0943600e-01  -1.2491600e-02
   1.4351100e-01   9.5190100e-02  -1.2023600e-02
   1.4491600e-01   1.1037100e-01  -7.8117200e-03
   1.7722000e-01   9.3788800e-02   1.1843900e-02
   2.2099500e-01   1.3255800e-01   4.3667400e-02
   2.2989100e-01   1.5217600e-01   5.8175100e-02
   2.2450600e-01   1.7062600e-01   5.6771200e-02
   2.1725000e-01   1.6992500e-01   5.7239200e-02
   2.1701600e-01   1.6945800e-01   6.8471000e-02
   2.3972200e-01   1.6105000e-01   9.1168600e-02
   2.9028600e-01   1.4797200e-01   1.1878000e-01
   3.3242200e-01   1.5661300e-01   1.2790600e-01
   3.3195400e-01   1.7156000e-01   1.1573800e-01
   3.3733800e-01   1.9071100e-01   1.1901400e-01
   3.5161700e-01   1.9631600e-01   1.2065200e-01
   3.7385600e-01   1.9024400e-01   1.3188400e-01
   3.9281700e-01   1.5964900e-01   1.3679800e-01
   4.0896900e-01   1.6899100e-01   1.0848400e-01
   4.2161000e-01   1.6338600e-01   9.0934600e-02
   4.0475600e-01   1.7179400e-01   9.8188500e-02
   4.0007400e-01   1.8020100e-01   1.1878000e-01
   4.1341700e-01   1.6618800e-01   1.2626800e-01
   4.4408300e-01   1.6572100e-01   1.0871800e-01
   4.6749200e-01   1.1223900e-01   8.3212700e-02
   4.6983200e-01   1.2998900e-01   6.6131000e-02
   4.7264200e-01   1.3559400e-01   6.5663000e-02
   4.6749200e-01   1.3512700e-01   6.8237000e-02
   4.7334400e-01   1.6572100e-01   6.2855100e-02
   4.9066600e-01   1.3886300e-01   4.8581300e-02
   5.0775500e-01   1.3255800e-01   2.4947700e-02
   5.1735300e-01   1.2158100e-01   1.1376000e-02
   5.2484400e-01   9.9160400e-02   1.6757900e-02
   5.2063000e-01   7.0667600e-02   2.9393600e-02
   5.0494600e-01   6.6463800e-02   3.1265600e-02
   5.1454400e-01   5.1283200e-02   2.6585700e-02
   5.2601400e-01   5.2918000e-02   2.3777700e-02
   5.4427300e-01   4.7312900e-02   1.6991900e-02
   5.6206400e-01   1.0879500e-02   2.9159600e-02
   5.5457300e-01   3.5635500e-02   4.6475300e-02
   5.5153000e-01   4.4510300e-02   3.4775500e-02
   5.5972300e-01   1.6484700e-02   1.8395800e-02
   5.5948900e-01   2.3958200e-02   5.9940500e-03
   5.7564100e-01   4.8073200e-03   4.5900700e-03
   6.0794500e-01  -2.0649300e-02   3.4307600e-02
   5.9600700e-01   1.9520800e-02   6.3323100e-02
   6.0232700e-01   1.7712100e-03   6.7769000e-02
   6.1239300e-01   8.3105300e-03   6.5663000e-02
   5.9811400e-01   2.4425300e-02   6.2855100e-02
   6.1098900e-01   8.0769800e-03   6.3557100e-02
   6.1215900e-01   3.0964600e-02   7.5958800e-02
   6.1028600e-01   4.2174900e-02   8.7658600e-02
   6.1145700e-01   3.1898800e-02   8.5786700e-02
   5.9717700e-01   3.0030400e-02   7.1278900e-02
   5.7493900e-01   1.3915700e-02   4.8113300e-02
