**************************************************************************************
  	RED ACELEROGRÁFICA DE LA UNIVERSIDAD AUTONOMA METROPOLITANA (RA-UAM)
	   UNIDAD AZCAPOTZALCO. DIVISIÓN CBI-DEPARTAMENTO DE MATERIALES
     Av. San Pablo 420, Col. Nueva el Rosario, Azcapotzalco, C.P. 02128, Ciudad de México
		Área de Estructuras. e-mail: agb@azc.uam.mx
**************************************************************************************
ARCHIVO ESTANDAR DE ACELERACION:
VERSION DEL FORMATO                    : 2.0
NOMBRE DEL ARCHIVO                     : RIDA202203.031
FECHA Y HORA DE CREACION               : 11:00 a. m. 10/03/2022
REF. CATALOGO ACELEROGRAMAS, SMIS 1999 : REGISTRO NO.      /PAG.    


================================================================================
DATOS DE LA ESTACION:
NOMBRE DE LA ESTACION                  : UAM-AZCAPOTZALCO.
CLAVE DE LA ESTACION                   : RIDA
LOCALIZACION DE LA ESTACION            : AV. SAN PABLO 420, COL. NUEVA EL ROSARIO,
                                       : AZCAPOTZALCO, C.P.02128, CIUDAD DE MEXICO. 
                                       :
                                       : 
                                       : 
COORDENADAS DE LA ESTACION             : 19.498596 LAT. N
                                       : 99.195595 LONG. W
ALTITUD (msnm)                         : 2546
TIPO DE SUELO                          : ZONA DE TRANSICION
                                       : 
                                       : 
INSTITUCION RESPONSABLE                : UNIVERSIDAD AUTONOMA METROPOLITANA
                                       : 

================================================================================
DATOS DEL ACELEROGRAFO: 
MODELO DEL ACELEROGRAFO                : ETNA2 KINEMETRICS
NUMERO DE SERIE DEL ACELEROGRAFO       : 103732
NUMERO DE CANALES                      : 3
ORIENTACION C1-C6 (rumbo;orientacion)  : /N90E/N00E/V
ORIENTACION C7-C12 (rumbo;orientacion) : 
VEL. DE MUESTREO, C1-C6 (muestras/s)   : /200/200/200
VEL. DE MUESTREO, C7-C12 (muestras/s)  : 
ESC. COMPLETA DE SENSORES, C1-C6, (g)  : /2/2/2
ESC. COMPLETA DE SENSORES, C7-C12 (g)  : 
FREC. NAT. DE SENSORES, C1-C6, (Hz)    : /198/212/200   
FREC. NAT. DE SENSORES, C7-C12 (Hz)    : 
AMORTIGUAMIENTO DE SENSORES, C1-C6     : /0.7/0.7/0.7      
AMORTIGUAMIENTO DE SENSORES, C7-C12    : 
INTERVALO DE MUESTREO, C1-C6 (s)       : /0.005/0.005/0.005
INTERVALO DE MUESTREO, C7-C12 (s)      : 
UMBRAL DE DISPARO, C1-C6 (Gal)         : /2/2/2
UMBRAL DE DISPARO, C7-C12 (Gal)        : 
MEMORIA DE PREEVENTO (s)               : 50
TIEMPO DE POSEVENTO (s)                : 60


================================================================================
DATOS DEL SISMO:
FECHA DEL SISMO [GMT]                  : 2022/03/03
HORA EPICENTRO (GMT)                   : 14:40:33
MAGNITUD(ES)                           : /M=5.7
COORDENADAS DEL EPICENTRO              : 18.1500 LAT. N
                                       : -95.5100 LONG. W
PROFUNDIDAD FOCAL (Km)                 : 113.0
FUENTE DE LOS DATOS EPICENTRALES       : SSN
                                       : INSTITUTO DE GEOFISICA, UNAM

================================================================================
DATOS DE ESTE REGISTRO:
HORA DE LA PRIMERA MUESTRA (GMT)       : 14:40:52.000
EXACTITUD DEL TIEMPO (s)               : 
DURACION DEL REGISTRO (s), C1-C6       : /217/217/217
DURACION DEL REGISTRO (s), C7-C12      : 
NUM. TOTAL DE MUESTRAS, C1-C6          : /43400/43400/43400
NUM. TOTAL DE MUESTRAS, C7-C12         : 
ACEL. MAX.(Gal), C1-C6                 : /1.032/1.209/-0.455
ACEL. MAX., C1-C6, EN LA MUESTRA       : /23472/21044/10193
ACEL. MAX.(Gal), C7-C12                : 
ACEL. MAX., C7-C12,EN LA MUESTRA       : 
UNIDADES DE LOS DATOS                  : Gal (cm/s/s)
FACTOR DE DECIMACION                   : 1
FORMATO DATOS (FORTRAN,16 campos/dato) : 3E16.7


================================================================================
CALIDAD DEL ACELEROGRAMA:
REGISTRO DIGITAL COMPLETO CON TIEMPO ABSOLUTO CORRECTO


================================================================================
COMENTARIOS:














================================================================================
DATOS DE ACELERACION:
---------+---------+---------+---------+---------+---------+---------+---------+
   CANAL-1   	     CANAL-2          CANAL-3
     N90E             N00E              V
---------+---------+---------+---------+---------+---------+---------+---------+ 
[...]
   2.5201200e-01   2.6501400e-01  -1.4762100e-01
   2.4054200e-01   2.8439900e-01  -1.4879100e-01
   2.1643100e-01   3.1849700e-01  -1.4598300e-01
   2.1736700e-01   3.4021700e-01  -1.3568700e-01
   2.1104700e-01   3.8809400e-01  -1.3428300e-01
   1.7921100e-01   4.4181000e-01  -1.5323700e-01
   1.4128800e-01   4.5395400e-01  -1.5932100e-01
   9.1661100e-02   4.7077000e-01  -1.3732500e-01
   6.4974800e-02   4.8548300e-01  -1.0737400e-01
   6.1931700e-02   4.7894400e-01  -8.2804000e-02
   4.2502200e-02   5.0907100e-01  -7.0402200e-02
   1.0666000e-02   5.4246900e-01  -5.6830500e-02
  -4.2706400e-02   5.6161900e-01  -4.6768600e-02
  -9.6547000e-02   5.6138600e-01  -4.1152700e-02
  -1.1433800e-01   5.4573800e-01  -2.4071000e-02
  -1.0614500e-01   5.1210700e-01  -2.0345200e-04
  -1.1761500e-01   4.8851900e-01   1.4772300e-02
  -1.5015400e-01   5.3289300e-01   2.3664100e-02
  -1.7988300e-01   5.5040900e-01   3.3960000e-02
  -2.0048300e-01   5.5321200e-01   5.3615600e-02
  -1.9814200e-01   5.6068500e-01   7.0931300e-02
  -1.8175600e-01   5.3896500e-01   8.0993100e-02
  -1.8479900e-01   5.3592900e-01   9.4798900e-02
  -2.2061500e-01   5.5905000e-01   1.1000900e-01
  -2.5572800e-01   5.9852000e-01   1.3247200e-01
  -2.4893900e-01   6.1463500e-01   1.4393800e-01
  -2.2108300e-01   5.9081300e-01   1.3504600e-01
  -1.9135300e-01   5.6605700e-01   1.2989800e-01
  -1.9182200e-01   5.5648100e-01   1.3925800e-01
  -2.4215100e-01   5.3849800e-01   1.5049000e-01
  -2.8007300e-01   5.2261700e-01   1.7061400e-01
  -2.8054200e-01   5.3359400e-01   2.1203100e-01
  -2.4870500e-01   5.0556800e-01   2.4596000e-01
  -2.4191700e-01   4.6866800e-01   2.4151400e-01
  -2.8288200e-01   4.2943200e-01   2.2981500e-01
  -3.2103900e-01   3.8178800e-01   2.2022100e-01
  -3.2853000e-01   3.7548200e-01   2.0477700e-01
  -2.9950300e-01   3.6987700e-01   2.0150100e-01
  -2.5666400e-01   3.6941000e-01   1.9775700e-01
  -2.6953900e-01   3.0728600e-01   1.8207900e-01
  -3.2970000e-01   2.6641600e-01   1.6289200e-01
  -3.1284600e-01   2.7108700e-01   1.5868000e-01
  -2.6556000e-01   2.1667000e-01   1.5727600e-01
  -2.7047600e-01   1.8163800e-01   1.2779200e-01
  -2.6649600e-01   1.5361200e-01   8.8949000e-02
  -2.5081200e-01   1.5197800e-01   6.3911400e-02
  -2.4402400e-01   1.4170200e-01   3.9575900e-02
  -2.2834000e-01   1.0596900e-01   1.4070300e-02
  -2.1125100e-01   8.4716000e-02   3.7744800e-03
  -2.2248700e-01   1.5819600e-02  -6.0533500e-03
  -2.4191700e-01   6.0106300e-03  -2.1263100e-02
  -2.1569900e-01   5.2019400e-02  -1.7987100e-02
  -1.5717600e-01   6.1594900e-02  -1.6115200e-02
  -1.1972200e-01   6.3229700e-02  -2.8517000e-02
  -1.2463800e-01   4.0108500e-02  -4.3024700e-02
  -1.2791500e-01   2.2826000e-02  -4.8640600e-02
  -1.2978800e-01   6.0106300e-03  -3.6472800e-02
  -1.2229700e-01   7.1783600e-03  -3.9280800e-02
  -6.1901800e-02   1.7454400e-02  -5.9170400e-02
  -4.7838800e-03   1.5352500e-02  -7.6018100e-02
   7.8569700e-03   3.1233700e-02  -8.7717900e-02
  -2.0467900e-02   1.9322800e-02  -1.0339600e-01
  -5.0899500e-02   1.2082900e-02  -1.1111800e-01
  -2.1872400e-02   1.3396800e-03  -1.0807600e-01
   5.3036300e-02  -8.9363900e-03  -1.1790300e-01
   1.0757900e-01  -3.1590500e-02  -1.4411100e-01
   1.2068800e-01  -3.9998200e-02  -1.7757200e-01
   1.1062200e-01  -1.2906700e-02  -1.9769600e-01
   1.0757900e-01   1.8067800e-03  -2.1711800e-01
   1.3356300e-01   3.0299500e-02  -2.4402700e-01
   1.7195400e-01   1.4184800e-02  -2.6157700e-01
   2.0238500e-01   6.3904200e-04  -2.7374500e-01
   2.4077600e-01  -1.6877000e-02  -2.7491500e-01
   2.6301500e-01  -7.6224100e-04  -2.7421300e-01
   2.7659200e-01   3.4970500e-02  -2.8216900e-01
   3.0070300e-01   3.2167900e-02  -2.8404100e-01
   3.0959900e-01   4.4312400e-02  -2.7000100e-01
   3.2411200e-01   2.0490600e-02  -2.4706900e-01
   3.3183700e-01   3.3569200e-02  -2.2764800e-01
   3.2481400e-01   5.5055500e-02  -2.1033200e-01
   3.1989800e-01   7.7943200e-02  -1.9676000e-01
   3.2832600e-01   1.0573500e-01  -1.8552800e-01
   3.4377600e-01   1.2371800e-01  -1.7265800e-01
   3.6601400e-01   1.3983300e-01  -1.5230100e-01
   3.7069600e-01   1.4030000e-01  -1.3428300e-01
   3.5313900e-01   1.8233900e-01  -1.4130300e-01
   3.4330700e-01   2.2437700e-01  -1.4434500e-01
   3.2879400e-01   2.5614000e-01  -1.2188100e-01
   3.2738900e-01   2.5030100e-01  -9.9885700e-02
   3.4869200e-01   2.0873000e-01  -9.1695900e-02
   3.6343900e-01   2.2297600e-01  -8.8419900e-02
   3.6250300e-01   2.4212700e-01  -8.9589900e-02
   3.3394400e-01   2.5590600e-01  -9.7779800e-02
   2.8127400e-01   2.9677700e-01  -9.3333800e-02
   2.7120800e-01   2.9117200e-01  -8.5846000e-02
   2.9719200e-01   2.9350700e-01  -8.9823900e-02
   3.0913000e-01   2.8556700e-01  -9.2865900e-02
   3.0538500e-01   2.8042900e-01  -9.3333800e-02
   2.9321200e-01   3.1662800e-01  -9.0525900e-02
   2.6278100e-01   3.5773300e-01  -8.5846000e-02
   2.3984000e-01   3.8459100e-01  -7.7656100e-02
   2.5669400e-01   3.4955900e-01  -7.9762100e-02
   2.5973700e-01   3.4301900e-01  -7.3912200e-02
   2.4241500e-01   3.2246700e-01  -5.1682600e-02
   2.1853800e-01   2.9817800e-01  -4.2790700e-02
   1.8319000e-01   3.0775400e-01  -2.8517000e-02
   1.5697200e-01   3.2013200e-01  -1.4009200e-02
   1.4035200e-01   3.2106600e-01  -6.7553400e-03
   1.1390000e-01   3.1242500e-01   7.7524100e-03
   8.5340600e-02   3.2433500e-01   2.6238100e-02
   6.4038500e-02   2.9490800e-01   3.8405900e-02
   3.5947700e-02   3.0331600e-01   3.7937900e-02
   2.2136400e-02   2.8229700e-01   2.3898100e-02
   2.1434200e-02   2.5567300e-01   2.5302100e-02
  -4.5497900e-03   2.4259400e-01   4.1681800e-02
  -3.9663200e-02   1.7346400e-01   4.4957800e-02
  -5.9794900e-02   1.6435600e-01   5.5721600e-02
  -6.6583500e-02   1.7323000e-01   5.6423600e-02
  -6.3072200e-02   1.6318800e-01   5.9699500e-02
  -8.6481200e-02   1.3936600e-01   7.0931300e-02
  -1.1387000e-01   1.1040600e-01   9.6202900e-02
  -1.3962000e-01   8.6818000e-02   1.3340800e-01
  -1.7801000e-01   7.8176700e-02   1.3317400e-01
  -1.8667200e-01   7.3272200e-02   1.2545200e-01
  -1.8620300e-01   9.4758600e-02   1.2007000e-01
  -1.9346000e-01   1.0153100e-01   1.2404800e-01
  -2.0165300e-01   5.4354900e-02   1.2755800e-01
  -2.0305800e-01   2.2358900e-02   1.2545200e-01
  -2.0188700e-01  -3.9297500e-02   1.2521800e-01
  -2.1031500e-01  -7.8533500e-02   1.0860500e-01
  -2.2834000e-01  -9.6750100e-02   1.0930700e-01
  -2.4496000e-01  -1.4135800e-01   1.2100600e-01
  -2.3606400e-01  -1.9740900e-01   1.3294000e-01
  -2.2108300e-01  -2.5252600e-01   1.2709000e-01
  -2.1523000e-01  -3.0414000e-01   1.0837100e-01
  -2.2997800e-01  -3.4664600e-01   1.2334600e-01
  -2.7445500e-01  -3.7794100e-01   1.4276800e-01
  -3.1144100e-01  -4.5734700e-01   1.5095800e-01
  -2.8943700e-01  -5.0452400e-01   1.7389000e-01
  -2.4542800e-01  -5.4656200e-01   1.9822500e-01
  -2.5502600e-01  -5.9630800e-01   1.9565100e-01
  -2.7234800e-01  -6.1569200e-01   1.8605700e-01
  -2.7703000e-01  -6.0588300e-01   1.8231300e-01
  -2.9177800e-01  -6.0611700e-01   1.6687000e-01
  -3.1940000e-01  -7.0794300e-01   1.3153600e-01
  -3.3250900e-01  -7.9435600e-01   1.0369100e-01
  -3.1284600e-01  -8.1724300e-01   1.0486100e-01
  -2.9786400e-01  -8.1724300e-01   1.0228700e-01
  -2.9903500e-01  -8.2168100e-01   8.7545000e-02
  -3.3953200e-01  -8.6535400e-01   3.9809900e-02
  -3.8213600e-01  -9.2817800e-01  -6.0533500e-03
  -3.7885900e-01  -9.5013200e-01  -7.4573300e-03
  -3.3531800e-01  -9.8096000e-01  -5.5853600e-03
  -3.0676000e-01  -1.0318700e+00   1.9025100e-03
  -3.5334300e-01  -1.0659700e+00   3.0543500e-05
  -4.2216600e-01  -1.0940000e+00  -1.4243200e-02
  -4.5727900e-01  -1.0652700e+00  -1.5413200e-02
  -4.3785000e-01  -1.0578000e+00  -2.0327100e-02
  -4.0320400e-01  -1.0736800e+00  -1.2137200e-02
  -3.9501100e-01  -1.0909600e+00  -6.7144400e-04
  -3.8237100e-01  -1.1196900e+00   3.5404800e-03
  -3.8447700e-01  -1.1077800e+00   6.5824300e-03
  -4.0788600e-01  -1.0610700e+00  -8.8613000e-03
  -3.9337300e-01  -1.0426200e+00  -2.4305000e-02
  -3.5685500e-01  -1.0374800e+00  -3.4600900e-02
  -3.3789300e-01  -1.0211300e+00  -3.5068900e-02
  -3.3648900e-01  -1.0442500e+00  -4.7704600e-02
  -3.4889600e-01  -1.0561600e+00  -6.5488300e-02
  -3.3812800e-01  -1.0206600e+00  -6.7594300e-02
  -3.0137500e-01  -9.9614000e-01  -6.1276400e-02
  -2.7211400e-01  -9.8142700e-01  -5.3788500e-02
  -2.7656200e-01  -9.3798700e-01  -6.5722300e-02
  -3.0886600e-01  -8.9688300e-01  -6.1978400e-02
  -3.4538400e-01  -8.3989700e-01  -5.8702400e-02
  -3.5779100e-01  -8.2168100e-01  -7.1104200e-02
  -3.5147100e-01  -8.0953600e-01  -7.5784100e-02
  -3.4702300e-01  -7.7123400e-01  -8.3038000e-02
  -3.4117100e-01  -7.3083100e-01  -8.7483900e-02
  -3.4983200e-01  -6.5282600e-01  -8.6314000e-02
  -3.4725700e-01  -6.1872800e-01  -8.0230100e-02
  -3.2876400e-01  -5.7225200e-01  -7.6954100e-02
  -3.0324800e-01  -5.1036200e-01  -8.1400100e-02
  -2.6649600e-01  -4.7112600e-01  -7.4848200e-02
  -2.5830300e-01  -3.9288800e-01  -6.2914400e-02
  -2.7468900e-01  -3.1745200e-01  -5.1916600e-02
  -2.9107600e-01  -2.5673000e-01  -5.0746600e-02
  -2.9224600e-01  -1.9087000e-01  -5.9638400e-02
  -2.6345300e-01  -1.3972300e-01  -4.5130700e-02
  -2.3489400e-01  -7.1994100e-02  -1.6583200e-02
  -2.2716900e-01   9.5138400e-03   8.4544000e-03
  -2.3583000e-01   8.2614100e-02   1.5006300e-02
  -2.4753500e-01   1.5664900e-01   2.0154200e-02
  -2.5291900e-01   2.3395300e-01   2.9280000e-02
  -2.4964200e-01   2.8860300e-01   2.2962100e-02
  -2.2576500e-01   3.4909100e-01   2.9748000e-02
  -1.9603500e-01   4.3830600e-01   3.5597900e-02
  -1.7122200e-01   4.8641700e-01   2.3898100e-02
  -1.6419900e-01   5.5905000e-01   1.1730300e-02
  -1.8035100e-01   6.4990000e-01  -5.1173700e-03
  -1.9158700e-01   7.1576100e-01  -2.1263100e-02
  -1.8011700e-01   7.7461400e-01  -2.2667100e-02
  -1.6747600e-01   7.9306500e-01  -3.2260900e-02
  -1.5764400e-01   8.2085700e-01  -4.6534700e-02
  -1.5202600e-01   8.5775700e-01  -5.6596500e-02
  -1.6326300e-01   8.8835200e-01  -6.8296300e-02
  -1.6747600e-01   9.4346900e-01  -6.5020300e-02
  -1.6256000e-01   9.8550800e-01  -5.8234500e-02
  -1.5062200e-01   1.0142300e+00  -6.0808400e-02
  -1.3517200e-01   1.0649100e+00  -6.5956300e-02
  -1.2253100e-01   1.1067200e+00  -7.4146200e-02
  -1.0427200e-01   1.1319400e+00  -7.9996100e-02
  -7.9926700e-02   1.1543600e+00  -7.4614200e-02
  -4.9495000e-02   1.1735100e+00  -6.8998300e-02
  -1.4849700e-02   1.1760800e+00  -6.9466300e-02
   2.2388100e-03   1.1756100e+00  -7.1104200e-02
   6.4524300e-03   1.1875300e+00  -6.1744400e-02
   1.4879700e-02   1.1922000e+00  -5.0278600e-02
   1.7688700e-02   1.1847200e+00  -4.1854700e-02
   2.4243200e-02   1.1872900e+00  -2.6879000e-02
   6.0527100e-02   1.2094800e+00  -2.3837000e-02
   9.0022400e-02   1.2041100e+00  -2.0327100e-02
   8.8617900e-02   1.1971000e+00  -1.9391100e-02
   1.0875000e-01   1.1828500e+00  -2.6879000e-02
   1.2654000e-01   1.1641700e+00  -2.2901100e-02
   1.1062200e-01   1.1655700e+00  -2.3369100e-02
   1.0406800e-01   1.1155900e+00  -3.2260900e-02
   1.1764500e-01   1.0772900e+00  -3.5302800e-02
   1.5041800e-01   1.0782300e+00  -3.5302800e-02
   1.9981000e-01   1.0336200e+00  -4.2790700e-02
   2.4428800e-01   1.0072300e+00  -4.6534700e-02
   2.6980300e-01   9.8107000e-01  -3.1792900e-02
   2.7729400e-01   9.4066600e-01  -1.1903300e-02
   2.8970100e-01   9.2595300e-01   1.4345200e-03
   3.2926200e-01   8.5822400e-01   1.0560400e-02
   3.7186600e-01   8.1641900e-01   1.2666300e-02
   3.9433900e-01   7.6784200e-01   1.3134300e-02
   3.8708200e-01   6.9661000e-01   1.9452200e-02
   3.5571400e-01   6.2701300e-01   1.5240300e-02
   3.3464600e-01   5.5601400e-01  -1.1394400e-03
   3.5688500e-01   5.2845600e-01  -1.0265300e-02
   4.1681200e-01   4.9132200e-01  -4.4153800e-03
   4.3975200e-01   4.2873100e-01   2.6453900e-04
   4.1657800e-01   3.1125700e-01  -5.3513600e-03
   3.8403900e-01   2.4983400e-01  -9.7972900e-03
   3.7654800e-01   2.1877200e-01  -1.6115200e-02
   3.7467500e-01   1.6365500e-01  -2.0327100e-02
   3.4471200e-01   9.7094000e-02  -2.6645000e-02
   3.4705300e-01   3.6751600e-03  -3.2728900e-02
   3.6320500e-01  -5.8681900e-02  -2.5943000e-02
   3.3956200e-01  -1.2314100e-01  -2.5475000e-02
   3.0163900e-01  -1.7825800e-01  -3.2494900e-02
   3.0491700e-01  -2.3010600e-01  -2.2901100e-02
   3.1919600e-01  -2.9456500e-01  -4.1813800e-03
   3.1849400e-01  -3.5879000e-01   8.2204000e-03
   3.2504800e-01  -4.2768600e-01   1.3134300e-02
   3.2411200e-01  -4.7976800e-01   1.0092400e-02
   3.3815700e-01  -5.0055300e-01   1.2005200e-03
   3.5805500e-01  -5.2624300e-01  -2.0754200e-03
   3.3371000e-01  -5.5823900e-01   2.6045000e-03
   2.9859600e-01  -5.9373900e-01   1.7814200e-02
   3.0515100e-01  -6.1499100e-01   3.8405900e-02
   3.2153700e-01  -6.2853700e-01   5.1509700e-02
   3.2153700e-01  -6.4161600e-01   6.1337500e-02
   3.1404600e-01  -6.2269800e-01   6.6953400e-02
   3.1638700e-01  -6.5049100e-01   7.3739300e-02
   3.3230500e-01  -6.6683900e-01   7.1633300e-02
   3.4564800e-01  -6.9930200e-01   7.1867300e-02
   3.3839200e-01  -7.3386700e-01   7.7015200e-02
   3.2996400e-01  -7.3643600e-01   6.8825400e-02
   3.4564800e-01  -7.3877100e-01   6.5081400e-02
   3.7093000e-01  -6.9323000e-01   6.4847400e-02
   4.0346900e-01  -6.8528900e-01   5.9699500e-02
   4.0393700e-01  -6.7314500e-01   3.6299900e-02
   3.7584600e-01  -6.6450300e-01   1.9686200e-02
   3.6835500e-01  -6.6123400e-01   1.5474300e-02
   3.7959100e-01  -6.4745400e-01   7.0504200e-03
   4.0089400e-01  -6.3531000e-01   5.1784500e-03
   4.1704600e-01  -6.2316500e-01  -9.3292900e-03
   4.0183000e-01  -6.1802700e-01  -1.7519200e-02
   3.7888900e-01  -5.7855800e-01  -1.9391100e-02
   3.8778400e-01  -5.2974700e-01  -2.6879000e-02
   4.2640900e-01  -4.9494800e-01  -2.8049000e-02
   4.6831100e-01  -4.7392900e-01  -3.5068900e-02
   4.7837700e-01  -4.6902400e-01  -3.9280800e-02
   4.5777700e-01  -4.5734700e-01  -4.1854700e-02
   4.3273000e-01  -3.7583900e-01  -3.5536800e-02
   4.4045500e-01  -3.2375800e-01  -2.1731100e-02
   4.6526800e-01  -2.9152800e-01  -1.6349200e-02
   4.6199100e-01  -2.6210200e-01  -5.3513600e-03
   4.3741200e-01  -2.8055200e-01   1.3368300e-02
   4.1751400e-01  -2.2706900e-01   3.5597900e-02
   4.1376800e-01  -1.7148500e-01   5.4317600e-02
   4.0183000e-01  -1.1403300e-01   5.0573700e-02
   3.7818700e-01  -2.9255000e-02   2.8578100e-02
   3.2458000e-01  -7.3015600e-03   2.2728200e-02
   2.4943800e-01   1.7921500e-02   3.0918000e-02
   1.9840600e-01   2.4694400e-02   1.8282200e-02
   1.7546500e-01   3.2167900e-02  -3.0114000e-03
   1.6235600e-01   6.2295500e-02  -3.0388900e-02
   1.3637200e-01   7.7242500e-02  -5.3554500e-02
   1.1624000e-01   1.1647800e-01  -5.3320500e-02
   9.0022400e-02   1.1624500e-01  -5.4022500e-02
   4.9524900e-02   9.9663000e-02  -5.4958500e-02
   5.7501600e-03   1.1414300e-01  -5.2150600e-02
  -3.2406500e-02   1.3703100e-01  -5.0980600e-02
  -7.3606200e-02   1.7159600e-01  -5.7532500e-02
  -1.1972200e-01   2.2321000e-01  -5.6362500e-02
  -1.3329900e-01   2.3675500e-01  -4.1386700e-02
  -1.4617400e-01   2.3768900e-01  -3.6940800e-02
  -1.7801000e-01   2.2087400e-01  -3.1792900e-02
  -2.2904200e-01   2.3512000e-01  -2.4539000e-02
  -2.7515700e-01   2.9887900e-01  -9.0953000e-03
  -3.1050500e-01   3.1335900e-01   1.8282200e-02
  -3.5451400e-01   3.6263700e-01   3.6299900e-02
