**************************************************************************************
  	RED ACELEROGRÁFICA DE LA UNIVERSIDAD AUTONOMA METROPOLITANA (RA-UAM)
	   UNIDAD AZCAPOTZALCO. DIVISIÓN CBI-DEPARTAMENTO DE MATERIALES
     Av. San Pablo 420, Col. Nueva el Rosario, Azcapotzalco, C.P. 02128, Ciudad de México
		Área de Estructuras. e-mail: agb@azc.uam.mx
**************************************************************************************
ARCHIVO ESTANDAR DE ACELERACION:
VERSION DEL FORMATO                    : 2.0
NOMBRE DEL ARCHIVO                     : RIDA202209.231
FECHA Y HORA DE CREACION               : 11:30 a. m. 30/09/2022
REF. CATALOGO ACELEROGRAMAS, SMIS 1999 : REGISTRO NO.      /PAG.    


================================================================================
DATOS DE LA ESTACION:
NOMBRE DE LA ESTACION                  : UAM-AZCAPOTZALCO.
CLAVE DE LA ESTACION                   : RIDA
LOCALIZACION DE LA ESTACION            : AV. SAN PABLO 420, COL. NUEVA EL ROSARIO,
                                       : AZCAPOTZALCO, C.P.02128, CIUDAD DE MEXICO. 
                                       :
                                       : 
                                       : 
COORDENADAS DE LA ESTACION             : 19.498596 LAT. N
                                       : 99.195595 LONG. W
ALTITUD (msnm)                         : 2546
TIPO DE SUELO                          : ZONA DE TRANSICION
                                       : 
                                       : 
INSTITUCION RESPONSABLE                : UNIVERSIDAD AUTONOMA METROPOLITANA
                                       : 

================================================================================
DATOS DEL ACELEROGRAFO: 
MODELO DEL ACELEROGRAFO                : ETNA2 KINEMETRICS
NUMERO DE SERIE DEL ACELEROGRAFO       : 103732
NUMERO DE CANALES                      : 3
ORIENTACION C1-C6 (rumbo;orientacion)  : /N90E/N00E/V
ORIENTACION C7-C12 (rumbo;orientacion) : 
VEL. DE MUESTREO, C1-C6 (muestras/s)   : /200/200/200
VEL. DE MUESTREO, C7-C12 (muestras/s)  : 
ESC. COMPLETA DE SENSORES, C1-C6, (g)  : /2/2/2
ESC. COMPLETA DE SENSORES, C7-C12 (g)  : 
FREC. NAT. DE SENSORES, C1-C6, (Hz)    : /198/212/200   
FREC. NAT. DE SENSORES, C7-C12 (Hz)    : 
AMORTIGUAMIENTO DE SENSORES, C1-C6     : /0.7/0.7/0.7      
AMORTIGUAMIENTO DE SENSORES, C7-C12    : 
INTERVALO DE MUESTREO, C1-C6 (s)       : /0.005/0.005/0.005
INTERVALO DE MUESTREO, C7-C12 (s)      : 
UMBRAL DE DISPARO, C1-C6 (Gal)         : /2/2/2
UMBRAL DE DISPARO, C7-C12 (Gal)        : 
MEMORIA DE PREEVENTO (s)               : 50
TIEMPO DE POSEVENTO (s)                : 60


================================================================================
DATOS DEL SISMO:
FECHA DEL SISMO [GMT]                  : 2022/09/23
HORA EPICENTRO (GMT)                   : 18:25:56
MAGNITUD(ES)                           : /M=5.2
COORDENADAS DEL EPICENTRO              : 18.3600 LAT. N
                                       : -103.7600 LONG. W
PROFUNDIDAD FOCAL (Km)                 : 10.0
FUENTE DE LOS DATOS EPICENTRALES       : SSN
                                       : INSTITUTO DE GEOFISICA, UNAM

================================================================================
DATOS DE ESTE REGISTRO:
HORA DE LA PRIMERA MUESTRA (GMT)       : 18:27:26.000
EXACTITUD DEL TIEMPO (s)               : 
DURACION DEL REGISTRO (s), C1-C6       : /129/129/129
DURACION DEL REGISTRO (s), C7-C12      : 
NUM. TOTAL DE MUESTRAS, C1-C6          : /25800/25800/25800
NUM. TOTAL DE MUESTRAS, C7-C12         : 
ACEL. MAX.(Gal), C1-C6                 : /2.918/2.881/1.055
ACEL. MAX., C1-C6, EN LA MUESTRA       : /56/59/59
ACEL. MAX.(Gal), C7-C12                : 
ACEL. MAX., C7-C12,EN LA MUESTRA       : 
UNIDADES DE LOS DATOS                  : Gal (cm/s/s)
FACTOR DE DECIMACION                   : 1
FORMATO DATOS (FORTRAN,16 campos/dato) : 3E16.7


================================================================================
CALIDAD DEL ACELEROGRAMA:
REGISTRO DIGITAL COMPLETO CON TIEMPO ABSOLUTO CORRECTO


================================================================================
COMENTARIOS:














================================================================================
DATOS DE ACELERACION:
---------+---------+---------+---------+---------+---------+---------+---------+
   CANAL-1   	     CANAL-2          CANAL-3
     N90E             N00E              V
---------+---------+---------+---------+---------+---------+---------+---------+ 
   1.1568800e-01  -1.7857000e-02   1.3742500e-02
   1.5759000e-01  -1.5755100e-02  -2.1691800e-03
   1.5782400e-01   1.7408600e-02   3.8312100e-02
   1.0023800e-01   6.7387700e-02   3.1526200e-02
   5.0610700e-02   3.7026600e-02   1.3274600e-02
   6.9103800e-02  -3.3504700e-02  -1.0593000e-02
   8.1276400e-02   4.5901400e-02  -1.2331900e-03
   1.0655800e-01   7.0890900e-02   5.1181900e-02
   3.4458500e-02   2.9553100e-02   6.5455700e-02
  -4.6344900e-03   1.4372500e-02   3.5036200e-02
   7.2381000e-02  -7.7878600e-02  -1.3635000e-02
   1.1896500e-01  -7.0405100e-02   4.0418100e-02
   9.7662700e-02  -6.6467300e-03   1.2278500e-01
  -3.4832100e-02  -1.4353800e-02   1.2723100e-01
  -7.0413700e-02  -3.6106200e-03   6.3817700e-02
   3.2585800e-02   5.4977200e-03   1.3508600e-02
   1.0304700e-01  -8.7486600e-03   3.6440200e-02
   1.1217600e-01  -1.9958900e-02   5.1883900e-02
   4.7307900e-05  -4.0978200e-02   4.0886100e-02
  -8.3522700e-02  -2.9767900e-02   2.2400400e-02
  -1.0225000e-01   1.3905400e-02   4.8607900e-02
  -4.4429700e-02   1.9945100e-03   6.0541700e-02
   3.7033500e-02  -2.7899500e-02  -2.8711700e-03
  -1.1891300e-02  -5.6859400e-02  -5.0138400e-02
  -5.1686500e-02  -4.6816900e-02  -3.7502600e-02
  -9.4993100e-02  -4.2379500e-02  -8.0190800e-03
  -6.3391000e-02  -4.5182000e-02  -2.7674700e-02
   1.4560900e-02  -4.7783600e-03  -1.0489300e-01
   2.4158500e-02   3.3756900e-02  -9.3193600e-02
   2.2519900e-02   3.7727200e-02   4.0477700e-04
  -1.8678200e-04   2.5582800e-02   2.5442300e-02
   4.4056200e-02   9.9351200e-03  -1.5506900e-02
   1.9242700e-02  -2.9067300e-02  -5.1074300e-02
  -4.9111500e-02   3.6293400e-03  -1.5039000e-02
  -2.3361700e-02   2.2313100e-02   4.4630000e-02
  -2.2659400e-02  -2.5797600e-02   3.8780100e-02
  -2.3595700e-02  -2.0659600e-02  -5.6791200e-03
  -2.9958600e-03  -6.6467300e-03  -1.5039000e-02
   6.0676500e-02   2.2313100e-02  -1.2231000e-02
   1.1049500e-02   2.7918200e-02   1.6316500e-02
  -1.8679900e-02   5.9213600e-02   3.9248100e-02
  -5.0750100e-02   9.2844400e-02   1.9592400e-02
   5.1972800e-03   1.1316300e-01   2.4974400e-02
   1.0140800e-01   4.6134900e-02   1.3040600e-02
   2.9074400e-02  -7.8144700e-03   1.6082500e-02
   1.0117400e-01   4.5901400e-02  -1.4671900e-03
   9.5555900e-02   9.4680200e-03   7.4815500e-02
  -5.4027400e-02   1.4606100e-02  -2.3696800e-02
  -3.9743700e-01  -1.9838900e-01  -7.9621800e-02
  -2.7454000e-01  -4.2960100e-01  -4.0544500e-02
   2.3483900e-01  -1.3369600e-01  -3.9200600e-01
   4.0853400e-01   5.2046900e-01  -2.3873900e-01
  -7.2305600e-01   6.7154200e-02  -7.5877900e-02
  -1.7038900e+00   1.9770700e-01  -3.0706600e-01
   9.7994700e-01   1.4434500e+00   1.7613600e-01
   2.9175100e+00  -2.4790100e-01   8.9614100e-01
   2.8025300e-01  -2.6165400e+00  -3.0730000e-01
  -1.5199000e+00  -5.0059900e-01  -8.9112000e-01
  -3.0497200e-01   2.8814000e+00   1.0550200e+00
  -1.8679900e-02   9.6631100e-01   4.9881600e-01
  -4.5127800e-01  -1.1127300e+00  -5.5580400e-01
   8.7596800e-02  -1.1524600e-01   2.1872300e-01
   2.8914800e-01  -6.3582300e-01  -3.7749900e-01
   3.9963800e-01  -3.9153200e-01  -1.7275200e-01
   4.1298100e-01   6.9960000e-01   8.2313500e-01
  -2.4598100e-01   4.5531000e-01   9.7981100e-02
  -5.6387500e-01  -1.5611700e-01  -5.6375900e-01
  -9.9909000e-02  -1.1291100e-01  -9.7171500e-02
   1.7655100e-01   1.9840800e-01   4.1130200e-01
  -7.6776500e-03  -2.5233800e-01   1.4548200e-01
   2.0347100e-01  -2.2337900e-01  -2.2493300e-01
   3.7786800e-01   1.0452200e-01   5.0847000e-03
   8.6192300e-02  -8.7486600e-03   2.6144300e-02
  -1.6030400e-01   1.8229300e-01  -1.5520300e-01
  -1.3595900e-01   3.6072300e-01  -1.0863700e-01
   7.1444700e-02   2.0261200e-01  -8.1493800e-02
   1.9129900e-01  -1.3860100e-01  -1.3063300e-01
   2.1353700e-01  -3.1936600e-01  -7.3537900e-02
   2.5192800e-01   1.0265300e-01   4.3928000e-02
   2.2243200e-01   4.8310200e-01  -1.2010300e-01
  -1.2753200e-01   2.1732500e-01  -2.5394900e-01
  -2.4457600e-01  -1.8324100e-02   4.7906000e-02
   6.2549200e-02  -1.6989600e-01   2.5826800e-01
   1.9621400e-01  -2.0119200e-01   1.2104600e-02
   1.9551200e-01   2.5816300e-02  -1.7649600e-01
   8.1510500e-02   6.1315500e-02   1.3976500e-02
  -1.8652200e-01   3.6325900e-02   1.5858600e-01
  -2.4527900e-01  -8.2082500e-02   6.1243700e-02
  -4.8685800e-03  -1.6475800e-01  -5.2111300e-03
   9.6258200e-02  -9.7029500e-02   2.3570400e-02
   7.5892400e-02  -1.3720000e-01   5.2819900e-02
   2.8606200e-02  -2.5887800e-01   7.4581500e-02
  -2.7617700e-03  -2.1380300e-01   6.0775700e-02
  -8.4225000e-02  -2.5330500e-02   2.9420300e-02
  -1.7411500e-01   6.8789000e-02   2.5442300e-02
  -2.0552600e-02   7.8831500e-02   1.2806600e-02
  -2.0786700e-02   3.6559500e-02  -2.0186900e-02
  -6.7412900e-03  -7.6710900e-02  -5.3882300e-02
   6.1378800e-02  -2.5514100e-01  -3.2822600e-02
  -2.5234400e-02  -1.7993900e-01  -2.6504800e-02
  -8.6140100e-03   2.7217600e-02  -7.0028000e-02
  -7.3456800e-02   1.1596600e-01  -3.2120700e-02
  -1.3900200e-01   1.0475500e-01   1.6784500e-02
  -1.0459100e-01  -4.7783600e-03  -1.4103000e-02
  -1.0084500e-01  -6.4800000e-02  -4.6160400e-02
   3.1415300e-02  -1.7783700e-01  -6.4178100e-02
   1.3230800e-01  -1.1477900e-01  -5.3414300e-02
   2.6967600e-02   1.8109300e-02  -1.0125000e-02
  -1.2425400e-01   4.4733600e-02  -3.3391600e-03
  -2.0665400e-01   1.0242000e-01   1.5848500e-02
  -1.1465700e-01   8.7472800e-02   3.5504200e-02
  -2.2935900e-03   6.0848400e-02  -5.2111300e-03
   4.1013000e-02  -5.8027100e-02  -1.5740900e-02
   9.6258200e-02  -1.0123300e-01  -4.0778500e-02
   6.2549200e-02  -1.2575600e-01   3.2228200e-02
  -8.5395400e-02  -1.9418500e-01   1.0102300e-01
  -3.1456900e-01  -2.5117100e-01  -1.9825800e-01
  -2.5885600e-01  -1.7036300e-01  -1.8281400e-01
   3.1349300e-01   1.7808900e-01   7.2943500e-02
   3.6850400e-01   4.7769800e-02  -5.5674000e-01
  -2.1882700e-01   3.7727200e-02  -7.6452800e-01
  -4.7655900e-01   3.0350400e-01   4.4476300e-01
  -2.5838800e-01  -2.9040700e-01   7.0660500e-01
   5.4102900e-01  -7.7828700e-01  -5.0151700e-01
   9.2025400e-01  -1.0076600e-01  -7.8184400e-01
   5.0474500e-01   1.1216200e+00   3.7175600e-01
  -3.1574000e-01   1.0627700e+00   8.4887400e-01
  -1.1383300e+00  -5.0854000e-01  -1.3695100e-01
  -6.8934700e-01  -1.0872700e+00  -5.0760000e-01
   2.3858500e-01  -1.3579800e-01   1.4852400e-01
   5.6209700e-01   4.2354700e-01   2.5124800e-01
   3.4977700e-01   2.5679400e-01   8.3606400e-03
  -2.0595200e-01   1.1803500e-02   1.1155300e-01
  -4.9950000e-01  -2.2267800e-01   1.3963200e-01
  -3.2861500e-01  -1.7223200e-01   1.0232600e-02
  -1.0107900e-01   1.7642200e-02   1.0336300e-01
  -9.2184000e-02   5.9447100e-02   1.9391900e-01
  -4.5132000e-02  -1.0800600e-01   1.0617100e-01
   1.2060300e-01  -1.4560700e-01   4.3827100e-03
   1.9715100e-01   4.2631700e-02   9.7747100e-02
   9.1342300e-02   1.2180400e-01   2.9828200e-01
  -1.4181100e-01   1.0825800e-01   1.4969400e-01
  -2.7711500e-01  -8.5151100e-03  -1.7144900e-02
  -7.6031800e-02  -6.9938000e-02   1.1295700e-01
   1.7140100e-01  -7.7645100e-02   2.1217100e-01
   2.2126200e-01   2.9287000e-03   6.0073700e-02
   2.2051700e-02   1.8229300e-01  -1.2454900e-01
  -1.9026800e-01   2.0961800e-01  -3.3758600e-02
  -1.6966800e-01   1.0402200e-02   8.3239300e-02
  -1.0435700e-01  -1.8601100e-01   3.0356300e-02
   2.4860800e-02  -1.2108500e-01  -8.9449700e-02
   6.6528800e-02   1.7875700e-02  -1.9779000e-01
   7.2381000e-02   1.9607200e-01  -1.8117600e-01
   1.2922200e-02   1.5566900e-01  -6.1604200e-02
  -4.2557000e-02  -1.5054400e-02  -1.9351800e-03
  -1.7107200e-01  -7.8812800e-02  -8.5939700e-02
  -4.2557000e-02  -1.0870700e-01  -2.2212500e-01
   1.2669000e-01  -1.0053300e-01  -1.7017800e-01
   1.5361000e-01  -1.5191300e-01  -1.6676900e-02
   1.4705600e-01  -1.1034200e-01  -3.2354700e-02
  -2.0552600e-02   2.3247300e-02  -1.5777600e-01
   9.2746800e-02   3.9829200e-02  -1.5918000e-01
   9.1108200e-02  -3.3770700e-03  -4.9436400e-02
   2.1423900e-01   1.4839600e-02  -1.9351800e-03
   1.9761900e-01  -2.2734900e-01   2.7447400e-03
   1.2762600e-01  -2.5047000e-01   6.4519700e-02
   7.3551500e-02  -1.1991700e-01   7.6219500e-02
   1.1732600e-01   6.0381300e-02  -1.4571000e-02
   2.3624400e-01   2.4581800e-01  -3.2588700e-02
   2.3718000e-01   1.8836500e-01   9.5173100e-02
   1.9387400e-01   2.8852400e-02   2.0842700e-01
   4.2183400e-02  -1.4444000e-01   1.5203400e-01
   5.1078900e-02  -1.1734800e-01   3.7142100e-02
  -2.1723000e-02   7.5996400e-03   5.4223800e-02
   6.6997000e-02   1.8579600e-01   1.6443600e-01
   4.2651600e-02   1.2414000e-01   1.5648000e-01
   7.5892400e-02   8.0699900e-02   4.2056100e-02
   8.8065000e-02   7.1325500e-03   7.8926500e-03
   8.4553700e-02  -9.6562400e-02   8.9323200e-02
   8.1978700e-02  -8.2082500e-02   8.2537400e-02
   5.5760600e-02  -1.2719000e-02  -3.6566600e-02
   1.0211000e-01   6.0381300e-02  -5.2010300e-02
   8.0574200e-02   1.3044500e-01   4.9543900e-02
   7.7531000e-02   1.0312000e-01   1.0102300e-01
   1.7135900e-02   4.0529800e-02   4.8841900e-02
   5.9740200e-02   4.9871700e-02   2.4038400e-02
   4.4290300e-02   6.2716800e-02   4.6502000e-02
   4.0076600e-02   3.3756900e-02   5.9839800e-02
   1.2688100e-02   1.2938700e-03   4.7204000e-02
  -1.7509400e-02   6.5986400e-02   2.3336400e-02
  -7.2988700e-02   9.5880500e-02   8.2303400e-02
  -1.6405000e-01   4.6134900e-02   4.5332000e-02
  -2.5581300e-01  -2.4229600e-01  -2.4880100e-01
  -3.4363900e-02  -1.7713600e-01  -3.8311500e-01
   3.4415900e-01   1.7552000e-01   5.8903800e-02
   3.3830700e-01   2.4301500e-01   1.0149100e-01
  -2.9560800e-01  -8.7687600e-02  -6.3934000e-01
  -3.8198700e-01   2.5702800e-01  -2.3990900e-01
   4.1087500e-01   6.0151000e-01   7.3608800e-01
  -2.2514700e-01  -5.8304100e-01  -5.7392200e-02
  -4.7632500e-01  -8.7334000e-01  -6.7982100e-01
   4.0666100e-01   8.7706300e-02  -4.8968400e-02
   4.0408600e-01   6.5195600e-01   6.2179700e-02
   1.1873100e-01   5.9777300e-01   1.3120900e-01
  -5.6130000e-01  -2.6027900e-01   7.6586500e-03
  -5.9828600e-01  -5.4987700e-01  -7.9855800e-02
   3.3573200e-01   8.2568300e-02   2.3884700e-01
   6.9576200e-01   4.0766600e-01   1.9298300e-01
   4.2726100e-01   2.8435300e-01   1.4220600e-01
  -1.1840200e-01  -6.0829700e-02   1.1131900e-01
  -3.0309900e-01  -1.2739100e-01   2.0210900e-01
  -1.6147500e-01  -8.0480200e-03   3.0460000e-01
  -1.1161300e-01  -1.0216800e-01   1.7075400e-01
  -2.9958600e-03  -1.0917400e-01   9.8215100e-02
  -1.9148000e-02   3.4224000e-02   2.5709800e-01
  -3.2323100e-01  -5.3589700e-02   5.0245900e-02
  -1.8324500e-01  -2.6191400e-01  -3.7773300e-01
   4.7735600e-01  -3.0675500e-01  -1.8585600e-01
   4.3732700e-01   6.0381300e-02   2.7558400e-01
  -2.4879000e-01   4.4947100e-01   5.0724000e-01
  -7.4833700e-01   9.4012100e-02  -1.2454900e-01
  -1.7856300e-01   1.5306700e-02  -4.6009900e-01
   9.3055400e-01   4.8637100e-01   3.3197700e-01
   5.6958700e-01   3.7960800e-02   2.8471000e-01
  -5.4023200e-01  -4.8401700e-01  -1.7930400e-01
  -8.6608400e-01  -3.3174400e-01   4.2524000e-02
  -5.2548400e-01  -1.5004500e-01   8.8153300e-02
   1.2786000e-01   1.9490400e-01  -7.3070000e-02
   5.3658100e-01   4.0112700e-01  -1.6035000e-01
   2.5731200e-01   2.3881100e-01  -1.5333100e-01
  -3.0239700e-01  -4.7607700e-01  -1.0793500e-01
  -3.8760500e-01  -5.7440000e-01  -7.6345900e-02
  -2.4551300e-01   4.2398200e-02  -8.2663800e-02
  -3.9045700e-02   4.9404600e-02  -2.8179400e-01
   3.2870900e-01  -1.6966300e-01  -5.6469500e-01
   5.6911900e-01   6.6687100e-02  -4.4582600e-01
   1.7350800e-01   5.4966300e-01   2.4539900e-01
  -6.5048800e-01   1.4609300e-01   5.9732800e-01
  -8.0405100e-01  -4.3170300e-01   9.1663200e-02
  -3.1339900e-01  -2.0352700e-01  -6.0634700e-01
   3.3854100e-01   1.1946900e-01  -6.2647000e-01
   6.2811000e-01  -1.2225300e-01  -6.5348100e-02
   3.7716600e-01  -2.4162800e-02   1.9789700e-01
  -1.3529900e-02  -5.2454500e-03  -6.1838100e-02
  -1.0880400e-01  -1.1898300e-01   8.8153300e-02
  -2.2842400e-01   4.1070200e-01   3.8298800e-01
  -4.7866600e-01   1.2367300e-01   5.0245900e-02
  -3.4383000e-01  -2.8456800e-01  -2.1510600e-01
   1.0749400e-01  -4.3080100e-02  -1.8913200e-01
   4.3030400e-01  -6.8536700e-02   2.8354000e-01
   3.0553400e-01  -1.8040600e-01   7.0122300e-01
  -5.5431900e-02  -2.4396300e-02   1.3378200e-01
  -3.3001900e-01   1.9977600e-02  -4.5050500e-01
  -1.9003400e-01   1.3441600e-01  -8.0323800e-02
  -3.1788900e-02   1.6474400e-02   5.5567700e-01
   1.3745800e-01  -1.6545900e-01   5.1730200e-01
   8.4553700e-02  -9.3059200e-02  -1.5754200e-01
  -1.5168500e-02   5.1740100e-02  -3.4310100e-01
   1.5267400e-01   1.5847100e-01   3.9950100e-02
   1.1709200e-01   5.9648100e-03   2.7043600e-01
   1.4284200e-01  -1.3653200e-02   2.8681600e-01
  -2.2425300e-02  -1.0123300e-01   4.5332000e-02
  -1.8745900e-01  -3.3971800e-02  -1.7907000e-01
  -1.5000400e-01   4.1464000e-02  -1.5567100e-01
   1.4795000e-02  -5.2454500e-03   5.0847000e-03
   1.3816000e-01  -1.3369600e-01   1.3612200e-01
   9.3215000e-02  -2.1870800e-01   8.4409300e-02
  -1.1657200e-02  -1.3112700e-01  -2.2118900e-01
  -4.5366100e-02  -7.1339300e-02  -3.6650100e-01
  -1.5168500e-02   4.2164600e-02  -8.0089800e-02
  -4.5132000e-02  -1.8324100e-02   1.5601200e-01
   2.7904000e-02  -1.4911100e-01   1.2338600e-02
   1.2879700e-01  -1.8461000e-01  -2.5699100e-01
   1.6250600e-01  -5.7092900e-02  -3.0379000e-01
   1.4518500e-03   1.7408600e-02  -8.5471700e-02
  -6.7136400e-02  -1.5755100e-02   1.0032100e-01
  -6.2731100e-03  -8.5819200e-02  -4.8266400e-02
   3.0244900e-02  -8.2316000e-02  -2.4903500e-01
   8.1276400e-02   3.8628900e-03  -1.6058400e-01
   8.3617300e-02   1.8576400e-02  -1.1997000e-02
  -6.9945500e-02   1.4839600e-02  -3.5864600e-02
  -6.7370500e-02   2.7217600e-02  -6.4178100e-02
   1.6039900e-01   8.5838000e-02  -5.9264200e-02
   2.0347100e-01   1.2927800e-01  -9.2257600e-02
   1.0398300e-01   1.4586000e-01  -7.8217900e-02
  -2.2191200e-02   9.1209500e-02   2.5676300e-02
   1.6667700e-02   3.7960800e-02   1.1202100e-01
   9.3683200e-02   4.1697500e-02   4.9543900e-02
   1.0140800e-01   4.8937500e-02  -6.7688000e-02
   8.3851400e-02   6.3651000e-02  -4.5458400e-02
   6.3677300e-03   1.4749400e-01   1.4852400e-01
  -6.0113700e-02   1.7715500e-01   2.6411800e-01
  -5.5197900e-02   4.2631700e-02   1.3027300e-01
   3.0244900e-02   1.0635800e-02  -2.6972800e-02
   9.0405900e-02   9.0508900e-02   2.2634400e-02
   7.2849200e-02   1.2063600e-01   1.5882000e-01
   4.4056200e-02   9.8916600e-02   1.9649300e-01
   1.9008600e-02   8.1634100e-02   9.4471200e-02
  -1.3529900e-02   1.4562600e-01  -3.0014700e-02
   1.0113200e-02   1.6828000e-01   1.9826400e-02
   4.9440200e-02   1.2180400e-01   1.5109800e-01
   9.8365000e-02   1.0335400e-01   1.1295700e-01
   1.4096900e-01   7.2058700e-02  -3.0014700e-02
   1.0491900e-01   8.6305000e-02  -9.6001600e-02
   1.7135900e-02   1.5566900e-01  -7.7047900e-02
  -6.1986500e-02   1.7084900e-01   1.9826400e-02
  -6.5072000e-03   1.9560500e-01   4.3694000e-02
   9.3917300e-02   1.7225000e-01  -5.2244300e-02
   1.1615600e-01   1.3932000e-01  -1.2478300e-01
   1.0866500e-01   9.0041800e-02  -9.6235600e-02
   7.0040100e-02   5.6411000e-02  -3.1051600e-03
   1.4518500e-03   3.1888600e-02   1.5747600e-03
  -9.6397600e-02  -1.1084100e-02   1.9826400e-02
  -1.9167200e-01   1.4372500e-02  -1.6807200e-01
  -1.6170900e-01  -1.1084100e-02  -1.8164400e-01
