**************************************************************************************
  	RED ACELEROGRÁFICA DE LA UNIVERSIDAD AUTONOMA METROPOLITANA (RA-UAM)
	   UNIDAD AZCAPOTZALCO. DIVISIÓN CBI-DEPARTAMENTO DE MATERIALES
     Av. San Pablo 420, Col. Nueva el Rosario, Azcapotzalco, C.P. 02128, Ciudad de México
		Área de Estructuras. e-mail: agb@azc.uam.mx
**************************************************************************************
ARCHIVO ESTANDAR DE ACELERACION:
VERSION DEL FORMATO                    : 2.0
NOMBRE DEL ARCHIVO                     : RIDA202208.121
FECHA Y HORA DE CREACION               : 11:30 a. m. 17/08/2022
REF. CATALOGO ACELEROGRAMAS, SMIS 1999 : REGISTRO NO.      /PAG.    


================================================================================
DATOS DE LA ESTACION:
NOMBRE DE LA ESTACION                  : UAM-AZCAPOTZALCO.
CLAVE DE LA ESTACION                   : RIDA
LOCALIZACION DE LA ESTACION            : AV. SAN PABLO 420, COL. NUEVA EL ROSARIO,
                                       : AZCAPOTZALCO, C.P.02128, CIUDAD DE MEXICO. 
                                       :
                                       : 
                                       : 
COORDENADAS DE LA ESTACION             : 19.498596 LAT. N
                                       : 99.195595 LONG. W
ALTITUD (msnm)                         : 2546
TIPO DE SUELO                          : ZONA DE TRANSICION
                                       : 
                                       : 
INSTITUCION RESPONSABLE                : UNIVERSIDAD AUTONOMA METROPOLITANA
                                       : 

================================================================================
DATOS DEL ACELEROGRAFO: 
MODELO DEL ACELEROGRAFO                : ETNA2 KINEMETRICS
NUMERO DE SERIE DEL ACELEROGRAFO       : 103732
NUMERO DE CANALES                      : 3
ORIENTACION C1-C6 (rumbo;orientacion)  : /N90E/N00E/V
ORIENTACION C7-C12 (rumbo;orientacion) : 
VEL. DE MUESTREO, C1-C6 (muestras/s)   : /200/200/200
VEL. DE MUESTREO, C7-C12 (muestras/s)  : 
ESC. COMPLETA DE SENSORES, C1-C6, (g)  : /2/2/2
ESC. COMPLETA DE SENSORES, C7-C12 (g)  : 
FREC. NAT. DE SENSORES, C1-C6, (Hz)    : /198/212/200   
FREC. NAT. DE SENSORES, C7-C12 (Hz)    : 
AMORTIGUAMIENTO DE SENSORES, C1-C6     : /0.7/0.7/0.7      
AMORTIGUAMIENTO DE SENSORES, C7-C12    : 
INTERVALO DE MUESTREO, C1-C6 (s)       : /0.005/0.005/0.005
INTERVALO DE MUESTREO, C7-C12 (s)      : 
UMBRAL DE DISPARO, C1-C6 (Gal)         : /2/2/2
UMBRAL DE DISPARO, C7-C12 (Gal)        : 
MEMORIA DE PREEVENTO (s)               : 50
TIEMPO DE POSEVENTO (s)                : 60


================================================================================
DATOS DEL SISMO:
FECHA DEL SISMO [GMT]                  : 2022/08/12
HORA EPICENTRO (GMT)                   : 08:17:25
MAGNITUD(ES)                           : /M=5.1
COORDENADAS DEL EPICENTRO              : 18.2800 LAT. N
                                       : -100.9800 LONG. W
PROFUNDIDAD FOCAL (Km)                 : 56.0
FUENTE DE LOS DATOS EPICENTRALES       : SSN
                                       : INSTITUTO DE GEOFISICA, UNAM

================================================================================
DATOS DE ESTE REGISTRO:
HORA DE LA PRIMERA MUESTRA (GMT)       : 08:17:29.000
EXACTITUD DEL TIEMPO (s)               : 
DURACION DEL REGISTRO (s), C1-C6       : /162/162/162
DURACION DEL REGISTRO (s), C7-C12      : 
NUM. TOTAL DE MUESTRAS, C1-C6          : /32400/32400/32400
NUM. TOTAL DE MUESTRAS, C7-C12         : 
ACEL. MAX.(Gal), C1-C6                 : /-0.861/0.898/0.373
ACEL. MAX., C1-C6, EN LA MUESTRA       : /15364/15314/9670
ACEL. MAX.(Gal), C7-C12                : 
ACEL. MAX., C7-C12,EN LA MUESTRA       : 
UNIDADES DE LOS DATOS                  : Gal (cm/s/s)
FACTOR DE DECIMACION                   : 1
FORMATO DATOS (FORTRAN,16 campos/dato) : 3E16.7


================================================================================
CALIDAD DEL ACELEROGRAMA:
REGISTRO DIGITAL COMPLETO CON TIEMPO ABSOLUTO CORRECTO


================================================================================
COMENTARIOS:














================================================================================
DATOS DE ACELERACION:
---------+---------+---------+---------+---------+---------+---------+---------+
   CANAL-1   	     CANAL-2          CANAL-3
     N90E             N00E              V
---------+---------+---------+---------+---------+---------+---------+---------+ 
[...]
   7.7154700e-02  -3.3023600e-01  -7.7929300e-02
   4.6723100e-02  -3.3047000e-01  -5.5933700e-02
   2.5889100e-02  -3.3210500e-01  -3.7682000e-02
   1.4184600e-02  -3.4144700e-01  -2.7386200e-02
   1.9100500e-02  -3.1505600e-01  -2.0132300e-02
   2.6825500e-02  -3.3093700e-01  -4.2205900e-03
   3.1507300e-02  -3.1785800e-01   1.3563100e-02
   4.0870800e-02  -2.8002400e-01   1.1223100e-02
   4.7425400e-02  -2.6601100e-01   3.2672800e-03
   4.7893500e-02  -2.1299600e-01  -6.5605500e-03
   4.5318600e-02  -1.9361100e-01  -1.4984400e-02
   3.7593600e-02  -1.8473600e-01  -2.4578200e-02
   2.9868600e-02  -1.7165800e-01  -4.2595900e-02
   2.2143700e-02  -1.8637100e-01  -5.1721800e-02
   7.1619400e-03  -1.7609500e-01  -6.1783600e-02
  -1.6247000e-02  -1.7656200e-01  -8.4949200e-02
  -3.7315100e-02  -1.8660500e-01  -1.0437100e-01
  -7.3130800e-02  -1.8029900e-01  -1.2285700e-01
  -1.0894700e-01  -2.0996000e-01  -1.4532000e-01
  -1.3422800e-01  -2.0598900e-01  -1.7410200e-01
  -1.5787100e-01  -2.0598900e-01  -2.0147900e-01
  -1.7144800e-01  -2.0949200e-01  -2.1598700e-01
  -1.8198300e-01  -1.8824000e-01  -2.3002700e-01
  -1.9087800e-01  -1.9594700e-01  -2.4430000e-01
  -1.9649600e-01  -1.7305900e-01  -2.4617200e-01
  -2.0071000e-01  -1.6184900e-01  -2.4453400e-01
  -2.0492300e-01  -1.4736900e-01  -2.4500200e-01
  -2.0445500e-01  -1.1000100e-01  -2.4406600e-01
  -2.0094400e-01  -8.2909900e-02  -2.3377100e-01
  -1.9649600e-01  -6.1657100e-02  -2.1083900e-01
  -1.9860300e-01  -4.9746200e-02  -1.9211900e-01
  -1.9860300e-01  -3.2230200e-02  -1.8439700e-01
  -1.9181400e-01  -4.4841700e-02  -1.6029600e-01
  -2.0632800e-01  -5.6285500e-02  -1.2379300e-01
  -2.1826600e-01  -6.2824800e-02  -1.0507300e-01
  -2.3254600e-01  -6.9831200e-02  -9.3139100e-02
  -2.5759300e-01  -6.5860900e-02  -7.5589400e-02
  -2.6859600e-01  -5.5818400e-02  -5.1487800e-02
  -2.8170500e-01  -4.3674000e-02  -3.1130100e-02
  -2.7889600e-01  -4.6476500e-02  -1.1942500e-02
  -2.7140500e-01  -4.4141100e-02   2.0349000e-02
  -2.6204100e-01  -6.0022300e-02   5.7788300e-02
  -2.4612300e-01  -5.8387400e-02   8.3527900e-02
  -2.3231200e-01  -5.7920300e-02   1.0856500e-01
  -2.0796600e-01  -6.9597700e-02   1.3594300e-01
  -1.8572800e-01  -4.8111400e-02   1.5770500e-01
  -1.6255300e-01  -5.1614600e-02   1.7174400e-01
  -1.3610100e-01  -5.0680400e-02   1.8718800e-01
  -1.2299200e-01  -3.5032700e-02   2.0707800e-01
  -1.1901200e-01  -2.8026300e-02   2.0941800e-01
  -1.1667100e-01  -3.2703000e-03   1.9935600e-01
  -1.2790800e-01   2.1018600e-02   1.7619000e-01
  -1.3563300e-01   4.7876500e-02   1.5583300e-01
  -1.4476200e-01   6.9129300e-02   1.3781500e-01
  -1.5880800e-01   5.4649400e-02   1.0856500e-01
  -1.6770300e-01   6.0488100e-02   8.7271800e-02
  -1.8057800e-01   6.0488100e-02   7.8380000e-02
  -1.9626200e-01   5.8386200e-02   7.2530100e-02
  -2.1826600e-01   9.0849200e-02   6.1532300e-02
  -2.1850100e-01   1.0276000e-01   6.4340200e-02
  -2.1218000e-01   1.3008500e-01   8.0953900e-02
  -2.1709600e-01   1.2985200e-01   8.9377800e-02
  -2.0937100e-01   1.3802600e-01   9.5461700e-02
  -2.0586000e-01   1.5600900e-01   1.1628700e-01
  -2.1147800e-01   1.7259100e-01   1.4764300e-01
  -2.0866900e-01   1.9874800e-01   1.7338200e-01
  -1.9930500e-01   2.2233600e-01   1.9678200e-01
  -1.8385500e-01   2.6951300e-01   2.2345700e-01
  -1.6887300e-01   2.8259100e-01   2.5083500e-01
  -1.6302100e-01   3.3303800e-01   2.6510900e-01
  -1.4499600e-01   3.7180600e-01   2.7353300e-01
  -1.2814200e-01   4.2692400e-01   2.8523200e-01
  -1.0707400e-01   4.9138300e-01   2.9248600e-01
  -7.7110300e-02   5.0422800e-01   2.9108200e-01
  -6.5171800e-02   5.4439800e-01   2.8265800e-01
  -5.4871800e-02   5.3715800e-01   2.7868100e-01
  -7.0087700e-02   5.3669100e-01   2.6393900e-01
  -9.1623900e-02   5.3529000e-01   2.3726300e-01
  -8.7878500e-02   5.1310300e-01   2.1129000e-01
  -9.2326200e-02   5.3248700e-01   1.8344400e-01
  -8.6005700e-02   5.1660600e-01   1.6542600e-01
  -8.0855800e-02   4.8881400e-01   1.4670700e-01
  -9.7008000e-02   4.6989600e-01   1.2868900e-01
  -1.1901200e-01   4.2435500e-01   1.2283900e-01
  -1.5084900e-01   4.1174300e-01   1.1862700e-01
  -1.7542800e-01   4.0753900e-01   1.0903300e-01
  -2.0328500e-01   4.1688100e-01   9.6865700e-02
  -2.2435300e-01   4.3790000e-01   9.5461700e-02
  -2.3699400e-01   4.4070300e-01   8.1421900e-02
  -2.7163900e-01   4.6078800e-01   5.6384400e-02
  -2.8615200e-01   4.5168000e-01   3.6494700e-02
  -3.0885900e-01   4.5261400e-01   1.1691100e-02
  -3.3648200e-01   4.6172200e-01  -1.2878400e-02
  -3.3460900e-01   4.6289000e-01  -5.5465700e-02
  -3.3039500e-01   4.8087300e-01  -1.0273300e-01
  -2.9621800e-01   4.7993900e-01  -1.3759800e-01
  -2.6087100e-01   4.7456700e-01  -1.7761200e-01
  -2.3605700e-01   4.7269900e-01  -2.0732900e-01
  -2.0632800e-01   4.4444000e-01  -2.1902900e-01
  -2.0445500e-01   4.2739100e-01  -2.2090100e-01
  -2.0351900e-01   4.1197700e-01  -2.1200900e-01
  -2.0000700e-01   3.8768800e-01  -1.9890500e-01
  -1.9813500e-01   3.6713600e-01  -1.8416300e-01
  -1.8057800e-01   3.4121200e-01  -1.6521000e-01
  -1.6934200e-01   3.3770900e-01  -1.4789400e-01
  -1.5951000e-01   3.1108400e-01  -1.3759800e-01
  -1.5272100e-01   2.9240000e-01  -1.3081200e-01
  -1.6770300e-01   2.7722000e-01  -1.3642800e-01
  -1.7238500e-01   2.6951300e-01  -1.4555400e-01
  -1.6395800e-01   2.3798400e-01  -1.6099800e-01
  -1.5716900e-01   1.9524500e-01  -1.9001300e-01
  -1.3141900e-01   1.6278200e-01  -2.0662700e-01
  -1.0871200e-01   9.9256900e-02  -2.2300700e-01
  -9.7242100e-02   7.1698300e-02  -2.3400500e-01
  -9.1389800e-02   3.7600500e-02  -2.2721900e-01
  -1.0075300e-01   2.4755400e-02  -2.1481700e-01
  -1.0075300e-01  -4.9051300e-03  -1.9703300e-01
  -9.5135200e-02  -2.7325700e-02  -1.7316600e-01
  -8.1089900e-02  -4.7177200e-02  -1.4508600e-01
  -6.4235400e-02  -9.7156300e-02  -1.1396500e-01
  -5.2296800e-02  -1.0533000e-01  -7.4887400e-02
  -3.3803800e-02  -1.1864300e-01  -4.4233900e-02
  -2.4674300e-02  -9.7856900e-02  -1.8728300e-02
  -6.1811700e-03  -7.6604100e-02   1.6137100e-02
   1.4418700e-02  -6.3058400e-02   3.7430700e-02
   3.2443600e-02  -6.0489400e-02   4.7492500e-02
   6.0066200e-02  -5.7219700e-02   5.6852400e-02
   8.2772900e-02  -6.8663500e-02   6.1298300e-02
   1.1297000e-01  -6.8897100e-02   5.9894300e-02
   1.4995700e-01  -6.6328000e-02   5.5682400e-02
   1.8553800e-01  -7.6604100e-02   4.6088500e-02
   2.1175600e-01  -5.2081700e-02   3.6026700e-02
   2.1714000e-01  -8.5245400e-02   2.7134900e-02
   2.0707500e-01  -9.8324000e-02   1.1925100e-02
   1.8015400e-01  -1.2541500e-01   4.5933300e-04
   1.4785000e-01  -1.6068100e-01  -8.1985200e-03
   1.3474100e-01  -1.8426900e-01  -1.5218400e-02
   1.2888900e-01  -2.2514000e-01  -1.7090400e-02
   1.2771800e-01  -2.3611700e-01  -1.0304500e-02
   1.3286800e-01  -2.6928100e-01  -4.2205900e-03
   1.2022700e-01  -2.9216800e-01  -9.4464300e-04
   1.0196800e-01  -3.0641500e-01   8.4152000e-03
   9.1200100e-02  -3.1739100e-01   8.8831900e-03
   8.8859200e-02  -3.3117100e-01   4.5933300e-04
   1.0548000e-01  -3.4658500e-01  -8.6665100e-03
   1.3825200e-01  -3.6340000e-01  -2.0600300e-02
   1.7734500e-01  -4.0310300e-01  -3.8852000e-02
   2.0871300e-01  -4.2552400e-01  -5.2423800e-02
   2.2954700e-01  -4.5144700e-01  -6.1783600e-02
   2.4476300e-01  -4.7923900e-01  -7.7695300e-02
   2.4687000e-01  -4.8134100e-01  -8.6119200e-02
   2.5787200e-01  -4.8904800e-01  -8.8693100e-02
   2.7519500e-01  -4.9652200e-01  -8.7289200e-02
   2.7613100e-01  -5.1333700e-01  -7.3015400e-02
   2.8104700e-01  -5.6728700e-01  -5.0083800e-02
   2.7215100e-01  -5.9484500e-01  -2.5982200e-02
   2.4967900e-01  -6.6561000e-01   3.2672800e-03
   2.2978100e-01  -7.1979300e-01   3.1814800e-02
   2.1128800e-01  -7.2259600e-01   4.7492500e-02
   2.0777700e-01  -7.7094000e-01   6.5276200e-02
   2.0918100e-01  -7.6486800e-01   7.2296100e-02
   2.2065200e-01  -7.6860400e-01   6.6914200e-02
   2.3844300e-01  -7.8051500e-01   6.8552200e-02
   2.4265600e-01  -7.8004800e-01   6.0830300e-02
   2.4476300e-01  -7.6930500e-01   4.4216600e-02
   2.4476300e-01  -7.6393300e-01   3.5792700e-02
   2.2907900e-01  -7.5552600e-01   2.5964900e-02
   2.0754300e-01  -7.3801000e-01   1.4733100e-02
   1.7289700e-01  -7.3660800e-01   1.4967100e-02
   1.3637900e-01  -7.4408200e-01   9.1171800e-03
   1.0477700e-01  -7.8121600e-01  -1.1006500e-02
   7.2004800e-02  -7.8518600e-01  -1.8494300e-02
   6.0066200e-02  -8.0737300e-01  -1.1708500e-02
   4.7191300e-02  -8.0900800e-01  -1.1240500e-02
   3.0805000e-02  -7.9312700e-01  -4.9225700e-03
   2.6123200e-02  -7.8308400e-01   9.1171800e-03
   2.1675500e-02  -7.5412400e-01   1.5669100e-02
   2.7059600e-02  -7.2796700e-01   2.5496900e-02
   4.0636800e-02  -7.0017500e-01   4.6088500e-02
   5.7023000e-02  -6.7051500e-01   5.7788300e-02
   6.8727500e-02  -6.1866700e-01   5.6150400e-02
   5.7023000e-02  -5.5981300e-01   5.7788300e-02
   3.6657200e-02  -4.8904800e-01   5.5916400e-02
   4.3528600e-03  -4.2225400e-01   5.1704400e-02
  -2.7951500e-02  -3.6153200e-01   5.3108400e-02
  -4.1528700e-02  -3.0804900e-01   4.5620600e-02
  -5.0424100e-02  -2.4919500e-01   3.9302700e-02
  -4.8083200e-02  -2.3308100e-01   3.9068700e-02
  -4.2699200e-02  -2.1486400e-01   3.2048800e-02
  -3.6846900e-02  -1.9501300e-01   2.5028900e-02
  -2.2801500e-02  -1.8730500e-01   1.9179000e-02
  -7.1175300e-03  -1.4293200e-01   1.4967100e-02
   1.4652800e-02  -1.2681700e-01   1.7073000e-02
   3.7827700e-02  -6.7962900e-02   1.6137100e-02
   4.9298100e-02  -2.0319200e-02   1.2861100e-02
   5.7959400e-02   2.9893400e-02   1.9881000e-02
   6.9898000e-02   8.5944700e-02   3.2048800e-02
   7.8559300e-02   1.2494700e-01   2.7602900e-02
   1.0033000e-01   1.9641300e-01   2.3390900e-02
   1.3403900e-01   2.4732600e-01   2.9708800e-02
   1.6470400e-01   3.2649800e-01   2.9006800e-02
   1.9302900e-01   3.8558600e-01   1.7775000e-02
   2.1690600e-01   4.4490700e-01   4.5933300e-04
   2.4078300e-01   5.1450400e-01  -1.4750400e-02
   2.6372400e-01   5.4906900e-01  -3.5342000e-02
   2.9064500e-01   5.8293300e-01  -5.6401700e-02
   3.1124400e-01   6.0255100e-01  -7.0909400e-02
   3.1803300e-01   6.3221200e-01  -8.6821200e-02
   3.2739700e-01   6.4225400e-01  -1.1092300e-01
   3.1943800e-01   6.5533300e-01  -1.3385400e-01
   3.0211500e-01   6.9667100e-01  -1.3947000e-01
   2.8736700e-01   7.2142700e-01  -1.3900200e-01
   2.6372400e-01   7.6907000e-01  -1.4368200e-01
   2.4663600e-01   8.1414500e-01  -1.4227800e-01
   2.3422900e-01   8.4403900e-01  -1.3455600e-01
   2.2931300e-01   8.7113000e-01  -1.2940800e-01
   2.3001500e-01   8.8864600e-01  -1.1490100e-01
   2.4593300e-01   8.8561000e-01  -8.9629100e-02
   2.7683300e-01   8.8420900e-01  -7.3015400e-02
   3.0305100e-01   8.9775500e-01  -6.1081600e-02
   3.4776200e-01   8.7860400e-01  -5.2891700e-02
   3.8732400e-01   8.7953800e-01  -6.4357500e-02
   4.1377600e-01   8.6996300e-01  -7.9567300e-02
   4.5591200e-01   8.2465400e-01  -8.9395100e-02
   4.8938700e-01   8.0246700e-01  -1.1139100e-01
   5.0717700e-01   7.7000400e-01  -1.3502400e-01
   5.1864800e-01   7.2189400e-01  -1.4251200e-01
   5.0928400e-01   6.6934600e-01  -1.4532000e-01
   4.7042500e-01   6.4318800e-01  -1.5210600e-01
   4.2103200e-01   6.1095900e-01  -1.5187200e-01
   3.6766000e-01   5.5911100e-01  -1.4064000e-01
   3.0515800e-01   5.3295400e-01  -1.1911300e-01
   2.4452900e-01   4.6802800e-01  -9.8755000e-02
   1.9981800e-01   4.2201900e-01  -7.8631300e-02
   1.6306600e-01   3.8138200e-01  -3.4172100e-02
   1.2163200e-01   3.2696500e-01   1.4733100e-02
   9.3541000e-02   2.8469300e-01   5.4278400e-02
   5.1170800e-02   2.5853600e-01   1.0037600e-01
   1.4652800e-02   2.2233600e-01   1.4038900e-01
   4.5869500e-03   1.7749500e-01   1.5372700e-01
  -8.2879800e-03   1.8777100e-01   1.5559900e-01
  -8.0538900e-03   1.7002200e-01   1.6402300e-01
  -1.2735700e-02   1.4690100e-01   1.5793900e-01
  -3.4974200e-02   1.4363100e-01   1.4647300e-01
  -8.2260300e-02   1.2634800e-01   1.3851700e-01
  -1.5014600e-01   9.7622100e-02   1.1839300e-01
  -2.2880000e-01   9.3418200e-02   1.0248200e-01
  -3.2220200e-01   5.3715200e-02   8.7739800e-02
  -4.0272900e-01   1.0742500e-02   5.9894300e-02
  -4.7693500e-01  -1.1911500e-02   4.2110600e-02
  -5.5886700e-01  -7.9873800e-02   3.8366700e-02
  -6.2675300e-01  -1.4643500e-01   2.4326900e-02
  -6.8597800e-01  -2.0879200e-01   2.3390900e-02
  -7.3981800e-01  -2.7161600e-01   3.8600700e-02
  -7.5175700e-01  -3.3490700e-01   4.0940600e-02
  -7.4848000e-01  -3.7017300e-01   5.0534500e-02
  -7.4005200e-01  -3.9679700e-01   6.4808200e-02
  -7.0657700e-01  -4.1478000e-01   6.9488100e-02
  -6.8457300e-01  -4.0170200e-01   8.5399900e-02
  -6.6186600e-01  -3.7858100e-01   1.0341800e-01
  -6.3775500e-01  -3.7110700e-01   9.8269600e-02
  -6.2722100e-01  -3.3817700e-01   1.0178000e-01
  -6.3494600e-01  -3.2509800e-01   1.0809700e-01
  -6.5531200e-01  -3.6970600e-01   8.2357900e-02
  -6.8246600e-01  -3.8488600e-01   5.6618400e-02
  -7.3185900e-01  -4.1291200e-01   3.5090700e-02
  -7.7025000e-01  -4.5798700e-01  -7.4965300e-03
  -8.0044700e-01  -4.7667000e-01  -4.7743800e-02
  -8.4211500e-01  -4.9348600e-01  -6.9739500e-02
  -8.6107700e-01  -5.3318900e-01  -8.9161100e-02
  -8.5522400e-01  -5.4930400e-01  -9.1969100e-02
  -8.4726500e-01  -5.7359300e-01  -7.3015400e-02
  -8.1098100e-01  -6.1025900e-01  -5.2189800e-02
  -7.5269300e-01  -5.8760500e-01  -1.9196300e-02
  -7.0423700e-01  -5.6284900e-01   2.2455000e-02
  -6.3869100e-01  -5.1217000e-01   4.3046600e-02
  -5.7501900e-01  -4.2225400e-01   6.7850200e-02
  -5.3194700e-01  -3.3420700e-01   1.0271600e-01
  -4.8044700e-01  -2.8212600e-01   1.0435400e-01
  -4.3901300e-01  -2.2093600e-01   9.6163700e-02
  -4.0764500e-01  -1.6114800e-01   9.4525700e-02
  -3.6644500e-01  -1.6488500e-01   7.1126100e-02
  -3.1775500e-01  -1.4433300e-01   3.5090700e-02
  -2.7210700e-01  -1.4503300e-01   3.2672800e-03
  -2.2552300e-01  -1.7516100e-01  -3.3704100e-02
  -1.6161700e-01  -2.0131800e-01  -6.2719600e-02
  -1.2626900e-01  -2.1346300e-01  -7.5355400e-02
  -9.6539800e-02  -2.6180700e-01  -9.4075000e-02
  -5.6276400e-02  -2.9777300e-01  -1.0413700e-01
  -6.5171800e-02  -2.7558600e-01  -9.4309000e-02
  -6.3767200e-02  -3.3841100e-01  -8.8459100e-02
  -6.4001300e-02  -3.3233800e-01  -7.5121400e-02
  -8.4133000e-02  -2.9427000e-01  -4.0256000e-02
  -7.9685300e-02  -3.0361200e-01  -1.7558400e-02
  -7.8749000e-02  -2.4102100e-01  -5.6245600e-03
  -7.8280800e-02  -1.7376000e-01   1.6137100e-02
  -7.8046700e-02  -1.2658300e-01   2.8304900e-02
  -6.1426300e-02  -7.0064800e-02   3.3920800e-02
  -3.1462900e-02  -1.2378600e-02   3.7196700e-02
   7.6301200e-03   3.4797900e-02   3.2282800e-02
   9.3775100e-02   7.5435100e-02   3.2282800e-02
   1.7219500e-01   1.1373700e-01   3.8132700e-02
   2.4031500e-01   1.3709200e-01   3.5324700e-02
   3.2482200e-01   1.6418300e-01   2.8538800e-02
   3.7140500e-01   1.8940600e-01   2.4326900e-02
   4.0534800e-01   1.9314300e-01   6.7772200e-03
   4.4818700e-01   2.1019200e-01  -1.1474500e-02
   4.6176400e-01   2.1906700e-01  -1.9196300e-02
   4.6621200e-01   2.2770800e-01  -2.9492200e-02
   4.6574400e-01   2.3284600e-01  -3.6044000e-02
   4.3812100e-01   2.6157200e-01  -4.0490000e-02
   4.0979600e-01   2.7885500e-01  -4.7977800e-02
   3.9060100e-01   2.9543700e-01  -4.9615800e-02
   3.8217400e-01   3.4284700e-01  -4.1659900e-02
