**************************************************************************************
  	RED ACELEROGRÁFICA DE LA UNIVERSIDAD AUTONOMA METROPOLITANA (RA-UAM)
	   UNIDAD AZCAPOTZALCO. DIVISIÓN CBI-DEPARTAMENTO DE MATERIALES
     Av. San Pablo 420, Col. Nueva el Rosario, Azcapotzalco, C.P. 02128, Ciudad de México
		Área de Estructuras. e-mail: agb@azc.uam.mx
**************************************************************************************
ARCHIVO ESTANDAR DE ACELERACION:
VERSION DEL FORMATO                    : 2.0
NOMBRE DEL ARCHIVO                     : RIDA202212.111
FECHA Y HORA DE CREACION               : 11:30 a. m. 16/12/2022
REF. CATALOGO ACELEROGRAMAS, SMIS 1999 : REGISTRO NO.      /PAG.    


================================================================================
DATOS DE LA ESTACION:
NOMBRE DE LA ESTACION                  : UAM-AZCAPOTZALCO.
CLAVE DE LA ESTACION                   : RIDA
LOCALIZACION DE LA ESTACION            : AV. SAN PABLO 420, COL. NUEVA EL ROSARIO,
                                       : AZCAPOTZALCO, C.P.02128, CIUDAD DE MEXICO. 
                                       :
                                       : 
                                       : 
COORDENADAS DE LA ESTACION             : 19.498596 LAT. N
                                       : 99.195595 LONG. W
ALTITUD (msnm)                         : 2546
TIPO DE SUELO                          : ZONA DE TRANSICION
                                       : 
                                       : 
INSTITUCION RESPONSABLE                : UNIVERSIDAD AUTONOMA METROPOLITANA
                                       : 

================================================================================
DATOS DEL ACELEROGRAFO: 
MODELO DEL ACELEROGRAFO                : ETNA2 KINEMETRICS
NUMERO DE SERIE DEL ACELEROGRAFO       : 103732
NUMERO DE CANALES                      : 3
ORIENTACION C1-C6 (rumbo;orientacion)  : /N90E/N00E/V
ORIENTACION C7-C12 (rumbo;orientacion) : 
VEL. DE MUESTREO, C1-C6 (muestras/s)   : /200/200/200
VEL. DE MUESTREO, C7-C12 (muestras/s)  : 
ESC. COMPLETA DE SENSORES, C1-C6, (g)  : /2/2/2
ESC. COMPLETA DE SENSORES, C7-C12 (g)  : 
FREC. NAT. DE SENSORES, C1-C6, (Hz)    : /198/212/200   
FREC. NAT. DE SENSORES, C7-C12 (Hz)    : 
AMORTIGUAMIENTO DE SENSORES, C1-C6     : /0.7/0.7/0.7      
AMORTIGUAMIENTO DE SENSORES, C7-C12    : 
INTERVALO DE MUESTREO, C1-C6 (s)       : /0.005/0.005/0.005
INTERVALO DE MUESTREO, C7-C12 (s)      : 
UMBRAL DE DISPARO, C1-C6 (Gal)         : /2/2/2
UMBRAL DE DISPARO, C7-C12 (Gal)        : 
MEMORIA DE PREEVENTO (s)               : 50
TIEMPO DE POSEVENTO (s)                : 60


================================================================================
DATOS DEL SISMO:
FECHA DEL SISMO [GMT]                  : 2022/12/11
HORA EPICENTRO (GMT)                   : 14:31:30
MAGNITUD(ES)                           : /M=6.0
COORDENADAS DEL EPICENTRO              : 17.1300 LAT. N
                                       : -100.6380 LONG. W
PROFUNDIDAD FOCAL (Km)                 : 14.1
FUENTE DE LOS DATOS EPICENTRALES       : SSN
                                       : INSTITUTO DE GEOFISICA, UNAM

================================================================================
DATOS DE ESTE REGISTRO:
HORA DE LA PRIMERA MUESTRA (GMT)       : 14:31:36.000
EXACTITUD DEL TIEMPO (s)               : 
DURACION DEL REGISTRO (s), C1-C6       : /245/245/245
DURACION DEL REGISTRO (s), C7-C12      : 
NUM. TOTAL DE MUESTRAS, C1-C6          : /49000/49000/49000
NUM. TOTAL DE MUESTRAS, C7-C12         : 
ACEL. MAX.(Gal), C1-C6                 : /-3.455/3.560/1.028
ACEL. MAX., C1-C6, EN LA MUESTRA       : /18748/18316/19021
ACEL. MAX.(Gal), C7-C12                : 
ACEL. MAX., C7-C12,EN LA MUESTRA       : 
UNIDADES DE LOS DATOS                  : Gal (cm/s/s)
FACTOR DE DECIMACION                   : 1
FORMATO DATOS (FORTRAN,16 campos/dato) : 3E16.7


================================================================================
CALIDAD DEL ACELEROGRAMA:
REGISTRO DIGITAL COMPLETO CON TIEMPO ABSOLUTO CORRECTO


================================================================================
COMENTARIOS:














================================================================================
DATOS DE ACELERACION:
---------+---------+---------+---------+---------+---------+---------+---------+
   CANAL-1   	     CANAL-2          CANAL-3
     N90E             N00E              V
---------+---------+---------+---------+---------+---------+---------+---------+
[...]
   8.3734700e-01   7.9239400e-01   4.1800100e-01
   7.8725200e-01   7.7768000e-01   4.1753300e-01
   7.4862700e-01   7.4545100e-01   4.0208900e-01
   7.0485200e-01   6.9103400e-01   3.7892300e-01
   6.8003900e-01   6.4852900e-01   3.5505600e-01
   6.3977500e-01   6.1770100e-01   3.1551000e-01
   6.0091600e-01   5.8617200e-01   2.6449900e-01
   5.7212300e-01   5.6024800e-01   2.1933800e-01
   5.1711200e-01   5.4763600e-01   1.5803100e-01
   4.6678300e-01   5.1097000e-01   9.7426200e-02
   4.1481500e-01   4.9438800e-01   3.7055200e-02
   3.6167700e-01   4.6099000e-01  -2.9633600e-02
   3.2539300e-01   4.3646800e-01  -8.7430600e-02
   2.6616800e-01   4.1871800e-01  -1.3774000e-01
   2.2145700e-01   3.7037400e-01  -1.9132500e-01
   1.7534100e-01   3.4865400e-01  -2.2689200e-01
   1.1962800e-01   3.0101100e-01  -2.3040200e-01
   6.5319200e-02   2.5009700e-01  -2.3321000e-01
  -8.6531000e-03   2.1856800e-01  -2.3133800e-01
  -6.6239200e-02   1.5434300e-01  -2.1027900e-01
  -1.2476200e-01   1.0459700e-01  -1.6441500e-01
  -1.7626100e-01   6.3960200e-02  -1.1621200e-01
  -2.0341600e-01   6.2740400e-03  -6.3563000e-02
  -2.4040200e-01  -3.7165700e-02   8.7417100e-03
  -2.5819300e-01  -1.0746300e-01   8.3386400e-02
  -2.7153600e-01  -1.5113700e-01   1.4937300e-01
  -2.8604900e-01  -1.9247500e-01   2.1325400e-01
  -2.8066500e-01  -2.3871700e-01   2.7643300e-01
  -2.9400800e-01  -2.4572300e-01   3.3095400e-01
  -2.9564700e-01  -2.8776200e-01   3.7517900e-01
  -3.0805400e-01  -2.8939700e-01   4.0162100e-01
  -3.3029200e-01  -2.9430100e-01   4.2525500e-01
  -3.4129500e-01  -3.3517200e-01   4.4280400e-01
  -3.7547200e-01  -3.4498100e-01   4.4116600e-01
  -4.0356200e-01  -3.9496000e-01   4.3087000e-01
  -4.3188700e-01  -4.2415300e-01   4.1846900e-01
  -4.7285300e-01  -4.4727500e-01   4.0653500e-01
  -5.0890300e-01  -4.9515200e-01   3.8570900e-01
  -5.4940000e-01  -5.0542800e-01   3.5552400e-01
  -5.9598400e-01  -5.5026900e-01   3.2065800e-01
  -6.4186600e-01  -6.0632000e-01   2.7783700e-01
  -7.0858100e-01  -6.6657500e-01   2.3384600e-01
  -7.6265600e-01  -7.5906000e-01   1.8189900e-01
  -8.2211500e-01  -8.2048300e-01   1.3112200e-01
  -8.9351200e-01  -8.8003800e-01   8.7598400e-02
  -9.3939400e-01  -9.7275600e-01   3.8459200e-02
  -9.8878700e-01  -1.0117600e+00  -4.3620600e-03
  -1.0084500e+00  -1.0570700e+00  -3.6185500e-02
  -1.0246000e+00  -1.1238600e+00  -5.3033200e-02
  -1.0344300e+00  -1.1411400e+00  -7.3390900e-02
  -1.0234300e+00  -1.1537500e+00  -8.8132600e-02
  -1.0292800e+00  -1.1453500e+00  -9.2578500e-02
  -1.0168800e+00  -1.1271300e+00  -1.0544800e-01
  -9.9370200e-01  -1.0864900e+00  -1.1504200e-01
  -9.7450700e-01  -1.0512300e+00  -1.2487000e-01
  -9.4079800e-01  -9.9050500e-01  -1.3469800e-01
  -9.1060100e-01  -9.2394400e-01  -1.5599100e-01
  -8.7642300e-01  -8.7466600e-01  -1.8009300e-01
  -8.4177800e-01  -7.7610900e-01  -2.0489700e-01
  -8.2094400e-01  -6.9973900e-01  -2.1706400e-01
  -7.9332200e-01  -6.0071500e-01  -2.2455200e-01
  -7.6780600e-01  -5.1360200e-01  -2.5333400e-01
  -7.4205600e-01  -4.2158400e-01  -2.7228700e-01
  -6.9968600e-01  -3.3587300e-01  -2.8234900e-01
  -6.6035900e-01  -2.9149900e-01  -2.9264500e-01
  -6.1986100e-01  -2.0508600e-01  -3.0083500e-01
  -5.5735900e-01  -1.6281400e-01  -3.0153700e-01
  -5.0164600e-01  -1.0442700e-01  -3.0621700e-01
  -4.2439600e-01  -4.8843100e-02  -3.2189500e-01
  -3.6072400e-01   6.7411300e-03  -3.4061400e-01
  -3.0641500e-01   5.9289300e-02  -3.5301600e-01
  -2.3572000e-01   6.5828600e-02  -3.4716600e-01
  -1.9311600e-01   9.2219400e-02  -3.4014600e-01
  -1.3389100e-01   8.9650400e-02  -3.3289200e-01
  -7.8880000e-02   1.0436400e-01  -3.2095900e-01
  -2.7146200e-02   1.1954400e-01  -3.0340900e-01
   2.6928500e-02   1.3005400e-01  -2.6994700e-01
   7.5619200e-02   1.5154000e-01  -2.3531600e-01
   1.4537800e-01   1.5737900e-01  -1.9998300e-01
   2.0717800e-01   1.7653000e-01  -1.5645900e-01
   2.7248900e-01   1.9871700e-01  -1.1925400e-01
   3.4060900e-01   2.3094600e-01  -9.3514500e-02
   3.8953300e-01   2.7111700e-01  -6.6839000e-02
   4.4735400e-01   3.1876000e-01  -3.2675600e-02
   4.8831900e-01   3.7411100e-01  -1.3253900e-02
   5.2156000e-01   4.3366500e-01  -1.0913900e-02
   5.6650500e-01   4.7967400e-01   1.4878400e-03
   5.9834100e-01   5.3409100e-01   9.2097000e-03
   6.4164800e-01   5.8150100e-01  -1.5013500e-04
   6.7325000e-01   6.4198900e-01  -1.2551900e-02
   7.0017000e-01   7.2162900e-01  -2.0039800e-02
   7.4277500e-01   7.6179900e-01  -2.7527700e-02
   7.5892700e-01   8.3443200e-01  -3.9227500e-02
   7.9731800e-01   8.5965500e-01  -4.5311400e-02
   8.4156100e-01   8.7203300e-01  -5.1863200e-02
   8.7222600e-01   8.8744800e-01  -5.5607200e-02
   9.3589900e-01   8.7343500e-01  -5.9351100e-02
   9.7873700e-01   8.7226700e-01  -6.5669000e-02
   1.0321100e+00   8.3887000e-01  -6.5903000e-02
   1.0934400e+00   8.0827500e-01  -6.8009000e-02
   1.1383900e+00   7.3587500e-01  -6.5435000e-02
   1.2079100e+00   6.6931400e-01  -5.1629200e-02
   1.2655000e+00   5.8687200e-01  -3.3143600e-02
   1.3095100e+00   4.9041700e-01  -2.4719700e-02
   1.3680300e+00   4.1661600e-01  -2.5889700e-02
   1.3975200e+00   3.1502300e-01  -1.9805800e-02
   1.4293600e+00   2.3701900e-01  -4.5960600e-03
   1.4635400e+00   1.4266600e-01   9.2097000e-03
   1.4705600e+00   5.6486700e-02   1.4357600e-02
   1.4944400e+00  -7.3237500e-04   1.9271500e-02
   1.4946700e+00  -6.5658500e-02   2.8163400e-02
   1.4995900e+00  -1.1213400e-01   4.3139100e-02
   1.5101200e+00  -1.4156100e-01   5.3668900e-02
   1.4892900e+00  -1.6374800e-01   6.3496800e-02
   1.4864800e+00  -1.9948100e-01   8.6194400e-02
   1.4675200e+00  -2.0578700e-01   1.0819000e-01
   1.4422300e+00  -2.2120100e-01   1.2901600e-01
   1.4256100e+00  -2.6417400e-01   1.5779700e-01
   1.3848800e+00  -2.7001200e-01   1.9944800e-01
   1.3542200e+00  -3.0387700e-01   2.3548400e-01
   1.3167600e+00  -3.5525700e-01   2.6449900e-01
   1.2783700e+00  -3.8561800e-01   3.0732100e-01
   1.2477100e+00  -4.4820900e-01   3.4171800e-01
   1.2125900e+00  -5.2574600e-01   3.6067200e-01
   1.1959700e+00  -5.9978100e-01   3.7190300e-01
   1.1730300e+00  -7.0230800e-01   3.8453900e-01
   1.1477500e+00  -7.9362500e-01   3.9740900e-01
   1.1386200e+00  -9.0549400e-01   3.9553700e-01
   1.1072500e+00  -1.0108200e+00   3.8524100e-01
   1.0737800e+00  -1.1030800e+00   3.7003100e-01
   1.0541100e+00  -1.2298900e+00   3.5575800e-01
   1.0147900e+00  -1.3235400e+00   3.4288800e-01
   9.9114400e-01  -1.4225700e+00   3.2346600e-01
   9.6937400e-01  -1.5208900e+00   3.0030100e-01
   9.3753700e-01  -1.6161800e+00   2.7830500e-01
   9.1061700e-01  -1.7140300e+00   2.4624800e-01
   8.5630800e-01  -1.7957800e+00   2.1348800e-01
   8.0527700e-01  -1.8819500e+00   1.8821700e-01
   7.4745700e-01  -1.9517900e+00   1.5381900e-01
   6.7488900e-01  -2.0132100e+00   1.1357200e-01
   6.2643200e-01  -2.0816400e+00   7.5430600e-02
   5.5807800e-01  -2.1482000e+00   3.8459200e-02
   4.8480800e-01  -2.2159300e+00   6.4017500e-03
   4.2019900e-01  -2.2857600e+00  -2.9633600e-02
   3.3592700e-01  -2.3364400e+00  -6.4499000e-02
   2.5540000e-01  -2.3803400e+00  -8.9068600e-02
   1.6480700e-01  -2.4258900e+00  -1.0989400e-01
   7.1873700e-02  -2.4805400e+00  -1.2487000e-01
  -6.0781100e-03  -2.5398600e+00  -1.3680400e-01
  -9.8075400e-02  -2.5954400e+00  -1.3727200e-01
  -1.7649500e-01  -2.6353800e+00  -1.3774000e-01
  -2.5491500e-01  -2.6741500e+00  -1.4335600e-01
  -3.4527400e-01  -2.6869900e+00  -1.3633600e-01
  -4.1409600e-01  -2.7112800e+00  -1.1972200e-01
  -5.0305000e-01  -2.7400100e+00  -1.0076800e-01
  -5.8053400e-01  -2.7311300e+00  -8.9536600e-02
  -6.5122900e-01  -2.7472500e+00  -7.8538800e-02
  -7.2918100e-01  -2.7346400e+00  -6.2393100e-02
  -7.8138300e-01  -2.7248300e+00  -4.1099400e-02
  -8.4318300e-01  -2.7145500e+00  -2.1443800e-02
  -8.9515100e-01  -2.6914300e+00  -1.7881100e-03
  -9.4033000e-01  -2.6634000e+00   1.5293600e-02
  -9.9744800e-01  -2.6379500e+00   2.4887400e-02
  -1.0377100e+00  -2.6015100e+00   2.9099400e-02
  -1.0875700e+00  -2.5653100e+00   2.6993400e-02
  -1.1489000e+00  -2.5480300e+00   2.7929400e-02
  -1.2020400e+00  -2.5031900e+00   1.9505500e-02
  -1.2671200e+00  -2.4791400e+00   8.7417100e-03
  -1.3361800e+00  -2.4466700e+00   8.3861300e-05
  -1.4043000e+00  -2.3906200e+00  -7.4040100e-03
  -1.4789700e+00  -2.3341000e+00  -1.8167800e-02
  -1.5459200e+00  -2.2810900e+00  -3.0335600e-02
  -1.6283200e+00  -2.1993500e+00  -2.5655700e-02
  -1.7029900e+00  -2.1211100e+00  -1.7699800e-02
  -1.7605800e+00  -2.0342300e+00  -1.3019900e-02
  -1.8464900e+00  -1.9235300e+00  -1.2317900e-02
  -1.9054800e+00  -1.8317400e+00  -9.9779700e-03
  -1.9635400e+00  -1.7280500e+00  -1.0212000e-02
  -2.0178400e+00  -1.6236500e+00  -1.1381900e-02
  -2.0426600e+00  -1.5262600e+00  -2.9580900e-03
  -2.0740300e+00  -1.4228000e+00  -3.8413100e-04
  -2.0826900e+00  -1.3109300e+00  -1.0446000e-02
  -2.0805800e+00  -1.2149400e+00  -2.7995700e-02
  -2.0646600e+00  -1.0993400e+00  -4.9991300e-02
  -2.0215900e+00  -9.6528200e-01  -6.0989100e-02
  -1.9714900e+00  -8.5481400e-01  -5.9585100e-02
  -1.9146100e+00  -7.4364600e-01  -6.9412900e-02
  -1.8471900e+00  -5.9978100e-01  -8.6260600e-02
  -1.7811800e+00  -4.8978000e-01  -1.0006600e-01
  -1.7093100e+00  -3.6156300e-01  -1.1083000e-01
  -1.6517300e+00  -1.8616900e-01  -1.1551000e-01
  -1.6016300e+00  -5.4214700e-02  -1.1363800e-01
  -1.5489600e+00   9.5722600e-02  -1.1340400e-01
  -1.5229800e+00   2.6971500e-01  -1.0872400e-01
  -1.4820100e+00   4.1358000e-01  -9.1174600e-02
  -1.4455000e+00   5.7145800e-01  -7.2454900e-02
  -1.4251300e+00   7.5526000e-01  -5.7011200e-02
  -1.4024200e+00   9.0729900e-01  -3.1739600e-02
  -1.3897800e+00   1.0759200e+00  -1.0680000e-02
  -1.3670800e+00   1.2384700e+00   9.4437000e-03
  -1.3460100e+00   1.4091900e+00   2.9099400e-02
  -1.3183800e+00   1.5883200e+00   3.2141300e-02
  -1.2825700e+00   1.7342900e+00   3.8693200e-02
  -1.2488600e+00   1.9094500e+00   3.2375300e-02
  -1.1983000e+00   2.0551800e+00   1.7867600e-02
  -1.1456300e+00   2.1932100e+00   1.4878400e-03
  -1.0831200e+00   2.3487500e+00  -2.5655700e-02
  -1.0084500e+00   2.4835100e+00  -6.2159100e-02
  -9.4337300e-01   2.6185000e+00  -1.0755400e-01
  -8.6823000e-01   2.7355100e+00  -1.4803600e-01
  -7.9659900e-01   2.8583500e+00  -1.8149700e-01
  -7.2262700e-01   2.9926400e+00  -2.1191600e-01
  -6.4654700e-01   3.0993700e+00  -2.4350600e-01
  -5.9060000e-01   3.2114800e+00  -2.6807600e-01
  -5.3067300e-01   3.3207800e+00  -2.7790300e-01
  -4.6723500e-01   3.4015800e+00  -2.7977500e-01
  -4.0332800e-01   3.4788900e+00  -2.7018100e-01
  -3.2724900e-01   3.5209300e+00  -2.5122800e-01
  -2.7715400e-01   3.5505900e+00  -2.3367800e-01
  -2.3057000e-01   3.5599300e+00  -2.1823400e-01
  -1.8492300e-01   3.5335400e+00  -2.0723700e-01
  -1.6151400e-01   3.5111200e+00  -1.8875100e-01
  -1.1610000e-01   3.4746800e+00  -1.6628700e-01
  -9.1989000e-02   3.4015800e+00  -1.4522800e-01
  -6.3664200e-02   3.3247500e+00  -1.3423000e-01
  -2.6912100e-02   3.2278200e+00  -1.2627400e-01
  -8.4190100e-03   3.1108200e+00  -1.2393400e-01
   1.9437700e-02   3.0001200e+00  -1.4078200e-01
   2.7864900e-02   2.8515800e+00  -1.4054800e-01
   4.8464800e-02   2.7324700e+00  -1.3118800e-01
   8.0066900e-02   2.6257400e+00  -1.3891000e-01
   9.9964500e-02   2.5117700e+00  -1.7283900e-01
   1.4561200e-01   2.4185800e+00  -2.0747100e-01
   1.6457300e-01   2.3314700e+00  -2.2408400e-01
   1.8236400e-01   2.2371200e+00  -2.4186800e-01
   2.2660700e-01   2.1322500e+00  -2.5824800e-01
   2.5165500e-01   2.0530800e+00  -2.8000900e-01
   2.9800400e-01   1.9498500e+00  -3.0996100e-01
   3.1485900e-01   1.8583000e+00  -3.3780600e-01
   3.2328600e-01   1.7721200e+00  -3.5208000e-01
   3.5816500e-01   1.6733300e+00  -3.4997400e-01
   3.7689300e-01   1.5913600e+00  -3.4131600e-01
   4.0498300e-01   1.4715500e+00  -3.3055200e-01
   4.3307400e-01   1.3531400e+00  -3.3312600e-01
   4.4454400e-01   1.2239900e+00  -3.3219000e-01
   4.5812200e-01   1.0570000e+00  -3.0832300e-01
   4.7380600e-01   9.1734200e-01  -2.8351900e-01
   4.9323500e-01   7.7464400e-01  -2.6620400e-01
   5.0845100e-01   5.9387900e-01  -2.5661000e-01
   5.0798300e-01   4.4487600e-01  -2.4842000e-01
   5.1500500e-01   2.7532000e-01  -2.2899800e-01
   5.1289900e-01   1.1160400e-01  -2.0676900e-01
   5.3654200e-01  -1.5679400e-02  -1.7705100e-01
   5.5995100e-01  -1.8196500e-01  -1.4078200e-01
   5.6252600e-01  -3.2045800e-01  -1.1504200e-01
   5.8312600e-01  -4.7553400e-01  -9.5152500e-02
   5.8218900e-01  -6.1239200e-01  -6.0287100e-02
   5.9459600e-01  -7.0931500e-01  -9.0419800e-03
   6.0349100e-01  -8.2118400e-01   2.4653400e-02
   5.9155300e-01  -9.1530300e-01   5.2966900e-02
   5.8991400e-01  -1.0054500e+00   7.9642500e-02
   5.5924800e-01  -1.0843900e+00   1.0748800e-01
   5.3466900e-01  -1.1682300e+00   1.5311700e-01
   5.2764600e-01  -1.2186800e+00   1.9032300e-01
   4.9674600e-01  -1.2941200e+00   2.2542200e-01
   4.8270100e-01  -1.3429300e+00   2.5443700e-01
   4.5437600e-01  -1.3770300e+00   2.8462300e-01
   4.1434700e-01  -1.4440500e+00   3.2650800e-01
   3.9398100e-01  -1.4524600e+00   3.7143500e-01
   3.4903600e-01  -1.5045400e+00   4.1261900e-01
   3.0970900e-01  -1.5416800e+00   4.3578400e-01
   2.6757300e-01  -1.5715700e+00   4.6480000e-01
   1.9500500e-01  -1.6091700e+00   5.0481300e-01
   1.3180100e-01  -1.6362600e+00   5.4716600e-01
   5.9232900e-02  -1.6542500e+00   5.8250000e-01
  -2.4805300e-02  -1.6416300e+00   5.9841200e-01
  -8.8711800e-02  -1.6617200e+00   6.2134300e-01
  -1.7228200e-01  -1.6596200e+00   6.5433700e-01
  -2.4882900e-01  -1.6563500e+00   6.9013800e-01
  -3.0758600e-01  -1.6575200e+00   7.2125900e-01
  -3.7032200e-01  -1.6421000e+00   7.4068100e-01
  -4.1011700e-01  -1.6479400e+00   7.5004100e-01
  -4.5646700e-01  -1.6372000e+00   7.4138300e-01
  -4.8877100e-01  -1.6635900e+00   7.3155500e-01
  -5.1101000e-01  -1.6698900e+00   7.1517600e-01
  -5.4097300e-01  -1.6299600e+00   6.7867200e-01
  -5.5127300e-01  -1.6549500e+00   6.2017300e-01
  -5.7538400e-01  -1.6376600e+00   5.4482600e-01
  -6.0207000e-01  -1.6227200e+00   4.7509600e-01
  -6.2571300e-01  -1.6456100e+00   4.0817300e-01
  -6.5403800e-01  -1.6180500e+00   3.2791200e-01
  -6.7417000e-01  -1.6241200e+00   2.2846400e-01
  -7.0530400e-01  -1.6374300e+00   1.3416400e-01
  -7.3550200e-01  -1.6026300e+00   5.2733000e-02
  -7.7646700e-01  -1.5972600e+00  -2.3783700e-02
  -8.2656200e-01  -1.5699400e+00  -8.8366600e-02
  -8.7080500e-01  -1.5353700e+00  -1.4850400e-01
  -9.2581600e-01  -1.5253300e+00  -2.0162100e-01
  -9.7591200e-01  -1.4884300e+00  -2.4748400e-01
  -1.0339700e+00  -1.4769800e+00  -2.8515700e-01
  -1.0913200e+00  -1.4508300e+00  -3.0106900e-01
  -1.1435200e+00  -1.4094900e+00  -3.0574900e-01
  -1.2144500e+00  -1.4157900e+00  -3.1768300e-01
  -1.2647800e+00  -1.3952400e+00  -3.3219000e-01
  -1.3008300e+00  -1.3690900e+00  -3.2961600e-01
  -1.3361800e+00  -1.3924400e+00  -3.1510900e-01
  -1.3453100e+00  -1.3590400e+00  -2.9849500e-01
  -1.3600500e+00  -1.3541400e+00  -2.7837100e-01
  -1.3605200e+00  -1.3704900e+00  -2.6035400e-01
  -1.3420300e+00  -1.3434000e+00  -2.4140000e-01
  -1.3338300e+00  -1.3522700e+00  -2.2548800e-01
  -1.2949800e+00  -1.3438600e+00  -2.1074600e-01
  -1.2533100e+00  -1.3083600e+00  -1.9787700e-01
  -1.2043800e+00  -1.3015900e+00  -1.8875100e-01
