**************************************************************************************
  	RED ACELEROGRÁFICA DE LA UNIVERSIDAD AUTONOMA METROPOLITANA (RA-UAM)
	   UNIDAD AZCAPOTZALCO. DIVISIÓN CBI-DEPARTAMENTO DE MATERIALES
     Av. San Pablo 420, Col. Nueva el Rosario, Azcapotzalco, C.P. 02128, Ciudad de México
		Área de Estructuras. e-mail: agb@azc.uam.mx
**************************************************************************************
ARCHIVO ESTANDAR DE ACELERACION:
VERSION DEL FORMATO                    : 2.0
NOMBRE DEL ARCHIVO                     : RIDA202209.202
FECHA Y HORA DE CREACION               : 11:30 a. m. 27/09/2022
REF. CATALOGO ACELEROGRAMAS, SMIS 1999 : REGISTRO NO.      /PAG.    


================================================================================
DATOS DE LA ESTACION:
NOMBRE DE LA ESTACION                  : UAM-AZCAPOTZALCO.
CLAVE DE LA ESTACION                   : RIDA
LOCALIZACION DE LA ESTACION            : AV. SAN PABLO 420, COL. NUEVA EL ROSARIO,
                                       : AZCAPOTZALCO, C.P.02128, CIUDAD DE MEXICO. 
                                       :
                                       : 
                                       : 
COORDENADAS DE LA ESTACION             : 19.498596 LAT. N
                                       : 99.195595 LONG. W
ALTITUD (msnm)                         : 2546
TIPO DE SUELO                          : ZONA DE TRANSICION
                                       : 
                                       : 
INSTITUCION RESPONSABLE                : UNIVERSIDAD AUTONOMA METROPOLITANA
                                       : 

================================================================================
DATOS DEL ACELEROGRAFO: 
MODELO DEL ACELEROGRAFO                : ETNA2 KINEMETRICS
NUMERO DE SERIE DEL ACELEROGRAFO       : 103732
NUMERO DE CANALES                      : 3
ORIENTACION C1-C6 (rumbo;orientacion)  : /N90E/N00E/V
ORIENTACION C7-C12 (rumbo;orientacion) : 
VEL. DE MUESTREO, C1-C6 (muestras/s)   : /200/200/200
VEL. DE MUESTREO, C7-C12 (muestras/s)  : 
ESC. COMPLETA DE SENSORES, C1-C6, (g)  : /2/2/2
ESC. COMPLETA DE SENSORES, C7-C12 (g)  : 
FREC. NAT. DE SENSORES, C1-C6, (Hz)    : /198/212/200   
FREC. NAT. DE SENSORES, C7-C12 (Hz)    : 
AMORTIGUAMIENTO DE SENSORES, C1-C6     : /0.7/0.7/0.7      
AMORTIGUAMIENTO DE SENSORES, C7-C12    : 
INTERVALO DE MUESTREO, C1-C6 (s)       : /0.005/0.005/0.005
INTERVALO DE MUESTREO, C7-C12 (s)      : 
UMBRAL DE DISPARO, C1-C6 (Gal)         : /2/2/2
UMBRAL DE DISPARO, C7-C12 (Gal)        : 
MEMORIA DE PREEVENTO (s)               : 50
TIEMPO DE POSEVENTO (s)                : 60


================================================================================
DATOS DEL SISMO:
FECHA DEL SISMO [GMT]                  : 2022/09/20
HORA EPICENTRO (GMT)                   : 10:43:18
MAGNITUD(ES)                           : /M=4.8
COORDENADAS DEL EPICENTRO              : 17.9800 LAT. N
                                       : -103.2100 LONG. W
PROFUNDIDAD FOCAL (Km)                 : 12.0
FUENTE DE LOS DATOS EPICENTRALES       : SSN
                                       : INSTITUTO DE GEOFISICA, UNAM

================================================================================
DATOS DE ESTE REGISTRO:
HORA DE LA PRIMERA MUESTRA (GMT)       : 10:44:46.000
EXACTITUD DEL TIEMPO (s)               : 
DURACION DEL REGISTRO (s), C1-C6       : /111/111/111
DURACION DEL REGISTRO (s), C7-C12      : 
NUM. TOTAL DE MUESTRAS, C1-C6          : /22200/22200/22200
NUM. TOTAL DE MUESTRAS, C7-C12         : 
ACEL. MAX.(Gal), C1-C6                 : /-0.458/-0.280/0.103
ACEL. MAX., C1-C6, EN LA MUESTRA       : /10138/11825/10560
ACEL. MAX.(Gal), C7-C12                : 
ACEL. MAX., C7-C12,EN LA MUESTRA       : 
UNIDADES DE LOS DATOS                  : Gal (cm/s/s)
FACTOR DE DECIMACION                   : 1
FORMATO DATOS (FORTRAN,16 campos/dato) : 3E16.7


================================================================================
CALIDAD DEL ACELEROGRAMA:
REGISTRO DIGITAL COMPLETO CON TIEMPO ABSOLUTO CORRECTO


================================================================================
COMENTARIOS:














================================================================================
DATOS DE ACELERACION:
---------+---------+---------+---------+---------+---------+---------+---------+
   CANAL-1   	     CANAL-2          CANAL-3
     N90E             N00E              V
---------+---------+---------+---------+---------+---------+---------+---------+ 
[...]
  -8.6416400e-02   2.3396000e-02  -1.2107900e-02
  -8.6884600e-02   3.2504400e-02  -9.2999500e-03
  -9.0630000e-02   1.3587000e-02  -1.5383800e-02
  -9.8355000e-02   9.1496500e-03  -2.0999700e-02
  -1.0186600e-01  -1.1636000e-02  -1.3745900e-02
  -1.0865500e-01  -1.8408900e-02  -5.5560100e-03
  -1.1801900e-01  -2.4014000e-02  -8.7609400e-04
  -1.1918900e-01  -3.1487600e-02   2.6338500e-03
  -1.2223200e-01  -2.9385600e-02   8.4837400e-03
  -1.2035900e-01  -3.8026900e-02   1.9949500e-02
  -1.1872100e-01  -4.2697800e-02   2.6969400e-02
  -1.1544400e-01  -5.3441000e-02   3.3989300e-02
  -1.0842100e-01  -5.5309400e-02   3.3287300e-02
  -1.1005900e-01  -6.3483500e-02   2.5097500e-02
  -1.0467500e-01  -6.5819000e-02   1.9247600e-02
  -1.0725000e-01  -7.1891200e-02   2.0183500e-02
  -1.0771900e-01  -7.6095100e-02   2.3459500e-02
  -9.5545900e-02  -8.4736300e-02   1.9949500e-02
  -9.1332300e-02  -1.0038400e-01   1.1291700e-02
  -7.5648300e-02  -1.0412100e-01   3.3358300e-03
  -7.0966500e-02  -1.0669000e-01   1.6978600e-03
  -7.7989200e-02  -1.1790000e-01   4.7398100e-03
  -7.3775600e-02  -1.2023500e-01   7.0797700e-03
  -7.7286900e-02  -1.1603200e-01   8.4837400e-03
  -6.8859700e-02  -1.3775200e-01   9.8877200e-03
  -6.0900600e-02  -1.3191300e-01   3.5698300e-03
  -5.6452900e-02  -1.4289000e-01   1.9318600e-03
  -4.5684800e-02  -1.2537400e-01   2.3998500e-03
  -4.5216600e-02  -1.2443900e-01   4.9738100e-03
  -3.6555300e-02  -1.4078800e-01   4.7398100e-03
  -2.2744000e-02  -1.2000200e-01  -5.7900100e-03
  -1.0337300e-02  -1.4032100e-01  -6.7259900e-03
   5.3467300e-03  -1.3027800e-01  -8.7609400e-04
   1.3071700e-02  -1.3658400e-01   7.0797700e-03
   1.6348900e-02  -1.3728400e-01   3.8038300e-03
   2.6648900e-02  -1.2560700e-01  -2.0460700e-03
   3.1564800e-02  -1.1766600e-01   5.2788200e-04
   3.7885200e-02  -1.1229500e-01  -3.2160500e-03
   4.6546500e-02  -1.1509700e-01  -1.0937900e-02
   5.2164700e-02  -1.0388700e-01  -1.6787800e-02
   6.1528300e-02  -1.2280500e-01  -1.8425800e-02
   6.1294200e-02  -1.1042700e-01  -1.7255800e-02
   6.1294200e-02  -9.9449800e-02  -1.6787800e-02
   6.9253200e-02  -9.3844700e-02  -1.3277900e-02
   7.5807700e-02  -7.2124800e-02  -1.2107900e-02
   8.7746300e-02  -6.5118400e-02  -9.5339400e-03
   9.8046200e-02  -5.0404900e-02  -5.0880200e-03
   1.0343000e-01  -6.0213900e-02  -4.3860300e-03
   1.0319600e-01  -6.4184200e-02  -4.6200300e-03
   9.9450800e-02  -5.9746800e-02  -6.0240000e-03
   1.0226000e-01  -5.9513200e-02  -5.5560100e-03
   9.6875800e-02  -3.8494000e-02  -8.8319600e-03
   9.5237200e-02  -3.2655300e-02  -1.0469900e-02
   8.6809900e-02  -1.9343100e-02  -1.0703900e-02
   7.9787200e-02  -1.2570200e-02  -9.2999500e-03
   8.7746300e-02  -2.9385600e-02  -7.8959700e-03
   9.2428100e-02  -1.8408900e-02  -1.2575900e-02
   1.0928300e-01  -2.7984300e-02  -1.1639900e-02
   9.9216700e-02  -1.5372800e-02  -2.0460700e-03
   8.1894100e-02   5.6464500e-03   8.4837400e-03
   7.1360000e-02  -8.9287600e-04   1.5503600e-02
   4.5610200e-02   3.1570200e-02   1.9013600e-02
   4.5376100e-02   1.8958600e-02   1.7843600e-02
   4.0460200e-02   1.3820600e-02   1.2929700e-02
   4.4205600e-02   2.9701800e-02   8.0157500e-03
   5.9187400e-02   1.5922500e-02   1.6978600e-03
   4.1396500e-02   4.5349500e-02   1.4638700e-03
   3.5076100e-02   6.7770000e-02   1.2929700e-02
   1.3305800e-02   6.1931300e-02   1.8779600e-02
  -2.1807700e-02   8.1549300e-02   1.8779600e-02
  -1.8998600e-02   7.1039700e-02   1.9481600e-02
  -3.7023500e-02   5.7493900e-02   1.5269600e-02
  -4.1471200e-02   7.7111900e-02   5.4418000e-03
  -3.4682600e-02   8.0848600e-02   2.1658500e-03
  -6.2305200e-02   1.0443700e-01   8.9517400e-03
  -6.7689200e-02   9.9999500e-02   1.7609600e-02
  -8.1500500e-02   9.4394400e-02   1.4801600e-02
  -8.4309600e-02   8.8088600e-02   1.9318600e-03
  -7.7755100e-02   7.7111900e-02   2.9388600e-04
  -9.1332300e-02   9.7897600e-02   1.9318600e-03
  -8.6884600e-02   8.7388000e-02   6.1437900e-03
  -1.0748400e-01   1.0140100e-01   1.1291700e-02
  -1.1263400e-01   1.0653900e-01   1.3865700e-02
  -1.0163200e-01   1.1074300e-01   1.7375600e-02
  -1.1193200e-01   1.0093400e-01   1.7609600e-02
  -1.0490900e-01   9.0424100e-02   1.4333600e-02
  -1.2035900e-01   1.1377900e-01   1.6673600e-02
  -1.4213000e-01   9.2058900e-02   2.7905400e-02
  -1.5828200e-01   1.0560500e-01   2.1119500e-02
  -1.7326400e-01   9.1358300e-02   1.5971600e-02
  -1.6273000e-01   7.3608700e-02   1.3397700e-02
  -1.5360000e-01   8.8088600e-02   1.2227700e-02
  -1.4915200e-01   7.7812500e-02   1.4099600e-02
  -1.5547300e-01   9.7664000e-02   1.1291700e-02
  -1.7303000e-01   8.2950600e-02   2.3225500e-02
  -1.8122300e-01   6.6368700e-02   2.4161500e-02
  -1.8098900e-01   7.0339000e-02   2.1821500e-02
  -1.7560500e-01   4.6517200e-02   2.2757500e-02
  -1.6694300e-01   6.8003500e-02   2.4161500e-02
  -1.6436800e-01   6.0763600e-02   2.5331500e-02
  -1.6858200e-01   4.3014000e-02   1.7375600e-02
  -1.7794500e-01   4.3247500e-02   1.4099600e-02
  -1.8098900e-01   2.5030900e-02   1.3631700e-02
  -1.7958400e-01   4.2546900e-02   1.5035600e-02
  -1.8122300e-01   2.5731500e-02   1.3163700e-02
  -1.7092300e-01   3.3438600e-02   8.2497500e-03
  -1.7209300e-01   3.9744300e-02   6.6117800e-03
  -1.6951800e-01   2.2461800e-02   4.5058100e-03
  -1.6530500e-01   4.6750700e-02   1.4638700e-03
  -1.7373200e-01   3.7175300e-02  -2.5140700e-03
  -1.5523900e-01   2.5264400e-02  -4.3860300e-03
  -1.5383400e-01   1.9192200e-02   3.8038300e-03
  -1.5477100e-01   3.3109700e-03   2.3998500e-03
  -1.3534100e-01   7.7483700e-03  -1.1405900e-02
  -1.4142700e-01   1.5689000e-02  -1.7255800e-02
  -1.4072500e-01   2.2228300e-02  -2.2637700e-02
  -1.4002300e-01   3.2037300e-02  -2.2637700e-02
  -1.4610900e-01   3.6007600e-02  -1.9127800e-02
  -1.2246600e-01   1.1018000e-02  -1.8893800e-02
  -1.1614600e-01  -6.7315600e-03  -2.2169700e-02
  -1.1029400e-01  -4.8631800e-03  -3.0359600e-02
  -9.5311800e-02  -4.6296300e-03  -3.1295600e-02
  -1.1146400e-01   1.4988300e-02  -2.1935700e-02
  -1.0256900e-01   7.2812800e-03  -1.8191800e-02
  -9.6014100e-02   1.2185800e-02  -2.2169700e-02
  -8.6884600e-02   1.4521200e-02  -2.1935700e-02
  -6.2539300e-02   2.6103300e-03  -1.7957800e-02
  -6.3007400e-02   1.3353500e-02  -2.2169700e-02
  -5.7389300e-02  -1.2803800e-02  -2.0765800e-02
  -6.5114300e-02   4.2451600e-03  -8.5979600e-03
  -7.0030100e-02   9.3832000e-03  -1.7410600e-04
  -5.6218800e-02  -6.9651000e-03   3.3358300e-03
  -4.3343900e-02   1.0784500e-02   4.9738100e-03
  -1.9232700e-02  -3.2283500e-03   9.4197300e-03
   1.9676200e-04   3.7780700e-03   1.0121700e-02
   1.8221700e-02   1.2185800e-02   6.3777800e-03
   3.3671600e-02   1.7557400e-02   2.3998500e-03
   4.4439700e-02   2.5731500e-02   2.6338500e-03
   6.0123700e-02   2.6198600e-02   2.1658500e-03
   7.8148600e-02   3.5306900e-02  -1.8120800e-03
   1.0226000e-01   2.3396000e-02  -2.2800700e-03
   1.1817800e-01   2.3396000e-02  -3.4500500e-03
   1.3269200e-01   3.8109500e-02  -2.7480600e-03
   1.4837600e-01   2.2461800e-02  -4.8540200e-03
   1.5820700e-01   3.0869500e-02  -2.2800700e-03
   1.7342300e-01   5.6793300e-02   2.9388600e-04
   1.8348900e-01   4.2313400e-02   2.6338500e-03
   1.9870500e-01   5.4691400e-02   4.9738100e-03
   2.1790000e-01   6.9171300e-02  -1.8120800e-03
   2.2679600e-01   6.0530000e-02   5.9097900e-03
   2.5067300e-01   7.7111900e-02   8.9517400e-03
   2.7174100e-01   6.9404800e-02   1.4638700e-03
   2.8321100e-01   6.6135200e-02   4.7398100e-03
   3.1200400e-01   7.5243500e-02   1.4801600e-02
   3.2253800e-01   5.7727500e-02   1.9715600e-02
   3.2815600e-01   6.2164900e-02   1.2695700e-02
   3.4454300e-01   5.6092600e-02   1.7375600e-02
   3.4290400e-01   6.4033200e-02   2.4629500e-02
   3.5507700e-01   6.5201000e-02   2.8607400e-02
   3.6584500e-01   4.3481100e-02   2.6501400e-02
   3.6631300e-01   5.3290100e-02   2.1821500e-02
   3.8316700e-01   4.1145600e-02   2.6501400e-02
   3.7965600e-01   4.0211400e-02   2.2055500e-02
   3.7333600e-01   4.6283700e-02   2.1353500e-02
   3.7661300e-01   4.3481100e-02   1.9715600e-02
   3.6444000e-01   4.4882400e-02   2.1587500e-02
   3.7029300e-01   2.7132800e-02   2.2991500e-02
   3.7427200e-01   8.9161100e-03   1.3865700e-02
   3.7380400e-01   1.1485100e-02   1.7843600e-02
   3.8761500e-01   1.2185800e-02   2.3225500e-02
   3.7286800e-01   7.7483700e-03   1.9715600e-02
   3.6280200e-01   1.9892800e-02   1.4333600e-02
   3.4969300e-01   1.6856700e-02   1.3631700e-02
   3.2090000e-01   1.4521200e-02   9.8877200e-03
   3.2862500e-01  -4.2578200e-04   4.7398100e-03
   3.2698600e-01  -4.8631800e-03   3.5698300e-03
   3.3002900e-01   3.5445200e-03   4.7398100e-03
   3.3845600e-01   1.2185800e-02   8.4837400e-03
   3.1598400e-01   2.1761200e-02   8.4837400e-03
   3.0357700e-01   9.6167500e-03   1.2929700e-02
   2.7712500e-01   1.8258000e-02   2.5565500e-02
   2.5231100e-01   3.0774300e-03   3.0947400e-02
   2.5043900e-01  -1.0001200e-02   2.9309400e-02
   2.3381800e-01  -5.0967300e-03   3.0947400e-02
   2.2585900e-01  -1.3504400e-02   3.8435200e-02
   2.1251600e-01  -1.9109600e-02   4.3115100e-02
   1.8700000e-01  -1.3971500e-02   3.0713400e-02
   1.6991200e-01  -1.7474700e-02   2.2757500e-02
   1.4767300e-01  -1.8408900e-02   2.2991500e-02
   1.2590300e-01  -1.3504400e-02   1.9715600e-02
   9.6173500e-02  -2.1211500e-02   1.9949500e-02
   7.4169100e-02  -1.9343100e-02   2.8139400e-02
   5.6612400e-02  -2.5648900e-02   4.1243200e-02
   2.9926100e-02  -1.8876000e-02   3.5159300e-02
   1.9158000e-02  -2.3079900e-02   2.5331500e-02
   4.3085200e-04  -2.7050200e-02   2.9543400e-02
  -1.7828100e-02  -3.3823000e-02   4.0307200e-02
  -4.5918900e-02  -4.7835900e-02   4.3349100e-02
  -8.8757300e-02  -4.2697800e-02   3.5393300e-02
  -1.1895500e-01  -4.6901700e-02   2.9075400e-02
  -1.4634300e-01  -5.6477100e-02   3.0245400e-02
  -1.6553900e-01  -7.0723500e-02   3.0947400e-02
  -1.8122300e-01  -6.6052500e-02   2.3927500e-02
  -1.9386400e-01  -6.2549300e-02   2.1587500e-02
  -2.0627000e-01  -6.8855100e-02   2.5097500e-02
  -2.3459500e-01  -6.3717100e-02   2.3225500e-02
  -2.6549500e-01  -8.5203400e-02   2.0651500e-02
  -2.9147900e-01  -1.0225200e-01   2.1353500e-02
  -3.2518800e-01  -9.6413700e-02   2.1821500e-02
  -3.3595600e-01  -1.0271900e-01   1.7609600e-02
  -3.4063800e-01  -1.0739000e-01   1.9481600e-02
  -3.5608800e-01  -1.0295300e-01   2.4395500e-02
  -3.5866300e-01  -1.2537400e-01   1.3865700e-02
  -3.7926300e-01  -1.3261300e-01   7.5477600e-03
  -3.9845800e-01  -1.2817600e-01   6.6117800e-03
  -4.1484400e-01  -1.4195500e-01   1.0355700e-02
  -4.3848700e-01  -1.3144600e-01   1.1993700e-02
  -4.4691400e-01  -1.3915300e-01   6.8457700e-03
  -4.5604400e-01  -1.3821900e-01   1.0823700e-02
  -4.5791700e-01  -1.4475800e-01   7.7817600e-03
  -4.4995800e-01  -1.4592600e-01  -1.8120800e-03
  -4.4855300e-01  -1.4265600e-01  -5.7900100e-03
  -4.4410500e-01  -1.5036300e-01  -2.0460700e-03
  -4.4457400e-01  -1.4966200e-01  -3.2160500e-03
  -4.4246700e-01  -1.8049100e-01  -1.0001900e-02
  -4.3263500e-01  -1.6974700e-01  -1.3979900e-02
  -4.3310300e-01  -1.6601100e-01  -1.6787800e-02
  -4.1344000e-01  -1.8656300e-01  -1.1639900e-02
  -3.9986200e-01  -1.8632900e-01  -1.1405900e-02
  -3.9003100e-01  -1.8656300e-01  -1.4681900e-02
  -3.7036700e-01  -1.7862200e-01  -1.4213900e-02
  -3.6498300e-01  -1.8189200e-01  -1.7489800e-02
  -3.5585400e-01  -1.7278400e-01  -1.9829800e-02
  -3.5257600e-01  -1.6671100e-01  -1.8425800e-02
  -3.3946700e-01  -1.7838900e-01  -1.6553800e-02
  -3.2448600e-01  -1.7184900e-01  -2.3807700e-02
  -3.0552400e-01  -1.7184900e-01  -3.0827600e-02
  -2.7907200e-01  -1.6157300e-01  -3.1295600e-02
  -2.6455900e-01  -1.6998100e-01  -3.1295600e-02
  -2.4887500e-01  -1.7068200e-01  -2.9657600e-02
  -2.3436100e-01  -1.5760300e-01  -3.5039500e-02
  -2.1891100e-01  -1.7768800e-01  -3.9485400e-02
  -1.9690700e-01  -1.5970500e-01  -4.1123400e-02
  -1.6834800e-01  -1.6227400e-01  -4.4633300e-02
  -1.4072500e-01  -1.5970500e-01  -4.8143300e-02
  -1.1755000e-01  -1.4756100e-01  -5.2589200e-02
  -1.0116400e-01  -1.4172200e-01  -5.8205100e-02
  -8.0798300e-02  -1.2537400e-01  -6.5459000e-02
  -6.4412000e-02  -1.1346300e-01  -6.7564900e-02
  -5.2473400e-02  -9.9683300e-02  -6.6629000e-02
  -3.3512100e-02  -1.0342000e-01  -6.6161000e-02
  -2.1573600e-02  -7.7262800e-02  -7.1776900e-02
  -5.6554800e-03  -7.1657700e-02  -7.2946800e-02
   8.8580800e-03  -6.1381600e-02  -6.1481000e-02
   2.7585300e-02  -5.2973900e-02  -5.5631100e-02
   5.0292000e-02  -4.8303000e-02  -5.2823200e-02
   6.6444100e-02  -2.0277300e-02  -5.0717200e-02
   9.6641700e-02  -1.7708300e-02  -4.9547300e-02
   1.1138900e-01  -5.5638200e-03  -5.1887200e-02
   1.1373000e-01   1.3353500e-02  -5.5631100e-02
   1.2356200e-01   1.8258000e-02  -5.3993200e-02
   1.2520100e-01   2.7366300e-02  -5.3993200e-02
   1.3831000e-01   4.1379200e-02  -5.5631100e-02
   1.5305700e-01   5.2122300e-02  -5.5397200e-02
   1.6757100e-01   6.5668100e-02  -5.3291200e-02
   1.8793700e-01   7.8513200e-02  -5.3525200e-02
   1.9285300e-01   9.5795700e-02  -5.1185200e-02
   1.9683200e-01   1.0723900e-01  -4.8143300e-02
   2.0783400e-01   1.1564700e-01  -4.5335300e-02
   2.0713200e-01   1.1307800e-01  -4.0889400e-02
   2.0853700e-01   1.1284500e-01  -3.8315400e-02
   2.2024100e-01   1.1447900e-01  -3.3635500e-02
   2.1907100e-01   1.3106100e-01  -3.4805500e-02
   2.1766600e-01   1.4857700e-01  -3.8315400e-02
   2.2047500e-01   1.3736700e-01  -4.0421400e-02
   2.1649600e-01   1.4997900e-01  -4.0187400e-02
   2.2445500e-01   1.4133700e-01  -3.1763600e-02
   2.3077500e-01   1.3409700e-01  -2.4743700e-02
   2.2843400e-01   1.6329100e-01  -2.7785600e-02
   2.3335000e-01   1.6142200e-01  -2.7317600e-02
   2.2983900e-01   1.6072200e-01  -1.5383800e-02
   2.1743200e-01   1.6282400e-01  -5.0880200e-03
   2.0010900e-01   1.5488300e-01   5.9890300e-05
   1.9472500e-01   1.7169800e-01  -1.5780800e-03
   2.0315300e-01   1.8127400e-01  -3.4500500e-03
   2.1040900e-01   1.8174100e-01   5.2788200e-04
   2.2305000e-01   1.9365200e-01   1.6978600e-03
   2.2890200e-01   1.9949100e-01   1.0121700e-02
   2.1930500e-01   1.7987300e-01   2.1821500e-02
   2.0104600e-01   1.9155000e-01   2.3225500e-02
   1.8325500e-01   1.9622100e-01   2.3459500e-02
   1.7693400e-01   1.8921500e-01   2.5565500e-02
   1.8231900e-01   2.0486200e-01   2.6501400e-02
   1.9425700e-01   1.9248400e-01   2.4395500e-02
   1.9870500e-01   1.8804700e-01   2.6735400e-02
   1.8419100e-01   1.7707000e-01   3.0011400e-02
   1.6991200e-01   1.6842900e-01   2.9075400e-02
   1.4931200e-01   1.5535000e-01   2.9075400e-02
   1.3667100e-01   1.5908700e-01   2.3225500e-02
   1.3807600e-01   1.6048800e-01   1.9013600e-02
   1.2894600e-01   1.6118900e-01   2.2055500e-02
   1.3011700e-01   1.6749500e-01   2.6735400e-02
   1.1747600e-01   1.5581700e-01   2.7671400e-02
   1.0296200e-01   1.5488300e-01   2.2289500e-02
   1.0202600e-01   1.3129500e-01   2.2055500e-02
   9.0555400e-02   1.4507400e-01   2.0417500e-02
   9.5003100e-02   1.4834400e-01   1.7141600e-02
   8.0957700e-02   1.4390600e-01   1.9013600e-02
   6.1762300e-02   1.6329100e-01   2.6735400e-02
   4.8185100e-02   1.3713400e-01   3.5627300e-02
   1.6348900e-02   1.1821600e-01   2.7203400e-02
   1.6348900e-02   1.2382100e-01   2.3225500e-02
   1.4476200e-02   1.2195300e-01   2.4863500e-02
   6.5171800e-03   1.2148600e-01   2.8841400e-02
