**************************************************************************************
  	RED ACELEROGRÁFICA DE LA UNIVERSIDAD AUTONOMA METROPOLITANA (RA-UAM)
	   UNIDAD AZCAPOTZALCO. DIVISIÓN CBI-DEPARTAMENTO DE MATERIALES
     Av. San Pablo 420, Col. Nueva el Rosario, Azcapotzalco, C.P. 02128, Ciudad de México
		Área de Estructuras. e-mail: agb@azc.uam.mx
**************************************************************************************
ARCHIVO ESTANDAR DE ACELERACION:
VERSION DEL FORMATO                    : 2.0
NOMBRE DEL ARCHIVO                     : RIDA202208.241
FECHA Y HORA DE CREACION               : 11:30 a. m. 29/08/2022
REF. CATALOGO ACELEROGRAMAS, SMIS 1999 : REGISTRO NO.      /PAG.    


================================================================================
DATOS DE LA ESTACION:
NOMBRE DE LA ESTACION                  : UAM-AZCAPOTZALCO.
CLAVE DE LA ESTACION                   : RIDA
LOCALIZACION DE LA ESTACION            : AV. SAN PABLO 420, COL. NUEVA EL ROSARIO,
                                       : AZCAPOTZALCO, C.P.02128, CIUDAD DE MEXICO. 
                                       :
                                       : 
                                       : 
COORDENADAS DE LA ESTACION             : 19.498596 LAT. N
                                       : 99.195595 LONG. W
ALTITUD (msnm)                         : 2546
TIPO DE SUELO                          : ZONA DE TRANSICION
                                       : 
                                       : 
INSTITUCION RESPONSABLE                : UNIVERSIDAD AUTONOMA METROPOLITANA
                                       : 

================================================================================
DATOS DEL ACELEROGRAFO: 
MODELO DEL ACELEROGRAFO                : ETNA2 KINEMETRICS
NUMERO DE SERIE DEL ACELEROGRAFO       : 103732
NUMERO DE CANALES                      : 3
ORIENTACION C1-C6 (rumbo;orientacion)  : /N90E/N00E/V
ORIENTACION C7-C12 (rumbo;orientacion) : 
VEL. DE MUESTREO, C1-C6 (muestras/s)   : /200/200/200
VEL. DE MUESTREO, C7-C12 (muestras/s)  : 
ESC. COMPLETA DE SENSORES, C1-C6, (g)  : /2/2/2
ESC. COMPLETA DE SENSORES, C7-C12 (g)  : 
FREC. NAT. DE SENSORES, C1-C6, (Hz)    : /198/212/200   
FREC. NAT. DE SENSORES, C7-C12 (Hz)    : 
AMORTIGUAMIENTO DE SENSORES, C1-C6     : /0.7/0.7/0.7      
AMORTIGUAMIENTO DE SENSORES, C7-C12    : 
INTERVALO DE MUESTREO, C1-C6 (s)       : /0.005/0.005/0.005
INTERVALO DE MUESTREO, C7-C12 (s)      : 
UMBRAL DE DISPARO, C1-C6 (Gal)         : /2/2/2
UMBRAL DE DISPARO, C7-C12 (Gal)        : 
MEMORIA DE PREEVENTO (s)               : 50
TIEMPO DE POSEVENTO (s)                : 60


================================================================================
DATOS DEL SISMO:
FECHA DEL SISMO [GMT]                  : 2022/08/24
HORA EPICENTRO (GMT)                   : 01:26:53
MAGNITUD(ES)                           : /M=4.7
COORDENADAS DEL EPICENTRO              : 16.7300 LAT. N
                                       : -99.7600 LONG. W
PROFUNDIDAD FOCAL (Km)                 : 10.0
FUENTE DE LOS DATOS EPICENTRALES       : SSN
                                       : INSTITUTO DE GEOFISICA, UNAM

================================================================================
DATOS DE ESTE REGISTRO:
HORA DE LA PRIMERA MUESTRA (GMT)       : 01:27:39.000
EXACTITUD DEL TIEMPO (s)               : 
DURACION DEL REGISTRO (s), C1-C6       : /127/127/127
DURACION DEL REGISTRO (s), C7-C12      : 
NUM. TOTAL DE MUESTRAS, C1-C6          : /25400/25400/25400
NUM. TOTAL DE MUESTRAS, C7-C12         : 
ACEL. MAX.(Gal), C1-C6                 : /-0.994/2.121/-0.514
ACEL. MAX., C1-C6, EN LA MUESTRA       : /1644/1660/1666
ACEL. MAX.(Gal), C7-C12                : 
ACEL. MAX., C7-C12,EN LA MUESTRA       : 
UNIDADES DE LOS DATOS                  : Gal (cm/s/s)
FACTOR DE DECIMACION                   : 1
FORMATO DATOS (FORTRAN,16 campos/dato) : 3E16.7


================================================================================
CALIDAD DEL ACELEROGRAMA:
REGISTRO DIGITAL COMPLETO CON TIEMPO ABSOLUTO CORRECTO


================================================================================
COMENTARIOS:














================================================================================
DATOS DE ACELERACION:
---------+---------+---------+---------+---------+---------+---------+---------+
   CANAL-1   	     CANAL-2          CANAL-3
     N90E             N00E              V
---------+---------+---------+---------+---------+---------+---------+---------+ 
[...]
   6.9258700e-02   4.8631800e-02  -4.3433000e-02
   6.4576900e-02   4.7697600e-02  -2.2139400e-02
   4.8190600e-02   4.7931100e-02  -9.5035800e-03
   3.5549800e-02   3.1816400e-02  -6.4616300e-03
   1.8929400e-02   3.5319600e-02  -7.3976200e-03
   1.7993100e-02   2.9480900e-02   4.7701700e-03
   1.9163500e-02   4.4895000e-02   2.6063800e-02
   1.8929400e-02   4.0924700e-02   3.5189600e-02
   2.2674900e-02   3.5553100e-02   3.5657600e-02
   7.6931400e-03   4.8865300e-02   3.4955700e-02
   2.0226600e-04   8.4616500e-03   3.4721700e-02
  -2.5313500e-02   2.9714400e-02   4.1273500e-02
  -4.9424700e-02   3.3236200e-03   4.0103600e-02
  -4.9658800e-02  -6.0182700e-03   4.0103600e-02
  -5.0829300e-02   9.1623000e-03   3.4253700e-02
  -4.1231600e-02  -1.4893100e-02   1.8107900e-02
  -3.8890700e-02   7.2939200e-03   1.4364000e-02
  -4.4742900e-02  -2.5150600e-03   2.1149900e-02
  -4.7552000e-02  -2.9821600e-03   3.4487700e-02
  -5.1063400e-02   5.6590900e-03   3.7529600e-02
  -4.8254300e-02  -1.0689200e-02   4.6421500e-02
  -3.7720300e-02   5.1919900e-03   5.0165400e-02
  -2.3909000e-02  -1.4426000e-02   5.0165400e-02
  -7.2886000e-03  -1.7929200e-02   6.4907100e-02
  -1.2022700e-03   4.2578000e-03   6.5843100e-02
   2.5431600e-03  -1.5360200e-02   7.2629000e-02
   4.8840600e-03   9.8814400e-04   7.2863000e-02
  -1.3140800e-02   2.8750200e-04   6.3035200e-02
  -8.4590500e-03  -5.0840800e-03   6.2801200e-02
   7.2249600e-03   1.4552400e-03   5.4845300e-02
   1.7759000e-02  -8.8023400e-04   5.3441300e-02
   3.4379400e-02  -6.4668700e-04   6.4907100e-02
   3.7422500e-02   5.3954900e-05   6.9587100e-02
   3.9061200e-02   4.2578000e-03   5.4143300e-02
   3.1570300e-02   5.2104900e-04   4.4081500e-02
   3.3208900e-02   1.4767400e-02   5.4377300e-02
   3.3443000e-02   3.1816400e-02   6.0929200e-02
   2.6420300e-02   3.9990500e-02   6.2801200e-02
   3.4613400e-02   3.3684700e-02   5.5313300e-02
   2.4313500e-02   2.1773800e-02   3.8699600e-02
   1.8461300e-02  -9.9885700e-03   2.4191800e-02
   2.7772500e-03  -2.3067200e-02   2.5127800e-02
  -1.7822600e-02  -4.4787100e-02   3.7061600e-02
  -8.2249600e-03  -6.9543100e-02   3.7763600e-02
  -7.2886000e-03  -4.8056800e-02   3.3083700e-02
   1.3077200e-02  -6.6507000e-02   2.9807700e-02
   2.9229400e-02  -5.7632200e-02   3.3785700e-02
   2.3377100e-02  -6.0201200e-02   4.1273500e-02
   3.2272600e-02  -7.2112100e-02   4.4081500e-02
   2.9229400e-02  -6.8842500e-02   4.1975500e-02
   2.4781700e-02  -9.1029400e-02   4.1975500e-02
   2.5015800e-02  -5.7398700e-02   4.2911500e-02
   1.4481700e-02  -4.2685200e-02   4.2677500e-02
   1.0034000e-02  -1.9330500e-02   4.8761400e-02
   1.1204500e-02   7.5274600e-03   5.0633400e-02
   1.2140800e-02  -6.2518200e-03   4.0805600e-02
   1.3779500e-02   6.5932800e-03   2.3255900e-02
   2.0334000e-02  -1.5827300e-02   9.9180800e-03
   2.0568100e-02  -1.7929200e-02   5.7061600e-03
   1.1438600e-02  -1.8396300e-02  -1.5477200e-03
   9.0976700e-03  -3.2409100e-02  -2.2373400e-02
  -7.9908700e-03   9.8814400e-04  -4.3199000e-02
  -1.8993100e-02  -2.5150600e-03  -5.1154900e-02
  -3.2804400e-02   3.0181500e-02  -5.7238800e-02
  -4.1699800e-02   3.2283500e-02  -5.7472800e-02
  -4.2636100e-02   9.6293900e-03  -5.4196800e-02
  -5.3404300e-02   1.9223300e-03  -5.4430800e-02
  -4.5679300e-02  -5.1793500e-02  -5.3494800e-02
  -5.7617900e-02  -5.4829600e-02  -6.2152700e-02
  -5.3170200e-02  -6.4872200e-02  -6.6598600e-02
  -4.4508900e-02  -4.7122600e-02  -5.2792800e-02
  -5.4106500e-02  -1.8629800e-02  -3.5711100e-02
  -4.7552000e-02  -9.2879300e-03  -3.1967200e-02
  -4.6147500e-02   1.7102900e-02  -4.6708900e-02
  -2.5781700e-02   2.6229700e-03  -5.6536800e-02
  -1.2438600e-02  -1.1156300e-02  -4.9048900e-02
  -8.6931400e-03  -2.2833700e-02  -3.5711100e-02
  -6.5863300e-03  -1.9096900e-02  -2.2841300e-02
  -2.5079400e-02   5.8926300e-03  -2.7755300e-02
  -2.8824900e-02   3.2984100e-02  -4.5773000e-02
  -3.1165700e-02   5.9374900e-02  -5.4664800e-02
  -3.5613500e-02   6.3111700e-02  -5.0920900e-02
  -3.5379400e-02   4.1158300e-02  -3.3371200e-02
  -4.9190700e-02   1.0797100e-02  -1.8395400e-02
  -5.5511100e-02  -4.6169900e-03  -1.2311500e-02
  -5.6915600e-02  -2.1665900e-02  -5.2916500e-03
  -6.5811000e-02  -8.5872900e-03  -8.4573000e-04
  -7.0961000e-02   3.2517000e-02  -1.1609500e-02
  -7.6579100e-02   6.1476900e-02  -2.0735400e-02
  -7.1663300e-02   7.4088400e-02  -1.1375500e-02
  -6.7683700e-02   5.1434300e-02   1.4942300e-03
  -4.5913400e-02   7.9945600e-03  -3.7773800e-04
  -3.3090800e-03  -3.3343300e-02  -1.6289500e-02
   7.9272300e-03  -4.3619400e-02  -2.4245300e-02
   1.6068000e-03  -2.7504600e-02  -2.5649300e-02
  -2.4845300e-02  -1.5360200e-02  -2.5415300e-02
  -4.4040700e-02   2.6444800e-02  -2.5181300e-02
  -3.7720300e-02   3.0648600e-02  -2.9627200e-02
  -2.2972600e-02   6.8268200e-03  -2.9627200e-02
   2.0749800e-03  -2.2133000e-02  -4.0157100e-02
   3.4795200e-03  -5.7865700e-02  -6.4258600e-02
   5.3522400e-03  -7.1645000e-02  -7.5958400e-02
   4.4158800e-03  -6.9776700e-02  -7.9936400e-02
   1.1386300e-03  -3.7080000e-02  -8.5084300e-02
   2.4313500e-02  -5.7847200e-03  -9.0232200e-02
   2.7122600e-02   2.9948000e-02  -9.4210100e-02
   2.9463500e-02   6.3597300e-03  -8.7658200e-02
   3.0633900e-02  -2.9821600e-03  -7.7362400e-02
   7.9272300e-03  -2.7037500e-02  -6.4960600e-02
  -6.8204200e-03  -6.7207600e-02  -4.9048900e-02
  -2.6718000e-02  -4.1283900e-02  -3.3839200e-02
  -3.9827100e-02  -3.7780700e-02  -2.6585300e-02
  -3.3740700e-02  -3.4043900e-02  -8.3336000e-03
  -1.8290800e-02  -1.5360200e-02   3.4019700e-02
   2.3090700e-03  -1.5593700e-02   5.2505300e-02
   8.6294900e-03  -3.4978100e-02   5.3441300e-02
  -1.2906800e-02  -2.9139400e-02   5.2271400e-02
  -3.3740700e-02  -2.8205300e-02   5.7185300e-02
  -5.2702000e-02  -2.7271100e-02   7.8010900e-02
  -6.0661000e-02   2.1773800e-02   8.7604700e-02
  -4.6381600e-02   6.5914300e-02   9.3454600e-02
  -4.2636100e-02   7.0118100e-02   9.4390600e-02
  -2.5313500e-02   6.3812300e-02   8.6668800e-02
  -2.2972600e-02   4.6763400e-02   6.4439100e-02
  -2.3674900e-02   1.4300300e-02   4.0805600e-02
  -2.9761200e-02   2.6229700e-03   3.6593600e-02
  -5.9490600e-02   3.2517000e-02   1.4598000e-02
  -5.7383800e-02   4.8398200e-02  -1.0907600e-02
  -6.0661000e-02   6.8249700e-02  -2.2139400e-02
  -3.9593000e-02   6.8016200e-02  -2.5415300e-02
  -1.7120400e-02   4.3260200e-02  -1.6991500e-02
  -1.0565900e-02   1.2899100e-02  -2.4245300e-02
   2.4313500e-02  -3.5678800e-02  -3.7349100e-02
   2.4547600e-02  -2.6103300e-02  -4.8580900e-02
   1.9397600e-02  -3.4492500e-03  -5.8642700e-02
   1.6354500e-02   5.6105300e-02  -5.2558800e-02
   2.0749800e-03   6.1243300e-02  -3.7583100e-02
   1.8461300e-02   3.6954400e-02  -2.2373400e-02
   3.6486200e-02   4.7249000e-03  -2.3309300e-02
   5.9895100e-02  -8.4723700e-02  -2.8691200e-02
   6.8322400e-02  -9.1730100e-02  -1.4417500e-02
   4.9595200e-02  -1.0177300e-01  -4.1216700e-03
   4.0231600e-02  -7.6316000e-02   2.3723800e-02
   2.7772500e-03   2.6211200e-02   7.4033000e-02
  -1.5481700e-02   9.8377300e-02   6.6311100e-02
  -6.8204200e-03   1.2757100e-01  -6.9296200e-03
  -4.7136200e-03   8.7400600e-02  -5.1622900e-02
   2.5484000e-02  -8.3537400e-03  -5.7596400e-03
   3.1336200e-02  -1.0784500e-01   8.4328800e-02
   2.1270300e-02  -1.9355700e-01   1.1638600e-01
  -2.1568100e-02  -1.5455400e-01   3.1913700e-02
  -1.1052200e-01  -4.3152300e-02  -8.4850300e-02
  -1.4516700e-01   1.2943900e-01  -1.0637800e-01
  -1.2105600e-01   3.3052300e-01  -2.1905400e-02
  -3.0229400e-02   3.6065100e-01   7.4267000e-02
   1.1724700e-01   2.1375000e-01   1.0304800e-01
   2.2703500e-01  -1.1508500e-01   1.0375000e-01
   2.2680100e-01  -4.3551200e-01   1.1872600e-01
   3.2038500e-02  -5.1585200e-01   6.8417100e-02
  -2.5916900e-01  -3.3532000e-01  -8.7892200e-02
  -4.4597300e-01   5.7506600e-02  -1.8406500e-01
  -4.3660900e-01   4.9283900e-01  -7.8298400e-02
  -1.5944700e-01   6.3133200e-01   1.4189200e-01
   2.3382400e-01   3.4290100e-01   2.5444400e-01
   4.8827900e-01  -1.9706000e-01   1.3557400e-01
   4.6978600e-01  -6.9311400e-01  -5.7004800e-02
   1.6219200e-01  -7.7812500e-01  -6.8002600e-02
  -2.4395300e-01  -3.4559600e-01   9.3922600e-02
  -5.4054500e-01   3.1534300e-01   1.9079700e-01
  -5.6395400e-01   7.1587600e-01   1.3721200e-01
  -2.9568700e-01   6.0003700e-01   5.7185300e-02
   7.6983700e-02   5.0266600e-02   4.4315500e-02
   4.2999100e-01  -5.2099000e-01   7.8712900e-02
   6.1258100e-01  -7.0689300e-01   8.8306700e-02
   4.9389700e-01  -4.8806000e-01   9.1114700e-02
   1.2122700e-01  -7.6316000e-02   1.7862900e-01
  -3.7176600e-01   2.8591600e-01   2.2098200e-01
  -6.8778700e-01   4.3608700e-01   6.5141100e-02
  -6.5384400e-01   3.9194600e-01  -1.3492500e-01
  -2.9404800e-01   1.8642500e-01  -1.4311500e-01
   2.3405800e-01  -1.4778100e-01   1.6938000e-02
   6.3458500e-01  -4.3621200e-01   1.1123800e-01
   7.6333500e-01  -5.6489700e-01   4.2677500e-02
   4.9506800e-01  -4.2009700e-01  -8.9296200e-02
  -7.4238200e-02  -5.8099300e-02  -1.4943300e-01
  -6.0609000e-01   3.7746600e-01  -1.3726500e-01
  -8.1840900e-01   7.0349800e-01  -6.6832600e-02
  -5.7753100e-01   7.2685300e-01   5.7653300e-02
  -6.5108800e-02   3.7653200e-01   1.3136200e-01
   4.9179100e-01  -2.8720900e-01   8.3626800e-02
   8.3800900e-01  -8.3721300e-01  -5.3494800e-02
   7.6216400e-01  -9.5678900e-01  -1.6136700e-01
   3.3050300e-01  -5.5742300e-01  -1.7306700e-01
  -2.8140800e-01   2.0837800e-01  -1.0169800e-01
  -7.5239600e-01   9.5222600e-01  -1.1141600e-02
  -7.8868000e-01   1.2542000e+00   7.2863000e-02
  -4.0547500e-01   7.9878500e-01   1.8962700e-01
   2.0666900e-01  -1.9145500e-01   2.7456800e-01
   7.4531000e-01  -1.1739900e+00   2.1021900e-01
   9.0191600e-01  -1.5500000e+00  -1.1375500e-02
   5.8238300e-01  -1.0240500e+00  -1.9787000e-01
  -1.1450200e-01   1.0094600e-01  -1.8453300e-01
  -7.8985000e-01   1.2189400e+00  -5.7004800e-02
  -9.9374200e-01   1.6654800e+00   6.4673100e-02
  -6.3933100e-01   1.1173400e+00   2.0670900e-01
   8.0026800e-02  -1.0667700e-01   3.6208200e-01
   7.0879200e-01  -1.3388700e+00   3.3891600e-01
   9.1081100e-01  -1.8251200e+00   5.9525200e-02
   5.9408800e-01  -1.2237300e+00  -2.2595000e-01
  -1.2971700e-01   1.7801700e-01  -2.6362300e-01
  -7.5169400e-01   1.5419300e+00  -1.0169800e-01
  -8.7974100e-01   1.9789000e+00   8.7604700e-02
  -4.6399800e-01   1.3270700e+00   2.7035600e-01
   2.1299000e-01  -1.0504200e-01   4.1379500e-01
   6.8046700e-01  -1.4633500e+00   3.5272200e-01
   7.4858700e-01  -1.9213400e+00   3.7061600e-02
   3.7919300e-01  -1.1819300e+00  -3.0644400e-01
  -2.4067600e-01   4.0946200e-01  -3.9044900e-01
  -6.9668300e-01   1.7796800e+00  -2.0255000e-01
  -7.1002600e-01   2.1206600e+00   4.5485500e-02
  -2.3529200e-01   1.2149700e+00   2.2425800e-01
   3.4852800e-01  -3.7432200e-01   2.8579900e-01
   6.2803100e-01  -1.6924600e+00   1.5663400e-01
   4.6978600e-01  -2.0021500e+00  -1.7798100e-01
  -2.0631700e-02  -1.0343300e+00  -5.0487300e-01
  -4.7195700e-01   6.0727700e-01  -5.1376500e-01
  -6.0655800e-01   1.8787100e+00  -2.4420200e-01
  -3.1511700e-01   1.8952900e+00   2.2085900e-02
   2.1228800e-01   6.4627900e-01   1.1240800e-01
   5.7138100e-01  -9.9649200e-01   5.0633400e-02
   4.8617200e-01  -1.9654800e+00  -1.2182200e-01
   1.4247600e-02  -1.6934000e+00  -3.8764100e-01
  -4.7921300e-01  -3.8810100e-01  -4.9457700e-01
  -6.8146700e-01   1.1495700e+00  -2.9380900e-01
  -4.3309800e-01   1.8696000e+00   3.3662000e-03
   1.1748100e-01   1.2677500e+00   1.1264200e-01
   6.1492200e-01  -1.9168800e-01   3.7763600e-02
   6.7578500e-01  -1.4056700e+00  -2.8223300e-02
   2.0947800e-01  -1.6160900e+00  -1.0450600e-01
  -3.9002500e-01  -7.6084300e-01  -1.7353500e-01
  -7.5895100e-01   5.9770100e-01  -6.7534600e-02
  -6.5618500e-01   1.5375000e+00   1.6646100e-01
  -1.1754500e-01   1.3950300e+00   2.4531800e-01
   4.8523600e-01   2.4691300e-01   6.6077100e-02
   7.6848500e-01  -9.4254200e-01  -8.1340300e-02
   4.6697700e-01  -1.2762800e+00  -8.1574300e-02
  -1.6249000e-01  -6.6088500e-01  -6.8704600e-02
  -6.6227100e-01   4.7111900e-01   2.3255900e-02
  -7.5543900e-01   1.2836300e+00   2.2285400e-01
  -3.6895700e-01   1.1647500e+00   2.9211700e-01
   2.3124900e-01   2.3430200e-01   2.0447900e-02
   6.9521400e-01  -8.2857100e-01  -3.0410400e-01
   6.6384600e-01  -1.0738000e+00  -2.9076700e-01
   1.6991700e-01  -4.4205100e-01  -7.5490400e-02
  -3.5561400e-01   4.9797700e-01   9.3688600e-02
  -6.0281300e-01   1.1012300e+00   1.9875300e-01
  -4.5182500e-01   8.6814900e-01   2.4368000e-01
  -5.3638400e-02   2.6911900e-02   4.4315500e-02
   3.3916400e-01  -8.7901800e-01  -3.4318200e-01
   4.6580700e-01  -1.0504400e+00  -4.3303600e-01
   2.1533100e-01  -2.9211400e-01  -1.2790600e-01
  -1.7794000e-01   6.9392300e-01   1.9594500e-01
  -3.9517500e-01   1.1390600e+00   2.8556500e-01
  -3.0551900e-01   6.7594000e-01   2.0811300e-01
  -1.0443600e-01  -2.8417300e-01   3.8933600e-02
   4.5147500e-02  -1.0670200e+00  -2.7204700e-01
   9.7115400e-02  -1.0994900e+00  -4.6509400e-01
  -2.5781700e-02  -2.0289900e-01  -2.5964500e-01
  -1.8191900e-01   9.0224700e-01   1.6950300e-01
  -2.3950600e-01   1.2992800e+00   4.0583900e-01
  -1.0232900e-01   6.4184200e-01   2.7386600e-01
   1.1326800e-01  -5.1702000e-01  -1.4183500e-02
   1.3527200e-01  -1.2753500e+00  -2.6783500e-01
   3.0633900e-02  -1.1275100e+00  -3.5839200e-01
  -1.6272400e-01  -9.5233300e-02  -1.6581300e-01
  -2.7578900e-01   1.0666600e+00   1.9430700e-01
  -1.7232200e-01   1.5017600e+00   4.4819300e-01
   7.3706400e-02   7.6281900e-01   3.9507500e-01
   3.7357500e-01  -6.3519400e-01   1.0726000e-01
   4.0190000e-01  -1.5651800e+00  -1.8359700e-01
   1.6172400e-01  -1.4122100e+00  -3.0621000e-01
  -1.5640400e-01  -2.4844000e-01  -1.4545500e-01
  -3.7949100e-01   1.0683000e+00   1.8541500e-01
  -2.6502100e-01   1.5648200e+00   4.1964500e-01
   5.8022400e-02   8.9173700e-01   3.8829000e-01
   4.1360500e-01  -5.3243400e-01   1.2106600e-01
   5.2573400e-01  -1.5892300e+00  -1.5387900e-01
   2.5419000e-01  -1.5292100e+00  -2.4911500e-01
  -1.2480200e-01  -4.3270900e-01  -1.0497400e-01
  -4.2022300e-01   9.4124900e-01   1.6739700e-01
  -3.6965900e-01   1.5129700e+00   3.3891600e-01
  -8.2249600e-03   9.3260800e-01   2.7620500e-01
   3.5648700e-01  -3.6825000e-01   3.5891600e-02
   4.9249300e-01  -1.4386000e+00  -1.8757500e-01
   2.4904000e-01  -1.4719900e+00  -2.3718200e-01
  -1.7677000e-01  -5.0510900e-01  -7.2682500e-02
  -4.8810900e-01   7.8967700e-01   1.6482300e-01
  -4.4012000e-01   1.3959700e+00   2.4789200e-01
  -4.9892900e-02   9.2069700e-01   1.3814800e-01
   3.4759100e-01  -1.9145500e-01  -5.7472800e-02
   4.6557300e-01  -1.1464300e+00  -2.3297000e-01
   2.2024700e-01  -1.1824000e+00  -2.9310700e-01
  -2.0275300e-01  -3.6848400e-01  -1.6323900e-01
  -5.1830600e-01   7.1984600e-01   1.0913200e-01
  -4.9091800e-01   1.2595700e+00   2.5608200e-01
  -9.0390400e-02   7.9972000e-01   1.0468600e-01
   3.3682300e-01  -1.3587100e-01  -1.6534500e-01
   4.7961800e-01  -8.5356100e-01  -2.7813100e-01
   2.1275600e-01  -8.0288100e-01  -1.9763600e-01
  -2.5238000e-01  -1.0340700e-01  -4.3433000e-02
  -5.2322200e-01   6.6846600e-01   1.6388700e-01
  -4.9232200e-01   1.0206600e+00   3.0732700e-01
  -1.2222700e-01   5.8462300e-01   2.0062500e-01
   3.2254400e-01  -2.8020300e-01  -9.6784100e-02
