**************************************************************************************
  	RED ACELEROGRÁFICA DE LA UNIVERSIDAD AUTONOMA METROPOLITANA (RA-UAM)
	   UNIDAD AZCAPOTZALCO. DIVISIÓN CBI-DEPARTAMENTO DE MATERIALES
     Av. San Pablo 420, Col. Nueva el Rosario, Azcapotzalco, C.P. 02128, Ciudad de México
		Área de Estructuras. e-mail: agb@azc.uam.mx
**************************************************************************************
ARCHIVO ESTANDAR DE ACELERACION:
VERSION DEL FORMATO                    : 2.0
NOMBRE DEL ARCHIVO                     : RIDA202204.061
FECHA Y HORA DE CREACION               : 11:00 a. m. 11/04/2022
REF. CATALOGO ACELEROGRAMAS, SMIS 1999 : REGISTRO NO.      /PAG.    


================================================================================
DATOS DE LA ESTACION:
NOMBRE DE LA ESTACION                  : UAM-AZCAPOTZALCO.
CLAVE DE LA ESTACION                   : RIDA
LOCALIZACION DE LA ESTACION            : AV. SAN PABLO 420, COL. NUEVA EL ROSARIO,
                                       : AZCAPOTZALCO, C.P.02128, CIUDAD DE MEXICO. 
                                       :
                                       : 
                                       : 
COORDENADAS DE LA ESTACION             : 19.498596 LAT. N
                                       : 99.195595 LONG. W
ALTITUD (msnm)                         : 2546
TIPO DE SUELO                          : ZONA DE TRANSICION
                                       : 
                                       : 
INSTITUCION RESPONSABLE                : UNIVERSIDAD AUTONOMA METROPOLITANA
                                       : 

================================================================================
DATOS DEL ACELEROGRAFO: 
MODELO DEL ACELEROGRAFO                : ETNA2 KINEMETRICS
NUMERO DE SERIE DEL ACELEROGRAFO       : 103732
NUMERO DE CANALES                      : 3
ORIENTACION C1-C6 (rumbo;orientacion)  : /N90E/N00E/V
ORIENTACION C7-C12 (rumbo;orientacion) : 
VEL. DE MUESTREO, C1-C6 (muestras/s)   : /200/200/200
VEL. DE MUESTREO, C7-C12 (muestras/s)  : 
ESC. COMPLETA DE SENSORES, C1-C6, (g)  : /2/2/2
ESC. COMPLETA DE SENSORES, C7-C12 (g)  : 
FREC. NAT. DE SENSORES, C1-C6, (Hz)    : /198/212/200   
FREC. NAT. DE SENSORES, C7-C12 (Hz)    : 
AMORTIGUAMIENTO DE SENSORES, C1-C6     : /0.7/0.7/0.7      
AMORTIGUAMIENTO DE SENSORES, C7-C12    : 
INTERVALO DE MUESTREO, C1-C6 (s)       : /0.005/0.005/0.005
INTERVALO DE MUESTREO, C7-C12 (s)      : 
UMBRAL DE DISPARO, C1-C6 (Gal)         : /2/2/2
UMBRAL DE DISPARO, C7-C12 (Gal)        : 
MEMORIA DE PREEVENTO (s)               : 50
TIEMPO DE POSEVENTO (s)                : 60


================================================================================
DATOS DEL SISMO:
FECHA DEL SISMO [GMT]                  : 2022/04/06
HORA EPICENTRO (GMT)                   : 05:20:35
MAGNITUD(ES)                           : /M=4.6
COORDENADAS DEL EPICENTRO              : 16.5400 LAT. N
                                       : -99.2500 LONG. W
PROFUNDIDAD FOCAL (Km)                 : 10.0
FUENTE DE LOS DATOS EPICENTRALES       : SSN
                                       : INSTITUTO DE GEOFISICA, UNAM

================================================================================
DATOS DE ESTE REGISTRO:
HORA DE LA PRIMERA MUESTRA (GMT)       : 05:21:24.000
EXACTITUD DEL TIEMPO (s)               : 
DURACION DEL REGISTRO (s), C1-C6       : /115/115/115
DURACION DEL REGISTRO (s), C7-C12      : 
NUM. TOTAL DE MUESTRAS, C1-C6          : /23000/23000/23000
NUM. TOTAL DE MUESTRAS, C7-C12         : 
ACEL. MAX.(Gal), C1-C6                 : /-0.425/0.405/0.109
ACEL. MAX., C1-C6, EN LA MUESTRA       : /10185/10894/9833
ACEL. MAX.(Gal), C7-C12                : 
ACEL. MAX., C7-C12,EN LA MUESTRA       : 
UNIDADES DE LOS DATOS                  : Gal (cm/s/s)
FACTOR DE DECIMACION                   : 1
FORMATO DATOS (FORTRAN,16 campos/dato) : 3E16.7


================================================================================
CALIDAD DEL ACELEROGRAMA:
REGISTRO DIGITAL COMPLETO CON TIEMPO ABSOLUTO CORRECTO


================================================================================
COMENTARIOS:














================================================================================
DATOS DE ACELERACION:
---------+---------+---------+---------+---------+---------+---------+---------+
   CANAL-1   	     CANAL-2          CANAL-3
     N90E             N00E              V
---------+---------+---------+---------+---------+---------+---------+---------+ 
[...]
  -2.5740800e-01   1.1819600e-01   6.8439300e-02
  -2.4827800e-01   1.5953300e-01   6.9141300e-02
  -2.3282800e-01   1.5953300e-01   6.5865400e-02
  -2.1878300e-01   1.5649700e-01   6.5397400e-02
  -2.1199400e-01   1.7448000e-01   6.7269300e-02
  -1.9560800e-01   1.7261200e-01   6.1887400e-02
  -1.8156300e-01   1.8919400e-01   5.1123600e-02
  -1.6330400e-01   1.8779300e-01   4.5507700e-02
  -1.4691700e-01   2.1395000e-01   3.7551900e-02
  -1.3076500e-01   2.1955500e-01   3.6849900e-02
  -1.1157000e-01   2.1978900e-01   2.9830000e-02
  -9.2608600e-02   2.2586100e-01   2.3512100e-02
  -7.5520100e-02   2.3099900e-01   1.4854200e-02
  -5.7729300e-02   2.5085000e-01   1.2824800e-03
  -3.6193000e-02   2.3496900e-01   1.0484900e-03
  -2.1679500e-02   2.5295200e-01  -5.0354100e-03
  -9.0386300e-03   2.4921600e-01  -4.5674200e-03
  -3.7731200e-04   2.2609400e-01  -9.0133400e-03
   8.7521900e-03   2.2796300e-01  -1.5799200e-02
   1.4370300e-02   2.2165700e-01  -2.0245100e-02
   2.6543000e-02   2.0624300e-01  -2.7499000e-02
   4.3397500e-02   1.9269700e-01  -2.5861100e-02
   5.0654200e-02   1.8826000e-01  -2.8903000e-02
   6.6338200e-02   1.6513900e-01  -3.3348900e-02
   7.5701800e-02   1.6046800e-01  -3.8028800e-02
   8.6235900e-02   1.6046800e-01  -3.6390900e-02
   1.0379300e-01   1.5416200e-01  -3.2412900e-02
   1.1409300e-01   1.4925700e-01  -3.3816900e-02
   1.2884000e-01   1.4085000e-01  -2.9839000e-02
   1.4405600e-01   1.2753700e-01  -3.1477000e-02
   1.5271700e-01   1.2029700e-01  -3.4986900e-02
   1.6301700e-01   1.0745200e-01  -3.4518900e-02
   1.7144500e-01   1.0068000e-01  -3.9198800e-02
   1.7589200e-01   1.0138000e-01  -4.3410700e-02
   1.8689400e-01   6.9617700e-02  -4.5516700e-02
   1.9742800e-01   7.1953200e-02  -4.6218700e-02
   2.0843100e-01   5.0934000e-02  -5.0664600e-02
   2.1170800e-01   3.1082400e-02  -5.5110500e-02
   2.0796200e-01   2.3842500e-02  -5.5812500e-02
   2.0562200e-01  -1.1470600e-03  -5.9322500e-02
   1.9906700e-01  -6.9857400e-03  -6.4236400e-02
   1.9391700e-01  -2.8939200e-02  -6.4704400e-02
   1.9017200e-01  -3.3843700e-02  -6.1428400e-02
   1.8478800e-01  -5.1126200e-02  -6.0726400e-02
   1.7589200e-01  -7.6816300e-02  -5.5578500e-02
   1.6535800e-01  -7.7283400e-02  -5.4174600e-02
   1.5248300e-01  -8.9194400e-02  -5.5344500e-02
   1.4405600e-01  -1.1208200e-01  -4.5282700e-02
   1.3773600e-01  -1.2469400e-01  -3.8964800e-02
   1.2767000e-01  -1.3940700e-01  -3.3348900e-02
   1.1456100e-01  -1.4080800e-01  -2.5159100e-02
   1.0098400e-01  -1.6229500e-01  -1.7203200e-02
   8.6001800e-02  -1.6136000e-01  -9.4813300e-03
   7.0551900e-02  -1.5178500e-01  -5.7374000e-03
   5.9783700e-02  -1.8331400e-01   5.7284000e-03
   4.5504300e-02  -1.7443900e-01   1.1110300e-02
   3.6608900e-02  -1.9452400e-01   1.2514300e-02
   1.9286200e-02  -1.9662600e-01   1.9300200e-02
  -1.5477600e-03  -1.9405700e-01   2.4682100e-02
  -1.8402200e-02  -2.0807000e-01   2.9362000e-02
  -3.6895300e-02  -1.9615900e-01   2.8660000e-02
  -4.3215700e-02  -2.2255000e-01   3.1468000e-02
  -5.2345200e-02  -2.2021400e-01   3.3573900e-02
  -6.7092900e-02  -2.1460900e-01   3.2403900e-02
  -8.2308700e-02  -2.3446100e-01   3.4275900e-02
  -1.0103600e-01  -2.1717800e-01   3.4041900e-02
  -1.2163600e-01  -2.1694500e-01   3.0064000e-02
  -1.3591500e-01  -2.2932300e-01   3.0766000e-02
  -1.5394000e-01  -1.9475800e-01   2.8894000e-02
  -1.6681500e-01  -2.0526700e-01   2.7256000e-02
  -1.7079500e-01  -1.9942900e-01   2.6554000e-02
  -1.8507400e-01  -1.8845200e-01   2.3278100e-02
  -1.9209700e-01  -2.0129700e-01   2.6320000e-02
  -2.0099200e-01  -1.6556400e-01   2.4448100e-02
  -2.0941900e-01  -1.7070200e-01   2.2342100e-02
  -2.0895100e-01  -1.6229500e-01   2.3746100e-02
  -2.1527200e-01  -1.4034100e-01   1.7428200e-02
  -2.2486900e-01  -1.4080800e-01   1.1578300e-02
  -2.3563700e-01  -1.3753900e-01   1.0174300e-02
  -2.5272600e-01  -1.1605200e-01   9.9403300e-03
  -2.6115300e-01  -1.2189100e-01   9.2383400e-03
  -2.7098500e-01  -1.1722000e-01   6.6643900e-03
  -2.8245500e-01  -9.8769800e-02   4.7924200e-03
  -2.8081700e-01  -1.1091400e-01   1.2824800e-03
  -2.8526400e-01  -9.9937500e-02   1.7504700e-03
  -2.8362600e-01  -9.7368500e-02   2.2184600e-03
  -2.7871000e-01  -8.7559500e-02   2.4524600e-03
  -2.7285800e-01  -8.6625300e-02   7.3663800e-03
  -2.5998300e-01  -6.3737700e-02   4.3244300e-03
  -2.5155600e-01  -5.5563600e-02   2.9204500e-03
  -2.4523500e-01  -5.5330000e-02   4.3244300e-03
  -2.3844700e-01  -4.4586800e-02   1.0642300e-02
  -2.3657400e-01  -3.9915900e-02   1.1812300e-02
  -2.3212600e-01  -2.2633400e-02   1.2280300e-02
  -2.2042200e-01  -2.2166300e-02   2.0002200e-02
  -2.1129200e-01   8.4283700e-03   1.7896200e-02
  -1.9537400e-01   6.7935400e-03   2.1406100e-02
  -1.8343500e-01   8.1948300e-03   2.5618100e-02
  -1.7734900e-01   1.8704400e-02   2.7256000e-02
  -1.6962400e-01   7.2606400e-03   3.2169900e-02
  -1.6892200e-01   1.4734100e-02   3.1000000e-02
  -1.6681500e-01   4.2245200e-03   2.7724000e-02
  -1.6470800e-01   6.7935400e-03   2.9128000e-02
  -1.6119700e-01   1.3566400e-02   2.5384100e-02
  -1.5019500e-01  -1.8477000e-03   2.2576100e-02
  -1.4200200e-01  -3.9496300e-03   2.3980100e-02
  -1.3872400e-01   1.2165100e-02   2.0704100e-02
  -1.3053100e-01   5.8593500e-03   1.6960200e-02
  -1.2421100e-01   2.1226000e-03   1.8130200e-02
  -1.1391100e-01  -1.6141600e-03   1.8130200e-02
  -1.0244000e-01  -1.1470600e-03   1.2748300e-02
  -9.2140500e-02   6.7935400e-03   1.3450300e-02
  -7.7392800e-02  -4.8838200e-03   1.0642300e-02
  -7.1072400e-02   1.3099300e-02   1.9844700e-03
  -5.9133800e-02   2.8279900e-02   3.4649700e-04
  -3.8065700e-02   2.6878600e-02   3.3884400e-03
  -2.5893100e-02   3.9723700e-02  -2.4614500e-03
  -1.2784100e-02   4.0190800e-02  -1.0651300e-02
  -2.4841200e-03   4.7897800e-02  -1.4161300e-02
   3.8363000e-03   5.8874600e-02  -1.9309200e-02
   1.5540800e-02   6.6815200e-02  -2.3989100e-02
   2.3968000e-02   7.8726100e-02  -2.7967000e-02
   3.6140700e-02   8.6900200e-02  -2.7967000e-02
   5.0888300e-02   9.0637000e-02  -3.4752900e-02
   6.0017800e-02   7.4055100e-02  -4.2240800e-02
   6.4933700e-02   8.8068000e-02  -4.1304800e-02
   6.9849600e-02   8.8301500e-02  -4.1538800e-02
   7.7106400e-02   8.5265400e-02  -4.5048700e-02
   8.3192700e-02   1.0698500e-01  -4.7622700e-02
   9.1151700e-02   9.9745300e-02  -4.8090700e-02
   9.3960800e-02   1.1142300e-01  -5.3940600e-02
   1.0028100e-01   1.0021200e-01  -5.0196600e-02
   1.1292200e-01   9.3673100e-02  -4.4580700e-02
   1.2228600e-01   9.9978900e-02  -4.2942800e-02
   1.4241700e-01   8.8068000e-02  -3.7560800e-02
   1.6348500e-01   8.4331200e-02  -3.6624900e-02
   1.7963800e-01   7.8726100e-02  -3.1944900e-02
   1.9321500e-01   8.5031800e-02  -2.5861100e-02
   2.0702600e-01   6.6581600e-02  -1.3693300e-02
   2.1802800e-01   6.1210000e-02  -7.8433600e-03
   2.3066900e-01   6.9150600e-02  -1.2757300e-02
   2.4799200e-01   6.6348100e-02  -1.1353300e-02
   2.6554900e-01   7.6157100e-02  -1.0885300e-02
   2.8802100e-01   7.3354500e-02  -7.6093700e-03
   3.0674800e-01   5.7239700e-02  -5.2694100e-03
   3.1962300e-01   6.4479700e-02  -7.1413700e-03
   3.3320000e-01   6.7515800e-02  -6.4393900e-03
   3.4630900e-01   4.3226900e-02  -9.9493300e-03
   3.5239600e-01   5.0233300e-02  -9.7153300e-03
   3.6573900e-01   5.8173900e-02  -8.5453500e-03
   3.8025200e-01   4.6263000e-02  -1.6033200e-02
   3.8423200e-01   4.1358500e-02  -1.9777200e-02
   3.9359600e-01   3.5519800e-02  -2.3521100e-02
   3.9546800e-01   4.4161100e-02  -3.1944900e-02
   3.9687300e-01   4.1592100e-02  -3.6390900e-02
   4.0295900e-01   3.5986900e-02  -3.5220900e-02
   4.0600200e-01   3.2016600e-02  -3.5688900e-02
   4.1466400e-01   3.3885000e-02  -4.0134800e-02
   4.1513200e-01   3.9490100e-02  -4.2006800e-02
   4.1372700e-01   2.3608900e-02  -3.9900800e-02
   4.1091800e-01   3.1082400e-02  -4.1304800e-02
   4.0413000e-01   3.9256600e-02  -4.0836800e-02
   4.0506600e-01   3.2016600e-02  -3.9900800e-02
   3.9991600e-01   2.8046300e-02  -4.3176800e-02
   3.8938200e-01   1.7069600e-02  -3.8964800e-02
   3.7440000e-01   2.3141800e-02  -3.2880900e-02
   3.5941900e-01   1.0296800e-02  -2.9605000e-02
   3.4326600e-01  -2.1287300e-04  -2.3755100e-02
   3.2547600e-01   1.0763800e-02  -1.3693300e-02
   3.1658000e-01  -4.4167200e-03  -2.4614500e-03
   2.9925700e-01  -1.4692800e-02   3.8564400e-03
   2.8872300e-01  -3.3610100e-02   1.4854200e-02
   2.8263700e-01  -4.3185600e-02   2.6086100e-02
   2.7303900e-01  -4.4119700e-02   3.1468000e-02
   2.6367600e-01  -4.2952000e-02   4.0359800e-02
   2.5290800e-01  -5.8132600e-02   4.9485600e-02
   2.4190500e-01  -5.0425500e-02   5.2293600e-02
   2.2809400e-01  -6.4204800e-02   5.6271500e-02
   2.1966700e-01  -9.3398200e-02   6.1419400e-02
   2.0257800e-01  -7.3313100e-02   5.9313500e-02
   1.7893500e-01  -9.4565900e-02   5.6037500e-02
   1.5412200e-01  -8.2888600e-02   6.0249500e-02
   1.2837200e-01  -7.4013800e-02   6.3993400e-02
   1.0262200e-01  -8.3355700e-02   6.0483500e-02
   8.0851800e-02  -8.6391800e-02   6.9375300e-02
   6.0017800e-02  -9.3865300e-02   7.6161200e-02
   3.8013400e-02  -1.0881200e-01   7.6863200e-02
   1.1795400e-02  -1.2422600e-01   7.9905100e-02
  -1.6763600e-02  -1.1558500e-01   8.1543100e-02
  -3.8533900e-02  -1.2516100e-01   8.6925000e-02
  -6.1474700e-02  -1.2562800e-01   8.3649100e-02
  -8.2074600e-02  -1.2609500e-01   8.3181100e-02
  -1.0056800e-01  -1.2446000e-01   8.4117100e-02
  -1.2093300e-01  -1.2049000e-01   7.9203100e-02
  -1.4106500e-01  -1.0974700e-01   7.4055200e-02
  -1.5768600e-01  -1.0998000e-01   7.1247300e-02
  -1.7477400e-01  -1.0951300e-01   6.4227400e-02
  -1.9139400e-01  -1.0671000e-01   5.8611500e-02
  -2.1176000e-01  -1.1535200e-01   5.5335500e-02
  -2.3563700e-01  -1.0250700e-01   4.8783700e-02
  -2.5694000e-01  -1.1581900e-01   4.8315700e-02
  -2.7660300e-01  -1.1208200e-01   4.9017700e-02
  -2.9088300e-01  -9.9937500e-02   4.3635800e-02
  -3.0282100e-01  -9.5033000e-02   3.3573900e-02
  -3.1288700e-01  -9.2230500e-02   3.0532000e-02
  -3.2669800e-01  -8.4990500e-02   2.8894000e-02
  -3.4238200e-01  -7.2846000e-02   1.7662200e-02
  -3.5385300e-01  -8.4056300e-02   1.1812300e-02
  -3.6532300e-01  -6.3270600e-02   1.3450300e-02
  -3.7187800e-01  -5.2994500e-02   3.1544500e-03
  -3.7609100e-01  -5.7431900e-02  -3.6314300e-03
  -3.8077300e-01  -4.5754600e-02  -6.9073800e-03
  -3.8545500e-01  -3.8514600e-02  -1.4161300e-02
  -3.9060500e-01  -2.9873400e-02  -1.5097200e-02
  -3.9552100e-01  -2.3567600e-02  -2.1649100e-02
  -4.0324600e-01  -2.1465700e-02  -2.3755100e-02
  -4.1120500e-01  -1.4225700e-02  -2.6797000e-02
  -4.1401400e-01  -2.5903100e-02  -2.8201000e-02
  -4.2173900e-01  -1.3992200e-02  -2.4925100e-02
  -4.2454800e-01  -2.7818900e-03  -2.9605000e-02
  -4.1541800e-01  -1.7728900e-02  -2.7733000e-02
  -4.1237500e-01  -1.6141600e-03  -2.7499000e-02
  -4.0160700e-01   9.5486300e-04  -2.6563000e-02
  -3.9341400e-01   7.0270900e-03  -2.2819100e-02
  -3.8732800e-01   1.1230900e-02  -1.7203200e-02
  -3.7819800e-01   1.7069600e-02  -1.0417300e-02
  -3.7562300e-01   2.7112100e-02  -9.9493300e-03
  -3.6321600e-01   1.8470900e-02  -1.0885300e-02
  -3.5244800e-01   2.7112100e-02  -9.2473400e-03
  -3.3606200e-01   1.9872200e-02  -3.1634400e-03
  -3.1148200e-01   1.9171500e-02  -3.6314300e-03
  -2.9275500e-01   1.2632200e-02  -3.6314300e-03
  -2.7028300e-01   2.5422100e-04  -1.2149500e-04
  -2.4664000e-01  -1.0956000e-02  -1.9934600e-03
  -2.2299700e-01  -1.3058000e-02  -8.2348300e-04
  -1.9116000e-01  -1.4459300e-02   3.6224400e-03
  -1.6213300e-01  -1.3291500e-02   1.2824800e-03
  -1.3334000e-01  -9.5547600e-03  -4.8014100e-03
  -1.0571800e-01  -1.7261800e-02  -1.1821300e-02
  -8.6990500e-02   1.1884100e-03  -1.8373200e-02
  -6.3347400e-02   3.7574300e-03  -3.0073000e-02
  -4.0874800e-02   7.0270900e-03  -3.7560800e-02
  -2.2849900e-02   1.4267100e-02  -4.7388700e-02
  -3.7731200e-04   3.0381800e-02  -6.8214300e-02
   1.9754400e-02   2.3608900e-02  -7.5234200e-02
   3.3799800e-02   3.8556000e-02  -8.1318100e-02
   4.9483800e-02   4.3927500e-02  -8.7402000e-02
   5.6038300e-02   2.9914700e-02  -8.7168000e-02
   6.6806400e-02   3.3885000e-02  -8.7168000e-02
   7.4063200e-02   3.2483700e-02  -8.9040000e-02
   7.5701800e-02   2.8513400e-02  -8.9274000e-02
   8.1554100e-02   1.8704400e-02  -8.2254100e-02
   7.9213200e-02   2.7345700e-02  -7.4298200e-02
   8.0149500e-02   2.6178000e-02  -6.7980300e-02
   8.6938100e-02   2.4076000e-02  -6.4470400e-02
   9.6067600e-02   2.3375400e-02  -5.6046500e-02
   1.0589900e-01   3.2483700e-02  -5.0430600e-02
   1.1151800e-01   2.8747000e-02  -4.1772800e-02
   1.1690200e-01   3.2950800e-02  -2.7499000e-02
   1.2743600e-01   2.9681200e-02  -1.6501200e-02
   1.3539500e-01   2.6878600e-02  -6.2053900e-03
   1.4756700e-01   2.4076000e-02   1.7504700e-03
   1.5997400e-01   1.8704400e-02   8.7703500e-03
   1.6957200e-01   2.4309600e-02   1.7662200e-02
   1.8057400e-01   1.9405100e-02   2.3512100e-02
   1.9181000e-01   2.7345700e-02   3.0766000e-02
   2.0257800e-01   3.3417900e-02   3.4041900e-02
   2.1030300e-01   3.0148300e-02   3.4743900e-02
   2.2060300e-01   2.7345700e-02   4.3869700e-02
   2.2317800e-01   4.2993400e-02   4.4103700e-02
   2.2669000e-01   2.6178000e-02   4.7613700e-02
   2.3043500e-01   3.5286300e-02   5.2761600e-02
   2.2200800e-01   4.9299100e-02   5.2995600e-02
   2.1545300e-01   4.4394600e-02   4.8783700e-02
   2.0913300e-01   6.0509400e-02   4.1061800e-02
   2.0164200e-01   5.4904300e-02   4.0359800e-02
   1.9087400e-01   7.0551900e-02   3.1936000e-02
   1.7495600e-01   5.6072000e-02   2.7490000e-02
   1.5693100e-01   5.6539100e-02   2.3044100e-02
   1.4405600e-01   6.9851300e-02   1.9300200e-02
   1.3118100e-01   6.3312000e-02   1.8130200e-02
   1.2111500e-01   7.0084800e-02   1.4620300e-02
   1.1947700e-01   5.7006200e-02   1.4854200e-02
   1.1268800e-01   5.9575200e-02   1.4854200e-02
   1.0496300e-01   4.5328800e-02   2.3746100e-02
   1.0004700e-01   4.6496600e-02   2.6086100e-02
   9.7940300e-02   5.5137800e-02   2.9362000e-02
   9.9110800e-02   5.6539100e-02   3.0766000e-02
   1.0098400e-01   6.6114500e-02   3.0532000e-02
   1.0192000e-01   6.5180300e-02   3.4509900e-02
   1.0074900e-01   7.0785500e-02   2.9596000e-02
   9.9344900e-02   6.3078400e-02   3.5913900e-02
   9.8174400e-02   8.0360900e-02   3.4977900e-02
   9.3258600e-02   9.0403400e-02   3.1702000e-02
   8.9981300e-02   8.9002200e-02   3.3105900e-02
   9.1151700e-02   9.0870500e-02   3.5211900e-02
   8.2256300e-02   8.2462800e-02   4.4571700e-02
   7.3360900e-02   8.0127400e-02   4.6677700e-02
   6.5636000e-02   7.0785500e-02   5.1825600e-02
   4.9249700e-02   8.6900200e-02   4.9719600e-02
   4.0588400e-02   8.3397000e-02   4.6443700e-02
   2.4904400e-02   7.9660300e-02   4.0593800e-02
   9.9226300e-03   8.4798300e-02   3.7317900e-02
  -2.4841200e-03   7.2887400e-02   3.8955800e-02
  -2.2615800e-02   8.1295100e-02   2.7724000e-02
  -2.4020400e-02   8.0360900e-02   2.2108100e-02
  -3.1043100e-02   9.3673100e-02   1.3450300e-02
  -2.9404400e-02   8.8301500e-02   6.4303900e-03
  -2.2615800e-02   9.1337600e-02   2.2184600e-03
  -2.4488500e-02   9.3439500e-02  -1.2914700e-03
  -1.7699900e-02   7.0785500e-02  -4.8014100e-03
  -1.7699900e-02   8.6199600e-02  -7.8433600e-03
  -1.5125000e-02   8.5732500e-02  -1.2523300e-02
  -1.8168100e-02   9.5541500e-02  -2.2819100e-02
