**************************************************************************************
  	RED ACELEROGRÁFICA DE LA UNIVERSIDAD AUTONOMA METROPOLITANA (RA-UAM)
	   UNIDAD AZCAPOTZALCO. DIVISIÓN CBI-DEPARTAMENTO DE MATERIALES
     Av. San Pablo 420, Col. Nueva el Rosario, Azcapotzalco, C.P. 02128, Ciudad de México
		Área de Estructuras. e-mail: agb@azc.uam.mx
**************************************************************************************
ARCHIVO ESTANDAR DE ACELERACION:
VERSION DEL FORMATO                    : 2.0
NOMBRE DEL ARCHIVO                     : RIDA202209.192
FECHA Y HORA DE CREACION               : 11:40 a. m. 26/09/2022
REF. CATALOGO ACELEROGRAMAS, SMIS 1999 : REGISTRO NO.      /PAG.    


================================================================================
DATOS DE LA ESTACION:
NOMBRE DE LA ESTACION                  : UAM-AZCAPOTZALCO.
CLAVE DE LA ESTACION                   : RIDA
LOCALIZACION DE LA ESTACION            : AV. SAN PABLO 420, COL. NUEVA EL ROSARIO,
                                       : AZCAPOTZALCO, C.P.02128, CIUDAD DE MEXICO. 
                                       :
                                       : 
                                       : 
COORDENADAS DE LA ESTACION             : 19.498596 LAT. N
                                       : 99.195595 LONG. W
ALTITUD (msnm)                         : 2546
TIPO DE SUELO                          : ZONA DE TRANSICION
                                       : 
                                       : 
INSTITUCION RESPONSABLE                : UNIVERSIDAD AUTONOMA METROPOLITANA
                                       : 

================================================================================
DATOS DEL ACELEROGRAFO: 
MODELO DEL ACELEROGRAFO                : ETNA2 KINEMETRICS
NUMERO DE SERIE DEL ACELEROGRAFO       : 103732
NUMERO DE CANALES                      : 3
ORIENTACION C1-C6 (rumbo;orientacion)  : /N90E/N00E/V
ORIENTACION C7-C12 (rumbo;orientacion) : 
VEL. DE MUESTREO, C1-C6 (muestras/s)   : /200/200/200
VEL. DE MUESTREO, C7-C12 (muestras/s)  : 
ESC. COMPLETA DE SENSORES, C1-C6, (g)  : /2/2/2
ESC. COMPLETA DE SENSORES, C7-C12 (g)  : 
FREC. NAT. DE SENSORES, C1-C6, (Hz)    : /198/212/200   
FREC. NAT. DE SENSORES, C7-C12 (Hz)    : 
AMORTIGUAMIENTO DE SENSORES, C1-C6     : /0.7/0.7/0.7      
AMORTIGUAMIENTO DE SENSORES, C7-C12    : 
INTERVALO DE MUESTREO, C1-C6 (s)       : /0.005/0.005/0.005
INTERVALO DE MUESTREO, C7-C12 (s)      : 
UMBRAL DE DISPARO, C1-C6 (Gal)         : /2/2/2
UMBRAL DE DISPARO, C7-C12 (Gal)        : 
MEMORIA DE PREEVENTO (s)               : 50
TIEMPO DE POSEVENTO (s)                : 60


================================================================================
DATOS DEL SISMO:
FECHA DEL SISMO [GMT]                  : 2022/09/19
HORA EPICENTRO (GMT)                   : 19:30:42
MAGNITUD(ES)                           : /M=5.3
COORDENADAS DEL EPICENTRO              : 18.4500 LAT. N
                                       : -103.8800 LONG. W
PROFUNDIDAD FOCAL (Km)                 : 6.0
FUENTE DE LOS DATOS EPICENTRALES       : SSN
                                       : INSTITUTO DE GEOFISICA, UNAM

================================================================================
DATOS DE ESTE REGISTRO:
HORA DE LA PRIMERA MUESTRA (GMT)       : 19:31:52.000
EXACTITUD DEL TIEMPO (s)               : 
DURACION DEL REGISTRO (s), C1-C6       : /172/172/172
DURACION DEL REGISTRO (s), C7-C12      : 
NUM. TOTAL DE MUESTRAS, C1-C6          : /34400/34400/34400
NUM. TOTAL DE MUESTRAS, C7-C12         : 
ACEL. MAX.(Gal), C1-C6                 : /11.57/-10.20/25.78
ACEL. MAX., C1-C6, EN LA MUESTRA       : /10699/10697/10696
ACEL. MAX.(Gal), C7-C12                : 
ACEL. MAX., C7-C12,EN LA MUESTRA       : 
UNIDADES DE LOS DATOS                  : Gal (cm/s/s)
FACTOR DE DECIMACION                   : 1
FORMATO DATOS (FORTRAN,16 campos/dato) : 3E16.7


================================================================================
CALIDAD DEL ACELEROGRAMA:
REGISTRO DIGITAL COMPLETO CON TIEMPO ABSOLUTO CORRECTO


================================================================================
COMENTARIOS:














================================================================================
DATOS DE ACELERACION:
---------+---------+---------+---------+---------+---------+---------+---------+
   CANAL-1   	     CANAL-2          CANAL-3
     N90E             N00E              V
---------+---------+---------+---------+---------+---------+---------+---------+ 
[...]
   3.3561700e-01  -5.7674400e-01  -1.8971600e-01
   5.5402200e-01  -3.4623300e-01  -4.6606500e-01
  -7.2129800e-01   7.3859400e-01  -9.8623800e-01
   3.0612100e-01   1.4772000e-01  -3.9022200e-02
  -1.2554000e-01   1.9606400e-01   1.1426600e+00
  -1.4848100e-01  -2.3237000e-02   3.3630700e-01
   5.2125000e-01  -3.1867400e-01  -7.3679800e-01
  -5.4128300e-01   2.8143400e-02  -4.2207400e-01
   1.2985200e-01  -2.1754800e-01   2.8670000e-01
   1.9352400e-01   9.1201100e-02   2.1930900e-01
  -5.8224900e-01   3.6421800e-01  -1.3893800e-01
   5.3623100e-01   5.0563900e-02  -7.6227500e-02
  -2.1051500e-01   2.2245500e-01   9.5759500e-02
  -1.5517900e-02  -3.1960800e-01  -1.7497400e-01
   1.3640600e-01  -5.0831500e-01  -1.2209100e-01
  -6.4077100e-01   2.0774100e-01   1.0769300e-01
   2.9184200e-01   7.4152200e-02   2.7666700e-02
   4.9793100e-02   2.4090500e-01   4.0302500e-02
  -1.5807800e-01   1.1712500e-01  -8.8081800e-04
   2.0429200e-01  -2.7827100e-01   3.8898500e-02
  -3.3200700e-01  -1.0661300e-01  -2.3110400e-02
   1.7573300e-01  -2.5071200e-01  -1.8664500e-02
   1.1978600e-01   9.2835900e-02   2.3849700e-01
  -2.5803500e-01   3.7075700e-01   1.4513300e-01
   2.3449000e-01  -1.2179400e-01  -1.4174600e-01
  -1.9249000e-01  -6.8311600e-02  -1.1202900e-01
   6.0327200e-02  -1.0077500e-01   1.0020500e-01
   3.2906200e-01  -1.9559500e-01   1.9544200e-01
  -4.4545000e-02   2.3238900e-02   3.5856500e-02
   3.6979400e-01   3.7718800e-02  -7.5759500e-02
  -4.1970000e-02   1.0941800e-01   1.1892500e-01
  -1.4614000e-01  -5.2664000e-02   1.6923400e-01
   1.6051800e-01  -1.6009600e-01   2.4390700e-02
  -1.9693700e-01   6.5510900e-02  -5.0722000e-02
   1.6988100e-01  -1.5763500e-02  -5.7507800e-02
   1.0550600e-01  -2.4871800e-02  -4.2298100e-02
  -1.0836100e-02   8.5362400e-02  -1.2443100e-01
   1.7620200e-01  -7.5893500e-03  -7.3419600e-02
  -1.5550400e-01  -9.4702500e-02   8.6867700e-02
   6.7818000e-02  -2.0400300e-01   1.9008800e-02
   6.8052100e-02   2.0669900e-02  -9.2607200e-02
  -1.5363100e-01   1.1175300e-01  -1.1366700e-01
   6.5009000e-02  -1.0357700e-01  -2.4280400e-02
  -7.7551600e-02  -5.0203300e-03   6.7680000e-02
   1.2119000e-01  -1.5530000e-02  -1.6558500e-02
   2.4385300e-01  -2.5572500e-02  -4.1830100e-02
   6.0561300e-02  -2.5105400e-02  -3.7150200e-02
   1.4038600e-01  -7.2982600e-02  -2.0770500e-02
  -1.3654200e-01  -6.1880700e-03  -1.2112600e-02
  -1.2554000e-01  -4.4956900e-02   2.6291200e-03
   6.4865400e-03  -3.1519600e-03   3.0474600e-02
   1.4413100e-01   4.1689100e-02  -2.3110400e-02
   2.4221500e-01  -3.0009900e-02  -2.9867800e-03
   3.0963300e-01  -1.4538200e-01  -9.5181200e-02
  -2.0199700e-02   8.8632100e-02   1.2500900e-01
   1.6051800e-01  -1.5472400e-01  -8.8366800e-03
  -9.1831100e-02   7.2517300e-02   1.6151200e-01
   6.0327200e-02  -1.2623100e-01  -8.7225300e-02
   2.9535300e-01   8.7931400e-02  -2.5187900e-03
  -2.4281900e-01  -4.2621400e-02   6.9084000e-02
   5.9171100e-01  -2.4090300e-01  -6.3357700e-02
  -6.7916200e-01   1.6780500e-01   3.9527400e-01
   8.9181400e-01  -4.0718900e-01  -5.2035200e-01
  -1.9711000e+00   8.1916800e-01   1.0925800e+00
   3.0772700e+00  -3.4479700e+00  -5.1918500e+00
   4.7107500e+00  -8.9133200e-01  -5.5292700e+00
  -6.1269000e+00   8.0035500e+00   1.1751300e+01
  -2.8529200e+00  -9.2869900e-01   1.3516600e+01
  -3.6216700e+00  -7.0011600e+00  -6.9269300e+00
   3.8256600e+00   1.8755000e+00  -1.9593400e+01
   7.2810600e+00   3.3041100e+00  -2.6684300e+00
  -3.9895700e-01   2.8574600e-01   1.5659100e+01
  -2.8044600e+00  -2.4684800e+00   7.7158400e+00
  -4.5240800e+00  -7.2995100e-01  -6.8515800e+00
  -1.2917700e+00   2.2080700e+00  -5.3069700e+00
   1.6706300e+00  -4.5039500e-01   1.8940200e+00
   2.7940300e+00   5.9940000e-01  -5.4211300e-01
  -2.3945100e-02   4.6067300e-01  -1.3185100e+00
   7.0243500e-01  -1.1692500e+00   3.3380100e+00
  -2.2108100e+00  -8.3201100e-01   3.0684400e+00
  -6.7752300e-01   4.2856800e-02  -2.9291100e+00
   1.8646900e+00   1.2109500e-01  -3.5171400e+00
  -5.9933800e-01   2.7150000e-01   1.2240900e+00
   1.2740800e+00   5.7570300e-02   1.7503400e+00
  -1.5307800e+00   3.6725400e-01  -2.2130500e-01
  -7.6147100e-02  -3.6188000e-01  -1.5040400e-01
   9.8404500e-01  -8.5653300e-01   6.3558800e-01
  -1.1447700e+00   6.0664000e-01  -9.7921800e-01
   1.2470200e-01   2.1101100e-01  -1.1406800e+00
  -9.0192500e-02   2.0914200e-01   1.0712900e+00
  -1.1641100e-01   3.4600100e-01   1.1197300e+00
   7.8179200e-01  -3.1330300e-01  -6.7829900e-01
  -5.7663100e-01   2.4531800e-03  -9.5020200e-01
  -4.9774300e-01  -3.0302700e-01   3.2858500e-01
   4.4329800e-01  -3.7752800e-01   4.9214900e-01
  -6.8782300e-01   5.4148000e-01  -2.4025900e-01
   6.4250800e-01  -6.2706500e-02  -3.3806900e-01
   1.3032000e-01   9.9141700e-02   2.8950800e-01
  -3.0532100e-01  -7.9054800e-02   4.5684400e-02
   5.1071600e-01  -6.4564000e-01  -2.1662500e-01
  -8.0135700e-01   1.5542700e-01   1.6759600e-01
   1.9188600e-01   1.6149900e-01   5.8320200e-02
   3.1923000e-01   2.6309200e-01  -8.7459300e-02
  -3.8912500e-01   3.8313500e-01  -4.6510000e-02
   2.6492200e-01  -1.5589200e-01   1.6315000e-01
  -4.2236600e-01   4.1455600e-02   8.1719800e-02
   2.0388400e-03  -1.4911900e-01  -1.9158800e-01
   5.3927500e-01  -4.3088500e-02   1.3811300e-01
  -2.5897100e-01   5.7277500e-01   3.6017500e-01
   2.4713100e-01   5.2432300e-02  -4.6744000e-02
  -2.6131200e-01  -9.9840500e-02  -2.2294300e-01
  -4.4273200e-01  -1.5962900e-01   5.7852200e-02
   3.3093500e-01  -3.1680600e-01   2.2469100e-01
  -1.0845100e-01   1.0638200e-01  -1.0708600e-02
   3.3983000e-01  -4.3196900e-03  -2.6997600e-01
   2.3191500e-01   5.9905800e-02   1.8540800e-02
  -3.7250500e-01   7.9290200e-02   2.3405100e-01
   1.1346600e-01  -2.5188000e-01   7.5430400e-03
  -2.1051500e-01   1.4701900e-01  -1.5625400e-01
  -8.6915200e-02   1.4398300e-01  -7.6929500e-02
   3.1852800e-01  -7.3916800e-02   1.2968900e-01
  -9.4874300e-02   3.8653000e-02   6.5808000e-02
   2.6304900e-01  -2.3470600e-02  -1.0149900e-01
  -1.9029200e-02   9.4003700e-02  -3.9490200e-02
  -1.3794700e-01   4.8462000e-02  -4.6247500e-03
   1.8603300e-01   6.0840000e-02  -3.6887700e-03
  -3.0438500e-01   2.7196700e-01  -1.8898500e-02
  -2.8392800e-02  -7.5893500e-03  -7.2015600e-02
  -6.3038100e-02  -1.4328000e-01  -2.6620400e-02
  -1.0751500e-01  -1.9266700e-02  -1.1176600e-02
   2.9488500e-01  -5.5933600e-02  -6.9647100e-03
   4.1600000e-02   6.0840000e-02   9.8830000e-03
   8.0458900e-02   1.2039500e-01  -5.5401900e-02
  -5.3440400e-02   1.2856900e-01  -4.5808000e-02
  -3.3832800e-01   9.8908200e-02   2.8602700e-02
  -4.5156700e-03  -5.8969700e-02   2.1582800e-02
   8.4438400e-02   8.2918600e-03  -1.6558500e-02
   2.0359000e-01  -2.2069300e-02  -5.7741800e-02
   2.7873300e-01  -1.6756900e-01  -3.0130300e-02
  -8.2935700e-02  -4.5532400e-03   4.8024300e-02
  -2.6520100e-02   7.4385700e-02   4.5216400e-02
  -5.6249500e-02   5.4300700e-02   5.2002300e-02
  -2.5583700e-02  -2.6740200e-02   7.5430400e-03
   2.4900300e-01  -8.3492200e-02  -5.1189900e-02
   9.9888300e-02  -2.6973800e-02  -9.7726600e-03
   1.1182700e-01  -1.7387500e-01   4.8492300e-02
   5.5645400e-02  -1.4841800e-01   1.0114100e-01
  -8.1531200e-02  -3.6190500e-03   5.6448200e-02
   6.0327200e-02   9.2260400e-03  -3.4108200e-02
   1.2104700e-02   6.3642500e-02  -4.4638100e-02
   2.1702400e-02   7.0649000e-02  -1.7260500e-02
   5.2134000e-02   8.5254000e-03   3.4218600e-02
  -3.6586000e-02  -3.9118200e-02   7.3997900e-02
   5.5177200e-02  -5.4874300e-03   3.0006600e-02
   5.2134000e-02   8.9099200e-02  -3.5746200e-02
   7.6569900e-03   1.2062800e-01  -6.7335700e-02
   2.2872800e-02   5.1731600e-02  -1.7494500e-02
  -8.9490200e-02  -1.5171300e-03   7.4933900e-02
  -8.6213000e-02  -7.9521900e-02   7.0955900e-02
  -6.6315300e-02  -9.3534700e-02   3.7260500e-02
  -4.8524500e-02   7.9523700e-02  -1.5828100e-03
   1.0105900e-01   2.3319800e-01  -3.5746200e-02
   1.2376500e-01   1.6687000e-01  -1.5828100e-03
   1.2142500e-01  -3.4914400e-02   5.4342200e-02
   7.1095300e-02  -2.1135100e-02   5.9724100e-02
  -2.7222400e-02   5.8738000e-02   6.3730600e-03
  -8.4952000e-03   1.0801700e-01  -8.3686900e-03
  -9.1974600e-03   1.8018300e-01   3.5651100e-03
   2.9427300e-02   9.2835900e-02  -2.0536500e-02
   5.1899900e-02  -2.6740200e-02  -4.2532100e-02
  -2.0199700e-02  -1.3954400e-01  -2.4748400e-02
  -2.9095100e-02  -9.8672800e-02  -1.5828100e-03
  -4.7497600e-03   4.0988500e-02  -1.0942600e-02
   3.2236400e-02   7.2283800e-02  -4.1362100e-02
   4.9559000e-02   6.5277400e-02  -6.1485800e-02
  -2.3242800e-02   7.8247600e-03  -4.7446000e-02
  -7.7317600e-02  -7.6252200e-02  -1.6090600e-02
  -8.9256100e-02  -9.7505000e-02   1.2223000e-02
  -7.3103900e-02  -5.3364600e-02   2.1816800e-02
  -1.5986100e-02  -5.0203300e-03   2.3951300e-03
  -1.2384200e-03  -6.1880700e-03  -1.0474700e-02
  -2.6754200e-02  -3.8526000e-03  -9.7726600e-03
  -4.8758600e-02   3.9353600e-02  -9.7726600e-03
  -4.6651800e-02   5.1731600e-02  -2.5684400e-02
  -1.1070200e-02   6.8905700e-03  -2.9896300e-02
   1.6786500e-02  -4.3322100e-02  -1.7260500e-02
   2.4745500e-02   5.4892900e-03  -4.6042000e-02
  -7.7023700e-04   8.5254000e-03  -6.2889700e-02
  -3.7990500e-02   2.8844000e-02  -5.0020000e-02
  -5.2738100e-02   6.5978000e-02  -2.6620400e-02
  -6.3038100e-02   2.3238900e-02  -1.5622600e-02
  -5.3674500e-02  -2.6848600e-03  -2.8960300e-02
  -5.3206300e-02  -1.7865400e-02  -2.3344400e-02
  -6.0229000e-02   2.3472400e-02   4.9690800e-03
  -2.9095100e-02   3.1538200e-03   9.6490000e-03
  -2.2540600e-02  -3.1519600e-03   7.5430400e-03
  -5.2738100e-02   1.9268600e-02  -2.9867800e-03
  -1.7858800e-02  -4.0861500e-03  -8.8081800e-04
  -3.6586000e-02   1.5998900e-02   2.8134700e-02
   2.1702400e-02  -3.6315700e-02  -1.7260500e-02
  -2.6051900e-02   6.1540600e-02   3.6090500e-02
   2.6150100e-02  -8.3959300e-02  -9.7726600e-03
   2.3341000e-02   2.3472400e-02   1.1798900e-01
   1.7254700e-02  -1.0124200e-01  -1.4920600e-02
   1.4155600e-01   8.2326300e-02   6.0894100e-02
  -1.1313300e-01  -4.6124600e-02  -9.3046700e-03
   1.6941300e-01  -1.8332500e-02  -2.7527900e-03
  -3.8912500e-01   7.2050200e-02   8.0549800e-02
   2.9863000e-01  -2.2969300e-01  -1.7052800e-01
  -2.9174400e-01   2.8761400e-01   2.3264700e-01
   4.7092000e-01  -4.6767700e-01  -3.8135800e-01
  -4.9838500e-03   6.4587600e-01   4.3786200e-01
   1.1636500e-02  -7.4466400e-01  -5.4234700e-01
   2.0757000e-01   8.9180100e-01   6.2248400e-01
  -9.3853300e-01  -8.3364600e-01  -5.6621500e-01
   1.4068100e+00   3.4273100e-01   5.5158400e-01
  -2.8948200e+00   3.8056600e-01  -1.3145100e-01
   9.7209700e+00  -6.7615400e+00  -1.3467100e+01
  -1.1187800e+00   5.5905400e+00   3.4734900e+00
  -9.4434800e+00   6.9544500e+00   2.5778000e+01
  -1.0657900e-01  -1.0197000e+01   6.0881600e+00
  -5.7319900e+00  -2.7414900e+00  -2.5178100e+01
   1.1574700e+01   8.9552500e+00  -1.9712500e+01
   3.7624600e+00   4.2097000e-01   1.4937200e+01
  -2.6979500e+00  -1.4934200e+00   1.9154000e+01
  -3.6949400e+00  -2.9570600e+00  -3.5033300e+00
  -5.7209900e+00   1.3577300e+00  -9.0226000e+00
   2.3951400e+00   3.9831600e-01   1.5456000e+00
   2.2265900e+00  -8.6073700e-01  -2.4982400e-02
   2.2670900e+00   3.1614100e+00  -5.7979000e+00
   1.8814000e-01  -9.7447500e-01   3.4571100e+00
   1.9867400e-01  -1.2010200e+00   8.3106600e+00
  -4.6729700e+00  -1.3864500e+00  -7.2135400e-01
   2.5327800e+00  -1.2739900e-01  -7.1962600e+00
   1.5809700e+00   2.0680700e-01  -1.4532900e+00
  -3.6571600e-01   4.5810400e-01   3.3221000e+00
   1.1858300e+00   3.0945900e-02   7.0742500e-01
  -3.4463400e+00   6.2719200e-01  -2.1147700e-01
   2.3153100e+00  -1.5048600e+00   7.7809200e-01
  -3.6922700e-01   4.0287800e-02  -2.6833800e-01
  -1.5591100e+00   1.2038200e+00  -2.5324800e+00
   1.2647200e+00  -7.8203200e-01   1.5098300e-01
  -9.1652900e-01   3.9434500e-01   2.4191100e+00
   8.9930500e-01   1.5542700e-01   9.8333500e-02
   6.3197400e-01  -4.9173300e-01  -1.5922900e+00
  -1.4334000e+00  -1.2156000e-01  -2.8846200e-01
   5.1516300e-01  -5.5549100e-01   9.5967300e-01
  -6.6783500e-02   8.1158600e-02   1.1564900e-01
  -7.5734800e-01   8.3481500e-01  -4.3424100e-01
   1.4690800e+00  -5.1251800e-01   1.9242800e-02
  -6.3257800e-01   1.2249600e-01   3.7889500e-01
   1.3898100e-01  -6.1738100e-01  -3.0039600e-01
   2.9301200e-01  -5.9355900e-01   7.2593900e-02
  -1.3982900e+00   4.7795500e-01   5.2046200e-01
   1.1067100e+00   1.0404600e-01  -2.3043100e-01
  -2.2385800e-01   4.4549200e-01  -3.3572900e-01
  -2.5546000e-01  -5.3598100e-02   8.3825700e-02
   6.5795800e-01  -5.8491800e-01   2.4317700e-01
  -8.8586300e-01   1.0160200e-02  -2.6155200e-01
   4.5078900e-01  -3.5067000e-01  -3.0554400e-01
   3.5645100e-01   3.2708400e-01   3.6274900e-01
  -4.3992200e-01   7.7059000e-01   8.8973600e-02
   7.1460800e-01  -2.7476700e-01  -5.6527900e-01
  -6.7518300e-01  -1.4701700e-01  -2.5944600e-01
  -2.8495500e-01  -3.2825000e-01   3.2554400e-01
   5.5191500e-01  -1.3650700e-01   2.0012200e-01
  -3.3903000e-01   4.5016300e-01  -3.4157900e-01
   6.9517800e-01  -6.6910300e-02  -3.9352600e-01
  -1.0564200e-01   9.9375300e-02   9.4823500e-02
  -4.2634500e-01  -9.6570800e-02   8.7569700e-02
   2.4642800e-01  -4.2213600e-01  -1.6912400e-01
  -5.3355800e-01   3.8570400e-01  -6.1953800e-02
   1.8790600e-01   1.3394000e-01   4.7088400e-02
   2.8458500e-01  -1.9842200e-03   1.3975100e-01
  -1.9412800e-01   1.1852600e-01  -2.2847900e-03
   3.8266900e-01  -2.8784600e-01  -7.6461500e-02
  -3.1515300e-01  -5.9903900e-02   9.6227500e-02
  -8.6681100e-02  -1.0871500e-01   5.3874200e-02
   2.2559400e-01   6.4810300e-02   5.7384200e-02
  -4.4811600e-01   3.8430300e-01   6.3936100e-02
   1.9305600e-01  -1.3650700e-01   2.6262700e-02
  -1.0142900e-01  -8.8163100e-02   5.5512200e-02
  -5.7185800e-02   7.9056700e-02   8.9470100e-03
   3.9250000e-01  -2.6273100e-02   5.8554200e-02
  -2.2245300e-01   1.2366400e-01   1.2430700e-01
   1.2095600e-01  -4.4956900e-02   4.4982400e-02
  -2.1051500e-01   2.4873700e-02   7.7770300e-03
  -3.9146600e-01   6.2708300e-02   2.5326700e-02
   2.4221500e-01  -4.7525900e-02   5.8554200e-02
   2.7788700e-02   1.6663700e-01   7.7273800e-02
   3.8641400e-01  -2.6973800e-02  -1.4218600e-02
   2.5789900e-01  -1.1455400e-01  -1.0240700e-02
  -2.2432600e-01   3.2113700e-02   2.2752800e-02
   6.3604400e-02  -2.4171200e-02  -9.3046700e-03
  -2.1332400e-01   3.0478800e-02   1.3626900e-02
   7.1797600e-02  -9.0265100e-02  -5.8209800e-02
   2.7849900e-01  -1.5171300e-03  -5.7273800e-02
  -3.9629100e-02   7.8356000e-02  -1.4686600e-02
   2.1904000e-01  -1.7037200e-01  -4.5340100e-02
  -1.1524000e-01   2.6742100e-02  -2.1238500e-02
  -8.6681100e-02   8.3494000e-02  -6.0783800e-02
   1.4342900e-01  -1.5171300e-03  -5.4933900e-02
  -1.1055800e-01   9.3303000e-02  -3.9022200e-02
   1.5724000e-01  -2.2177700e-03  -7.0377600e-02
   1.3743300e-02   3.0712400e-02  -3.2470300e-02
  -1.0043300e-03  -8.6995400e-02  -4.2766100e-02
   2.3964000e-01  -1.0824800e-01  -8.1375400e-02
  -1.7858800e-02   1.3627600e-01  -1.0220100e-01
   1.4062000e-01   5.9563800e-03  -6.5931700e-02
   2.5213700e-02  -6.3874200e-02   3.0708600e-02
  -9.0192500e-02  -5.5233000e-02   7.8209800e-02
   1.5045200e-01  -1.3207000e-01   9.5057500e-02
  -9.8997300e-03   2.6867200e-03   8.1017800e-02
   1.4155600e-01   5.7803900e-02   5.2315800e-04
