**************************************************************************************
  	RED ACELEROGRÁFICA DE LA UNIVERSIDAD AUTONOMA METROPOLITANA (RA-UAM)
	   UNIDAD AZCAPOTZALCO. DIVISIÓN CBI-DEPARTAMENTO DE MATERIALES
     Av. San Pablo 420, Col. Nueva el Rosario, Azcapotzalco, C.P. 02128, Ciudad de México
		Área de Estructuras. e-mail: agb@azc.uam.mx
**************************************************************************************
ARCHIVO ESTANDAR DE ACELERACION:
VERSION DEL FORMATO                    : 2.0
NOMBRE DEL ARCHIVO                     : RIDA202209.203
FECHA Y HORA DE CREACION               : 11:40 a. m. 27/09/2022
REF. CATALOGO ACELEROGRAMAS, SMIS 1999 : REGISTRO NO.      /PAG.    


================================================================================
DATOS DE LA ESTACION:
NOMBRE DE LA ESTACION                  : UAM-AZCAPOTZALCO.
CLAVE DE LA ESTACION                   : RIDA
LOCALIZACION DE LA ESTACION            : AV. SAN PABLO 420, COL. NUEVA EL ROSARIO,
                                       : AZCAPOTZALCO, C.P.02128, CIUDAD DE MEXICO. 
                                       :
                                       : 
                                       : 
COORDENADAS DE LA ESTACION             : 19.498596 LAT. N
                                       : 99.195595 LONG. W
ALTITUD (msnm)                         : 2546
TIPO DE SUELO                          : ZONA DE TRANSICION
                                       : 
                                       : 
INSTITUCION RESPONSABLE                : UNIVERSIDAD AUTONOMA METROPOLITANA
                                       : 

================================================================================
DATOS DEL ACELEROGRAFO: 
MODELO DEL ACELEROGRAFO                : ETNA2 KINEMETRICS
NUMERO DE SERIE DEL ACELEROGRAFO       : 103732
NUMERO DE CANALES                      : 3
ORIENTACION C1-C6 (rumbo;orientacion)  : /N90E/N00E/V
ORIENTACION C7-C12 (rumbo;orientacion) : 
VEL. DE MUESTREO, C1-C6 (muestras/s)   : /200/200/200
VEL. DE MUESTREO, C7-C12 (muestras/s)  : 
ESC. COMPLETA DE SENSORES, C1-C6, (g)  : /2/2/2
ESC. COMPLETA DE SENSORES, C7-C12 (g)  : 
FREC. NAT. DE SENSORES, C1-C6, (Hz)    : /198/212/200   
FREC. NAT. DE SENSORES, C7-C12 (Hz)    : 
AMORTIGUAMIENTO DE SENSORES, C1-C6     : /0.7/0.7/0.7      
AMORTIGUAMIENTO DE SENSORES, C7-C12    : 
INTERVALO DE MUESTREO, C1-C6 (s)       : /0.005/0.005/0.005
INTERVALO DE MUESTREO, C7-C12 (s)      : 
UMBRAL DE DISPARO, C1-C6 (Gal)         : /2/2/2
UMBRAL DE DISPARO, C7-C12 (Gal)        : 
MEMORIA DE PREEVENTO (s)               : 50
TIEMPO DE POSEVENTO (s)                : 60


================================================================================
DATOS DEL SISMO:
FECHA DEL SISMO [GMT]                  : 2022/09/20
HORA EPICENTRO (GMT)                   : 19:04:29
MAGNITUD(ES)                           : /M=5.4
COORDENADAS DEL EPICENTRO              : 18.1400 LAT. N
                                       : -103.2500 LONG. W
PROFUNDIDAD FOCAL (Km)                 : 16.0
FUENTE DE LOS DATOS EPICENTRALES       : SSN
                                       : INSTITUTO DE GEOFISICA, UNAM

================================================================================
DATOS DE ESTE REGISTRO:
HORA DE LA PRIMERA MUESTRA (GMT)       : 19:05:45.000
EXACTITUD DEL TIEMPO (s)               : 
DURACION DEL REGISTRO (s), C1-C6       : /134/134/134
DURACION DEL REGISTRO (s), C7-C12      : 
NUM. TOTAL DE MUESTRAS, C1-C6          : /26800/26800/26800
NUM. TOTAL DE MUESTRAS, C7-C12         : 
ACEL. MAX.(Gal), C1-C6                 : /0.490/0.694/0.403
ACEL. MAX., C1-C6, EN LA MUESTRA       : /11139/4726/4729
ACEL. MAX.(Gal), C7-C12                : 
ACEL. MAX., C7-C12,EN LA MUESTRA       : 
UNIDADES DE LOS DATOS                  : Gal (cm/s/s)
FACTOR DE DECIMACION                   : 1
FORMATO DATOS (FORTRAN,16 campos/dato) : 3E16.7


================================================================================
CALIDAD DEL ACELEROGRAMA:
REGISTRO DIGITAL COMPLETO CON TIEMPO ABSOLUTO CORRECTO


================================================================================
COMENTARIOS:














================================================================================
DATOS DE ACELERACION:
---------+---------+---------+---------+---------+---------+---------+---------+
   CANAL-1   	     CANAL-2          CANAL-3
     N90E             N00E              V
---------+---------+---------+---------+---------+---------+---------+---------+ 
[...]
  -3.3942300e-03  -5.0563000e-02   3.2418800e-02
   2.9144200e-02  -3.6783700e-02   2.6802900e-02
   4.2253300e-02  -6.1890500e-03   1.1593100e-02
   2.7271500e-02   2.3705000e-02   1.6507000e-02
  -7.3737500e-03   2.5806900e-02   2.2122900e-02
  -3.0782700e-02   3.6199300e-03   5.9772200e-03
  -3.5698600e-02   1.2027600e-02  -1.0667800e-04
  -3.4762200e-02   2.9310100e-02   1.1359100e-02
  -3.4060000e-02   3.2346200e-02   1.2997100e-02
  -5.1148500e-02   1.8333400e-02  -6.1905700e-03
  -6.1682600e-02  -2.2303800e-02  -2.3272300e-02
  -3.7805400e-02  -4.8928200e-02  -2.7952200e-02
   8.0761600e-03  -6.4575800e-02  -1.7656400e-02
   6.3555400e-02  -6.4108800e-02  -1.8826400e-02
   8.8837100e-02  -3.0010900e-02  -3.7780000e-02
   8.7900700e-02  -1.8333500e-02  -2.7952200e-02
   6.6130400e-02   8.1736300e-04  -1.0426600e-03
   4.4126000e-02   1.7866300e-02   5.2752300e-03
   4.9041900e-02   6.1889500e-03  -9.2325200e-03
   6.2853100e-02  -4.3206800e-03  -1.2742500e-02
   7.5962200e-02  -2.4523000e-03  -8.0625400e-03
   6.3087200e-02   5.8381600e-04  -1.1104500e-02
   4.0848700e-02  -2.5573500e-02  -2.0230300e-02
   1.7907900e-02  -1.4363200e-02  -2.1166300e-02
  -4.0965000e-03   1.1672100e-04  -8.0866600e-04
  -1.5215100e-03   8.5244200e-03   1.0657100e-02
   2.8207900e-02   3.0244300e-02   8.7851700e-03
   4.5998700e-02   2.3004300e-02   2.4228900e-02
   3.8507800e-02   2.6857400e-03   4.5990500e-02
   1.0651100e-02  -4.9395300e-02   4.3884600e-02
  -3.3357700e-02  -8.6762800e-02   2.0485000e-02
  -2.5866800e-02  -1.1525600e-01  -8.0866600e-04
   1.7557400e-03  -6.3875200e-02  -1.9060400e-02
   4.2253300e-02   9.9257000e-03  -3.2398100e-02
   6.2385000e-02   6.0605400e-02  -2.7718200e-02
   1.2055700e-02   1.1852500e-01   3.6131400e-04
  -3.8273600e-02   7.6253100e-02   3.9906600e-02
  -7.5493800e-02   5.9671300e-02   4.0140600e-02
  -5.8171200e-02   4.4724200e-02   9.2531600e-03
   7.3738900e-03   2.2770800e-02  -6.1905700e-03
   5.3021400e-02   6.5509900e-02   1.2061100e-02
   7.1514500e-02   9.4703300e-02   4.7160500e-02
   4.4126000e-02   1.2810100e-01   6.8454100e-02
  -1.9896900e-03   1.1011700e-01   8.1089900e-02
  -1.7439600e-02   2.1603100e-02   7.0092100e-02
  -1.3694200e-02  -2.0435400e-02   4.7628500e-02
   1.5567000e-02  -4.6125600e-02   2.6802900e-02
   4.1316900e-02  -2.2070300e-02   9.9551500e-03
   4.6232800e-02   3.8885600e-02   1.0189100e-02
   5.8873600e-02   2.6741100e-02   5.9531000e-04
   6.3321300e-02   1.4596600e-02  -1.9996300e-02
   7.5494000e-02  -2.7675400e-02  -3.6844000e-02
   7.3855400e-02  -7.2750000e-02  -3.2866100e-02
   4.7169100e-02  -7.3450600e-02  -1.7188400e-02
   2.7739700e-02  -7.4151300e-02  -1.1104500e-02
  -6.2033100e-03  -4.1921800e-02   1.2973000e-03
  -3.4996300e-02  -2.6274100e-02  -2.4466400e-03
  -4.0614500e-02  -2.0669000e-02  -2.3038300e-02
  -3.3825900e-02   5.0212100e-03  -2.9356200e-02
  -1.8376000e-02   1.3896000e-02  -2.3272300e-02
  -1.9078200e-02   2.4521900e-03  -7.3605500e-03
  -2.4462300e-02  -1.7632900e-02   5.7432200e-03
  -1.1587400e-02  -5.3599100e-02  -8.2965400e-03
   7.1398000e-03  -6.2006800e-02  -3.9184000e-02
   3.0314700e-02  -4.7059800e-02  -5.7669700e-02
   4.5062300e-02  -3.6316600e-02  -5.0649800e-02
   4.1082800e-02   2.1369500e-02  -2.7016200e-02
   2.4228400e-02   4.4724200e-02   2.2332800e-03
   1.9780600e-02   2.0902400e-02   1.0189100e-02
   4.6701000e-02   1.6698600e-02  -9.7005100e-03
   7.7366700e-02   9.6921600e-03  -1.1572500e-02
   9.8200700e-02  -1.9267700e-02  -6.6585600e-03
   8.1580300e-02  -5.1497200e-02   6.2112100e-03
   3.3357800e-02  -7.3450600e-02   4.4352600e-02
  -2.4578700e-03  -8.4193800e-02   5.2542400e-02
  -8.3101100e-03  -7.9756400e-02   1.9315000e-02
   1.4162500e-02  -6.5510000e-02  -1.9294300e-02
   5.0446400e-02  -3.5616000e-02  -3.9184000e-02
   7.4791700e-02  -3.3864900e-03  -3.1696100e-02
   6.0980400e-02   1.9968200e-02  -7.1265600e-03
   1.8142000e-02   2.8609500e-02   8.7851700e-03
  -1.2523700e-02   2.9076600e-02   9.0191600e-03
  -2.0951000e-02   2.5573400e-02   4.1052500e-03
  -1.5332800e-02   2.8142400e-02  -1.9996300e-02
   1.7673800e-02   1.8800500e-02  -3.7780000e-02
   5.2553200e-02  -1.7866400e-02  -2.7952200e-02
   7.9239400e-02  -3.7717900e-02  -1.8358400e-02
   7.3387200e-02  -1.1327100e-02   1.0633000e-03
   2.2121500e-02   1.3896000e-02   2.7738800e-02
  -2.7739600e-02   7.9289200e-02   3.6630700e-02
  -7.7132500e-02   1.5822800e-01   3.5928700e-02
  -9.8668700e-02   1.3791000e-01   2.1187000e-02
  -6.6364400e-02   6.0839000e-02  -7.1265600e-03
  -2.3291900e-02  -2.6040600e-02  -1.3678400e-02
   2.5164700e-02  -8.1858300e-02  -8.0625400e-03
   5.7937300e-02  -6.7845500e-02  -2.7250200e-02
   4.1082800e-02   3.1528300e-03  -5.2287800e-02
   4.0966400e-03   7.1815700e-02  -5.4861700e-02
  -4.1316800e-02   1.2646600e-01  -4.8543800e-02
  -7.9941600e-02   1.3884400e-01  -4.1524000e-02
  -6.8471200e-02   1.0591400e-01  -2.5846200e-02
  -2.7505500e-02   4.2622300e-02  -1.0636500e-02
   1.1587500e-02  -2.3238000e-02   1.9992900e-03
   5.7235000e-02  -4.4490800e-02  -1.2766600e-03
   7.1748600e-02  -2.1603200e-02  -1.3444400e-02
   5.5830500e-02   2.6040500e-02   1.0891100e-02
   4.9041900e-02   6.3875100e-02   4.4352600e-02
   2.3994300e-02   7.8822100e-02   5.1372400e-02
   2.8910100e-02   2.3705000e-02   3.9906600e-02
   6.7769000e-02  -4.9395300e-02   1.4635100e-02
   8.4857600e-02  -1.0124300e-01  -1.8826400e-02
   9.5625700e-02  -1.0334500e-01  -3.8482000e-02
   7.8537200e-02  -3.3047000e-02  -3.3334100e-02
   3.4996500e-02   5.4533200e-02  -5.4885800e-03
   7.3738900e-03   1.2810100e-01   2.7504800e-02
  -3.1601400e-03   1.4398200e-01   3.3120700e-02
  -1.7556000e-03   9.4002700e-02   2.5164900e-02
   1.6269300e-02  -6.1890500e-03   1.4401100e-02
   2.1653400e-02  -1.0404500e-01  -6.6585600e-03
   5.9693600e-03  -1.3137000e-01  -3.6844000e-02
  -8.3101100e-03  -8.7229900e-02  -5.5797700e-02
  -1.9780500e-02   1.9851000e-03  -3.5440100e-02
  -3.6635000e-02   9.6805300e-02  -4.5526000e-03
  -3.0782700e-02   1.0217700e-01   8.2930600e-04
  -2.8910000e-02   3.5382300e-02  -1.5784400e-02
  -3.8273600e-02  -7.4151300e-02  -3.2398100e-02
   2.9261900e-03  -7.6486800e-02  -1.9294300e-02
   1.5332900e-02   9.0966600e-02   1.4401100e-02
  -2.3291900e-02   1.5122200e-01   2.7036900e-02
  -3.4762200e-02   6.8779600e-02   1.9081000e-02
  -4.7403100e-02  -7.8822200e-02   2.4672800e-03
  -2.2355500e-02  -2.2385500e-01   2.4696900e-02
   7.1046300e-02  -2.6729500e-01   1.0285200e-01
   1.1692800e-01  -1.9396100e-01   1.5877700e-01
   9.2114400e-02   9.3068500e-02   1.4169500e-01
  -3.7337200e-02   3.8009800e-01   1.6039000e-02
  -2.2343900e-01   3.4132900e-01  -7.4283400e-02
  -1.7802500e-01   4.4490700e-02   5.7432200e-03
   4.4828200e-02  -3.3432300e-01   1.2063500e-01
   1.9932700e-01  -4.2050200e-01   1.6509400e-01
   1.9628400e-01  -8.1858300e-02   8.6003800e-02
   5.9693600e-03   2.9905700e-01  -5.2053800e-02
  -1.7779100e-01   3.6631900e-01  -7.7091300e-02
  -1.9207100e-01   1.7364200e-01  -3.5674100e-02
  -9.2816500e-02  -2.6974800e-02   6.2112100e-03
   2.9144200e-02  -1.6640200e-01   6.7284200e-02
   8.6730300e-02  -1.2740000e-01   2.8440800e-02
   2.3057900e-02   2.7208200e-02  -4.7373900e-02
  -6.0746200e-02   1.2272900e-01  -1.9060400e-02
  -9.0709700e-02   1.2786700e-01   3.8736700e-02
  -1.4291200e-01   2.2303700e-02   6.0264300e-02
  -1.3659100e-01  -1.6289900e-01   3.7800700e-02
  -2.2589600e-02  -2.8784700e-01  -1.4848400e-02
   7.3855400e-02  -2.7009700e-01  -6.4689600e-02
   7.7834900e-02  -1.4047900e-01  -7.1007500e-02
  -2.6335000e-02   5.3832600e-02  -3.2866100e-02
  -1.5016800e-01   1.5846200e-01   1.0189100e-02
  -1.5297800e-01   1.3253800e-01   4.4586600e-02
  -5.1850800e-02   5.2431300e-02   3.4992700e-02
   5.1850900e-02  -9.1667300e-02  -1.8592400e-02
   8.9773500e-02  -1.7504400e-01  -4.4799900e-02
   1.9780600e-02  -1.7504400e-01  -6.1881600e-02
  -7.5727900e-02  -1.1945900e-01  -5.6733700e-02
  -1.1599100e-01   1.5530800e-02  -3.8506100e-03
  -1.0194600e-01   6.8079000e-02   2.1421000e-02
  -5.4191700e-02   8.0690500e-02  -1.0426600e-03
  -1.2874200e-03   5.3832600e-02  -4.5735900e-02
   1.8142000e-02  -1.1327100e-02  -4.7373900e-02
  -1.2055500e-02  -2.8142500e-02   1.0657100e-02
  -6.1916600e-02  -1.9734800e-02   4.4352600e-02
  -1.0990500e-01   3.9119100e-02   3.5460700e-02
  -1.0569100e-01   8.1624700e-02   1.6975000e-02
  -3.4996300e-02   1.0311100e-01   8.0831800e-03
   4.6232800e-02   9.4469800e-02  -2.9146300e-03
   8.7432600e-02   4.4023600e-02  -7.5945500e-03
   6.8705400e-02   7.5902300e-03   1.3699100e-02
   3.6166900e-02  -4.0520500e-02   1.6741000e-02
   1.9078400e-02  -5.5701100e-02  -7.3605500e-03
   1.6035200e-02  -4.4023700e-02  -3.3334100e-02
   2.1887500e-02  -2.7908900e-02  -3.4972100e-02
   1.6971600e-02   4.2622300e-02  -4.0846100e-03
   2.1887500e-02   1.1759100e-01   9.7211500e-03
   1.4162500e-02   1.5122200e-01  -2.9146300e-03
   3.6284600e-03   1.4071200e-01  -1.6252400e-02
   1.1821600e-02   2.7441700e-02  -2.5846200e-02
   9.2466100e-03  -9.0499600e-02  -3.8716000e-02
   2.4696500e-02  -1.1151900e-01  -5.7669700e-02
   2.4696500e-02  -7.2750000e-02  -3.9418000e-02
   4.5648200e-03   4.0987500e-02  -8.0625400e-03
  -8.1924400e-04   1.0521300e-01   8.3171800e-03
   5.0330000e-03   1.1922600e-01   1.0189100e-02
   4.3891900e-02   8.0223400e-02  -2.0698300e-02
   8.3687100e-02  -1.9501200e-02  -3.0760100e-02
   9.9839300e-02  -6.1773300e-02  -1.2766600e-03
   9.4455200e-02  -5.4533300e-02   3.3120700e-02
   6.2619100e-02   3.1178500e-02   4.4118600e-02
   4.9978200e-02   8.1157600e-02   3.4056700e-02
   5.2085000e-02   7.9289200e-02   2.2332800e-03
   6.8705400e-02   6.8546000e-02  -5.4885800e-03
   9.7732500e-02   5.2664800e-02   1.4635100e-02
   9.7966600e-02   4.5658400e-02   2.3526900e-02
   8.6730300e-02   3.6550100e-02   4.8330500e-02
   6.1682700e-02   5.0796500e-02   4.1310600e-02
   3.8507800e-02   4.2855900e-02   3.4056700e-02
   3.2889700e-02   6.7611900e-02   4.3650600e-02
   3.9210100e-02   7.5085400e-02   4.7862500e-02
   6.3321300e-02   6.3174500e-02   5.2776400e-02
   9.1880300e-02   2.1369500e-02   5.2308400e-02
   9.6796100e-02  -4.7293400e-02   7.1028100e-02
   8.9539400e-02  -7.8355100e-02   4.5756500e-02
   8.3453000e-02  -2.4405700e-02   4.3182600e-02
   8.3453000e-02   1.1548900e-01   3.0546800e-02
   1.1435300e-01   1.7294200e-01  -1.6720400e-02
   1.0241400e-01   9.8206500e-02  -8.8323200e-02
   2.0482900e-02  -1.3954400e-01  -1.6554200e-01
  -3.7571300e-02  -3.2311300e-01   7.6176000e-02
   6.3789500e-02  -4.6604300e-01   3.6726700e-01
   2.5176400e-01  -2.5118000e-01   2.4956700e-01
   2.7798200e-01   4.5483300e-01  -1.0704300e-01
   1.4197500e-01   6.9375200e-01  -3.5952400e-01
  -1.0943700e-01   2.2081900e-01  -2.3550700e-01
  -2.1782000e-01  -4.9453600e-01   2.2944300e-01
   1.6023400e-01  -5.0294400e-01   4.0283400e-01
   4.8374600e-01   1.9466200e-01  -1.0587300e-01
   2.8992000e-01   3.6982200e-01  -3.3963500e-01
   1.8844300e-02   1.6196500e-01  -2.6548200e-02
  -9.9371000e-02   1.0171000e-01   1.2997100e-02
  -9.2114200e-02  -7.5903400e-03  -1.7890400e-02
   7.0109900e-02  -6.0138500e-02   5.1138400e-02
   1.8598400e-01  -2.6507700e-02   3.7098700e-02
   1.0124400e-01  -1.0124300e-01  -1.3912400e-02
   1.1711500e-04  -1.0848300e-01  -1.0072500e-01
  -1.9078200e-02   7.8588600e-02  -6.9369500e-02
  -7.6078400e-03   1.5262300e-01   4.1778600e-02
   8.0761600e-03  -3.6316600e-02   3.1248800e-02
   3.7805600e-02  -1.5519200e-01  -1.0821300e-01
   1.1435300e-01  -1.0661400e-01  -1.5407600e-01
   8.4857600e-02  -7.6486800e-02  -1.4614400e-02
  -3.5230400e-02   2.5806900e-02   8.3663900e-02
  -8.1346100e-02   1.3557400e-01   3.1248800e-02
  -6.6364400e-02   1.3907700e-01  -2.3038300e-02
  -3.8624100e-03  -2.4523000e-03   2.4672800e-03
   5.1382800e-02  -2.1007600e-01   2.7738800e-02
   5.8639500e-02  -1.8064900e-01  -5.7225800e-03
   5.2553200e-02  -2.6040600e-02  -3.4504100e-02
   1.7557400e-03   9.8440100e-02   4.3392500e-03
  -3.6869100e-02   1.2693300e-01   4.6458500e-02
  -2.7271400e-02   2.4872700e-02   4.9734500e-02
  -3.0080500e-02  -3.7484400e-02   1.6039000e-02
  -1.3226000e-02  -6.1539700e-02  -1.5784400e-02
   2.6921000e-03  -6.9947400e-02   2.4228900e-02
   1.6971600e-02  -1.1093500e-02   4.8096500e-02
   2.0482900e-02   5.8970600e-02  -7.3605500e-03
  -1.3928300e-02   8.1624700e-02  -3.1228100e-02
  -4.7169000e-02   2.5106300e-02   1.2295100e-02
  -6.4023500e-02  -4.1454700e-02   5.2074400e-02
  -4.9978100e-02  -3.3514100e-02   2.9142800e-02
  -3.4762200e-02  -4.3790100e-02  -2.9590200e-02
  -2.3291900e-02  -8.6762800e-02  -5.0415800e-02
  -2.1419100e-02  -1.0241000e-01  -1.9294300e-02
  -4.1316800e-02  -7.6253200e-02   9.2531600e-03
  -3.6635000e-02  -1.0510100e-03   1.2973000e-03
  -1.6035100e-02   2.9076600e-02   7.1472000e-03
  -1.8141900e-02   1.2027600e-02   2.4696900e-02
  -1.8376000e-02  -7.8238800e-03   2.5398900e-02
  -3.2187300e-02  -5.9555100e-03   2.8440800e-02
  -2.9612300e-02   2.9777200e-02   3.0312800e-02
  -2.8207700e-02   3.1645600e-02   2.3760900e-02
  -7.5727900e-02   3.1645600e-02   2.9352700e-03
  -6.9407500e-02  -9.6922600e-03  -2.4442300e-02
  -4.6700800e-02  -3.4915400e-02  -3.0058200e-02
  -3.4996300e-02  -2.7675400e-02  -1.7656400e-02
  -3.0314500e-02  -3.5849500e-02  -1.9294300e-02
  -7.5025700e-02   7.3566800e-03  -2.1166300e-02
  -9.1411900e-02   1.8566900e-02  -6.6585600e-03
  -7.1982500e-02  -1.3195500e-02  -8.2965400e-03
  -4.1316800e-02  -4.8928200e-02  -2.5612200e-02
   6.2034500e-03  -3.3747600e-02  -8.9985200e-03
   2.1887500e-02   4.5541200e-03   2.8206800e-02
   8.1938400e-04   3.1645600e-02   2.3994900e-02
  -4.5296300e-02   6.0371900e-02  -1.9786500e-03
  -8.2282400e-02   2.0435300e-02  -1.0402500e-02
  -6.6598400e-02  -2.1603200e-02   1.4167100e-02
  -2.8441800e-02  -3.8885700e-02   4.8798500e-02
   2.1419300e-02  -3.6783700e-02   3.7800700e-02
   3.9678300e-02   3.2346200e-02   1.7652900e-03
   2.4696500e-02   4.2155200e-02  -1.0168500e-02
   5.2670900e-03   1.4830200e-02  -4.7866000e-03
  -2.6803200e-02  -1.2494800e-02   1.2763100e-02
  -2.6335000e-02  -4.7760500e-02   4.1778600e-02
  -1.6737300e-02  -8.0574300e-03   5.0202500e-02
  -6.6714900e-03   1.1672100e-04   2.2824900e-02
   8.0761600e-03   1.9267600e-02  -6.4245700e-03
   6.6716300e-03   3.9819700e-02  -5.2545900e-03
   1.8142000e-02   1.5063700e-02   1.9315000e-02
   3.7805600e-02   1.4363100e-02   4.2012600e-02
   5.3255500e-02   2.1136000e-02   2.2824900e-02
   6.5428100e-02   1.6231500e-02  -1.3912400e-02
   4.5062300e-02   1.4596600e-02  -9.4665200e-03
   1.3460200e-02   1.1560500e-02   5.0412300e-03
  -7.6078400e-03  -5.4884100e-03  -1.7422400e-02
  -1.2991900e-02   9.2250600e-03  -4.6671900e-02
   7.6079800e-03   2.2186500e-03  -5.9541700e-02
   4.3307300e-03   3.1528300e-03  -7.0539500e-02
  -1.0533300e-03  -1.9852000e-03  -6.5391600e-02
   1.1353400e-02  -5.2664900e-02  -5.8137700e-02
   3.4294200e-02  -1.0871600e-01  -5.7903700e-02
   4.7403200e-02  -1.5892900e-01  -4.6203900e-02
   1.7439700e-02  -1.5846200e-01  -2.3740300e-02
  -2.4930500e-02  -1.0264400e-01  -3.6166200e-03
  -5.6532600e-02  -8.2909800e-03  -3.0760100e-02
  -5.3255300e-02   2.4639200e-02  -6.8667500e-02
  -1.3928300e-02  -2.2537400e-02  -4.1524000e-02
   2.1419300e-02  -1.2926800e-01   4.1076600e-02
