**************************************************************************************
  	RED ACELEROGRÁFICA DE LA UNIVERSIDAD AUTONOMA METROPOLITANA (RA-UAM)
	   UNIDAD AZCAPOTZALCO. DIVISIÓN CBI-DEPARTAMENTO DE MATERIALES
     Av. San Pablo 420, Col. Nueva el Rosario, Azcapotzalco, C.P. 02128, Ciudad de México
		Área de Estructuras. e-mail: agb@azc.uam.mx
**************************************************************************************
ARCHIVO ESTANDAR DE ACELERACION:
VERSION DEL FORMATO                    : 2.0
NOMBRE DEL ARCHIVO                     : RIDA202209.221
FECHA Y HORA DE CREACION               : 11:30 a. m. 29/09/2022
REF. CATALOGO ACELEROGRAMAS, SMIS 1999 : REGISTRO NO.      /PAG.    


================================================================================
DATOS DE LA ESTACION:
NOMBRE DE LA ESTACION                  : UAM-AZCAPOTZALCO.
CLAVE DE LA ESTACION                   : RIDA
LOCALIZACION DE LA ESTACION            : AV. SAN PABLO 420, COL. NUEVA EL ROSARIO,
                                       : AZCAPOTZALCO, C.P.02128, CIUDAD DE MEXICO. 
                                       :
                                       : 
                                       : 
COORDENADAS DE LA ESTACION             : 19.498596 LAT. N
                                       : 99.195595 LONG. W
ALTITUD (msnm)                         : 2546
TIPO DE SUELO                          : ZONA DE TRANSICION
                                       : 
                                       : 
INSTITUCION RESPONSABLE                : UNIVERSIDAD AUTONOMA METROPOLITANA
                                       : 

================================================================================
DATOS DEL ACELEROGRAFO: 
MODELO DEL ACELEROGRAFO                : ETNA2 KINEMETRICS
NUMERO DE SERIE DEL ACELEROGRAFO       : 103732
NUMERO DE CANALES                      : 3
ORIENTACION C1-C6 (rumbo;orientacion)  : /N90E/N00E/V
ORIENTACION C7-C12 (rumbo;orientacion) : 
VEL. DE MUESTREO, C1-C6 (muestras/s)   : /200/200/200
VEL. DE MUESTREO, C7-C12 (muestras/s)  : 
ESC. COMPLETA DE SENSORES, C1-C6, (g)  : /2/2/2
ESC. COMPLETA DE SENSORES, C7-C12 (g)  : 
FREC. NAT. DE SENSORES, C1-C6, (Hz)    : /198/212/200   
FREC. NAT. DE SENSORES, C7-C12 (Hz)    : 
AMORTIGUAMIENTO DE SENSORES, C1-C6     : /0.7/0.7/0.7      
AMORTIGUAMIENTO DE SENSORES, C7-C12    : 
INTERVALO DE MUESTREO, C1-C6 (s)       : /0.005/0.005/0.005
INTERVALO DE MUESTREO, C7-C12 (s)      : 
UMBRAL DE DISPARO, C1-C6 (Gal)         : /2/2/2
UMBRAL DE DISPARO, C7-C12 (Gal)        : 
MEMORIA DE PREEVENTO (s)               : 50
TIEMPO DE POSEVENTO (s)                : 60


================================================================================
DATOS DEL SISMO:
FECHA DEL SISMO [GMT]                  : 2022/09/22
HORA EPICENTRO (GMT)                   : 06:19:09
MAGNITUD(ES)                           : /M=6.9
COORDENADAS DEL EPICENTRO              : 18.0100 LAT. N
                                       : -103.1800 LONG. W
PROFUNDIDAD FOCAL (Km)                 : 12.0
FUENTE DE LOS DATOS EPICENTRALES       : SSN
                                       : INSTITUTO DE GEOFISICA, UNAM

================================================================================
DATOS DE ESTE REGISTRO:
HORA DE LA PRIMERA MUESTRA (GMT)       : 06:16:37.000
EXACTITUD DEL TIEMPO (s)               : 
DURACION DEL REGISTRO (s), C1-C6       : /280/280/280
DURACION DEL REGISTRO (s), C7-C12      : 
NUM. TOTAL DE MUESTRAS, C1-C6          : /56000/56000/56000
NUM. TOTAL DE MUESTRAS, C7-C12         : 
ACEL. MAX.(Gal), C1-C6                 : /-6.692/-5.237/-1.623
ACEL. MAX., C1-C6, EN LA MUESTRA       : /21216/21236/21416
ACEL. MAX.(Gal), C7-C12                : 
ACEL. MAX., C7-C12,EN LA MUESTRA       : 
UNIDADES DE LOS DATOS                  : Gal (cm/s/s)
FACTOR DE DECIMACION                   : 1
FORMATO DATOS (FORTRAN,16 campos/dato) : 3E16.7


================================================================================
CALIDAD DEL ACELEROGRAMA:
REGISTRO DIGITAL COMPLETO CON TIEMPO ABSOLUTO CORRECTO


================================================================================
COMENTARIOS:














================================================================================
DATOS DE ACELERACION:
---------+---------+---------+---------+---------+---------+---------+---------+
   CANAL-1   	     CANAL-2          CANAL-3
     N90E             N00E              V
---------+---------+---------+---------+---------+---------+---------+---------+ 
[...]
  -2.7910200e-01   1.1040500e+00   7.7390300e-02
  -2.0138400e-01   1.0676100e+00   7.8794300e-02
  -1.1968700e-01   1.0575700e+00   8.1134200e-02
  -4.5480400e-02   1.0596700e+00   8.3474200e-02
   4.0898700e-02   1.0554700e+00   9.5642000e-02
   1.2329800e-01   1.0680800e+00   1.0781000e-01
   2.0991100e-01   1.0874700e+00   1.2442300e-01
   2.9910000e-01   1.1101200e+00   1.3284700e-01
   3.7962600e-01   1.1299700e+00   1.4290900e-01
   4.7841200e-01   1.1514600e+00   1.6069300e-01
   5.7860300e-01   1.1881200e+00   1.6747900e-01
   6.9026300e-01   1.2304000e+00   1.7707300e-01
   8.1199000e-01   1.2736000e+00   1.8339000e-01
   9.2341700e-01   1.3375900e+00   1.8385800e-01
   1.0399900e+00   1.3971500e+00   1.8385800e-01
   1.1432300e+00   1.4623100e+00   1.8596400e-01
   1.2464600e+00   1.5361100e+00   1.8690000e-01
   1.3590600e+00   1.6057100e+00   1.8385800e-01
   1.4562000e+00   1.6930500e+00   1.7426500e-01
   1.5589700e+00   1.7783000e+00   1.6022500e-01
   1.6526100e+00   1.8773200e+00   1.4829100e-01
   1.7270500e+00   1.9772800e+00   1.3893100e-01
   1.8003200e+00   2.0935900e+00   1.2886900e-01
   1.8642200e+00   2.2327800e+00   1.1600000e-01
   1.9323400e+00   2.3357800e+00   1.0453400e-01
   1.9976500e+00   2.4518500e+00   9.2132000e-02
   2.0479800e+00   2.5807700e+00   8.3006200e-02
   2.1020600e+00   2.6828300e+00   8.3942200e-02
   2.1472400e+00   2.7799800e+00   8.8388100e-02
   2.1861000e+00   2.8888100e+00   8.9792100e-02
   2.2371300e+00   2.9845700e+00   9.2834000e-02
   2.2809000e+00   3.0768200e+00   9.8215900e-02
   2.3249100e+00   3.1725700e+00   1.1178800e-01
   2.3691500e+00   3.2627200e+00   1.2746500e-01
   2.4127000e+00   3.3465700e+00   1.4267500e-01
   2.4567000e+00   3.4385900e+00   1.6092700e-01
   2.4929900e+00   3.5261700e+00   1.7730700e-01
   2.5278700e+00   3.5990300e+00   1.9579200e-01
   2.5522100e+00   3.6905800e+00   2.1474600e-01
   2.5728100e+00   3.7795600e+00   2.4235700e-01
   2.5952900e+00   3.8522000e+00   2.7090500e-01
   2.6154200e+00   3.9241300e+00   2.9711200e-01
   2.6315700e+00   4.0098400e+00   3.1910800e-01
   2.6500600e+00   4.0642600e+00   3.3806200e-01
   2.6687900e+00   4.1247500e+00   3.5818500e-01
   2.6915000e+00   4.1808000e+00   3.7199100e-01
   2.7158400e+00   4.2300800e+00   3.8509500e-01
   2.7312900e+00   4.2901000e+00   3.9515700e-01
   2.7422900e+00   4.3216300e+00   4.0989900e-01
   2.7397200e+00   4.3685700e+00   4.2323600e-01
   2.7350400e+00   4.3996300e+00   4.3002200e-01
   2.7303500e+00   4.4199500e+00   4.4874200e-01
   2.7209900e+00   4.4447100e+00   4.7050300e-01
   2.7125600e+00   4.4519500e+00   4.8688300e-01
   2.6929000e+00   4.4559200e+00   5.0794300e-01
   2.6617700e+00   4.4580200e+00   5.3227800e-01
   2.6243100e+00   4.4594200e+00   5.5450800e-01
   2.5849900e+00   4.4629200e+00   5.8095000e-01
   2.5496400e+00   4.4500800e+00   6.1347500e-01
   2.5100800e+00   4.4477400e+00   6.4366100e-01
   2.4721500e+00   4.4227500e+00   6.7291000e-01
   2.4347000e+00   4.4092100e+00   6.9982000e-01
   2.3857700e+00   4.3874900e+00   7.2555900e-01
   2.3408300e+00   4.3309700e+00   7.5738300e-01
   2.2933100e+00   4.3034100e+00   7.8756800e-01
   2.2434500e+00   4.2359200e+00   8.1798700e-01
   2.1971000e+00   4.1688900e+00   8.4770500e-01
   2.1444300e+00   4.0988200e+00   8.8116600e-01
   2.0891800e+00   4.0257200e+00   9.1439400e-01
   2.0318300e+00   3.9528600e+00   9.4574900e-01
   1.9658200e+00   3.8855900e+00   9.8342300e-01
   1.9044900e+00   3.8167000e+00   1.0178200e+00
   1.8513500e+00   3.7265500e+00   1.0503500e+00
   1.7921200e+00   3.6499500e+00   1.0688300e+00
   1.7392200e+00   3.5619000e+00   1.0810000e+00
   1.6860800e+00   3.4642800e+00   1.1034600e+00
   1.6334100e+00   3.3809000e+00   1.1165700e+00
   1.5877600e+00   3.2923800e+00   1.1186700e+00
   1.5552200e+00   3.1844900e+00   1.1252200e+00
   1.5336900e+00   3.0952700e+00   1.1235900e+00
   1.5163700e+00   3.0011500e+00   1.1146900e+00
   1.5109800e+00   2.9032900e+00   1.1130600e+00
   1.5070000e+00   2.8068400e+00   1.1144600e+00
   1.5098100e+00   2.6968400e+00   1.1172700e+00
   1.5245600e+00   2.6010800e+00   1.1170300e+00
   1.5477300e+00   2.5062600e+00   1.1154000e+00
   1.5858900e+00   2.3871600e+00   1.1203100e+00
   1.6313000e+00   2.2813600e+00   1.1287300e+00
   1.6828000e+00   2.1753300e+00   1.1385600e+00
   1.7504600e+00   2.0718700e+00   1.1455800e+00
   1.8225600e+00   1.9796200e+00   1.1474500e+00
   1.9061300e+00   1.8796600e+00   1.1490900e+00
   1.9997600e+00   1.7990800e+00   1.1369200e+00
   2.0950400e+00   1.7084700e+00   1.1193700e+00
   2.1999100e+00   1.6148200e+00   1.1018200e+00
   2.3054800e+00   1.5232600e+00   1.0716400e+00
   2.4162100e+00   1.4363900e+00   1.0377100e+00
   2.5241200e+00   1.3684200e+00   9.9278200e-01
   2.6285300e+00   1.3051300e+00   9.4621700e-01
   2.7437000e+00   1.2467400e+00   9.0035400e-01
   2.8546600e+00   1.1930300e+00   8.4419500e-01
   2.9768500e+00   1.1379100e+00   7.8990800e-01
   3.1161300e+00   1.0671500e+00   7.4006700e-01
   3.2498000e+00   9.9755000e-01   6.8507800e-01
   3.3933000e+00   9.3285700e-01   6.2657900e-01
   3.5473300e+00   8.7003300e-01   5.7135600e-01
   3.7018300e+00   8.1398200e-01   5.1262300e-01
   3.8626500e+00   7.7241000e-01   4.5576200e-01
   4.0227600e+00   7.2570100e-01   3.9702900e-01
   4.1910700e+00   6.7945900e-01   3.3853000e-01
   4.3629000e+00   6.3485100e-01   2.8330700e-01
   4.5394000e+00   5.6852400e-01   2.2527600e-01
   4.7177800e+00   5.2928800e-01   1.7473300e-01
   4.8835100e+00   4.7393700e-01   1.2559300e-01
   5.0536900e+00   4.1274800e-01   8.7920100e-02
   5.2168600e+00   3.6720600e-01   5.3522700e-02
   5.3783800e+00   2.9644100e-01   1.9827300e-02
   5.5417700e+00   2.2801200e-01  -3.8063200e-03
   5.6918200e+00   1.5444500e-01  -2.5100000e-02
   5.8315700e+00   8.6949400e-02  -4.0075700e-02
   5.9544700e+00   3.3395000e-03  -4.8265600e-02
   6.0574700e+00  -6.0886000e-02  -5.2711500e-02
   6.1450200e+00  -1.4449600e-01  -5.3647500e-02
   6.2131400e+00  -2.4165200e-01  -4.9435500e-02
   6.2742400e+00  -3.2152500e-01  -4.7797600e-02
   6.3266700e+00  -4.3362700e-01  -4.6393600e-02
   6.3620200e+00  -5.2541100e-01  -4.0777700e-02
   6.3849600e+00  -6.1135700e-01  -3.8905700e-02
   6.3844900e+00  -6.9683500e-01  -3.6331800e-02
   6.3723200e+00  -7.9936200e-01  -3.1885800e-02
   6.3402500e+00  -8.7176200e-01  -3.0247900e-02
   6.2976500e+00  -9.5210200e-01  -3.1417800e-02
   6.2552800e+00  -1.0485600e+00  -3.8905700e-02
   6.1923100e+00  -1.1055400e+00  -4.6627600e-02
   6.1298000e+00  -1.2104100e+00  -5.9731400e-02
   6.0586400e+00  -1.2858400e+00  -8.3364900e-02
   5.9771800e+00  -1.3507700e+00  -1.1448600e-01
   5.9020400e+00  -1.4327400e+00  -1.4069400e-01
   5.8112100e+00  -1.4901900e+00  -1.6736900e-01
   5.7189800e+00  -1.5504500e+00  -2.1065900e-01
   5.6171500e+00  -1.6067300e+00  -2.5418200e-01
   5.5036200e+00  -1.6726000e+00  -2.9232300e-01
   5.4022500e+00  -1.7330800e+00  -3.3257100e-01
   5.2964500e+00  -1.7926400e+00  -3.7913600e-01
   5.1946200e+00  -1.8521900e+00  -4.2733900e-01
   5.0864700e+00  -1.9222600e+00  -4.7039400e-01
   4.9614600e+00  -1.9724700e+00  -5.1508700e-01
   4.8249900e+00  -2.0117100e+00  -5.5416500e-01
   4.6695500e+00  -2.0726600e+00  -5.8715800e-01
   4.5199700e+00  -2.1133000e+00  -6.2647000e-01
   4.3645300e+00  -2.1516000e+00  -6.6320700e-01
   4.2048900e+00  -2.1878000e+00  -7.0088000e-01
   4.0583500e+00  -2.2183900e+00  -7.3434200e-01
   3.8970600e+00  -2.2531900e+00  -7.6031500e-01
   3.7343700e+00  -2.2858900e+00  -7.8441700e-01
   3.5691000e+00  -2.3209200e+00  -8.0149900e-01
   3.3827600e+00  -2.3386700e+00  -8.2232400e-01
   3.2006400e+00  -2.3606300e+00  -8.2840800e-01
   3.0089200e+00  -2.3606300e+00  -8.2489800e-01
   2.8125200e+00  -2.3281600e+00  -8.2957800e-01
   2.6210400e+00  -2.2926600e+00  -8.2326000e-01
   2.4197200e+00  -2.2333400e+00  -8.1530400e-01
   2.2312800e+00  -2.1695800e+00  -8.1156000e-01
   2.0397900e+00  -2.1114300e+00  -8.0360500e-01
   1.8487700e+00  -2.0411300e+00  -7.9237300e-01
   1.6685200e+00  -1.9612600e+00  -7.7248300e-01
   1.4777400e+00  -1.8746100e+00  -7.5376300e-01
   1.2916400e+00  -1.7758200e+00  -7.3387400e-01
   1.0975800e+00  -1.6700300e+00  -7.0134800e-01
   9.0117800e-01  -1.5647000e+00  -6.7209900e-01
   7.0922500e-01  -1.4654400e+00  -6.3840300e-01
   5.2031400e-01  -1.3647800e+00  -6.0330400e-01
   3.4919500e-01  -1.2589800e+00  -5.7709600e-01
   1.6192300e-01  -1.1368400e+00  -5.5439900e-01
  -2.3944100e-02  -1.0417800e+00  -5.3216900e-01
  -2.1308900e-01  -9.4322700e-01  -5.0175000e-01
  -4.2821700e-01  -8.3953200e-01  -4.7998800e-01
  -6.3491800e-01  -7.5615600e-01  -4.5822600e-01
  -8.5168500e-01  -6.6133600e-01  -4.3974100e-01
  -1.0719600e+00  -5.6978500e-01  -4.2219100e-01
  -1.2840500e+00  -4.8477400e-01  -3.9036800e-01
  -1.4923900e+00  -4.3059100e-01  -3.5222600e-01
  -1.6876200e+00  -3.7991100e-01  -3.0542700e-01
  -1.8791000e+00  -3.1545200e-01  -2.6424400e-01
  -2.0682500e+00  -2.7901900e-01  -2.1721100e-01
  -2.2662900e+00  -2.2927400e-01  -1.7158100e-01
  -2.4671400e+00  -1.5991000e-01  -1.3788600e-01
  -2.6654100e+00  -1.4029200e-01  -9.7170700e-02
  -2.8650900e+00  -9.3115500e-02  -6.5113300e-02
  -3.0523600e+00  -8.1204600e-02  -3.5161800e-02
  -3.2401000e+00  -9.4283200e-02  -5.2103000e-03
  -3.4297100e+00  -8.6809700e-02   1.6785300e-02
  -3.6162800e+00  -1.2604600e-01   4.0652900e-02
  -3.8012100e+00  -1.4683100e-01   6.1478600e-02
  -3.9920000e+00  -1.7532400e-01   8.3942200e-02
  -4.1818400e+00  -2.0171500e-01   1.0617200e-01
  -4.3651400e+00  -2.4141800e-01   1.2348700e-01
  -4.5524100e+00  -2.8509100e-01   1.3565500e-01
  -4.7247000e+00  -3.2619600e-01   1.4805700e-01
  -4.8848200e+00  -4.0490100e-01   1.5975700e-01
  -5.0386100e+00  -4.5908400e-01   1.6420300e-01
  -5.1858600e+00  -5.2984900e-01   1.6584100e-01
  -5.3368400e+00  -6.1999800e-01   1.6022500e-01
  -5.4927500e+00  -6.9146300e-01   1.5203500e-01
  -5.6524000e+00  -7.8441500e-01   1.4010100e-01
  -5.8026800e+00  -9.0399100e-01   1.2418900e-01
  -5.9361100e+00  -1.0296400e+00   1.0710800e-01
  -6.0550300e+00  -1.1618300e+00   8.7686100e-02
  -6.1559200e+00  -1.3026600e+00   7.1540400e-02
  -6.2554100e+00  -1.4488600e+00   4.7906800e-02
  -6.3453000e+00  -1.6067300e+00   2.8017100e-02
  -6.4263000e+00  -1.7475600e+00   1.6785300e-02
  -6.5108000e+00  -1.8982000e+00   9.9994400e-03
  -6.5688600e+00  -2.0628500e+00   4.8515300e-03
  -6.6131000e+00  -2.2186300e+00  -2.8703400e-03
  -6.6498500e+00  -2.3849100e+00  -6.6142700e-03
  -6.6674100e+00  -2.5687200e+00  -3.1043300e-03
  -6.6826200e+00  -2.7396700e+00   6.9574900e-03
  -6.6915200e+00  -2.9120300e+00   2.0763300e-02
  -6.6924600e+00  -3.1000400e+00   4.0184900e-02
  -6.6917500e+00  -3.2674900e+00   5.3288700e-02
  -6.6779400e+00  -3.4550300e+00   6.4052500e-02
  -6.6620200e+00  -3.6185100e+00   7.6922300e-02
  -6.6379100e+00  -3.7899300e+00   9.0728000e-02
  -6.5936700e+00  -3.9662600e+00   1.0406600e-01
  -6.5501300e+00  -4.0935500e+00   1.1319200e-01
  -6.4768600e+00  -4.2532900e+00   1.2582700e-01
  -6.3911800e+00  -4.3707700e+00   1.3425100e-01
  -6.2989500e+00  -4.4898700e+00   1.3495300e-01
  -6.1875300e+00  -4.6276700e+00   1.3354900e-01
  -6.0803100e+00  -4.7199200e+00   1.3425100e-01
  -5.9564800e+00  -4.8371600e+00   1.3425100e-01
  -5.8265600e+00  -4.9420200e+00   1.2606100e-01
  -5.6865700e+00  -5.0172200e+00   1.1295800e-01
  -5.5353500e+00  -5.0774800e+00   9.8449900e-02
  -5.3843600e+00  -5.1223200e+00   8.5580100e-02
  -5.2155800e+00  -5.1718300e+00   7.7858300e-02
  -5.0414200e+00  -5.2101300e+00   7.5284300e-02
  -4.8590700e+00  -5.2085000e+00   7.0838400e-02
  -4.6626600e+00  -5.2369900e+00   7.2710400e-02
  -4.4721200e+00  -5.2204100e+00   7.4582300e-02
  -4.2693900e+00  -5.1690300e+00   7.2944400e-02
  -4.0619900e+00  -5.1501100e+00   8.4878100e-02
  -3.8597400e+00  -5.0758400e+00   9.7747900e-02
  -3.6467200e+00  -5.0279700e+00   1.1249000e-01
  -3.4390800e+00  -4.9684100e+00   1.2535900e-01
  -3.2230100e+00  -4.8890100e+00   1.3097500e-01
  -3.0069500e+00  -4.8317900e+00   1.4431300e-01
  -2.7944000e+00  -4.7642900e+00   1.6162900e-01
  -2.5778600e+00  -4.6855900e+00   1.7707300e-01
  -2.3697600e+00  -4.6029100e+00   2.0281200e-01
  -2.1569700e+00  -4.5172000e+00   2.3112600e-01
  -1.9502700e+00  -4.3976200e+00   2.5007900e-01
  -1.7473100e+00  -4.2824800e+00   2.6739500e-01
  -1.5371000e+00  -4.1671100e+00   2.8400900e-01
  -1.3315700e+00  -4.0356300e+00   2.9945200e-01
  -1.1232300e+00  -3.8912900e+00   3.1232200e-01
  -9.1325100e-01  -3.7591100e+00   3.2449000e-01
  -7.0959300e-01  -3.6073000e+00   3.2355400e-01
  -5.0382800e-01  -3.4351800e+00   3.2261800e-01
  -3.1632200e-01  -3.2810300e+00   3.2846800e-01
  -1.3560500e-01  -3.0935000e+00   3.3478600e-01
   4.0430500e-02  -2.9246400e+00   3.4789000e-01
   1.9282300e-01  -2.7340700e+00   3.5678100e-01
   3.5130200e-01  -2.5448900e+00   3.7479900e-01
   4.9245800e-01  -2.3788400e+00   3.9094500e-01
   6.2354800e-01  -2.1660800e+00   4.0053900e-01
   7.5978800e-01  -1.9930200e+00   4.1457800e-01
   8.8151500e-01  -1.8099200e+00   4.2768200e-01
   1.0069900e+00  -1.6132700e+00   4.4523200e-01
   1.1212200e+00  -1.4364800e+00   4.5786800e-01
   1.2272700e+00  -1.2449700e+00   4.7143900e-01
   1.3206700e+00  -1.0646700e+00   4.8290500e-01
   1.3908900e+00  -8.7269600e-01   4.9086100e-01
   1.4526900e+00  -7.0664400e-01   5.0770900e-01
   1.4948300e+00  -5.4292700e-01   5.2783300e-01
   1.5348600e+00  -3.9275700e-01   5.4912600e-01
   1.5690400e+00  -2.6500600e-01   5.6925000e-01
   1.5915100e+00  -1.2721300e-01   5.9405300e-01
   1.6097700e+00  -5.5353000e-03   6.2423900e-01
   1.6163200e+00   1.3739600e-01   6.5091400e-01
   1.6221700e+00   2.3385100e-01   6.7595200e-01
   1.6198300e+00   3.5436100e-01   6.9537400e-01
   1.6170200e+00   4.5969100e-01   7.1596500e-01
   1.6184300e+00   5.3349200e-01   7.4100300e-01
   1.6177300e+00   6.2924600e-01   7.5995600e-01
   1.6193700e+00   6.7805700e-01   7.7727200e-01
   1.6111700e+00   7.5629600e-01   7.9669400e-01
   1.5924500e+00   8.0627500e-01   8.0909600e-01
   1.5755900e+00   8.2962900e-01   8.2079500e-01
   1.5556900e+00   8.4551100e-01   8.3577100e-01
   1.5170700e+00   8.5625400e-01   8.4208900e-01
   1.4634600e+00   8.5742200e-01   8.5074700e-01
   1.3967500e+00   8.5321800e-01   8.5238500e-01
   1.3255800e+00   8.4994800e-01   8.4396100e-01
   1.2584000e+00   8.1094600e-01   8.3881300e-01
   1.1895800e+00   7.7754800e-01   8.3132500e-01
   1.1235600e+00   7.1892800e-01   8.2453900e-01
   1.0554400e+00   6.6194300e-01   8.1915700e-01
   9.7281000e-01   6.0519100e-01   8.1143600e-01
   8.8315300e-01   5.2671900e-01   8.0371400e-01
   7.8928300e-01   4.5875700e-01   8.0301200e-01
   6.9986100e-01   3.6533800e-01   8.0979800e-01
   6.1886600e-01   2.5954100e-01   8.1939100e-01
   5.4091400e-01   1.4253400e-01   8.3460100e-01
   4.6553700e-01  -2.2656400e-03   8.5729900e-01
   3.8454200e-01  -1.2698000e-01   8.8093200e-01
   2.9933400e-01  -2.7458200e-01   9.1275600e-01
   2.1740200e-01  -4.2545300e-01   9.4621700e-01
   1.3898200e-01  -5.6511400e-01   9.7546700e-01
   6.2435000e-02  -7.2065700e-01   1.0145400e+00
  -6.3874000e-03  -8.5471300e-01   1.0583000e+00
  -8.5977900e-02  -1.0016100e+00   1.1018200e+00
  -1.6229100e-01  -1.1389400e+00   1.1446500e+00
