**************************************************************************************
  	RED ACELEROGRÁFICA DE LA UNIVERSIDAD AUTONOMA METROPOLITANA (RA-UAM)
	   UNIDAD AZCAPOTZALCO. DIVISIÓN CBI-DEPARTAMENTO DE MATERIALES
     Av. San Pablo 420, Col. Nueva el Rosario, Azcapotzalco, C.P. 02128, Ciudad de México
		Área de Estructuras. e-mail: agb@azc.uam.mx
**************************************************************************************
ARCHIVO ESTANDAR DE ACELERACION:
VERSION DEL FORMATO                    : 2.0
NOMBRE DEL ARCHIVO                     : RIDR202209.191
FECHA Y HORA DE CREACION               : 11:30 a. m. 26/09/2022
REF. CATALOGO ACELEROGRAMAS, SMIS 1999 : REGISTRO NO.      /PAG.    


================================================================================
DATOS DE LA ESTACION:
NOMBRE DE LA ESTACION                  : UAM-RECTORIA.
CLAVE DE LA ESTACION                   : RIDR
LOCALIZACION DE LA ESTACION            : PROL. CANAL DE MIRAMONTES 3855, COL. EX
                                       : DE SAN JUAN DE DIOS, C.P.14387 CIUDAD DE MEXICO.
                                       :
                                       : 
                                       : 
COORDENADAS DE LA ESTACION             : 19.287271 LAT. N
                                       : 99.137132 LONG. W
ALTITUD (msnm)                         : 2240
TIPO DE SUELO                          : TRANSICION
                                       : 
                                       : 
INSTITUCION RESPONSABLE                : UNIVERSIDAD AUTONOMA METROPOLITANA
                                       : 

================================================================================
DATOS DEL ACELEROGRAFO: 
MODELO DEL ACELEROGRAFO                : ETNA2 KINEMETRICS
NUMERO DE SERIE DEL ACELEROGRAFO       : 103462
NUMERO DE CANALES                      : 3
ORIENTACION C1-C6 (rumbo;orientacion)  : /N90E/N00E/V
ORIENTACION C7-C12 (rumbo;orientacion) : 
VEL. DE MUESTREO, C1-C6 (muestras/s)   : /200/200/200
VEL. DE MUESTREO, C7-C12 (muestras/s)  : 
ESC. COMPLETA DE SENSORES, C1-C6, (g)  : /2/2/2
ESC. COMPLETA DE SENSORES, C7-C12 (g)  : 
FREC. NAT. DE SENSORES, C1-C6, (Hz)    : /200/200/202   
FREC. NAT. DE SENSORES, C7-C12 (Hz)    : 
AMORTIGUAMIENTO DE SENSORES, C1-C6     : /0.7/0.7/0.7      
AMORTIGUAMIENTO DE SENSORES, C7-C12    : 
INTERVALO DE MUESTREO, C1-C6 (s)       : /0.005/0.005/0.005
INTERVALO DE MUESTREO, C7-C12 (s)      : 
UMBRAL DE DISPARO, C1-C6 (Gal)         : /2/2/2
UMBRAL DE DISPARO, C7-C12 (Gal)        : 
MEMORIA DE PREEVENTO (s)               : 50
TIEMPO DE POSEVENTO (s)                : 60


================================================================================
DATOS DEL SISMO:
FECHA DEL SISMO [GMT]                  : 2022/09/19
HORA EPICENTRO (GMT)                   : 08:05:09
MAGNITUD(ES)                           : /M=7.7
COORDENADAS DEL EPICENTRO              : 18.2200 LAT. N
                                       : -103.2900 LONG. W
PROFUNDIDAD FOCAL (Km)                 : 15.0
FUENTE DE LOS DATOS EPICENTRALES       : SSN
                                       : INSTITUTO DE GEOFISICA, UNAM

================================================================================
DATOS DE ESTE REGISTRO:
HORA DE LA PRIMERA MUESTRA (GMT)       : 18:05:45.000
EXACTITUD DEL TIEMPO (s)               : 
DURACION DEL REGISTRO (s), C1-C6       : /302/302/302
DURACION DEL REGISTRO (s), C7-C12      : 
NUM. TOTAL DE MUESTRAS, C1-C6          : /60400/60400/60400
NUM. TOTAL DE MUESTRAS, C7-C12         : 
ACEL. MAX.(Gal), C1-C6                 : /16.41/-17.47/5.93
ACEL. MAX., C1-C6, EN LA MUESTRA       : /11095/1029/10436
ACEL. MAX.(Gal), C7-C12                : 
ACEL. MAX., C7-C12,EN LA MUESTRA       : 
UNIDADES DE LOS DATOS                  : Gal (cm/s/s)
FACTOR DE DECIMACION                   : 1
FORMATO DATOS (FORTRAN,16 campos/dato) : 3E16.7


================================================================================
CALIDAD DEL ACELEROGRAMA:
REGISTRO DIGITAL COMPLETO CON TIEMPO ABSOLUTO CORRECTO


================================================================================
COMENTARIOS:














================================================================================
DATOS DE ACELERACION:
---------+---------+---------+---------+---------+---------+---------+---------+
   CANAL-1   	     CANAL-2          CANAL-3
     N90E             N00E              V
---------+---------+---------+---------+---------+---------+---------+---------+
[...]
  -3.2805800e-01   4.9180800e+00  -2.5606100e-01
  -2.8884100e-01   4.7248500e+00  -4.0117300e-01
  -2.2791400e-01   4.5068200e+00  -5.3294400e-01
  -2.0036900e-01   4.3676200e+00  -6.1673500e-01
  -2.4775600e-01   4.2179000e+00  -6.7033300e-01
  -2.2488000e-01   4.0656100e+00  -7.5389000e-01
   2.3729000e-02   3.9046600e+00  -9.3996100e-01
   3.4587000e-01   3.8255900e+00  -1.0939700e+00
   4.3410800e-01   3.8501500e+00  -1.0452800e+00
   3.0105000e-01   3.5130400e+00  -1.0818000e+00
   9.0024600e-02   2.7927400e+00  -1.4391900e+00
  -1.3710800e-01   2.3634600e+00  -1.7043800e+00
  -2.2114500e-01   2.6605700e+00  -1.5868800e+00
  -2.0994000e-01   3.2484600e+00  -1.2994700e+00
  -1.8006000e-01   3.3792300e+00  -1.0347500e+00
  -5.5172100e-02   2.8594100e+00  -1.0062000e+00
   2.6997100e-02   2.1110400e+00  -1.2393100e+00
  -1.3500700e-01   1.6368500e+00  -1.4251500e+00
  -3.4766700e-01   1.6288900e+00  -1.4520700e+00
  -3.1125100e-01   1.8647000e+00  -1.3600800e+00
  -2.7716900e-01   1.8890300e+00  -1.2351000e+00
  -4.3497100e-01   1.7327600e+00  -1.2554600e+00
  -4.5388000e-01   1.5821000e+00  -1.3057800e+00
  -2.9981200e-01   1.6555600e+00  -1.1911000e+00
  -3.4696600e-01   1.8258700e+00  -1.0204800e+00
  -5.4211800e-01   1.6637500e+00  -9.2287500e-01
  -4.9193000e-01   1.4405700e+00  -9.2755600e-01
  -3.4673300e-01   1.4707500e+00  -9.2779000e-01
  -3.8478300e-01   1.6055000e+00  -8.5804300e-01
  -4.4337500e-01   1.7669200e+00  -7.8572100e-01
  -5.2624500e-01   1.8473900e+00  -6.6495000e-01
  -5.8553700e-01   1.7942900e+00  -5.8326600e-01
  -4.2890200e-01   1.7484300e+00  -5.8818100e-01
  -2.6199600e-01   1.6967300e+00  -5.3926400e-01
  -2.0597100e-01   1.6951000e+00  -5.4441300e-01
  -1.2170100e-01   1.7266800e+00  -6.4622600e-01
  -4.9569700e-02   1.7332300e+00  -6.5605600e-01
  -3.7664500e-02   1.8015400e+00  -5.4769000e-01
   2.2561800e-02   1.7870300e+00  -4.3721700e-01
   1.6262300e-01   1.7304200e+00  -3.4172400e-01
   3.4470200e-01   1.7528800e+00  -2.6963600e-01
   5.1160900e-01   1.7000100e+00  -2.6027400e-01
   7.1936600e-01   1.6696000e+00  -2.7314700e-01
   9.4089600e-01   1.6986100e+00  -2.8274300e-01
   1.0457100e+00   1.7077300e+00  -2.7759400e-01
   1.1211100e+00   1.7947500e+00  -2.8601900e-01
   1.2742400e+00   1.8642300e+00  -3.0287100e-01
   1.4220100e+00   1.9180400e+00  -2.8227500e-01
   1.5522600e+00   2.0401600e+00  -3.0989300e-01
   1.7969000e+00   2.1253100e+00  -3.8713000e-01
   2.0567200e+00   2.3185500e+00  -4.5851600e-01
   2.2175500e+00   2.5742400e+00  -5.7226500e-01
   2.3496800e+00   2.7948500e+00  -6.9350400e-01
   2.5471600e+00   3.0533500e+00  -7.8127400e-01
   2.7560900e+00   3.1918400e+00  -8.9806600e-01
   2.9208900e+00   3.2662400e+00  -1.0345200e+00
   3.1211800e+00   3.4236800e+00  -1.1623100e+00
   3.3784300e+00   3.5998300e+00  -1.2933800e+00
   3.6566800e+00   3.8110800e+00  -1.3944900e+00
   3.9214000e+00   4.0153100e+00  -1.4590900e+00
   4.1557700e+00   4.1039700e+00  -1.5520100e+00
   4.3847700e+00   4.1573100e+00  -1.6835400e+00
   4.6842600e+00   4.2139300e+00  -1.7961200e+00
   5.0239100e+00   4.3180300e+00  -1.8562800e+00
   5.3157100e+00   4.4113700e+00  -1.8981700e+00
   5.5531100e+00   4.3978000e+00  -1.9843000e+00
   5.8199300e+00   4.3877400e+00  -2.0643500e+00
   6.1098500e+00   4.4120700e+00  -2.1294100e+00
   6.3092100e+00   4.4705600e+00  -2.1673300e+00
   6.5473100e+00   4.5414400e+00  -2.1895700e+00
   7.0534000e+00   4.4909100e+00  -2.3737600e+00
   7.6729400e+00   4.4913800e+00  -2.6139000e+00
   7.9453500e+00   4.6644900e+00  -2.6824800e+00
   7.8111300e+00   4.9061500e+00  -2.5151300e+00
   7.7217200e+00   5.0680400e+00  -2.3264900e+00
   7.8617800e+00   4.8851000e+00  -2.3412300e+00
   8.1279000e+00   4.4925500e+00  -2.4545100e+00
   8.5324400e+00   4.2962700e+00  -2.6754600e+00
   8.8461800e+00   4.6006300e+00  -2.8524000e+00
   8.9061700e+00   5.3749700e+00  -2.6965200e+00
   8.9552000e+00   6.0402900e+00  -2.3166600e+00
   9.2131400e+00   6.0096500e+00  -2.1025000e+00
   9.5647000e+00   5.4743900e+00  -2.2129700e+00
   9.7068600e+00   5.1672300e+00  -2.4376600e+00
   9.6244500e+00   5.4088900e+00  -2.5392400e+00
   9.5523200e+00   5.8477600e+00  -2.4261900e+00
   9.7309000e+00   6.1925900e+00  -2.2925500e+00
   1.0048600e+01   6.4192800e+00  -2.2419900e+00
   1.0221800e+01   6.5278200e+00  -2.1680300e+00
   1.0210600e+01   6.5954300e+00  -2.0678600e+00
   1.0177000e+01   6.6532200e+00  -1.9864100e+00
   1.0243800e+01   6.7809500e+00  -1.9367900e+00
   1.0299500e+01   6.9117200e+00  -1.8841300e+00
   1.0300200e+01   6.9428300e+00  -1.8614200e+00
   1.0318200e+01   7.0069300e+00  -1.8710200e+00
   1.0329700e+01   7.1433200e+00  -1.8300600e+00
   1.0239600e+01   7.2979500e+00  -1.7432300e+00
   1.0058600e+01   7.3814700e+00  -1.6365000e+00
   9.9269900e+00   7.3545700e+00  -1.5337500e+00
   9.8870700e+00   7.3344500e+00  -1.4480900e+00
   9.7927600e+00   7.3866200e+00  -1.3673400e+00
   9.6256200e+00   7.4628800e+00  -1.2847200e+00
   9.4769200e+00   7.6203200e+00  -1.1679300e+00
   9.3277600e+00   7.7946100e+00  -1.0223500e+00
   9.1692600e+00   7.8533300e+00  -8.8893800e-01
   8.9596300e+00   7.8601100e+00  -7.8291200e-01
   8.7418400e+00   7.7904000e+00  -6.7197100e-01
   8.5884700e+00   7.7424400e+00  -5.7928700e-01
   8.4621800e+00   7.7789300e+00  -5.4605100e-01
   8.3172200e+00   7.7868900e+00  -5.0790100e-01
   8.1181000e+00   7.7634900e+00  -4.4564300e-01
   7.8620200e+00   7.6696800e+00  -3.6115000e-01
   7.6080400e+00   7.5134100e+00  -2.6144400e-01
   7.4346000e+00   7.4175000e+00  -1.8631300e-01
   7.3127500e+00   7.3400600e+00  -1.3435400e-01
   7.2044300e+00   7.2432100e+00  -1.0252300e-01
   7.0807100e+00   7.1711600e+00  -7.6542700e-02
   6.9387800e+00   7.0469400e+00  -8.7309100e-02
   6.7917200e+00   6.9103200e+00  -9.6671200e-02
   6.6493200e+00   6.8420000e+00  -6.6478500e-02
   6.5235000e+00   6.7814100e+00  -3.4413300e-02
   6.3535600e+00   6.7449200e+00   1.9652700e-02
   6.2022900e+00   6.7269100e+00   6.5526900e-02
   6.1385700e+00   6.6167200e+00   1.1514600e-01
   6.0683000e+00   6.5257200e+00   1.3738100e-01
   5.9637200e+00   6.4422000e+00   9.5251600e-02
   5.9333800e+00   6.3133000e+00   6.0845900e-02
   5.9450500e+00   6.2143400e+00   4.7504900e-02
   5.8897200e+00   6.0552700e+00   7.1846300e-02
   5.8171300e+00   5.8671800e+00   1.1069900e-01
   5.7629700e+00   5.6819000e+00   1.2591200e-01
   5.7055400e+00   5.5228200e+00   1.4393400e-01
   5.6889700e+00   5.4467900e+00   1.8770200e-01
   5.7036800e+00   5.3625700e+00   2.3474700e-01
   5.7485000e+00   5.1110800e+00   1.8302100e-01
   5.9987400e+00   4.8048600e+00  -1.0540000e-02
   6.3584600e+00   4.6925700e+00  -2.0691000e-01
   6.2954300e+00   4.6740900e+00  -2.1510200e-01
   5.7403300e+00   4.5194500e+00  -8.5670800e-02
   5.3084700e+00   4.2270300e+00   2.9482900e-02
   5.2582800e+00   3.9729700e+00   1.4650900e-01
   5.5010500e+00   3.7481500e+00   1.5891400e-01
   5.8967300e+00   3.5149100e+00  -3.4881500e-02
   5.9898700e+00   3.3233200e+00  -2.3803900e-01
   5.7109100e+00   3.0928900e+00  -3.0802000e-01
   5.4702400e+00   2.7087600e+00  -3.6747000e-01
   5.3764000e+00   2.3199500e+00  -4.1732300e-01
   5.3383500e+00   2.0584000e+00  -3.3376600e-01
   5.3339100e+00   1.8590900e+00  -2.5418800e-01
   5.1756500e+00   1.5966100e+00  -2.2329300e-01
   4.8444000e+00   1.2145800e+00  -1.0509700e-01
   4.7188100e+00   8.3770700e-01   3.2993700e-02
   4.8847800e+00   3.7474000e-01   3.5802300e-02
   4.9604200e+00  -1.9583900e-01  -1.4324800e-01
   4.7664300e+00  -6.3845300e-01  -2.8836000e-01
   4.5759500e+00  -7.4746900e-01  -2.0644200e-01
   4.4697400e+00  -7.9940300e-01  -5.3839700e-02
   4.3425100e+00  -1.1531200e+00   2.4801800e-02
   4.2764500e+00  -1.6706000e+00   1.1625800e-03
   4.2040900e+00  -2.1625700e+00  -5.1967300e-02
   4.0509500e+00  -2.5764100e+00  -8.5904800e-02
   3.8891800e+00  -3.0049900e+00  -2.0363300e-01
   3.7005700e+00  -3.4440900e+00  -3.5506500e-01
   3.5700800e+00  -3.7236500e+00  -4.7677200e-01
   3.5086800e+00  -3.9152500e+00  -5.2592300e-01
   3.4020000e+00  -4.1877900e+00  -4.8075100e-01
   3.2304300e+00  -4.5894600e+00  -4.9409200e-01
   3.0175400e+00  -5.1275200e+00  -6.2633100e-01
   2.8609000e+00  -5.5897900e+00  -8.5312800e-01
   2.7096400e+00  -5.9336800e+00  -1.1023900e+00
   2.4540200e+00  -6.1678500e+00  -1.2657600e+00
   2.1676000e+00  -6.2979200e+00  -1.3624300e+00
   1.9799200e+00  -6.5519800e+00  -1.4899800e+00
   1.8106800e+00  -6.8930700e+00  -1.6891600e+00
   1.6314000e+00  -7.2217500e+00  -1.9166600e+00
   1.4922700e+00  -7.5541800e+00  -2.1207500e+00
   1.2978200e+00  -7.8421600e+00  -2.2885700e+00
   1.0681200e+00  -8.1348200e+00  -2.4460900e+00
   8.4822200e-01  -8.4050200e+00  -2.5860500e+00
   6.5750600e-01  -8.6062100e+00  -2.7012000e+00
   4.4064400e-01  -8.8979300e+00  -2.7690800e+00
   1.8970100e-01  -9.2500100e+00  -2.8095700e+00
  -4.6301600e-02  -9.6493400e+00  -2.8641000e+00
  -2.6199600e-01  -1.0067900e+01  -2.8938300e+00
  -4.8936200e-01  -1.0436800e+01  -2.9312800e+00
  -7.2606500e-01  -1.0836400e+01  -2.9888500e+00
  -9.6627000e-01  -1.1204100e+01  -3.0099200e+00
  -1.2424200e+00  -1.1505000e+01  -3.0050000e+00
  -1.4485500e+00  -1.1796200e+01  -3.0225600e+00
  -1.6161500e+00  -1.2041800e+01  -3.0707700e+00
  -1.8603300e+00  -1.2306200e+01  -3.1091600e+00
  -2.1453500e+00  -1.2608400e+01  -3.1564400e+00
  -2.3785500e+00  -1.2861100e+01  -3.2680800e+00
  -2.6393000e+00  -1.3126400e+01  -3.4052300e+00
  -2.9325000e+00  -1.3379500e+01  -3.5119600e+00
  -3.0914600e+00  -1.3659500e+01  -3.5882600e+00
  -3.2870800e+00  -1.3964800e+01  -3.6212600e+00
  -3.5840100e+00  -1.4350100e+01  -3.7183900e+00
  -3.5665100e+00  -1.4867800e+01  -3.9976200e+00
  -3.2730800e+00  -1.5196100e+01  -4.2286300e+00
  -3.4983400e+00  -1.5360300e+01  -4.1726900e+00
  -4.4556600e+00  -1.5684300e+01  -3.9140600e+00
  -5.1601700e+00  -1.6154700e+01  -3.6278200e+00
  -5.1328600e+00  -1.6541200e+01  -3.3619300e+00
  -4.9815900e+00  -1.6778900e+01  -3.1592400e+00
  -5.0485900e+00  -1.7033000e+01  -3.0712400e+00
  -5.3849700e+00  -1.7186600e+01  -2.9975100e+00
  -5.8086500e+00  -1.7104800e+01  -2.9219100e+00
  -6.0689300e+00  -1.7013800e+01  -2.9071700e+00
  -6.3794000e+00  -1.6942400e+01  -2.8732300e+00
  -6.8857200e+00  -1.6815400e+01  -2.7126700e+00
  -7.4160900e+00  -1.6682000e+01  -2.5053000e+00
  -7.8190000e+00  -1.6762800e+01  -2.4222100e+00
  -8.1553800e+00  -1.7089800e+01  -2.5270700e+00
  -8.4102900e+00  -1.7273900e+01  -2.7484800e+00
  -8.3834400e+00  -1.6963000e+01  -2.8959400e+00
  -8.2426800e+00  -1.6313800e+01  -2.8830600e+00
  -8.3519300e+00  -1.6030100e+01  -2.7952900e+00
  -8.6224800e+00  -1.6398500e+01  -2.8030200e+00
  -8.8188000e+00  -1.7040400e+01  -2.9701300e+00
  -8.9058700e+00  -1.7468100e+01  -3.1241400e+00
  -8.9780000e+00  -1.7442800e+01  -3.1274100e+00
  -9.1133900e+00  -1.7202600e+01  -2.9567900e+00
  -9.2102700e+00  -1.7007200e+01  -2.7225000e+00
  -9.2065300e+00  -1.6929300e+01  -2.5689600e+00
  -9.1925300e+00  -1.6926000e+01  -2.4201100e+00
  -9.3066800e+00  -1.6815900e+01  -2.2221000e+00
  -9.5711600e+00  -1.6621200e+01  -1.9814900e+00
  -9.8146300e+00  -1.6399000e+01  -1.7020400e+00
  -9.9469900e+00  -1.6169500e+01  -1.4719600e+00
  -1.0013300e+01  -1.5845200e+01  -1.3203000e+00
  -1.0006800e+01  -1.5377100e+01  -1.2718500e+00
  -9.9420900e+00  -1.4949200e+01  -1.2430600e+00
  -9.9390500e+00  -1.4583100e+01  -1.2023300e+00
  -1.0024000e+01  -1.4239200e+01  -1.2395500e+00
  -1.0069800e+01  -1.3906800e+01  -1.2997000e+00
  -1.0014900e+01  -1.3585400e+01  -1.3860600e+00
  -9.8830300e+00  -1.3312100e+01  -1.5152600e+00
  -9.6864800e+00  -1.3023700e+01  -1.6437600e+00
  -9.5149000e+00  -1.2752100e+01  -1.7252100e+00
  -9.4609800e+00  -1.2572000e+01  -1.7895700e+00
  -9.4619100e+00  -1.2403300e+01  -1.8721900e+00
  -9.3956200e+00  -1.2189500e+01  -1.9150200e+00
  -9.2634900e+00  -1.1895600e+01  -1.9489600e+00
  -9.1012600e+00  -1.1596700e+01  -1.9822000e+00
  -8.9343500e+00  -1.1282200e+01  -1.9793900e+00
  -8.8367700e+00  -1.0929700e+01  -1.9669800e+00
  -8.7655800e+00  -1.0594700e+01  -1.9550500e+00
  -8.6661300e+00  -1.0274700e+01  -1.9669800e+00
  -8.5606200e+00  -9.9228200e+00  -1.9974100e+00
  -8.4327000e+00  -9.4977500e+00  -1.9903900e+00
  -8.2240100e+00  -9.0048400e+00  -1.9623000e+00
  -7.9268400e+00  -8.5124000e+00  -1.9655800e+00
  -7.6040000e+00  -8.1264000e+00  -2.0137900e+00
  -7.3084700e+00  -7.7247200e+00  -2.0786200e+00
  -7.0218100e+00  -7.3034000e+00  -2.1701400e+00
  -6.7694700e+00  -6.8001900e+00  -2.2546300e+00
  -6.5752500e+00  -6.2247000e+00  -2.3065900e+00
  -6.3275800e+00  -5.7954200e+00  -2.3417000e+00
  -6.0031000e+00  -5.4087200e+00  -2.2897400e+00
  -5.7064100e+00  -5.0505600e+00  -2.1830100e+00
  -5.4412200e+00  -4.7441000e+00  -2.0898600e+00
  -5.0077300e+00  -4.4750600e+00  -2.1163100e+00
  -4.3935700e+00  -4.2516500e+00  -2.3304700e+00
  -3.9395300e+00  -3.8275200e+00  -2.4971100e+00
  -3.9731500e+00  -3.2494500e+00  -2.4116800e+00
  -4.2931900e+00  -2.7932700e+00  -2.1303500e+00
  -4.3457100e+00  -2.4404900e+00  -1.8359100e+00
  -3.9771200e+00  -2.1445600e+00  -1.6599100e+00
  -3.4395200e+00  -1.8306100e+00  -1.5803300e+00
  -2.9675100e+00  -1.5000500e+00  -1.5925000e+00
  -2.6192300e+00  -1.1921900e+00  -1.6844800e+00
  -2.2949800e+00  -8.3051700e-01  -1.7921500e+00
  -1.9161200e+00  -4.8101100e-01  -1.9049600e+00
  -1.5699300e+00  -1.5489900e-01  -1.9454500e+00
  -1.2650700e+00   2.1262000e-01  -1.8595500e+00
  -9.9848400e-01   5.4879100e-01  -1.7102300e+00
  -7.6831700e-01   8.0659300e-01  -1.5199400e+00
  -4.6835300e-01   9.7690100e-01  -1.3441700e+00
  -2.6492100e-03   1.0293000e+00  -1.1777600e+00
   5.8374000e-01   1.0505900e+00  -1.0118200e+00
   1.0517800e+00   1.0145700e+00  -1.0101800e+00
   1.3242000e+00   1.0253300e+00  -1.1456900e+00
   1.5277500e+00   1.4391700e+00  -1.0649500e+00
   1.8139400e+00   2.2298800e+00  -5.5260500e-01
   2.1704000e+00   2.8524000e+00   6.0845900e-02
   2.4505200e+00   2.7684100e+00   3.9156200e-01
   2.6246600e+00   2.2785400e+00   4.9665100e-01
   2.8242500e+00   2.0495200e+00   5.8371800e-01
   3.1795400e+00   2.3475500e+00   7.2532000e-01
   3.6415100e+00   2.9525200e+00   9.1771100e-01
   4.0750000e+00   3.4501100e+00   1.1688500e+00
   4.3948000e+00   3.6658000e+00   1.4483100e+00
   4.6833300e+00   3.6704800e+00   1.7226200e+00
   5.0199400e+00   3.7479200e+00   1.9737500e+00
   5.3850400e+00   3.9928500e+00   2.1869800e+00
   5.7650700e+00   4.2759200e+00   2.3496400e+00
   6.1518700e+00   4.5042400e+00   2.4535600e+00
   6.5246700e+00   4.6956100e+00   2.4933500e+00
   6.8846200e+00   4.8996000e+00   2.4800100e+00
   7.2123700e+00   5.1431300e+00   2.4891400e+00
   7.4630800e+00   5.4128700e+00   2.5635700e+00
   7.7275600e+00   5.6786200e+00   2.6632700e+00
   8.0800500e+00   5.9106900e+00   2.7105500e+00
   8.4131600e+00   6.0183000e+00   2.6436100e+00
   8.6512600e+00   6.1315300e+00   2.5310300e+00
   8.8524800e+00   6.2761000e+00   2.4453700e+00
   8.9591600e+00   6.4401000e+00   2.4083900e+00
   8.9825100e+00   6.6459600e+00   2.3796000e+00
   9.0471700e+00   6.7690200e+00   2.2939400e+00
   9.1673900e+00   6.9273900e+00   2.1876800e+00
   9.1975000e+00   7.1241400e+00   2.0921800e+00
   9.1174300e+00   7.3229900e+00   2.0009000e+00
   9.0803200e+00   7.5461600e+00   1.8827100e+00
   8.9965100e+00   7.7256000e+00   1.7734100e+00
