**************************************************************************************
  	RED ACELEROGRÁFICA DE LA UNIVERSIDAD AUTONOMA METROPOLITANA (RA-UAM)
	   UNIDAD AZCAPOTZALCO. DIVISIÓN CBI-DEPARTAMENTO DE MATERIALES
     Av. San Pablo 420, Col. Nueva el Rosario, Azcapotzalco, C.P. 02128, Ciudad de México
		Área de Estructuras. e-mail: agb@azc.uam.mx
**************************************************************************************
ARCHIVO ESTANDAR DE ACELERACION:
VERSION DEL FORMATO                    : 2.0
NOMBRE DEL ARCHIVO                     : RIDR202203.031
FECHA Y HORA DE CREACION               : 11:00 a. m. 10/03/2022
REF. CATALOGO ACELEROGRAMAS, SMIS 1999 : REGISTRO NO.      /PAG.    


================================================================================
DATOS DE LA ESTACION:
NOMBRE DE LA ESTACION                  : UAM-RECTORIA.
CLAVE DE LA ESTACION                   : RIDR
LOCALIZACION DE LA ESTACION            : PROL. CANAL DE MIRAMONTES 3855, COL. EX
                                       : DE SAN JUAN DE DIOS, C.P.14387 CIUDAD DE MEXICO.
                                       :
                                       : 
                                       : 
COORDENADAS DE LA ESTACION             : 19.287271 LAT. N
                                       : 99.137132 LONG. W
ALTITUD (msnm)                         : 2240
TIPO DE SUELO                          : TRANSICION
                                       : 
                                       : 
INSTITUCION RESPONSABLE                : UNIVERSIDAD AUTONOMA METROPOLITANA
                                       : 

================================================================================
DATOS DEL ACELEROGRAFO: 
MODELO DEL ACELEROGRAFO                : ETNA2 KINEMETRICS
NUMERO DE SERIE DEL ACELEROGRAFO       : 103462
NUMERO DE CANALES                      : 3
ORIENTACION C1-C6 (rumbo;orientacion)  : /N90E/N00E/V
ORIENTACION C7-C12 (rumbo;orientacion) : 
VEL. DE MUESTREO, C1-C6 (muestras/s)   : /200/200/200
VEL. DE MUESTREO, C7-C12 (muestras/s)  : 
ESC. COMPLETA DE SENSORES, C1-C6, (g)  : /2/2/2
ESC. COMPLETA DE SENSORES, C7-C12 (g)  : 
FREC. NAT. DE SENSORES, C1-C6, (Hz)    : /200/200/202   
FREC. NAT. DE SENSORES, C7-C12 (Hz)    : 
AMORTIGUAMIENTO DE SENSORES, C1-C6     : /0.7/0.7/0.7      
AMORTIGUAMIENTO DE SENSORES, C7-C12    : 
INTERVALO DE MUESTREO, C1-C6 (s)       : /0.005/0.005/0.005
INTERVALO DE MUESTREO, C7-C12 (s)      : 
UMBRAL DE DISPARO, C1-C6 (Gal)         : /2/2/2
UMBRAL DE DISPARO, C7-C12 (Gal)        : 
MEMORIA DE PREEVENTO (s)               : 50
TIEMPO DE POSEVENTO (s)                : 60


================================================================================
DATOS DEL SISMO:
FECHA DEL SISMO [GMT]                  : 2022/03/03
HORA EPICENTRO (GMT)                   : 14:40:33
MAGNITUD(ES)                           : /M=5.7
COORDENADAS DEL EPICENTRO              : 18.1500 LAT. N
                                       : -95.5100 LONG. W
PROFUNDIDAD FOCAL (Km)                 : 113.0
FUENTE DE LOS DATOS EPICENTRALES       : SSN
                                       : INSTITUTO DE GEOFISICA, UNAM

================================================================================
DATOS DE ESTE REGISTRO:
HORA DE LA PRIMERA MUESTRA (GMT)       : 14:41:26.000
EXACTITUD DEL TIEMPO (s)               : 
DURACION DEL REGISTRO (s), C1-C6       : /154/154/154
DURACION DEL REGISTRO (s), C7-C12      : 
NUM. TOTAL DE MUESTRAS, C1-C6          : /30800/30800/30800
NUM. TOTAL DE MUESTRAS, C7-C12         : 
ACEL. MAX.(Gal), C1-C6                 : /4.228/-4.373/-2.858
ACEL. MAX., C1-C6, EN LA MUESTRA       : /16588/16455/16428
ACEL. MAX.(Gal), C7-C12                : 
ACEL. MAX., C7-C12,EN LA MUESTRA       : 
UNIDADES DE LOS DATOS                  : Gal (cm/s/s)
FACTOR DE DECIMACION                   : 1
FORMATO DATOS (FORTRAN,16 campos/dato) : 3E16.7


================================================================================
CALIDAD DEL ACELEROGRAMA:
REGISTRO DIGITAL COMPLETO CON TIEMPO ABSOLUTO CORRECTO


================================================================================
COMENTARIOS:














================================================================================
DATOS DE ACELERACION:
---------+---------+---------+---------+---------+---------+---------+---------+
   CANAL-1   	     CANAL-2          CANAL-3
     N90E             N00E              V
---------+---------+---------+---------+---------+---------+---------+---------+
[...]
  -5.7566200e-01   3.4108500e-02  -2.4483700e-01
  -2.3624700e-01   3.2162000e-01  -9.9959100e-02
  -1.3353600e-01   5.5719800e-01   2.7131200e-02
  -3.4549500e-01   6.2387100e-01   2.0899000e-01
  -4.3723500e-01   4.6362200e-01   4.3742500e-01
  -1.8045600e-01  -1.5865800e-01   2.9816400e-01
   2.2222000e-01  -9.4469500e-01  -2.2447500e-01
   2.9738600e-01  -8.6913300e-01  -5.9427700e-01
   2.3237500e-03   2.7576800e-01  -4.3886700e-01
  -1.6434900e-01   1.3600800e+00   1.2777400e-01
   7.4922100e-02   1.1259100e+00   5.0178900e-01
   2.2852300e-01  -1.7129100e-01   3.2461100e-01
  -8.1246100e-02  -9.2481100e-01  -5.7127600e-02
  -5.5652000e-01  -4.7634800e-01  -1.9568600e-01
  -7.2646100e-01   1.6113800e-01  -1.5355700e-01
  -3.5179800e-01  -4.2623700e-02  -2.8954100e-01
   1.1437300e-01  -4.8360000e-01  -4.2622800e-01
   1.1950800e-01  -1.4485500e-01  -1.2523700e-01
  -9.5719100e-02   5.2117100e-01   4.7815000e-01
  -1.2886700e-01   5.0502900e-01   8.6527200e-01
  -5.8836300e-02  -4.0008400e-01   6.6820000e-01
  -5.1833200e-02  -1.2736100e+00   8.5176100e-02
  -1.0038800e-01  -1.0759400e+00  -3.1762800e-01
  -9.0350100e-02  -1.3596600e-01  -3.3026600e-01
  -1.5650800e-02   4.3461300e-01  -1.6549400e-01
   5.5547000e-02  -4.7536400e-02  -9.2469500e-02
   6.8619400e-02  -1.0155800e+00  -2.0013300e-01
   5.6947600e-02  -1.3414600e+00  -2.6449800e-01
   2.4159500e-01  -6.7940800e-01  -5.8531900e-02
   4.8460100e-01   3.7917000e-01   3.9155000e-01
   4.6195800e-01   6.5989700e-01   7.1524500e-01
   3.0508900e-01  -4.1131300e-01   4.6480900e-01
   2.4743100e-01  -1.5178500e+00  -8.3107400e-02
   2.2618800e-01  -1.3234400e+00  -2.9071200e-01
   8.8928200e-02  -4.0663400e-01  -1.5425900e-01
   2.1932300e-02   2.5266600e-03  -1.0276800e-01
   2.4883100e-01  -3.9610700e-01  -2.4671000e-01
   6.9772700e-01  -7.6152100e-01  -3.3447900e-01
   1.0922300e+00  -6.1507400e-01  -2.1628300e-01
   1.0875600e+00  -2.3702800e-01   3.9067900e-02
   6.6084500e-01  -2.6533400e-01   1.3924200e-01
   1.3748300e-01  -5.5097500e-01   7.2537300e-02
  -1.0459000e-01  -5.4372300e-01   5.8026100e-02
   1.0200100e-01  -5.1284300e-01  -2.2956000e-02
   4.2881000e-01  -4.0429500e-01  -1.3951400e-01
   4.9790700e-01  -3.0878900e-03  -5.5489200e-02
   4.0243200e-01   3.1811100e-01   2.5111900e-01
   4.3604600e-01   7.7621300e-02   4.2712600e-01
   6.2419500e-01  -6.3168400e-01   2.5860900e-01
   7.7312700e-01  -9.2153500e-01   3.6025200e-02
   8.7327100e-01  -3.4113100e-01  -1.9445200e-02
   8.1514500e-01   6.1544900e-01   1.5141300e-01
   5.6560300e-01   1.0779500e+00   4.5497900e-01
   3.9776300e-01   6.0375200e-01   6.5111400e-01
   3.6998400e-01  -4.9506300e-01   5.1466200e-01
   4.0873500e-01  -1.5410100e+00   1.4017800e-01
   5.4039200e-01  -1.3615800e+00   9.8517100e-02
   6.0458700e-01  -1.0251200e-01   6.2092200e-01
   4.2484200e-01   5.4854200e-01   1.2449000e+00
   3.4220500e-01  -3.0908100e-01   1.1922400e+00
   5.2335100e-01  -1.8818600e+00   2.6656700e-01
   6.6107800e-01  -2.6470800e+00  -9.8303800e-01
   6.9982800e-01  -1.9969600e+00  -1.9950800e+00
   6.0178600e-01  -3.9348600e-02  -2.0669300e+00
   4.5098600e-01   1.9872700e+00  -1.0651900e+00
   5.7680800e-01   2.2867100e+00   7.2367600e-03
   8.3918900e-01   5.4713800e-01   1.4158300e-01
   1.0679600e+00  -1.2404000e+00  -4.3652600e-01
   1.3760900e+00  -1.2797000e+00  -8.5407500e-01
   1.1667000e+00  -1.1912200e-01  -6.6121600e-01
   7.2258900e-03   7.3124900e-01  -1.0861900e-01
  -1.0588700e+00   5.1228100e-01   1.6264700e-01
  -9.4939200e-01   2.2055900e-01   3.3982500e-01
   2.2035200e-01   2.9541900e-01   5.9470800e-01
   1.3539100e+00   5.1888000e-02   6.0383600e-01
   1.2556400e+00  -8.6188100e-01   2.1694700e-01
   2.1545000e-01  -1.6247600e+00  -5.5402000e-01
  -2.4605100e-01  -9.5920000e-01  -9.6571800e-01
   3.5901300e-01   6.4235200e-01  -5.8912800e-01
   1.0331700e+00   1.5011400e+00  -1.9264400e-01
   7.9343600e-01   8.0330200e-01  -2.8720100e-01
   4.0373700e-02  -2.6486600e-01  -5.2710400e-01
  -1.2233100e-01  -6.2232600e-01  -6.9164300e-01
   2.0564600e-01  -5.7460300e-01  -7.7309300e-01
   2.7824400e-01  -7.9118300e-02  -6.0434200e-01
  -1.0972500e-01   4.9567200e-01  -1.8819700e-01
  -3.0301000e-01   4.9005700e-01   2.1179800e-01
   4.6242500e-01   2.1241800e-02   3.5550600e-01
   1.3805300e+00  -2.9925600e-01   3.8148600e-01
   1.1494200e+00  -3.5142400e-01   3.6697500e-01
   5.2979200e-02  -5.3693800e-01   9.5474400e-02
  -6.5503000e-01  -3.4744700e-01  -1.0347000e-01
  -3.6020100e-01   3.9718300e-01  -2.1551700e-02
   4.1760500e-01   1.0760800e+00   7.7218400e-02
   7.9530300e-01   9.4834500e-01  -2.7871100e-02
   5.2685300e-01   2.1283900e-01  -3.6982100e-01
   2.0144400e-01  -1.7386400e-01  -4.8895400e-01
   3.8889300e-01  -3.6078200e-01  -4.4284600e-01
   6.5244100e-01  -4.6161000e-01  -3.7894900e-01
   4.1620400e-01  -4.7634800e-01  -2.2143200e-01
  -9.0816900e-02  -5.6524500e-01  -2.1253800e-01
  -3.2448600e-01  -5.2243400e-01  -2.5326300e-01
  -4.4129900e-02  -4.0148700e-01  -3.2839400e-01
   4.1293600e-01  -1.5795600e-01  -4.8637900e-01
   4.9954100e-01   2.2827900e-01  -4.9831600e-01
   2.1871800e-01   7.3639600e-01  -2.7245600e-01
   7.3754900e-02   8.9103000e-01  -2.5981700e-01
   1.3724900e-01   7.1440500e-01  -4.8942200e-01
   3.6274800e-01   1.0540900e+00  -2.1628300e-01
   6.8255400e-01   1.5687500e+00   4.9687400e-01
   5.4552800e-01   7.9441300e-01   6.0360200e-01
   8.7294200e-02  -9.7931900e-01  -1.2781100e-01
  -4.0161500e-02  -1.5222900e+00  -7.7566800e-01
   1.9444100e-01  -2.8521900e-01  -7.9158300e-01
   5.6233500e-01   1.2339900e+00  -4.4939900e-01
   6.9469300e-01   1.6571800e+00  -1.8749500e-01
   3.9262800e-01   1.2024000e+00   3.2280300e-02
   1.4682000e-01   6.5498500e-01   2.6609800e-01
   2.6330400e-01   8.1078900e-01   6.2981600e-01
   4.0850100e-01   1.4611400e+00   1.2313300e+00
   4.7736500e-01   1.4520200e+00   1.6610500e+00
   5.5229700e-01   2.1681500e-01   1.2556700e+00
   3.1886200e-01  -1.8891100e+00  -1.2547100e-01
  -1.9259500e-01  -2.9268700e+00  -1.7378600e+00
  -4.1272400e-01  -1.6965800e+00  -2.4985300e+00
  -9.0116600e-02   9.9817400e-01  -1.6716200e+00
   6.7671800e-01   2.9204600e+00  -1.4700400e-01
   1.3880000e+00   2.3999400e+00   4.9242700e-01
   1.4888400e+00   9.5536300e-01   3.9038000e-01
   9.3116300e-01   5.3240000e-01   2.8131200e-01
   2.7427600e-01   6.5264500e-01   1.4720000e-01
   8.8599400e-03   6.0375200e-01   1.6335000e-01
  -2.0846800e-01   2.2313200e-01   1.8113800e-01
  -4.9909500e-01  -4.0172100e-01  -5.8297900e-02
  -4.8345500e-01  -7.9871700e-01  -3.4618200e-01
  -1.2746600e-01  -7.3906200e-01  -5.4887100e-01
   2.2642200e-01  -9.8067400e-02  -5.8304300e-01
   3.9869700e-01   8.3582000e-01  -3.1926600e-01
   4.7386300e-01   1.5547200e+00   2.6750300e-01
   6.8535500e-01   1.6185800e+00   6.2419800e-01
   1.1977500e+00   1.0840300e+00   4.3695700e-01
   1.6646200e+00   5.5158300e-01   7.1133000e-02
   1.5777800e+00   3.3799600e-01  -1.8140900e-01
   6.9959500e-01   7.2006800e-02  -3.9112000e-01
  -3.0861200e-01  -4.3751400e-01  -8.4635100e-01
  -5.9270300e-01  -3.9891400e-01  -1.1517900e+00
  -2.3391300e-01   7.5979000e-01  -6.8391900e-01
   3.2259700e-01   2.2088100e+00   3.2601600e-01
   6.1182300e-01   2.3236800e+00   1.1505800e+00
   5.5719900e-01   9.1769900e-01   1.2247800e+00
   4.7713100e-01  -3.7856100e-01   9.2893400e-01
   3.7091800e-01  -7.2643000e-01   7.7188500e-01
   3.5004700e-02  -7.9497400e-01   2.7405600e-01
  -1.2746600e-01  -1.0132400e+00  -6.7923800e-01
   1.9000600e-01  -4.7634800e-01  -1.2386200e+00
   6.9842800e-01   1.2012300e+00  -1.0778300e+00
   1.0264000e+00   2.7106100e+00  -4.0750400e-01
   9.0128300e-01   3.1352100e+00   4.8517100e-01
   8.2985200e-01   2.1781700e+00   9.6217000e-01
   1.1949400e+00   3.9835300e-01   7.5222500e-01
   1.2862200e+00  -5.2173200e-01   4.6668100e-01
   4.5985700e-01  -3.3715400e-01   3.8055000e-01
  -5.8686700e-01  -2.5153200e-01  -4.5893100e-02
  -7.3299700e-01  -4.1809700e-01  -4.3933500e-01
  -8.9883200e-02  -2.8896200e-01  -3.3026600e-01
   4.0173100e-01   1.3984900e-01  -1.4279100e-01
   4.0219800e-01   7.8107800e-01   1.5422200e-01
   1.8136900e-01   1.6160100e+00   6.5462500e-01
   2.3996100e-01   1.9187300e+00   8.6527200e-01
   1.0327100e+00   1.4807900e+00   8.0278000e-01
   1.5957500e+00   6.8656700e-01   6.2724100e-01
   1.0686600e+00  -4.7050000e-01   2.4550200e-01
   6.2316600e-02  -1.2457800e+00  -1.4255700e-01
  -5.9387000e-01  -1.0013100e+00  -5.7368100e-01
  -3.9685100e-01   9.0722000e-02  -7.5296500e-01
   2.7731000e-01   1.4695600e+00  -3.2301100e-01
   6.6084500e-01   2.1882300e+00   3.4754900e-01
   6.4683900e-01   2.0317200e+00   6.5649700e-01
   5.8381100e-01   1.7318100e+00   9.5210500e-01
   3.5761200e-01   1.2861500e+00   1.4457200e+00
  -2.7289600e-01   8.6277100e-02   1.3996100e+00
  -8.0582900e-01  -1.7606800e+00   7.3818200e-01
  -7.2926200e-01  -2.8562200e+00  -3.3471300e-01
  -4.3326600e-01  -2.2138200e+00  -1.2924500e+00
  -3.6627100e-01  -6.1437200e-01  -1.5531900e+00
  -3.9941800e-01   1.0133800e+00  -1.2213000e+00
  -2.6855700e-02   2.1777000e+00  -3.9603500e-01
   6.3073100e-01   2.9314500e+00   9.1676300e-01
   7.5608600e-01   2.6458100e+00   1.8824600e+00
   3.7442000e-01   7.3078100e-01   1.9318500e+00
  -2.6496000e-01  -1.3943300e+00   1.2690100e+00
  -9.5055900e-01  -2.9088500e+00  -3.4758600e-01
  -1.2024400e+00  -3.3479600e+00  -2.2183700e+00
  -7.3556500e-01  -1.7669900e+00  -2.8582600e+00
   1.9444100e-01   1.0538500e+00  -1.9002900e+00
   8.6813500e-01   3.5167700e+00   1.0343200e-01
   5.6817100e-01   4.0312000e+00   2.1094900e+00
  -3.7327400e-01   1.7874900e+00   2.7660100e+00
  -8.7889400e-01  -1.1472900e+00   2.0905400e+00
  -1.0640100e+00  -2.6133900e+00   8.9523100e-01
  -1.1562200e+00  -2.4915100e+00  -2.6543400e-01
  -8.9453500e-01  -1.3442600e+00  -7.0030300e-01
  -4.4773900e-01  -1.3432800e-01  -6.3149200e-01
  -1.6504900e-01   5.5158300e-01  -3.1201000e-01
  -2.8223400e-01   2.5798900e-01   1.3322100e-02
  -6.7137000e-01  -4.1295000e-01   1.6732800e-01
  -7.7758300e-01  -5.4091500e-01   3.1244100e-01
  -7.3276400e-01  -4.0920700e-01   2.7475800e-01
  -9.4845800e-01  -4.1599200e-01   4.2150900e-01
  -1.2470200e+00  -1.4118700e+00   4.6012800e-01
  -1.4284000e+00  -2.7879100e+00  -2.5700800e-01
  -9.0573900e-01  -2.5726800e+00  -9.9965600e-01
   1.2301000e-01  -6.4314700e-01  -9.4090900e-01
   6.3073100e-01   1.3846400e+00  -4.1897200e-01
   2.3342500e-01   2.0824900e+00  -2.5062400e-02
  -4.5777700e-01   1.7790700e+00   4.9453300e-01
  -6.8514300e-01   9.3968900e-01   1.0071100e+00
  -6.1091100e-01  -8.2445000e-01   1.0391700e+00
  -1.1039300e+00  -2.6452000e+00   7.6158700e-01
  -2.4209700e+00  -4.0090700e+00  -1.0300200e-01
  -3.1721600e+00  -4.3726100e+00  -1.1616200e+00
  -2.5967400e+00  -2.8227600e+00  -1.3624400e+00
  -1.4631800e+00  -9.8352900e-01  -1.0724500e+00
  -5.5101300e-02   4.6759900e-01  -5.1282700e-01
   1.2570400e+00   1.6635000e+00   3.2016500e-01
   1.6545800e+00   2.0878700e+00   9.0272000e-01
   1.0756600e+00   1.8822300e+00   1.1449600e+00
  -1.6038100e-01   7.9230700e-01   1.0007900e+00
  -1.2818000e+00  -1.0340600e+00   5.4368400e-01
  -1.9536300e+00  -2.9053400e+00  -2.2330500e-01
  -2.1917300e+00  -3.6102100e+00  -1.0167400e+00
  -1.7568400e+00  -2.7401800e+00  -1.4310100e+00
  -1.0105500e+00  -1.2350100e+00  -1.4560600e+00
  -1.9259500e-01   2.5260800e-01  -7.6630600e-01
   5.0178000e-02   8.1406400e-01   2.7405600e-01
  -7.5820800e-01   3.1179500e-01   1.0579000e+00
  -1.5584200e+00  -4.9553100e-01   1.3874400e+00
  -1.7230000e+00  -1.2988800e+00   9.8932000e-01
  -1.2390800e+00  -1.5412400e+00   1.7739300e-01
  -4.2392900e-01  -1.1412000e+00  -6.4928000e-01
  -5.2300100e-02  -5.8676800e-01  -1.4319500e+00
   2.2399200e-02  -3.5557700e-03  -1.8328800e+00
  -2.9343900e-01   4.6385600e-01  -1.6021100e+00
  -1.0896900e+00   7.5300500e-01  -8.6413900e-01
  -1.7290700e+00   6.6387400e-01   2.1016000e-01
  -1.8152000e+00  -4.9599900e-01   1.1157100e+00
  -1.8796300e+00  -2.3420200e+00   8.5497400e-01
  -1.9821100e+00  -3.3526400e+00  -6.9117500e-01
  -1.0628400e+00  -2.3607300e+00  -1.8509000e+00
   2.6120300e-01   1.8850900e-01  -1.6388500e+00
   7.2550600e-01   2.3849700e+00  -6.4506700e-01
   5.7937600e-01   3.3593300e+00   6.5345500e-01
   1.5359000e-01   2.7524900e+00   1.5470700e+00
  -4.6454700e-01   7.5230400e-01   1.4824700e+00
  -1.0735800e+00  -1.2214500e+00   8.6340000e-01
  -1.9097400e+00  -2.7855700e+00  -3.3447900e-01
  -2.3938900e+00  -3.4076100e+00  -1.7769400e+00
  -1.8698300e+00  -2.0802400e+00  -2.0999300e+00
  -7.4256800e-01   5.4456500e-01  -1.1918100e+00
  -6.9107400e-02   2.3164200e+00   4.9132100e-02
  -3.8261100e-01   1.9802500e+00   8.9546500e-01
  -7.4070100e-01   5.7872000e-01   1.0684300e+00
  -5.5792100e-01  -5.5120900e-01   6.5462500e-01
  -4.1692600e-01  -4.6020600e-01   1.4322100e-01
  -6.7720600e-01   4.8023200e-01  -2.7871100e-02
  -6.1978100e-01   5.5345500e-01  -1.9311200e-01
  -3.0954600e-01  -1.0999800e-01  -4.4401600e-01
  -2.3974900e-01  -4.1341800e-01  -6.7198300e-01
  -1.0388900e-01  -3.5839500e-02  -6.3453400e-01
  -3.0744500e-01   6.2831600e-01  -4.3769600e-01
  -9.2138000e-01   7.8552300e-01  -2.7549800e-01
  -1.3315300e+00   7.2469900e-01   1.2707100e-01
  -1.2778400e+00   4.9239700e-01   4.8423500e-01
  -8.7889400e-01  -2.0778500e-01   6.9441400e-01
  -6.5199500e-01  -7.1824200e-01   9.1746600e-01
  -5.2944200e-01  -8.4480300e-01   1.1419200e+00
  -7.0848700e-01  -7.3789300e-01   8.9546500e-01
  -1.0275900e+00  -4.9950800e-01   6.1068800e-02
  -3.9475000e-01   2.5448000e-01  -2.1698500e-01
   5.2685300e-01   1.2875600e+00   5.1238600e-02
   7.4114600e-01   1.3647600e+00   5.4515300e-02
   3.1115900e-01   7.6236300e-01   9.7580900e-02
  -6.9051200e-01  -2.6229300e-01   1.5094500e-01
  -1.5479200e+00  -1.4205300e+00  -1.6315300e-01
  -1.6949800e+00  -1.9291100e+00  -5.5261600e-01
  -1.2379200e+00  -1.6729500e+00  -6.8040900e-01
  -1.0085500e-01  -5.9378600e-01  -4.4565400e-01
   9.4166700e-01   7.1300200e-01   1.2285900e-01
   5.8217700e-01   1.2300100e+00   6.2724100e-01
  -5.3201000e-01   4.9777700e-01   7.0401000e-01
  -9.5896300e-01  -7.8819000e-01   4.4374400e-01
  -8.0816300e-01  -1.3700000e+00  -2.8573200e-02
  -7.5634100e-01  -1.0392100e+00  -7.2464400e-01
  -4.0105200e-01  -1.4532300e-01  -1.0839100e+00
   5.9898400e-01   9.2986400e-01  -5.1797600e-01
   1.3151600e+00   1.2173800e+00   3.4567600e-01
   8.1607900e-01   4.1566400e-01   7.5807600e-01
  -8.9173300e-01  -8.5369300e-01   6.8996700e-01
  -2.2377200e+00  -1.6680400e+00   4.9874600e-01
  -1.7818200e+00  -1.6144600e+00   4.3227500e-01
  -6.8864500e-01  -1.3480100e+00   1.1115600e-01
  -1.3703700e-01  -8.9112300e-01  -4.0516300e-01
   5.7844200e-01   8.5809200e-02  -2.6496600e-01
   9.3793200e-01   5.9533000e-01  -4.8935800e-02
   5.4459400e-01   1.1130900e-01  -3.9720500e-01
   5.4576100e-01  -1.3011700e-01  -1.8679200e-01
   3.5387700e-01   2.2523700e-01   5.3291800e-01
  -3.1865000e-01   7.4394000e-03   7.4473500e-01
  -8.1890200e-01  -1.0621300e+00   3.7961400e-01
  -1.3623400e+00  -1.8093400e+00  -2.6168900e-01
  -1.3789100e+00  -1.7772900e+00  -8.8871500e-01
  -5.0119600e-01  -9.5943400e-01  -1.2297300e+00
   7.7126000e-01   4.1449500e-01  -9.1890800e-01
   1.8151800e+00   1.1645100e+00  -1.5028000e-01
   2.0087000e+00   1.0332700e+00   7.0588200e-01
