**************************************************************************************
  	RED ACELEROGRÁFICA DE LA UNIVERSIDAD AUTONOMA METROPOLITANA (RA-UAM)
	   UNIDAD AZCAPOTZALCO. DIVISIÓN CBI-DEPARTAMENTO DE MATERIALES
     Av. San Pablo 420, Col. Nueva el Rosario, Azcapotzalco, C.P. 02128, Ciudad de México
		Área de Estructuras. e-mail: agb@azc.uam.mx
**************************************************************************************
ARCHIVO ESTANDAR DE ACELERACION:
VERSION DEL FORMATO                    : 2.0
NOMBRE DEL ARCHIVO                     : RIDR202204.191
FECHA Y HORA DE CREACION               : 11:00 a. m. 25/04/2022
REF. CATALOGO ACELEROGRAMAS, SMIS 1999 : REGISTRO NO.      /PAG.    


================================================================================
DATOS DE LA ESTACION:
NOMBRE DE LA ESTACION                  : UAM-RECTORIA.
CLAVE DE LA ESTACION                   : RIDR
LOCALIZACION DE LA ESTACION            : PROL. CANAL DE MIRAMONTES 3855, COL. EX
                                       : DE SAN JUAN DE DIOS, C.P.14387 CIUDAD DE MEXICO.
                                       :
                                       : 
                                       : 
COORDENADAS DE LA ESTACION             : 19.287271 LAT. N
                                       : 99.137132 LONG. W
ALTITUD (msnm)                         : 2240
TIPO DE SUELO                          : TRANSICION
                                       : 
                                       : 
INSTITUCION RESPONSABLE                : UNIVERSIDAD AUTONOMA METROPOLITANA
                                       : 

================================================================================
DATOS DEL ACELEROGRAFO: 
MODELO DEL ACELEROGRAFO                : ETNA2 KINEMETRICS
NUMERO DE SERIE DEL ACELEROGRAFO       : 103462
NUMERO DE CANALES                      : 3
ORIENTACION C1-C6 (rumbo;orientacion)  : /N90E/N00E/V
ORIENTACION C7-C12 (rumbo;orientacion) : 
VEL. DE MUESTREO, C1-C6 (muestras/s)   : /200/200/200
VEL. DE MUESTREO, C7-C12 (muestras/s)  : 
ESC. COMPLETA DE SENSORES, C1-C6, (g)  : /2/2/2
ESC. COMPLETA DE SENSORES, C7-C12 (g)  : 
FREC. NAT. DE SENSORES, C1-C6, (Hz)    : /200/200/202   
FREC. NAT. DE SENSORES, C7-C12 (Hz)    : 
AMORTIGUAMIENTO DE SENSORES, C1-C6     : /0.7/0.7/0.7      
AMORTIGUAMIENTO DE SENSORES, C7-C12    : 
INTERVALO DE MUESTREO, C1-C6 (s)       : /0.005/0.005/0.005
INTERVALO DE MUESTREO, C7-C12 (s)      : 
UMBRAL DE DISPARO, C1-C6 (Gal)         : /2/2/2
UMBRAL DE DISPARO, C7-C12 (Gal)        : 
MEMORIA DE PREEVENTO (s)               : 50
TIEMPO DE POSEVENTO (s)                : 60


================================================================================
DATOS DEL SISMO:
FECHA DEL SISMO [GMT]                  : 2022/04/19
HORA EPICENTRO (GMT)                   : 12:44:10
MAGNITUD(ES)                           : /M=5.0
COORDENADAS DEL EPICENTRO              : 17.7700 LAT. N
                                       : -101.9000 LONG. W
PROFUNDIDAD FOCAL (Km)                 : 15.0
FUENTE DE LOS DATOS EPICENTRALES       : SSN
                                       : INSTITUTO DE GEOFISICA, UNAM

================================================================================
DATOS DE ESTE REGISTRO:
HORA DE LA PRIMERA MUESTRA (GMT)       : 12:44:59.000
EXACTITUD DEL TIEMPO (s)               : 
DURACION DEL REGISTRO (s), C1-C6       : /168/168/168
DURACION DEL REGISTRO (s), C7-C12      : 
NUM. TOTAL DE MUESTRAS, C1-C6          : /33600/33600/33600
NUM. TOTAL DE MUESTRAS, C7-C12         : 
ACEL. MAX.(Gal), C1-C6                 : /5.984/4.624/-3.444
ACEL. MAX., C1-C6, EN LA MUESTRA       : /21819/21462/21816
ACEL. MAX.(Gal), C7-C12                : 
ACEL. MAX., C7-C12,EN LA MUESTRA       : 
UNIDADES DE LOS DATOS                  : Gal (cm/s/s)
FACTOR DE DECIMACION                   : 1
FORMATO DATOS (FORTRAN,16 campos/dato) : 3E16.7


================================================================================
CALIDAD DEL ACELEROGRAMA:
REGISTRO DIGITAL COMPLETO CON TIEMPO ABSOLUTO CORRECTO


================================================================================
COMENTARIOS:














================================================================================
DATOS DE ACELERACION:
---------+---------+---------+---------+---------+---------+---------+---------+
   CANAL-1   	     CANAL-2          CANAL-3
     N90E             N00E              V
---------+---------+---------+---------+---------+---------+---------+---------+
[...]
  -5.6980100e-03  -1.8098300e-02   9.3923400e-01
  -5.3559600e-01  -6.3944200e-01   8.4584700e-01
  -6.8009200e-01  -1.2161000e+00   5.7738900e-01
  -1.0626900e+00  -1.3747100e+00   7.6517400e-02
  -1.1518700e+00  -8.4530900e-01  -2.6192200e-01
  -3.6658900e-01   1.2437100e-01  -8.3106100e-02
   3.4212100e-01   6.5260700e-01   1.1420000e-01
   3.9511000e-01   4.9235800e-01   1.5305200e-01
  -7.1760200e-02  -1.7413600e-01  -1.4372600e-01
  -4.7233500e-01  -7.1687600e-01  -7.9041200e-01
  -2.4299200e-03  -3.4982500e-01  -9.6805700e-01
   7.7117500e-01   5.2370600e-01  -5.0580400e-01
   2.4127700e-01   6.9144100e-01  -3.2792500e-01
  -7.9891100e-01   1.2975200e-01  -4.9901700e-01
  -3.6332100e-01   1.4776500e-01  -2.0247300e-01
   9.5979000e-01   6.4956600e-01   3.5386900e-01
   9.5465500e-01   5.7540700e-01   5.9704900e-01
  -2.6177600e-01  -1.0067900e-01   4.5427800e-01
  -2.9702500e-01  -4.8480800e-01   3.5129500e-01
   4.8381600e-01  -3.9123200e-01   6.0851800e-01
   1.7824900e-01  -8.0413600e-01   6.7241400e-01
  -1.1338900e+00  -1.5536800e+00   3.1314400e-01
  -2.1131500e+00  -1.2813700e+00   1.2800900e-01
  -1.1913200e+00   6.1675200e-02   3.9810500e-01
   7.6510500e-01   9.2093600e-01   4.9008800e-01
   1.5174700e+00   7.0851900e-01   1.0039100e-01
   1.1502700e+00   3.6603100e-01  -2.4507000e-01
   4.7751300e-01   3.9925000e-01  -4.7490900e-01
   5.6162300e-02   5.4710000e-01  -4.4588700e-01
  -3.3110700e-01   4.6241400e-01   2.0344900e-02
  -1.8437700e+00  -4.8925300e-01   1.2520000e-01
  -3.4878500e+00  -2.1427400e+00  -6.5700200e-01
  -3.5102600e+00  -2.8235000e+00  -1.6978300e+00
  -1.8451700e+00  -1.8206000e+00  -2.1081300e+00
   3.1247400e-01  -1.4419200e-01  -1.6330000e+00
   1.5440800e+00   1.2854100e+00  -6.1744700e-01
   1.7527700e+00   2.0637300e+00   5.9985800e-01
   1.7614100e+00   1.9133100e+00   1.6910100e+00
   1.6169100e+00   1.1789700e+00   2.0821100e+00
   8.4610700e-01   5.0967000e-01   1.3553800e+00
   1.5840700e-01  -2.1998800e-01   1.6498900e-01
  -3.6378800e-01  -7.5173300e-01  -8.7513900e-01
  -1.2008900e+00  -6.2376800e-01  -1.5925100e+00
  -1.5379700e+00   1.7866000e-03  -1.4382700e+00
  -1.5312000e+00   1.6297100e-01  -8.5196800e-01
  -1.2095200e+00  -6.5394700e-01  -5.1914500e-01
  -4.2588100e-01  -1.1120000e+00  -2.5396400e-01
   4.4490600e-02  -4.4854700e-01   9.0092500e-02
   7.2285300e-01   9.1578900e-01   7.5737500e-01
   1.4215300e+00   1.8887400e+00   1.6736900e+00
   9.3224500e-01   1.5228600e+00   2.0680700e+00
  -6.8025200e-02   4.5656500e-01   1.7722300e+00
  -7.4125300e-01  -4.1088300e-01   1.0136600e+00
  -1.1990200e+00  -9.4450000e-01  -2.7479500e-01
  -1.3220400e+00  -1.2708500e+00  -1.5847800e+00
  -1.0092400e+00  -9.5105000e-01  -2.2707900e+00
  -9.5804000e-02   1.0074300e-01  -2.0830800e+00
   7.8518100e-01   9.4035300e-01  -1.0663600e+00
   8.5591200e-01   1.3170000e+00   3.2788900e-01
   8.8439100e-01   1.3609800e+00   1.7303300e+00
   9.6025700e-01   7.1764200e-01   2.6695800e+00
  -3.2076200e-02  -5.5662800e-01   2.4242900e+00
  -1.6248100e+00  -1.6701800e+00   1.1480100e+00
  -2.2030200e+00  -1.6306500e+00   4.6634200e-03
  -1.5017800e+00  -5.4727000e-01  -7.2277100e-01
  -5.7271200e-01   1.4776500e-01  -1.4745500e+00
   3.2351900e-02   3.9387000e-01  -1.7771800e+00
   4.6910900e-01   9.8152600e-01  -1.3079000e+00
   9.6562600e-01   1.4133800e+00  -6.2212800e-01
   1.1246000e+00   1.2781600e+00  -1.8039600e-02
   4.4646600e-01   6.3623100e-01   5.6053700e-01
  -2.3399800e-01  -1.0184900e-01   1.0817700e+00
  -3.6752300e-01  -4.8574400e-01   1.4513400e+00
  -4.7980500e-01  -6.1394300e-01   1.5564300e+00
  -8.5003300e-01  -5.7183400e-01   1.3914200e+00
  -1.1075100e+00  -5.4844000e-01   8.8540200e-01
  -7.6272900e-01  -4.2959800e-01   2.3153500e-02
   1.6447600e-01   1.5922800e-01  -7.3798400e-01
   9.3224500e-01   5.7306700e-01  -1.0328900e+00
   9.1427000e-01   3.4614600e-01  -1.0677600e+00
   5.0505800e-01   1.7420000e-01  -9.0509700e-01
   2.3310600e-01   3.9129600e-01  -3.0639200e-01
  -2.7811700e-01   3.0661000e-01   3.6463600e-01
  -9.7492100e-01  -4.4574000e-01   5.9681500e-01
  -1.0554600e+00  -9.2180800e-01   5.7996400e-01
  -1.0619900e+00  -6.7219400e-01   3.6557200e-01
  -1.4880100e+00  -4.3170400e-01  -2.7339100e-01
  -1.4635000e+00  -1.1916000e-01  -8.3066900e-01
  -2.1555600e-01   7.1156000e-01  -5.5636000e-01
   1.6409500e+00   1.3092800e+00   2.8529200e-01
   2.4334700e+00   8.1589700e-01   7.7329100e-01
   1.6769000e+00  -3.5263200e-01   4.8704500e-01
   5.5968200e-01  -8.4881800e-01  -2.2775000e-01
   3.4048600e-01  -2.1531000e-01  -6.7151300e-01
   7.0207800e-01   4.1094700e-01  -7.4032500e-01
   4.4670000e-01   4.6522100e-01  -6.4553300e-01
  -4.4128800e-01   1.3630200e-01  -2.7479500e-01
  -1.4240500e+00  -4.8597800e-01  -2.9040100e-02
  -2.0452200e+00  -9.6461900e-01  -1.6947100e-01
  -1.8909200e+00  -8.9326700e-01  -2.3243100e-01
  -1.0195100e+00  -1.6220500e-01  -1.4817300e-01
   4.6584100e-01   8.2431900e-01  -1.2383100e-01
   1.9880700e+00   1.4908100e+00   1.5188200e-01
   2.6837100e+00   1.7565700e+00   7.0635200e-01
   2.2371500e+00   1.4842600e+00   8.8844400e-01
   1.1740800e+00   6.7342800e-01   3.5574200e-01
   6.0193400e-01   9.3257000e-02  -4.3161000e-01
   7.9451800e-01  -1.1448100e-01  -7.6185700e-01
   5.4614300e-01  -4.5603400e-01  -8.9269300e-01
  -8.4139600e-01  -9.2157400e-01  -1.2224700e+00
  -2.0608600e+00  -8.8110200e-01  -1.1241700e+00
  -1.7331200e+00   1.1314200e-01  -2.4553800e-01
  -2.0505200e-01   7.5928400e-01   7.3209800e-01
   8.1832800e-01   4.7738600e-01   1.2095600e+00
   6.9881000e-01   4.6311600e-01   1.4183400e+00
   4.5346900e-01   9.0456000e-01   1.5957500e+00
   7.5997000e-01   1.0573200e+00   1.3818300e+00
   9.1683800e-01   3.7258100e-01   4.2619100e-01
   4.6327300e-01  -2.5133600e-01  -7.0545100e-01
   1.8105000e-01   1.7928400e-02  -1.1932200e+00
   3.7386800e-01   4.7177200e-01  -1.2168500e+00
   8.7015100e-01   6.4535500e-01  -9.2054500e-01
   8.1856200e-01   4.6592300e-01  -2.7971000e-01
   3.1651600e-02   1.2905000e-01   3.9623300e-01
  -2.3166300e-01  -2.4619000e-01   9.5702200e-01
   2.9543300e-01  -5.2738500e-01   1.3675500e+00
   5.8442600e-01  -4.5439600e-01   1.7088000e+00
  -6.5224000e-02  -6.4108000e-01   1.5789000e+00
  -6.3457300e-01  -9.1385400e-01   7.6416300e-01
  -2.3609900e-01  -4.8784900e-01  -1.3600200e-01
   4.8521600e-01   3.4310500e-01  -5.4793400e-01
   7.7210800e-01   7.4688500e-01  -5.8608400e-01
   6.5188900e-01   3.6065000e-01  -7.3423900e-01
   4.9735500e-01  -2.6052200e-02  -8.3113700e-01
   3.5846100e-01  -1.1781900e-02  -7.0428100e-01
   4.1331800e-01  -1.2717700e-02  -4.2154600e-01
   4.3316000e-01  -5.7634100e-02  -5.5722000e-02
   2.0913600e-02   8.5083800e-04   2.3356600e-01
  -5.3816400e-01   3.0795100e-02   3.3912400e-01
  -9.3873900e-01  -9.7403900e-02   3.3163400e-01
  -7.7370000e-01  -2.5484500e-01   2.7944100e-01
  -2.4216800e-01  -2.5601500e-01   3.2281600e-02
   2.7395700e-01   1.4887200e-02  -2.4928300e-01
   9.2734300e-01   3.2322000e-01  -2.6332600e-01
   1.3157800e+00   3.0754600e-01  -1.6151400e-01
   9.8290000e-01  -4.1492300e-02  -4.5010000e-01
   4.5487000e-01  -2.1460800e-01  -7.9813600e-01
   6.1827400e-01   1.8051700e-01  -5.4887000e-01
   9.6422600e-01   3.7913100e-01  -1.7930200e-01
   4.4296500e-01  -1.2360500e-01  -2.0692000e-01
  -4.7677000e-01  -6.0341600e-01  -3.2254200e-01
  -7.7323300e-01  -6.0224600e-01  -1.4630000e-01
  -8.4396400e-01  -5.2949100e-01   1.2356200e-01
  -1.3206400e+00  -7.4073800e-01   5.2644100e-02
  -1.5213900e+00  -8.3361200e-01  -4.2716300e-01
  -4.3965400e-01  -3.9684700e-01  -9.0509700e-01
   1.8655200e+00   6.1892000e-01  -8.6460600e-01
   3.2780400e+00   1.6152700e+00  -4.3980200e-01
   2.4747900e+00   1.8312000e+00   3.8601000e-02
   1.0776800e+00   1.2912600e+00   6.3356200e-01
   2.4547800e-01   3.3866000e-01   8.4771900e-01
  -1.9664800e-01  -3.5801300e-01   4.8025700e-01
  -4.6346500e-01  -4.7100600e-01   1.8465000e-01
  -7.0483700e-01  -2.8151400e-01   2.0875700e-01
  -7.7860200e-01  -4.0059000e-01   3.1080400e-01
  -4.7793800e-01  -9.0987700e-01   4.0114800e-01
   2.1139700e-01  -8.3431400e-01   8.4163400e-01
   6.5562400e-01  -3.2198600e-01   1.3092700e+00
   6.7313200e-01  -6.1611100e-02   1.3579500e+00
   3.9184200e-01  -1.6898900e-01   9.3197800e-01
  -2.4100100e-01  -5.4750400e-01   1.6452100e-01
  -5.8998600e-01  -5.5335200e-01  -4.6273900e-01
  -4.8937600e-01  -1.9051200e-01  -9.9450500e-01
  -2.2676100e-01   2.5701500e-01  -1.2529000e+00
   1.3763100e-01   5.9014500e-01  -1.1309600e+00
   7.0698000e-01   5.6909100e-01  -7.3166500e-01
   8.5941300e-01   3.4918700e-01  -2.2728200e-01
   1.6237500e-01  -1.0746300e-01   6.7623500e-02
  -5.5847300e-01  -3.0724800e-01   2.5533300e-01
  -9.8309100e-01  -1.0676100e-01   3.0003700e-01
  -6.9129700e-01  -2.8104700e-01   3.8125300e-01
   2.2516900e-01  -6.2961700e-01   5.9564500e-01
   6.8410300e-01  -6.8225300e-01   7.1641600e-01
   3.7153300e-01  -4.2211200e-01   6.0219900e-01
  -1.7540500e-01   6.6120000e-02   2.9980300e-01
  -1.6513400e-01   4.0275900e-01   5.7793300e-02
   3.2974800e-01   4.6077600e-01  -1.6081100e-01
   8.6058000e-01   3.3655400e-01  -4.5524900e-01
   1.0718400e+00   2.6613900e-01  -5.4114600e-01
   6.3018000e-01   2.3525800e-01  -4.3933400e-01
  -1.6280000e-01   3.4538200e-02  -4.9316600e-01
  -6.7682400e-01  -2.2075300e-02  -4.4916400e-01
  -1.2778500e-01   2.3075100e-02  -1.6167200e-02
   9.6702700e-01  -2.2864400e-01   7.7539700e-01
   6.6052600e-01  -6.3733700e-01   1.3661400e+00
  -1.4107400e+00  -1.0874400e+00   1.1311600e+00
  -3.2427400e+00  -1.4240800e+00   2.1648100e-01
  -2.5333400e+00  -1.0095300e+00  -7.6443200e-01
   1.7708200e-01   9.7468000e-02  -9.7929200e-01
   2.1026900e+00   1.0248100e+00  -4.7514400e-01
   2.2012000e+00   1.1838800e+00   9.9922700e-02
   1.2287100e+00   8.6666200e-01   5.5492000e-01
  -1.8170800e-01   4.2381400e-01   7.2835300e-01
  -1.3225100e+00  -2.9157400e-01   4.0980800e-01
  -1.3656900e+00  -9.2110600e-01  -3.1692400e-01
  -7.1160600e-01  -9.2555100e-01  -8.7724500e-01
  -2.3446500e-01  -3.4163700e-01  -7.5577200e-01
  -1.4365800e-01   1.0261500e-01  -1.9826000e-01
  -3.3414100e-01   1.3349500e-01   3.2391100e-01
  -3.8433000e-01   1.9221400e-01   6.6305200e-01
   1.1989000e-01   3.6392500e-01   8.0980300e-01
   9.2430800e-01   5.1785800e-01   7.9271700e-01
   1.3778700e+00   3.3351300e-01   6.3683800e-01
   9.3317900e-01  -6.0441400e-02   5.3128100e-01
  -8.8038000e-01  -5.2177100e-01   4.1542500e-01
  -3.4458300e+00  -1.4037200e+00  -3.3120100e-01
  -5.0224600e+00  -2.2690700e+00  -1.9637200e+00
  -3.7458000e+00  -2.0222600e+00  -3.4441000e+00
   5.5618100e-01  -8.5706900e-02  -3.1566800e+00
   4.9611000e+00   2.3641100e+00  -9.4839700e-01
   5.9844800e+00   3.0151600e+00   1.4967500e+00
   3.2516600e+00   1.5813500e+00   2.5481100e+00
  -2.6691200e-01   8.1092200e-02   2.1670700e+00
  -2.0139400e+00  -1.7881500e-01   1.2708900e+00
  -2.2044200e+00   6.4482500e-02   4.0255200e-01
  -2.3360800e+00  -5.0984000e-01  -6.7268400e-01
  -2.4177800e+00  -1.3597400e+00  -1.8286700e+00
  -1.5727500e+00  -1.1669800e+00  -2.1579800e+00
  -5.4610100e-01  -1.3653400e-02  -1.1967300e+00
   4.3090000e-02   8.9801000e-01   5.7738900e-01
   6.8760500e-01   7.4899000e-01   1.9564200e+00
   1.3113400e+00   4.0018600e-01   2.2642000e+00
   1.2301100e+00   1.2366900e-01   1.6343700e+00
   4.8148100e-01  -3.8725500e-01   3.9787100e-01
  -2.6240300e-02  -5.0305500e-01  -7.1996200e-01
  -3.0519500e-01   3.5240000e-02  -1.3427700e+00
  -6.9760000e-01   6.9775700e-01  -1.4953800e+00
  -1.1191800e+00   5.9576000e-01  -1.1567000e+00
  -1.1096100e+00   7.6350900e-03  -5.9053100e-01
  -1.7120400e-01  -1.9870000e-01   1.5164800e-01
   5.4917800e-01  -3.2292200e-01   8.8516800e-01
   2.3053800e-01  -7.4494900e-01   1.1182800e+00
  -6.8499500e-01  -1.0399500e+00   7.4497000e-01
  -1.3260100e+00  -7.1570700e-01   1.1443400e-01
  -9.4714200e-01   1.6390700e-01  -7.6786700e-02
  -7.0126100e-02   8.2431900e-01   4.0707500e-02
   7.2868900e-01   6.9401400e-01  -1.9311100e-01
   1.1715200e+00   4.6194600e-01  -7.2909000e-01
   1.0127800e+00   7.7893400e-01  -9.7063200e-01
   3.5822800e-01   1.2580400e+00  -6.1323400e-01
  -2.5640700e-01   1.0582600e+00  -2.5922000e-03
  -5.9862400e-01   1.2016000e-01   5.0717300e-01
  -1.1338900e+00  -4.6188200e-01   6.8154200e-01
  -1.7858800e+00  -5.1732600e-01   5.0811000e-01
  -1.8829800e+00  -6.1675000e-01   1.4556300e-01
  -1.5199900e+00  -8.9958300e-01  -1.7368400e-01
  -1.0862700e+00  -1.0759700e+00  -7.4446200e-02
  -5.4726800e-01  -7.0845500e-01   3.6650800e-01
  -6.4757100e-02  -3.7041200e-01   5.1466300e-01
   3.5472600e-01  -4.2983200e-01   1.1911500e-01
   9.8570200e-01  -3.9754900e-01  -4.7608000e-01
   1.9614600e+00   3.3912800e-01  -9.7999400e-01
   2.3438300e+00   1.3867100e+00  -1.3481600e+00
   1.5048600e+00   1.4138500e+00  -1.5276800e+00
   2.6718800e-01   6.8980300e-01  -1.4799300e+00
  -5.0081400e-01   1.9712600e-01  -1.2051500e+00
  -7.4452100e-01   1.2928400e-01  -6.2798000e-01
  -1.0479900e+00  -6.6757800e-02   1.4462700e-01
  -1.1724100e+00  -6.1675000e-01   8.6550700e-01
  -6.9316500e-01  -7.9594800e-01   1.4220800e+00
   1.1802300e-01  -7.6764100e-01   1.8351900e+00
   6.6286100e-01  -6.6657900e-01   1.9882600e+00
   6.9274000e-01  -1.5518700e-01   1.6701800e+00
   6.1500600e-01   2.7806900e-01   8.7369900e-01
   5.0599200e-01   6.1447500e-01   1.0085900e-01
   1.9279600e-02   8.6362100e-01  -2.2494200e-01
  -5.9955700e-01   4.8019300e-01  -4.3114200e-01
  -8.7501100e-01  -3.3953200e-01  -7.8175200e-01
  -1.0795000e+00  -7.0517900e-01  -1.0572300e+00
  -1.3057000e+00  -3.5918200e-01  -1.0139300e+00
  -1.0671300e+00   8.5069200e-02  -8.9362900e-01
  -4.5109200e-01   3.1175700e-01  -9.2569400e-01
   3.1831000e-01   2.7994100e-01  -8.2622200e-01
   1.2396800e+00   1.7209500e-01  -3.1692400e-01
   1.7952600e+00   1.6367300e-01   4.5123500e-01
   1.3164800e+00   3.8334200e-01   1.0494700e+00
  -1.2078200e-01   3.0356900e-01   1.2751000e+00
  -1.1887500e+00  -3.8281000e-01   1.0101500e+00
  -1.3794600e+00  -5.5241700e-01   3.4216700e-01
  -1.2354300e+00  -1.8045200e-01  -3.8807600e-01
  -6.2827000e-01  -2.9093500e-02  -6.4764000e-01
   6.1103800e-01  -1.8840600e-01  -1.4770500e-01
   1.6381500e+00  -1.9940200e-01   5.1208900e-01
   1.2548500e+00   1.4144900e-01   8.0324900e-01
  -2.0738600e-01   2.7175300e-01   5.4883500e-01
  -1.4705000e+00   2.2373300e-02  -2.0855800e-01
  -1.6593500e+00  -2.8011100e-01  -9.5144000e-01
  -9.4294100e-01  -1.9636000e-01  -1.0670600e+00
   1.4416700e-01  -3.2134700e-02  -4.6859000e-01
   1.0835100e+00   1.2781800e-02   1.2239200e-01
   1.1801500e+00   1.5408100e-01   1.7060600e-01
   5.6995300e-01   2.1654300e-01  -2.3422800e-02
  -1.3401400e-02   2.7128500e-01  -2.1815400e-01
  -2.3049600e-01   1.9478700e-01  -6.3687400e-01
  -9.4170000e-02   1.8162400e-02  -1.0738500e+00
   3.4632200e-01  -1.4980600e-01  -8.1662600e-01
   7.5320000e-01  -3.2034800e-01   1.6007400e-01
   6.0893700e-01  -3.3461900e-01   1.0305100e+00
  -2.2536100e-01  -2.7075300e-01   1.3577200e+00
  -8.6170500e-01  -2.0899300e-01   1.4791900e+00
  -6.3200500e-01  -3.3181200e-01   1.3064600e+00
  -6.6157700e-02  -6.4903400e-01   4.8587500e-01
   3.0951300e-02  -8.7221200e-01  -6.2400100e-01
  -3.3710200e-02  -5.5288500e-01  -1.4867200e+00
   3.9277600e-01   2.5140000e-01  -1.8651800e+00
