**************************************************************************************
  	RED ACELEROGRÁFICA DE LA UNIVERSIDAD AUTONOMA METROPOLITANA (RA-UAM)
	   UNIDAD AZCAPOTZALCO. DIVISIÓN CBI-DEPARTAMENTO DE MATERIALES
     Av. San Pablo 420, Col. Nueva el Rosario, Azcapotzalco, C.P. 02128, Ciudad de México
		Área de Estructuras. e-mail: agb@azc.uam.mx
**************************************************************************************
ARCHIVO ESTANDAR DE ACELERACION:
VERSION DEL FORMATO                    : 2.0
NOMBRE DEL ARCHIVO                     : RIDR202204.271
FECHA Y HORA DE CREACION               : 11:00 a. m. 02/05/2022
REF. CATALOGO ACELEROGRAMAS, SMIS 1999 : REGISTRO NO.      /PAG.    


================================================================================
DATOS DE LA ESTACION:
NOMBRE DE LA ESTACION                  : UAM-RECTORIA.
CLAVE DE LA ESTACION                   : RIDR
LOCALIZACION DE LA ESTACION            : PROL. CANAL DE MIRAMONTES 3855, COL. EX
                                       : DE SAN JUAN DE DIOS, C.P.14387 CIUDAD DE MEXICO.
                                       :
                                       : 
                                       : 
COORDENADAS DE LA ESTACION             : 19.287271 LAT. N
                                       : 99.137132 LONG. W
ALTITUD (msnm)                         : 2240
TIPO DE SUELO                          : TRANSICION
                                       : 
                                       : 
INSTITUCION RESPONSABLE                : UNIVERSIDAD AUTONOMA METROPOLITANA
                                       : 

================================================================================
DATOS DEL ACELEROGRAFO: 
MODELO DEL ACELEROGRAFO                : ETNA2 KINEMETRICS
NUMERO DE SERIE DEL ACELEROGRAFO       : 103462
NUMERO DE CANALES                      : 3
ORIENTACION C1-C6 (rumbo;orientacion)  : /N90E/N00E/V
ORIENTACION C7-C12 (rumbo;orientacion) : 
VEL. DE MUESTREO, C1-C6 (muestras/s)   : /200/200/200
VEL. DE MUESTREO, C7-C12 (muestras/s)  : 
ESC. COMPLETA DE SENSORES, C1-C6, (g)  : /2/2/2
ESC. COMPLETA DE SENSORES, C7-C12 (g)  : 
FREC. NAT. DE SENSORES, C1-C6, (Hz)    : /200/200/202   
FREC. NAT. DE SENSORES, C7-C12 (Hz)    : 
AMORTIGUAMIENTO DE SENSORES, C1-C6     : /0.7/0.7/0.7      
AMORTIGUAMIENTO DE SENSORES, C7-C12    : 
INTERVALO DE MUESTREO, C1-C6 (s)       : /0.005/0.005/0.005
INTERVALO DE MUESTREO, C7-C12 (s)      : 
UMBRAL DE DISPARO, C1-C6 (Gal)         : /2/2/2
UMBRAL DE DISPARO, C7-C12 (Gal)        : 
MEMORIA DE PREEVENTO (s)               : 50
TIEMPO DE POSEVENTO (s)                : 60


================================================================================
DATOS DEL SISMO:
FECHA DEL SISMO [GMT]                  : 2022/04/27
HORA EPICENTRO (GMT)                   : 11:01:29
MAGNITUD(ES)                           : /M=4.8
COORDENADAS DEL EPICENTRO              : 15.5300 LAT. N
                                       : -96.8000 LONG. W
PROFUNDIDAD FOCAL (Km)                 : 16.0
FUENTE DE LOS DATOS EPICENTRALES       : SSN
                                       : INSTITUTO DE GEOFISICA, UNAM

================================================================================
DATOS DE ESTE REGISTRO:
HORA DE LA PRIMERA MUESTRA (GMT)       : 11:04:08.000
EXACTITUD DEL TIEMPO (s)               : 
DURACION DEL REGISTRO (s), C1-C6       : /112/112/112
DURACION DEL REGISTRO (s), C7-C12      : 
NUM. TOTAL DE MUESTRAS, C1-C6          : /22400/22400/22400
NUM. TOTAL DE MUESTRAS, C7-C12         : 
ACEL. MAX.(Gal), C1-C6                 : /-3.286/-3.485/-3.256
ACEL. MAX., C1-C6, EN LA MUESTRA       : /6833/6535/10220
ACEL. MAX.(Gal), C7-C12                : 
ACEL. MAX., C7-C12,EN LA MUESTRA       : 
UNIDADES DE LOS DATOS                  : Gal (cm/s/s)
FACTOR DE DECIMACION                   : 1
FORMATO DATOS (FORTRAN,16 campos/dato) : 3E16.7


================================================================================
CALIDAD DEL ACELEROGRAMA:
REGISTRO DIGITAL COMPLETO CON TIEMPO ABSOLUTO CORRECTO


================================================================================
COMENTARIOS:














================================================================================
DATOS DE ACELERACION:
---------+---------+---------+---------+---------+---------+---------+---------+
[...]
   9.5063500e-02  -1.0426700e+00   6.4908400e-02
  -2.5602300e-01  -7.1071300e-01   3.0268700e-02
  -2.4761900e-01   5.9416700e-02   2.4232000e-01
   3.0401900e-02   9.8952600e-02   2.9755600e-01
   1.8540300e-01  -6.1573300e-01  -1.1929100e-01
   1.5785800e-01  -9.5190500e-01  -7.2525200e-01
   1.1257100e-01  -1.9253600e-01  -8.4391600e-01
   4.8376400e-02   7.8088700e-01  -6.1009800e-01
   1.9430500e-02   9.7108000e-01  -3.2806500e-01
   2.0174300e-01   5.2004400e-01  -2.1852900e-01
   3.8592400e-01  -5.3576200e-02  -2.6931800e-01
   2.6243700e-01  -3.8717400e-01  -3.5755600e-01
  -1.5751300e-01  -3.4600100e-01  -3.4936400e-01
  -4.1499300e-01   4.0233700e-02  -1.0173700e-01
  -1.7245300e-01   3.3219100e-01   1.5642300e-01
   2.0384400e-01   1.6983600e-01   2.4232000e-01
   1.9100500e-01  -2.6412200e-01   1.5757500e-02
  -2.1890700e-01  -4.3349400e-01  -2.5410500e-01
  -4.0588900e-01  -8.1918500e-03  -2.6838200e-01
  -5.3167900e-02   5.4133300e-01  -6.9671600e-02
   5.0684300e-01   6.9339300e-01   1.2880500e-01
   6.2286100e-01   3.5254300e-01  -7.6477600e-03
   1.0813600e-01   3.1110000e-02  -2.2438000e-01
  -2.9337300e-01   2.4095400e-01  -4.3223700e-02
  -1.4560800e-01   3.6330400e-01   3.9211300e-01
   3.0562200e-01  -2.2645800e-01   4.1739100e-01
   3.9736200e-01  -9.6617500e-01   1.2786800e-01
   4.9310200e-02  -1.2934600e+00  -1.2350400e-01
  -1.7432100e-01  -1.4256300e+00  -6.2929000e-01
  -2.4015000e-01  -1.0258300e+00  -1.2305700e+00
  -4.1405900e-01   9.8932700e-01  -8.1395700e-01
  -4.3833600e-01   2.9965300e+00   7.5559600e-01
   1.0206700e-01   1.7232000e+00   1.4317700e+00
   4.5432000e-01  -1.6319700e+00   3.0902500e-01
   6.6584400e-02  -2.6797800e+00  -9.2606800e-01
  -4.0098600e-01  -5.6851300e-02  -6.4052500e-01
  -1.9696400e-01   2.7768600e+00   6.1914400e-01
   3.8569000e-01   2.3969400e+00   1.2005300e+00
   4.2910900e-01  -1.6750500e-01   8.6747300e-01
   1.3288000e-01  -1.7274200e+00   3.6964400e-01
  -1.0382300e-01  -1.0298100e+00   3.1370600e-01
  -2.7679900e-01   2.9733300e-01   6.5706000e-01
  -3.1718300e-01   3.0131000e-01   7.7759700e-01
  -2.0910300e-01  -7.0673600e-01   4.6724400e-01
   3.5304100e-02  -1.2724000e+00   2.0438500e-02
   2.4002700e-01  -8.3914600e-01  -1.5510100e-01
   2.2835500e-01  -3.3925200e-02  -1.1765200e-01
   1.1467200e-01   1.1018200e-01  -1.2327000e-01
   1.4128400e-01  -1.3896400e-01  -1.7452700e-01
   1.3054600e-01  -1.1346500e-01  -2.9740400e-01
  -2.7458900e-03   3.4458900e-01  -2.2040100e-01
  -1.0172200e-01   1.0515600e+00   8.8781700e-02
  -1.7899000e-01   9.7412100e-01   2.5542700e-01
  -1.4981000e-01   1.0948000e-01   2.0182900e-01
  -9.2151600e-02  -5.5350500e-01   1.7772200e-01
  -1.3417000e-01  -6.7726000e-01   3.0200300e-01
  -1.3250500e-02  -6.7468600e-01   1.9176500e-01
   1.6602800e-01  -8.1247700e-01  -1.7054800e-01
   5.4212300e-02  -7.0416300e-01  -4.5234700e-01
  -1.1596200e-01  -2.1359100e-01  -3.7089700e-01
  -2.1703900e-01   2.8033200e-03  -1.2163100e-01
  -3.5079800e-01  -7.9001900e-01  -3.5427900e-01
  -3.2955500e-01  -1.6881100e+00  -9.5977200e-01
  -9.6120000e-02  -1.0941400e+00  -1.2467200e+00
   1.3451400e-01   8.4826200e-01  -8.7340700e-01
   2.9068200e-01   2.2289700e+00  -3.3251200e-01
   3.7051700e-01   2.0640500e+00   2.3481200e-02
   3.1612700e-01   1.0786900e+00   1.5408200e-01
   6.7051300e-02  -5.5915600e-02   1.7143300e-03
  -2.8847100e-01  -6.9737800e-01  -1.7218600e-01
  -4.7708600e-01  -5.3034500e-01  -1.1063100e-01
  -3.5873500e-01  -3.6264600e-02   1.6110400e-01
  -1.0102200e-01  -8.8667100e-02   9.6037400e-02
   4.5808600e-02  -6.5877800e-01  -3.2712900e-01
   3.6004400e-02  -5.6684000e-01  -4.7856100e-01
  -3.4026200e-02   3.6119900e-01  -9.6821600e-02
   9.5763800e-02   9.2265400e-01   4.9579800e-01
   3.5300900e-01   1.5229100e-01   5.6156700e-01
   2.4796400e-01  -1.1566000e+00  -4.3925800e-02
  -1.1829600e-01  -1.2497100e+00  -6.5995100e-01
  -9.8921200e-02   3.8362200e-02  -6.8288800e-01
   3.1752700e-01   1.1194000e+00  -3.4749200e-01
   3.9129300e-01   9.6453000e-01  -2.4357200e-01
  -4.5931400e-02   5.0156300e-01  -2.4450900e-01
  -2.8403500e-01   7.2754900e-01   8.0824000e-02
   1.3594600e-02   1.2756700e+00   5.8427000e-01
   3.2172900e-01   1.3264300e+00   7.9725800e-01
   2.0757900e-01   6.8918300e-01   7.6823500e-01
  -1.5751300e-01  -5.5681600e-02   7.7408600e-01
  -3.9375000e-01  -4.8309000e-01   7.8157600e-01
  -3.4636300e-01  -7.1235100e-01   5.2131000e-01
  -2.6699500e-01  -7.9446300e-01   1.8333900e-01
  -3.0411100e-01  -7.2170800e-01   2.7625800e-01
  -1.9369600e-01  -7.8206500e-01   5.8918500e-01
   9.2495700e-02  -1.3140400e+00   3.6566500e-01
   3.6444800e-01  -1.8785400e+00  -4.8230600e-01
   3.8732400e-01  -1.0857200e+00  -8.2121300e-01
   9.8565000e-02   4.6062300e-01  -2.7282900e-01
  -9.4252500e-02   7.7059400e-01   7.6142900e-02
  -1.0709100e-01   1.3193800e-01  -3.1776700e-01
  -7.7912000e-02   5.1536500e-01  -4.6451800e-01
   1.5995800e-01   2.3354200e+00   2.7976800e-01
   4.9727200e-01   2.8528900e+00   8.0474700e-01
   3.5347600e-01   8.3843600e-01   3.6355900e-01
  -1.7268700e-01  -1.3351000e+00  -4.3034600e-01
  -4.2106200e-01  -1.5784000e+00  -5.8365000e-01
  -3.8838100e-01  -2.6786500e-01  -1.7946100e-02
  -3.7180700e-01   5.2051200e-01   5.4939600e-01
  -2.7306400e-01   2.6899100e-02   7.7572500e-01
   7.5252700e-03  -5.5350500e-01   7.6051100e-01
   1.5108800e-01  -3.2424400e-01   8.0334300e-01
   1.4151700e-01   3.1675000e-01   9.1428400e-01
   2.7947700e-01   5.4881900e-01   8.2862100e-01
   5.4419300e-01   2.3650900e-01   3.1347200e-01
   5.2084900e-01  -6.8782200e-02  -2.8102100e-01
  -1.4700900e-01  -3.1301500e-01  -6.1173600e-01
  -8.9353500e-01  -8.4476000e-01  -8.4742700e-01
  -7.4740400e-01  -1.4986200e+00  -1.1519300e+00
  -1.2249800e-01  -1.6347800e+00  -1.4304500e+00
   5.8180700e-02  -5.9795400e-01  -1.2476600e+00
   2.1998300e-02   8.6604100e-01  -6.5082300e-01
   1.4945400e-01   1.2555500e+00  -4.9075000e-02
   2.4026000e-01   3.8763400e-01   1.6718900e-01
   6.8249600e-03  -5.7105100e-01  -8.6991400e-02
   2.7367300e-02  -2.4376900e-01  -3.5708800e-01
   5.6403500e-01   1.2810500e+00  -2.6019000e-01
   5.4699400e-01   2.1796100e+00   7.7781300e-02
  -2.4832000e-01   1.4162700e+00   1.6367800e-01
  -7.2569500e-01  -1.0878600e-01  -3.1449000e-01
  -2.2637700e-01  -6.1971000e-01  -6.7914300e-01
   4.5362000e-01   4.8308200e-01   2.5119500e-02
   8.1524200e-02   9.4487900e-01   8.9298500e-01
  -9.3578700e-01  -4.9853000e-01   7.0433900e-01
  -1.0798200e+00  -1.7812200e+00   8.3866600e-02
  -2.5298800e-01  -1.1729800e+00  -1.2094800e-02
   5.0497600e-01   2.2925700e-01   2.3974500e-01
   6.6184400e-01   3.8225400e-01   1.8567900e-01
   4.3354500e-01  -2.8447500e-01  -1.4386600e-01
   4.0413200e-01  -1.7218400e-01  -2.0916700e-01
   4.5525400e-01   8.0638600e-01   1.3816700e-01
   1.0230000e-01   1.4462100e+00   3.4272800e-01
  -3.4519500e-01   6.7561400e-01   1.6274200e-01
  -3.4589600e-01  -6.4731500e-01  -1.3169500e-01
  -1.3323600e-01  -1.0878200e+00  -4.4462300e-01
  -1.2856700e-01  -5.0905700e-01  -5.2724400e-01
  -1.9929800e-01   5.5419900e-01  -2.0354900e-01
  -1.5774700e-01   1.2185900e+00   4.0405000e-01
   6.4250000e-02   8.1972100e-01   7.9327900e-01
   3.2849900e-01  -8.0713200e-02   6.3412300e-01
   3.4577300e-01  -4.5501700e-01   3.0645000e-01
   8.9227600e-02  -1.4925800e-01   1.1405900e-01
  -2.2497600e-01   4.5992200e-01   1.5244400e-01
  -3.6106900e-01   6.4028900e-01   3.3968600e-01
  -4.3180000e-01  -8.4456200e-02   3.3711100e-01
  -3.9094900e-01  -1.2529900e+00  -8.5353100e-02
   1.5462100e-02  -1.5447100e+00  -5.3145700e-01
   3.2733200e-01  -2.8400700e-01  -5.2209400e-01
   4.0646600e-01   1.3241000e+00   1.8076400e-01
   5.1267900e-01   1.8261300e+00   1.1181400e+00
   4.1276900e-01   7.6474500e-01   1.2761300e+00
   1.9824200e-01  -5.7736700e-01   8.5460000e-01
   1.9684100e-01  -5.8415200e-01   6.4559200e-01
   1.5995800e-01   2.0422500e-01   7.4342600e-01
  -1.3230200e-01   6.1522200e-02   5.4846000e-01
  -4.5467700e-01  -1.1053700e+00  -1.5205800e-01
  -5.2797500e-01  -1.7129100e+00  -7.8165800e-01
  -1.1969700e-01  -9.1260300e-01  -8.2870300e-01
   1.3614800e-01   2.5358700e-01  -3.7019500e-01
  -2.7446500e-01   1.2819500e-01  -1.0875800e-01
  -4.9296000e-01  -9.3225400e-01  -2.5550900e-01
  -1.0032200e-01  -1.2579000e+00  -5.4667000e-01
   2.3979300e-01  -4.0308200e-01  -7.5848700e-01
   1.9940900e-01   6.9316000e-01  -7.8165800e-01
   1.2704400e-01   1.1238400e+00  -6.5924900e-01
   3.2406300e-01   1.0677000e+00  -4.3572900e-01
   5.4372600e-01   9.1282900e-01  -2.0495400e-01
   5.7524000e-01   7.9656100e-01   1.1850600e-01
   4.5408700e-01   6.4871100e-01   2.5355400e-01
   1.5669000e-01   2.6364600e-01   2.6455500e-01
  -1.7875600e-01  -1.8809200e-01   4.5320100e-01
  -5.7209400e-01  -7.5796900e-01   3.3406800e-01
  -6.1621400e-01  -1.1973100e+00  -1.3239800e-01
  -1.9346200e-01  -7.8066100e-01  -3.9008900e-01
  -8.9817200e-02  -1.3171200e-01  -3.2104400e-01
  -3.1858400e-01  -2.6576000e-01  -2.3935900e-01
  -2.4201700e-01  -5.8953200e-01  -1.1086500e-01
   9.1095100e-02  -5.6660600e-01  -1.6493100e-01
   4.7909600e-02  -3.5863400e-01  -4.8441200e-01
  -2.9173900e-01   1.8527600e-01  -4.6170900e-01
  -5.8236600e-01   5.1443000e-01  -2.4708300e-01
  -3.5429900e-01   1.1415900e-01  -4.4766600e-01
   4.1557000e-01   8.2810700e-02  -7.7557300e-01
   7.3467600e-01   1.1811600e+00  -4.1326000e-01
   6.8798900e-01   2.2172800e+00   2.9147100e-01
   4.5618800e-01   1.9800600e+00   6.5635800e-01
   6.7518100e-02   6.8076100e-01   7.3172300e-01
   1.9870900e-01  -4.8776800e-01   6.0790900e-01
   2.7737600e-01  -1.0398700e+00   3.4085600e-01
  -4.4393900e-01  -1.5037700e+00  -6.6394900e-02
  -1.3169900e+00  -2.0537600e+00  -7.3765600e-01
  -1.0319600e+00  -1.8275400e+00  -1.2179300e+00
   3.4157100e-01  -1.5911900e-02  -8.2706400e-01
   1.2501000e+00   2.1052200e+00   1.3372000e-01
   1.0157300e+00   3.0299800e+00   1.3025800e+00
   5.8881000e-02   2.1487300e+00   2.1140400e+00
  -5.6882600e-01  -1.5417000e-01   1.7781700e+00
  -4.3950300e-01  -2.1005500e+00   4.6747800e-01
  -2.3874900e-01  -2.0720100e+00  -6.3420500e-01
  -2.7913300e-01  -2.9897900e-01  -7.9780800e-01
  -5.0229700e-01   6.3678000e-01  -6.9974000e-01
  -5.1887100e-01  -2.5148900e-01  -8.3666100e-01
   7.3587400e-02  -8.8242500e-01  -7.8446700e-01
   5.5539800e-01  -8.1181100e-02  -2.3280600e-01
   3.5534400e-01   8.9551700e-01   4.3471100e-01
   7.4754600e-02   7.9609300e-01   9.0796400e-01
   8.0123600e-02   2.4282600e-01   1.0226500e+00
   1.1537200e-01   1.9112500e-01   8.1176900e-01
   9.8098100e-02   4.9548000e-01   5.0726700e-01
   8.4792300e-02   8.7680200e-01   2.4746900e-01
   9.5763800e-02   1.0440700e+00   3.3547300e-01
  -3.6796300e-03   3.6915300e-01   5.6344000e-01
  -5.7536300e-01  -1.5868200e+00   1.8332000e-02
  -1.1353700e+00  -3.4850000e+00  -1.1589500e+00
  -1.0214600e+00  -3.0049600e+00  -1.6673100e+00
  -5.2307300e-01  -1.0522700e+00  -1.3644500e+00
  -8.8183200e-02   1.7732200e-01  -8.0506300e-01
   1.4081700e-01   5.1793900e-01  -2.1220900e-01
   2.4469500e-01   5.6051600e-01   1.9644600e-01
   3.0749000e-01   7.0438900e-01   4.6022300e-01
   6.3406600e-01   1.1121500e+00   6.2593100e-01
   1.1632600e+00   1.9229800e+00   7.2493600e-01
   1.3812900e+00   2.5387100e+00   8.3447200e-01
   7.9910400e-01   1.8787700e+00   6.3108100e-01
  -3.3329000e-01   7.7430100e-02  -2.5059400e-01
  -8.9073400e-01  -1.1409300e+00  -9.7030400e-01
  -8.3727700e-01  -8.4569600e-01  -6.7282400e-01
  -1.0317300e+00  -7.8838100e-01  -2.8617000e-01
  -1.4246000e+00  -2.0525900e+00  -4.7715600e-01
  -1.2798700e+00  -2.8068100e+00  -8.0951000e-01
  -4.5864500e-01  -1.6530200e+00  -7.9453100e-01
   4.2327300e-01   3.3289200e-01  -9.0502200e-02
   8.9551300e-01   1.5517200e+00   8.0802400e-01
   8.9761400e-01   1.5421300e+00   1.0107100e+00
   7.4494700e-01   9.7903400e-01   7.0082800e-01
   9.2049100e-01   9.7482300e-01   5.8707900e-01
   8.3668700e-01   1.3898300e+00   4.5062600e-01
   1.4061500e-02   1.0550600e+00   3.3545400e-02
  -6.7317200e-01  -2.6950300e-01  -4.6756000e-01
  -5.6182300e-01  -1.5980500e+00  -8.9891800e-01
  -2.1027000e-01  -1.9828800e+00  -1.2155900e+00
  -2.9173900e-01  -1.2501800e+00  -1.0732900e+00
  -3.8441300e-01  -7.8373800e-02  -1.5369600e-01
  -3.0131000e-01   4.1664300e-01   6.1610100e-01
  -1.5401200e-01   2.0703300e-01   7.8930000e-01
   2.0244400e-01   3.1066800e-01   1.0090700e+00
   3.8685800e-01   7.8486400e-01   1.1424800e+00
   3.7121700e-01   7.2357200e-01   7.9725800e-01
   2.7574200e-01   2.0562900e-01   2.0440400e-01
   4.8843300e-02  -3.3032700e-01  -3.9453600e-01
   3.6981700e-01  -3.5161500e-01  -8.2261700e-01
   8.3808800e-01   5.0366800e-01  -6.0822600e-01
   3.9759600e-01   8.4311500e-01  -3.9947000e-02
  -6.0220800e-01   1.7775500e-02   8.7377400e-02
  -1.1164700e+00  -8.3657300e-01  -2.1456800e-02
  -9.0777400e-01  -1.1114500e+00  -4.3925800e-02
  -4.4323800e-01  -8.8780500e-01  -6.2434500e-03
  -7.8378900e-02  -3.5091400e-01   1.5361400e-01
  -1.8786000e-01   1.5439600e-01   3.3992000e-01
  -9.2385000e-02   2.0141800e-01   2.9708800e-01
   4.4988500e-01  -3.2989500e-02   3.5651900e-02
   7.4798200e-01   2.1966500e-01  -8.9566000e-02
   8.1801300e-01   9.5096100e-01  -2.4499500e-02
   2.7504200e-01   1.0976400e+00   6.7951100e-02
  -5.5925600e-01   1.2913100e-01  -1.2328800e-02
  -5.1910500e-01  -9.6102800e-01  -4.3268600e-01
   1.3361100e-02  -1.2597700e+00  -9.5368700e-01
   3.2756500e-01  -7.3293700e-01  -9.7475100e-01
   3.7985500e-01   2.6294400e-01  -2.7165900e-01
   2.8565600e-03   7.6100200e-01   4.9884100e-01
  -5.2330700e-01   1.0339700e-01   5.8169600e-01
  -6.3815700e-01  -8.5692500e-01   1.4050700e-01
  -4.1029300e-02  -6.2158200e-01  -7.9969900e-02
   5.9858300e-01   6.0215700e-01  -9.9882800e-03
   4.0296500e-01   1.1746100e+00  -3.9214200e-04
   1.5178800e-01   5.6402500e-01  -2.1924900e-02
   6.6604600e-01  -9.2878000e-02   9.4380500e-03
   1.2578000e+00  -1.4013400e-01   8.8313600e-02
   7.2697300e-01  -1.4785400e-01   1.5384800e-01
  -3.1391500e-01  -3.2564800e-01   2.6289800e-02
  -1.7315400e-01  -8.0011400e-02  -7.9033700e-02
   5.5866600e-01   7.3620400e-01   1.3606000e-01
   7.0969900e-01   1.2019800e+00   6.8327400e-01
  -6.9274900e-02   6.7818700e-01   9.7490300e-01
  -9.8200700e-01  -4.8683300e-01   5.7327000e-01
  -7.2662900e-01  -1.1814000e+00   1.9972200e-01
  -3.0948000e-01  -8.6768700e-01   4.4311800e-02
  -3.4846400e-01  -2.4844800e-01  -1.2912100e-01
  -4.1009000e-01  -9.0070800e-02  -3.2057600e-01
  -3.5873500e-01  -3.3336800e-01  -2.8265900e-01
   1.8843800e-01  -3.8834400e-01   1.3885000e-02
   6.3616600e-01  -3.0884000e-02   1.8755200e-01
   2.6733900e-01   3.0692500e-01   3.0832300e-01
  -5.7489600e-01  -1.8809200e-01   1.8053000e-01
  -8.9330100e-01  -1.1030300e+00  -5.6281900e-01
  -1.6778500e-01  -1.1217500e+00  -1.1903100e+00
   6.6231100e-01   1.2258000e-01  -6.9810200e-01
   2.0641200e-01   1.1987000e+00  -5.0011200e-02
  -6.0197400e-01   6.8965000e-01  -2.2859300e-01
  -3.6796300e-03  -1.6680300e-01  -4.3011200e-01
   1.1628000e+00   8.3044700e-02   2.2779000e-02
   1.2734400e+00   5.5396500e-01   5.4003400e-01
   3.4110400e-01   3.3453000e-01   3.9843300e-01
  -1.9556300e-01   2.5054600e-01   2.9264100e-01
   1.4175100e-01   4.1313400e-01   6.7274200e-01
   5.5353000e-01   2.4072000e-01   7.9983200e-01
   2.8998200e-01  -1.6001900e-01   4.0311400e-01
  -7.7144800e-01  -6.9082800e-01  -1.4386600e-01
  -1.5354800e+00  -9.5424400e-01  -5.6750100e-01
