**************************************************************************************
  	RED ACELEROGRÁFICA DE LA UNIVERSIDAD AUTONOMA METROPOLITANA (RA-UAM)
	   UNIDAD AZCAPOTZALCO. DIVISIÓN CBI-DEPARTAMENTO DE MATERIALES
     Av. San Pablo 420, Col. Nueva el Rosario, Azcapotzalco, C.P. 02128, Ciudad de México
		Área de Estructuras. e-mail: agb@azc.uam.mx
**************************************************************************************
ARCHIVO ESTANDAR DE ACELERACION:
VERSION DEL FORMATO                    : 2.0
NOMBRE DEL ARCHIVO                     : RIDR202209.192
FECHA Y HORA DE CREACION               : 11:40 a. m. 26/09/2022
REF. CATALOGO ACELEROGRAMAS, SMIS 1999 : REGISTRO NO.      /PAG.    


================================================================================
DATOS DE LA ESTACION:
NOMBRE DE LA ESTACION                  : UAM-RECTORIA.
CLAVE DE LA ESTACION                   : RIDR
LOCALIZACION DE LA ESTACION            : PROL. CANAL DE MIRAMONTES 3855, COL. EX
                                       : DE SAN JUAN DE DIOS, C.P.14387 CIUDAD DE MEXICO.
                                       :
                                       : 
                                       : 
COORDENADAS DE LA ESTACION             : 19.287271 LAT. N
                                       : 99.137132 LONG. W
ALTITUD (msnm)                         : 2240
TIPO DE SUELO                          : TRANSICION
                                       : 
                                       : 
INSTITUCION RESPONSABLE                : UNIVERSIDAD AUTONOMA METROPOLITANA
                                       : 

================================================================================
DATOS DEL ACELEROGRAFO: 
MODELO DEL ACELEROGRAFO                : ETNA2 KINEMETRICS
NUMERO DE SERIE DEL ACELEROGRAFO       : 103462
NUMERO DE CANALES                      : 3
ORIENTACION C1-C6 (rumbo;orientacion)  : /N90E/N00E/V
ORIENTACION C7-C12 (rumbo;orientacion) : 
VEL. DE MUESTREO, C1-C6 (muestras/s)   : /200/200/200
VEL. DE MUESTREO, C7-C12 (muestras/s)  : 
ESC. COMPLETA DE SENSORES, C1-C6, (g)  : /2/2/2
ESC. COMPLETA DE SENSORES, C7-C12 (g)  : 
FREC. NAT. DE SENSORES, C1-C6, (Hz)    : /200/200/202   
FREC. NAT. DE SENSORES, C7-C12 (Hz)    : 
AMORTIGUAMIENTO DE SENSORES, C1-C6     : /0.7/0.7/0.7      
AMORTIGUAMIENTO DE SENSORES, C7-C12    : 
INTERVALO DE MUESTREO, C1-C6 (s)       : /0.005/0.005/0.005
INTERVALO DE MUESTREO, C7-C12 (s)      : 
UMBRAL DE DISPARO, C1-C6 (Gal)         : /2/2/2
UMBRAL DE DISPARO, C7-C12 (Gal)        : 
MEMORIA DE PREEVENTO (s)               : 50
TIEMPO DE POSEVENTO (s)                : 60


================================================================================
DATOS DEL SISMO:
FECHA DEL SISMO [GMT]                  : 2022/09/19
HORA EPICENTRO (GMT)                   : 19:30:42
MAGNITUD(ES)                           : /M=5.3
COORDENADAS DEL EPICENTRO              : 18.4500 LAT. N
                                       : -103.8800 LONG. W
PROFUNDIDAD FOCAL (Km)                 : 6.0
FUENTE DE LOS DATOS EPICENTRALES       : SSN
                                       : INSTITUTO DE GEOFISICA, UNAM

================================================================================
DATOS DE ESTE REGISTRO:
HORA DE LA PRIMERA MUESTRA (GMT)       : 19:30:10.000
EXACTITUD DEL TIEMPO (s)               : 
DURACION DEL REGISTRO (s), C1-C6       : /115/115/115
DURACION DEL REGISTRO (s), C7-C12      : 
NUM. TOTAL DE MUESTRAS, C1-C6          : /23000/23000/23000
NUM. TOTAL DE MUESTRAS, C7-C12         : 
ACEL. MAX.(Gal), C1-C6                 : /4.264/-9.394/-5.656
ACEL. MAX., C1-C6, EN LA MUESTRA       : /10393/10222/10224
ACEL. MAX.(Gal), C7-C12                : 
ACEL. MAX., C7-C12,EN LA MUESTRA       : 
UNIDADES DE LOS DATOS                  : Gal (cm/s/s)
FACTOR DE DECIMACION                   : 1
FORMATO DATOS (FORTRAN,16 campos/dato) : 3E16.7


================================================================================
CALIDAD DEL ACELEROGRAMA:
REGISTRO DIGITAL COMPLETO CON TIEMPO ABSOLUTO CORRECTO


================================================================================
COMENTARIOS:














================================================================================
DATOS DE ACELERACION:
---------+---------+---------+---------+---------+---------+---------+---------+
   CANAL-1   	     CANAL-2          CANAL-3
     N90E             N00E              V
---------+---------+---------+---------+---------+---------+---------+---------+
[...]
   1.1287600e+00  -1.1498700e+00  -1.1975000e+00
   8.4560700e-01  -5.6923000e-01  -1.6131700e+00
   4.4993400e-01   7.7662500e-01  -1.3512700e+00
   2.2023400e-01   1.6754200e+00  -7.5864900e-01
  -1.2501100e-02   1.3631100e+00  -2.1915800e-01
  -3.4934800e-01   1.5762100e-01   2.2617500e-02
  -7.2004300e-01  -7.9077100e-01   2.5894300e-02
  -1.1547000e+00  -8.6750300e-01   1.8247500e-01
  -1.3764600e+00  -1.1538700e-01   6.2085500e-01
  -9.6305000e-01   4.5215100e-01   9.9791300e-01
  -9.4903800e-02   1.3680000e-01   9.7286900e-01
   6.7846700e-01  -6.0572500e-01   6.0236500e-01
   9.7049500e-01  -1.2558400e+00   9.0960800e-02
   9.4108200e-01  -1.3683700e+00  -4.1365600e-01
   9.8870300e-01  -8.5721000e-01  -7.5186100e-01
   9.8753600e-01   1.8171700e-01  -7.0622100e-01
   7.4663000e-01   1.3500100e+00  -2.5403200e-01
   4.8565000e-01   1.7161300e+00   2.1547700e-01
   1.7378000e-01   1.0288100e+00   2.8147900e-01
  -2.6554500e-01  -2.1343100e-02  -4.7832200e-02
  -6.7475700e-01  -4.0055900e-01  -2.4654200e-01
  -8.5940400e-01   3.4290100e-01   5.0001600e-02
  -6.7008800e-01   1.0000400e+00   5.1974400e-01
  -1.8547700e-01   6.8562300e-01   6.1711000e-01
   1.4156600e-01  -1.1398300e-01   3.6152500e-01
   2.0646700e-02  -4.5483300e-01   2.4192400e-01
  -1.8104100e-01  -2.0545400e-01   4.8182800e-01
  -1.1404500e-01   5.1412200e-02   8.6965200e-01
  -5.7554100e-02  -1.8159200e-01   9.5718800e-01
  -2.0345100e-01  -8.7943400e-01   5.7591700e-01
  -3.0336100e-01  -1.3512900e+00   4.5788700e-02
  -2.6274400e-01  -1.1660100e+00  -2.8469300e-01
  -1.3412100e-01  -5.9987600e-01  -3.7644100e-01
   1.2919400e-01  -1.4767100e-01  -4.1154900e-01
   4.6674100e-01   6.6150400e-02  -4.7099800e-01
   5.5824800e-01   8.1122500e-02  -6.1845100e-01
   4.3196000e-01  -7.5383200e-02  -9.1850600e-01
   2.6855500e-01  -7.2108000e-02  -1.2021800e+00
   1.0631700e-01   1.7282700e-01  -1.3540800e+00
   4.1655800e-02   5.6163500e-01  -1.3376900e+00
   1.4063200e-01   1.3680300e+00  -9.7421100e-01
   2.3027200e-01   2.4598200e+00  -4.2683000e-02
   3.9088100e-02   2.8058200e+00   1.2176900e+00
  -2.7488200e-01   1.4803200e+00   1.8400300e+00
  -4.9174400e-01  -9.0119100e-01   1.4627400e+00
  -6.2153400e-01  -2.4468300e+00   8.7363100e-01
  -6.0846100e-01  -2.5425100e+00   5.4010700e-01
  -4.8707500e-01  -2.0786100e+00   6.6853400e-02
  -3.8436400e-01  -1.5885100e+00  -5.5478900e-01
  -1.2758500e-01  -9.2832800e-01  -7.7620300e-01
   2.4964700e-01   1.4007500e-01  -6.1751500e-01
   5.9396400e-01   7.6469500e-01  -5.4566100e-01
   9.4995200e-01   8.8447200e-01  -7.9516100e-01
   9.6535900e-01   1.1864900e+00  -1.0111900e+00
   5.5801500e-01   1.5002000e+00  -8.5297200e-01
   1.1798900e-01   1.3911900e+00  -6.5449500e-01
  -3.4351200e-01   5.4876800e-01  -6.1821700e-01
  -6.3834100e-01  -3.1868100e-01  -4.9299900e-01
  -4.1004100e-01  -2.9575400e-01  -4.5959700e-02
  -1.5699800e-01   3.0617300e-01   7.1447600e-01
  -2.9799200e-01   7.1626900e-01   1.4147600e+00
  -4.6793300e-01   2.1540400e-01   1.6099600e+00
  -4.4575700e-01  -8.1393100e-01   1.3482900e+00
  -3.5658500e-01  -9.9242700e-01   1.0313800e+00
  -2.4313500e-01  -4.0687600e-01   8.2471400e-01
  -1.5466300e-01   1.1972300e-01   6.5713300e-01
  -1.6773600e-01   3.7843700e-02   3.4186500e-01
  -1.0494200e-01  -6.5438400e-01  -1.8147600e-01
   9.5812800e-02  -1.1760700e+00  -6.9849700e-01
   2.6248600e-01  -1.0282200e+00  -1.0594100e+00
   3.0590500e-01  -5.8279800e-01  -1.2857300e+00
   3.4652200e-01  -2.3214600e-02  -1.3594600e+00
   2.8909700e-01   7.2515900e-01  -1.0860900e+00
   6.9434600e-02   1.2994800e+00  -4.9651000e-01
   1.0865200e-01   1.2763200e+00  -6.4049300e-03
   3.3998600e-01   9.0108100e-01   3.6667400e-01
   1.5323800e-01   7.9814800e-01   9.1388800e-01
  -3.4794800e-01   6.2503200e-01   1.4505700e+00
  -6.1639800e-01  -2.5086100e-02   1.5367000e+00
  -7.0300300e-01  -8.7732900e-01   1.1100200e+00
  -6.7615800e-01  -1.4041600e+00   4.8978600e-01
  -3.3837700e-01  -1.1786400e+00  -3.1448500e-02
   1.8451800e-01  -3.1236400e-01  -2.3273300e-01
   4.6977600e-01   4.5987100e-01  -1.5713500e-01
   5.2696800e-01   4.4022000e-01  -1.1172800e-01
   6.2991300e-01   2.2169700e-02  -2.0745600e-01
   7.1511700e-01  -1.5047800e-01  -2.7111800e-01
   7.8818200e-01  -8.0997700e-02  -2.6830900e-01
   7.6600500e-01   3.2697000e-02  -3.3197100e-01
   2.9656700e-01  -7.5636800e-04  -3.0271500e-01
  -4.0187100e-01  -1.9656400e-01  -2.2407300e-01
  -7.2728000e-01  -5.4724000e-01  -2.5847900e-01
  -6.0776100e-01  -4.6068200e-01  -1.5432600e-01
  -1.5372900e-01   3.0944800e-01   2.1056100e-01
   3.9017500e-01   8.6061000e-01   5.7006600e-01
   5.9396400e-01   6.5263700e-01   5.6725700e-01
   2.3260600e-01  -2.0545400e-01   1.5907000e-01
  -2.3916700e-01  -9.2715800e-01  -3.8837800e-01
  -2.2749500e-01  -8.1252700e-01  -5.9598200e-01
  -2.7907900e-02  -1.1751500e-02  -2.6082000e-01
   5.2627300e-02   5.9719400e-01   1.5041000e-01
   1.6561000e-01   4.5168300e-01   2.2507300e-01
   1.5744000e-01  -8.7548000e-02  -3.6129600e-02
  -9.1869100e-02  -5.0770400e-01  -4.3635900e-01
  -2.3193000e-01  -4.3892600e-01  -6.7485800e-01
  -1.0167300e-01   2.0698200e-01  -5.0938300e-01
   1.2172400e-01   7.3638800e-01  -6.8194700e-02
   2.1533200e-01   6.1076200e-01   2.8382000e-01
   8.3207300e-02   2.3879800e-01   4.1769800e-01
  -1.7800700e-01  -1.6708800e-01   3.6012100e-01
  -1.8384300e-01  -4.8477800e-01   7.0598200e-02
   1.3736400e-01  -3.8605500e-01  -2.1307300e-01
   1.4810200e-01   4.9306700e-02  -2.4818100e-01
  -3.3534200e-01   3.5296100e-01  -2.7743700e-01
  -8.0081200e-01   1.0966300e-01  -3.6239800e-01
  -9.6328300e-01  -2.7282800e-01  -2.6503300e-01
  -7.8610600e-01  -4.1155500e-01  -1.0564300e-01
  -1.9901600e-01  -3.9751800e-01  -1.0330300e-01
   5.3280400e-01   1.6370300e-01  -1.7873500e-02
   1.0069100e+00   9.3196100e-01   2.8194700e-01
   9.3501300e-01   1.2264900e+00   4.7667900e-01
   3.0263600e-01   8.0820700e-01   3.4795000e-01
  -3.4001100e-01   1.3165400e-01   9.4939700e-02
  -3.8436400e-01   5.2114000e-02   9.6344000e-02
   9.6279700e-02   4.0489500e-01   3.3133200e-01
   3.6776500e-01   4.1284900e-01   4.6076300e-01
   1.6117500e-01  -4.0523800e-01   3.3039600e-01
  -1.0424100e-01  -1.2733900e+00   9.0024600e-02
  -2.6671200e-01  -1.3250900e+00  -1.1149400e-01
  -4.5766200e-01  -8.5066000e-01  -2.0628500e-01
  -4.1424300e-01  -8.2401300e-02  -4.4087300e-02
  -8.6500100e-02   4.2244100e-01   1.8645400e-01
   1.7051200e-01  -1.0719900e-01   1.6064100e-02
   2.9843500e-01  -9.0095700e-01  -5.5361900e-01
   6.3598800e-02  -6.0806400e-01  -9.1850600e-01
  -2.2352700e-01   7.5346500e-01  -7.5115900e-01
   9.0910700e-02   2.0841100e+00  -1.6696500e-01
   6.0050000e-01   2.4242600e+00   5.4736200e-01
   6.4158400e-01   1.3738700e+00   7.4981800e-01
   2.0132600e-01  -2.8312200e-01   3.4233300e-01
  -2.8678800e-01  -1.3038000e+00  -6.8194700e-02
  -4.4762400e-01  -1.1498700e+00  -8.9259400e-02
  -2.6647900e-01  -4.5226000e-01   1.4362300e-01
  -4.9617300e-02  -1.1913000e-01   3.6316300e-01
  -1.1217800e-01  -2.1972400e-01   4.4578400e-01
  -2.7721700e-01  -5.2969400e-01   4.1488900e-01
  -2.2702800e-01  -3.8395000e-01   5.7474700e-01
  -1.1451200e-01  -9.0589200e-02   8.6988600e-01
  -1.3295400e-01  -8.2983900e-01   6.0236500e-01
  -2.1185500e-01  -2.2615500e+00  -5.4542700e-01
  -3.7596000e-01  -2.6884900e+00  -1.7498600e+00
  -6.0122500e-01  -1.1079900e+00  -2.0389100e+00
  -3.9696900e-01   1.5273400e+00  -1.3929300e+00
   4.2122200e-01   3.0774200e+00  -6.1470700e-01
   1.3127100e+00   2.6830000e+00  -3.8580300e-01
   1.5197700e+00   1.8090000e+00  -3.7784600e-01
   8.8902600e-01   1.5156400e+00   1.5743200e-01
   6.8967800e-02   1.2274300e+00   9.9791300e-01
  -4.8684200e-01  -1.8790800e-01   1.1420900e+00
  -7.8563900e-01  -2.1595500e+00   5.8832200e-01
  -8.5286800e-01  -2.5219300e+00   2.1781700e-01
  -6.9063100e-01  -1.2153700e+00   4.3080500e-01
  -4.4342300e-01   2.2827100e-01   8.7784400e-01
  -1.6470100e-01   4.2688600e-01   9.8270000e-01
   1.5160400e-01  -4.8898900e-01   6.4168600e-01
   5.6945300e-01  -8.7943400e-01   1.0406800e-01
   9.4458300e-01  -3.4347800e-01  -4.0827200e-01
   1.1432400e+00   2.9447600e-01  -9.1312300e-01
   1.1518700e+00   5.8807000e-01  -1.3912900e+00
   5.9909900e-01   5.0432000e-01  -1.5785300e+00
  -3.3324100e-01   1.8475800e-01  -1.3891900e+00
  -9.8616000e-01   6.0769800e-02  -9.2154900e-01
  -1.1367300e+00   1.4124500e-01  -3.3852500e-01
  -1.0237400e+00   4.9730100e-01   3.1026800e-01
  -7.8400500e-01   1.1324500e+00   1.0678900e+00
  -3.7899500e-01   1.4971600e+00   1.7281600e+00
   1.4856900e-01   1.1142000e+00   1.7679400e+00
   6.8290300e-01   2.4509100e-02   1.1739200e+00
   1.1016900e+00  -4.5623700e-01   7.1213500e-01
   1.3559000e+00   3.7609800e-02   7.3062500e-01
   1.1525700e+00   3.5506600e-01   7.9101100e-01
   5.4774300e-01  -1.5071200e-01   5.3917100e-01
  -2.6507300e-02  -9.9102300e-01   2.2507300e-01
  -3.3254100e-01  -1.3531600e+00   8.0662500e-02
  -5.2185700e-01  -1.4537600e+00   3.0341300e-02
  -9.7051900e-01  -1.8666600e+00  -2.1892400e-01
  -1.6080300e+00  -2.6480200e+00  -7.9703300e-01
  -1.8888500e+00  -2.4875400e+00  -1.3313700e+00
  -1.1792100e+00  -7.5451000e-01  -1.3412000e+00
   2.6972200e-01   1.4080300e+00  -8.5367400e-01
   1.4009500e+00   2.5973800e+00  -6.3717600e-01
   1.5711200e+00   2.6865100e+00  -7.4835000e-01
   1.0050400e+00   2.7471000e+00  -6.7673000e-01
   3.1734300e-01   2.8048800e+00  -3.9469700e-01
   1.7845400e-02   2.1926600e+00  -2.5129100e-02
   1.8148400e-01   6.3930300e-01  -4.4555400e-02
   3.3018200e-01  -9.1873600e-01  -2.2313700e-01
   6.5699700e-02  -7.3369000e-01   6.0306700e-01
  -5.3633000e-01   7.9487300e-01   2.5564700e+00
  -7.8657200e-01   7.3521800e-01   4.0831900e+00
  -3.4584700e-01  -2.0465600e+00   3.6630600e+00
  -2.2912900e-01  -5.4358800e+00   1.6708100e+00
  -1.0741600e+00  -6.9132100e+00  -7.4390300e-01
  -2.0837700e+00  -6.2839100e+00  -3.0394900e+00
  -2.2392400e+00  -4.2970600e+00  -4.7557900e+00
  -8.1902000e-01  -7.0561700e-01  -5.2786600e+00
   1.8251000e+00   4.2220900e+00  -4.0466100e+00
   3.9155100e+00   8.1216300e+00  -1.8158600e+00
   4.0826500e+00   8.1263100e+00  -4.6608300e-01
   2.5317100e+00   5.3227800e+00  -3.1418400e-01
   5.8322600e-01   3.3017700e+00   2.8990500e-01
  -7.5809300e-01   3.0140300e+00   2.0640200e+00
  -1.5662500e+00   1.5250000e+00   3.1867700e+00
  -2.5247300e+00  -2.2257600e+00   2.3853700e+00
  -3.5152000e+00  -4.5326400e+00   1.2207300e+00
  -3.0175100e+00  -2.7556300e+00   1.7698200e+00
  -8.3372600e-01   6.6152700e-01   3.7527100e+00
   9.5532100e-01   9.1769100e-01   4.9524600e+00
   7.6507200e-01  -3.0522700e+00   3.9287100e+00
  -3.6242100e-01  -7.8501400e+00   9.5391100e-01
  -7.9054100e-01  -9.3936700e+00  -2.6968300e+00
  -3.8039500e-01  -6.0104300e+00  -5.3598800e+00
   7.2912300e-01   1.1581800e+00  -5.6557200e+00
   2.2994400e+00   7.6434600e+00  -3.9281800e+00
   3.3639100e+00   8.6582900e+00  -2.4201800e+00
   2.9157100e+00   4.4929900e+00  -2.5014000e+00
   1.2186400e+00   2.1701800e-02  -2.9596800e+00
  -4.6209700e-01  -6.0666000e-01  -2.0887700e+00
  -1.2714200e+00   1.7275900e+00   2.9639100e-02
  -1.6498200e+00   3.6227400e+00   2.2531300e+00
  -2.3860700e+00   3.2697200e+00   3.9256700e+00
  -2.9815600e+00   1.0720900e+00   4.9674400e+00
  -2.1440000e+00  -1.6041800e+00   5.3372400e+00
  -5.2646500e-03  -3.4420100e+00   4.7181700e+00
   1.7893900e+00  -3.8881300e+00   3.0166100e+00
   2.2030300e+00  -3.0129600e+00   9.7052900e-01
   1.6656600e+00  -1.3470800e+00  -7.1862600e-01
   1.1056500e+00  -1.3714300e-01  -1.8835000e+00
   5.8929500e-01  -5.9007400e-02  -2.6214700e+00
   1.0795100e-01  -7.2667100e-01  -3.0844200e+00
  -2.2959600e-01  -1.0630800e+00  -2.8960100e+00
  -3.6592200e-01  -5.4934500e-01  -1.9019900e+00
  -6.7358400e-02   1.5621700e-01  -8.9065400e-01
   4.3779500e-01   5.3636900e-01  -3.3852500e-01
   6.1427300e-01   9.0856700e-01  -8.1301600e-02
   5.5428000e-01   1.8419900e+00   2.3303000e-01
   4.5810400e-01   2.9765900e+00   8.4109800e-01
   8.4141100e-02   3.1894800e+00   1.3735700e+00
  -2.4733700e-01   2.0375600e+00   1.7077900e+00
  -5.3679700e-01   4.3320200e-01   1.9488700e+00
  -1.1117500e+00  -1.1054200e+00   1.8327800e+00
  -1.6958000e+00  -2.6007600e+00   1.2518600e+00
  -1.6152700e+00  -3.6443700e+00   3.8422800e-01
  -6.8152700e-01  -3.5751200e+00  -3.8650600e-01
   3.0287000e-01  -2.1010700e+00  -7.4039300e-01
   5.8976200e-01   5.7494600e-02  -6.5707000e-01
   3.9974600e-01   1.4892100e+00  -3.5069600e-01
   4.1655300e-01   1.2758500e+00  -1.9200800e-01
   4.3172600e-01  -3.2104300e-02  -7.1300800e-01
   3.7243400e-01  -1.1758400e+00  -1.8259300e+00
   7.7417600e-01  -1.0151200e+00  -2.5821500e+00
   1.4989900e+00   3.5436400e-01  -2.5311300e+00
   1.6348500e+00   1.7297000e+00  -1.9560600e+00
   8.8085600e-01   2.0024700e+00  -1.0671300e+00
  -5.6620400e-02   1.1745600e+00  -6.6389800e-03
  -7.4782200e-01   3.7003800e-01   8.8790800e-01
  -1.1691700e+00   5.0502100e-01   1.6488100e+00
  -1.3841700e+00   1.2753900e+00   2.4141600e+00
  -1.3909400e+00   1.2038000e+00   2.6559400e+00
  -1.1745400e+00  -4.2067800e-01   1.8788900e+00
  -7.8914000e-01  -2.4833300e+00   4.0880400e-01
  -3.4981500e-01  -3.4752300e+00  -8.9018600e-01
  -6.0822200e-02  -2.7430000e+00  -1.4802300e+00
  -2.6367700e-01  -1.1391100e+00  -1.5069100e+00
  -5.7928200e-01   1.4849700e-01  -1.3875500e+00
  -6.7591900e-02   8.2224400e-01  -1.3486900e+00
   1.2174700e+00   1.2505900e+00  -1.1790100e+00
   1.9035400e+00   2.1514900e+00  -6.1611100e-01
   1.1745200e+00   2.8629000e+00   2.9833100e-01
  -1.3575500e-01   2.2530200e+00   1.1587100e+00
  -1.0057700e+00  -3.1096000e-01   1.0093800e+00
  -8.2368900e-01  -3.0716800e+00  -2.0488100e-01
  -6.7591900e-02  -2.5710500e+00  -9.7982800e-01
   4.8121400e-01   1.2126900e+00  -8.1769700e-02
   7.7114100e-01   4.7720800e+00   1.8264600e+00
   8.3206800e-01   4.5037500e+00   2.7151500e+00
   5.5264600e-01   8.6201300e-01   1.8868400e+00
   7.2235900e-02  -2.4702200e+00   4.2799600e-01
  -4.1937900e-01  -3.2714700e+00  -4.7778600e-01
  -1.1334600e+00  -2.0966200e+00  -5.5104400e-01
  -1.8540700e+00  -8.0948600e-01  -2.7837400e-01
  -1.9425400e+00  -5.9356000e-01   4.0873600e-02
  -1.0281800e+00  -1.1791100e+00   4.2043900e-02
   2.4591200e-01  -1.8748500e+00  -5.4659700e-01
   8.9369500e-01  -1.6378700e+00  -1.1872000e+00
   6.6539500e-01  -3.6195900e-01  -1.4952100e+00
   5.4167400e-01   9.5184600e-01  -1.5785300e+00
   1.3334900e+00   1.9999000e+00  -1.2536700e+00
   2.3055100e+00   2.8579900e+00  -3.6848400e-01
   2.6155100e+00   3.1953300e+00   6.7585700e-01
   1.9212800e+00   2.2967700e+00   1.2387500e+00
   5.4610900e-01   8.5733500e-01   1.2057500e+00
  -8.3862900e-01   1.5385500e-02   1.0945800e+00
  -1.5587800e+00  -5.0676800e-01   9.5367700e-01
  -1.3524200e+00  -1.1791100e+00   6.6509100e-01
  -9.5534600e-01  -1.7782300e+00   5.6936300e-01
  -1.3629200e+00  -1.8888800e+00   4.8323200e-01
  -2.1622100e+00  -1.7518000e+00   8.5343500e-02
  -2.0268100e+00  -1.5985600e+00  -2.5730900e-01
  -6.7919200e-01  -1.1473000e+00  -3.1090700e-01
   7.6577200e-01  -3.8090800e-01  -4.6491300e-01
   1.2011300e+00   5.2537400e-01  -6.4232500e-01
   1.1364700e+00   1.3352700e+00  -3.3056700e-01
   1.3521600e+00   1.4529500e+00   6.1002100e-02
   1.6708000e+00   8.5172000e-01  -1.1172800e-01
