**************************************************************************************
  	RED ACELEROGRÁFICA DE LA UNIVERSIDAD AUTONOMA METROPOLITANA (RA-UAM)
	   UNIDAD AZCAPOTZALCO. DIVISIÓN CBI-DEPARTAMENTO DE MATERIALES
     Av. San Pablo 420, Col. Nueva el Rosario, Azcapotzalco, C.P. 02128, Ciudad de México
		Área de Estructuras. e-mail: agb@azc.uam.mx
**************************************************************************************
ARCHIVO ESTANDAR DE ACELERACION:
VERSION DEL FORMATO                    : 2.0
NOMBRE DEL ARCHIVO                     : RIDR202209.221
FECHA Y HORA DE CREACION               : 11:30 a. m. 29/09/2022
REF. CATALOGO ACELEROGRAMAS, SMIS 1999 : REGISTRO NO.      /PAG.    


================================================================================
DATOS DE LA ESTACION:
NOMBRE DE LA ESTACION                  : UAM-RECTORIA.
CLAVE DE LA ESTACION                   : RIDR
LOCALIZACION DE LA ESTACION            : PROL. CANAL DE MIRAMONTES 3855, COL. EX
                                       : DE SAN JUAN DE DIOS, C.P.14387 CIUDAD DE MEXICO.
                                       :
                                       : 
                                       : 
COORDENADAS DE LA ESTACION             : 19.287271 LAT. N
                                       : 99.137132 LONG. W
ALTITUD (msnm)                         : 2240
TIPO DE SUELO                          : TRANSICION
                                       : 
                                       : 
INSTITUCION RESPONSABLE                : UNIVERSIDAD AUTONOMA METROPOLITANA
                                       : 

================================================================================
DATOS DEL ACELEROGRAFO: 
MODELO DEL ACELEROGRAFO                : ETNA2 KINEMETRICS
NUMERO DE SERIE DEL ACELEROGRAFO       : 103462
NUMERO DE CANALES                      : 3
ORIENTACION C1-C6 (rumbo;orientacion)  : /N90E/N00E/V
ORIENTACION C7-C12 (rumbo;orientacion) : 
VEL. DE MUESTREO, C1-C6 (muestras/s)   : /200/200/200
VEL. DE MUESTREO, C7-C12 (muestras/s)  : 
ESC. COMPLETA DE SENSORES, C1-C6, (g)  : /2/2/2
ESC. COMPLETA DE SENSORES, C7-C12 (g)  : 
FREC. NAT. DE SENSORES, C1-C6, (Hz)    : /200/200/202   
FREC. NAT. DE SENSORES, C7-C12 (Hz)    : 
AMORTIGUAMIENTO DE SENSORES, C1-C6     : /0.7/0.7/0.7      
AMORTIGUAMIENTO DE SENSORES, C7-C12    : 
INTERVALO DE MUESTREO, C1-C6 (s)       : /0.005/0.005/0.005
INTERVALO DE MUESTREO, C7-C12 (s)      : 
UMBRAL DE DISPARO, C1-C6 (Gal)         : /2/2/2
UMBRAL DE DISPARO, C7-C12 (Gal)        : 
MEMORIA DE PREEVENTO (s)               : 50
TIEMPO DE POSEVENTO (s)                : 60


================================================================================
DATOS DEL SISMO:
FECHA DEL SISMO [GMT]                  : 2022/09/22
HORA EPICENTRO (GMT)                   : 06:16:09
MAGNITUD(ES)                           : /M=6.9
COORDENADAS DEL EPICENTRO              : 18.0100 LAT. N
                                       : -103.1800 LONG. W
PROFUNDIDAD FOCAL (Km)                 : 12.0
FUENTE DE LOS DATOS EPICENTRALES       : SSN
                                       : INSTITUTO DE GEOFISICA, UNAM

================================================================================
DATOS DE ESTE REGISTRO:
HORA DE LA PRIMERA MUESTRA (GMT)       : 06:17:07.000
EXACTITUD DEL TIEMPO (s)               : 
DURACION DEL REGISTRO (s), C1-C6       : /204/204/204
DURACION DEL REGISTRO (s), C7-C12      : 
NUM. TOTAL DE MUESTRAS, C1-C6          : /40800/40800/40800
NUM. TOTAL DE MUESTRAS, C7-C12         : 
ACEL. MAX.(Gal), C1-C6                 : /-14.29/12.27/-4.155
ACEL. MAX., C1-C6, EN LA MUESTRA       : /13747/15996/15205
ACEL. MAX.(Gal), C7-C12                : 
ACEL. MAX., C7-C12,EN LA MUESTRA       : 
UNIDADES DE LOS DATOS                  : Gal (cm/s/s)
FACTOR DE DECIMACION                   : 1
FORMATO DATOS (FORTRAN,16 campos/dato) : 3E16.7


================================================================================
CALIDAD DEL ACELEROGRAMA:
REGISTRO DIGITAL COMPLETO CON TIEMPO ABSOLUTO CORRECTO


================================================================================
COMENTARIOS:














================================================================================
DATOS DE ACELERACION:
---------+---------+---------+---------+---------+---------+---------+---------+
   CANAL-1   	     CANAL-2          CANAL-3
     N90E             N00E              V
---------+---------+---------+---------+---------+---------+---------+---------+
[...]
   2.4841800e+00  -1.3483800e+00   2.7816600e-01
   2.6004300e+00  -1.4513200e+00   2.5827200e-01
   2.7038400e+00  -1.5367100e+00   2.3580300e-01
   2.7962800e+00  -1.6108600e+00   2.2176000e-01
   2.9013200e+00  -1.6787100e+00   1.9624800e-01
   2.9975000e+00  -1.7650300e+00   1.6605500e-01
   3.1013800e+00  -1.8590700e+00   1.3375600e-01
   3.2251000e+00  -1.9418900e+00   8.8116100e-02
   3.3544200e+00  -2.0083300e+00   3.4986200e-02
   3.4699700e+00  -2.0651800e+00  -1.1590100e-02
   3.5934600e+00  -2.1355900e+00  -6.6124300e-02
   3.7433300e+00  -2.1884600e+00  -1.3517000e-01
   3.8654100e+00  -2.2345500e+00  -1.9438500e-01
   3.9781600e+00  -2.2773600e+00  -2.4774900e-01
   4.1294300e+00  -2.3187700e+00  -3.1422000e-01
   4.2755600e+00  -2.3667200e+00  -3.7928600e-01
   4.4072200e+00  -2.4102400e+00  -4.3592700e-01
   4.5745900e+00  -2.4668500e+00  -5.1644100e-01
   4.7179200e+00  -2.5110600e+00  -5.9578400e-01
   4.8449100e+00  -2.5494300e+00  -6.6085100e-01
   5.0085400e+00  -2.5976200e+00  -7.3410900e-01
   5.1735800e+00  -2.6306100e+00  -8.2304900e-01
   5.3271800e+00  -2.6591500e+00  -9.0941400e-01
   5.4758800e+00  -2.6876900e+00  -9.7963000e-01
   5.6283200e+00  -2.7225500e+00  -1.0564000e+00
   5.7758500e+00  -2.7716700e+00  -1.1266100e+00
   5.9338800e+00  -2.7922600e+00  -1.1963600e+00
   6.1082600e+00  -2.8179900e+00  -1.2717300e+00
   6.2620900e+00  -2.8526200e+00  -1.3431100e+00
   6.3739100e+00  -2.8687600e+00  -1.3976500e+00
   6.5046300e+00  -2.8851300e+00  -1.4468000e+00
   6.6638300e+00  -2.8825600e+00  -1.5029700e+00
   6.7847500e+00  -2.8961300e+00  -1.5437000e+00
   6.9087100e+00  -2.9272400e+00  -1.5855900e+00
   7.0646400e+00  -2.9436200e+00  -1.6338100e+00
   7.2093700e+00  -2.9445500e+00  -1.6768700e+00
   7.3368300e+00  -2.9438500e+00  -1.7007400e+00
   7.4717500e+00  -2.9485300e+00  -1.7176000e+00
   7.6085500e+00  -2.9504000e+00  -1.7307000e+00
   7.7194300e+00  -2.9396400e+00  -1.7304700e+00
   7.8272800e+00  -2.9162500e+00  -1.7344500e+00
   7.9554300e+00  -2.9040800e+00  -1.7377200e+00
   8.0649100e+00  -2.8867700e+00  -1.7304700e+00
   8.1664600e+00  -2.8711000e+00  -1.7171300e+00
   8.2927500e+00  -2.8451300e+00  -1.7154900e+00
   8.4076000e+00  -2.8135500e+00  -1.7068300e+00
   8.4930300e+00  -2.8053600e+00  -1.6698500e+00
   8.5976100e+00  -2.7786900e+00  -1.6420000e+00
   8.7157300e+00  -2.7644200e+00  -1.6230400e+00
   8.8093400e+00  -2.7393900e+00  -1.5912100e+00
   8.8994400e+00  -2.7054700e+00  -1.5628900e+00
   9.0009900e+00  -2.6755200e+00  -1.5352700e+00
   9.0922600e+00  -2.6235900e+00  -1.5025000e+00
   9.1681300e+00  -2.5889700e+00  -1.4690300e+00
   9.2652400e+00  -2.5475600e+00  -1.4514800e+00
   9.3639800e+00  -2.5063900e+00  -1.4308800e+00
   9.4365800e+00  -2.4631100e+00  -1.4053700e+00
   9.5292500e+00  -2.4240400e+00  -1.3925000e+00
   9.6296300e+00  -2.3875400e+00  -1.3910900e+00
   9.6959200e+00  -2.3669600e+00  -1.3976500e+00
   9.7673600e+00  -2.3482400e+00  -1.3999900e+00
   9.8654000e+00  -2.3197000e+00  -1.4278400e+00
   9.9260900e+00  -2.3084700e+00  -1.4566300e+00
   9.9604100e+00  -2.2862500e+00  -1.4835400e+00
   1.0036500e+01  -2.2712800e+00  -1.5198200e+00
   1.0098400e+01  -2.2338500e+00  -1.5500200e+00
   1.0132700e+01  -2.2018000e+00  -1.5771700e+00
   1.0190600e+01  -2.1872900e+00  -1.6043200e+00
   1.0252400e+01  -2.1723200e+00  -1.6485500e+00
   1.0293800e+01  -2.1578200e+00  -1.6855300e+00
   1.0317100e+01  -2.1419100e+00  -1.7229800e+00
   1.0351900e+01  -2.1552400e+00  -1.7777500e+00
   1.0375000e+01  -2.1407400e+00  -1.8346200e+00
   1.0385000e+01  -2.1267000e+00  -1.8915000e+00
   1.0401600e+01  -2.1103300e+00  -1.9582000e+00
   1.0407000e+01  -2.0953500e+00  -2.0209300e+00
   1.0400400e+01  -2.0920800e+00  -2.0719500e+00
   1.0409500e+01  -2.0759400e+00  -2.1456800e+00
   1.0432600e+01  -2.0663400e+00  -2.2355500e+00
   1.0424500e+01  -2.0474000e+00  -2.3062400e+00
   1.0416300e+01  -2.0431800e+00  -2.3724700e+00
   1.0422600e+01  -2.0090300e+00  -2.4497100e+00
   1.0421000e+01  -1.9870400e+00  -2.5229700e+00
   1.0394800e+01  -1.9671500e+00  -2.5894400e+00
   1.0364200e+01  -1.9390800e+00  -2.6528700e+00
   1.0350700e+01  -1.9285500e+00  -2.7163000e+00
   1.0339000e+01  -1.8742800e+00  -2.7710700e+00
   1.0336500e+01  -1.8408300e+00  -2.8316800e+00
   1.0310300e+01  -1.7975500e+00  -2.8850500e+00
   1.0285300e+01  -1.7545000e+00  -2.9147700e+00
   1.0284600e+01  -1.7182400e+00  -2.9548000e+00
   1.0277900e+01  -1.6679500e+00  -3.0030100e+00
   1.0248900e+01  -1.6256000e+00  -3.0367100e+00
   1.0211600e+01  -1.5640800e+00  -3.0376500e+00
   1.0191700e+01  -1.4999800e+00  -3.0343700e+00
   1.0160200e+01  -1.4400900e+00  -3.0238400e+00
   1.0129400e+01  -1.3802000e+00  -2.9983300e+00
   1.0122200e+01  -1.3172700e+00  -2.9969300e+00
   1.0089000e+01  -1.2613600e+00  -2.9866300e+00
   1.0047700e+01  -1.1970200e+00  -2.9629900e+00
   1.0028300e+01  -1.1434500e+00  -2.9328000e+00
   9.9984600e+00  -1.0809900e+00  -2.9023700e+00
   9.9655400e+00  -1.0147900e+00  -2.8740500e+00
   9.9242200e+00  -9.7501600e-01  -2.8298100e+00
   9.8761400e+00  -9.2074200e-01  -2.7996200e+00
   9.8175400e+00  -8.6202300e-01  -2.7701300e+00
   9.7412100e+00  -7.7897400e-01  -2.7088100e+00
   9.6898600e+00  -7.0013700e-01  -2.6381200e+00
   9.6406000e+00  -6.2551000e-01  -2.5800800e+00
   9.5558600e+00  -5.5649800e-01  -2.5030800e+00
   9.4874700e+00  -4.9894900e-01  -2.4272400e+00
   9.4361100e+00  -4.3929400e-01  -2.3682600e+00
   9.3450700e+00  -3.9835400e-01  -2.2989800e+00
   9.2482000e+00  -3.3589300e-01  -2.2395300e+00
   9.1571600e+00  -2.7694000e-01  -2.1927200e+00
   9.0217600e+00  -2.0184500e-01  -2.1307000e+00
   8.8842700e+00  -1.2698400e-01  -2.0452700e+00
   8.7850600e+00  -5.2123600e-02  -1.9820800e+00
   8.6674100e+00   4.2388100e-02  -1.9242600e+00
   8.5217500e+00   1.2146000e-01  -1.8547500e+00
   8.3898500e+00   2.1129300e-01  -1.7960000e+00
   8.2605300e+00   3.0042400e-01  -1.7414700e+00
   8.1230400e+00   3.9750900e-01  -1.6864700e+00
   7.9848400e+00   4.8453400e-01  -1.6171900e+00
   7.8580900e+00   5.7764200e-01  -1.5570400e+00
   7.7269000e+00   6.6443400e-01  -1.5067200e+00
   7.5546200e+00   7.3812500e-01  -1.4463300e+00
   7.3916900e+00   8.1298600e-01  -1.3976500e+00
   7.2509200e+00   8.8574100e-01  -1.3709700e+00
   7.0781800e+00   9.8165600e-01  -1.3243900e+00
   6.8935300e+00   1.0663400e+00  -1.2630700e+00
   6.7397000e+00   1.1423700e+00  -1.2209400e+00
   6.5681300e+00   1.1903300e+00  -1.1736600e+00
   6.3760100e+00   1.2214400e+00  -1.1214700e+00
   6.2168100e+00   1.2464800e+00  -1.0809700e+00
   6.0347300e+00   1.2731500e+00  -1.0425900e+00
   5.8349100e+00   1.2963100e+00  -9.9718400e-01
   5.6624000e+00   1.3094100e+00  -9.7073600e-01
   5.4786800e+00   1.3208700e+00  -9.5435200e-01
   5.2639200e+00   1.3239100e+00  -9.2954300e-01
   5.0430900e+00   1.3463700e+00  -9.0332900e-01
   4.8330000e+00   1.3559600e+00  -8.7220000e-01
   4.6156700e+00   1.3667200e+00  -8.4856100e-01
   4.3848100e+00   1.3615700e+00  -8.1673000e-01
   4.1513700e+00   1.3501100e+00  -7.8677100e-01
   3.9125700e+00   1.3395800e+00  -7.5774800e-01
   3.6637200e+00   1.3150200e+00  -7.2170400e-01
   3.4193200e+00   1.2911600e+00  -7.0789500e-01
   3.1674400e+00   1.2665900e+00  -7.0438500e-01
   2.8749500e+00   1.2768900e+00  -6.7910700e-01
   2.5761500e+00   1.2682300e+00  -6.4891400e-01
   2.3018600e+00   1.2614500e+00  -6.3253100e-01
   2.0089000e+00   1.2544300e+00  -5.9297600e-01
   1.6905000e+00   1.2352500e+00  -5.3914400e-01
   1.3844600e+00   1.2165300e+00  -4.8788600e-01
   1.0821600e+00   1.1676400e+00  -4.3873500e-01
   7.6585900e-01   1.1236600e+00  -3.8537100e-01
   4.4768600e-01   1.0843600e+00  -3.2709200e-01
   1.2087700e-01   1.0628300e+00  -2.6460100e-01
  -2.2904200e-01   1.0249400e+00  -1.9508700e-01
  -5.7919500e-01   9.8025300e-01  -1.4429800e-01
  -8.9713400e-01   9.3018900e-01  -1.0240200e-01
  -1.2167100e+00   8.8784600e-01  -5.7932500e-02
  -1.5565900e+00   8.4877800e-01  -1.3696600e-02
  -1.8943700e+00   7.9567400e-01   2.0943100e-02
  -2.2286500e+00   7.6736700e-01   4.9965600e-02
  -2.5727300e+00   7.1215800e-01   8.3435000e-02
  -2.9289500e+00   6.4408100e-01   9.8648400e-02
  -3.2770100e+00   5.4910200e-01   1.0754200e-01
  -3.6337000e+00   4.7330500e-01   1.3445800e-01
  -3.9880500e+00   4.0499500e-01   1.5388500e-01
  -4.3323700e+00   3.2124400e-01   1.6629000e-01
  -4.6722500e+00   2.6463100e-01   1.8712000e-01
  -5.0128300e+00   1.8766500e-01   2.0490800e-01
  -5.3585500e+00   1.0227700e-01   2.0771700e-01
  -5.6755500e+00   5.1916700e-03   1.9765200e-01
  -5.9981600e+00  -6.5926000e-02   1.9882300e-01
  -6.3312700e+00  -1.3681000e-01   2.0771700e-01
  -6.6485100e+00  -2.2056000e-01   2.1146200e-01
  -6.9743900e+00  -2.9963200e-01   2.1895100e-01
  -7.3040000e+00  -3.9297400e-01   2.1450400e-01
  -7.6021000e+00  -4.6362400e-01   1.9648200e-01
  -7.8941200e+00  -5.4690600e-01   1.9531200e-01
  -8.1896500e+00  -6.2012900e-01   1.9905700e-01
  -8.4618400e+00  -6.8539900e-01   1.9039700e-01
  -8.7305200e+00  -7.5604800e-01   1.7939600e-01
  -8.9947700e+00  -8.1991400e-01   1.6956600e-01
  -9.2468800e+00  -8.9407300e-01   1.5014000e-01
  -9.4917500e+00  -9.4951600e-01   1.1316000e-01
  -9.7557700e+00  -1.0047300e+00   9.2329000e-02
  -1.0017900e+01  -1.0536200e+00   7.8754000e-02
  -1.0252300e+01  -1.1111700e+00   4.4582400e-02
  -1.0475000e+01  -1.1514100e+00   2.0241000e-02
  -1.0702800e+01  -1.1832200e+00   1.0410800e-02
  -1.0933700e+01  -1.2351600e+00  -1.2526300e-02
  -1.1138600e+01  -1.2700100e+00  -4.2719100e-02
  -1.1349200e+01  -1.3011300e+00  -6.8464800e-02
  -1.1564700e+01  -1.3263900e+00  -1.0591300e-01
  -1.1778300e+01  -1.3533000e+00  -1.4406400e-01
  -1.1993700e+01  -1.3563400e+00  -1.7051200e-01
  -1.2198000e+01  -1.3647600e+00  -1.9976800e-01
  -1.2412000e+01  -1.3659300e+00  -2.3534400e-01
  -1.2619600e+01  -1.3521300e+00  -2.5523800e-01
  -1.2804900e+01  -1.3451100e+00  -2.7302600e-01
  -1.2970200e+01  -1.3406600e+00  -3.1913500e-01
  -1.3152000e+01  -1.3488500e+00  -3.5564700e-01
  -1.3336200e+01  -1.3292000e+00  -3.7366900e-01
  -1.3480200e+01  -1.3079100e+00  -4.0128700e-01
  -1.3621200e+01  -1.2789000e+00  -4.3803300e-01
  -1.3753300e+01  -1.2606600e+00  -4.6050200e-01
  -1.3867300e+01  -1.2580800e+00  -4.8507800e-01
  -1.3974600e+01  -1.2531700e+00  -5.2486700e-01
  -1.4052400e+01  -1.2241600e+00  -5.6091100e-01
  -1.4123300e+01  -1.1724600e+00  -5.8197500e-01
  -1.4205500e+01  -1.1359700e+00  -5.8057100e-01
  -1.4252000e+01  -1.1032100e+00  -5.8455000e-01
  -1.4260600e+01  -1.0882400e+00  -5.8689000e-01
  -1.4257600e+01  -1.0571300e+00  -5.9250800e-01
  -1.4265500e+01  -1.0285900e+00  -6.0608300e-01
  -1.4287000e+01  -9.9887800e-01  -5.8876300e-01
  -1.4288400e+01  -9.6893300e-01  -5.7261300e-01
  -1.4263400e+01  -9.5302600e-01  -5.6254900e-01
  -1.4222600e+01  -9.1887000e-01  -5.3422900e-01
  -1.4163300e+01  -8.7138100e-01  -5.0848300e-01
  -1.4098800e+01  -8.1453300e-01  -4.7407700e-01
  -1.4048900e+01  -7.7336000e-01  -4.2516000e-01
  -1.3983000e+01  -7.1978800e-01  -3.6875400e-01
  -1.3874000e+01  -6.6434400e-01  -3.0813400e-01
  -1.3772000e+01  -6.1942700e-01  -2.5336600e-01
  -1.3672600e+01  -5.6796100e-01  -1.8759700e-01
  -1.3530000e+01  -5.2585200e-01  -1.1223300e-01
  -1.3380100e+01  -4.7953200e-01  -4.8570400e-02
  -1.3235800e+01  -4.3484900e-01   1.8134500e-02
  -1.3084600e+01  -3.9367600e-01   9.4201400e-02
  -1.2903200e+01  -3.4314500e-01   1.6137400e-01
  -1.2717800e+01  -2.8933800e-01   2.3276000e-01
  -1.2522000e+01  -2.3646800e-01   3.1631700e-01
  -1.2286700e+01  -1.8663900e-01   3.9612900e-01
  -1.2054200e+01  -1.5341900e-01   4.6447200e-01
  -1.1820300e+01  -1.2464500e-01   5.3609200e-01
  -1.1574200e+01  -8.2301800e-02   6.0396700e-01
  -1.1300600e+01  -5.6802400e-02   6.5499000e-01
  -1.1033400e+01  -3.0601100e-02   7.0882200e-01
  -1.0780100e+01   1.6420800e-02   7.6944200e-01
  -1.0510500e+01   3.3264400e-02   8.1742300e-01
  -1.0251400e+01   5.2447500e-02   8.5136000e-01
  -9.9889700e+00   9.0813600e-02   9.0191500e-01
  -9.7013800e+00   1.2941400e-01   9.5527900e-01
  -9.4109900e+00   1.7292600e-01   9.9038700e-01
  -9.1418300e+00   1.9164200e-01   1.0290100e+00
  -8.8696500e+00   2.2275600e-01   1.0687900e+00
  -8.5932600e+00   2.5293400e-01   1.0992200e+00
  -8.3355500e+00   2.6463100e-01   1.1399500e+00
  -8.0470200e+00   2.8919500e-01   1.1806700e+00
  -7.7423900e+00   2.8217600e-01   1.1886300e+00
  -7.4762700e+00   2.6931000e-01   1.2017400e+00
  -7.2085200e+00   2.7866700e-01   1.2359100e+00
  -6.9209300e+00   2.7656200e-01   1.2642300e+00
  -6.6244700e+00   2.6463100e-01   1.2857600e+00
  -6.3522800e+00   2.3211300e-01   1.3058900e+00
  -6.0787000e+00   1.7269300e-01   1.3218100e+00
  -5.7806000e+00   1.2964800e-01   1.3384200e+00
  -5.5100500e+00   9.1515400e-02   1.3658100e+00
  -5.2231600e+00   4.0750500e-02   1.3936600e+00
  -4.8977500e+00   3.0862100e-03   1.4215100e+00
  -4.6050200e+00  -5.7738100e-02   1.4428100e+00
  -4.3393700e+00  -1.2558100e-01   1.4704300e+00
  -4.0387100e+00  -2.0301500e-01   1.4835400e+00
  -3.7394400e+00  -2.9776000e-01   1.4704300e+00
  -3.4805600e+00  -3.5180000e-01   1.4835400e+00
  -3.2172500e+00  -3.9086800e-01   1.5144300e+00
  -2.9368900e+00  -4.5637100e-01   1.5408800e+00
  -2.6999500e+00  -5.2678700e-01   1.5729400e+00
  -2.4576500e+00  -5.8199700e-01   1.6157700e+00
  -2.1735600e+00  -6.3463400e-01   1.6565000e+00
  -1.9279800e+00  -6.8656800e-01   1.7040100e+00
  -1.6845100e+00  -7.3943900e-01   1.7658000e+00
  -1.4419700e+00  -7.6938300e-01   1.8236100e+00
  -1.2185700e+00  -8.1593700e-01   1.8758100e+00
  -9.9867800e-01  -8.8471500e-01   1.9214500e+00
  -7.8648600e-01  -9.4670900e-01   1.9661500e+00
  -5.6612300e-01  -1.0239100e+00   2.0045400e+00
  -3.7307200e-01  -1.0828600e+00   2.0459600e+00
  -1.9822900e-01  -1.1479000e+00   2.1100900e+00
  -3.3105100e-03  -1.2143400e+00   2.1667300e+00
   1.7620100e-01  -1.2885000e+00   2.2240800e+00
   3.3073500e-01  -1.3802000e+00   2.2919500e+00
   5.1118100e-01  -1.4515500e+00   2.3514000e+00
   6.8812500e-01  -1.5453600e+00   2.4136600e+00
   8.4546000e-01  -1.6373000e+00   2.4693600e+00
   1.0095700e+00  -1.7191800e+00   2.5248300e+00
   1.1811400e+00  -1.8066700e+00   2.5749200e+00
   1.3422100e+00  -1.8796600e+00   2.6257100e+00
   1.4565900e+00  -1.9521800e+00   2.6802400e+00
   1.5814800e+00  -2.0289100e+00   2.7202700e+00
   1.7129100e+00  -2.1012000e+00   2.7612300e+00
   1.8321900e+00  -2.1650700e+00   2.7968000e+00
   1.9699200e+00  -2.2216800e+00   2.8234800e+00
   2.0894400e+00  -2.2595800e+00   2.8447800e+00
   2.1930800e+00  -2.3073000e+00   2.8646800e+00
   2.2792200e+00  -2.3311600e+00   2.8864400e+00
   2.3632600e+00  -2.3325700e+00   2.9000200e+00
   2.4631700e+00  -2.3491800e+00   2.9044700e+00
   2.5250300e+00  -2.3337400e+00   2.9107900e+00
   2.5791800e+00  -2.3227400e+00   2.9135900e+00
   2.6573800e+00  -2.3077700e+00   2.9089100e+00
   2.7176100e+00  -2.2593500e+00   2.9061000e+00
   2.7647600e+00  -2.2350200e+00   2.8876100e+00
   2.7881100e+00  -2.2191100e+00   2.8639700e+00
   2.7855400e+00  -2.1917400e+00   2.8534400e+00
   2.8067800e+00  -2.1552400e+00   2.8426800e+00
   2.8539400e+00  -2.0878700e+00   2.8110800e+00
   2.8770500e+00  -2.0305500e+00   2.7841600e+00
   2.8728500e+00  -1.9720700e+00   2.7757400e+00
   2.8719100e+00  -1.9184900e+00   2.7385200e+00
