**************************************************************************************
  	RED ACELEROGRÁFICA DE LA UNIVERSIDAD AUTONOMA METROPOLITANA (RA-UAM)
	   UNIDAD AZCAPOTZALCO. DIVISIÓN CBI-DEPARTAMENTO DE MATERIALES
     Av. San Pablo 420, Col. Nueva el Rosario, Azcapotzalco, C.P. 02128, Ciudad de México
		Área de Estructuras. e-mail: agb@azc.uam.mx
**************************************************************************************
ARCHIVO ESTANDAR DE ACELERACION:
VERSION DEL FORMATO                    : 2.0
NOMBRE DEL ARCHIVO                     : RIDR202212.111
FECHA Y HORA DE CREACION               : 11:30 a. m. 16/12/2022
REF. CATALOGO ACELEROGRAMAS, SMIS 1999 : REGISTRO NO.      /PAG.    


================================================================================
DATOS DE LA ESTACION:
NOMBRE DE LA ESTACION                  : UAM-RECTORIA.
CLAVE DE LA ESTACION                   : RIDR
LOCALIZACION DE LA ESTACION            : PROL. CANAL DE MIRAMONTES 3855, COL. EX
                                       : DE SAN JUAN DE DIOS, C.P.14387 CIUDAD DE MEXICO.
                                       :
                                       : 
                                       : 
COORDENADAS DE LA ESTACION             : 19.287271 LAT. N
                                       : 99.137132 LONG. W
ALTITUD (msnm)                         : 2240
TIPO DE SUELO                          : TRANSICION
                                       : 
                                       : 
INSTITUCION RESPONSABLE                : UNIVERSIDAD AUTONOMA METROPOLITANA
                                       : 

================================================================================
DATOS DEL ACELEROGRAFO: 
MODELO DEL ACELEROGRAFO                : ETNA2 KINEMETRICS
NUMERO DE SERIE DEL ACELEROGRAFO       : 103462
NUMERO DE CANALES                      : 3
ORIENTACION C1-C6 (rumbo;orientacion)  : /N90E/N00E/V
ORIENTACION C7-C12 (rumbo;orientacion) : 
VEL. DE MUESTREO, C1-C6 (muestras/s)   : /200/200/200
VEL. DE MUESTREO, C7-C12 (muestras/s)  : 
ESC. COMPLETA DE SENSORES, C1-C6, (g)  : /2/2/2
ESC. COMPLETA DE SENSORES, C7-C12 (g)  : 
FREC. NAT. DE SENSORES, C1-C6, (Hz)    : /200/200/202   
FREC. NAT. DE SENSORES, C7-C12 (Hz)    : 
AMORTIGUAMIENTO DE SENSORES, C1-C6     : /0.7/0.7/0.7      
AMORTIGUAMIENTO DE SENSORES, C7-C12    : 
INTERVALO DE MUESTREO, C1-C6 (s)       : /0.005/0.005/0.005
INTERVALO DE MUESTREO, C7-C12 (s)      : 
UMBRAL DE DISPARO, C1-C6 (Gal)         : /2/2/2
UMBRAL DE DISPARO, C7-C12 (Gal)        : 
MEMORIA DE PREEVENTO (s)               : 50
TIEMPO DE POSEVENTO (s)                : 60


================================================================================
DATOS DEL SISMO:
FECHA DEL SISMO [GMT]                  : 2022/12/11
HORA EPICENTRO (GMT)                   : 14:31:30
MAGNITUD(ES)                           : /M=6.0
COORDENADAS DEL EPICENTRO              : 17.1300 LAT. N
                                       : -100.6380 LONG. W
PROFUNDIDAD FOCAL (Km)                 : 14.1
FUENTE DE LOS DATOS EPICENTRALES       : SSN
                                       : INSTITUTO DE GEOFISICA, UNAM

================================================================================
DATOS DE ESTE REGISTRO:
HORA DE LA PRIMERA MUESTRA (GMT)       : 14:31:48.000
EXACTITUD DEL TIEMPO (s)               : 
DURACION DEL REGISTRO (s), C1-C6       : /192/192/192
DURACION DEL REGISTRO (s), C7-C12      : 
NUM. TOTAL DE MUESTRAS, C1-C6          : /38400/38400/38400
NUM. TOTAL DE MUESTRAS, C7-C12         : 
ACEL. MAX.(Gal), C1-C6                 : /-4.936/-4.465/-2.498
ACEL. MAX., C1-C6, EN LA MUESTRA       : /17529/16463/2663
ACEL. MAX.(Gal), C7-C12                : 
ACEL. MAX., C7-C12,EN LA MUESTRA       : 
UNIDADES DE LOS DATOS                  : Gal (cm/s/s)
FACTOR DE DECIMACION                   : 1
FORMATO DATOS (FORTRAN,16 campos/dato) : 3E16.7


================================================================================
CALIDAD DEL ACELEROGRAMA:
REGISTRO DIGITAL COMPLETO CON TIEMPO ABSOLUTO CORRECTO


================================================================================
COMENTARIOS:














================================================================================
DATOS DE ACELERACION:
---------+---------+---------+---------+---------+---------+---------+---------+
   CANAL-1   	     CANAL-2          CANAL-3
     N90E             N00E              V
---------+---------+---------+---------+---------+---------+---------+---------+
[...]
  -4.0241800e+00   2.1944000e+00   1.8749700e-01
  -4.0755400e+00   2.0928700e+00   1.7275200e-01
  -4.1063500e+00   1.9585900e+00   1.5590000e-01
  -4.1325000e+00   1.8502700e+00   1.5894300e-01
  -4.1661100e+00   1.7206700e+00   1.5800700e-01
  -4.2029900e+00   1.5648700e+00   1.5730500e-01
  -4.2139600e+00   1.4352600e+00   1.5238900e-01
  -4.2221300e+00   1.2960700e+00   1.3226100e-01
  -4.2403400e+00   1.1692800e+00   1.1704800e-01
  -4.2300700e+00   1.0642400e+00   9.1301800e-02
  -4.2144300e+00   9.4586300e-01   6.4619900e-02
  -4.2008900e+00   8.4363100e-01   4.5661600e-02
  -4.1850200e+00   7.1590000e-01   3.2554700e-02
  -4.1647100e+00   6.1483800e-01   2.5767200e-02
  -4.1395000e+00   5.2570700e-01   1.1021900e-02
  -4.1254900e+00   3.6709600e-01   3.5322600e-03
  -4.1112500e+00   2.4193800e-01  -2.5531000e-03
  -4.0706400e+00   1.0087200e-01  -1.7532400e-02
  -4.0080700e+00  -3.8087800e-02  -3.9065200e-02
  -3.9936000e+00  -1.6628700e-01  -4.9597600e-02
  -3.9859000e+00  -3.0735200e-01  -5.8023500e-02
  -3.9336100e+00  -4.3789100e-01  -7.6747600e-02
  -3.8964900e+00  -5.6913100e-01  -9.0322700e-02
  -3.8544700e+00  -6.8493100e-01  -9.4067500e-02
  -3.7753400e+00  -8.0353900e-01  -9.2663200e-02
  -3.6983100e+00  -9.2191200e-01  -1.0155700e-01
  -3.6397100e+00  -1.0440300e+00  -1.0436600e-01
  -3.5766900e+00  -1.1591300e+00  -9.6876100e-02
  -3.5005900e+00  -1.2819500e+00  -9.2663200e-02
  -3.4433900e+00  -1.3881500e+00  -1.0062100e-01
  -3.4030100e+00  -1.5147200e+00  -1.0249300e-01
  -3.3318100e+00  -1.6251400e+00  -8.8918300e-02
  -3.2494100e+00  -1.7257300e+00  -8.7045900e-02
  -3.1938500e+00  -1.8593100e+00  -7.4641200e-02
  -3.1179900e+00  -1.9334700e+00  -4.7491100e-02
  -3.0204100e+00  -2.0719600e+00  -1.6128100e-02
  -2.9272700e+00  -2.1996900e+00   1.5000800e-02
  -2.8105500e+00  -2.2979500e+00   3.2788800e-02
  -2.6884600e+00  -2.4221700e+00   5.4321600e-02
  -2.5852900e+00  -2.4797200e+00   7.2343600e-02
  -2.4900400e+00  -2.5704900e+00   7.8194900e-02
  -2.3787000e+00  -2.6544700e+00   8.6620800e-02
  -2.2715500e+00  -2.6738900e+00   1.0604700e-01
  -2.1730400e+00  -2.7244200e+00   1.2898400e-01
  -2.0425500e+00  -2.7567000e+00   1.5590000e-01
  -1.9022500e+00  -2.7627800e+00   1.9124200e-01
  -1.7673300e+00  -2.8187000e+00   2.3032900e-01
  -1.6071900e+00  -2.8460700e+00   2.6543700e-01
  -1.4244100e+00  -2.8575300e+00   2.9586300e-01
  -1.2407000e+00  -2.8809200e+00   3.2512000e-01
  -1.0740300e+00  -2.8886400e+00   3.4150400e-01
  -9.2859600e-01  -2.8718000e+00   3.4361000e-01
  -7.7499600e-01  -2.8479400e+00   3.4407800e-01
  -6.1696000e-01  -2.7831400e+00   3.5484500e-01
  -4.8063400e-01  -2.7426700e+00   3.6444100e-01
  -3.4734300e-01  -2.7211400e+00   3.6561100e-01
  -1.8580500e-01  -2.6610200e+00   3.6280200e-01
  -3.1971500e-02  -2.6350500e+00   3.6069600e-01
   1.0995700e-01  -2.6023000e+00   3.6069600e-01
   2.8013100e-01  -2.5384400e+00   3.4852500e-01
   4.5637500e-01  -2.4890700e+00   3.3331200e-01
   6.1441100e-01  -2.4458000e+00   3.1622600e-01
   7.4770200e-01  -2.3414600e+00   2.8603300e-01
   8.9336600e-01  -2.2630900e+00   2.6005300e-01
   1.0581700e+00  -2.1374600e+00   2.4109500e-01
   1.1835300e+00  -2.0123100e+00   2.2845600e-01
   1.2976800e+00  -1.9089000e+00   2.1488100e-01
   1.4398400e+00  -1.7514600e+00   1.8585900e-01
   1.5635600e+00  -1.6450200e+00   1.5824100e-01
   1.6739700e+00  -1.5112100e+00   1.2992000e-01
   1.8061000e+00  -1.3556400e+00   8.8493200e-02
   1.9396200e+00  -1.1902400e+00   4.6363800e-02
   2.0516700e+00  -1.0115100e+00   1.0787900e-02
   2.1434100e+00  -8.3465300e-01  -1.3787600e-02
   2.2526600e+00  -6.4258800e-01  -4.5150600e-02
   2.3714800e+00  -4.5122500e-01  -7.8620100e-02
   2.4464100e+00  -2.5962900e-01  -8.9854600e-02
   2.5351200e+00  -6.4523000e-02  -9.4301500e-02
   2.6630400e+00   1.1631200e-01  -1.0553600e-01
   2.7706500e+00   2.5574100e-01  -1.1021700e-01
   2.8628600e+00   4.1177800e-01  -1.0179100e-01
   2.9793400e+00   5.5892600e-01  -1.0694000e-01
   3.1093700e+00   6.5086500e-01  -1.2145200e-01
   3.2029700e+00   7.4818400e-01  -1.2800500e-01
   3.2884100e+00   8.5252100e-01  -1.3713300e-01
   3.3918200e+00   9.6060100e-01  -1.4555900e-01
   3.4618500e+00   1.0726600e+00  -1.5211200e-01
   3.5181100e+00   1.1552400e+00  -1.3924000e-01
   3.6068200e+00   1.2527900e+00  -1.1279200e-01
   3.6885200e+00   1.3650800e+00  -9.2429100e-02
   3.7557500e+00   1.4464900e+00  -5.7555400e-02
   3.8323200e+00   1.5477900e+00  -6.0638800e-03
   3.9077200e+00   1.6198400e+00   2.6235300e-02
   3.9765800e+00   1.6818400e+00   4.2384900e-02
   4.0358700e+00   1.7653500e+00   7.1875500e-02
   4.0958600e+00   1.8390400e+00   9.4344500e-02
   4.1483900e+00   1.8879400e+00   1.0674900e-01
   4.1855000e+00   1.9328500e+00   1.1494100e-01
   4.2046500e+00   1.9833900e+00   1.3717600e-01
   4.2272900e+00   2.0187100e+00   1.7907100e-01
   4.2590400e+00   2.0563700e+00   2.0856200e-01
   4.2653400e+00   2.0521600e+00   2.4554200e-01
   4.2658100e+00   2.0547400e+00   2.8884200e-01
   4.2788800e+00   2.0577800e+00   3.2956700e-01
   4.2865800e+00   2.0584800e+00   3.5180200e-01
   4.2749100e+00   2.0524000e+00   3.5929200e-01
   4.2476000e+00   2.0486500e+00   3.8246300e-01
   4.2116500e+00   2.0404700e+00   4.0282500e-01
   4.1712600e+00   2.0063100e+00   4.0961300e-01
   4.1154700e+00   1.9749600e+00   4.1991100e-01
   4.0680900e+00   1.9253700e+00   4.4191200e-01
   4.0272300e+00   1.8879400e+00   4.5899800e-01
   3.9751800e+00   1.8362400e+00   4.7819000e-01
   3.9392300e+00   1.8037200e+00   5.0931900e-01
   3.9084200e+00   1.7658200e+00   5.3857600e-01
   3.8612600e+00   1.6914300e+00   5.5261900e-01
   3.8180800e+00   1.6245200e+00   5.5706600e-01
   3.8010400e+00   1.5564500e+00   5.6947000e-01
   3.7697600e+00   1.5103600e+00   5.8070500e-01
   3.6994900e+00   1.4607600e+00   5.8398200e-01
   3.6432300e+00   1.4137400e+00   5.9334400e-01
   3.6084500e+00   1.3573600e+00   6.0785500e-01
   3.5482300e+00   1.2930300e+00   6.0949300e-01
   3.4989700e+00   1.2233200e+00   6.0294000e-01
   3.4707200e+00   1.1762900e+00   5.9451400e-01
   3.4266100e+00   1.1482200e+00   5.8210900e-01
   3.3792200e+00   1.0941800e+00   5.5870400e-01
   3.3299600e+00   1.0560500e+00   5.1844700e-01
   3.2760400e+00   9.9358700e-01   4.6367900e-01
   3.1994700e+00   9.3931200e-01   3.9954900e-01
   3.1245400e+00   9.0515700e-01   3.3237600e-01
   3.0647800e+00   8.7802000e-01   2.6309600e-01
   2.9928800e+00   8.6515400e-01   2.0715800e-01
   2.9060400e+00   8.5369100e-01   1.6760300e-01
   2.8180400e+00   8.2912700e-01   1.2500500e-01
   2.7610800e+00   7.8842100e-01   8.7322900e-02
   2.7197600e+00   7.6245400e-01   5.7598300e-02
   2.6891800e+00   7.1402900e-01   2.7405600e-02
   2.6658400e+00   6.5905300e-01  -9.1065600e-03
   2.6401600e+00   6.2068700e-01  -5.1470000e-02
   2.6154200e+00   5.7530200e-01  -7.8386000e-02
   2.5937100e+00   5.1307400e-01  -1.0389800e-01
   2.5811000e+00   4.3868100e-01  -1.4251600e-01
   2.5808700e+00   3.7037100e-01  -1.8019900e-01
   2.5855400e+00   3.5656900e-01  -1.9541200e-01
   2.5715300e+00   3.1867000e-01  -1.9049700e-01
   2.5715300e+00   2.5480500e-01  -2.0313600e-01
   2.5895100e+00   2.1433300e-01  -2.2490300e-01
   2.5890400e+00   1.5772000e-01  -2.4432900e-01
   2.5722300e+00   1.3081700e-01  -2.7194700e-01
   2.5743300e+00   8.3326900e-02  -3.1711900e-01
   2.5757300e+00   4.0048100e-02  -3.6510000e-01
   2.5299800e+00   1.9158700e-03  -3.9108000e-01
   2.4781600e+00  -4.9550900e-02  -4.1308100e-01
   2.4592500e+00  -6.5458800e-02  -4.3274100e-01
   2.4387100e+00  -9.5871000e-02  -4.3835800e-01
   2.3703100e+00  -1.3798000e-01  -4.2969800e-01
   2.3175500e+00  -1.3610900e-01  -4.1448500e-01
   2.3016800e+00  -1.5178300e-01  -4.0137800e-01
   2.2582600e+00  -1.6769000e-01  -3.6814300e-01
   2.1943000e+00  -1.4640200e-01  -3.2624700e-01
   2.1317400e+00  -1.7564400e-01  -3.0003300e-01
   2.0619400e+00  -1.6558500e-01  -2.6656400e-01
   1.9632000e+00  -1.5271800e-01  -2.2747700e-01
   1.8558200e+00  -1.5482400e-01  -1.8464600e-01
   1.7689800e+00  -1.0756800e-01  -1.3736700e-01
   1.6728100e+00  -9.6572800e-02  -8.3067000e-02
   1.5649600e+00  -7.1073300e-02  -1.9873000e-02
   1.4704200e+00  -6.1949700e-02   2.2022400e-02
   1.3833500e+00  -5.4697600e-02   5.3853500e-02
   1.2976800e+00  -1.4459900e-02   9.2004000e-02
   1.2026700e+00  -8.1435400e-03   1.2851600e-01
   1.0985600e+00   3.0690500e-02   1.5683600e-01
   9.8020400e-01   6.8120800e-02   1.8351800e-01
   8.4411100e-01   1.0134000e-01   2.2260500e-01
   6.8327400e-01   1.3081700e-01   2.5724500e-01
   5.1730200e-01   1.5397700e-01   2.8205400e-01
   3.7187100e-01   2.0146600e-01   3.1365100e-01
   2.1803800e-01   2.5246500e-01   3.5671700e-01
   3.8525900e-02   2.8428100e-01   3.8503700e-01
  -1.2627900e-01   3.0159300e-01   3.9837800e-01
  -2.5840400e-01   3.4627500e-01   4.0680400e-01
  -4.2320900e-01   3.3902300e-01   4.0914500e-01
  -5.9875200e-01   3.3294100e-01   4.0118700e-01
  -7.4091400e-01   3.4323400e-01   3.6959000e-01
  -8.9638200e-01   3.6031200e-01   3.5086600e-01
  -1.0980700e+00   3.6335300e-01   3.4478000e-01
  -1.3037300e+00   3.2896400e-01   3.3214100e-01
  -1.4748300e+00   3.0416600e-01   3.2043900e-01
  -1.6643800e+00   2.4591500e-01   3.0709800e-01
  -1.8728400e+00   2.0170000e-01   3.0265100e-01
  -2.0441800e+00   1.7222400e-01   3.0499100e-01
  -2.2122600e+00   1.3245400e-01   2.9328900e-01
  -2.4078800e+00   6.9056600e-02   2.7737300e-01
  -2.5990600e+00   2.4842000e-02   2.6286200e-01
  -2.7743700e+00  -2.4285400e-02   2.3430800e-01
  -2.9296000e+00  -6.0780000e-02   2.1675400e-01
  -3.0881100e+00  -6.2651500e-02   2.0645500e-01
  -3.2487100e+00  -1.1131100e-01   1.8656100e-01
  -3.3885400e+00  -1.2207200e-01   1.7088000e-01
  -3.5302300e+00  -1.3447100e-01   1.5753900e-01
  -3.6791600e+00  -1.7236900e-01   1.4466600e-01
  -3.8269300e+00  -1.9927200e-01   1.2266500e-01
  -3.9609200e+00  -2.2898300e-01   9.2472100e-02
  -4.0830100e+00  -2.4138100e-01   6.0406900e-02
  -4.2020600e+00  -2.4161500e-01   2.3426700e-02
  -4.3078100e+00  -2.2781300e-01  -6.2979400e-03
  -4.4011800e+00  -2.1658400e-01  -3.3448000e-02
  -4.4968900e+00  -2.2640900e-01  -5.9895900e-02
  -4.5869900e+00  -2.7506900e-01  -7.2768800e-02
  -4.6584300e+00  -2.8278900e-01  -9.1258900e-02
  -4.7109500e+00  -3.1413700e-01  -1.1630200e-01
  -4.7555300e+00  -3.4361300e-01  -1.3432400e-01
  -4.8005900e+00  -3.2606800e-01  -1.4719700e-01
  -4.8405000e+00  -3.7028200e-01  -1.6943200e-01
  -4.8708500e+00  -3.8361700e-01  -1.9541200e-01
  -4.9005000e+00  -3.9835500e-01  -2.0851900e-01
  -4.9280400e+00  -4.4069800e-01  -2.2677500e-01
  -4.9331800e+00  -4.3578500e-01  -2.5041400e-01
  -4.9327100e+00  -4.3251000e-01  -2.7592600e-01
  -4.9359800e+00  -4.6502800e-01  -2.8973500e-01
  -4.9329400e+00  -4.6619800e-01  -2.9862900e-01
  -4.9240700e+00  -4.8374300e-01  -3.2694900e-01
  -4.9082000e+00  -5.0105500e-01  -3.4661000e-01
  -4.8843900e+00  -5.1111400e-01  -3.4965200e-01
  -4.8512400e+00  -5.4690700e-01  -3.5667400e-01
  -4.7910200e+00  -5.4386600e-01  -3.8078100e-01
  -4.7079100e+00  -5.5509500e-01  -4.0559100e-01
  -4.6518900e+00  -5.6585600e-01  -4.1823000e-01
  -4.6047300e+00  -5.7544700e-01  -4.3952800e-01
  -4.5242000e+00  -5.8901600e-01  -4.6738100e-01
  -4.4317600e+00  -5.7895700e-01  -4.8516900e-01
  -4.3612600e+00  -5.7427800e-01  -4.8844500e-01
  -4.2604200e+00  -5.7708500e-01  -4.8493500e-01
  -4.1119500e+00  -5.6702600e-01  -4.8119000e-01
  -3.9950000e+00  -5.8574100e-01  -4.7393400e-01
  -3.8773500e+00  -6.3510200e-01  -4.7042300e-01
  -3.7298200e+00  -6.6738600e-01  -4.7533800e-01
  -3.5804200e+00  -6.9873400e-01  -4.7650900e-01
  -3.4431600e+00  -7.4645700e-01  -4.7065700e-01
  -3.2961000e+00  -7.8225000e-01  -4.6738100e-01
  -3.1217200e+00  -8.0143300e-01  -4.5942300e-01
  -2.9807300e+00  -8.3254700e-01  -4.3695400e-01
  -2.8446300e+00  -8.6436300e-01  -4.0816600e-01
  -2.6732900e+00  -8.9922000e-01  -3.7563200e-01
  -2.5185200e+00  -9.2074300e-01  -3.3958800e-01
  -2.3766000e+00  -9.3548100e-01  -2.9231000e-01
  -2.2029200e+00  -9.4390300e-01  -2.4760600e-01
  -2.0241100e+00  -9.7408100e-01  -2.1437000e-01
  -1.8782100e+00  -1.0026200e+00  -1.8113500e-01
  -1.7274100e+00  -1.0026200e+00  -1.5117600e-01
  -1.5614400e+00  -1.0243800e+00  -1.2426000e-01
  -1.4090100e+00  -1.0409900e+00  -1.0155700e-01
  -1.2752500e+00  -1.0384100e+00  -7.8620100e-02
  -1.1258500e+00  -1.0419200e+00  -4.4214400e-02
  -9.6781300e-01  -1.0564300e+00  -9.1065600e-03
  -8.2658500e-01  -1.0585300e+00   1.8277500e-02
  -6.8255600e-01  -1.0615700e+00   4.6597900e-02
  -5.2872200e-01  -1.0597000e+00   7.1641400e-02
  -3.8796000e-01  -1.0678900e+00   8.7322900e-02
  -2.5933700e-01  -1.0692900e+00   9.6919100e-02
  -1.1670900e-01  -1.0695300e+00   1.0557900e-01
   1.3081500e-02  -1.0912800e+00   9.9025500e-02
   1.3236700e-01  -1.1036800e+00   7.2109500e-02
   2.5422000e-01  -1.1329300e+00   5.0108600e-02
   3.7140500e-01  -1.1549200e+00   3.3022800e-02
   4.7248200e-01  -1.1591300e+00   1.7575400e-02
   5.7776100e-01  -1.1617000e+00   7.2770900e-03
   6.9447900e-01  -1.1579600e+00  -9.3406100e-03
   7.7244600e-01  -1.1785400e+00  -2.4085900e-02
   8.4667900e-01  -1.1748000e+00  -3.9299300e-02
   9.5242500e-01  -1.1715300e+00  -6.1534200e-02
   1.0310900e+00  -1.1820500e+00  -8.4003300e-02
   1.0756800e+00  -1.1825200e+00  -1.0225900e-01
   1.1247000e+00  -1.1923500e+00  -1.1723900e-01
   1.1678900e+00  -1.1953900e+00  -1.3689900e-01
   1.2052400e+00  -1.2265000e+00  -1.4813400e-01
   1.2425900e+00  -1.2318800e+00  -1.4626100e-01
   1.2909100e+00  -1.2365600e+00  -1.3362200e-01
   1.3504300e+00  -1.2389000e+00  -1.1864300e-01
   1.3982900e+00  -1.2314100e+00  -1.0951500e-01
   1.4461400e+00  -1.2211200e+00  -9.7812300e-02
   1.4921300e+00  -1.2110600e+00  -8.8216200e-02
   1.5215400e+00  -1.1979600e+00  -8.2130800e-02
   1.5448800e+00  -1.1762000e+00  -8.2364900e-02
   1.5642600e+00  -1.1797100e+00  -8.1662700e-02
   1.5546900e+00  -1.1659100e+00  -8.0960600e-02
   1.5460500e+00  -1.1900100e+00  -7.7917900e-02
   1.5350800e+00  -1.1928100e+00  -5.8257500e-02
   1.5131400e+00  -1.1958600e+00  -3.6490700e-02
   1.5098700e+00  -1.2204200e+00  -1.7298400e-02
   1.5143000e+00  -1.2274400e+00   4.4684600e-03
   1.5320400e+00  -1.2393700e+00   2.9980200e-02
   1.5434800e+00  -1.2489600e+00   6.3449600e-02
   1.5647300e+00  -1.2564500e+00   9.8089300e-02
   1.5901700e+00  -1.2585500e+00   1.2360100e-01
   1.5983400e+00  -1.2761000e+00   1.5238900e-01
   1.5985700e+00  -1.2763300e+00   1.6900700e-01
   1.6046400e+00  -1.2882600e+00   1.7907100e-01
   1.5983400e+00  -1.2597200e+00   2.0364700e-01
   1.5684600e+00  -1.2339900e+00   2.2166900e-01
   1.5488500e+00  -1.2349200e+00   2.2986100e-01
   1.5161700e+00  -1.1895400e+00   2.3618000e-01
   1.4954000e+00  -1.1825200e+00   2.4132900e-01
   1.4802200e+00  -1.1617000e+00   2.3922300e-01
   1.4564100e+00  -1.1369000e+00   2.3547800e-01
   1.4335400e+00  -1.1160800e+00   2.4343600e-01
   1.3975900e+00  -1.0641500e+00   2.5818100e-01
   1.3427300e+00  -1.0236800e+00   2.6379800e-01
   1.2547200e+00  -9.6963600e-01   2.6613900e-01
   1.1543500e+00  -8.9173400e-01   2.8018200e-01
   1.0581700e+00  -8.0798400e-01   2.9820400e-01
   9.4939000e-01  -7.0551800e-01   3.1060900e-01
   8.3710800e-01  -6.1381400e-01   3.2395000e-01
   7.5400500e-01  -5.4105800e-01   3.3401400e-01
