**************************************************************************************
  	RED ACELEROGRÁFICA DE LA UNIVERSIDAD AUTONOMA METROPOLITANA (RA-UAM)
	   UNIDAD AZCAPOTZALCO. DIVISIÓN CBI-DEPARTAMENTO DE MATERIALES
     Av. San Pablo 420, Col. Nueva el Rosario, Azcapotzalco, C.P. 02128, Ciudad de México
		Área de Estructuras. e-mail: agb@azc.uam.mx
**************************************************************************************
ARCHIVO ESTANDAR DE ACELERACION:
VERSION DEL FORMATO                    : 2.0
NOMBRE DEL ARCHIVO                     : RIDR202209.201
FECHA Y HORA DE CREACION               : 11:30 a. m. 27/09/2022
REF. CATALOGO ACELEROGRAMAS, SMIS 1999 : REGISTRO NO.      /PAG.    


================================================================================
DATOS DE LA ESTACION:
NOMBRE DE LA ESTACION                  : UAM-RECTORIA.
CLAVE DE LA ESTACION                   : RIDR
LOCALIZACION DE LA ESTACION            : PROL. CANAL DE MIRAMONTES 3855, COL. EX
                                       : DE SAN JUAN DE DIOS, C.P.14387 CIUDAD DE MEXICO.
                                       :
                                       : 
                                       : 
COORDENADAS DE LA ESTACION             : 19.287271 LAT. N
                                       : 99.137132 LONG. W
ALTITUD (msnm)                         : 2240
TIPO DE SUELO                          : TRANSICION
                                       : 
                                       : 
INSTITUCION RESPONSABLE                : UNIVERSIDAD AUTONOMA METROPOLITANA
                                       : 

================================================================================
DATOS DEL ACELEROGRAFO: 
MODELO DEL ACELEROGRAFO                : ETNA2 KINEMETRICS
NUMERO DE SERIE DEL ACELEROGRAFO       : 103462
NUMERO DE CANALES                      : 3
ORIENTACION C1-C6 (rumbo;orientacion)  : /N90E/N00E/V
ORIENTACION C7-C12 (rumbo;orientacion) : 
VEL. DE MUESTREO, C1-C6 (muestras/s)   : /200/200/200
VEL. DE MUESTREO, C7-C12 (muestras/s)  : 
ESC. COMPLETA DE SENSORES, C1-C6, (g)  : /2/2/2
ESC. COMPLETA DE SENSORES, C7-C12 (g)  : 
FREC. NAT. DE SENSORES, C1-C6, (Hz)    : /200/200/202   
FREC. NAT. DE SENSORES, C7-C12 (Hz)    : 
AMORTIGUAMIENTO DE SENSORES, C1-C6     : /0.7/0.7/0.7      
AMORTIGUAMIENTO DE SENSORES, C7-C12    : 
INTERVALO DE MUESTREO, C1-C6 (s)       : /0.005/0.005/0.005
INTERVALO DE MUESTREO, C7-C12 (s)      : 
UMBRAL DE DISPARO, C1-C6 (Gal)         : /2/2/2
UMBRAL DE DISPARO, C7-C12 (Gal)        : 
MEMORIA DE PREEVENTO (s)               : 50
TIEMPO DE POSEVENTO (s)                : 60


================================================================================
DATOS DEL SISMO:
FECHA DEL SISMO [GMT]                  : 2022/09/20
HORA EPICENTRO (GMT)                   : 08:17:13
MAGNITUD(ES)                           : /M=5.8
COORDENADAS DEL EPICENTRO              : 18.2700 LAT. N
                                       : -103.7400 LONG. W
PROFUNDIDAD FOCAL (Km)                 : 13.0
FUENTE DE LOS DATOS EPICENTRALES       : SSN
                                       : INSTITUTO DE GEOFISICA, UNAM

================================================================================
DATOS DE ESTE REGISTRO:
HORA DE LA PRIMERA MUESTRA (GMT)       : 08:18:58.000
EXACTITUD DEL TIEMPO (s)               : 
DURACION DEL REGISTRO (s), C1-C6       : /111/111/111
DURACION DEL REGISTRO (s), C7-C12      : 
NUM. TOTAL DE MUESTRAS, C1-C6          : /22200/22200/2200
NUM. TOTAL DE MUESTRAS, C7-C12         : 
ACEL. MAX.(Gal), C1-C6                 : /-1.484/-1.410/-0.336
ACEL. MAX., C1-C6, EN LA MUESTRA       : /10167/8957/11408
ACEL. MAX.(Gal), C7-C12                : 
ACEL. MAX., C7-C12,EN LA MUESTRA       : 
UNIDADES DE LOS DATOS                  : Gal (cm/s/s)
FACTOR DE DECIMACION                   : 1
FORMATO DATOS (FORTRAN,16 campos/dato) : 3E16.7


================================================================================
CALIDAD DEL ACELEROGRAMA:
REGISTRO DIGITAL COMPLETO CON TIEMPO ABSOLUTO CORRECTO


================================================================================
COMENTARIOS:














================================================================================
DATOS DE ACELERACION:
---------+---------+---------+---------+---------+---------+---------+---------+
   CANAL-1   	     CANAL-2          CANAL-3
     N90E             N00E              V
---------+---------+---------+---------+---------+---------+---------+---------+
[...]
   4.0008700e-02   8.3945900e-01  -3.3134900e-02
   1.3630500e-02   8.1980800e-01  -4.2028900e-02
  -1.1813900e-02   7.9594700e-01  -4.2262900e-02
  -3.6091200e-02   7.7840100e-01  -3.3134900e-02
  -5.8734400e-02   7.7255300e-01  -3.4305200e-02
  -7.4608000e-02   7.4869100e-01  -4.1794800e-02
  -1.0915600e-01   7.1547100e-01  -3.4071100e-02
  -1.4603900e-01   6.8786600e-01  -3.3837100e-02
  -1.7451800e-01   6.5651800e-01  -4.3667200e-02
  -2.0253100e-01   6.3827100e-01  -4.0624600e-02
  -2.3171000e-01   6.1230400e-01  -3.6177600e-02
  -2.6789200e-01   5.8610300e-01  -4.6944000e-02
  -3.0384100e-01   5.6270900e-01  -4.9986700e-02
  -3.3675600e-01   5.3229600e-01  -4.5773700e-02
  -3.6780300e-01   5.0820100e-01  -5.3263400e-02
  -3.9861600e-01   4.7615100e-01  -6.0519000e-02
  -4.3946700e-01   4.5860500e-01  -5.7710400e-02
  -4.8171900e-01   4.3146800e-01  -6.0987100e-02
  -5.1463300e-01   3.9848300e-01  -7.2455700e-02
  -5.5478400e-01   3.8304300e-01  -7.2455700e-02
  -5.9633600e-01   3.5918100e-01  -6.8944900e-02
  -6.2995000e-01   3.3438300e-01  -7.7604800e-02
  -6.6146400e-01   3.0233400e-01  -8.6966900e-02
  -7.1001900e-01   2.8244900e-01  -8.3222100e-02
  -7.5343800e-01   2.5414200e-01  -8.9775500e-02
  -7.8658600e-01   2.3262000e-01  -9.3754400e-02
  -8.2136700e-01   2.3098200e-01  -8.5796600e-02
  -8.5311500e-01   2.0010200e-01  -9.0009600e-02
  -8.9163100e-01   1.8232300e-01  -9.8201400e-02
  -9.3084900e-01   1.4863500e-01  -1.0218000e-01
  -9.7170000e-01   1.3389700e-01  -1.0522300e-01
  -1.0020500e+00   1.1869100e-01  -1.0967000e-01
  -1.0319300e+00   1.0091200e-01  -1.0522300e-01
  -1.0725400e+00   1.0676000e-01  -9.6094900e-02
  -1.1028900e+00   7.2370900e-02  -1.0007400e-01
  -1.1327700e+00   6.6288500e-02  -1.0756300e-01
  -1.1652200e+00   5.1082400e-02  -9.7733300e-02
  -1.1892600e+00   3.8917500e-02  -9.3754400e-02
  -1.2154100e+00   4.0789000e-02  -1.0124400e-01
  -1.2497200e+00   3.5408400e-02  -8.9775500e-02
  -1.2737600e+00   3.3536900e-02  -7.7370800e-02
  -1.2852000e+00   1.3184100e-02  -8.2988000e-02
  -1.3073800e+00   5.9320100e-03  -7.9009100e-02
  -1.3332900e+00   8.0374600e-03  -6.4966000e-02
  -1.3414600e+00   1.5523500e-02  -6.3795700e-02
  -1.3517300e+00   1.9968400e-02  -6.5902200e-02
  -1.3739100e+00   2.7688400e-02  -5.5135800e-02
  -1.3750800e+00   3.2835100e-02  -4.9986700e-02
  -1.3664400e+00   3.4238700e-02  -5.6540100e-02
  -1.3722700e+00   4.8275100e-02  -5.0688800e-02
  -1.3820800e+00   6.0673900e-02  -4.7646100e-02
  -1.3827800e+00   6.7458200e-02  -4.7880200e-02
  -1.3799800e+00   7.9623000e-02  -4.9518600e-02
  -1.3771800e+00   9.5297000e-02  -4.3199100e-02
  -1.3589700e+00   1.1190700e-01  -3.8050000e-02
  -1.3428600e+00   1.2898400e-01  -4.6007800e-02
  -1.3290900e+00   1.4255300e-01  -3.5475400e-02
  -1.3122800e+00   1.5916300e-01  -3.7347800e-02
  -1.2842700e+00   1.6758400e-01  -5.1391000e-02
  -1.2667600e+00   1.8583200e-01  -4.7178000e-02
  -1.2469200e+00   2.0875800e-01  -3.9688400e-02
  -1.2014000e+00   2.3542700e-01  -4.4603500e-02
  -1.1726900e+00   2.4969700e-01  -4.8348300e-02
  -1.1409400e+00   2.4993100e-01  -4.6944000e-02
  -1.1028900e+00   2.7122000e-01  -5.1859100e-02
  -1.0629700e+00   2.8993500e-01  -5.2093100e-02
  -1.0263200e+00   3.1613600e-01  -4.9284500e-02
  -9.7683500e-01   3.2666300e-01  -4.9050400e-02
  -9.2011100e-01   3.3227800e-01  -5.7710400e-02
  -8.7762500e-01   3.3953000e-01  -5.9114700e-02
  -8.2883700e-01   3.4233700e-01  -5.4901800e-02
  -7.7328000e-01   3.6315800e-01  -6.3327600e-02
  -7.1655500e-01   3.7087800e-01  -6.6136300e-02
  -6.7010100e-01   3.7181400e-01  -5.9816800e-02
  -6.1361000e-01   3.8491400e-01  -6.1689300e-02
  -5.5081600e-01   3.9029500e-01  -6.2859500e-02
  -4.8895600e-01   3.9006100e-01  -5.0688800e-02
  -4.2569500e-01   4.0152400e-01  -5.5369900e-02
  -3.7013700e-01   4.0292800e-01  -5.9114700e-02
  -3.1738100e-01   4.0877600e-01  -4.2965100e-02
  -2.5738800e-01   4.1743200e-01  -3.4071100e-02
  -1.8572300e-01   4.1135000e-01  -3.9220300e-02
  -1.2526300e-01   4.1041400e-01  -3.8752200e-02
  -6.8071800e-02   4.0690500e-01  -2.3772800e-02
   3.8262600e-03   4.0105600e-01  -2.3070700e-02
   6.8254400e-02   4.0222600e-01  -2.7985800e-02
   1.2217800e-01   4.0550100e-01  -1.5112900e-02
   1.8263800e-01   4.0784100e-01  -2.0059600e-03
   2.5033400e-01   4.0105600e-01  -5.2826900e-03
   3.1149400e-01   3.8772200e-01  -3.4102800e-03
   3.6775200e-01   3.8444700e-01   6.8880200e-03
   4.2494300e-01   3.7462100e-01   5.4837100e-03
   4.7840000e-01   3.5964900e-01   8.9944900e-03
   5.3605900e-01   3.6152000e-01   2.3739800e-02
   5.9605200e-01   3.4233700e-01   2.9591100e-02
   6.5184300e-01   3.2315400e-01   2.7718700e-02
   7.0459900e-01   3.0373700e-01   3.4740200e-02
   7.5478800e-01   2.8736200e-01   3.6846700e-02
   8.0544300e-01   2.8853100e-01   3.5208300e-02
   8.5306400e-01   2.5811900e-01   4.1995800e-02
   8.9298100e-01   2.4244500e-01   5.2060100e-02
   9.3546600e-01   2.2490000e-01   5.0655800e-02
   9.7631800e-01   1.9542300e-01   5.0421700e-02
   1.0118000e+00   1.8115300e-01   6.2592400e-02
   1.0526500e+00   1.4793300e-01   5.8145400e-02
   1.0827600e+00   1.2477300e-01   5.3464400e-02
   1.1005100e+00   1.2407200e-01   6.3762700e-02
   1.1362200e+00   1.0582400e-01   6.3060500e-02
   1.1777700e+00   7.9389100e-02   4.7613100e-02
   1.1976100e+00   5.6229100e-02   4.3400200e-02
   1.2158200e+00   2.6752600e-02   4.4102300e-02
   1.2440700e+00   1.7862900e-02   3.4740200e-02
   1.2615800e+00  -1.5042700e-04   3.0527300e-02
   1.2783800e+00  -3.3603800e-02   3.0527300e-02
   1.3028900e+00  -5.6529900e-02   1.8824700e-02
   1.3187700e+00  -7.7818400e-02   1.9729200e-03
   1.3283400e+00  -9.7469400e-02   1.9729200e-03
   1.3374400e+00  -1.1033600e-01  -1.7719100e-03
   1.3500500e+00  -1.4121600e-01  -1.4410700e-02
   1.3561200e+00  -1.6461000e-01  -1.8155600e-02
   1.3563500e+00  -1.8028400e-01  -2.1900400e-02
   1.3633500e+00  -2.2099000e-01  -3.2432700e-02
   1.3675600e+00  -2.2847600e-01  -4.0624600e-02
   1.3652200e+00  -2.4742500e-01  -3.8050000e-02
   1.3647500e+00  -2.6707600e-01  -4.2731000e-02
   1.3649900e+00  -2.7362600e-01  -5.0922900e-02
   1.3523800e+00  -3.0263500e-01  -4.5539700e-02
   1.3460800e+00  -3.1409800e-01  -4.5071600e-02
   1.3479500e+00  -3.2930400e-01  -5.2795300e-02
   1.3365100e+00  -3.2977200e-01  -5.3263400e-02
   1.3225000e+00  -3.3398200e-01  -4.7880200e-02
   1.3113000e+00  -3.5597300e-01  -5.2327200e-02
   1.2954200e+00  -3.5737600e-01  -4.9050400e-02
   1.2758200e+00  -3.6088600e-01  -3.7581900e-02
   1.2634400e+00  -3.7258300e-01  -4.7178000e-02
   1.2422000e+00  -3.7960100e-01  -4.9752600e-02
   1.2172200e+00  -3.7234900e-01  -3.9220300e-02
   1.2001800e+00  -3.6930700e-01  -3.8986200e-02
   1.1831400e+00  -3.6416100e-01  -4.2965100e-02
   1.1504600e+00  -3.5854600e-01  -3.6645700e-02
   1.1152100e+00  -3.5106000e-01  -3.0326300e-02
   1.1063400e+00  -3.4755100e-01  -3.2666800e-02
   1.0848600e+00  -3.4708300e-01  -3.1028400e-02
   1.0561500e+00  -3.3211100e-01  -2.7283600e-02
   1.0353800e+00  -3.2836800e-01  -2.7517700e-02
   1.0045600e+00  -3.1129000e-01  -2.2602600e-02
   9.7234900e-01  -2.9631800e-01  -5.2826900e-03
   9.5157300e-01  -2.8976800e-01  -5.0486400e-03
   9.2519500e-01  -2.9023600e-01  -1.3006400e-02
   8.8737900e-01  -2.8158000e-01  -3.8783800e-03
   8.6637000e-01  -2.6777800e-01   7.5901700e-03
   8.4839500e-01  -2.5959000e-01   5.9518100e-03
   8.1571400e-01  -2.3830100e-01   1.0866900e-02
   7.7626400e-01  -2.3128300e-01   3.0527300e-02
   7.5548800e-01  -2.1888400e-01   3.1463500e-02
   7.3167700e-01  -2.1701300e-01   3.1931600e-02
   6.9339400e-01  -2.0250800e-01   4.5974700e-02
   6.6748300e-01  -1.8332500e-01   5.2294100e-02
   6.3783600e-01  -1.7513700e-01   5.3698500e-02
   5.9441700e-01  -1.5829400e-01   6.5869200e-02
   5.6080300e-01  -1.5221100e-01   7.9678200e-02
   5.3535800e-01  -1.4589500e-01   7.6635600e-02
   4.9450700e-01  -1.4893600e-01   7.7337700e-02
   4.5038800e-01  -1.3630300e-01   8.7167900e-02
   4.2424300e-01  -1.2437200e-01   9.0678700e-02
   3.9693100e-01  -1.2156500e-01   9.0444600e-02
   3.4674300e-01  -1.1829000e-01   1.0027500e-01
   3.0449100e-01  -1.2554200e-01   1.0495600e-01
   2.7391100e-01  -1.2413900e-01   9.5359700e-02
   2.3282600e-01  -1.2460600e-01   9.9806700e-02
   1.9337600e-01  -1.3139100e-01   1.0214700e-01
   1.6372900e-01  -1.3957900e-01   9.6998100e-02
   1.1844300e-01  -1.3677100e-01   1.0238100e-01
   6.8021000e-02  -1.3513400e-01   1.1314800e-01
   4.0709000e-02  -1.4589500e-01   1.1431800e-01
   3.3593900e-03  -1.5806000e-01   1.0682800e-01
  -4.8463200e-02  -1.7116000e-01   1.0987100e-01
  -8.6279800e-02  -1.7233000e-01   1.1361600e-01
  -1.2222900e-01  -1.7443600e-01   1.0542400e-01
  -1.7078300e-01  -1.7443600e-01   1.1431800e-01
  -2.1957100e-01  -1.7420200e-01   1.2321200e-01
  -2.5972200e-01  -1.9549000e-01   1.0776500e-01
  -3.0220700e-01  -2.1069600e-01   1.0448800e-01
  -3.5379700e-01  -2.1654500e-01   1.0472200e-01
  -3.9371400e-01  -2.2309500e-01   9.4657600e-02
  -4.2896300e-01  -2.1701300e-01   9.0210600e-02
  -4.8942200e-01  -2.1865000e-01   9.7934300e-02
  -5.3751000e-01  -2.3385600e-01   9.8636500e-02
  -5.7019100e-01  -2.4204400e-01   7.7805800e-02
  -6.2364800e-01  -2.5748400e-01   6.9379900e-02
  -6.7150200e-01  -2.6075900e-01   6.8911800e-02
  -7.0371600e-01  -2.6075900e-01   4.9017400e-02
  -7.4900200e-01  -2.7058500e-01   3.9889400e-02
  -8.0736100e-01  -2.7035100e-01   4.1995800e-02
  -8.4751200e-01  -2.8508900e-01   2.8654900e-02
  -8.8626200e-01  -2.9351100e-01   1.3441500e-02
  -9.3458400e-01  -3.0076300e-01   2.4410300e-03
  -9.7099900e-01  -3.0637800e-01  -1.0197800e-02
  -1.0067200e+00  -3.0029500e-01  -2.5411200e-02
  -1.0464000e+00  -3.0474000e-01  -3.0794400e-02
  -1.0832800e+00  -3.1316200e-01  -3.5007300e-02
  -1.1124600e+00  -3.3047300e-01  -5.4433600e-02
  -1.1495800e+00  -3.3936300e-01  -6.6136300e-02
  -1.1899600e+00  -3.3749200e-01  -6.7774600e-02
  -1.2119000e+00  -3.4217000e-01  -7.6434600e-02
  -1.2296500e+00  -3.4544600e-01  -8.2519900e-02
  -1.2648900e+00  -3.4006500e-01  -7.3391900e-02
  -1.2989800e+00  -3.4614700e-01  -7.1519500e-02
  -1.3141500e+00  -3.5644100e-01  -8.2519900e-02
  -1.3381900e+00  -3.6088600e-01  -8.0881500e-02
  -1.3636400e+00  -3.6462900e-01  -7.4796200e-02
  -1.3760100e+00  -3.5620700e-01  -8.2754000e-02
  -1.3960900e+00  -3.4638100e-01  -7.6902700e-02
  -1.4217600e+00  -3.3772600e-01  -6.2157400e-02
  -1.4297000e+00  -3.3842700e-01  -6.6370300e-02
  -1.4346000e+00  -3.4451000e-01  -6.9881100e-02
  -1.4607500e+00  -3.3094100e-01  -6.0519000e-02
  -1.4768500e+00  -3.1784100e-01  -5.2561200e-02
  -1.4672800e+00  -3.1246000e-01  -5.6306100e-02
  -1.4714800e+00  -2.9631800e-01  -5.3263400e-02
  -1.4838600e+00  -2.9585000e-01  -4.6241800e-02
  -1.4838600e+00  -2.8789600e-01  -5.0454800e-02
  -1.4836200e+00  -2.7245600e-01  -5.2327200e-02
  -1.4789500e+00  -2.6918100e-01  -4.6241800e-02
  -1.4698500e+00  -2.5865400e-01  -4.9518600e-02
  -1.4558400e+00  -2.4765900e-01  -5.7710400e-02
  -1.4481400e+00  -2.2145700e-01  -4.7412100e-02
  -1.4439400e+00  -2.1888400e-01  -4.5071600e-02
  -1.4266700e+00  -2.2332900e-01  -5.5603900e-02
  -1.4096200e+00  -2.0531600e-01  -5.1156900e-02
  -1.3963200e+00  -1.9478800e-01  -5.0688800e-02
  -1.3757800e+00  -1.8894000e-01  -6.0050900e-02
  -1.3496300e+00  -1.8051800e-01  -6.2625500e-02
  -1.3332900e+00  -1.5806000e-01  -5.5603900e-02
  -1.3080800e+00  -1.5010600e-01  -5.3497400e-02
  -1.2726000e+00  -1.5197700e-01  -6.0050900e-02
  -1.2455200e+00  -1.4823400e-01  -6.1455200e-02
  -1.2207800e+00  -1.3957900e-01  -6.8710800e-02
  -1.1883300e+00  -1.3700500e-01  -7.5264300e-02
  -1.1554100e+00  -1.2507400e-01  -6.4966000e-02
  -1.1250700e+00  -1.1103800e-01  -5.4199600e-02
  -1.0846800e+00  -1.1407900e-01  -5.9816800e-02
  -1.0433600e+00  -1.0682700e-01  -5.5135800e-02
  -1.0071800e+00  -1.1220800e-01  -4.3667200e-02
  -9.6796500e-01  -1.1337700e-01  -4.9050400e-02
  -9.2804700e-01  -1.1244200e-01  -4.3667200e-02
  -8.9209800e-01  -9.3960300e-02  -2.5879300e-02
  -8.5451500e-01  -7.7584500e-02  -1.0197800e-02
  -8.1716600e-01  -8.8813600e-02  -5.0486400e-03
  -7.7164600e-01  -8.5070600e-02   1.7388700e-03
  -7.2682600e-01  -8.5772400e-02   7.8242300e-03
  -6.8877600e-01  -8.7877800e-02   5.0156000e-03
  -6.5492800e-01  -7.2905700e-02   1.6016100e-02
  -6.1967900e-01  -5.0213500e-02   2.9825100e-02
  -5.6949100e-01  -5.3722600e-02   2.9591100e-02
  -5.2934000e-01  -5.3020800e-02   2.6314300e-02
  -4.8965600e-01  -5.1383200e-02   3.3804000e-02
  -4.4857100e-01  -4.3429300e-02   3.5442400e-02
  -4.0702000e-01  -2.2140800e-02   3.1697500e-02
  -3.5939900e-01  -2.5182000e-02   3.8953200e-02
  -3.1668000e-01  -1.5356500e-02   4.4102300e-02
  -2.7092700e-01  -2.2842600e-02   3.0761300e-02
  -2.3404400e-01  -2.3544400e-02   2.3973800e-02
  -1.8945800e-01  -9.9759000e-03   2.9123000e-02
  -1.3483400e-01  -7.6365000e-03   1.8590600e-02
  -9.4450000e-02  -3.6595200e-03   1.2037200e-02
  -5.6166600e-02   5.4641300e-03   1.2973400e-02
  -8.7792500e-03   2.3945400e-02   9.4625900e-03
   3.6273800e-02   2.7454500e-02  -2.0059600e-03
   7.5724300e-02   2.6284800e-02  -6.4529600e-03
   1.1937700e-01   2.7688400e-02  -9.0275300e-03
   1.6349600e-01   3.2601100e-02  -2.8219800e-02
   2.0061200e-01   3.8449600e-02  -3.2666800e-02
   2.3539400e-01   5.5527200e-02  -2.3070700e-02
   2.7834600e-01   6.0907900e-02  -2.9624100e-02
   3.1756300e-01   6.0907900e-02  -3.6411600e-02
   3.5327900e-01   7.2604800e-02  -2.7517700e-02
   3.9599800e-01   6.5352700e-02  -3.0560300e-02
   4.3684900e-01   6.6990300e-02  -4.1092700e-02
   4.6439400e-01   7.4476400e-02  -3.6879700e-02
   4.9334000e-01   7.3072700e-02  -3.1730600e-02
   5.3139000e-01   9.4829100e-02  -3.5943500e-02
   5.5473300e-01   1.0488900e-01  -3.0794400e-02
   5.7901100e-01   9.5764900e-02  -2.2134500e-02
   6.1869500e-01   1.0535600e-01  -2.1432300e-02
   6.5020900e-01   1.0909900e-01  -2.0028000e-02
   6.7098400e-01   1.1939300e-01  -6.6870100e-03
   7.0389900e-01   1.4138300e-01   1.9729200e-03
   7.3051000e-01   1.4372300e-01  -1.3354700e-04
   7.4148200e-01   1.5050700e-01   1.5313900e-02
   7.6459200e-01   1.6501100e-01   2.1399300e-02
   7.9774000e-01   1.5799300e-01   1.6484200e-02
   8.1454700e-01   1.7811200e-01   2.4910000e-02
   8.2575200e-01   2.0290900e-01   4.0825600e-02
   8.5119600e-01   2.1764700e-01   4.7145000e-02
   8.6543600e-01   2.3589500e-01   4.9719600e-02
   8.7173900e-01   2.2677100e-01   6.1422200e-02
   8.8667800e-01   2.4361500e-01   6.1656200e-02
   8.9881700e-01   2.5250500e-01   6.0017900e-02
   8.9484900e-01   2.6279800e-01   6.8911800e-02
   9.0255200e-01   2.9016900e-01   7.8742000e-02
   9.2542900e-01   2.9648500e-01   7.6167500e-02
   9.2659600e-01   3.0982000e-01   7.6167500e-02
   9.2192700e-01   3.1145700e-01   8.4593300e-02
   9.3593300e-01   3.1543400e-01   7.9210100e-02
   9.4737200e-01   3.1941100e-01   7.1954500e-02
   9.3616700e-01   3.3157600e-01   7.8039900e-02
   9.4363700e-01   3.5380000e-01   8.0380400e-02
   9.5250700e-01   3.5871300e-01   7.6869600e-02
   9.3896800e-01   3.6222200e-01   8.0146300e-02
   9.4106900e-01   3.5964900e-01   7.7805800e-02
   9.5017300e-01   3.6386000e-01   5.9549800e-02
   9.4387000e-01   3.7064400e-01   5.3230300e-02
   9.3640000e-01   3.7930000e-01   5.7911400e-02
   9.4293600e-01   3.8023600e-01   5.2060100e-02
