**************************************************************************************
  	RED ACELEROGRÁFICA DE LA UNIVERSIDAD AUTONOMA METROPOLITANA (RA-UAM)
	   UNIDAD AZCAPOTZALCO. DIVISIÓN CBI-DEPARTAMENTO DE MATERIALES
     Av. San Pablo 420, Col. Nueva el Rosario, Azcapotzalco, C.P. 02128, Ciudad de México
		Área de Estructuras. e-mail: agb@azc.uam.mx
**************************************************************************************
ARCHIVO ESTANDAR DE ACELERACION:
VERSION DEL FORMATO                    : 2.0
NOMBRE DEL ARCHIVO                     : RIDX202209.201
FECHA Y HORA DE CREACION               : 11:30 a. m. 27/09/2022
REF. CATALOGO ACELEROGRAMAS, SMIS 1999 : REGISTRO NO.      /PAG.    


================================================================================
DATOS DE LA ESTACION:
NOMBRE DE LA ESTACION                  : UAM-XOCHIMILCO.
CLAVE DE LA ESTACION                   : RIDX
LOCALIZACION DE LA ESTACION            : CALZADA DEL HUESO 1100, COL. VILLA
                                       : QUIETUD, DEL. COYOACAN, C.P.04960,  
                                       : CIUDAD DE MEXICO.
                                       : 
                                       : 
COORDENADAS DE LA ESTACION             : 19.301345 LAT. N
                                       : 99.10268 LONG. W
ALTITUD (msnm)                         : 2232
TIPO DE SUELO                          : LAGO
                                       : 
                                       : 
INSTITUCION RESPONSABLE                : UNIVERSIDAD AUTONOMA METROPOLITANA
                                       : 

================================================================================
DATOS DEL ACELEROGRAFO: 
MODELO DEL ACELEROGRAFO                : BASALT KINEMETRICS
NUMERO DE SERIE DEL ACELEROGRAFO       : 1729
NUMERO DE CANALES                      : 3
ORIENTACION C1-C6 (rumbo;orientacion)  : /V/N00E/N90E
ORIENTACION C7-C12 (rumbo;orientacion) : 
VEL. DE MUESTREO, C1-C6 (muestras/s)   : /200/200/200
VEL. DE MUESTREO, C7-C12 (muestras/s)  : 
ESC. COMPLETA DE SENSORES, C1-C6, (g)  : /2/2/2
ESC. COMPLETA DE SENSORES, C7-C12 (g)  : 
FREC. NAT. DE SENSORES, C1-C6, (Hz)    : /208/210/200   
FREC. NAT. DE SENSORES, C7-C12 (Hz)    : 
AMORTIGUAMIENTO DE SENSORES, C1-C6     : /0.7/0.7/0.7      
AMORTIGUAMIENTO DE SENSORES, C7-C12    : 
INTERVALO DE MUESTREO, C1-C6 (s)       : /0.005/0.005/0.005
INTERVALO DE MUESTREO, C7-C12 (s)      : 
UMBRAL DE DISPARO, C1-C6 (Gal)         : /2/2/2
UMBRAL DE DISPARO, C7-C12 (Gal)        : 
MEMORIA DE PREEVENTO (s)               : 60
TIEMPO DE POSEVENTO (s)                : 80


================================================================================
DATOS DEL SISMO:
FECHA DEL SISMO [GMT]                  : 2022/09/20
HORA EPICENTRO (GMT)                   : 08:17:13
MAGNITUD(ES)                           : /M=5.8
COORDENADAS DEL EPICENTRO              : 18.2700 LAT. N
                                       : -103.7400 LONG. W
PROFUNDIDAD FOCAL (Km)                 : 13.0
FUENTE DE LOS DATOS EPICENTRALES       : SSN
                                       : INSTITUTO DE GEOFISICA, UNAM

================================================================================
DATOS DE ESTE REGISTRO:
HORA DE LA PRIMERA MUESTRA (GMT)       : 08:18:32.000
EXACTITUD DEL TIEMPO (s)               : 
DURACION DEL REGISTRO (s), C1-C6       : /256/256/256
DURACION DEL REGISTRO (s), C7-C12      : 
NUM. TOTAL DE MUESTRAS, C1-C6          : /51200/51200/51200
NUM. TOTAL DE MUESTRAS, C7-C12         : 
ACEL. MAX.(Gal), C1-C6                 : /-0.588/3.405/-1.855
ACEL. MAX., C1-C6, EN LA MUESTRA       : /17483/17070/17858
ACEL. MAX.(Gal), C7-C12                : 
ACEL. MAX., C7-C12,EN LA MUESTRA       : 
UNIDADES DE LOS DATOS                  : Gal (cm/s/s)
FACTOR DE DECIMACION                   : 1
FORMATO DATOS (FORTRAN,16 campos/dato) : 3E16.7


================================================================================
CALIDAD DEL ACELEROGRAMA:
REGISTRO DIGITAL COMPLETO CON TIEMPO ABSOLUTO CORRECTO


================================================================================
COMENTARIOS:














================================================================================
DATOS DE ACELERACION:
---------+---------+---------+---------+---------+---------+---------+---------+
   CANAL-1   	      CANAL-2          CANAL-3
      V                 N00E             N90E
---------+---------+---------+---------+---------+---------+---------+---------+
[...]
   2.5504300e-03  -2.0094100e+00  -2.5705400e-01
  -7.4720800e-03  -2.0187600e+00  -2.5354400e-01
  -1.2833000e-02  -2.0292800e+00  -2.5143700e-01
  -1.8660000e-02  -2.0390900e+00  -2.4699100e-01
  -2.6584800e-02  -2.0559200e+00  -2.4792700e-01
  -2.8915600e-02  -2.0722800e+00  -2.5026700e-01
  -4.4299000e-02  -2.0802300e+00  -2.4816100e-01
  -5.1291400e-02  -2.0944900e+00  -2.5026700e-01
  -5.9682300e-02  -2.1052400e+00  -2.4933100e-01
  -7.5765000e-02  -2.1066400e+00  -2.4465100e-01
  -7.8561900e-02  -2.1208900e+00  -2.4979900e-01
  -8.9749900e-02  -2.1309400e+00  -2.4745900e-01
  -9.9539300e-02  -2.1370200e+00  -2.4231100e-01
  -1.0746400e-01  -2.1526800e+00  -2.4371500e-01
  -1.2168200e-01  -2.1599300e+00  -2.3622600e-01
  -1.3193800e-01  -2.1711400e+00  -2.3201400e-01
  -1.4335900e-01  -2.1833000e+00  -2.3107800e-01
  -1.5384700e-01  -2.1917100e+00  -2.2382400e-01
  -1.6177200e-01  -2.2045700e+00  -2.2171800e-01
  -1.6736600e-01  -2.2139100e+00  -2.1961100e-01
  -1.7692200e-01  -2.2237300e+00  -2.0814500e-01
  -1.8414800e-01  -2.2347100e+00  -2.0065600e-01
  -1.9114000e-01  -2.2410200e+00  -1.9270000e-01
  -2.0093000e-01  -2.2424300e+00  -1.7959500e-01
  -2.0419300e-01  -2.2471000e+00  -1.7842500e-01
  -2.1794500e-01  -2.2473300e+00  -1.6859600e-01
  -2.2237300e-01  -2.2506100e+00  -1.6064000e-01
  -2.2237300e-01  -2.2604200e+00  -1.5876800e-01
  -2.3402700e-01  -2.2622900e+00  -1.4308900e-01
  -2.3099700e-01  -2.2730400e+00  -1.4098300e-01
  -2.4125300e-01  -2.2760800e+00  -1.2975000e-01
  -2.5080900e-01  -2.2777200e+00  -1.1477300e-01
  -2.4521500e-01  -2.2896400e+00  -1.1102900e-01
  -2.5453900e-01  -2.2868300e+00  -9.2073400e-02
  -2.5337300e-01  -2.2903400e+00  -8.2010800e-02
  -2.5360600e-01  -2.2940800e+00  -7.0544100e-02
  -2.5989900e-01  -2.2943100e+00  -5.7907300e-02
  -2.5873400e-01  -2.2980500e+00  -5.5099100e-02
  -2.6432800e-01  -2.2852000e+00  -3.7080000e-02
  -2.6269600e-01  -2.2856600e+00  -3.4037800e-02
  -2.5989900e-01  -2.2880000e+00  -3.0059600e-02
  -2.5850100e-01  -2.2777200e+00  -1.0636300e-02
  -2.4987700e-01  -2.2812200e+00  -9.2322500e-03
  -2.5011000e-01  -2.2781900e+00   5.9636300e-04
  -2.4917800e-01  -2.2735100e+00   1.2999100e-02
  -2.3915500e-01  -2.2765500e+00   1.2765100e-02
  -2.3752400e-01  -2.2695400e+00   1.6977400e-02
  -2.3426000e-01  -2.2660300e+00   2.3295800e-02
  -2.2470400e-01  -2.2655600e+00   2.7040000e-02
  -2.1980900e-01  -2.2550500e+00   3.0784300e-02
  -2.1141800e-01  -2.2489700e+00   3.2656400e-02
  -2.0652400e-01  -2.2386900e+00   3.2422400e-02
  -2.0139600e-01  -2.2227900e+00   3.4996500e-02
  -1.9253900e-01  -2.2148500e+00   3.3826400e-02
  -1.8577900e-01  -2.1987200e+00   3.5932600e-02
  -1.7668900e-01  -2.1905400e+00   3.1720300e-02
  -1.7389200e-01  -2.1833000e+00   3.2890400e-02
  -1.6130600e-01  -2.1692700e+00   3.7570700e-02
  -1.4941900e-01  -2.1646000e+00   2.5635900e-02
  -1.4219300e-01  -2.1491700e+00   2.7040000e-02
  -1.2867400e-01  -2.1328100e+00   2.4699900e-02
  -1.2028400e-01  -2.1223000e+00   1.3467200e-02
  -1.0326900e-01  -2.1113100e+00   8.7868800e-03
  -9.3246100e-02  -2.0970600e+00   2.7024900e-03
  -8.1592000e-02  -2.0804600e+00  -6.6580900e-03
  -6.2712400e-02  -2.0659700e+00  -1.9060900e-02
  -5.1524500e-02  -2.0472700e+00  -3.0995600e-02
  -3.7539600e-02  -2.0260100e+00  -4.5738500e-02
  -2.8216300e-02  -2.0017000e+00  -5.6971200e-02
  -1.1201400e-02  -1.9788000e+00  -7.2884200e-02
   4.8812400e-03  -1.9624400e+00  -9.3009500e-02
   1.2339900e-02  -1.9439700e+00  -1.1126300e-01
   2.8888600e-02  -1.9201300e+00  -1.2811200e-01
   4.4505100e-02  -1.9019000e+00  -1.4987500e-01
   5.3362200e-02  -1.8813400e+00  -1.7514900e-01
   7.0610200e-02  -1.8572600e+00  -1.9691200e-01
   8.5993600e-02  -1.8385700e+00  -2.2382400e-01
   9.3918400e-02  -1.8159000e+00  -2.4582100e-01
   1.1256500e-01  -1.7953300e+00  -2.7273300e-01
   1.2491800e-01  -1.7754600e+00  -3.0409100e-01
   1.3540700e-01  -1.7502200e+00  -3.2796000e-01
   1.5055700e-01  -1.7256800e+00  -3.5861600e-01
   1.6011400e-01  -1.6976400e+00  -3.8693200e-01
   1.7339900e-01  -1.6707600e+00  -4.1618400e-01
   1.8528600e-01  -1.6487900e+00  -4.4988200e-01
   1.9670700e-01  -1.6179400e+00  -4.7796400e-01
   2.0556400e-01  -1.5920000e+00  -5.1049200e-01
   2.1279000e-01  -1.5655900e+00  -5.4302000e-01
   2.2211300e-01  -1.5314700e+00  -5.7274000e-01
   2.3330100e-01  -1.5087900e+00  -6.0737400e-01
   2.4518800e-01  -1.4798100e+00  -6.4130600e-01
   2.5311300e-01  -1.4520000e+00  -6.7266400e-01
   2.6033900e-01  -1.4251200e+00  -7.0285200e-01
   2.6942900e-01  -1.3903000e+00  -7.3772000e-01
   2.7688700e-01  -1.3608500e+00  -7.7188600e-01
   2.7991700e-01  -1.3225200e+00  -7.9575600e-01
   2.9040600e-01  -1.2900400e+00  -8.2688000e-01
   3.0089500e-01  -1.2561500e+00  -8.5636500e-01
   3.0299300e-01  -1.2143100e+00  -8.8000100e-01
   3.1534600e-01  -1.1820600e+00  -9.0972100e-01
   3.1837600e-01  -1.1395200e+00  -9.3382400e-01
   3.2140600e-01  -1.1009600e+00  -9.6050200e-01
   3.3399200e-01  -1.0640300e+00  -9.8905200e-01
   3.3142800e-01  -1.0130800e+00  -1.0115200e+00
   3.3655600e-01  -9.6938000e-01  -1.0379600e+00
   3.4471400e-01  -9.2614200e-01  -1.0641700e+00
   3.4471400e-01  -8.7986700e-01  -1.0871000e+00
   3.4354900e-01  -8.3452600e-01  -1.1051200e+00
   3.4168400e-01  -7.8731600e-01  -1.1259500e+00
   3.4844300e-01  -7.3963800e-01  -1.1498200e+00
   3.4681200e-01  -6.8985600e-01  -1.1615200e+00
   3.4471400e-01  -6.4241200e-01  -1.1776700e+00
   3.4797700e-01  -5.9099500e-01  -1.1900700e+00
   3.4774400e-01  -5.4074600e-01  -1.2001300e+00
   3.4867700e-01  -4.9517200e-01  -1.2141700e+00
   3.4774400e-01  -4.4352000e-01  -1.2181500e+00
   3.4774400e-01  -3.9280400e-01  -1.2307900e+00
   3.4098500e-01  -3.3507700e-01  -1.2371100e+00
   3.3562400e-01  -2.7898500e-01  -1.2441300e+00
   3.3259400e-01  -2.2452900e-01  -1.2555900e+00
   3.2839800e-01  -1.6633400e-01  -1.2565300e+00
   3.2606800e-01  -1.1421600e-01  -1.2640200e+00
   3.1441400e-01  -5.4150800e-02  -1.2628500e+00
   3.1161700e-01  -1.0974100e-03  -1.2656600e+00
   3.0788700e-01   5.4293100e-02  -1.2668300e+00
   2.9600000e-01   1.1669500e-01  -1.2565300e+00
   2.9203800e-01   1.6367200e-01  -1.2584000e+00
   2.8085000e-01   2.1882900e-01  -1.2525500e+00
   2.7222600e-01   2.7141500e-01  -1.2485700e+00
   2.6919600e-01   3.2049500e-01  -1.2560600e+00
   2.5963900e-01   3.7822200e-01  -1.2513800e+00
   2.5451200e-01   4.3431400e-01  -1.2488100e+00
   2.4682000e-01   4.9554800e-01  -1.2492800e+00
   2.2933900e-01   5.5047100e-01  -1.2389800e+00
   2.1768500e-01   6.0703000e-01  -1.2209600e+00
   2.0929400e-01   6.6008300e-01  -1.2015400e+00
   1.9437700e-01   6.9841200e-01  -1.1940500e+00
   1.9158000e-01   7.4515500e-01  -1.1994300e+00
   1.8994800e-01   7.9867600e-01  -1.1996600e+00
   1.8342200e-01   8.4635400e-01  -1.1999000e+00
   1.7945900e-01   8.8398200e-01  -1.2062200e+00
   1.6920400e-01   9.2605100e-01  -1.2057500e+00
   1.6127900e-01   9.7513100e-01  -1.1982600e+00
   1.4426400e-01   1.0319200e+00  -1.1823500e+00
   1.2981300e-01   1.0894200e+00  -1.1652600e+00
   1.1722700e-01   1.1345300e+00  -1.1416300e+00
   1.0324200e-01   1.1852400e+00  -1.1259500e+00
   1.0533900e-01   1.2366600e+00  -1.1240800e+00
   1.0207600e-01   1.2782600e+00  -1.1093400e+00
   9.8580000e-02   1.3100500e+00  -1.1086300e+00
   8.9023700e-02   1.3486100e+00  -1.1002100e+00
   8.1098900e-02   1.3876400e+00  -1.0810200e+00
   8.2031200e-02   1.4224600e+00  -1.0793800e+00
   6.3850900e-02   1.4766800e+00  -1.0646400e+00
   5.4760700e-02   1.5231900e+00  -1.0466200e+00
   4.7069000e-02   1.5647900e+00  -1.0169000e+00
   3.4482600e-02   1.6103700e+00  -9.9209400e-01
   4.0542700e-02   1.6456600e+00  -9.9771000e-01
   3.3317200e-02   1.6914700e+00  -9.8296700e-01
   2.8888600e-02   1.7335400e+00  -9.6658600e-01
   2.9821000e-02   1.7688300e+00  -9.5886400e-01
   1.9565400e-02   1.8078600e+00  -9.3288800e-01
   2.0031500e-02   1.8405800e+00  -9.1346500e-01
   1.3971400e-02   1.8863900e+00  -8.8842500e-01
   1.4204500e-02   1.9333600e+00  -8.5917400e-01
   1.4437600e-02   1.9723900e+00  -8.2688000e-01
   7.2120600e-03   2.0210100e+00  -7.9107500e-01
   6.7458900e-03   2.0658800e+00  -7.7422600e-01
  -1.1788800e-03   2.1091200e+00  -7.4754900e-01
  -9.4579700e-04   2.1535200e+00  -7.0753200e-01
  -2.3442900e-03   2.1934900e+00  -6.7149400e-01
  -4.7963400e-04   2.2262100e+00  -6.3803000e-01
   6.9789800e-03   2.2519200e+00  -6.0573600e-01
   2.1961100e-04   2.2855700e+00  -5.7367600e-01
  -1.8781200e-03   2.3229700e+00  -5.3576500e-01
   4.1820000e-03   2.3566200e+00  -4.9340900e-01
   1.1174400e-02   2.3919100e+00  -4.5690200e-01
   9.0767100e-03   2.4360900e+00  -4.1852400e-01
   3.9489200e-03   2.4877400e+00  -3.7780500e-01
   5.8135700e-03   2.5321400e+00  -3.3919300e-01
   8.8436300e-03   2.5693000e+00  -3.0362300e-01
   1.8511800e-03   2.6109000e+00  -2.6196800e-01
   2.5504300e-03   2.6415200e+00  -2.2663200e-01
   9.0767100e-03   2.6688700e+00  -1.9316800e-01
  -2.4655200e-04   2.7064900e+00  -1.5104500e-01
   3.9489200e-03   2.7345400e+00  -1.1594300e-01
   2.1961100e-04   2.7714700e+00  -7.1246100e-02
  -5.3743500e-03   2.8126000e+00  -3.0995600e-02
  -4.2089400e-03   2.8497600e+00   4.5746100e-03
  -1.8426900e-02   2.8932300e+00   4.6697300e-02
  -1.3998400e-02   2.9231500e+00   7.9693300e-02
  -1.7494600e-02   2.9584400e+00   1.2275200e-01
  -2.2156200e-02   2.9850800e+00   1.6557700e-01
  -1.5863000e-02   3.0049500e+00   2.0723100e-01
  -1.9592300e-02   3.0348600e+00   2.4935400e-01
  -1.9359200e-02   3.0575300e+00   2.8118000e-01
  -2.7517100e-02   3.0916600e+00   3.1909000e-01
  -3.3810300e-02   3.1257800e+00   3.5302200e-01
  -3.6840400e-02   3.1592000e+00   3.8461400e-01
  -4.2900500e-02   3.1902800e+00   4.1901500e-01
  -4.9426800e-02   3.2099200e+00   4.5154300e-01
  -5.8516900e-02   3.2311800e+00   4.8804900e-01
  -6.7141000e-02   3.2498800e+00   5.2432100e-01
  -7.2268700e-02   3.2613300e+00   5.5567900e-01
  -7.8561900e-02   3.2751200e+00   5.8422900e-01
  -9.3246100e-02   3.3001300e+00   6.1605500e-01
  -9.3479200e-02   3.3118200e+00   6.3992400e-01
  -1.0233600e-01   3.3284100e+00   6.6753800e-01
  -1.1235900e-01   3.3461700e+00   6.9257800e-01
  -1.1422300e-01   3.3496800e+00   7.1153300e-01
  -1.3100500e-01   3.3637000e+00   7.4569900e-01
  -1.2797500e-01   3.3683800e+00   7.6629200e-01
  -1.3473500e-01   3.3760900e+00   7.8922600e-01
  -1.4615600e-01   3.3866100e+00   8.1707400e-01
  -1.4545600e-01   3.3877700e+00   8.3392300e-01
  -1.5757700e-01   3.3961900e+00   8.6106800e-01
  -1.6130600e-01   3.3999300e+00   8.8166200e-01
  -1.6573400e-01   3.4018000e+00   8.9991500e-01
  -1.7342600e-01   3.4041300e+00   9.2144400e-01
  -1.7902000e-01   3.4039000e+00   9.3993100e-01
  -1.8344900e-01   3.4053000e+00   9.6052500e-01
  -1.9253900e-01   3.4018000e+00   9.7971400e-01
  -1.9556900e-01   3.3903400e+00   9.9469100e-01
  -1.9603500e-01   3.3777200e+00   1.0124800e+00
  -2.0256100e-01   3.3695400e+00   1.0354100e+00
  -1.9603500e-01   3.3585600e+00   1.0478100e+00
  -1.9790000e-01   3.3459400e+00   1.0590400e+00
  -2.0302700e-01   3.3391600e+00   1.0761300e+00
  -2.0256100e-01   3.3279400e+00   1.0878300e+00
  -2.0652400e-01   3.3160200e+00   1.1004700e+00
  -2.0372700e-01   3.3027000e+00   1.1126300e+00
  -2.0302700e-01   3.2830700e+00   1.1217600e+00
  -2.0629100e-01   3.2695100e+00   1.1337000e+00
  -2.1095200e-01   3.2543200e+00   1.1472700e+00
  -2.1118500e-01   3.2360900e+00   1.1615400e+00
  -2.0792200e-01   3.2159900e+00   1.1716100e+00
  -2.0699000e-01   3.1991700e+00   1.1844800e+00
  -2.0232800e-01   3.1781300e+00   1.1978200e+00
  -1.9953100e-01   3.1498500e+00   1.2060100e+00
  -1.9720000e-01   3.1292900e+00   1.2160700e+00
  -1.9277200e-01   3.1000700e+00   1.2205100e+00
  -1.9370400e-01   3.0776300e+00   1.2273000e+00
  -1.8834300e-01   3.0568300e+00   1.2324500e+00
  -1.8484700e-01   3.0313600e+00   1.2338500e+00
  -1.8647900e-01   3.0110300e+00   1.2380700e+00
  -1.8577900e-01   2.9818100e+00   1.2373600e+00
  -1.9020800e-01   2.9547000e+00   1.2462600e+00
  -1.8414800e-01   2.9229100e+00   1.2521100e+00
  -1.8274900e-01   2.8951000e+00   1.2551500e+00
  -1.8717800e-01   2.8649500e+00   1.2628700e+00
  -1.8181700e-01   2.8289600e+00   1.2605300e+00
  -1.7902000e-01   2.8039500e+00   1.2642800e+00
  -1.7948600e-01   2.7717000e+00   1.2624000e+00
  -1.8088500e-01   2.7380500e+00   1.2551500e+00
  -1.7738900e-01   2.7025200e+00   1.2542100e+00
  -1.7971900e-01   2.6705000e+00   1.2497700e+00
  -1.8251600e-01   2.6377800e+00   1.2429800e+00
  -1.7971900e-01   2.5992200e+00   1.2373600e+00
  -1.8135100e-01   2.5660300e+00   1.2343200e+00
  -1.8321600e-01   2.5265300e+00   1.2266000e+00
  -1.9067400e-01   2.4877400e+00   1.2181700e+00
  -1.9230600e-01   2.4498700e+00   1.2120900e+00
  -1.9067400e-01   2.4115500e+00   1.2039000e+00
  -1.9230600e-01   2.3715800e+00   1.1938400e+00
  -1.9673400e-01   2.3323200e+00   1.1884500e+00
  -1.9999700e-01   2.2911800e+00   1.1793300e+00
  -1.9300500e-01   2.2463100e+00   1.1643500e+00
  -1.9743400e-01   2.2065800e+00   1.1571000e+00
  -2.0326100e-01   2.1614700e+00   1.1454000e+00
  -2.0139600e-01   2.1161300e+00   1.1301900e+00
  -2.0302700e-01   2.0712600e+00   1.1140400e+00
  -2.0512500e-01   2.0238100e+00   1.1018700e+00
  -2.0093000e-01   1.9726300e+00   1.0894700e+00
  -1.9953100e-01   1.9237800e+00   1.0761300e+00
  -2.0512500e-01   1.8749400e+00   1.0653600e+00
  -2.0675700e-01   1.8211800e+00   1.0485100e+00
  -2.1095200e-01   1.7763100e+00   1.0393900e+00
  -2.0862100e-01   1.7216200e+00   1.0241800e+00
  -2.0932100e-01   1.6669300e+00   1.0113100e+00
  -2.1444800e-01   1.6192500e+00   1.0045200e+00
  -2.1002000e-01   1.5605900e+00   9.8954200e-01
  -2.1118500e-01   1.5068300e+00   9.8228800e-01
  -2.1095200e-01   1.4509800e+00   9.7222500e-01
  -2.0908800e-01   1.3890400e+00   9.5795000e-01
  -2.0908800e-01   1.3313100e+00   9.4788800e-01
  -2.1141800e-01   1.2738200e+00   9.4180300e-01
  -2.0955400e-01   1.2137500e+00   9.2893300e-01
  -2.0535800e-01   1.1529900e+00   9.1676400e-01
  -2.0838800e-01   1.0926900e+00   9.0950900e-01
  -2.0652400e-01   1.0328600e+00   8.9570300e-01
  -2.0722300e-01   9.7863700e-01   8.8961800e-01
  -2.0652400e-01   9.1763700e-01   8.7440700e-01
  -2.0768900e-01   8.5733900e-01   8.6598300e-01
  -2.1048600e-01   8.0194800e-01   8.6457900e-01
  -2.0396000e-01   7.3253500e-01   8.4819800e-01
  -2.0442600e-01   6.6873100e-01   8.4398500e-01
  -2.0209500e-01   6.0679600e-01   8.3462500e-01
  -1.9836600e-01   5.4205700e-01   8.2269000e-01
  -1.9790000e-01   4.8035600e-01   8.1473300e-01
  -1.9510300e-01   4.1585100e-01   8.0350100e-01
  -1.9580200e-01   3.6069400e-01   7.9858600e-01
  -1.9347100e-01   3.0109600e-01   7.8454600e-01
  -1.9160600e-01   2.3752600e-01   7.7214300e-01
  -1.8974200e-01   1.7863000e-01   7.6325000e-01
  -1.8601300e-01   1.1622800e-01   7.5061300e-01
  -1.8881000e-01   5.4760500e-02   7.4640100e-01
  -1.9020800e-01  -1.0913400e-02   7.3587000e-01
  -1.8974200e-01  -6.7706300e-02   7.2346800e-01
  -1.8414800e-01  -1.1702000e-01   7.1855300e-01
  -1.7971900e-01  -1.7194300e-01   7.2019100e-01
  -1.8671200e-01  -2.3224200e-01   7.2019100e-01
  -1.8321600e-01  -2.9791600e-01   7.0427900e-01
  -1.8251600e-01  -3.5424100e-01   6.9445000e-01
  -1.8205000e-01  -4.0612600e-01   6.8181300e-01
  -1.7272700e-01  -4.5801100e-01   6.6590000e-01
