**************************************************************************************
  	RED ACELEROGRÁFICA DE LA UNIVERSIDAD AUTONOMA METROPOLITANA (RA-UAM)
	   UNIDAD AZCAPOTZALCO. DIVISIÓN CBI-DEPARTAMENTO DE MATERIALES
     Av. San Pablo 420, Col. Nueva el Rosario, Azcapotzalco, C.P. 02128, Ciudad de México
		Área de Estructuras. e-mail: agb@azc.uam.mx
**************************************************************************************
ARCHIVO ESTANDAR DE ACELERACION:
VERSION DEL FORMATO                    : 2.0
NOMBRE DEL ARCHIVO                     : RIDX202205.251
FECHA Y HORA DE CREACION               : 11:30 a. m. 30/05/2022
REF. CATALOGO ACELEROGRAMAS, SMIS 1999 : REGISTRO NO.      /PAG.    


================================================================================
DATOS DE LA ESTACION:
NOMBRE DE LA ESTACION                  : UAM-XOCHIMILCO.
CLAVE DE LA ESTACION                   : RIDX
LOCALIZACION DE LA ESTACION            : CALZADA DEL HUESO 1100, COL. VILLA
                                       : QUIETUD, DEL. COYOACAN, C.P.04960,  
                                       : CIUDAD DE MEXICO.
                                       : 
                                       : 
COORDENADAS DE LA ESTACION             : 19.301345 LAT. N
                                       : 99.10268 LONG. W
ALTITUD (msnm)                         : 2232
TIPO DE SUELO                          : LAGO
                                       : 
                                       : 
INSTITUCION RESPONSABLE                : UNIVERSIDAD AUTONOMA METROPOLITANA
                                       : 

================================================================================
DATOS DEL ACELEROGRAFO: 
MODELO DEL ACELEROGRAFO                : BASALT KINEMETRICS
NUMERO DE SERIE DEL ACELEROGRAFO       : 1729
NUMERO DE CANALES                      : 3
ORIENTACION C1-C6 (rumbo;orientacion)  : /V/N00E/N90E
ORIENTACION C7-C12 (rumbo;orientacion) : 
VEL. DE MUESTREO, C1-C6 (muestras/s)   : /200/200/200
VEL. DE MUESTREO, C7-C12 (muestras/s)  : 
ESC. COMPLETA DE SENSORES, C1-C6, (g)  : /2/2/2
ESC. COMPLETA DE SENSORES, C7-C12 (g)  : 
FREC. NAT. DE SENSORES, C1-C6, (Hz)    : /208/210/200   
FREC. NAT. DE SENSORES, C7-C12 (Hz)    : 
AMORTIGUAMIENTO DE SENSORES, C1-C6     : /0.7/0.7/0.7      
AMORTIGUAMIENTO DE SENSORES, C7-C12    : 
INTERVALO DE MUESTREO, C1-C6 (s)       : /0.005/0.005/0.005
INTERVALO DE MUESTREO, C7-C12 (s)      : 
UMBRAL DE DISPARO, C1-C6 (Gal)         : /2/2/2
UMBRAL DE DISPARO, C7-C12 (Gal)        : 
MEMORIA DE PREEVENTO (s)               : 60
TIEMPO DE POSEVENTO (s)                : 80


================================================================================
DATOS DEL SISMO:
FECHA DEL SISMO [GMT]                  : 2022/05/25
HORA EPICENTRO (GMT)                   : 21:43:02
MAGNITUD(ES)                           : /M=5.5
COORDENADAS DEL EPICENTRO              : 16.1100 LAT. N
                                       : -95.9900 LONG. W
PROFUNDIDAD FOCAL (Km)                 : 12.0
FUENTE DE LOS DATOS EPICENTRALES       : SSN
                                       : INSTITUTO DE GEOFISICA, UNAM

================================================================================
DATOS DE ESTE REGISTRO:
HORA DE LA PRIMERA MUESTRA (GMT)       : 21:44:15.000
EXACTITUD DEL TIEMPO (s)               : 
DURACION DEL REGISTRO (s), C1-C6       : /248/248/248
DURACION DEL REGISTRO (s), C7-C12      : 
NUM. TOTAL DE MUESTRAS, C1-C6          : /49600/49600/49600
NUM. TOTAL DE MUESTRAS, C7-C12         : 
ACEL. MAX.(Gal), C1-C6                 : /-0.394/-1.661/-1.256
ACEL. MAX., C1-C6, EN LA MUESTRA       : /15867/15611/17828
ACEL. MAX.(Gal), C7-C12                : 
ACEL. MAX., C7-C12,EN LA MUESTRA       : 
UNIDADES DE LOS DATOS                  : Gal (cm/s/s)
FACTOR DE DECIMACION                   : 1
FORMATO DATOS (FORTRAN,16 campos/dato) : 3E16.7


================================================================================
CALIDAD DEL ACELEROGRAMA:
REGISTRO DIGITAL COMPLETO CON TIEMPO ABSOLUTO CORRECTO


================================================================================
COMENTARIOS:














================================================================================
DATOS DE ACELERACION:
---------+---------+---------+---------+---------+---------+---------+---------+
   CANAL-1   	      CANAL-2          CANAL-3
      V                 N00E             N90E
---------+---------+---------+---------+---------+---------+---------+---------+
[...]
  -1.4972700e-01   1.2720400e+00   4.0151700e-01
  -1.2758400e-01   1.3435600e+00   3.5565000e-01
  -7.9569200e-02   1.4078300e+00   3.2827000e-01
  -3.5050600e-02   1.4323700e+00   3.0533700e-01
   1.6227300e-02   1.4251200e+00   2.9621000e-01
   7.1933800e-02   1.3863300e+00   3.0814500e-01
   9.8738200e-02   1.3134100e+00   3.2359000e-01
   9.6174300e-02   1.2390900e+00   3.4839600e-01
   7.8227000e-02   1.1715400e+00   3.6711700e-01
   5.3986500e-02   1.1231600e+00   3.8069000e-01
   3.0445300e-02   1.1023600e+00   3.8934800e-01
   1.0866500e-02   1.1049300e+00   3.7390300e-01
  -1.0577000e-02   1.1262000e+00   3.6501100e-01
  -3.5050600e-02   1.1465300e+00   3.5143800e-01
  -4.4373900e-02   1.1701400e+00   3.3201500e-01
  -2.9456600e-02   1.2035600e+00   3.2359000e-01
   1.5432000e-03   1.2386200e+00   3.0603900e-01
   3.8603200e-02   1.2704000e+00   2.9340200e-01
   8.4986400e-02   1.2886300e+00   2.8029700e-01
   1.3020400e-01   1.2785800e+00   2.6625600e-01
   1.5817400e-01   1.2400200e+00   2.6134200e-01
   1.8194800e-01   1.1844000e+00   2.6649000e-01
   1.8940700e-01   1.1182600e+00   2.7819100e-01
   1.7542200e-01   1.0572600e+00   2.8263700e-01
   1.6609900e-01   1.0116800e+00   2.9340200e-01
   1.5024900e-01   9.8036300e-01   3.0135900e-01
   1.2903900e-01   9.5792700e-01   2.9831600e-01
   1.2647500e-01   9.5114900e-01   2.9176400e-01
   1.1831700e-01   9.6026400e-01   2.6976700e-01
   9.4309600e-02   9.7755900e-01   2.3396200e-01
   7.3099200e-02   1.0133200e+00   1.9815800e-01
   6.1212100e-02   1.0528100e+00   1.6212000e-01
   6.6572900e-02   1.0825000e+00   1.2701800e-01
   7.7760900e-02   1.0988600e+00   1.0338200e-01
   8.7550300e-02   1.0890400e+00   7.9746700e-02
   9.8272000e-02   1.0609900e+00   6.4067700e-02
   9.8039000e-02   1.0151900e+00   5.4239100e-02
   9.7572800e-02   9.6563900e-01   4.2538400e-02
   9.0813400e-02   9.2754400e-01   4.2070300e-02
   6.9836100e-02   8.8383900e-01   2.4519200e-02
   7.0302200e-02   8.5369000e-01  -7.5436200e-04
   8.0091700e-02   8.4106900e-01  -1.6667400e-02
   6.6572900e-02   8.2026800e-01  -5.1301500e-02
   5.0024200e-02   8.1255600e-01  -8.1021400e-02
   3.9069300e-02   8.1325700e-01  -1.0021100e-01
   2.2054400e-02   8.0624500e-01  -1.1448500e-01
   6.1087100e-04   8.0157100e-01  -1.1565600e-01
  -2.1998000e-02   7.8497700e-01  -1.2595200e-01
  -5.0434000e-02   7.5763300e-01  -1.3741900e-01
  -7.1411300e-02   7.2023800e-01  -1.5871400e-01
  -8.5862400e-02   6.7770200e-01  -1.9217800e-01
  -1.1103500e-01   6.3797000e-01  -2.2681300e-01
  -1.3131300e-01   5.9029200e-01  -2.7174300e-01
  -1.4809500e-01   5.5453400e-01  -3.0263300e-01
  -1.7093700e-01   5.2648800e-01  -3.2439700e-01
  -1.8329000e-01   4.9400200e-01  -3.3890600e-01
  -1.7956100e-01   4.7109800e-01  -3.4569200e-01
  -1.7629800e-01   4.5497100e-01  -3.5856300e-01
  -1.7793000e-01   4.3604000e-01  -3.6885900e-01
  -1.8026000e-01   4.1500600e-01  -3.7283800e-01
  -1.9774200e-01   3.9093300e-01  -3.7634800e-01
  -2.1382400e-01   3.6358900e-01  -3.8196400e-01
  -2.1545600e-01   3.3975000e-01  -3.7354000e-01
  -2.3130500e-01   3.1053500e-01  -3.7049800e-01
  -2.5461300e-01   2.8062000e-01  -3.7915600e-01
  -2.7092900e-01   2.5163900e-01  -3.8687900e-01
  -2.8188400e-01   2.1704900e-01  -4.0349400e-01
  -2.9260600e-01   1.8479600e-01  -4.1847100e-01
  -3.1055300e-01   1.4950500e-01  -4.3602200e-01
  -3.1171800e-01   1.2519900e-01  -4.4514800e-01
  -3.0286100e-01   1.0883900e-01  -4.4234000e-01
  -3.0565800e-01   9.0609100e-02  -4.3812800e-01
  -3.0006400e-01   8.3364000e-02  -4.2221500e-01
  -2.9353800e-01   7.6819900e-02  -3.9974900e-01
  -2.9167300e-01   7.0042200e-02  -3.8407000e-01
  -2.8584600e-01   6.3498200e-02  -3.7494400e-01
  -2.8910900e-01   5.8590100e-02  -3.7120000e-01
  -2.9377100e-01   5.5551800e-02  -3.7728400e-01
  -2.9004200e-01   5.3448400e-02  -3.7377400e-01
  -2.8444800e-01   5.7655300e-02  -3.6792300e-01
  -2.7792200e-01   6.8172500e-02  -3.6488100e-01
  -2.7092900e-01   7.9390800e-02  -3.5715900e-01
  -2.6067400e-01   8.5000000e-02  -3.5715900e-01
  -2.4855300e-01   9.2712600e-02  -3.4686200e-01
  -2.4645600e-01   9.2946300e-02  -3.3633100e-01
  -2.4365900e-01   8.1026800e-02  -3.3141700e-01
  -2.2431300e-01   7.2379300e-02  -3.1761000e-01
  -2.0566600e-01   5.5785600e-02  -3.1222800e-01
  -1.8981700e-01   5.0410100e-02  -3.1456800e-01
  -1.7559900e-01   6.0693600e-02  -3.3141700e-01
  -1.6860600e-01   6.7471300e-02  -3.5154200e-01
  -1.6254600e-01   8.7103400e-02  -3.5973300e-01
  -1.5438800e-01   1.0229500e-01  -3.6488100e-01
  -1.4459900e-01   1.1748600e-01  -3.4896800e-01
  -1.4226800e-01   1.3898800e-01  -3.3305500e-01
  -1.3737300e-01   1.5862000e-01  -3.2158800e-01
  -1.2735100e-01   1.9134000e-01  -3.1176000e-01
  -1.1896000e-01   2.1658200e-01  -3.2463100e-01
  -1.0544100e-01   2.3153900e-01  -3.3399100e-01
  -9.7050300e-02   2.2452800e-01  -3.4171400e-01
  -8.9358600e-02   1.9344400e-01  -3.3914000e-01
  -8.3764600e-02   1.5768500e-01  -3.2509900e-01
  -9.4020200e-02   1.2590000e-01  -3.1690800e-01
  -1.0753900e-01   1.1538300e-01  -3.1176000e-01
  -1.0357700e-01   1.2730200e-01  -3.2275900e-01
  -9.0990200e-02   1.6446300e-01  -3.3188500e-01
  -9.2155600e-02   1.9484600e-01  -3.4452200e-01
  -8.4697000e-02   2.1331000e-01  -3.5130800e-01
  -7.2809800e-02   2.2265800e-01  -3.3703300e-01
  -7.1644400e-02   2.0816800e-01  -3.3352300e-01
  -6.3253500e-02   2.0022200e-01  -3.2767300e-01
  -5.7426400e-02   1.9648200e-01  -3.2369500e-01
  -5.6960300e-02   2.0349400e-01  -3.2743900e-01
  -5.4862500e-02   2.0816800e-01  -3.2931100e-01
  -4.4373900e-02   1.9297600e-01  -3.3609700e-01
  -3.1321300e-02   1.7895400e-01  -3.2416300e-01
  -3.2020500e-02   1.4249400e-01  -3.0497300e-01
  -2.2697300e-02   1.0673500e-01  -2.7970000e-01
  -1.1509400e-02   9.1076600e-02  -2.4202300e-01
  -1.5471800e-02   6.9107300e-02  -2.1838800e-01
  -1.4306300e-02   5.9291300e-02  -1.9100800e-01
  -1.5704800e-02   4.9942700e-02  -1.7018100e-01
  -1.8035700e-02   3.0544300e-02  -1.6035200e-01
  -1.5471800e-02   1.1613400e-02  -1.5333200e-01
  -6.3815700e-03  -2.4095500e-03  -1.4841800e-01
   1.2264900e-02  -1.0355900e-02  -1.3016400e-01
   2.7881400e-02  -2.3443900e-02  -1.1823000e-01
   3.1377600e-02  -2.6248500e-02  -9.9742600e-02
   3.1144600e-02  -4.1907400e-02  -8.7105800e-02
   4.6294900e-02  -6.9018400e-02  -8.2893500e-02
   5.5851200e-02  -9.0286500e-02  -6.7448500e-02
   6.0279700e-02  -1.2674600e-01  -5.2705600e-02
   7.2866100e-02  -1.6203700e-01  -2.3921800e-02
   8.2189400e-02  -1.8984900e-01   2.2878300e-03
   9.1978800e-02  -2.0644300e-01   3.4581900e-02
   8.0324800e-02  -2.2163400e-01   5.9621400e-02
   6.6106800e-02  -2.2911300e-01   6.6875900e-02
   6.3776000e-02  -2.3215200e-01   7.5534400e-02
   5.8182000e-02  -2.4266900e-01   7.1790200e-02
   5.1655700e-02  -2.4640800e-01   7.4364300e-02
   3.6272300e-02  -2.6557300e-01   6.9450000e-02
   3.9535500e-02  -2.7772600e-01   6.8748000e-02
   4.6527900e-02  -2.8894400e-01   7.5300400e-02
   4.8858700e-02  -3.0109800e-01   6.6407900e-02
   6.9836100e-02  -2.9969500e-01   6.7109900e-02
   8.1723200e-02  -3.1371800e-01   6.3131600e-02
   8.4753300e-02  -3.2750700e-01   5.8217300e-02
   9.7106600e-02  -3.5228100e-01   5.7047300e-02
   1.1528700e-01  -3.9201300e-01   5.1430900e-02
   1.3043700e-01  -4.3174500e-01   5.3069000e-02
   1.3859500e-01  -4.6540000e-01   5.4473100e-02
   1.3440000e-01  -4.9134200e-01   5.3069000e-02
   1.2344500e-01  -5.1050700e-01   3.9730200e-02
   1.2484300e-01  -5.1681700e-01   1.4456600e-02
   1.2344500e-01  -5.2452900e-01  -1.0114900e-02
   1.1621900e-01  -5.3200800e-01  -3.3984400e-02
   1.1528700e-01  -5.4766700e-01  -4.2643000e-02
   1.1528700e-01  -5.6893500e-01  -4.1706900e-02
   1.2064800e-01  -5.8482800e-01  -4.4515100e-02
   1.2484300e-01  -6.0609600e-01  -5.1301500e-02
   1.2857300e-01  -6.2829900e-01  -7.0256700e-02
   1.3230200e-01  -6.5073600e-01  -9.2020100e-02
   1.2577600e-01  -6.7130300e-01  -1.2057000e-01
   1.1761800e-01  -6.9654400e-01  -1.4701400e-01
   1.1249000e-01  -7.2739400e-01  -1.6573500e-01
   1.1785100e-01  -7.5520600e-01  -1.8211600e-01
   1.2787300e-01  -7.7694200e-01  -1.8422200e-01
   1.2530900e-01  -7.9306800e-01  -1.9264600e-01
   1.2647500e-01  -8.1013000e-01  -2.0481500e-01
   1.3533200e-01  -8.2321800e-01  -2.1604800e-01
   1.3789600e-01  -8.3326700e-01  -2.3383300e-01
   1.3160300e-01  -8.4822500e-01  -2.4974600e-01
   1.2834000e-01  -8.6785700e-01  -2.6729700e-01
   1.3440000e-01  -8.8234800e-01  -2.7455200e-01
   1.2414400e-01  -9.0338200e-01  -2.8625200e-01
   1.1342200e-01  -9.3610200e-01  -3.0473900e-01
   1.2367800e-01  -9.6321300e-01  -3.0871800e-01
   1.2227900e-01  -9.9686800e-01  -3.1503600e-01
   1.1295600e-01  -1.0309900e+00  -3.2439700e-01
   1.0270100e-01  -1.0555300e+00  -3.3352300e-01
   8.8016400e-02  -1.0863800e+00  -3.4452200e-01
   8.3821000e-02  -1.1102200e+00  -3.5130800e-01
   8.1257100e-02  -1.1263500e+00  -3.6020100e-01
   7.3099200e-02  -1.1438700e+00  -3.6581700e-01
   6.0745900e-02  -1.1548600e+00  -3.6815700e-01
   4.9791100e-02  -1.1639700e+00  -3.7096600e-01
   3.1610700e-02  -1.1730900e+00  -3.7026400e-01
   7.8364000e-03  -1.1866400e+00  -3.7073200e-01
   3.7778900e-04  -1.1964600e+00  -3.6628500e-01
  -1.0577000e-02  -1.2058100e+00  -3.6277500e-01
  -1.9201100e-02  -1.2270800e+00  -3.5973300e-01
  -1.7802600e-02  -1.2448400e+00  -3.5435100e-01
  -2.6193500e-02  -1.2696100e+00  -3.5949900e-01
  -3.0855100e-02  -1.2995300e+00  -3.5973300e-01
  -3.8546800e-02  -1.3271100e+00  -3.5669100e-01
  -5.7659500e-02  -1.3610000e+00  -3.5084000e-01
  -7.5839900e-02  -1.3913800e+00  -3.3843800e-01
  -8.6328500e-02  -1.4182600e+00  -3.2814100e-01
  -9.2155600e-02  -1.4360200e+00  -3.1222800e-01
  -1.0730600e-01  -1.4519100e+00  -3.0520700e-01
  -1.2408800e-01  -1.4687400e+00  -3.0029300e-01
  -1.3434300e-01  -1.4750500e+00  -2.8859200e-01
  -1.4739600e-01  -1.4886000e+00  -2.8625200e-01
  -1.5322300e-01  -1.5049700e+00  -2.7619000e-01
  -1.6487700e-01  -1.5224900e+00  -2.6004300e-01
  -1.9471100e-01  -1.5575500e+00  -2.4764000e-01
  -2.0496700e-01  -1.5839600e+00  -2.3219500e-01
  -2.0520000e-01  -1.6026600e+00  -2.2377000e-01
  -2.2268100e-01  -1.6234600e+00  -2.2166400e-01
  -2.4482400e-01  -1.6353800e+00  -2.2306800e-01
  -2.5950800e-01  -1.6473000e+00  -2.2587600e-01
  -2.6207200e-01  -1.6519700e+00  -2.1604800e-01
  -2.5834300e-01  -1.6529100e+00  -2.0855900e-01
  -2.5274900e-01  -1.6480000e+00  -1.9826300e-01
  -2.6463600e-01  -1.6459000e+00  -1.8586000e-01
  -2.7489100e-01  -1.6519700e+00  -1.7813700e-01
  -2.6789900e-01  -1.6437900e+00  -1.5239600e-01
  -2.8328200e-01  -1.6489300e+00  -1.3390900e-01
  -2.9726700e-01  -1.6571100e+00  -1.1635800e-01
  -2.9074100e-01  -1.6566500e+00  -9.9742600e-02
  -2.8584600e-01  -1.6608500e+00  -9.9742600e-02
  -2.8188400e-01  -1.6571100e+00  -9.9040500e-02
  -2.7838800e-01  -1.6545400e+00  -1.0793300e-01
  -2.7279400e-01  -1.6498700e+00  -1.0816700e-01
  -2.7256100e-01  -1.6442600e+00  -9.9976600e-02
  -2.7978600e-01  -1.6398200e+00  -9.1552100e-02
  -2.7652300e-01  -1.6229900e+00  -7.4703000e-02
  -2.6813200e-01  -1.5982200e+00  -6.8852600e-02
  -2.7652300e-01  -1.5741400e+00  -7.9383300e-02
  -2.6836500e-01  -1.5416600e+00  -9.3424200e-02
  -2.3573400e-01  -1.5052000e+00  -1.0886900e-01
  -2.0566600e-01  -1.4808900e+00  -1.2408000e-01
  -1.7583200e-01  -1.4542500e+00  -1.2431400e-01
  -1.6720800e-01  -1.4357900e+00  -1.2314400e-01
  -1.5741800e-01  -1.4266700e+00  -1.2080400e-01
  -1.3597500e-01  -1.4142800e+00  -1.1425100e-01
  -1.2735100e-01  -1.4030700e+00  -1.1565600e-01
  -1.1569700e-01  -1.3881100e+00  -1.1214500e-01
  -1.1336600e-01  -1.3822600e+00  -1.0933700e-01
  -1.1546400e-01  -1.3731500e+00  -1.0325300e-01
  -1.1989200e-01  -1.3553900e+00  -9.4828300e-02
  -1.3131300e-01  -1.3420700e+00  -9.4360200e-02
  -1.2805000e-01  -1.3184600e+00  -9.8104500e-02
  -1.2385500e-01  -1.2801300e+00  -1.0489100e-01
  -1.2385500e-01  -1.2399300e+00  -1.1308100e-01
  -1.1593000e-01  -1.2041700e+00  -1.3086700e-01
  -9.9614200e-02  -1.1630400e+00  -1.4443900e-01
  -8.1200700e-02  -1.1256500e+00  -1.5894800e-01
  -6.0689600e-02  -1.1015700e+00  -1.7509500e-01
  -3.7614500e-02  -1.0877800e+00  -1.8679600e-01
  -1.4073300e-02  -1.0875500e+00  -2.0130500e-01
   5.9717500e-03  -1.0976000e+00  -2.1183600e-01
   2.0889000e-02  -1.1055500e+00  -2.1909000e-01
   3.7204700e-02  -1.1092900e+00  -2.1885600e-01
   5.3753500e-02  -1.1106900e+00  -2.1932400e-01
   6.1911300e-02  -1.0966600e+00  -2.1230400e-01
   5.0723400e-02  -1.0856800e+00  -2.1183600e-01
   5.3054200e-02  -1.0725900e+00  -2.1745200e-01
   6.7039100e-02  -1.0529600e+00  -2.1347400e-01
   6.3076700e-02  -1.0352000e+00  -2.2447200e-01
   6.5873700e-02  -1.0045800e+00  -2.2915300e-01
   6.9136800e-02  -9.8027400e-01  -2.3874700e-01
   7.6828500e-02  -9.5456600e-01  -2.5302200e-01
   8.8016400e-02  -9.2441600e-01  -2.5349000e-01
   8.7783400e-02  -9.0291500e-01  -2.5934100e-01
   9.2678100e-02  -8.8632100e-01  -2.5910700e-01
   9.4076600e-02  -8.7720600e-01  -2.5863900e-01
   1.0619700e-01  -8.7019400e-01  -2.6776500e-01
   1.1808400e-01  -8.6785700e-01  -2.7993400e-01
   1.1435500e-01  -8.6505300e-01  -2.9725100e-01
   1.2787300e-01  -8.6154700e-01  -3.1012200e-01
   1.3952700e-01  -8.5547000e-01  -3.1644000e-01
   1.4791800e-01  -8.3981100e-01  -3.1386600e-01
   1.6423400e-01  -8.1433600e-01  -2.8835800e-01
   1.6400100e-01  -7.8582300e-01  -2.6448900e-01
   1.6353500e-01  -7.5240200e-01  -2.4951200e-01
   1.5607600e-01  -7.2038300e-01  -2.4342800e-01
   1.4185800e-01  -7.0776200e-01  -2.6565900e-01
   1.4791800e-01  -6.8859800e-01  -2.9023100e-01
   1.5327900e-01  -6.6733000e-01  -3.1550400e-01
   1.6400100e-01  -6.5821500e-01  -3.4148000e-01
   1.9080500e-01  -6.3320700e-01  -3.4428800e-01
   2.0549000e-01  -6.1100400e-01  -3.4967000e-01
   2.0479000e-01  -5.9043700e-01  -3.5505300e-01
   2.0012900e-01  -5.5491200e-01  -3.4967000e-01
   1.9826400e-01  -5.3013900e-01  -3.5552100e-01
   2.0572300e-01  -5.0092400e-01  -3.5528700e-01
   2.1178300e-01  -4.7030800e-01  -3.4850000e-01
   2.1271500e-01  -4.4343000e-01  -3.4826600e-01
   2.2110600e-01  -4.1164500e-01  -3.4218200e-01
   2.2343700e-01  -3.8990900e-01  -3.3984200e-01
   2.1737700e-01  -3.6466800e-01  -3.4405400e-01
   2.0665500e-01  -3.4153000e-01  -3.4826600e-01
   1.9173800e-01  -3.2283300e-01  -3.5809500e-01
   1.9010600e-01  -3.0109800e-01  -3.6979600e-01
   1.8730900e-01  -2.7445400e-01  -3.7354000e-01
   1.8427900e-01  -2.5178400e-01  -3.8407000e-01
   1.9546700e-01  -2.3004800e-01  -3.9670700e-01
   2.0199300e-01  -1.9779600e-01  -3.9506900e-01
   2.0502300e-01  -1.8190300e-01  -3.9553700e-01
   2.0618900e-01  -1.5970000e-01  -3.8711300e-01
   1.9873000e-01  -1.3609500e-01  -3.6464700e-01
   1.8451200e-01  -1.2511000e-01  -3.4803200e-01
   1.7495600e-01  -9.8700200e-02  -3.2907700e-01
   1.6912900e-01  -7.1589300e-02  -3.0286700e-01
   1.5001600e-01  -4.3543400e-02  -2.7946600e-01
   1.3043700e-01  -2.2275300e-02  -2.5606400e-01
   1.1552000e-01  -5.6815600e-03  -2.3336500e-01
   8.8715700e-02   1.1145900e-02  -2.2119600e-01
   6.6106800e-02   2.2364300e-02  -2.1019700e-01
   5.8881300e-02   3.8256900e-02  -1.9873100e-01
   4.0700900e-02   4.3398600e-02  -1.9522100e-01
   3.0445300e-02   4.4567200e-02  -1.7720100e-01
   4.0001600e-02   4.9709000e-02  -1.4912000e-01
   3.2310000e-02   4.8774100e-02  -1.3110100e-01
