**************************************************************************************
  	RED ACELEROGRÁFICA DE LA UNIVERSIDAD AUTONOMA METROPOLITANA (RA-UAM)
	   UNIDAD AZCAPOTZALCO. DIVISIÓN CBI-DEPARTAMENTO DE MATERIALES
     Av. San Pablo 420, Col. Nueva el Rosario, Azcapotzalco, C.P. 02128, Ciudad de México
		Área de Estructuras. e-mail: agb@azc.uam.mx
**************************************************************************************
ARCHIVO ESTANDAR DE ACELERACION:
VERSION DEL FORMATO                    : 2.0
NOMBRE DEL ARCHIVO                     : RIDX202204.271
FECHA Y HORA DE CREACION               : 11:30 a. m. 02/05/2022
REF. CATALOGO ACELEROGRAMAS, SMIS 1999 : REGISTRO NO.      /PAG.    


================================================================================
DATOS DE LA ESTACION:
NOMBRE DE LA ESTACION                  : UAM-XOCHIMILCO.
CLAVE DE LA ESTACION                   : RIDX
LOCALIZACION DE LA ESTACION            : CALZADA DEL HUESO 1100, COL. VILLA
                                       : QUIETUD, DEL. COYOACAN, C.P.04960,  
                                       : CIUDAD DE MEXICO.
                                       : 
                                       : 
COORDENADAS DE LA ESTACION             : 19.301345 LAT. N
                                       : 99.10268 LONG. W
ALTITUD (msnm)                         : 2232
TIPO DE SUELO                          : LAGO
                                       : 
                                       : 
INSTITUCION RESPONSABLE                : UNIVERSIDAD AUTONOMA METROPOLITANA
                                       : 

================================================================================
DATOS DEL ACELEROGRAFO: 
MODELO DEL ACELEROGRAFO                : BASALT KINEMETRICS
NUMERO DE SERIE DEL ACELEROGRAFO       : 1729
NUMERO DE CANALES                      : 3
ORIENTACION C1-C6 (rumbo;orientacion)  : /V/N00E/N90E
ORIENTACION C7-C12 (rumbo;orientacion) : 
VEL. DE MUESTREO, C1-C6 (muestras/s)   : /200/200/200
VEL. DE MUESTREO, C7-C12 (muestras/s)  : 
ESC. COMPLETA DE SENSORES, C1-C6, (g)  : /2/2/2
ESC. COMPLETA DE SENSORES, C7-C12 (g)  : 
FREC. NAT. DE SENSORES, C1-C6, (Hz)    : /208/210/200   
FREC. NAT. DE SENSORES, C7-C12 (Hz)    : 
AMORTIGUAMIENTO DE SENSORES, C1-C6     : /0.7/0.7/0.7      
AMORTIGUAMIENTO DE SENSORES, C7-C12    : 
INTERVALO DE MUESTREO, C1-C6 (s)       : /0.005/0.005/0.005
INTERVALO DE MUESTREO, C7-C12 (s)      : 
UMBRAL DE DISPARO, C1-C6 (Gal)         : /2/2/2
UMBRAL DE DISPARO, C7-C12 (Gal)        : 
MEMORIA DE PREEVENTO (s)               : 60
TIEMPO DE POSEVENTO (s)                : 80


================================================================================
DATOS DEL SISMO:
FECHA DEL SISMO [GMT]                  : 2022/04/27
HORA EPICENTRO (GMT)                   : 11:01:29
MAGNITUD(ES)                           : /M=4.8
COORDENADAS DEL EPICENTRO              : 15.5300 LAT. N
                                       : -96.8000 LONG. W
PROFUNDIDAD FOCAL (Km)                 : 16.0
FUENTE DE LOS DATOS EPICENTRALES       : SSN
                                       : INSTITUTO DE GEOFISICA, UNAM

================================================================================
DATOS DE ESTE REGISTRO:
HORA DE LA PRIMERA MUESTRA (GMT)       : 11:03:03.000
EXACTITUD DEL TIEMPO (s)               : 
DURACION DEL REGISTRO (s), C1-C6       : /141/141/141
DURACION DEL REGISTRO (s), C7-C12      : 
NUM. TOTAL DE MUESTRAS, C1-C6          : /28200/28200/28200
NUM. TOTAL DE MUESTRAS, C7-C12         : 
ACEL. MAX.(Gal), C1-C6                 : /0.110/0.502/0.339
ACEL. MAX., C1-C6, EN LA MUESTRA       : /10055/12058/14117
ACEL. MAX.(Gal), C7-C12                : 
ACEL. MAX., C7-C12,EN LA MUESTRA       : 
UNIDADES DE LOS DATOS                  : Gal (cm/s/s)
FACTOR DE DECIMACION                   : 1
FORMATO DATOS (FORTRAN,16 campos/dato) : 3E16.7


================================================================================
CALIDAD DEL ACELEROGRAMA:
REGISTRO DIGITAL COMPLETO CON TIEMPO ABSOLUTO CORRECTO


================================================================================
COMENTARIOS:














================================================================================
DATOS DE ACELERACION:
---------+---------+---------+---------+---------+---------+---------+---------+
   CANAL-1   	      CANAL-2          CANAL-3
      V                 N00E             N90E
---------+---------+---------+---------+---------+---------+---------+---------+ 
[...]
  -1.6840100e-02  -2.0541300e-01   1.3369200e-02
  -1.6607000e-02  -2.0424400e-01   1.4071200e-02
  -1.4975400e-02  -2.0401000e-01   1.1965100e-02
  -1.5208500e-02  -1.9466200e-01   1.5475300e-02
  -1.5907800e-02  -1.9396100e-01   5.6466900e-03
  -1.4742300e-02  -1.8998700e-01   1.1497100e-02
  -1.6140800e-02  -1.8694900e-01   1.3369200e-02
  -1.5907800e-02  -1.8811800e-01   5.1786600e-03
  -7.9829800e-03  -1.7830200e-01   8.9229000e-03
  -6.1183300e-03  -1.7619800e-01   4.0085900e-03
  -9.8476400e-03  -1.7362700e-01   1.2004100e-03
  -9.8476400e-03  -1.7432900e-01  -5.1179800e-03
  -5.6521700e-03  -1.7129000e-01  -8.3941900e-03
  -5.8852500e-03  -1.6825200e-01  -9.7982800e-03
  -9.8476400e-03  -1.7596500e-01  -2.1733000e-02
  -7.2837400e-03  -1.7082300e-01  -2.1967000e-02
  -5.8852500e-03  -1.7152400e-01  -2.7583400e-02
  -5.8852500e-03  -1.7479600e-01  -3.9518100e-02
  -5.4190900e-03  -1.6942100e-01  -4.0220200e-02
  -4.7198400e-03  -1.7339400e-01  -4.7006600e-02
  -2.3890300e-03  -1.7432900e-01  -5.0048800e-02
  -5.6521700e-03  -1.7222500e-01  -5.4027100e-02
  -8.4491500e-03  -1.7082300e-01  -6.8301900e-02
  -8.9153100e-03  -1.6568100e-01  -6.9238000e-02
  -9.3814700e-03  -1.6895300e-01  -7.4620300e-02
  -7.7499000e-03  -1.7175800e-01  -8.2576800e-02
  -7.7499000e-03  -1.7269300e-01  -8.3512900e-02
  -9.1483900e-03  -1.7713300e-01  -9.7787800e-02
  -4.9529200e-03  -1.7409500e-01  -1.0363800e-01
  -5.4190900e-03  -1.7012200e-01  -1.0434000e-01
  -1.1246100e-02  -1.7549700e-01  -1.1697700e-01
  -1.0313800e-02  -1.7292600e-01  -1.1908300e-01
  -9.1483900e-03  -1.6568100e-01  -1.2025300e-01
  -9.1483900e-03  -1.7175800e-01  -1.3148600e-01
  -8.6822300e-03  -1.6988800e-01  -1.3710200e-01
  -3.7875200e-03  -1.6544700e-01  -1.4459100e-01
   2.7387700e-03  -1.6311000e-01  -1.5278100e-01
   4.6034200e-03  -1.6077300e-01  -1.5348300e-01
   8.0996400e-03  -1.6124100e-01  -1.5769600e-01
   7.6334800e-03  -1.5867000e-01  -1.6541800e-01
   1.2761300e-02  -1.6404500e-01  -1.7501300e-01
   1.9520600e-02  -1.5399500e-01  -1.7571500e-01
   1.2528200e-02  -1.4955500e-01  -1.8062900e-01
   1.2062000e-02  -1.5867000e-01  -1.8928800e-01
   1.7422900e-02  -1.4394600e-01  -1.8413900e-01
   1.9520600e-02  -1.4955500e-01  -1.9420200e-01
   2.3949200e-02  -1.5399500e-01  -2.0028600e-01
   2.6513100e-02  -1.4885400e-01  -1.9958400e-01
   2.7445400e-02  -1.5960500e-01  -2.0824300e-01
   2.9077000e-02  -1.5563100e-01  -2.0707300e-01
   3.0009300e-02  -1.5633200e-01  -2.0707300e-01
   2.7678500e-02  -1.5539800e-01  -2.0566900e-01
   2.8377700e-02  -1.5633200e-01  -2.1198700e-01
   3.3505500e-02  -1.5609900e-01  -2.1456100e-01
   3.4204800e-02  -1.5095700e-01  -2.0988100e-01
   3.6069400e-02  -1.6100700e-01  -2.1245500e-01
   3.9332600e-02  -1.6077300e-01  -2.0332800e-01
   3.9332600e-02  -1.6194200e-01  -2.0028600e-01
   3.4670900e-02  -1.6614900e-01  -2.0286000e-01
   3.3039400e-02  -1.6778500e-01  -2.0403000e-01
   3.7934100e-02  -1.7105700e-01  -2.0262600e-01
   3.7701000e-02  -1.7362700e-01  -1.9794600e-01
   3.7234800e-02  -1.7923700e-01  -1.9490400e-01
   4.1197200e-02  -1.8344300e-01  -1.8694700e-01
   4.3994200e-02  -1.8788400e-01  -1.8296900e-01
   4.3061900e-02  -1.8624800e-01  -1.7922500e-01
   4.0964100e-02  -1.8788400e-01  -1.7992700e-01
   4.0964100e-02  -1.8601400e-01  -1.7852300e-01
   4.1197200e-02  -1.8601400e-01  -1.7360900e-01
   4.4926500e-02  -1.9162400e-01  -1.6635400e-01
   4.5392700e-02  -1.9185700e-01  -1.5488700e-01
   4.3061900e-02  -1.9770000e-01  -1.5816400e-01
   4.3295000e-02  -1.9583000e-01  -1.5278100e-01
   3.8866400e-02  -1.9886900e-01  -1.4973900e-01
   4.5159600e-02  -2.0284200e-01  -1.5067500e-01
   5.2152100e-02  -2.0003700e-01  -1.3616600e-01
   4.7490400e-02  -2.0938600e-01  -1.3382600e-01
   4.9122000e-02  -2.1195700e-01  -1.2750800e-01
   5.2618200e-02  -2.1219000e-01  -1.1955100e-01
   5.2152100e-02  -2.1219000e-01  -1.1838100e-01
   5.0753600e-02  -2.1382600e-01  -1.1650900e-01
   5.2152100e-02  -2.1406000e-01  -1.1299900e-01
   5.5648300e-02  -2.0845100e-01  -1.0036200e-01
   5.4949000e-02  -2.1663100e-01  -1.0457400e-01
   5.8212200e-02  -2.1546200e-01  -1.0480800e-01
   6.4039200e-02  -2.0775000e-01  -9.3341500e-02
   5.9610700e-02  -2.1032100e-01  -9.7085800e-02
   5.5415200e-02  -2.1172300e-01  -9.5915700e-02
   6.0543000e-02  -2.1148900e-01  -8.3278900e-02
   5.9144500e-02  -2.1008700e-01  -7.7428500e-02
   5.6813700e-02  -2.1219000e-01  -7.9300600e-02
   6.0309900e-02  -2.1125600e-01  -7.2514200e-02
   5.9843700e-02  -2.1265800e-01  -6.9238000e-02
   6.0776100e-02  -2.1289200e-01  -6.6897900e-02
   5.8678300e-02  -2.1125600e-01  -5.7069200e-02
   5.5648300e-02  -2.1242400e-01  -5.5899200e-02
   5.4949000e-02  -2.1008700e-01  -5.3325000e-02
   5.1452800e-02  -2.1265800e-01  -4.7708700e-02
   5.4715900e-02  -2.1032100e-01  -4.6538600e-02
   5.5881400e-02  -2.0494500e-01  -3.9284100e-02
   4.7257300e-02  -2.0985300e-01  -3.5773900e-02
   4.2362600e-02  -2.1219000e-01  -3.2731700e-02
   3.9798700e-02  -2.0915200e-01  -2.5477300e-02
   3.5603300e-02  -2.0962000e-01  -2.5945300e-02
   3.2107000e-02  -2.0915200e-01  -2.4775200e-02
   3.2107000e-02  -2.0915200e-01  -2.0563000e-02
   2.9310100e-02  -2.1148900e-01  -1.1670400e-02
   2.3249900e-02  -2.1242400e-01  -6.5220700e-03
   1.9520600e-02  -2.1639700e-01  -5.1179800e-03
   1.6956700e-02  -2.1335900e-01   2.8385200e-03
   1.2994400e-02  -2.1265800e-01   3.0725300e-03
   8.5658000e-03  -2.1639700e-01   8.2208500e-03
   4.1372600e-03  -2.0962000e-01   1.4773300e-02
   4.0795100e-04  -2.1335900e-01   1.8517500e-02
  -5.8212500e-05  -2.1616400e-01   2.5303900e-02
  -7.5168200e-03  -2.1616400e-01   2.8580100e-02
  -1.7772400e-02  -2.2224000e-01   3.0218200e-02
  -1.4509300e-02  -2.1896800e-01   3.0920300e-02
  -1.1945400e-02  -2.1312500e-01   3.5132500e-02
  -1.7772400e-02  -2.1008700e-01   4.1216900e-02
  -2.4997900e-02  -2.1896800e-01   4.0514900e-02
  -2.9193400e-02  -2.1803300e-01   4.0280900e-02
  -3.1757300e-02  -2.1242400e-01   4.5897200e-02
  -3.3155800e-02  -2.1593000e-01   4.5663200e-02
  -3.3155800e-02  -2.0775000e-01   5.0343500e-02
  -3.4554300e-02  -2.0751600e-01   5.5959800e-02
  -3.2689600e-02  -2.0424400e-01   5.4555800e-02
  -3.0591900e-02  -1.9653200e-01   6.2278200e-02
  -3.2922700e-02  -2.0050500e-01   6.2044200e-02
  -3.1058100e-02  -1.9840100e-01   6.6490500e-02
  -2.7561800e-02  -1.9185700e-01   7.4447000e-02
  -2.8028000e-02  -1.8811800e-01   7.0936800e-02
  -2.8028000e-02  -1.8227500e-01   8.1935500e-02
  -2.5930300e-02  -1.7923700e-01   8.9189900e-02
  -2.4065600e-02  -1.7806800e-01   9.0126000e-02
  -2.0802500e-02  -1.7035500e-01   9.4806300e-02
  -1.5441600e-02  -1.6755100e-01   9.6678400e-02
  -1.2411500e-02  -1.5937100e-01   1.0627300e-01
  -1.0313800e-02  -1.5072300e-01   1.0978300e-01
  -7.7499000e-03  -1.4371200e-01   1.1305900e-01
  -8.9153100e-03  -1.2595000e-01   1.1867600e-01
  -8.4491500e-03  -1.1753600e-01   1.1703800e-01
   1.7486900e-04  -1.0958900e-01   1.1867600e-01
   3.9041700e-03  -9.9072300e-02   1.2218600e-01
   1.7486900e-04  -8.9957400e-02   1.2335600e-01
   1.1072000e-03  -8.1309900e-02   1.2405800e-01
   1.5733600e-03  -7.2662400e-02   1.2990800e-01
  -7.5745700e-04  -6.2379000e-02   1.3154700e-01
  -1.2236200e-03  -5.6068600e-02   1.2967400e-01
   4.8365000e-03  -4.5317700e-02   1.2944000e-01
   8.3327200e-03  -3.5268000e-02   1.3014300e-01
   3.2049300e-03  -2.7789100e-02   1.3271700e-01
   2.7387700e-03  -1.9609100e-02   1.3271700e-01
   3.4380100e-03  -4.6512800e-03   1.3575900e-01
  -5.8212500e-05   8.4367700e-03   1.3084500e-01
  -7.5745700e-04   1.2877400e-02   1.2756800e-01
   3.4380100e-03   2.6199100e-02   1.3061100e-01
   4.3703400e-03   3.6015200e-02   1.2850400e-01
  -1.6897800e-03   4.5831200e-02   1.2756800e-01
  -7.9829800e-03   6.1957600e-02   1.2616400e-01
  -1.4742300e-02   7.1773600e-02   1.2569600e-01
  -1.4276200e-02   8.2057100e-02   1.2265400e-01
  -8.9153100e-03   9.4444000e-02   1.2452600e-01
  -9.8476400e-03   1.0168900e-01   1.1961200e-01
  -6.5845000e-03   1.1244000e-01   1.1727200e-01
  -4.4867600e-03   1.2833300e-01   1.2733400e-01
  -1.0313800e-02   1.2950100e-01   1.1891000e-01
  -1.0313800e-02   1.4235600e-01   1.2265400e-01
  -1.1246100e-02   1.6058500e-01   1.2756800e-01
  -1.3576900e-02   1.6245500e-01   1.1867600e-01
  -7.0506600e-03   1.7601100e-01   1.2265400e-01
  -5.6521700e-03   1.8535900e-01   1.2546200e-01
  -9.8476400e-03   1.9540900e-01   1.2803600e-01
  -1.0313800e-02   2.0849700e-01   1.2780200e-01
  -1.3343900e-02   2.1597600e-01   1.2897200e-01
  -1.6140800e-02   2.2766200e-01   1.3131300e-01
  -1.0546900e-02   2.3420600e-01   1.2873800e-01
  -5.8852500e-03   2.4425500e-01   1.3201500e-01
  -6.8175800e-03   2.4986500e-01   1.2967400e-01
  -8.6822300e-03   2.5851200e-01   1.2827000e-01
  -1.1712300e-02   2.6856200e-01   1.3131300e-01
  -1.0546900e-02   2.7534000e-01   1.2710000e-01
  -5.4190900e-03   2.9286800e-01   1.2780200e-01
  -7.2837400e-03   2.9988000e-01   1.2663200e-01
  -1.1246100e-02   3.0619000e-01   1.2195200e-01
  -1.1479200e-02   3.1670700e-01   1.2780200e-01
  -1.2178500e-02   3.2208300e-01   1.2522800e-01
  -1.4975400e-02   3.3073000e-01   1.2593000e-01
  -2.2201000e-02   3.3774200e-01   1.2967400e-01
  -2.7561800e-02   3.4358400e-01   1.2312200e-01
  -2.5231000e-02   3.4592200e-01   1.2522800e-01
  -1.9637100e-02   3.5643900e-01   1.2382400e-01
  -1.7539300e-02   3.6695600e-01   1.2452600e-01
  -1.9404000e-02   3.6835800e-01   1.2710000e-01
  -2.1967900e-02   3.7887500e-01   1.2359000e-01
  -2.3366400e-02   3.9173000e-01   1.2265400e-01
  -2.3599400e-02   4.0154600e-01   1.1844200e-01
  -2.7095700e-02   4.0925800e-01   1.1750600e-01
  -2.9426500e-02   4.1767200e-01   1.1493200e-01
  -2.4997900e-02   4.2024300e-01   1.1376100e-01
  -2.0336300e-02   4.2842300e-01   1.1376100e-01
  -2.2900200e-02   4.3753800e-01   1.1001700e-01
  -2.3832500e-02   4.3683700e-01   1.1142100e-01
  -1.7772400e-02   4.4548400e-01   1.1680400e-01
  -1.8937800e-02   4.4899000e-01   1.1563400e-01
  -2.0569400e-02   4.5763800e-01   1.1469800e-01
  -1.7306200e-02   4.6441500e-01   1.1797400e-01
  -1.6607000e-02   4.6558400e-01   1.1493200e-01
  -1.4043100e-02   4.7540000e-01   1.1727200e-01
  -1.4276200e-02   4.7353000e-01   1.1633600e-01
  -1.5674700e-02   4.7867200e-01   1.1633600e-01
  -9.3814700e-03   4.7797100e-01   1.1774000e-01
  -3.7875200e-03   4.7890600e-01   1.1516600e-01
  -3.5544400e-03   4.8451500e-01   1.1797400e-01
  -2.6221100e-03   4.8428100e-01   1.1423000e-01
  -4.7198400e-03   4.9292900e-01   1.2008000e-01
  -8.2160700e-03   4.8568300e-01   1.1961200e-01
  -2.6221100e-03   4.8731900e-01   1.1750600e-01
   1.1072000e-03   4.9222700e-01   1.1961200e-01
  -5.8212500e-05   4.9082500e-01   1.1540000e-01
   2.2726000e-03   5.0181000e-01   1.2171800e-01
   4.6034200e-03   4.9713500e-01   1.1352700e-01
   9.2650500e-03   4.9316200e-01   1.1680400e-01
   1.4392800e-02   4.9292900e-01   1.2078200e-01
   1.9054500e-02   4.8872200e-01   1.1235700e-01
   2.4415300e-02   4.8895500e-01   1.1633600e-01
   2.6513100e-02   4.8568300e-01   1.0861300e-01
   2.5813800e-02   4.8451500e-01   1.1025100e-01
   2.7212300e-02   4.8498200e-01   1.1118700e-01
   3.4670900e-02   4.8404700e-01   1.1259100e-01
   4.0031800e-02   4.7960700e-01   1.1259100e-01
   3.9798700e-02   4.7423100e-01   1.0533700e-01
   3.8167200e-02   4.7282900e-01   1.0884700e-01
   3.8866400e-02   4.7166000e-01   1.0533700e-01
   4.0731100e-02   4.7119300e-01   1.1329300e-01
   3.6535600e-02   4.6464900e-01   1.1118700e-01
   3.2806300e-02   4.5974100e-01   1.0323100e-01
   3.5137100e-02   4.5974100e-01   1.0650700e-01
   3.8633300e-02   4.5459900e-01   9.6444400e-02
   4.0031800e-02   4.5296300e-01   9.6912400e-02
   3.9099500e-02   4.4641900e-01   9.5040300e-02
   3.9565600e-02   4.4268000e-01   9.4338300e-02
   3.5836300e-02   4.4384800e-01   9.1998100e-02
   3.2806300e-02   4.3823900e-01   8.3573600e-02
   3.2340100e-02   4.3800500e-01   8.5679700e-02
   3.2573200e-02   4.3146100e-01   7.5851100e-02
   3.3272400e-02   4.2935800e-01   7.7957200e-02
   2.5580800e-02   4.2561900e-01   7.8191200e-02
   2.2783800e-02   4.1276400e-01   7.2808900e-02
   2.0919100e-02   4.1486800e-01   7.5851100e-02
   1.4159800e-02   4.0738900e-01   6.1810200e-02
   1.5092100e-02   4.0551900e-01   6.2044200e-02
   1.4859000e-02   4.0271400e-01   6.0874200e-02
   1.6723700e-02   3.9149600e-01   5.4087700e-02
   1.2295100e-02   3.9546900e-01   5.9002000e-02
   1.5733600e-03   3.8238100e-01   4.7535300e-02
  -5.2437600e-04   3.7700600e-01   4.3791100e-02
  -4.0206000e-03   3.7887500e-01   4.3323100e-02
  -7.2837400e-03   3.6578700e-01   3.5132500e-02
  -2.1559500e-03   3.6134700e-01   3.3026400e-02
   2.9718500e-03   3.5667300e-01   3.1622300e-02
  -5.2437600e-04   3.4732400e-01   2.7878100e-02
  -7.2837400e-03   3.3891000e-01   1.9219500e-02
  -1.4742300e-02   3.3540400e-01   1.2901100e-02
  -1.8005500e-02   3.3002900e-01   7.0507800e-03
  -1.4742300e-02   3.2652300e-01   2.1364700e-03
  -1.4043100e-02   3.1927800e-01  -6.7170500e-04
  -1.0546900e-02   3.0759200e-01  -3.7139000e-03
  -9.8476400e-03   3.0502100e-01  -7.4581300e-03
  -9.3814700e-03   2.9473800e-01  -1.5414600e-02
  -5.6521700e-03   2.9123200e-01  -2.2669100e-02
  -1.0080700e-02   2.8702500e-01  -2.2201100e-02
  -1.3343900e-02   2.7300200e-01  -2.6647300e-02
  -1.1013000e-02   2.6786100e-01  -3.5305900e-02
  -7.9829800e-03   2.5874600e-01  -3.6007900e-02
  -6.3514100e-03   2.5430500e-01  -4.1156200e-02
  -6.1183300e-03   2.4635900e-01  -4.6304600e-02
  -2.6221100e-03   2.3677700e-01  -5.3091000e-02
   3.4380100e-03   2.3794500e-01  -5.4963100e-02
   6.7011500e-03   2.2859700e-01  -5.6601200e-02
   5.3026600e-03   2.1807900e-01  -6.5961800e-02
   9.0319700e-03   2.1200300e-01  -6.5961800e-02
   1.1129700e-02   2.0803000e-01  -7.2280200e-02
   1.0430500e-02   2.0148600e-01  -7.8832600e-02
   1.8355200e-02   1.9260400e-01  -8.1172800e-02
   1.9520600e-02   1.8722900e-01  -8.7725200e-02
   1.7889100e-02   1.7928300e-01  -9.2171400e-02
   1.9054500e-02   1.7741300e-01  -9.8723900e-02
   1.7656000e-02   1.7133600e-01  -1.0317000e-01
   2.2783800e-02   1.6058500e-01  -1.0761600e-01
   2.6513100e-02   1.5731300e-01  -1.0527600e-01
   2.8843900e-02   1.5170400e-01  -1.0855200e-01
   3.0941600e-02   1.4866600e-01  -1.1791300e-01
   2.6046900e-02   1.4539400e-01  -1.1767900e-01
   2.4881500e-02   1.3768100e-01  -1.2446500e-01
   2.7445400e-02   1.3721400e-01  -1.2774200e-01
   2.7445400e-02   1.3698000e-01  -1.2891200e-01
   2.3949200e-02   1.3300700e-01  -1.3242200e-01
   2.2783800e-02   1.2552800e-01  -1.3101800e-01
   2.7678500e-02   1.2108800e-01  -1.3312400e-01
   3.1640900e-02   1.2412600e-01  -1.3733600e-01
   3.3272400e-02   1.2178900e-01  -1.3967600e-01
   3.0242400e-02   1.1734800e-01  -1.3967600e-01
   2.7212300e-02   1.1197300e-01  -1.4014400e-01
   2.9310100e-02   1.0940200e-01  -1.3827200e-01
   2.8377700e-02   1.0870100e-01  -1.3780400e-01
   2.6746200e-02   1.0402600e-01  -1.4108100e-01
   3.0009300e-02   1.0379300e-01  -1.3991000e-01
   3.3272400e-02   1.0192300e-01  -1.3803800e-01
   3.2107000e-02   1.0028700e-01  -1.3499600e-01
   2.6280000e-02   1.0122200e-01  -1.3055000e-01
   2.1618400e-02   9.4911400e-02  -1.3101800e-01
   2.3016900e-02   9.1172000e-02  -1.3031600e-01
   2.1618400e-02   9.1639400e-02  -1.2540200e-01
   1.9287600e-02   9.0237100e-02  -1.2352900e-01
