**************************************************************************************
  	RED ACELEROGRÁFICA DE LA UNIVERSIDAD AUTONOMA METROPOLITANA (RA-UAM)
	   UNIDAD AZCAPOTZALCO. DIVISIÓN CBI-DEPARTAMENTO DE MATERIALES
     Av. San Pablo 420, Col. Nueva el Rosario, Azcapotzalco, C.P. 02128, Ciudad de México
		Área de Estructuras. e-mail: agb@azc.uam.mx
**************************************************************************************
ARCHIVO ESTANDAR DE ACELERACION:
VERSION DEL FORMATO                    : 2.0
NOMBRE DEL ARCHIVO                     : RIDX202406.231
FECHA Y HORA DE CREACION               : 11:30 a. m. 28/06/2024
REF. CATALOGO ACELEROGRAMAS, SMIS 1999 : REGISTRO NO.      /PAG.    


================================================================================
DATOS DE LA ESTACION:
NOMBRE DE LA ESTACION                  : UAM-XOCHIMILCO.
CLAVE DE LA ESTACION                   : RIDX
LOCALIZACION DE LA ESTACION            : CALZADA DEL HUESO 1100, COL. VILLA
                                       : QUIETUD, DEL. COYOACAN, C.P.04960,  
                                       : CIUDAD DE MEXICO.
                                       : 
                                       : 
COORDENADAS DE LA ESTACION             : 19.301345 LAT. N
                                       : 99.10268 LONG. W
ALTITUD (msnm)                         : 2232
TIPO DE SUELO                          : LAGO
                                       : 
                                       : 
INSTITUCION RESPONSABLE                : UNIVERSIDAD AUTONOMA METROPOLITANA
                                       : 

================================================================================
DATOS DEL ACELEROGRAFO: 
MODELO DEL ACELEROGRAFO                : BASALT KINEMETRICS
NUMERO DE SERIE DEL ACELEROGRAFO       : 1729
NUMERO DE CANALES                      : 3
ORIENTACION C1-C6 (rumbo;orientacion)  : /V/N00E/N90E
ORIENTACION C7-C12 (rumbo;orientacion) : 
VEL. DE MUESTREO, C1-C6 (muestras/s)   : /200/200/200
VEL. DE MUESTREO, C7-C12 (muestras/s)  : 
ESC. COMPLETA DE SENSORES, C1-C6, (g)  : /2/2/2
ESC. COMPLETA DE SENSORES, C7-C12 (g)  : 
FREC. NAT. DE SENSORES, C1-C6, (Hz)    : /208/210/200   
FREC. NAT. DE SENSORES, C7-C12 (Hz)    : 
AMORTIGUAMIENTO DE SENSORES, C1-C6     : /0.7/0.7/0.7      
AMORTIGUAMIENTO DE SENSORES, C7-C12    : 
INTERVALO DE MUESTREO, C1-C6 (s)       : /0.005/0.005/0.005
INTERVALO DE MUESTREO, C7-C12 (s)      : 
UMBRAL DE DISPARO, C1-C6 (Gal)         : /2/2/2
UMBRAL DE DISPARO, C7-C12 (Gal)        : 
MEMORIA DE PREEVENTO (s)               : 60
TIEMPO DE POSEVENTO (s)                : 80


================================================================================
DATOS DEL SISMO:
FECHA DEL SISMO [GMT]                  : 2022/10/27
HORA EPICENTRO (GMT)                   : 14:02:07
MAGNITUD(ES)                           : /M=4.8
COORDENADAS DEL EPICENTRO              : 16.0500 LAT. N
                                       : -99.2000 LONG. W
PROFUNDIDAD FOCAL (Km)                 : 16.0
FUENTE DE LOS DATOS EPICENTRALES       : SSN
                                       : INSTITUTO DE GEOFISICA, UNAM

================================================================================
DATOS DE ESTE REGISTRO:
HORA DE LA PRIMERA MUESTRA (GMT)       : 14:00:52.000
EXACTITUD DEL TIEMPO (s)               : 
DURACION DEL REGISTRO (s), C1-C6       : /323/323/323
DURACION DEL REGISTRO (s), C7-C12      : 
NUM. TOTAL DE MUESTRAS, C1-C6          : /64600/64600/64600
NUM. TOTAL DE MUESTRAS, C7-C12         : 
ACEL. MAX.(Gal), C1-C6                 : /-1.882/-2.051/2.041
ACEL. MAX., C1-C6, EN LA MUESTRA       : /47981/12609/13222
ACEL. MAX.(Gal), C7-C12                : 
ACEL. MAX., C7-C12,EN LA MUESTRA       : 
UNIDADES DE LOS DATOS                  : Gal (cm/s/s)
FACTOR DE DECIMACION                   : 1
FORMATO DATOS (FORTRAN,16 campos/dato) : 3E16.7


================================================================================
CALIDAD DEL ACELEROGRAMA:
REGISTRO DIGITAL COMPLETO CON TIEMPO ABSOLUTO CORRECTO


================================================================================
COMENTARIOS:














================================================================================
DATOS DE ACELERACION:
---------+---------+---------+---------+---------+---------+---------+---------+
   CANAL-1   	      CANAL-2          CANAL-3
      V                 N00E             N90E
---------+---------+---------+---------+---------+---------+---------+---------+
[...]
  -8.8995100e-02   4.2229800e-02  -4.9749500e-02
  -9.1559000e-02   6.4199000e-02  -5.9812200e-02
  -8.6198100e-02   1.0229500e-01  -5.2557700e-02
  -7.1980100e-02   1.3828700e-01  -3.9218900e-02
  -8.6431200e-02   1.4553200e-01  -8.4047100e-04
  -1.3328100e-01   1.2753600e-01   4.8068600e-02
  -1.5355900e-01   1.5347800e-01   5.3450900e-02
  -1.1649900e-01   2.3855100e-01   4.3078500e-03
  -4.4709600e-02   2.3527900e-01  -5.6770000e-02
   1.3560800e-02   6.6302500e-02  -5.9344100e-02
   3.8733600e-02  -2.4640900e-01  -2.1199700e-02
   2.7512600e-04  -6.1217300e-01   1.9518800e-02
  -1.1020600e-01  -8.5897600e-01   4.7132500e-02
  -2.8571600e-01  -8.8375000e-01   6.3747600e-02
  -4.5073800e-01  -6.3601200e-01   6.2343500e-02
  -5.0597800e-01  -1.6858100e-01  -8.3289400e-03
  -4.4304600e-01   3.6312100e-01  -1.3305900e-01
  -2.4282900e-01   8.1325600e-01  -2.4819400e-01
   1.7989300e-02   1.0427600e+00  -2.6878700e-01
   2.2077000e-01   9.6096500e-01  -1.9343500e-01
   3.1913100e-01   6.1530000e-01  -1.1106100e-01
   3.1610100e-01   2.0396100e-01  -3.4538600e-02
   3.0188300e-01  -6.6447800e-02   1.0392200e-02
   3.0001800e-01  -1.7068500e-01   2.7007300e-02
   2.6086000e-01  -2.4897900e-01   3.8006000e-02
   1.5177800e-01  -3.5719000e-01   5.2514900e-02
   3.0721000e-03  -4.3758800e-01   9.6041600e-02
  -1.3444600e-01  -4.3828900e-01   1.4331300e-01
  -2.1882200e-01  -3.1862700e-01   1.5384300e-01
  -2.0553600e-01  -1.3796500e-01   1.0540200e-01
  -1.4423500e-01   7.4062200e-03   2.5837200e-02
  -6.8250800e-02   9.8087700e-02  -4.1793000e-02
   1.4260000e-02   1.3711800e-01  -6.5662500e-02
   8.6748400e-02   1.5020600e-01  -6.3322400e-02
   1.6459800e-01   1.5815300e-01  -5.4429800e-02
   2.2799600e-01   1.5768500e-01  -5.5131900e-02
   2.6901800e-01   1.6867000e-01  -6.2386300e-02
   2.7810800e-01   2.0302600e-01  -3.1028400e-02
   2.4827400e-01   2.4766600e-01   8.7541300e-03
   2.0212400e-01   2.6122100e-01   5.1812800e-02
   1.5947000e-01   2.1073900e-01   7.7788500e-02
   1.3756000e-01   1.1772000e-01   6.4917700e-02
   1.2007900e-01   1.0678200e-02   5.6259100e-02
   9.5605500e-02  -8.6313600e-02   4.5260400e-02
   7.9989000e-02  -1.4357400e-01   3.1219500e-02
   7.9989000e-02  -1.4778100e-01   1.2966400e-02
   8.2086700e-02  -1.1435900e-01  -2.0029700e-02
   8.5816000e-02  -5.6865500e-02  -4.9281500e-02
   1.0516200e-01   1.0959000e-03  -5.6770000e-02
   1.3150000e-01   4.2229800e-02  -4.2729100e-02
   1.5480800e-01   6.0693300e-02  -1.2541200e-02
   1.6203400e-01   6.5133900e-02   2.6071200e-02
   1.5667300e-01   8.0091700e-02   4.9238700e-02
   1.5061300e-01   8.4298500e-02   4.9004700e-02
   1.3756000e-01   6.4900200e-02   2.5135200e-02
   1.1774800e-01   3.7088100e-02  -1.3085000e-03
   1.0026700e-01   2.2644800e-03  -1.0903100e-02
   9.6071600e-02  -3.2091700e-02  -9.9670400e-03
   1.0236500e-01  -5.8735200e-02   4.5418700e-03
   1.0119900e-01  -7.6263900e-02   1.5774600e-02
   9.0244600e-02  -8.0003300e-02   2.1156900e-02
   8.7680700e-02  -7.0187300e-02   2.4433100e-02
   8.1387500e-02  -3.8869400e-02   2.0688900e-02
   8.6049100e-02  -1.1291000e-02   3.1377800e-03
   9.1876200e-02   7.8736500e-03  -1.0201100e-02
   6.9267300e-02   2.6337200e-02  -1.7455500e-02
   5.2019200e-02   3.7555500e-02  -3.6644700e-02
   2.2651000e-02   6.4666500e-02  -3.3134500e-02
   3.3051900e-03   6.8639600e-02  -3.7814800e-02
  -9.2812200e-03   5.6019000e-02  -3.8516800e-02
  -3.4920200e-02   2.0494300e-02  -1.3009200e-02
  -3.3987900e-02  -3.1390500e-02   5.4779200e-03
  -4.0048000e-02  -5.7099200e-02   2.8411400e-02
  -4.0514100e-02  -6.7616400e-02   3.1219500e-02
  -4.0048000e-02  -3.9804300e-02   3.6601900e-02
  -4.3311100e-02  -1.9938500e-02   4.0580100e-02
  -4.4010400e-02  -1.9471000e-02   2.8411400e-02
  -6.4754600e-02  -3.3961400e-02   2.3965100e-02
  -6.3356100e-02  -6.9953500e-02   2.6697500e-03
  -6.0093000e-02  -8.6547300e-02  -7.6269000e-03
  -6.1957600e-02  -8.6547300e-02  -1.4179300e-02
  -7.4077900e-02  -6.8317500e-02  -2.4007900e-02
  -1.0274700e-01  -2.9754500e-02  -1.6519500e-02
  -1.0810800e-01   1.6754800e-02  -9.7330300e-03
  -1.1253600e-01   4.0126400e-02   1.0316500e-03
  -1.1253600e-01   4.1528600e-02  -3.8826600e-03
  -1.0904000e-01   2.9609200e-02  -1.9795700e-02
  -1.0740900e-01   6.0039200e-03  -3.1496400e-02
  -8.9461300e-02  -1.9704800e-02  -3.8048800e-02
  -7.0814700e-02  -3.9103100e-02  -3.7346800e-02
  -5.0769700e-02  -5.3593500e-02  -3.7346800e-02
  -5.3100500e-02  -6.4578100e-02  -2.8688200e-02
  -7.8972600e-02  -5.8501500e-02  -2.2369800e-02
  -1.0531100e-01  -4.7049400e-02  -1.3711300e-02
  -1.3701000e-01  -2.1574500e-02  -1.7765300e-03
  -1.6847600e-01  -5.2144100e-03   2.4357300e-03
  -2.0343800e-01  -1.9423900e-03   1.6476600e-02
  -2.1672400e-01  -3.5784000e-03   2.1390900e-02
  -2.1416000e-01  -1.9704800e-02   1.6242600e-02
  -2.1928800e-01  -3.0689400e-02   1.1796300e-02
  -2.0110700e-01  -3.0689400e-02  -5.9887900e-03
  -1.6870900e-01  -1.1291000e-02  -1.7923500e-02
  -1.2652100e-01   1.6754800e-02  -2.8454200e-02
  -7.1514000e-02   4.3865800e-02  -3.5708700e-02
  -2.7228500e-02   5.6720100e-02  -3.5006600e-02
   8.4329800e-03   5.9524700e-02  -3.6410700e-02
   2.8244900e-02   5.7187600e-02  -2.7986200e-02
   2.2651000e-02   5.2980700e-02  -3.9920900e-02
  -1.9103700e-04   4.2697200e-02  -5.6067900e-02
  -1.7206000e-02   3.8490300e-02  -6.0514200e-02
  -2.6762300e-02   8.4532300e-02  -4.0857000e-02
  -3.5386300e-02   1.4272700e-01  -2.4785700e-03
  -5.7849900e-03   2.3340900e-01  -1.0903100e-02
   4.3162100e-02   3.3156900e-01  -3.9686900e-02
   3.5703500e-02   2.6145500e-01  -6.6364600e-02
  -6.1025300e-02  -7.2057000e-02  -5.0217600e-02
  -1.9085200e-01  -5.6215800e-01   9.6901900e-03
  -2.7429500e-01  -9.2137800e-01   2.8645400e-02
  -3.0412900e-01  -8.8772300e-01  -1.6753500e-02
  -3.1158800e-01  -5.0302800e-01  -1.1784800e-01
  -3.3419700e-01  -5.1490000e-02  -1.7588300e-01
  -3.3652800e-01   2.8085300e-01  -1.0755100e-01
  -2.6590400e-01   4.1009800e-01   1.6944600e-02
  -1.4423500e-01   3.5096800e-01   1.0025400e-01
  -2.1168400e-02   1.9157400e-01   6.9363900e-02
   3.1741100e-02   1.5352500e-02  -6.4258400e-02
   1.7756200e-02  -3.8635700e-02  -1.8267000e-01
   3.0342600e-02   1.2379600e-01  -2.1168800e-01
   1.3406400e-01   4.8558800e-01  -1.3142100e-01
   3.3264900e-01   8.2213800e-01   9.4561700e-03
   5.0443000e-01   8.3709500e-01   1.3348400e-01
   5.1002400e-01   4.3720900e-01   2.0392200e-01
   3.5549100e-01  -2.0176900e-01   2.1772900e-01
   7.5560500e-02  -7.5380400e-01   2.3340800e-01
  -2.3607000e-01  -9.8962300e-01   2.0181600e-01
  -4.2323400e-01  -8.5874300e-01   8.2000700e-02
  -4.4164700e-01  -4.7942300e-01  -2.9156200e-02
  -3.4958000e-01  -9.3091400e-02  -7.3853100e-02
  -2.4329500e-01   1.3945500e-01  -4.6005300e-02
  -1.4283700e-01   2.4556200e-01   5.7119400e-03
  -2.2100700e-02   2.8155400e-01   4.5494400e-02
   8.9079200e-02   2.8926700e-01   6.5619700e-02
   1.7182300e-01   2.8435900e-01   6.0003300e-02
   2.4384500e-01   2.5958500e-01   5.1812800e-02
   2.8580000e-01   2.3130500e-01   4.5728400e-02
   2.7088300e-01   2.0022100e-01   3.3559700e-02
   2.5246900e-01   1.7030600e-01   1.0392200e-02
   2.5060500e-01   1.0977400e-01  -1.6519500e-02
   2.4011600e-01   2.9842900e-02  -3.3602500e-02
   2.0025900e-01  -2.6015100e-02  -2.1199700e-02
   1.1541700e-01  -5.9903800e-02   3.3717900e-03
   3.1041900e-02  -6.5746700e-02   1.4838500e-02
  -2.5830000e-02  -6.4110700e-02   2.4433100e-02
  -5.1702100e-02  -6.8317500e-02   2.6773300e-02
  -2.2566900e-02  -6.9252400e-02   2.7475300e-02
   5.6214700e-02  -6.5279200e-02   2.1390900e-02
   1.3802600e-01  -4.2608900e-02   1.3434400e-02
   2.0119100e-01  -7.7852800e-03  -3.1806200e-03
   2.3708600e-01   3.1712600e-02  -2.2369800e-02
   2.4174800e-01   6.3264200e-02  -2.2603800e-02
   2.3009400e-01   8.2662500e-02  -3.0092300e-02
   2.0981500e-01   1.1164300e-01  -3.8984900e-02
   2.0398800e-01   1.2286200e-01  -4.0623000e-02
   1.9536400e-01   1.1678500e-01  -3.2432500e-02
   1.8650700e-01   8.9206600e-02  -3.1028400e-02
   1.7788300e-01   2.3532600e-02  -3.2666500e-02
   1.5434200e-01  -4.0739100e-02  -2.3773900e-02
   1.2101100e-01  -9.6597100e-02  -1.4881400e-02
   6.3673300e-02  -1.2744700e-01   9.4561700e-03
   2.6613300e-02  -1.2627900e-01   2.4901100e-02
   4.7036800e-03  -1.0991900e-01   3.3559700e-02
  -1.3010500e-02  -7.4394100e-02   3.5899800e-02
  -1.3476700e-02  -3.8402000e-02   2.0454900e-02
   7.4128900e-04  -5.2144100e-03  -3.8826600e-03
   3.5004300e-02   2.7739400e-02  -3.3602500e-02
   4.8523000e-02   4.3164700e-02  -4.4133200e-02
   5.3184600e-02   5.0643500e-02  -4.2027100e-02
   5.0387700e-02   5.2980700e-02  -2.7284100e-02
   3.4771200e-02   4.6203000e-02  -1.4647300e-02
   1.5891600e-02   5.2045800e-02  -2.7125900e-03
  -1.3010500e-02   6.3731600e-02   1.0392200e-02
  -2.1168400e-02   6.1628200e-02   1.8582700e-02
  -1.7672200e-02   4.4800700e-02   3.8006000e-02
  -6.0180700e-03   1.3716500e-02   4.0580100e-02
  -6.2511600e-03  -2.3911600e-02   3.6367900e-02
  -1.7905200e-02  -5.3593500e-02   2.5837200e-02
  -3.6318700e-02  -6.9719800e-02   1.1328300e-02
  -6.8483900e-02  -7.2057000e-02  -1.3085000e-03
  -7.1514000e-02  -5.5229500e-02  -1.4881400e-02
  -7.4777100e-02  -1.2459600e-02  -1.2073200e-02
  -7.0348600e-02   3.7088100e-02  -1.2775200e-02
  -5.2867500e-02   6.6536200e-02  -1.1137100e-02
  -5.8694500e-02   7.9858000e-02  -1.3711300e-02
  -6.5686900e-02   6.9340800e-02  -1.7455500e-02
  -7.9671800e-02   5.3214400e-02  -2.4476000e-02
  -7.8972600e-02   4.3398400e-02  -4.2027100e-02
  -5.5431400e-02   2.5168600e-02  -5.8642100e-02
  -5.3333600e-02   1.2080500e-02  -6.9172800e-02
  -7.6408700e-02  -4.0458300e-03  -5.4897900e-02
  -8.8528900e-02  -2.5313900e-02  -4.0154900e-02
  -7.8040300e-02  -4.5880900e-02  -1.7221500e-02
  -7.1280900e-02  -5.1957500e-02   6.6480000e-03
  -8.3168100e-02  -4.7049400e-02   9.9242000e-03
  -1.0158200e-01  -4.0271700e-02   1.3902500e-02
  -1.1067200e-01  -2.2509300e-02   5.9459500e-03
  -1.2255900e-01  -1.3861900e-02   6.4139800e-03
  -1.1719800e-01  -3.3446900e-03   1.8348700e-02
  -8.7363500e-02   2.3766300e-02   3.4729800e-02
  -4.8438900e-02   4.2463500e-02   4.4324400e-02
  -2.1401500e-02   4.7137800e-02   2.1859000e-02
  -5.8927600e-02   6.1628200e-02   7.1160300e-03
  -1.1183700e-01   8.7103100e-02  -1.2073200e-02
  -1.2349100e-01   1.4857000e-01  -1.9561600e-02
  -9.6919900e-02   2.3387600e-01   7.1160300e-03
   2.3816400e-02   3.5984900e-01  -5.2867500e-03
   2.4081500e-01   6.4778600e-01  -5.2557700e-02
   3.3241600e-01   8.1629500e-01  -1.0193500e-01
   1.4026900e-02   2.3738200e-01  -9.5382400e-02
  -5.3371500e-01  -1.0319300e+00  -9.4990100e-03
  -7.8940500e-01  -2.0219400e+00   3.3559700e-02
  -6.5701500e-01  -2.0509200e+00  -2.3305900e-02
  -5.3860900e-01  -1.4049400e+00  -1.7962800e-01
  -6.5608200e-01  -6.3344100e-01  -3.2658900e-01
  -7.2880400e-01   3.7789200e-02  -2.2385600e-01
  -5.1926400e-01   6.0945700e-01   6.7491800e-02
  -1.5146100e-01   1.1628900e+00   2.1866500e-01
   1.6529700e-01   1.6445800e+00   1.0376400e-01
   3.7134100e-01   1.7287200e+00  -9.9126600e-02
   5.7691900e-01   1.3365400e+00  -1.7167100e-01
   7.5802300e-01   8.3148600e-01  -1.0567900e-01
   7.6664700e-01   4.3370300e-01  -1.8625600e-02
   6.1024900e-01   8.1073600e-03   6.3279600e-02
   3.9068700e-01  -5.8810000e-01   1.3722800e-01
   1.4105600e-01  -1.2081500e+00   1.4822700e-01
  -2.1649100e-01  -1.5570800e+00   7.8724500e-02
  -6.2671400e-01  -1.4738800e+00  -5.5207600e-03
  -8.8054000e-01  -1.0108900e+00  -5.9887900e-03
  -9.1550200e-01  -4.0977600e-01   4.8302600e-02
  -7.8241300e-01   1.0954000e-01   1.1055100e-01
  -5.1367000e-01   5.1082900e-01   1.4799300e-01
  -1.7104000e-01   7.6487700e-01   1.0423200e-01
   1.6879300e-01   7.7072000e-01   4.1984200e-02
   4.2075400e-01   5.7182900e-01  -2.0105400e-03
   5.3939300e-01   3.4582600e-01  -3.6410700e-02
   5.8041500e-01   1.5020600e-01  -5.2791700e-02
   5.7132500e-01  -7.7381800e-04  -4.7643400e-02
   5.0396400e-01  -5.5696900e-02  -2.1667800e-02
   3.7157400e-01  -4.3777400e-02   1.2030300e-02
   1.9746200e-01  -4.5132600e-03   4.1750200e-02
   5.5981600e-02   3.6620600e-02   3.7537900e-02
  -4.9604300e-02   4.2229800e-02   3.5431800e-02
  -1.1766400e-01  -1.1057300e-02   5.2280900e-02
  -1.4167200e-01  -8.7482200e-02   6.5853700e-02
  -1.3864100e-01  -1.3025200e-01   7.8022500e-02
  -1.0787500e-01  -1.4708000e-01   5.1578800e-02
  -5.8228300e-02  -1.4661200e-01  -1.0435100e-02
   2.1951700e-02  -1.2791500e-01  -5.9578200e-02
   1.2334200e-01  -7.8367300e-02  -7.2214900e-02
   2.0771800e-01   2.2130300e-02  -6.0046200e-02
   2.4664200e-01   1.5020600e-01  -5.0217600e-02
   2.5619900e-01   2.5327500e-01  -3.9686900e-02
   2.4850700e-01   2.9277300e-01  -1.7221500e-02
   2.1867300e-01   2.5117100e-01   2.1859000e-02
   1.8604100e-01   1.6422900e-01   5.5557100e-02
   1.4525200e-01   8.5700800e-02   6.4683600e-02
   1.0516200e-01  -2.4098300e-03   5.6493100e-02
   7.2763500e-02  -9.8233100e-02   3.6835900e-02
   5.2252300e-02  -1.8798000e-01   2.2561000e-02
   4.1297500e-02  -2.3565800e-01   2.4357300e-03
   3.1041900e-02  -1.9919800e-01  -2.9624300e-02
   4.5492900e-02  -1.3165400e-01  -6.0280200e-02
   6.1109400e-02  -5.9202600e-02  -6.8470700e-02
   5.3417700e-02   6.0039200e-03  -4.9983600e-02
   1.5425400e-02   4.1762400e-02  -3.6644700e-02
  -3.8183300e-02   4.9475000e-02  -3.6644700e-02
  -4.8205800e-02   3.7789200e-02  -4.6707300e-02
  -1.8138300e-02   5.6720100e-02  -4.2027100e-02
   1.0530700e-02   1.0556700e-01  -2.3071900e-02
   1.5192300e-02   1.5464700e-01  -3.1806200e-03
   1.1463000e-02   1.7965400e-01   2.1390900e-02
   4.1763600e-02   1.3314500e-01   3.6601900e-02
   7.8823600e-02   4.4099500e-02   4.7600600e-02
   1.0026700e-01  -5.4528300e-02   4.1282200e-02
   1.0632700e-01  -1.2604500e-01   2.9347400e-02
   6.8568000e-02  -1.3072000e-01   3.4729800e-02
   2.4748700e-02  -9.5662200e-02   2.3263000e-02
  -6.5720000e-04  -2.7417400e-02   6.8820100e-03
  -1.6040600e-02   2.8908000e-02  -3.7244200e-04
  -2.8160800e-02   4.5969200e-02  -1.9093600e-02
  -5.2634400e-02   4.8072700e-02  -4.0389000e-02
  -7.0115500e-02   4.1061200e-02  -6.0748200e-02
  -8.2468800e-02   4.0360100e-02  -7.5959200e-02
  -8.7596600e-02   5.4850400e-02  -7.7363300e-02
  -8.7363500e-02   6.9340800e-02  -7.3151000e-02
  -8.5732000e-02   6.1628200e-02  -6.4960500e-02
  -7.7574100e-02   5.5785300e-02  -5.0685600e-02
  -7.5476400e-02   5.2279500e-02  -4.2027100e-02
  -5.8228300e-02   3.6153200e-02  -3.6410700e-02
  -1.6739800e-02   7.8736500e-03  -2.9390300e-02
   1.9154700e-02  -3.1390500e-02  -2.4710000e-02
   1.0996900e-02  -7.0654700e-02  -9.4990100e-03
  -2.0236000e-02  -1.1973500e-01   8.2861000e-03
  -3.9348700e-02  -1.3632900e-01   1.8348700e-02
  -5.7762200e-02  -1.1085400e-01   1.9518800e-02
  -7.2213200e-02  -7.3225600e-02   6.1799700e-03
  -6.6153100e-02  -2.2976800e-02  -1.1839200e-02
  -1.8837600e-02   3.9892600e-02  -2.7050100e-02
   3.4071900e-02   1.2613400e-01  -3.1730400e-02
   4.6192200e-02   2.0886900e-01  -3.1730400e-02
   2.1718600e-02   2.5421000e-01  -3.3134500e-02
  -2.8393900e-02   2.7057000e-01  -2.9858300e-02
  -1.0064900e-01   2.3317500e-01  -8.7969700e-03
  -1.3934100e-01   1.8900300e-01   2.5369200e-02
  -1.2544400e-02   2.6145500e-01   7.1002000e-02
   1.9839400e-01   3.5704400e-01   1.1218900e-01
