**************************************************************************************
  	RED ACELEROGRÁFICA DE LA UNIVERSIDAD AUTONOMA METROPOLITANA (RA-UAM)
	   UNIDAD AZCAPOTZALCO. DIVISIÓN CBI-DEPARTAMENTO DE MATERIALES
     Av. San Pablo 420, Col. Nueva el Rosario, Azcapotzalco, C.P. 02128, Ciudad de México
		Área de Estructuras. e-mail: agb@azc.uam.mx
**************************************************************************************
ARCHIVO ESTANDAR DE ACELERACION:
VERSION DEL FORMATO                    : 2.0
NOMBRE DEL ARCHIVO                     : RIDX202208.241
FECHA Y HORA DE CREACION               : 11:30 a. m. 29/08/2022
REF. CATALOGO ACELEROGRAMAS, SMIS 1999 : REGISTRO NO.      /PAG.    


================================================================================
DATOS DE LA ESTACION:
NOMBRE DE LA ESTACION                  : UAM-XOCHIMILCO.
CLAVE DE LA ESTACION                   : RIDX
LOCALIZACION DE LA ESTACION            : CALZADA DEL HUESO 1100, COL. VILLA
                                       : QUIETUD, DEL. COYOACAN, C.P.04960,  
                                       : CIUDAD DE MEXICO.
                                       : 
                                       : 
COORDENADAS DE LA ESTACION             : 19.301345 LAT. N
                                       : 99.10268 LONG. W
ALTITUD (msnm)                         : 2232
TIPO DE SUELO                          : LAGO
                                       : 
                                       : 
INSTITUCION RESPONSABLE                : UNIVERSIDAD AUTONOMA METROPOLITANA
                                       : 

================================================================================
DATOS DEL ACELEROGRAFO: 
MODELO DEL ACELEROGRAFO                : BASALT KINEMETRICS
NUMERO DE SERIE DEL ACELEROGRAFO       : 1729
NUMERO DE CANALES                      : 3
ORIENTACION C1-C6 (rumbo;orientacion)  : /V/N00E/N90E
ORIENTACION C7-C12 (rumbo;orientacion) : 
VEL. DE MUESTREO, C1-C6 (muestras/s)   : /200/200/200
VEL. DE MUESTREO, C7-C12 (muestras/s)  : 
ESC. COMPLETA DE SENSORES, C1-C6, (g)  : /2/2/2
ESC. COMPLETA DE SENSORES, C7-C12 (g)  : 
FREC. NAT. DE SENSORES, C1-C6, (Hz)    : /208/210/200   
FREC. NAT. DE SENSORES, C7-C12 (Hz)    : 
AMORTIGUAMIENTO DE SENSORES, C1-C6     : /0.7/0.7/0.7      
AMORTIGUAMIENTO DE SENSORES, C7-C12    : 
INTERVALO DE MUESTREO, C1-C6 (s)       : /0.005/0.005/0.005
INTERVALO DE MUESTREO, C7-C12 (s)      : 
UMBRAL DE DISPARO, C1-C6 (Gal)         : /2/2/2
UMBRAL DE DISPARO, C7-C12 (Gal)        : 
MEMORIA DE PREEVENTO (s)               : 60
TIEMPO DE POSEVENTO (s)                : 80


================================================================================
DATOS DEL SISMO:
FECHA DEL SISMO [GMT]                  : 2022/08/24
HORA EPICENTRO (GMT)                   : 01:26:53
MAGNITUD(ES)                           : /M=4.7
COORDENADAS DEL EPICENTRO              : 16.7300 LAT. N
                                       : -99.7600 LONG. W
PROFUNDIDAD FOCAL (Km)                 : 10.0
FUENTE DE LOS DATOS EPICENTRALES       : SSN
                                       : INSTITUTO DE GEOFISICA, UNAM

================================================================================
DATOS DE ESTE REGISTRO:
HORA DE LA PRIMERA MUESTRA (GMT)       : 01:26:51.000
EXACTITUD DEL TIEMPO (s)               : 
DURACION DEL REGISTRO (s), C1-C6       : /196/196/196
DURACION DEL REGISTRO (s), C7-C12      : 
NUM. TOTAL DE MUESTRAS, C1-C6          : /39200/39200/39200
NUM. TOTAL DE MUESTRAS, C7-C12         : 
ACEL. MAX.(Gal), C1-C6                 : /0.924/-1.319/0.807
ACEL. MAX., C1-C6, EN LA MUESTRA       : /12459/12451/12448
ACEL. MAX.(Gal), C7-C12                : 
ACEL. MAX., C7-C12,EN LA MUESTRA       : 
UNIDADES DE LOS DATOS                  : Gal (cm/s/s)
FACTOR DE DECIMACION                   : 1
FORMATO DATOS (FORTRAN,16 campos/dato) : 3E16.7


================================================================================
CALIDAD DEL ACELEROGRAMA:
REGISTRO DIGITAL COMPLETO CON TIEMPO ABSOLUTO CORRECTO


================================================================================
COMENTARIOS:














================================================================================
DATOS DE ACELERACION:
---------+---------+---------+---------+---------+---------+---------+---------+
   CANAL-1   	      CANAL-2          CANAL-3
      V                 N00E             N90E
---------+---------+---------+---------+---------+---------+---------+---------+
[...]
   1.9905200e-01  -7.6687400e-02   5.4663500e-02
   2.0348100e-01  -3.7656900e-02   4.6707000e-02
   2.0371400e-01  -1.1013400e-02   5.6067500e-02
   2.1303700e-01  -2.3659100e-03   6.0045800e-02
   2.2748800e-01   3.2432600e-03   6.1215900e-02
   2.1303700e-01   9.5535700e-03   6.4960100e-02
   1.9019500e-01   8.8524300e-03   5.9811800e-02
   1.5616500e-01   8.8524300e-03   5.8407700e-02
   1.2842800e-01   1.3526700e-02   5.1153200e-02
   1.2749600e-01   7.2164200e-03   3.6176300e-02
   1.0885000e-01   1.4695300e-02   3.1262000e-02
   1.0651900e-01   7.2164200e-03   1.6285000e-02
   9.8827100e-02   8.3849900e-03   1.0740900e-03
   1.0255600e-01   2.1940500e-02  -6.4143800e-03
   1.0185700e-01   1.8409700e-03  -2.4901500e-02
   1.2469900e-01   4.1781200e-03  -5.3451300e-02
   2.3634500e-01   2.5446200e-02  -8.0831000e-02
   2.0930800e-01   1.0187100e-01  -1.0236000e-01
   1.4754100e-01   1.8951400e-01  -1.2108200e-01
   1.6245800e-01   2.8253300e-01  -9.9084200e-02
   2.5406400e-02   4.7394600e-01  -6.3279900e-02
  -3.0859900e-01   6.5133600e-01  -3.2858000e-02
  -6.3538000e-01   5.8566200e-01   9.9666500e-03
  -5.3632000e-01   1.5819600e-01   2.1667400e-02
  -1.2702900e-01  -2.8002000e-01   3.7204800e-04
   1.3215800e-01  -4.2001500e-01  -4.9005000e-02
   1.5756400e-01  -3.2956700e-01  -6.8662300e-02
   9.5563900e-02  -1.4820400e-01  -5.2515300e-02
   1.6292400e-01  -4.4693500e-03  -3.7304300e-02
   2.7596900e-01   9.0652800e-02  -2.8177700e-02
   2.9857800e-01   9.2055100e-02  -6.9364300e-02
   3.0580300e-01   1.8367100e-01  -1.3629300e-01
   2.2678900e-01   4.8563200e-01  -2.1749600e-01
  -8.5307400e-02   7.5884500e-01  -2.6734100e-01
  -3.8574900e-01   8.0371800e-01  -2.6897900e-01
  -3.1932100e-01   6.0809800e-01  -2.8442400e-01
  -1.3425400e-01   3.6129500e-01  -3.2561000e-01
  -1.4637500e-01   9.9300200e-02  -3.6071300e-01
  -2.2072800e-01  -1.2226200e-01  -3.2069600e-01
  -2.3005100e-01  -2.0546400e-01  -1.8098900e-01
  -2.2096100e-01  -2.4566400e-01   3.7204800e-04
  -2.1490100e-01  -3.3587800e-01   7.5490800e-02
  -1.4544200e-01  -4.3380400e-01   1.4412900e-02
  -1.0488200e-02  -3.4452500e-01  -9.6276000e-02
   6.8293400e-02  -8.9308000e-02  -1.8098900e-01
   4.9879900e-02   1.1823100e-01  -1.9198800e-01
   3.0068000e-02   1.3646100e-01  -1.7303300e-01
   4.8714500e-02   7.2423000e-02  -1.3208000e-01
   6.4564100e-02   1.2547600e-01  -9.5340000e-02
   5.8504000e-02   2.3602400e-01  -7.7086800e-02
   2.7737200e-02   2.7739100e-01  -4.8303000e-02
  -5.1273100e-03   2.0704300e-01   1.1604800e-02
  -4.4280600e-03   1.0490900e-01   1.0450900e-01
   6.0606100e-03   4.9285200e-02   1.7120300e-01
   7.4591000e-03   3.5496000e-02   1.9015800e-01
   8.6245000e-03   1.8902200e-02   1.7143700e-01
   7.2260200e-03  -3.2047700e-02   1.6816100e-01
   1.5617000e-02  -8.6737100e-02   1.7892500e-01
   3.7526600e-02  -1.4446500e-01   1.6184200e-01
   7.8549000e-02  -1.8279400e-01   1.2299600e-01
   1.1071400e-01  -1.9027300e-01   7.0810500e-02
   1.0954900e-01  -1.7227700e-01   2.4943600e-02
   9.0902300e-02  -1.4773700e-01  -1.8583100e-02
   7.0857300e-02  -1.2646900e-01  -8.5205100e-03
   7.3188100e-02  -8.1829100e-02   2.1667400e-02
   5.2676900e-02  -4.1162600e-02   2.1433400e-02
  -6.2927100e-03  -8.6762200e-03   2.1901400e-02
  -3.9856500e-02   7.2164200e-03   1.0740900e-03
  -4.5217300e-02   1.0722100e-02   1.0434700e-02
  -4.3352700e-02   3.9444000e-03   4.5068900e-02
  -3.2164800e-02  -4.6304400e-02   7.7362900e-02
  -8.8566100e-03  -1.1314700e-01   9.3275900e-02
   1.7481600e-02  -1.7765200e-01   7.2916600e-02
   3.7759700e-02  -2.1621500e-01   4.6941000e-02
   5.5240800e-02  -2.2439500e-01   1.3081100e-03
   5.6872400e-02  -2.2042200e-01  -3.4730200e-02
   5.5240800e-02  -2.0546400e-01  -5.7897600e-02
   5.7338500e-02  -1.8443000e-01  -5.9301700e-02
   5.7571600e-02  -1.4913900e-01  -3.8006400e-02
   6.1300900e-02  -1.1665300e-01  -2.5369600e-02
   5.6639300e-02  -9.7488000e-02  -8.9885400e-03
   4.8714500e-02  -8.3698800e-02   3.7204800e-04
   3.6128100e-02  -7.8790800e-02   1.3476900e-02
   2.5639500e-02  -7.0143300e-02   1.1136700e-02
   2.3075600e-02  -5.7990100e-02  -1.5000700e-03
   2.0278600e-02  -4.5135800e-02  -7.5844500e-03
   1.2120700e-02  -2.7607200e-02  -1.3434800e-02
  -1.0022000e-02  -1.2415700e-02  -2.9041600e-03
  -2.6104600e-02   2.7758300e-03  -1.5000700e-03
  -2.9600900e-02   4.1781200e-03  -1.0626600e-02
  -8.6235300e-03  -3.0670500e-03  -2.3029400e-02
   2.0744700e-02  -6.5727800e-03  -3.4262100e-02
   2.6105600e-02  -1.6155100e-02  -3.9410400e-02
   1.7714700e-02  -7.5076400e-03  -4.9473100e-02
   5.3613600e-03   1.6072500e-03  -5.7195600e-02
   1.5617000e-02   1.0722100e-02  -6.7258200e-02
   2.9601800e-02   4.0871400e-02  -7.6384800e-02
   3.3564200e-02   6.9151000e-02  -7.7086800e-02
   2.7970300e-02   9.9300200e-02  -7.0066400e-02
  -1.3980000e-03   1.2126900e-01  -5.4621400e-02
  -1.7014500e-02   1.2921600e-01  -4.1984600e-02
  -2.0044500e-02   1.1612800e-01  -1.9753200e-02
  -2.6104600e-02   9.3457400e-02   6.6904400e-03
  -4.0322600e-02   7.5928700e-02   1.5583000e-02
  -6.9224700e-02   5.5595500e-02   1.9795300e-02
  -8.9269700e-02   4.1572600e-02   1.7923100e-02
  -9.9525300e-02   2.4043900e-02   2.0497300e-02
  -1.1444300e-01   1.7499900e-02   1.8625200e-02
  -1.1048000e-01   9.0861400e-03   1.8391200e-02
  -1.1257800e-01   8.3849900e-03   3.1028000e-02
  -1.1980300e-01   1.5396500e-02   2.7049700e-02
  -1.0255500e-01  -2.8333400e-03   3.4538200e-02
  -1.0535200e-01  -2.8755300e-05   2.6347700e-02
  -5.3375200e-02   3.3158800e-02  -1.8349100e-02
  -7.4581200e-03   8.5744800e-02  -3.7538300e-02
  -8.5307400e-02   1.9512400e-01  -1.6711000e-02
  -1.7317900e-01   3.8092700e-01   6.1917900e-02
  -3.8062200e-01   5.1367700e-01   1.9015800e-01
  -7.5355200e-01   3.8653600e-01   2.6293700e-01
  -8.3792800e-01  -1.1151100e-01   1.8454200e-01
  -3.9926800e-01  -7.2361100e-01   1.0200700e-02
   8.8804600e-02  -9.8467100e-01  -1.0048800e-01
   2.0091700e-01  -8.5238800e-01  -7.7788900e-02
   7.5985100e-02  -5.3126400e-01  -1.4604900e-02
  -6.0600700e-02  -2.1551400e-01   3.4772200e-02
  -1.0628500e-01  -5.6354100e-02   7.0108400e-02
  -4.7315100e-02  -6.9208500e-02   6.7300200e-02
   3.0534200e-02  -1.2319700e-01   5.7237600e-02
   1.3239100e-01  -1.4752800e-02   5.7003600e-02
   1.9112700e-01   2.5098100e-01   8.7191500e-02
   1.0465400e-01   4.7301100e-01   1.0170000e-01
   7.2260200e-03   4.9731700e-01   3.5474200e-02
   2.0982200e-03   3.5334900e-01  -6.5152100e-02
   4.4752100e-02   1.6006600e-01  -1.3559000e-01
   2.8436400e-02   2.5679900e-02  -9.3233800e-02
  -6.5029300e-02  -2.9944300e-02   9.9666500e-03
  -1.3448800e-01  -7.8557100e-02   6.9640400e-02
  -1.4987100e-01  -1.3324600e-01   9.0233700e-02
  -9.8126800e-02  -2.1177500e-01   6.8470300e-02
   3.1000300e-02  -3.0689700e-01   8.0945300e-03
   1.9415700e-01  -3.2676300e-01  -6.6088100e-02
   3.1792400e-01  -2.7838400e-01  -1.0540300e-01
   3.5987800e-01  -2.3000500e-01  -7.3810600e-02
   3.5941200e-01  -1.8723500e-01  -6.4143800e-03
   3.5335200e-01  -1.1057600e-01   4.9047100e-02
   3.5661500e-01   3.1289100e-02   5.8875700e-02
   3.7176600e-01   1.7432300e-01   2.2135400e-02
   3.3936700e-01   2.8884300e-01  -1.3434800e-02
   2.7876600e-01   3.3675500e-01  -3.3721900e-03
   2.4357100e-01   2.9141400e-01   4.2728700e-02
   2.2912000e-01   1.9676000e-01   7.0576500e-02
   2.3308200e-01   6.4710400e-02   5.8173700e-02
   2.4077400e-01  -4.0928900e-02   3.4070200e-02
   2.8319500e-01  -8.4400000e-02   8.3285500e-03
   3.1512700e-01  -5.3315800e-02   1.1604800e-02
   3.1419400e-01  -1.8959700e-02   3.0325900e-02
   3.2118700e-01  -1.4986500e-02   1.8157200e-02
   3.1722400e-01   1.8902200e-02   6.9244600e-03
   3.2305100e-01   5.9802400e-02  -1.1796700e-02
   3.1233000e-01   1.4300500e-01  -3.0049900e-02
   2.6921000e-01   2.2807700e-01  -3.1922000e-02
   2.0907500e-01   2.7225000e-01  -2.9815800e-02
   1.5150300e-01   2.8089700e-01  -1.9987200e-02
   1.1747400e-01   2.4887800e-01  -1.6711000e-02
   9.3466200e-02   2.1779400e-01  -2.6539600e-02
   6.5496400e-02   1.9208500e-01  -4.4558800e-02
  -2.7964900e-03   1.9676000e-01  -4.2218600e-02
  -6.9224700e-02   2.0236900e-01  -2.8645800e-02
  -1.0768300e-01   1.9489000e-01  -1.7179100e-02
  -1.2166800e-01   1.8086700e-01  -1.3200800e-02
  -1.0535200e-01   1.5025000e-01  -3.7070300e-02
  -9.2299800e-02   1.4884800e-01  -7.6384800e-02
  -8.8570500e-02   1.6427300e-01  -9.7446100e-02
  -8.8803600e-02   1.7011600e-01  -1.0329600e-01
  -8.2510400e-02   1.6801300e-01  -1.1359300e-01
  -6.8991600e-02   1.4674400e-01  -1.1850700e-01
  -5.8269900e-02   1.2664500e-01  -1.2786800e-01
  -8.0878800e-02   1.3295500e-01  -1.3067600e-01
  -1.2679600e-01   1.5632700e-01  -1.2833600e-01
  -1.7061500e-01   1.8624200e-01  -1.1499700e-01
  -1.9998300e-01   2.0587400e-01  -9.6978100e-02
  -2.0790800e-01   2.0423800e-01  -1.1429500e-01
  -2.2748700e-01   1.7642600e-01  -1.1874100e-01
  -2.4100600e-01   1.3178700e-01  -1.1991100e-01
  -2.5569000e-01   1.0163700e-01  -1.2248600e-01
  -2.7107300e-01   7.7564700e-02  -1.0891300e-01
  -2.5778800e-01   5.3959500e-02  -1.1125300e-01
  -2.3797600e-01   4.2741100e-02  -1.0165800e-01
  -2.2538900e-01   3.1522800e-02  -1.0119000e-01
  -2.3051700e-01   1.9135900e-02  -9.7680100e-02
  -2.3005100e-01   5.1129800e-03  -8.8553500e-02
  -2.1932900e-01  -1.5921400e-02  -1.0189200e-01
  -1.9532200e-01  -3.7656900e-02  -1.0142400e-01
  -1.4730700e-01  -6.1262200e-02  -1.0610500e-01
  -1.2306700e-01  -7.1779300e-02  -1.0399800e-01
  -1.2236700e-01  -6.6403900e-02  -9.6744000e-02
  -1.2493100e-01  -6.8741000e-02  -8.8319500e-02
  -1.2772800e-01  -6.4066700e-02  -5.9769700e-02
  -1.0675100e-01  -6.6637600e-02  -4.4792800e-02
  -8.9269700e-02  -8.6503400e-02  -3.0049900e-02
  -9.3232100e-02  -1.0029300e-01  -1.5306900e-02
  -9.6262200e-02  -1.0894000e-01  -9.6905800e-03
  -8.7638200e-02  -1.1057600e-01  -3.3721900e-03
  -4.7315100e-02  -1.1922400e-01   6.0606200e-04
  -4.4280600e-03  -1.1595200e-01   6.2224100e-03
   4.2421300e-02  -1.0660300e-01  -7.9802600e-04
   7.5518900e-02  -8.7204600e-02   7.3924900e-03
   8.3909800e-02  -5.1446100e-02   2.2603400e-02
   1.0139100e-01  -3.2982600e-02   2.1199400e-02
   1.0861600e-01  -7.7413600e-03   4.4366800e-02
   1.5616500e-01  -2.8074600e-02   3.8048400e-02
   1.5010500e-01  -4.5369500e-02   1.5817000e-02
   1.4684200e-01  -1.0707000e-01  -3.2999700e-04
   3.1745800e-01  -2.8422700e-01  -7.0066400e-02
   3.9274300e-01  -2.8516100e-01  -8.8787500e-02
   1.7248100e-01   1.0046900e-01   9.8424200e-02
  -3.2701300e-01   7.9694000e-01   5.2316100e-01
  -7.9247700e-01   1.1505500e+00   8.0725500e-01
  -7.5704800e-01   5.7958500e-01   5.3416000e-01
  -2.3727700e-01  -5.1209900e-01  -8.1065100e-02
   3.8248700e-01  -1.3188800e+00  -5.2218300e-01
   5.8317000e-01  -1.1880000e+00  -4.6999700e-01
   3.3540500e-01  -3.6602700e-01  -1.2038000e-01
   1.0815000e-01   2.7669000e-01   1.0614700e-01
   3.6128100e-02   4.8142500e-01   7.5724800e-02
   8.9970000e-02   3.3114600e-01  -8.6915400e-02
   3.5405100e-01   1.0722100e-02  -1.3488800e-01
   7.3537300e-01  -1.3955700e-01  -6.4918000e-02
   9.2393600e-01  -7.8557100e-02  -3.4028100e-02
   7.6474100e-01   1.0561100e-01   1.9093200e-02
   3.6873500e-01   4.0733700e-01   1.8805200e-01
  -5.1976700e-02   6.7681100e-01   4.1481200e-01
  -2.9461500e-01   6.3707900e-01   5.0584400e-01
  -3.7339600e-01   2.6079700e-01   3.8205000e-01
  -4.4821500e-01  -1.3768700e-01   1.4382300e-01
  -4.9366600e-01  -3.6696200e-01  -1.3371800e-01
  -3.7759200e-01  -4.4782700e-01  -2.9565700e-01
  -2.3028400e-01  -4.1090000e-01  -2.3457900e-01
  -1.6502100e-01  -3.6205400e-01  -1.3091000e-01
  -8.9036700e-02  -3.7747900e-01  -1.5524800e-01
  -4.6611400e-03  -3.8542500e-01  -2.1211300e-01
   5.6173100e-02  -2.5197400e-01  -1.5852400e-01
   5.1977700e-02   5.2089800e-02  -3.3326100e-02
   3.1233400e-02   3.3535300e-01   5.2089300e-02
   8.3443700e-02   4.6880400e-01   7.9469000e-02
   9.5330800e-02   4.9988800e-01   9.6318100e-02
  -3.4957400e-03   4.3421400e-01   1.0216800e-01
  -1.2586400e-01   2.4630700e-01   6.0981800e-02
  -1.7714100e-01  -8.2087900e-03  -7.3504400e-03
  -1.7807400e-01  -1.9354500e-01  -5.2749300e-02
  -1.9252500e-01  -2.4309300e-01  -7.4746700e-02
  -1.9275800e-01  -1.9027300e-01  -9.7446100e-02
  -1.6152500e-01  -8.8840600e-02  -7.3576600e-02
  -1.1654000e-01  -7.5076400e-03   2.8219800e-02
  -1.0511900e-01   1.4461600e-02   1.6909700e-01
  -1.3332200e-01  -2.0362000e-02   2.5147000e-01
  -1.0465300e-01  -9.7020600e-02   2.1098500e-01
   2.3356900e-04  -1.6503200e-01   1.6160800e-01
   1.0372200e-01  -1.5755300e-01   1.5950200e-01
   1.2936100e-01  -7.6921100e-02   1.7190500e-01
   8.0646700e-02   2.9653100e-02   1.9928500e-01
   4.9413800e-02   1.0070300e-01   2.1262300e-01
   3.3564200e-02   1.3131900e-01   2.0466700e-01
  -2.8901600e-02   1.5749500e-01   1.7869100e-01
  -1.0978100e-01   1.4978300e-01   1.4358900e-01
  -1.7317900e-01   1.2173700e-01   1.1667700e-01
  -1.8972800e-01   8.9016800e-02   1.2627200e-01
  -1.5733000e-01   6.0036100e-02   1.6394800e-01
  -1.1724000e-01   6.0036100e-02   1.9062600e-01
  -9.8593000e-02   6.4944100e-02   2.0536900e-01
  -1.1397600e-01   6.2139500e-02   2.1168700e-01
  -1.1001400e-01   3.7132000e-02   2.1590000e-01
  -7.1788600e-02  -5.8716400e-03   2.0302900e-01
  -1.5849100e-02  -5.1446100e-02   1.6090600e-01
   4.1722100e-02  -6.7105000e-02   1.1129500e-01
   4.1255900e-02  -2.9944300e-02   8.2979200e-02
   1.0722200e-02   1.9369600e-02   7.6192800e-02
  -1.3984400e-02   6.0269800e-02   7.4554700e-02
  -2.1909200e-02   8.0836700e-02   7.7128900e-02
  -1.5616000e-02   7.0787000e-02   8.2043200e-02
  -2.4006900e-02   3.8066800e-02   8.4383300e-02
  -3.8224900e-02   8.1512800e-03   8.7893500e-02
  -5.6405200e-02  -1.1973300e-03   8.1107100e-02
  -6.6660800e-02  -1.8984800e-03   5.9109700e-02
  -6.5262300e-02  -1.4285400e-02   4.3430700e-02
  -4.6615800e-02  -4.6538100e-02   2.4007500e-02
  -2.2375300e-02  -8.3231400e-02   1.6753100e-02
  -2.3773800e-02  -1.0543400e-01   1.8859200e-02
  -2.7736200e-02  -1.0707000e-01  -4.3082500e-03
  -2.1209900e-02  -9.8422900e-02  -4.4090700e-02
  -1.0488200e-02  -8.4633700e-02  -9.8382100e-02
  -9.3227700e-03  -6.5469000e-02  -1.3044200e-01
  -8.8566100e-03  -5.2381000e-02  -1.4424900e-01
  -6.9919600e-03  -4.7940400e-02  -1.4261100e-01
  -1.2819000e-02  -4.4902100e-02  -1.1897500e-01
  -2.7964900e-03  -4.8641500e-02  -1.1546500e-01
   1.7481600e-02  -4.1863800e-02  -1.1265700e-01
   4.6150600e-02  -3.1112900e-02  -1.1101900e-01
   6.4331000e-02  -3.8358100e-02  -1.1967700e-01
   6.5962600e-02  -5.4017000e-02  -1.2974000e-01
   8.2744400e-02  -7.8557100e-02  -1.3161200e-01
   1.0768400e-01  -1.0870600e-01  -1.2576200e-01
   1.3192500e-01  -1.4025800e-01  -1.2786800e-01
   1.4544300e-01  -1.4516600e-01  -1.2412400e-01
   1.5942800e-01  -1.2459900e-01  -1.1429500e-01
   1.5663100e-01  -9.1645100e-02  -8.2235100e-02
   1.3542100e-01  -5.3549600e-02  -4.9707100e-02
   1.3029300e-01  -4.4200900e-02  -3.1219900e-02
   1.3868400e-01  -5.6354100e-02  -2.2093400e-02
   1.6082700e-01  -7.2013100e-02  -2.6539600e-02
   1.6665400e-01  -6.8273600e-02  -2.0455300e-02
   1.7318000e-01  -5.9859900e-02  -2.5369600e-02
   1.9509000e-01  -4.1863800e-02  -3.2390000e-02
   2.1653300e-01  -1.9894600e-02  -5.5089400e-02
   2.6315000e-01  -3.4852300e-02  -9.4169900e-02
