**************************************************************************************
  	RED ACELEROGRÁFICA DE LA UNIVERSIDAD AUTONOMA METROPOLITANA (RA-UAM)
	   UNIDAD AZCAPOTZALCO. DIVISIÓN CBI-DEPARTAMENTO DE MATERIALES
     Av. San Pablo 420, Col. Nueva el Rosario, Azcapotzalco, C.P. 02128, Ciudad de México
		Área de Estructuras. e-mail: agb@azc.uam.mx
**************************************************************************************
ARCHIVO ESTANDAR DE ACELERACION:
VERSION DEL FORMATO                    : 2.0
NOMBRE DEL ARCHIVO                     : RIDX202209.141
FECHA Y HORA DE CREACION               : 11:30 a. m. 21/09/2022
REF. CATALOGO ACELEROGRAMAS, SMIS 1999 : REGISTRO NO.      /PAG.    


================================================================================
DATOS DE LA ESTACION:
NOMBRE DE LA ESTACION                  : UAM-XOCHIMILCO.
CLAVE DE LA ESTACION                   : RIDX
LOCALIZACION DE LA ESTACION            : CALZADA DEL HUESO 1100, COL. VILLA
                                       : QUIETUD, DEL. COYOACAN, C.P.04960,  
                                       : CIUDAD DE MEXICO.
                                       : 
                                       : 
COORDENADAS DE LA ESTACION             : 19.301345 LAT. N
                                       : 99.10268 LONG. W
ALTITUD (msnm)                         : 2232
TIPO DE SUELO                          : LAGO
                                       : 
                                       : 
INSTITUCION RESPONSABLE                : UNIVERSIDAD AUTONOMA METROPOLITANA
                                       : 

================================================================================
DATOS DEL ACELEROGRAFO: 
MODELO DEL ACELEROGRAFO                : BASALT KINEMETRICS
NUMERO DE SERIE DEL ACELEROGRAFO       : 1729
NUMERO DE CANALES                      : 3
ORIENTACION C1-C6 (rumbo;orientacion)  : /V/N00E/N90E
ORIENTACION C7-C12 (rumbo;orientacion) : 
VEL. DE MUESTREO, C1-C6 (muestras/s)   : /200/200/200
VEL. DE MUESTREO, C7-C12 (muestras/s)  : 
ESC. COMPLETA DE SENSORES, C1-C6, (g)  : /2/2/2
ESC. COMPLETA DE SENSORES, C7-C12 (g)  : 
FREC. NAT. DE SENSORES, C1-C6, (Hz)    : /208/210/200   
FREC. NAT. DE SENSORES, C7-C12 (Hz)    : 
AMORTIGUAMIENTO DE SENSORES, C1-C6     : /0.7/0.7/0.7      
AMORTIGUAMIENTO DE SENSORES, C7-C12    : 
INTERVALO DE MUESTREO, C1-C6 (s)       : /0.005/0.005/0.005
INTERVALO DE MUESTREO, C7-C12 (s)      : 
UMBRAL DE DISPARO, C1-C6 (Gal)         : /2/2/2
UMBRAL DE DISPARO, C7-C12 (Gal)        : 
MEMORIA DE PREEVENTO (s)               : 60
TIEMPO DE POSEVENTO (s)                : 80


================================================================================
DATOS DEL SISMO:
FECHA DEL SISMO [GMT]                  : 2022/09/14
HORA EPICENTRO (GMT)                   : 02:58:18
MAGNITUD(ES)                           : /M=5.0
COORDENADAS DEL EPICENTRO              : 14.4500 LAT. N
                                       : -100.9900 LONG. W
PROFUNDIDAD FOCAL (Km)                 : 28.0
FUENTE DE LOS DATOS EPICENTRALES       : SSN
                                       : INSTITUTO DE GEOFISICA, UNAM

================================================================================
DATOS DE ESTE REGISTRO:
HORA DE LA PRIMERA MUESTRA (GMT)       : 02:58:43.000
EXACTITUD DEL TIEMPO (s)               : 
DURACION DEL REGISTRO (s), C1-C6       : /173/173/173
DURACION DEL REGISTRO (s), C7-C12      : 
NUM. TOTAL DE MUESTRAS, C1-C6          : /34600/34600/34600
NUM. TOTAL DE MUESTRAS, C7-C12         : 
ACEL. MAX.(Gal), C1-C6                 : /-0.570/-0.944/0.790
ACEL. MAX., C1-C6, EN LA MUESTRA       : /16143/15885/16046
ACEL. MAX.(Gal), C7-C12                : 
ACEL. MAX., C7-C12,EN LA MUESTRA       : 
UNIDADES DE LOS DATOS                  : Gal (cm/s/s)
FACTOR DE DECIMACION                   : 1
FORMATO DATOS (FORTRAN,16 campos/dato) : 3E16.7


================================================================================
CALIDAD DEL ACELEROGRAMA:
REGISTRO DIGITAL COMPLETO CON TIEMPO ABSOLUTO CORRECTO


================================================================================
COMENTARIOS:














================================================================================
DATOS DE ACELERACION:
---------+---------+---------+---------+---------+---------+---------+---------+
   CANAL-1   	      CANAL-2          CANAL-3
      V                 N00E             N90E
---------+---------+---------+---------+---------+---------+---------+---------+
[...]
   2.0168800e-01   2.5114500e-01   6.6384600e-01
   2.1520700e-01   2.5208000e-01   6.6197400e-01
   2.2592900e-01   2.5184700e-01   6.7297300e-01
   2.3851500e-01   2.4740600e-01   6.6993100e-01
   2.5156800e-01   2.4647100e-01   6.6829200e-01
   2.6508700e-01   2.4039500e-01   6.6665400e-01
   2.7534200e-01   2.4413400e-01   6.5916600e-01
   2.7953800e-01   2.4296500e-01   6.5986800e-01
   2.8792900e-01   2.4319900e-01   6.6010200e-01
   3.0051500e-01   2.4740600e-01   6.5799600e-01
   3.1216900e-01   2.4530300e-01   6.5495400e-01
   3.1473300e-01   2.4927600e-01   6.4980500e-01
   3.2009400e-01   2.5184700e-01   6.3857300e-01
   3.2685300e-01   2.5675500e-01   6.2921200e-01
   3.2895100e-01   2.5768900e-01   6.2266000e-01
   3.4177000e-01   2.6096200e-01   6.1563900e-01
   3.4759700e-01   2.6703800e-01   6.1049100e-01
   3.4526700e-01   2.6703800e-01   5.9504600e-01
   3.4037200e-01   2.7077800e-01   5.7632500e-01
   3.3547700e-01   2.7849000e-01   5.5713500e-01
   3.3268000e-01   2.8854000e-01   5.3326600e-01
   3.2289100e-01   3.0162800e-01   5.1782100e-01
   3.1846200e-01   3.1471600e-01   4.9722800e-01
   3.1053700e-01   3.2803800e-01   4.8061300e-01
   3.0004900e-01   3.3925600e-01   4.6633800e-01
   2.9445500e-01   3.4883800e-01   4.4270200e-01
   2.8513200e-01   3.6239400e-01   4.2749100e-01
   2.7580800e-01   3.7174300e-01   4.0479200e-01
   2.6462000e-01   3.8623300e-01   3.8630500e-01
   2.5809400e-01   4.0119100e-01   3.6922200e-01
   2.4783900e-01   4.0937100e-01   3.4441600e-01
   2.3595100e-01   4.1895300e-01   3.2616300e-01
   2.2872600e-01   4.2549700e-01   3.0323000e-01
   2.1590600e-01   4.3134000e-01   2.8123200e-01
   2.0262100e-01   4.3905300e-01   2.6204300e-01
   1.8677100e-01   4.4606400e-01   2.4121600e-01
   1.7395200e-01   4.4886900e-01   2.1430400e-01
   1.5950100e-01   4.5868500e-01   1.9254100e-01
   1.4341800e-01   4.5915200e-01   1.7218100e-01
   1.3432800e-01   4.6148900e-01   1.5065200e-01
   1.2080900e-01   4.7200600e-01   1.3895100e-01
   1.0752300e-01   4.5938600e-01   1.0689100e-01
   8.9576100e-02   4.6452800e-01   8.0213600e-02
   6.9764200e-02   4.6733200e-01   5.4940000e-02
   5.3914700e-02   4.5798300e-01   1.9369800e-02
   3.2005000e-02   4.6546200e-01   3.9247900e-03
   1.5689300e-02   4.5938600e-01  -1.5732400e-02
  -6.2641000e-04   4.5961900e-01  -3.1411400e-02
  -1.7408300e-02   4.6148900e-01  -5.0600600e-02
  -3.3724000e-02   4.5541300e-01  -7.6810300e-02
  -5.6799100e-02   4.5424400e-01  -8.8511000e-02
  -7.0084700e-02   4.4372700e-01  -1.0676400e-01
  -8.4069600e-02   4.3835100e-01  -1.1729500e-01
  -9.8986800e-02   4.3110600e-01  -1.2454900e-01
  -1.0970900e-01   4.2035500e-01  -1.3976000e-01
  -1.2089600e-01   4.1731700e-01  -1.5192900e-01
  -1.2905400e-01   4.0680000e-01  -1.6760800e-01
  -1.4513700e-01   4.0025600e-01  -1.7603200e-01
  -1.5749000e-01   3.9090700e-01  -1.8632900e-01
  -1.6634700e-01   3.7735200e-01  -1.9288200e-01
  -1.7310700e-01   3.6776900e-01  -1.9826400e-01
  -1.7660300e-01   3.4393000e-01  -2.1394300e-01
  -1.8872300e-01   3.3201100e-01  -2.1464500e-01
  -1.9361800e-01   3.1798800e-01  -2.2260100e-01
  -1.9781300e-01   2.9461700e-01  -2.3219600e-01
  -2.0364000e-01   2.8713800e-01  -2.2634600e-01
  -1.9921200e-01   2.6493500e-01  -2.3032400e-01
  -1.9781300e-01   2.4997700e-01  -2.3336600e-01
  -1.9618200e-01   2.3548700e-01  -2.3406800e-01
  -2.0107700e-01   2.0837600e-01  -2.3945000e-01
  -2.0503900e-01   1.9178200e-01  -2.4366300e-01
  -2.0037700e-01   1.7028000e-01  -2.4296100e-01
  -1.9944500e-01   1.5392000e-01  -2.3945000e-01
  -1.9198600e-01   1.3896200e-01  -2.3687600e-01
  -1.8685900e-01   1.3148300e-01  -2.3009000e-01
  -1.8359500e-01   1.2306900e-01  -2.2330300e-01
  -1.7543800e-01   1.0554100e-01  -2.2260100e-01
  -1.7054300e-01   9.6893400e-02  -2.1955900e-01
  -1.6261800e-01   8.1234500e-02  -2.1581500e-01
  -1.5166300e-01   7.5391600e-02  -2.1066700e-01
  -1.4397200e-01   7.2587000e-02  -1.9615800e-01
  -1.3977600e-01   6.4640700e-02  -1.8235100e-01
  -1.3651300e-01   5.8797800e-02  -1.7135200e-01
  -1.3534800e-01   5.1085200e-02  -1.6480000e-01
  -1.3418200e-01   5.2020000e-02  -1.5333300e-01
  -1.2975400e-01   4.5709700e-02  -1.4537700e-01
  -1.2649000e-01   4.6177200e-02  -1.3367600e-01
  -1.2136300e-01   5.2020000e-02  -1.1635900e-01
  -1.1600200e-01   5.6460600e-02  -1.1074200e-01
  -1.1576900e-01   6.8847500e-02  -9.7403600e-02
  -1.1530300e-01   7.1652100e-02  -9.5765500e-02
  -1.1786600e-01   7.4924100e-02  -8.8745000e-02
  -1.2276100e-01   7.6092700e-02  -7.6342200e-02
  -1.2672400e-01   7.2587000e-02  -7.3066000e-02
  -1.3301700e-01   7.9598500e-02  -6.0897300e-02
  -1.3674600e-01   8.6609900e-02  -5.5280900e-02
  -1.4257300e-01   9.0816800e-02  -4.9430600e-02
  -1.4793400e-01   1.0086700e-01  -4.7090400e-02
  -1.5189600e-01   1.0694300e-01  -3.6325700e-02
  -1.5469300e-01   1.0904700e-01  -2.0412700e-02
  -1.5282900e-01   1.0600800e-01  -1.5966500e-02
  -1.5679100e-01   1.0343700e-01  -1.1988200e-02
  -1.6238500e-01   1.0180100e-01  -8.4779900e-03
  -1.7240700e-01   9.6192200e-02  -1.0818100e-02
  -1.8289600e-01   9.5958500e-02  -1.6902500e-02
  -1.8592600e-01   8.9180800e-02  -1.3158300e-02
  -1.9082100e-01   8.7077300e-02  -4.0317100e-03
  -1.8872300e-01   8.3571600e-02   4.1457100e-04
  -1.9315200e-01   8.0299600e-02   2.5207000e-03
  -2.0177600e-01   8.5441300e-02   3.6907800e-03
  -2.0294100e-01   8.5207600e-02   1.1166200e-03
  -2.0224200e-01   9.2920200e-02  -2.8747300e-04
  -1.9804600e-01   9.2452800e-02  -2.3936000e-03
  -2.0037700e-01   8.8713300e-02   4.1457100e-04
  -2.0317400e-01   8.1234500e-02   6.0309200e-03
  -1.9991100e-01   7.3989300e-02   4.8608500e-03
  -1.9734700e-01   7.4690400e-02   7.2010000e-03
  -1.9594900e-01   7.2820700e-02   6.0309200e-03
  -1.9571600e-01   7.5391600e-02   1.3506300e-03
  -1.9455000e-01   7.5625300e-02   4.8608500e-03
  -1.9175300e-01   7.7261300e-02   6.4989500e-03
  -1.9012200e-01   7.1885800e-02   5.5628900e-03
  -1.9175300e-01   6.8146400e-02   4.8608500e-03
  -1.8872300e-01   6.6744100e-02   2.0526700e-03
  -1.8243000e-01   6.7912700e-02   6.0309200e-03
  -1.7800100e-01   7.3054400e-02   8.1370600e-03
  -1.6937700e-01   6.9081300e-02   8.3710700e-03
  -1.5515900e-01   6.9782400e-02   1.6093600e-02
  -1.4303900e-01   6.8380100e-02   1.3987400e-02
  -1.3185100e-01   6.2069800e-02   2.0526700e-03
  -1.2019700e-01   5.6928100e-02  -3.5636800e-03
  -1.0528000e-01   5.0617800e-02  -1.0818100e-02
  -8.8498100e-02   4.1269100e-02  -1.4562400e-02
  -7.5911700e-02   3.4024000e-02  -3.7976900e-03
  -5.3535900e-02   2.1637100e-02  -1.6915600e-03
  -3.1393200e-02   1.2054700e-02   1.8055700e-04
  -1.9506000e-02   7.8478600e-03   4.1457100e-04
  -6.2203700e-03  -2.2019000e-03  -9.1800300e-03
   7.2983600e-03  -1.5007500e-03  -1.1052100e-02
   2.2914800e-02  -8.5122100e-03  -1.5966500e-02
   3.5268100e-02  -1.3653900e-02  -1.3626300e-02
   4.7854500e-02  -1.5523700e-02  -8.2439700e-03
   6.4170300e-02  -2.4638600e-02  -8.7120000e-03
   7.8621300e-02  -2.6040900e-02  -1.2235300e-03
   8.8410700e-02  -3.2584900e-02  -1.4575500e-03
   1.0006500e-01  -3.5623200e-02   8.8260100e-04
   1.1917700e-01  -3.7259200e-02   9.7751600e-03
   1.3153100e-01  -4.4036900e-02   1.2115300e-02
   1.4365100e-01  -5.3853000e-02   1.4923500e-02
   1.5320700e-01  -5.5489000e-02   1.9369800e-02
   1.5926800e-01  -5.3151800e-02   2.2412000e-02
   1.7022200e-01  -6.0630700e-02   1.9369800e-02
   1.7068900e-01  -5.3853000e-02   2.1709900e-02
   1.7325200e-01  -5.2217000e-02   1.7965700e-02
   1.7395200e-01  -5.3151800e-02   1.1647300e-02
   1.7138800e-01  -5.2918100e-02   1.9369800e-02
   1.7931300e-01  -6.1098100e-02   2.4050100e-02
   1.7721500e-01  -6.1799300e-02   3.2006600e-02
   1.7138800e-01  -7.0680500e-02   2.8496300e-02
   1.6579400e-01  -7.1849000e-02   2.3816000e-02
   1.5810200e-01  -6.6006200e-02   2.8262300e-02
   1.4901200e-01  -6.2967900e-02   2.9666400e-02
   1.3292900e-01  -5.6657600e-02   3.0134400e-02
   1.2197400e-01  -6.1565600e-02   2.9432400e-02
   1.0915500e-01  -5.9462100e-02   4.5579400e-02
   9.7034800e-02  -5.7826100e-02   5.3301900e-02
   8.8177700e-02  -6.2500400e-02   6.1492400e-02
   7.6989700e-02  -5.7358700e-02   7.5299300e-02
   6.6034900e-02  -5.9228400e-02   6.8746900e-02
   4.6223000e-02  -5.8293600e-02   7.4129200e-02
   2.6877200e-02  -5.0581000e-02   8.1149600e-02
   1.1726900e-02  -5.5255300e-02   8.3489800e-02
  -3.6564700e-03  -5.6891300e-02   9.0510200e-02
  -2.0438300e-02  -5.6190100e-02   9.5658500e-02
  -4.2114900e-02  -6.2500400e-02   9.8466700e-02
  -5.9596000e-02  -6.2967900e-02   1.0291300e-01
  -7.6611000e-02  -6.6006200e-02   1.0899700e-01
  -9.0829000e-02  -7.5121100e-02   1.0852900e-01
  -1.0201700e-01  -8.0963900e-02   1.1391200e-01
  -1.1483600e-01  -8.7975400e-02   1.3263300e-01
  -1.2369300e-01  -1.0386800e-01   1.4597200e-01
  -1.3581400e-01  -1.2116300e-01   1.4573800e-01
  -1.4909900e-01  -1.3799000e-01   1.4807800e-01
  -1.6052000e-01  -1.5832400e-01   1.4222700e-01
  -1.7450500e-01  -1.7935800e-01   1.4175900e-01
  -1.8312900e-01  -2.0226200e-01   1.5392800e-01
  -1.9128700e-01  -2.1979100e-01   1.6001300e-01
  -1.9781300e-01  -2.4386300e-01   1.6656500e-01
  -1.9781300e-01  -2.6630000e-01   1.6656500e-01
  -2.0294100e-01  -2.8382900e-01   1.6141700e-01
  -2.0830200e-01  -3.1117300e-01   1.4807800e-01
  -2.1203100e-01  -3.2496300e-01   1.5182200e-01
  -2.1366300e-01  -3.4623100e-01   1.6328900e-01
  -2.0946700e-01  -3.7264100e-01   1.6469300e-01
  -2.0760300e-01  -3.9367500e-01   1.7007500e-01
  -2.0364000e-01  -4.2242200e-01   1.5439600e-01
  -2.0364000e-01  -4.4275500e-01   1.4410000e-01
  -2.0247500e-01  -4.6565900e-01   1.3965300e-01
  -1.9245300e-01  -4.9510700e-01   1.3427100e-01
  -1.7986600e-01  -5.2151700e-01   1.3778100e-01
  -1.6401700e-01  -5.4839400e-01   1.3052700e-01
  -1.5446000e-01  -5.7854400e-01   1.2093200e-01
  -1.4327200e-01  -6.0588800e-01   1.1157200e-01
  -1.2625700e-01  -6.3183100e-01   1.0010500e-01
  -1.1763300e-01  -6.5543600e-01   8.8638100e-02
  -1.1064100e-01  -6.7974200e-01   7.7873400e-02
  -1.0061800e-01  -7.0545100e-01   6.0556300e-02
  -9.0362800e-02  -7.2578400e-01   4.7451500e-02
  -8.1505700e-02  -7.5009100e-01   3.8090900e-02
  -7.1716300e-02  -7.7860400e-01   2.0539800e-02
  -5.9363000e-02  -8.0220900e-01   1.2349300e-02
  -5.0272800e-02  -8.1973800e-01   5.5628900e-03
  -3.7919500e-02  -8.5012100e-01  -8.9460200e-03
  -2.6032300e-02  -8.7022000e-01  -2.0880800e-02
  -1.5776700e-02  -8.8658100e-01  -3.9601900e-02
  -5.0549600e-03  -9.0644600e-01  -5.6919000e-02
   1.0051600e-03  -9.1415900e-01  -7.4236100e-02
   1.0328400e-02  -9.3238900e-01  -1.0231800e-01
   1.7320900e-02  -9.3425800e-01  -1.1518900e-01
   2.7576500e-02  -9.3799800e-01  -1.2735700e-01
   4.3659100e-02  -9.4407400e-01  -1.4327000e-01
   5.0651500e-02  -9.3589400e-01  -1.5380100e-01
   5.2050000e-02  -9.3893300e-01  -1.7837300e-01
   5.6944700e-02  -9.3379100e-01  -1.9803000e-01
   6.6501100e-02  -9.2514400e-01  -2.0926300e-01
   7.2328100e-02  -9.2233900e-01  -2.2704800e-01
   7.6057400e-02  -9.1275700e-01  -2.4576900e-01
   8.0719000e-02  -8.9663000e-01  -2.5723600e-01
   8.1651400e-02  -8.8681400e-01  -2.7151000e-01
   8.4215300e-02  -8.7349200e-01  -2.8484900e-01
   8.7478400e-02  -8.6367600e-01  -2.9608200e-01
   8.0486000e-02  -8.5479500e-01  -3.0871900e-01
   7.4192800e-02  -8.3913600e-01  -3.1714300e-01
   6.8831900e-02  -8.2534700e-01  -3.3188600e-01
   6.5335700e-02  -8.0665000e-01  -3.3258800e-01
   6.8365700e-02  -7.9379600e-01  -3.3329000e-01
   6.5801800e-02  -7.7135900e-01  -3.3609900e-01
   6.6734200e-02  -7.5125900e-01  -3.2814200e-01
   7.0230400e-02  -7.3326300e-01  -3.2767400e-01
   7.1162700e-02  -7.1012500e-01  -3.2627000e-01
   7.3959700e-02  -6.9586900e-01  -3.2767400e-01
   7.4192800e-02  -6.7016000e-01  -3.2720600e-01
   7.6523600e-02  -6.4655500e-01  -3.2814200e-01
   8.1418300e-02  -6.2668900e-01  -3.2650400e-01
   8.8643800e-02  -6.0355100e-01  -3.2159000e-01
   8.8643800e-02  -5.8462000e-01  -3.2135600e-01
   9.1907000e-02  -5.6872800e-01  -3.1503700e-01
   1.0169600e-01  -5.4979700e-01  -3.1316500e-01
   1.0472600e-01  -5.3203400e-01  -3.1222900e-01
   1.0356100e-01  -5.1450600e-01  -3.0520900e-01
   1.0029800e-01  -4.9627600e-01  -2.9701800e-01
   1.0938800e-01  -4.8856300e-01  -2.9280600e-01
   1.1871100e-01  -4.7126800e-01  -2.8484900e-01
   1.2686900e-01  -4.5864800e-01  -2.7619100e-01
   1.3852300e-01  -4.4789700e-01  -2.7759500e-01
   1.3898900e-01  -4.3153700e-01  -2.7478700e-01
   1.4271900e-01  -4.1821500e-01  -2.7174400e-01
   1.4551600e-01  -3.9741400e-01  -2.7151000e-01
   1.4668100e-01  -3.8619600e-01  -2.6776600e-01
   1.5367400e-01  -3.7474400e-01  -2.6425600e-01
   1.5996700e-01  -3.6469400e-01  -2.6402200e-01
   1.6509500e-01  -3.5184000e-01  -2.6004400e-01
   1.6626000e-01  -3.3361000e-01  -2.5232100e-01
   1.7092200e-01  -3.1958700e-01  -2.5161900e-01
   1.7511700e-01  -3.0018900e-01  -2.4857700e-01
   1.7651600e-01  -2.8289400e-01  -2.4623700e-01
   1.8094400e-01  -2.7050700e-01  -2.5232100e-01
   1.8327500e-01  -2.5905500e-01  -2.5489500e-01
   1.8583900e-01  -2.4176000e-01  -2.5793800e-01
   1.9236500e-01  -2.2656900e-01  -2.5910800e-01
   2.0005700e-01  -2.0810500e-01  -2.5934200e-01
   2.0145500e-01  -1.7912400e-01  -2.6425600e-01
   2.0052300e-01  -1.5715500e-01  -2.6753200e-01
   2.0821500e-01  -1.3004400e-01  -2.7829700e-01
   2.1870300e-01  -1.0456900e-01  -2.8648700e-01
   2.2826000e-01  -8.6339400e-02  -2.9140200e-01
   2.3292100e-01  -6.5305000e-02  -3.0637900e-01
   2.3525200e-01  -4.6374100e-02  -3.1878100e-01
   2.3665100e-01  -2.3470000e-02  -3.3118400e-01
   2.3059000e-01   6.0268800e-04  -3.4428900e-01
   2.2546300e-01   1.9533600e-02  -3.5856400e-01
   2.1893600e-01   4.3606300e-02  -3.7003100e-01
   2.0821500e-01   6.7679000e-02  -3.8079500e-01
   2.0098900e-01   8.4973900e-02  -3.9787800e-01
   1.9446300e-01   1.1185100e-01  -4.0349500e-01
   1.8747000e-01   1.4013100e-01  -4.1402500e-01
   1.7581600e-01   1.5812700e-01  -4.3344900e-01
   1.6439500e-01   1.8196600e-01  -4.4772400e-01
   1.5507200e-01   2.1141400e-01  -4.6199800e-01
   1.4271900e-01   2.2987700e-01  -4.7861300e-01
   1.2570400e-01   2.4974300e-01  -4.9195200e-01
   1.0799000e-01   2.7054400e-01  -5.0201500e-01
   9.5869300e-02   2.8783900e-01  -5.1746000e-01
   8.0252900e-02   3.1050900e-01  -5.2331000e-01
   6.9531100e-02   3.2149400e-01  -5.2705500e-01
   6.1839400e-02   3.3995700e-01  -5.3033100e-01
   5.3215400e-02   3.5842100e-01  -5.3079900e-01
   4.2260600e-02   3.6730200e-01  -5.3571300e-01
   3.3636600e-02   3.8459700e-01  -5.3501100e-01
   3.2704200e-02   3.9721800e-01  -5.3969100e-01
   1.9185500e-02   4.1264300e-01  -5.4367000e-01
   7.5314400e-03   4.1871900e-01  -5.4858400e-01
   1.4713200e-03   4.3063900e-01  -5.4764800e-01
  -5.2880400e-03   4.3998700e-01  -5.4062700e-01
  -5.9872900e-03   4.3648200e-01  -5.4015900e-01
  -1.2746600e-02   4.4746600e-01  -5.2682000e-01
  -1.7874400e-02   4.4699900e-01  -5.1863000e-01
  -2.1370700e-02   4.4723300e-01  -5.1324800e-01
  -2.7896900e-02   4.5190700e-01  -4.9663300e-01
  -3.2092400e-02   4.5073800e-01  -4.8352800e-01
  -4.0949500e-02   4.4910200e-01  -4.6808300e-01
  -5.1205100e-02   4.4629800e-01  -4.5170200e-01
  -5.9596000e-02   4.4232500e-01  -4.3368300e-01
  -7.1483200e-02   4.4092200e-01  -4.1121700e-01
  -8.0806500e-02   4.3694900e-01  -3.8828400e-01
