**************************************************************************************
  	RED ACELEROGRÁFICA DE LA UNIVERSIDAD AUTONOMA METROPOLITANA (RA-UAM)
	   UNIDAD AZCAPOTZALCO. DIVISIÓN CBI-DEPARTAMENTO DE MATERIALES
     Av. San Pablo 420, Col. Nueva el Rosario, Azcapotzalco, C.P. 02128, Ciudad de México
		Área de Estructuras. e-mail: agb@azc.uam.mx
**************************************************************************************
ARCHIVO ESTANDAR DE ACELERACION:
VERSION DEL FORMATO                    : 2.0
NOMBRE DEL ARCHIVO                     : RIDX202203.181
FECHA Y HORA DE CREACION               : 11:30 a. m. 25/03/2022
REF. CATALOGO ACELEROGRAMAS, SMIS 1999 : REGISTRO NO.      /PAG.    


================================================================================
DATOS DE LA ESTACION:
NOMBRE DE LA ESTACION                  : UAM-XOCHIMILCO.
CLAVE DE LA ESTACION                   : RIDX
LOCALIZACION DE LA ESTACION            : CALZADA DEL HUESO 1100, COL. VILLA
                                       : QUIETUD, DEL. COYOACAN, C.P.04960,  
                                       : CIUDAD DE MEXICO.
                                       : 
                                       : 
COORDENADAS DE LA ESTACION             : 19.301345 LAT. N
                                       : 99.10268 LONG. W
ALTITUD (msnm)                         : 2232
TIPO DE SUELO                          : LAGO
                                       : 
                                       : 
INSTITUCION RESPONSABLE                : UNIVERSIDAD AUTONOMA METROPOLITANA
                                       : 

================================================================================
DATOS DEL ACELEROGRAFO: 
MODELO DEL ACELEROGRAFO                : BASALT KINEMETRICS
NUMERO DE SERIE DEL ACELEROGRAFO       : 1729
NUMERO DE CANALES                      : 3
ORIENTACION C1-C6 (rumbo;orientacion)  : /V/N00E/N90E
ORIENTACION C7-C12 (rumbo;orientacion) : 
VEL. DE MUESTREO, C1-C6 (muestras/s)   : /200/200/200
VEL. DE MUESTREO, C7-C12 (muestras/s)  : 
ESC. COMPLETA DE SENSORES, C1-C6, (g)  : /2/2/2
ESC. COMPLETA DE SENSORES, C7-C12 (g)  : 
FREC. NAT. DE SENSORES, C1-C6, (Hz)    : /208/210/200   
FREC. NAT. DE SENSORES, C7-C12 (Hz)    : 
AMORTIGUAMIENTO DE SENSORES, C1-C6     : /0.7/0.7/0.7      
AMORTIGUAMIENTO DE SENSORES, C7-C12    : 
INTERVALO DE MUESTREO, C1-C6 (s)       : /0.005/0.005/0.005
INTERVALO DE MUESTREO, C7-C12 (s)      : 
UMBRAL DE DISPARO, C1-C6 (Gal)         : /2/2/2
UMBRAL DE DISPARO, C7-C12 (Gal)        : 
MEMORIA DE PREEVENTO (s)               : 60
TIEMPO DE POSEVENTO (s)                : 80


================================================================================
DATOS DEL SISMO:
FECHA DEL SISMO [GMT]                  : 2022/03/06
HORA EPICENTRO (GMT)                   : 19:53:51
MAGNITUD(ES)                           : /M=4.8
COORDENADAS DEL EPICENTRO              : 16.8500 LAT. N
                                       : -99.9500 LONG. W
PROFUNDIDAD FOCAL (Km)                 : 22.0
FUENTE DE LOS DATOS EPICENTRALES       : SSN
                                       : INSTITUTO DE GEOFISICA, UNAM

================================================================================
DATOS DE ESTE REGISTRO:
HORA DE LA PRIMERA MUESTRA (GMT)       : 19:53:31.000
EXACTITUD DEL TIEMPO (s)               : 
DURACION DEL REGISTRO (s), C1-C6       : /181/181/181
DURACION DEL REGISTRO (s), C7-C12      : 
NUM. TOTAL DE MUESTRAS, C1-C6          : /36200/36200/36200
NUM. TOTAL DE MUESTRAS, C7-C12         : 
ACEL. MAX.(Gal), C1-C6                 : /-1.439/1.532/1.325
ACEL. MAX., C1-C6, EN LA MUESTRA       : /12792/13394/12796
ACEL. MAX.(Gal), C7-C12                : 
ACEL. MAX., C7-C12,EN LA MUESTRA       : 
UNIDADES DE LOS DATOS                  : Gal (cm/s/s)
FACTOR DE DECIMACION                   : 1
FORMATO DATOS (FORTRAN,16 campos/dato) : 3E16.7


================================================================================
CALIDAD DEL ACELEROGRAMA:
REGISTRO DIGITAL COMPLETO CON TIEMPO ABSOLUTO CORRECTO


================================================================================
COMENTARIOS:














================================================================================
DATOS DE ACELERACION:
---------+---------+---------+---------+---------+---------+---------+---------+
   CANAL-1   	      CANAL-2          CANAL-3
      V                 N00E             N90E
---------+---------+---------+---------+---------+---------+---------+---------+ 
[...]
  -1.3653400e-01  -4.9456700e-01  -1.0425100e-01
  -3.3605200e-01  -4.4011200e-01  -2.4208600e-01
  -5.8381700e-01  -3.4078300e-01  -3.4130800e-01
  -7.3159100e-01  -9.3979500e-02  -3.3499000e-01
  -6.4348600e-01   3.5662400e-01  -1.4824600e-01
  -2.9176600e-01   8.6612300e-01   2.0418000e-01
   1.7835900e-01   1.1811700e+00   5.6666900e-01
   5.6900400e-01   1.0914200e+00   7.1690600e-01
   7.3962000e-01   6.0599800e-01   5.3882100e-01
   6.5128200e-01  -4.3029600e-02   1.3748600e-01
   3.5993000e-01  -6.1119100e-01  -2.9310100e-01
  -3.9339000e-02  -9.2904400e-01  -5.5660100e-01
  -4.1110400e-01  -9.3582200e-01  -5.5707000e-01
  -6.1924600e-01  -6.4952100e-01  -3.1416200e-01
  -5.9057700e-01  -1.7320900e-01   8.6938900e-02
  -3.3745000e-01   2.9001500e-01   4.4989600e-01
   2.6156900e-02   6.4549600e-01   6.3991600e-01
   3.7158400e-01   8.7383500e-01   6.1160000e-01
   6.0443200e-01   9.3950900e-01   3.5956600e-01
   6.8787500e-01   8.5139900e-01   1.3458300e-02
   6.6200300e-01   5.9641500e-01  -2.7812400e-01
   5.8275600e-01   2.2995000e-01  -4.2368100e-01
   4.9045500e-01  -1.5871900e-01  -4.2578700e-01
   3.8090700e-01  -4.7633800e-01  -3.4645600e-01
   2.5807300e-01  -6.3432900e-01  -2.1587600e-01
   1.3640500e-01  -6.2778500e-01  -5.3235900e-02
   3.6878700e-02  -4.9573600e-01   1.5550500e-01
  -2.3256300e-02  -3.8215000e-01   3.6752200e-01
  -6.8474200e-02  -3.7794400e-01   5.1027100e-01
  -9.2714600e-02  -4.5927600e-01   5.4654400e-01
  -1.0157200e-01  -5.4154400e-01   4.5902200e-01
  -8.9218400e-02  -4.8218100e-01   2.9380800e-01
  -3.7707400e-02  -2.2976800e-01   9.3023300e-02
   1.5202100e-02   1.7713000e-01  -1.0120900e-01
   4.4104200e-02   6.1464500e-01  -2.6057300e-01
   6.8810900e-02   9.2455200e-01  -3.6283700e-01
   1.2428400e-01   1.0526300e+00  -3.5862500e-01
   2.2637400e-01   9.9513400e-01  -2.3459700e-01
   3.8789900e-01   7.4505800e-01  -4.1769200e-02
   5.5571800e-01   3.7345100e-01   1.5176100e-01
   6.7575500e-01  -3.4148400e-02   2.9123400e-01
   7.0792000e-01  -4.1533800e-01   3.1814500e-01
   6.2144700e-01  -6.9509500e-01   2.3881400e-01
   4.6901200e-01  -8.2387200e-01   1.1174400e-01
   2.5550900e-01  -7.8297200e-01  -7.1350200e-03
   1.1705900e-02  -6.4017200e-01  -8.1317700e-02
  -2.2860100e-01  -4.4852600e-01  -8.2487700e-02
  -4.4047200e-01  -2.4823200e-01  -2.1643900e-02
  -5.5281800e-01  -1.0449700e-01   4.3646200e-02
  -5.5841200e-01   1.0724900e-02   6.2367300e-02
  -4.3720900e-01   1.1753300e-01  -3.3344700e-02
  -2.3279700e-01   2.3953200e-01  -1.9668700e-01
   1.3104400e-02   3.8466900e-01  -3.3311700e-01
   2.8044900e-01   4.8563400e-01  -3.8296300e-01
   4.7926700e-01   5.1134300e-01  -2.9239900e-01
   5.9417700e-01   4.3071100e-01  -1.2578000e-01
   6.0676300e-01   2.4373900e-01   2.7733200e-02
   5.3101200e-01  -2.3631300e-03   9.8171600e-02
   4.0817800e-01  -2.4168800e-01   6.8919800e-02
   2.5271200e-01  -3.8448800e-01  -2.3750100e-02
   9.1652800e-02  -4.2258300e-01  -1.3560900e-01
  -7.1737300e-02  -3.6298600e-01  -1.8007200e-01
  -2.0575900e-01  -2.1878300e-01  -1.4497000e-01
  -3.0202200e-01  -5.8221100e-02  -6.4234600e-02
  -3.2276600e-01   8.4111500e-02   2.7967200e-02
  -2.5540600e-01   1.7549400e-01   9.8405600e-02
  -1.6147400e-01   2.1195400e-01   1.4310200e-01
  -5.9850100e-02   2.2247100e-01   1.5456900e-01
   6.3450100e-03   2.4233700e-01   1.4146400e-01
   2.6856200e-02   3.0170000e-01   9.5363400e-02
  -1.8127600e-04   3.4750900e-01   1.6500500e-02
  -8.8053000e-02   3.2109900e-01  -6.9616900e-02
  -1.8781200e-01   2.2784600e-01  -1.2999300e-01
  -2.6356300e-01   1.1776700e-01  -1.3256700e-01
  -2.9922500e-01   5.3494800e-03  -7.6403400e-02
  -2.9363100e-01  -1.5287600e-01   1.7436500e-02
  -2.8430800e-01  -3.3517400e-01   1.0940400e-01
  -2.7824800e-01  -4.5133000e-01   1.5620700e-01
  -2.5424000e-01  -4.2679000e-01   1.1946700e-01
  -2.3489400e-01  -2.4145400e-01   3.2881500e-02
  -1.7732300e-01   4.1575300e-02  -4.4109300e-02
  -4.0271300e-02   3.1759300e-01  -5.3469900e-02
   1.3081100e-01   4.8189500e-01   4.3178100e-02
   3.0608800e-01   4.4520200e-01   1.6393000e-01
   3.9093000e-01   1.7455900e-01   2.2173100e-01
   3.1074900e-01  -2.7674500e-01   1.5293100e-01
   9.5615200e-02  -7.2828300e-01  -1.7899700e-02
  -1.7475900e-01  -9.5428500e-01  -1.9200700e-01
  -3.9408900e-01  -8.3298700e-01  -3.3101100e-01
  -5.2531400e-01  -4.3123100e-01  -3.9396100e-01
  -5.9244100e-01   6.1908600e-02  -3.5113700e-01
  -6.4465200e-01   4.5922500e-01  -2.0323900e-01
  -6.9080200e-01   6.3451100e-01   1.4628300e-02
  -6.6096700e-01   6.4222400e-01   2.4068700e-01
  -5.0853200e-01   6.2259200e-01   4.1783600e-01
  -2.4608200e-01   5.8987100e-01   4.6838300e-01
   4.2938800e-02   4.4333200e-01   3.4669500e-01
   2.3942700e-01   1.0584700e-01   9.9341700e-02
   2.9676500e-01  -3.6438800e-01  -1.6743500e-01
   2.2474200e-01  -8.0657700e-01  -3.7641000e-01
   6.0886100e-02  -1.0332800e+00  -4.6557000e-01
  -1.1439100e-01  -9.5428500e-01  -4.0238600e-01
  -2.4748100e-01  -6.3503000e-01  -2.3038500e-01
  -3.0784900e-01  -2.3888300e-01  -2.6558200e-02
  -2.6915700e-01   4.2977600e-02   1.4193200e-01
  -1.8361600e-01   1.2127200e-01   2.5519500e-01
  -1.3280500e-01   3.9705600e-02   3.2189000e-01
  -1.5797700e-01  -6.1960500e-02   3.4458900e-01
  -2.4281900e-01  -2.9941500e-02   2.8819200e-01
  -3.0225500e-01   2.2504200e-01   1.5246300e-01
  -2.9875900e-01   6.0833500e-01  -5.8260600e-04
  -2.6216500e-01   8.8365100e-01  -1.2110000e-01
  -2.0482700e-01   9.3436800e-01  -1.8100800e-01
  -1.5191700e-01   7.9554100e-01  -1.7539200e-01
  -1.0297000e-01   5.8099000e-01  -1.0635700e-01
  -2.5121000e-02   3.4260100e-01   3.3956400e-03
   5.4592900e-02   7.0556000e-02   1.3257200e-01
   1.2638200e-01  -2.2556100e-01   2.3577200e-01
   1.7999100e-01  -5.2541800e-01   2.7391700e-01
   2.0469700e-01  -7.1870000e-01   2.5777000e-01
   2.7065900e-01  -7.1870000e-01   1.9716000e-01
   3.9256100e-01  -4.9854100e-01   1.3421000e-01
   5.4383100e-01  -1.0496400e-01   8.6938900e-02
   6.9510100e-01   3.1922900e-01   4.4582200e-02
   7.7481500e-01   6.1043800e-01  -2.4920100e-02
   7.5010800e-01   6.4526200e-01  -1.5620200e-01
   6.1865000e-01   4.4683800e-01  -3.2586300e-01
   4.1680200e-01   1.0351000e-01  -4.7001600e-01
   2.1029100e-01  -2.4589400e-01  -4.9107700e-01
   5.9254500e-02  -4.9036100e-01  -3.6002900e-01
   9.8413200e-04  -5.8992300e-01  -1.2110000e-01
   2.7322300e-02  -5.2027600e-01   1.4801700e-01
   1.0750200e-01  -3.5363700e-01   3.5020500e-01
   1.8162200e-01  -1.6175700e-01   4.3842900e-01
   1.9514100e-01   5.5831900e-03   4.1175100e-01
   1.5668300e-01   1.3903500e-01   3.0808300e-01
   1.1356300e-01   2.6313700e-01   1.6299400e-01
   1.0587100e-01   3.6667300e-01   2.3988900e-02
   1.7043400e-01   4.2206400e-01  -6.4000600e-02
   2.9979500e-01   3.6784200e-01  -1.1220800e-01
   4.1517000e-01   2.1078500e-01  -1.2975900e-01
   4.4780100e-01  -1.8489500e-02  -1.4848000e-01
   3.7717800e-01  -2.6459200e-01  -1.8124200e-01
   2.0796100e-01  -4.1790900e-01  -1.8545400e-01
  -1.1136000e-03  -4.6885900e-01  -1.6603100e-01
  -1.9550400e-01  -4.3193200e-01  -1.1829200e-01
  -3.3838300e-01  -3.2512400e-01  -2.5622200e-02
  -3.7451000e-01  -1.4539700e-01   9.9341700e-02
  -3.1111200e-01   1.1706500e-01   2.1166900e-01
  -1.6194000e-01   4.2253100e-01   2.4513300e-01
   3.6412500e-02   7.1514300e-01   1.7703500e-01
   2.2241200e-01   8.8435300e-01   3.4051600e-02
   3.6086200e-01   8.7126500e-01  -1.0986700e-01
   4.1750100e-01   6.5274100e-01  -1.9224100e-01
   3.9745600e-01   2.5799600e-01  -1.8826200e-01
   3.2706500e-01  -2.0335800e-01  -1.2063200e-01
   2.2684000e-01  -6.0885400e-01  -4.5981500e-02
   7.6036400e-02  -8.3625900e-01  -9.0071300e-03
  -9.7143200e-02  -8.6968100e-01  -4.8555600e-02
  -2.4981200e-01  -6.9860100e-01  -9.2550400e-02
  -3.5050300e-01  -3.9897800e-01  -4.9725700e-02
  -3.6495400e-01  -1.3090700e-01   5.4644900e-02
  -3.3605200e-01   6.1908600e-02   1.6861000e-01
  -2.3839100e-01   1.7572800e-01   2.0371200e-01
  -9.6443900e-02   2.6921400e-01   1.2016900e-01
   2.7555400e-02   3.7228200e-01  -2.6324200e-02
   1.2498400e-01   4.3678800e-01  -1.6860500e-01
   1.5714900e-01   4.2837400e-01  -2.4255400e-01
   1.1286300e-01   3.5452000e-01  -2.3155500e-01
  -9.7376200e-03   2.6360500e-01  -1.5409600e-01
  -1.5844400e-01   1.7853200e-01  -5.1597800e-02
  -2.9992400e-01   1.1215700e-01   4.6220300e-02
  -4.0457800e-01   3.2694200e-02   1.0870200e-01
  -4.5399100e-01  -8.2994900e-02   1.3655000e-01
  -4.6121700e-01  -2.0709800e-01   1.6112200e-01
  -3.9152500e-01  -3.4218500e-01   1.8569300e-01
  -2.7801400e-01  -4.8147900e-01   2.0839300e-01
  -1.5634600e-01  -5.8641800e-01   1.8522500e-01
  -5.4722400e-02  -5.6982400e-01   1.2040300e-01
   1.3104400e-02  -3.8799300e-01   2.7031100e-02
   3.8510300e-02  -9.9588700e-02  -9.7230700e-02
  -1.3466800e-03   2.1522600e-01  -2.0862200e-01
  -5.4256200e-02   4.6109400e-01  -2.8771900e-01
  -1.1532400e-01   5.9875300e-01  -3.0878000e-01
  -1.8641300e-01   5.8776800e-01  -2.8116600e-01
  -2.6939000e-01   4.0126300e-01  -2.0019700e-01
  -3.7707400e-01   1.3529500e-01  -5.2533900e-02
  -4.6168300e-01  -1.1618200e-01   9.9341700e-02
  -4.9990800e-01  -2.8025100e-01   2.2711400e-01
  -4.7007400e-01  -3.2909700e-01   2.8866000e-01
  -3.8360000e-01  -3.3049900e-01   2.3764400e-01
  -3.1064600e-01  -3.4218500e-01   9.2789300e-02
  -2.7591700e-01  -3.6999700e-01  -8.3891800e-02
  -2.6519500e-01  -3.5831100e-01  -1.7866800e-01
  -2.5517200e-01  -2.5968400e-01  -1.3911900e-01
  -2.1904500e-01  -9.4914400e-02  -1.5793600e-02
  -1.4469200e-01   1.2851700e-01   1.2344500e-01
  -9.2714600e-03   3.5849300e-01   2.2711400e-01
   1.5924600e-01   4.7651900e-01   2.6713000e-01
   2.7322300e-01   3.9612100e-01   2.3530400e-01
   2.7415600e-01   9.0655600e-02   1.3116800e-01
   1.0773500e-01  -3.1671000e-01  -4.3641300e-02
  -1.9923300e-01  -6.4484600e-01  -2.4349000e-01
  -5.3323900e-01  -7.4020200e-01  -3.9162100e-01
  -7.8776400e-01  -5.3476700e-01  -4.4544500e-01
  -8.7050800e-01  -1.5825100e-01  -3.8249500e-01
  -7.6235800e-01   2.4397300e-01  -1.7820000e-01
  -4.8405900e-01   5.7631600e-01   1.3187000e-01
  -7.6165900e-02   7.8455600e-01   4.2275000e-01
   3.7344800e-01   8.6846000e-01   5.8539000e-01
   7.7807800e-01   7.8105000e-01   5.5052200e-01
   1.0356300e+00   4.8119400e-01   3.4529100e-01
   1.0967000e+00  -7.0374300e-03   6.4707500e-02
   9.2701700e-01  -5.8524900e-01  -2.1985400e-01
   5.2448500e-01  -1.0739500e+00  -4.0519400e-01
   3.4314800e-02  -1.2714400e+00  -4.3936000e-01
  -3.7777300e-01  -1.0536100e+00  -3.3475600e-01
  -5.6750200e-01  -4.3660600e-01  -1.4145900e-01
  -4.9781000e-01   3.9168100e-01   5.9091100e-02
  -2.4491700e-01   1.1344300e+00   2.1400900e-01
   9.7013700e-02   1.5319800e+00   2.8983000e-01
   4.2892200e-01   1.4539200e+00   2.7766100e-01
   6.8088300e-01   1.0077500e+00   1.9411800e-01
   8.2236300e-01   4.2907500e-01   6.2835400e-02
   8.7014500e-01  -7.1075400e-02  -6.5872700e-02
   8.2376200e-01  -3.9103200e-01  -1.5433000e-01
   6.9789800e-01  -5.5089300e-01  -2.0136700e-01
   5.0024500e-01  -5.9973900e-01  -1.8522000e-01
   2.6436600e-01  -5.8852100e-01  -1.3537500e-01
   5.6457500e-02  -4.8475100e-01  -5.6044100e-02
  -7.3368900e-02  -2.7744600e-01   5.6985000e-02
  -4.7030700e-02  -1.6386000e-02   1.5878100e-01
   1.2871300e-01   2.2948200e-01   2.4326100e-01
   3.9302700e-01   3.5872700e-01   2.6432200e-01
   6.4731900e-01   3.4260100e-01   2.0160600e-01
   7.9043100e-01   2.0400700e-01   7.8982400e-02
   7.9602500e-01   2.7786100e-02  -5.9554300e-02
   6.5221400e-01  -8.9772600e-02  -1.5035200e-01
   3.9768900e-01  -1.3417900e-01  -1.5854300e-01
   1.1729200e-01  -1.3978800e-01  -6.8212800e-02
  -1.2138400e-01  -1.4189100e-01   6.2133300e-02
  -2.7475100e-01  -1.6082200e-01   1.5831300e-01
  -3.0621700e-01  -1.9354200e-01   1.6627000e-01
  -2.1671400e-01  -2.1527800e-01   6.3537400e-02
  -7.1970400e-02  -2.1317400e-01  -1.0120900e-01
   5.4126700e-02  -1.8769900e-01  -2.6455100e-01
   1.2731400e-01  -1.5755000e-01  -3.7196400e-01
   1.4456200e-01  -1.2529700e-01  -3.9700300e-01
   1.3197600e-01  -5.8221100e-02  -3.3335100e-01
   1.2032200e-01   5.3494800e-02  -1.9645300e-01
   1.2125400e-01   1.7829900e-01  -2.7962300e-02
   1.2521700e-01   2.7435600e-01   1.1946700e-01
   1.0633700e-01   3.3044700e-01   2.0932900e-01
   8.1630300e-02   3.6199900e-01   2.4677100e-01
   8.6058900e-02   3.4400300e-01   2.2313500e-01
   1.0493800e-01   2.6570800e-01   1.5082500e-01
   1.0400600e-01   1.3880100e-01   5.0666600e-02
   5.5525200e-02  -2.9474100e-02  -5.6746100e-02
  -4.8196100e-02  -1.8045400e-01  -1.4707600e-01
  -1.8967700e-01  -2.9100100e-01  -2.1657800e-01
  -3.4048000e-01  -3.7093200e-01  -2.3132100e-01
  -4.4932900e-01  -4.2608900e-01  -1.9855900e-01
  -4.9804300e-01  -4.3076300e-01  -1.2180200e-01
  -4.9687800e-01  -3.6625800e-01  -1.9069800e-02
  -4.3278100e-01  -2.7768000e-01   6.3303400e-02
  -3.2556300e-01  -1.6386000e-01   1.2344500e-01
  -2.1205200e-01  -3.0642700e-02   1.3421000e-01
  -1.2418100e-01   9.8134400e-02   9.4427400e-02
  -8.7353800e-02   1.9816500e-01   9.0120000e-03
  -1.0390300e-01   2.4280400e-01  -9.8868800e-02
  -1.5098500e-01   2.5332100e-01  -1.6883900e-01
  -1.9177400e-01   2.5238700e-01  -1.7586000e-01
  -2.1508200e-01   2.4233700e-01  -1.0705900e-01
  -2.1345100e-01   2.2106900e-01  -3.8588100e-03
  -1.9573700e-01   1.5633000e-01   7.5472200e-02
  -2.1088700e-01   4.1341600e-02   1.2578500e-01
  -2.6053300e-01  -6.1726800e-02   1.4614500e-01
  -2.9572900e-01  -1.2109000e-01   1.4567700e-01
  -2.8780400e-01  -1.0169200e-01   1.6346200e-01
  -2.1042100e-01  -1.8956900e-02   1.9575600e-01
  -8.6887600e-02   4.8586800e-02   2.1166900e-01
   6.5780900e-03   4.9054200e-02   1.8639500e-01
   2.6390000e-02  -5.6351400e-02   8.2024600e-02
  -3.9105900e-02  -1.9751500e-01  -6.3766600e-02
  -1.5588000e-01  -3.2605900e-01  -1.9130500e-01
  -2.7871400e-01  -3.9594000e-01  -2.5519100e-01
  -3.5469800e-01  -3.4569100e-01  -2.1470600e-01
  -3.4840500e-01  -1.9961900e-01  -1.1548400e-01
  -3.1018000e-01   4.1809100e-02   1.9915600e-03
  -2.5796900e-01   2.8393800e-01   7.1961900e-02
  -2.1461600e-01   4.3889100e-01   5.0666600e-02
  -2.0599200e-01   4.8703700e-01  -1.1113300e-02
  -1.8221800e-01   4.3234700e-01  -6.7510800e-02
  -1.2697800e-01   3.5522100e-01  -3.1004500e-02
  -2.2790200e-02   2.6781200e-01   1.0823400e-01
   1.2008900e-01   1.7128700e-01   2.8234100e-01
   2.4548700e-01   4.8820500e-02   4.3140800e-01
   3.3662200e-01  -1.2109000e-01   4.8078600e-01
   3.7018500e-01  -3.3914700e-01   4.1221900e-01
   3.0865200e-01  -6.1563200e-01   2.4700500e-01
   1.3547200e-01  -8.7762700e-01   4.3412200e-02
  -1.1975200e-01  -1.0211300e+00  -1.5175600e-01
  -4.2578800e-01  -9.2857700e-01  -2.9707900e-01
  -7.0641800e-01  -5.7449800e-01  -3.5768900e-01
  -8.6328200e-01  -6.2194200e-02  -3.3569200e-01
  -8.6980800e-01   4.6132800e-01  -2.2008800e-01
  -7.2133600e-01   8.0792800e-01  -5.2533900e-02
  -4.9617900e-01   8.7967800e-01   1.4216600e-01
  -2.9339800e-01   7.1654500e-01   3.1323100e-01
  -1.3793200e-01   4.4309800e-01   3.4669500e-01
  -4.0970500e-02   2.1148600e-01   2.4560100e-01
   4.7134400e-03   7.8034900e-02   7.9450400e-02
   8.4427400e-03   2.2410700e-02  -6.7978800e-02
   1.1239700e-02   6.5648000e-02  -1.4450200e-01
   9.6314500e-02   1.7923400e-01  -1.9832500e-01
