**************************************************************************************
  	RED ACELEROGRÁFICA DE LA UNIVERSIDAD AUTONOMA METROPOLITANA (RA-UAM)
	   UNIDAD AZCAPOTZALCO. DIVISIÓN CBI-DEPARTAMENTO DE MATERIALES
     Av. San Pablo 420, Col. Nueva el Rosario, Azcapotzalco, C.P. 02128, Ciudad de México
		Área de Estructuras. e-mail: agb@azc.uam.mx
**************************************************************************************
ARCHIVO ESTANDAR DE ACELERACION:
VERSION DEL FORMATO                    : 2.0
NOMBRE DEL ARCHIVO                     : RIDX202212.301
FECHA Y HORA DE CREACION               : 11:30 a. m. 06/01/2023
REF. CATALOGO ACELEROGRAMAS, SMIS 1999 : REGISTRO NO.      /PAG.    


================================================================================
DATOS DE LA ESTACION:
NOMBRE DE LA ESTACION                  : UAM-XOCHIMILCO.
CLAVE DE LA ESTACION                   : RIDX
LOCALIZACION DE LA ESTACION            : CALZADA DEL HUESO 1100, COL. VILLA
                                       : QUIETUD, DEL. COYOACAN, C.P.04960,  
                                       : CIUDAD DE MEXICO.
                                       : 
                                       : 
COORDENADAS DE LA ESTACION             : 19.301345 LAT. N
                                       : 99.10268 LONG. W
ALTITUD (msnm)                         : 2232
TIPO DE SUELO                          : LAGO
                                       : 
                                       : 
INSTITUCION RESPONSABLE                : UNIVERSIDAD AUTONOMA METROPOLITANA
                                       : 

================================================================================
DATOS DEL ACELEROGRAFO: 
MODELO DEL ACELEROGRAFO                : BASALT KINEMETRICS
NUMERO DE SERIE DEL ACELEROGRAFO       : 1729
NUMERO DE CANALES                      : 3
ORIENTACION C1-C6 (rumbo;orientacion)  : /V/N00E/N90E
ORIENTACION C7-C12 (rumbo;orientacion) : 
VEL. DE MUESTREO, C1-C6 (muestras/s)   : /200/200/200
VEL. DE MUESTREO, C7-C12 (muestras/s)  : 
ESC. COMPLETA DE SENSORES, C1-C6, (g)  : /2/2/2
ESC. COMPLETA DE SENSORES, C7-C12 (g)  : 
FREC. NAT. DE SENSORES, C1-C6, (Hz)    : /208/210/200   
FREC. NAT. DE SENSORES, C7-C12 (Hz)    : 
AMORTIGUAMIENTO DE SENSORES, C1-C6     : /0.7/0.7/0.7      
AMORTIGUAMIENTO DE SENSORES, C7-C12    : 
INTERVALO DE MUESTREO, C1-C6 (s)       : /0.005/0.005/0.005
INTERVALO DE MUESTREO, C7-C12 (s)      : 
UMBRAL DE DISPARO, C1-C6 (Gal)         : /2/2/2
UMBRAL DE DISPARO, C7-C12 (Gal)        : 
MEMORIA DE PREEVENTO (s)               : 60
TIEMPO DE POSEVENTO (s)                : 80


================================================================================
DATOS DEL SISMO:
FECHA DEL SISMO [GMT]                  : 2022/12/30
HORA EPICENTRO (GMT)                   : 15:35:51
MAGNITUD(ES)                           : /M=4.8
COORDENADAS DEL EPICENTRO              : 18.2600 LAT. N
                                       : -103.2000 LONG. W
PROFUNDIDAD FOCAL (Km)                 : 10.0
FUENTE DE LOS DATOS EPICENTRALES       : SSN
                                       : INSTITUTO DE GEOFISICA, UNAM

================================================================================
DATOS DE ESTE REGISTRO:
HORA DE LA PRIMERA MUESTRA (GMT)       : 15:37:36.000
EXACTITUD DEL TIEMPO (s)               : 
DURACION DEL REGISTRO (s), C1-C6       : /141/141/141
DURACION DEL REGISTRO (s), C7-C12      : 
NUM. TOTAL DE MUESTRAS, C1-C6          : /28200/28200/28200
NUM. TOTAL DE MUESTRAS, C7-C12         : 
ACEL. MAX.(Gal), C1-C6                 : /-0.185/0.505/-0.418
ACEL. MAX., C1-C6, EN LA MUESTRA       : /6490/12060/8913
ACEL. MAX.(Gal), C7-C12                : 
ACEL. MAX., C7-C12,EN LA MUESTRA       : 
UNIDADES DE LOS DATOS                  : Gal (cm/s/s)
FACTOR DE DECIMACION                   : 1
FORMATO DATOS (FORTRAN,16 campos/dato) : 3E16.7


================================================================================
CALIDAD DEL ACELEROGRAMA:
REGISTRO DIGITAL COMPLETO CON TIEMPO ABSOLUTO CORRECTO


================================================================================
COMENTARIOS:














================================================================================
DATOS DE ACELERACION:
---------+---------+---------+---------+---------+---------+---------+---------+
   CANAL-1   	      CANAL-2          CANAL-3
      V                 N00E             N90E
---------+---------+---------+---------+---------+---------+---------+---------+
[...]
  -3.1638400e-03  -2.7210500e-01  -2.2329600e-02
  -8.2916400e-03  -2.6836500e-01  -1.7883400e-02
  -3.6300100e-03  -2.6906600e-01  -2.0457500e-02
  -8.7578000e-03  -2.6953400e-01  -1.7415300e-02
  -1.3419400e-02  -2.6930000e-01  -1.6947300e-02
  -1.2020900e-02  -2.7537700e-01  -1.8585400e-02
  -1.4584800e-02  -2.7864900e-01  -1.3905100e-02
  -2.0411900e-02  -2.7631100e-01  -1.0160900e-02
  -2.2742700e-02  -2.8425800e-01  -9.6928500e-03
  -1.7614900e-02  -2.8495900e-01  -3.3744600e-03
  -1.5051000e-02  -2.8262200e-01   2.4759100e-03
  -1.0855500e-02  -2.9360600e-01   1.7738600e-03
  -6.4269800e-03  -2.8542600e-01   1.3006600e-02
   5.4601700e-03  -2.8589400e-01   1.2070500e-02
   8.2571500e-03  -2.8519300e-01   9.9643800e-03
   6.8586600e-03  -2.7397400e-01   1.3006600e-02
   1.8512700e-02  -2.8308900e-01   6.6881700e-03
   2.2708200e-02  -2.7911600e-01   1.0432400e-02
   3.4129200e-02  -2.8495900e-01   6.9221900e-03
   3.6460000e-02  -2.9103500e-01   8.5602900e-03
   3.7159300e-02  -2.9243800e-01   7.1562000e-03
   4.2287100e-02  -3.0131900e-01   2.0078800e-03
   3.6226900e-02  -2.9874800e-01   4.1140100e-03
   4.4851000e-02  -3.0505800e-01  -4.7785500e-03
   4.2054000e-02  -3.0669400e-01  -1.5023400e-03
   3.5527700e-02  -3.0833000e-01   2.4759100e-03
   4.1820900e-02  -3.1510800e-01  -1.2683300e-03
   4.3452500e-02  -3.1464100e-01   2.0078800e-03
   4.2753200e-02  -3.1300500e-01   8.5602900e-03
   4.8347200e-02  -3.1253700e-01   1.1134500e-02
   5.8369700e-02  -3.1277100e-01   1.0432400e-02
   5.3708100e-02  -3.1300500e-01   1.3942600e-02
   5.0911100e-02  -3.1207000e-01   1.5112700e-02
   5.6505000e-02  -3.0879800e-01   1.9091000e-02
   6.9091400e-02  -3.1417300e-01   1.6048800e-02
   7.7482400e-02  -3.1160200e-01   1.6048800e-02
   7.8414700e-02  -3.1043400e-01   2.0729100e-02
   8.2144000e-02  -3.1534200e-01   1.2304500e-02
   8.2144000e-02  -3.1090100e-01   1.5814700e-02
   9.0768000e-02  -3.1861400e-01   1.3942600e-02
   8.7971000e-02  -3.1838000e-01   1.2304500e-02
   8.4941000e-02  -3.1978200e-01   1.1134500e-02
   9.0068800e-02  -3.2866400e-01  -9.8253000e-05
   7.8181600e-02  -3.2025000e-01   5.2840800e-03
   7.6550000e-02  -3.2469000e-01   8.3780600e-04
   7.4918500e-02  -3.2866400e-01  -4.0765000e-03
   6.9790700e-02  -3.2515800e-01   3.6977600e-04
   6.5828300e-02  -3.2819600e-01  -1.7363600e-03
   5.6971200e-02  -3.2702800e-01  -2.9064300e-03
   6.2099000e-02  -3.2889700e-01   4.3480300e-03
   6.8159100e-02  -3.2866400e-01   8.7943000e-03
   6.7926000e-02  -3.2983200e-01   6.2201400e-03
   6.1399700e-02  -3.2959800e-01   1.5580700e-02
   6.2798200e-02  -3.2913100e-01   4.8160600e-03
   6.4429800e-02  -3.2632600e-01   5.9861300e-03
   5.6038900e-02  -3.1978200e-01   1.2772600e-02
   5.4640400e-02  -3.2235300e-01  -3.3226800e-04
   4.9978700e-02  -3.1697800e-01   8.7943000e-03
   5.5339600e-02  -3.1627700e-01   4.3480300e-03
   5.3475000e-02  -3.1697800e-01   5.0500700e-03
   4.3685500e-02  -3.1370600e-01   9.2623300e-03
   4.6948700e-02  -3.2188600e-01  -8.0029700e-04
   4.0189300e-02  -3.2469000e-01   6.0379100e-04
   3.5527700e-02  -3.2562500e-01  -3.8424900e-03
   3.2031500e-02  -3.2492400e-01  -7.8207400e-03
   2.9001400e-02  -3.2585900e-01  -8.0547500e-03
   3.6460000e-02  -3.2866400e-01  -1.4139100e-02
   2.7136800e-02  -3.2749500e-01  -1.7883400e-02
   1.4084200e-02  -3.2866400e-01  -1.6245300e-02
   1.9212000e-02  -3.2562500e-01  -2.0925600e-02
   1.8279700e-02  -3.2585900e-01  -1.9989500e-02
   1.5249600e-02  -3.2936500e-01  -1.7649400e-02
   1.5249600e-02  -3.2913100e-01  -2.1627600e-02
   1.4783400e-02  -3.2679400e-01  -1.9989500e-02
   1.6648100e-02  -3.2562500e-01  -2.5371800e-02
   1.0121800e-02  -3.2352200e-01  -2.7946000e-02
   9.4225600e-03  -3.2235300e-01  -3.1222200e-02
   8.4902300e-03  -3.2515800e-01  -3.8944700e-02
   4.2947700e-03  -3.2188600e-01  -4.1050800e-02
   9.9299300e-05  -3.1791300e-01  -4.1050800e-02
  -1.0156300e-02  -3.1323800e-01  -4.4327000e-02
  -1.0855500e-02  -3.1534200e-01  -4.8539300e-02
  -2.0411900e-02  -3.1394000e-01  -4.9475400e-02
  -2.5772800e-02  -3.0833000e-01  -5.4857700e-02
  -2.5772800e-02  -3.1066800e-01  -5.7899900e-02
  -3.5562200e-02  -3.0248700e-01  -5.8367900e-02
  -3.8126100e-02  -3.0529200e-01  -6.3282200e-02
  -4.7449300e-02  -3.0716200e-01  -6.7260500e-02
  -4.8148600e-02  -3.0061800e-01  -6.8898600e-02
  -4.0690000e-02  -3.0552600e-01  -7.4983000e-02
  -4.4186200e-02  -2.9828100e-01  -7.5685000e-02
  -4.1855400e-02  -2.9617700e-01  -7.6855100e-02
  -3.9058400e-02  -2.9874800e-01  -8.3641500e-02
  -3.9757600e-02  -2.9150300e-01  -8.1535400e-02
  -3.8126100e-02  -2.8636100e-01  -8.8555800e-02
  -3.8126100e-02  -2.8285500e-01  -9.4406200e-02
  -4.3020800e-02  -2.7935000e-01  -9.8852400e-02
  -4.7216300e-02  -2.7467500e-01  -1.0891500e-01
  -4.8148600e-02  -2.7187100e-01  -1.0938300e-01
  -4.9080900e-02  -2.6766400e-01  -1.1476500e-01
  -5.1411700e-02  -2.6672900e-01  -1.1663800e-01
  -6.2133500e-02  -2.6369100e-01  -1.2131800e-01
  -6.6562000e-02  -2.5784800e-01  -1.3161500e-01
  -7.1456700e-02  -2.5223900e-01  -1.3138000e-01
  -7.7983000e-02  -2.4382500e-01  -1.3559300e-01
  -7.1223600e-02  -2.4499400e-01  -1.3886900e-01
  -7.3554500e-02  -2.3681400e-01  -1.3840100e-01
  -7.1922900e-02  -2.2582900e-01  -1.4612300e-01
  -6.8659800e-02  -2.2699700e-01  -1.4471900e-01
  -7.4953000e-02  -2.1531200e-01  -1.4214500e-01
  -7.0757500e-02  -2.0689800e-01  -1.4846400e-01
  -6.7960500e-02  -2.0245700e-01  -1.5174000e-01
  -6.8426700e-02  -1.8773300e-01  -1.5431400e-01
  -5.9103400e-02  -1.8165700e-01  -1.5244200e-01
  -4.3020800e-02  -1.7581400e-01  -1.5922800e-01
  -4.3720000e-02  -1.6249200e-01  -1.5969600e-01
  -4.9547100e-02  -1.5314300e-01  -1.6063200e-01
  -4.4186200e-02  -1.4893700e-01  -1.7888500e-01
  -4.0223800e-02  -1.4239300e-01  -1.7631100e-01
  -3.5795300e-02  -1.3327800e-01  -1.8075800e-01
  -3.9990700e-02  -1.2930400e-01  -1.9082000e-01
  -4.3953100e-02  -1.2159200e-01  -1.9269200e-01
  -4.2321500e-02  -1.0850400e-01  -2.0181900e-01
  -4.3953100e-02  -1.0219400e-01  -2.0462700e-01
  -4.5817800e-02  -9.8687800e-02  -2.0954100e-01
  -4.2554600e-02  -8.7703200e-02  -2.0603100e-01
  -3.7426800e-02  -7.8120800e-02  -2.0392500e-01
  -4.2554600e-02  -7.7186000e-02  -2.0649900e-01
  -3.6494500e-02  -6.8304800e-02  -2.0439300e-01
  -2.6705100e-02  -5.2178400e-02  -2.0228700e-01
  -1.9013400e-02  -3.6753200e-02  -2.0252100e-01
  -1.5983300e-02  -1.9925700e-02  -2.0813700e-01
  -2.0411900e-02  -7.7725300e-03  -2.0790300e-01
  -8.5247200e-03   3.2120800e-03  -2.1094500e-01
  -1.2487100e-02   1.7702400e-02  -2.1141400e-01
  -1.0389400e-02   2.3311600e-02  -2.1281800e-01
   1.0316300e-03   3.5464800e-02  -2.1515800e-01
   1.9639500e-03   4.7150600e-02  -2.1047700e-01
   1.4084200e-02   5.1123700e-02  -2.1820000e-01
   4.2947700e-03   6.4211800e-02  -2.1913600e-01
   5.2270900e-03   6.8652400e-02  -2.1773200e-01
   1.4317300e-02   8.0338100e-02  -2.2381600e-01
   1.1287200e-02   8.9219300e-02  -2.2732700e-01
   9.1894800e-03   9.4828500e-02  -2.2709200e-01
   6.6255800e-03   1.1048700e-01  -2.2568800e-01
   2.1542800e-02   1.1633000e-01  -2.2568800e-01
   1.6181900e-02   1.3222300e-01  -2.1913600e-01
   1.5249600e-02   1.3970200e-01  -2.2334800e-01
   2.2475100e-02   1.4554500e-01  -2.1749800e-01
   2.0377400e-02   1.5652900e-01  -2.0930700e-01
   2.5505200e-02   1.6284000e-01  -2.1843400e-01
   2.2708200e-02   1.7943300e-01  -2.1328600e-01
   3.7625400e-02   1.8667900e-01  -2.1305200e-01
   4.5550200e-02   1.9485900e-01  -2.1047700e-01
   4.0888600e-02   2.0771300e-01  -2.0415900e-01
   3.9490100e-02   2.2033400e-01  -2.0837100e-01
   3.5993900e-02   2.3015000e-01  -2.0579700e-01
   4.2520100e-02   2.4136800e-01  -2.0205300e-01
   4.3452500e-02   2.4908100e-01  -2.0088300e-01
   4.2287100e-02   2.5352100e-01  -1.9667100e-01
   4.4617900e-02   2.6777800e-01  -1.9573500e-01
   4.4851000e-02   2.7081600e-01  -1.9830900e-01
   3.9723200e-02   2.7782800e-01  -1.9550100e-01
   3.3896100e-02   2.8250200e-01  -1.9269200e-01
   3.2031500e-02   2.8694200e-01  -1.9058600e-01
   3.5294600e-02   2.9231800e-01  -1.9316000e-01
   3.5061500e-02   2.9231800e-01  -1.8918200e-01
   3.0866100e-02   3.0493900e-01  -1.7958800e-01
   3.8557800e-02   3.0657500e-01  -1.7748100e-01
   3.8091600e-02   3.1498800e-01  -1.6554700e-01
   3.9257000e-02   3.2386900e-01  -1.6133400e-01
   3.7625400e-02   3.3134800e-01  -1.6039800e-01
   3.5993900e-02   3.4373500e-01  -1.5080400e-01
   4.6016400e-02   3.4280000e-01  -1.4682500e-01
   3.8790800e-02   3.5098000e-01  -1.4261300e-01
   3.9723200e-02   3.5308400e-01  -1.3816700e-01
   4.2287100e-02   3.5682300e-01  -1.3325300e-01
   3.9257000e-02   3.6477000e-01  -1.3114600e-01
   3.9023900e-02   3.6383500e-01  -1.2576400e-01
   3.1332200e-02   3.6406800e-01  -1.2131800e-01
   2.9467600e-02   3.6804200e-01  -1.2319000e-01
   2.6437500e-02   3.7481900e-01  -1.1336100e-01
   2.7136800e-02   3.7435200e-01  -1.0868100e-01
   2.5971300e-02   3.7949400e-01  -1.0727700e-01
   1.8512700e-02   3.8533700e-01  -9.6044300e-02
   2.0610500e-02   3.8580400e-01  -9.3938100e-02
   2.0610500e-02   3.9141300e-01  -8.6215700e-02
   1.3851100e-02   3.9421800e-01  -7.1706700e-02
   1.9445100e-02   3.9234800e-01  -6.6090400e-02
   2.9700700e-02   3.9678900e-01  -5.8133900e-02
   3.3196900e-02   4.0239800e-01  -5.1113500e-02
   3.2730700e-02   4.0263100e-01  -4.2922900e-02
   3.1332200e-02   4.1338200e-01  -3.2626300e-02
   4.2520100e-02   4.1805700e-01  -2.6541900e-02
   4.8114100e-02   4.1945900e-01  -1.9521500e-02
   4.0888600e-02   4.2927500e-01  -1.4139100e-02
   4.2753200e-02   4.3465000e-01  -7.5867200e-03
   4.5084000e-02   4.3885700e-01   1.0718200e-03
   3.7159300e-02   4.4306400e-01   5.0500700e-03
   2.9700700e-02   4.4773900e-01   1.0198400e-02
   3.2963800e-02   4.5077700e-01   1.7686900e-02
   3.5760800e-02   4.5288000e-01   2.1899100e-02
   2.7836000e-02   4.5545100e-01   2.7281500e-02
   1.8978900e-02   4.5802200e-01   3.4769900e-02
   1.2452600e-02   4.6012500e-01   4.0854300e-02
   1.6181900e-02   4.6503300e-01   5.3257100e-02
   1.4783400e-02   4.6970800e-01   6.1681600e-02
   4.5278500e-03   4.7111000e-01   6.8468000e-02
   1.4317300e-02   4.7555100e-01   7.8998700e-02
   8.2571500e-03   4.8326300e-01   8.5317100e-02
   1.2647100e-03   4.8700300e-01   9.8187900e-02
   1.0588000e-02   4.8373100e-01   9.6081800e-02
   2.1970300e-03   4.9237800e-01   1.0052800e-01
   7.5579100e-03   4.9752000e-01   1.1714300e-01
   1.1753400e-02   4.8957400e-01   1.1129300e-01
   2.4301100e-03   4.9307900e-01   1.1971700e-01
   5.2270900e-03   4.9565000e-01   1.2697200e-01
   4.2947700e-03   4.9658500e-01   1.2275900e-01
  -4.7954100e-03   4.9985700e-01   1.3095000e-01
  -8.9908800e-03   4.9915600e-01   1.3001400e-01
  -1.0156300e-02   5.0453100e-01   1.3212000e-01
  -1.5517200e-02   5.0125900e-01   1.3492800e-01
  -2.2043400e-02   4.9354700e-01   1.3890600e-01
  -2.9269000e-02   4.9658500e-01   1.4662900e-01
  -3.0434400e-02   4.8583400e-01   1.4850100e-01
  -2.8336600e-02   4.8256200e-01   1.5692600e-01
  -2.9502100e-02   4.8723600e-01   1.6371200e-01
  -3.2299000e-02   4.7765400e-01   1.6301000e-01
  -3.6494500e-02   4.8723600e-01   1.7096600e-01
  -3.2066000e-02   4.8863900e-01   1.7471100e-01
  -3.1366700e-02   4.8092600e-01   1.6862600e-01
  -3.6727600e-02   4.8840500e-01   1.7798700e-01
  -3.2998300e-02   4.8793800e-01   1.8032700e-01
  -2.4840400e-02   4.8303000e-01   1.7634900e-01
  -2.8569700e-02   4.8162700e-01   1.8219900e-01
  -3.5329100e-02   4.8349700e-01   1.8266700e-01
  -2.9269000e-02   4.7414800e-01   1.8547500e-01
  -2.8103600e-02   4.6620200e-01   1.7939100e-01
  -3.3464400e-02   4.5989200e-01   1.7939100e-01
  -3.5795300e-02   4.5007600e-01   1.8407100e-01
  -3.4629800e-02   4.4773900e-01   1.7564700e-01
  -3.1599800e-02   4.4470000e-01   1.7939100e-01
  -2.9735100e-02   4.4189600e-01   1.8360300e-01
  -3.3930600e-02   4.3465000e-01   1.7705100e-01
  -4.6750100e-02   4.3628600e-01   1.8149700e-01
  -3.9757600e-02   4.2904100e-01   1.8805000e-01
  -3.3464400e-02   4.1945900e-01   1.8664500e-01
  -3.4629800e-02   4.2390000e-01   1.9015600e-01
  -2.5772800e-02   4.1595300e-01   1.8945400e-01
  -2.9968200e-02   4.1642100e-01   1.8828400e-01
  -3.0667500e-02   4.1011000e-01   1.9249600e-01
  -3.6494500e-02   4.0637100e-01   1.9741000e-01
  -3.2765200e-02   4.1057800e-01   1.9787800e-01
  -2.0411900e-02   4.0169700e-01   1.9600600e-01
  -2.6705100e-02   3.9842500e-01   1.9998400e-01
  -2.2975800e-02   3.9655500e-01   1.9904800e-01
  -2.2509600e-02   3.9468500e-01   1.9694200e-01
  -2.0645000e-02   3.9001100e-01   1.9085800e-01
  -2.0645000e-02   3.8510300e-01   1.8570900e-01
  -2.8569700e-02   3.8019500e-01   1.8547500e-01
  -2.5539700e-02   3.7271600e-01   1.7915700e-01
  -2.3908100e-02   3.6570400e-01   1.7634900e-01
  -2.4607300e-02   3.6173100e-01   1.7377500e-01
  -2.8802800e-02   3.5682300e-01   1.6839200e-01
  -3.3231400e-02   3.4887700e-01   1.6956200e-01
  -2.8802800e-02   3.4420300e-01   1.6652000e-01
  -2.9035900e-02   3.3345200e-01   1.6254200e-01
  -3.1133600e-02   3.2924500e-01   1.6605200e-01
  -2.2742700e-02   3.2527200e-01   1.6184000e-01
  -2.3208900e-02   3.1826000e-01   1.6324400e-01
  -2.4840400e-02   3.1195000e-01   1.6113800e-01
  -2.2509600e-02   3.0774300e-01   1.6184000e-01
  -2.0411900e-02   3.0587300e-01   1.6628600e-01
  -1.7614900e-02   2.9629100e-01   1.5435100e-01
  -2.0645000e-02   2.9629100e-01   1.5856400e-01
  -1.9945700e-02   2.9091600e-01   1.5271300e-01
  -2.4141200e-02   2.8110000e-01   1.4756500e-01
  -2.2975800e-02   2.7362100e-01   1.4826700e-01
  -2.3208900e-02   2.6473900e-01   1.3282200e-01
  -2.8802800e-02   2.6473900e-01   1.3258800e-01
  -2.2975800e-02   2.5024900e-01   1.2439800e-01
  -3.0201300e-02   2.4347100e-01   1.2018500e-01
  -3.1133600e-02   2.4230300e-01   1.2533400e-01
  -2.4141200e-02   2.3038300e-01   1.1878100e-01
  -2.9035900e-02   2.2921500e-01   1.1363300e-01
  -2.4607300e-02   2.1846400e-01   1.1573900e-01
  -1.7614900e-02   2.1168600e-01   1.1690900e-01
  -7.8254700e-03   2.0654400e-01   1.0778300e-01
  -8.3302700e-04   1.9906500e-01   1.1012300e-01
   1.7308700e-03   2.0000000e-01   1.0918700e-01
   9.1894800e-03   1.8691200e-01   9.9826000e-02
   1.0354900e-02   1.8364000e-01   9.9358000e-02
   1.1753400e-02   1.8457500e-01   9.6549800e-02
   1.2918800e-02   1.7592800e-01   9.2337500e-02
   1.9678100e-02   1.7172100e-01   8.6253200e-02
   2.0610500e-02   1.6681300e-01   8.7657300e-02
   1.6415000e-02   1.6073600e-01   8.6019100e-02
   2.0144300e-02   1.5185500e-01   8.1104800e-02
   1.3618000e-02   1.4694700e-01   8.2977000e-02
   1.5715800e-02   1.4087000e-01   7.7126600e-02
   1.9678100e-02   1.3058700e-01   7.1978300e-02
   1.7114300e-02   1.2544500e-01   7.6190500e-02
   2.0377400e-02   1.1796600e-01   7.8764700e-02
   2.6670600e-02   1.0885100e-01   7.2914300e-02
   3.0633000e-02   1.0464500e-01   7.5488500e-02
   3.0866100e-02   9.9269100e-02   7.6190500e-02
   3.8324700e-02   9.3659900e-02   7.1744300e-02
   3.9257000e-02   9.0855300e-02   7.6424500e-02
   4.4851000e-02   8.3843900e-02   7.4084400e-02
   5.1377200e-02   8.2207800e-02   7.2680300e-02
   5.2309600e-02   7.6598700e-02   7.3382400e-02
   5.9068900e-02   6.6782600e-02   6.8000000e-02
   6.2099000e-02   5.9303800e-02   6.7064000e-02
   6.3963600e-02   4.9487700e-02   6.4021800e-02
   5.4174200e-02   4.5982000e-02   5.7235300e-02
