**************************************************************************************
  	RED ACELEROGRÁFICA DE LA UNIVERSIDAD AUTONOMA METROPOLITANA (RA-UAM)
	   UNIDAD AZCAPOTZALCO. DIVISIÓN CBI-DEPARTAMENTO DE MATERIALES
     Av. San Pablo 420, Col. Nueva el Rosario, Azcapotzalco, C.P. 02128, Ciudad de México
		Área de Estructuras. e-mail: agb@azc.uam.mx
**************************************************************************************
ARCHIVO ESTANDAR DE ACELERACION:
VERSION DEL FORMATO                    : 2.0
NOMBRE DEL ARCHIVO                     : RIDX202212.111
FECHA Y HORA DE CREACION               : 11:30 a. m. 16/12/2022
REF. CATALOGO ACELEROGRAMAS, SMIS 1999 : REGISTRO NO.      /PAG.    


================================================================================
DATOS DE LA ESTACION:
NOMBRE DE LA ESTACION                  : UAM-XOCHIMILCO.
CLAVE DE LA ESTACION                   : RIDX
LOCALIZACION DE LA ESTACION            : CALZADA DEL HUESO 1100, COL. VILLA
                                       : QUIETUD, DEL. COYOACAN, C.P.04960,  
                                       : CIUDAD DE MEXICO.
                                       : 
                                       : 
COORDENADAS DE LA ESTACION             : 19.301345 LAT. N
                                       : 99.10268 LONG. W
ALTITUD (msnm)                         : 2232
TIPO DE SUELO                          : LAGO
                                       : 
                                       : 
INSTITUCION RESPONSABLE                : UNIVERSIDAD AUTONOMA METROPOLITANA
                                       : 

================================================================================
DATOS DEL ACELEROGRAFO: 
MODELO DEL ACELEROGRAFO                : BASALT KINEMETRICS
NUMERO DE SERIE DEL ACELEROGRAFO       : 1729
NUMERO DE CANALES                      : 3
ORIENTACION C1-C6 (rumbo;orientacion)  : /V/N00E/N90E
ORIENTACION C7-C12 (rumbo;orientacion) : 
VEL. DE MUESTREO, C1-C6 (muestras/s)   : /200/200/200
VEL. DE MUESTREO, C7-C12 (muestras/s)  : 
ESC. COMPLETA DE SENSORES, C1-C6, (g)  : /2/2/2
ESC. COMPLETA DE SENSORES, C7-C12 (g)  : 
FREC. NAT. DE SENSORES, C1-C6, (Hz)    : /208/210/200   
FREC. NAT. DE SENSORES, C7-C12 (Hz)    : 
AMORTIGUAMIENTO DE SENSORES, C1-C6     : /0.7/0.7/0.7      
AMORTIGUAMIENTO DE SENSORES, C7-C12    : 
INTERVALO DE MUESTREO, C1-C6 (s)       : /0.005/0.005/0.005
INTERVALO DE MUESTREO, C7-C12 (s)      : 
UMBRAL DE DISPARO, C1-C6 (Gal)         : /2/2/2
UMBRAL DE DISPARO, C7-C12 (Gal)        : 
MEMORIA DE PREEVENTO (s)               : 60
TIEMPO DE POSEVENTO (s)                : 80


================================================================================
DATOS DEL SISMO:
FECHA DEL SISMO [GMT]                  : 2022/12/11
HORA EPICENTRO (GMT)                   : 14:31:30
MAGNITUD(ES)                           : /M=6.0
COORDENADAS DEL EPICENTRO              : 17.1300 LAT. N
                                       : -100.6380 LONG. W
PROFUNDIDAD FOCAL (Km)                 : 14.0
FUENTE DE LOS DATOS EPICENTRALES       : SSN
                                       : INSTITUTO DE GEOFISICA, UNAM

================================================================================
DATOS DE ESTE REGISTRO:
HORA DE LA PRIMERA MUESTRA (GMT)       : 14:31:21.000
EXACTITUD DEL TIEMPO (s)               : 
DURACION DEL REGISTRO (s), C1-C6       : /355/355/355
DURACION DEL REGISTRO (s), C7-C12      : 
NUM. TOTAL DE MUESTRAS, C1-C6          : /71000/71000/71000
NUM. TOTAL DE MUESTRAS, C7-C12         : 
ACEL. MAX.(Gal), C1-C6                 : /2.402/-5.364/5.014
ACEL. MAX., C1-C6, EN LA MUESTRA       : /22522/24388/22655
ACEL. MAX.(Gal), C7-C12                : 
ACEL. MAX., C7-C12,EN LA MUESTRA       : 
UNIDADES DE LOS DATOS                  : Gal (cm/s/s)
FACTOR DE DECIMACION                   : 1
FORMATO DATOS (FORTRAN,16 campos/dato) : 3E16.7


================================================================================
CALIDAD DEL ACELEROGRAMA:
REGISTRO DIGITAL COMPLETO CON TIEMPO ABSOLUTO CORRECTO


================================================================================
COMENTARIOS:














================================================================================
DATOS DE ACELERACION:
---------+---------+---------+---------+---------+---------+---------+---------+
   CANAL-1   	      CANAL-2          CANAL-3
      V                 N00E             N90E
---------+---------+---------+---------+---------+---------+---------+---------+
[...]
  -4.5650400e-01   4.6842800e-01  -2.8023300e+00
  -4.4834600e-01   5.0301800e-01  -2.7873500e+00
  -4.3925600e-01   5.2522100e-01  -2.7793900e+00
  -4.2433900e-01   5.5163000e-01  -2.7719000e+00
  -4.1454900e-01   5.8201300e-01  -2.7611400e+00
  -4.0545900e-01   6.1356500e-01  -2.7489700e+00
  -3.9963200e-01   6.5423100e-01  -2.7293100e+00
  -3.8891000e-01   6.9349600e-01  -2.7066100e+00
  -3.7445900e-01   7.4584800e-01  -2.6722100e+00
  -3.6583500e-01   7.9305800e-01  -2.6406200e+00
  -3.5208300e-01   8.3723000e-01  -2.6097300e+00
  -3.2877500e-01   8.9075100e-01  -2.5741600e+00
  -2.9940700e-01   9.4894600e-01  -2.5402300e+00
  -2.7446700e-01   1.0115800e+00  -2.5016200e+00
  -2.5698600e-01   1.0732800e+00  -2.4646400e+00
  -2.3694100e-01   1.1466700e+00  -2.4248600e+00
  -2.1200100e-01   1.2142100e+00  -2.3916300e+00
  -1.9125700e-01   1.2852600e+00  -2.3504400e+00
  -1.6375400e-01   1.3542100e+00  -2.3015300e+00
  -1.4044500e-01   1.4147400e+00  -2.2622200e+00
  -1.3275400e-01   1.4864900e+00  -2.2154200e+00
  -1.1224300e-01   1.5636200e+00  -2.1749300e+00
  -8.6137400e-02   1.6554700e+00  -2.1384300e+00
  -6.0498400e-02   1.7538600e+00  -2.0993500e+00
  -2.7867000e-02   1.8550600e+00  -2.0689200e+00
  -2.4611200e-03   1.9494800e+00  -2.0389700e+00
   2.5042500e-02   2.0310500e+00  -2.0120600e+00
   6.0004700e-02   2.1051400e+00  -1.9928700e+00
   8.2613600e-02   2.1782900e+00  -1.9678300e+00
   1.0429000e-01   2.2535500e+00  -1.9444300e+00
   1.2992900e-01   2.3274000e+00  -1.9310900e+00
   1.4880900e-01   2.4129400e+00  -1.9158800e+00
   1.7351500e-01   2.4994100e+00  -1.8985600e+00
   1.9449300e-01   2.5865900e+00  -1.8826500e+00
   2.1383900e-01   2.6702600e+00  -1.8702400e+00
   2.4180800e-01   2.7539300e+00  -1.8580800e+00
   2.6395100e-01   2.8446100e+00  -1.8409900e+00
   2.8795800e-01   2.9301500e+00  -1.8173600e+00
   3.1732700e-01   3.0182600e+00  -1.7981700e+00
   3.3853700e-01   3.1052000e+00  -1.7782800e+00
   3.5858200e-01   3.1874700e+00  -1.7567500e+00
   3.7606300e-01   3.2744100e+00  -1.7342800e+00
   3.9727400e-01   3.3527100e+00  -1.7111100e+00
   4.2850700e-01   3.4253900e+00  -1.7043300e+00
   4.4645400e-01   3.5144400e+00  -1.6865400e+00
   4.5950600e-01   3.5997500e+00  -1.6682900e+00
   4.6906300e-01   3.6820100e+00  -1.6587000e+00
   4.7046100e-01   3.7638100e+00  -1.6397400e+00
   4.7302500e-01   3.8304200e+00  -1.6247600e+00
   4.7558900e-01   3.9007700e+00  -1.6067400e+00
   4.7279200e-01   3.9683100e+00  -1.5922400e+00
   4.6859700e-01   4.0346900e+00  -1.5765600e+00
   4.6906300e-01   4.1027000e+00  -1.5559600e+00
   4.6649900e-01   4.1644000e+00  -1.5358400e+00
   4.6719800e-01   4.2261000e+00  -1.5086900e+00
   4.6137100e-01   4.2817300e+00  -1.4738200e+00
   4.5810800e-01   4.3287000e+00  -1.4352100e+00
   4.5251400e-01   4.3742800e+00  -1.3959000e+00
   4.3200300e-01   4.4189200e+00  -1.3519000e+00
   4.2291300e-01   4.4586500e+00  -1.3074400e+00
   4.0962700e-01   4.4990800e+00  -1.2643800e+00
   4.0053700e-01   4.5455900e+00  -1.2208500e+00
   3.9937100e-01   4.5911700e+00  -1.1684300e+00
   3.9237900e-01   4.6320700e+00  -1.1085300e+00
   3.9774000e-01   4.6638500e+00  -1.0474500e+00
   3.9843900e-01   4.6921300e+00  -9.8169100e-01
   3.9960500e-01   4.7131600e+00  -9.1148700e-01
   4.1149200e-01   4.7194700e+00  -8.3777200e-01
   4.2268000e-01   4.7211100e+00  -7.7318400e-01
   4.2967200e-01   4.7201800e+00  -7.1421200e-01
   4.2734100e-01   4.7215800e+00  -6.4868800e-01
   4.4062700e-01   4.7115300e+00  -5.9112000e-01
   4.5088200e-01   4.7052200e+00  -5.3238300e-01
   4.4598800e-01   4.7115300e+00  -4.7317700e-01
   4.4598800e-01   4.7056900e+00  -4.2192800e-01
   4.2967200e-01   4.7164400e+00  -3.5008500e-01
   4.2314600e-01   4.7206400e+00  -2.7917900e-01
   4.3410100e-01   4.6928300e+00  -2.0757000e-01
   4.6253700e-01   4.6325300e+00  -1.3151600e-01
   4.9097200e-01   4.5572800e+00  -7.0905800e-02
   4.8141600e-01   4.5067900e+00  -1.2168100e-02
   4.8398000e-01   4.4565500e+00   1.9891900e-02
   4.8258200e-01   4.4231200e+00   4.4463400e-02
   4.7232600e-01   4.3969500e+00   6.4354700e-02
   4.6789700e-01   4.3745100e+00   9.3606500e-02
   4.5414600e-01   4.3572200e+00   1.6217300e-01
   4.6719800e-01   4.2952800e+00   2.2629300e-01
   4.6416800e-01   4.2317100e+00   2.9228500e-01
   4.3713100e-01   4.1609000e+00   3.4119400e-01
   4.0613100e-01   4.0837700e+00   3.7582800e-01
   3.6604100e-01   4.0323500e+00   4.2707700e-01
   3.4156700e-01   3.9708800e+00   4.8581500e-01
   3.2105600e-01   3.9077800e+00   5.5625400e-01
   3.0264300e-01   3.8355600e+00   6.2552200e-01
   2.8073300e-01   3.7547000e+00   6.8847200e-01
   2.6418400e-01   3.6693900e+00   7.4112500e-01
   2.4950000e-01   3.5822200e+00   7.9869300e-01
   2.2526000e-01   3.5156100e+00   8.6328100e-01
   2.0987600e-01   3.4471300e+00   9.1733800e-01
   1.8889900e-01   3.3835600e+00   9.7139600e-01
   1.6092900e-01   3.3256000e+00   1.0275600e+00
   1.2876400e-01   3.2585200e+00   1.0855900e+00
   1.0126000e-01   3.1886400e+00   1.1422300e+00
   7.8185100e-02   3.1124500e+00   1.1916000e+00
   4.6719100e-02   3.0269100e+00   1.2325600e+00
   1.9681600e-02   2.9404300e+00   1.2646200e+00
  -8.5212400e-03   2.8644800e+00   1.2905900e+00
  -2.6701600e-02   2.7854800e+00   1.3249900e+00
  -3.2295600e-02   2.7022800e+00   1.3699200e+00
  -3.9987200e-02   2.6139300e+00   1.4186000e+00
  -4.4882000e-02   2.5288600e+00   1.4665700e+00
  -5.0475900e-02   2.4554800e+00   1.5094000e+00
  -6.6325500e-02   2.3884000e+00   1.5632200e+00
  -7.3551000e-02   2.3285700e+00   1.6100200e+00
  -6.7723900e-02   2.2652300e+00   1.6465300e+00
  -6.9821700e-02   2.2063300e+00   1.6996500e+00
  -5.9799200e-02   2.1357500e+00   1.7560500e+00
  -4.6047400e-02   2.0607300e+00   1.8185300e+00
  -4.0453400e-02   1.9922500e+00   1.8901400e+00
  -2.3205400e-02   1.9078800e+00   1.9512200e+00
  -1.4348300e-02   1.8305200e+00   2.0122900e+00
  -8.7543200e-03   1.7515200e+00   2.0663500e+00
   1.2681800e-03   1.6659800e+00   2.1094100e+00
   8.0202000e-04   1.5848900e+00   2.1648700e+00
   1.5253100e-02   1.4986400e+00   2.2100400e+00
   2.8538700e-02   1.4170800e+00   2.2594100e+00
   3.6463500e-02   1.3280300e+00   2.3127700e+00
   5.6275400e-02   1.2378200e+00   2.3520800e+00
   7.0260300e-02   1.1480700e+00   2.3993500e+00
   8.9606100e-02   1.0468700e+00   2.4363300e+00
   1.0405700e-01   9.5432200e-01   2.4810200e+00
   1.2247100e-01   8.5896600e-01   2.5212700e+00
   1.4694400e-01   7.6641500e-01   2.5540400e+00
   1.6465800e-01   6.8321200e-01   2.5956900e+00
   1.9635700e-01   5.8996000e-01   2.6235400e+00
   2.1337200e-01   4.9904400e-01   2.6607500e+00
   2.2409400e-01   3.9948200e-01   2.6897700e+00
   2.3994400e-01   2.9618000e-01   2.7096600e+00
   2.4017700e-01   2.0292700e-01   2.7379700e+00
   2.4437200e-01   1.0640300e-01   2.7599700e+00
   2.4320700e-01   2.2265300e-02   2.7915600e+00
   2.3877800e-01  -5.6496700e-02   2.8266600e+00
   2.4041000e-01  -1.3759600e-01   2.8519400e+00
   2.3155300e-01  -2.1518900e-01   2.8765100e+00
   2.1966600e-01  -3.0400100e-01   2.9022500e+00
   2.0894400e-01  -3.9421500e-01   2.9167600e+00
   1.9192900e-01  -4.7858700e-01   2.9350100e+00
   1.6862100e-01  -5.6319100e-01   2.9509300e+00
   1.5020700e-01  -6.4990000e-01   2.9584100e+00
   1.3062800e-01  -7.2632500e-01   2.9759700e+00
   1.0615500e-01  -8.0204800e-01   2.9813500e+00
   7.9350500e-02  -8.7964200e-01   2.9825200e+00
   5.6275400e-02  -9.5069100e-01   2.9822800e+00
   3.7862000e-02  -1.0261800e+00   2.9740900e+00
   1.0591400e-02  -1.0948900e+00   2.9743300e+00
  -1.1551300e-02  -1.1685100e+00   2.9729200e+00
  -3.4393300e-02  -1.2451700e+00   2.9719900e+00
  -5.0942100e-02  -1.3239300e+00   2.9698800e+00
  -6.3062300e-02  -1.4064400e+00   2.9588800e+00
  -8.2641200e-02  -1.4779500e+00   2.9446100e+00
  -9.6393000e-02  -1.5483000e+00   2.9247200e+00
  -1.2063300e-01  -1.6081300e+00   2.9022500e+00
  -1.3997900e-01  -1.6747400e+00   2.8746400e+00
  -1.5652800e-01  -1.7418200e+00   2.8486600e+00
  -1.7797200e-01  -1.7972100e+00   2.8231500e+00
  -1.9825000e-01  -1.8619500e+00   2.7875800e+00
  -2.2831700e-01  -1.9290200e+00   2.7634800e+00
  -2.4906100e-01  -2.0026400e+00   2.7281400e+00
  -2.6864000e-01  -2.0760300e+00   2.6792300e+00
  -2.9101600e-01  -2.1431100e+00   2.6443700e+00
  -3.0709900e-01  -2.2064400e+00   2.6031800e+00
  -3.2924100e-01  -2.2751600e+00   2.5390600e+00
  -3.6000800e-01  -2.3448000e+00   2.4613700e+00
  -3.8378300e-01  -2.4011300e+00   2.4042700e+00
  -3.9706800e-01  -2.4682000e+00   2.3474000e+00
  -4.3156400e-01  -2.5362200e+00   2.2837500e+00
  -4.6303000e-01  -2.6025900e+00   2.2273500e+00
  -4.7841400e-01  -2.6736400e+00   2.1592500e+00
  -5.0335300e-01  -2.7367400e+00   2.0906900e+00
  -5.1430800e-01  -2.8087300e+00   2.0312500e+00
  -5.1384200e-01  -2.8823500e+00   1.9961500e+00
  -5.1710500e-01  -2.9634500e+00   1.9528500e+00
  -5.2596200e-01  -3.0553000e+00   1.8971600e+00
  -5.2875900e-01  -3.1389700e+00   1.8503500e+00
  -5.1873700e-01  -3.2235700e+00   1.7909100e+00
  -5.2153400e-01  -3.3095800e+00   1.7305400e+00
  -5.2339800e-01  -3.4042300e+00   1.6638500e+00
  -5.2666100e-01  -3.4944500e+00   1.5997200e+00
  -5.2549600e-01  -3.5809200e+00   1.5306900e+00
  -5.1920300e-01  -3.6685700e+00   1.4740600e+00
  -5.2689500e-01  -3.7419500e+00   1.4506600e+00
  -5.2619500e-01  -3.8246900e+00   1.4087700e+00
  -5.2479700e-01  -3.8983100e+00   1.3741300e+00
  -5.2153400e-01  -3.9618800e+00   1.3474600e+00
  -5.1454100e-01  -4.0371400e+00   1.3072100e+00
  -5.1337600e-01  -4.1070200e+00   1.2695300e+00
  -5.1570700e-01  -4.1787700e+00   1.2248300e+00
  -5.2339800e-01  -4.2551900e+00   1.1890300e+00
  -5.2083400e-01  -4.3360600e+00   1.1452700e+00
  -5.1780400e-01  -4.4180900e+00   1.0940200e+00
  -5.1454100e-01  -4.4893700e+00   1.0467500e+00
  -5.0894700e-01  -4.5454700e+00   9.8964900e-01
  -5.1757100e-01  -4.5821600e+00   9.4776000e-01
  -5.2363100e-01  -4.6261000e+00   9.2272100e-01
  -5.0591700e-01  -4.7036900e+00   9.1008400e-01
  -4.9915800e-01  -4.7735700e+00   9.0048900e-01
  -5.1104500e-01  -4.8371400e+00   8.7100300e-01
  -5.0265400e-01  -4.9238500e+00   8.1835000e-01
  -4.9309800e-01  -5.0028500e+00   7.5727200e-01
  -4.9006800e-01  -5.0689900e+00   7.0649100e-01
  -4.7794700e-01  -5.1136300e+00   6.5968800e-01
  -4.7841400e-01  -5.1339600e+00   6.3769100e-01
  -4.7212000e-01  -5.1512600e+00   6.5102900e-01
  -4.4997800e-01  -5.1739300e+00   6.6624000e-01
  -4.4461700e-01  -5.2057100e+00   6.7817500e-01
  -4.3389500e-01  -5.2456800e+00   6.9034400e-01
  -4.1035400e-01  -5.2903200e+00   6.8660000e-01
  -4.0033100e-01  -5.3230400e+00   6.7653700e-01
  -3.8424900e-01  -5.3440700e+00   6.6928300e-01
  -3.5767700e-01  -5.3627700e+00   6.6179400e-01
  -3.3040700e-01  -5.3639400e+00   6.6881500e-01
  -2.8891800e-01  -5.3482800e+00   6.8449400e-01
  -2.4300100e-01  -5.3450100e+00   7.1000100e-01
  -2.0221200e-01  -5.3522500e+00   7.3925300e-01
  -1.5046800e-01  -5.3478100e+00   7.2591400e-01
  -1.5116700e-01  -5.2536200e+00   6.4471100e-01
  -2.0384400e-01  -5.0755300e+00   5.9205800e-01
  -1.3834800e-01  -4.9911600e+00   7.1749000e-01
  -6.8896700e-03  -4.9813500e+00   9.2482700e-01
  -5.0250200e-03  -4.9325000e+00   9.9854100e-01
  -7.1453300e-02  -4.9203500e+00   9.6273700e-01
  -3.1130100e-02  -5.0315900e+00   9.0704200e-01
   1.0149300e-01  -5.1912200e+00   8.4128300e-01
   1.8913200e-01  -5.2344600e+00   8.0033100e-01
   2.3435000e-01  -5.1332600e+00   7.6733500e-01
   2.6441700e-01  -4.9451200e+00   7.5235800e-01
   2.6861300e-01  -4.7366500e+00   7.6663300e-01
   2.5695900e-01  -4.5662700e+00   7.6008000e-01
   2.3598100e-01  -4.4328200e+00   7.6616500e-01
   2.4856800e-01  -4.3391000e+00   7.8324800e-01
   2.4437200e-01  -4.2442100e+00   7.8441800e-01
   2.1197400e-01  -4.1493200e+00   7.7341900e-01
   2.2153000e-01  -4.0850500e+00   7.7458900e-01
   2.6861300e-01  -4.0200700e+00   8.2888100e-01
   3.7116900e-01  -3.9628100e+00   8.8995800e-01
   4.9237100e-01  -3.9235500e+00   9.1219000e-01
   5.7674600e-01  -3.9181700e+00   9.0095700e-01
   6.4294200e-01  -3.9237800e+00   8.7076900e-01
   6.7207700e-01  -3.8571700e+00   8.1250000e-01
   6.3664800e-01  -3.7038600e+00   7.1280900e-01
   5.8280700e-01  -3.4909400e+00   6.0750300e-01
   5.6322800e-01  -3.2532500e+00   5.6467800e-01
   5.5740100e-01  -3.0431400e+00   5.7731500e-01
   5.3269400e-01  -2.9017500e+00   5.8925000e-01
   5.0332600e-01  -2.8171400e+00   6.2482000e-01
   5.0029600e-01  -2.7643200e+00   6.8706800e-01
   5.2733300e-01  -2.7379100e+00   7.2568000e-01
   5.4714500e-01  -2.7208500e+00   7.1421300e-01
   5.4831100e-01  -2.6921000e+00   6.6202800e-01
   5.4970900e-01  -2.6194200e+00   6.0422700e-01
   5.4201700e-01  -2.4995200e+00   5.4642500e-01
   5.2756600e-01  -2.3740200e+00   4.8230500e-01
   5.0658900e-01  -2.2478100e+00   4.3409800e-01
   4.7675500e-01  -2.1078200e+00   4.0016600e-01
   4.5228100e-01  -1.9654800e+00   3.6365900e-01
   4.2920600e-01  -1.8369400e+00   3.3440800e-01
   4.1312300e-01  -1.7364400e+00   2.9392300e-01
   3.9471000e-01  -1.6574500e+00   2.3588700e-01
   3.6790500e-01  -1.5915400e+00   1.7270300e-01
   3.4203300e-01  -1.5326400e+00   1.0273300e-01
   3.0963500e-01  -1.4655700e+00   3.9783100e-02
   2.7537200e-01  -1.3980200e+00  -1.9656600e-02
   2.4180800e-01  -1.3374900e+00  -8.3776600e-02
   1.9892100e-01  -1.2648000e+00  -1.4672700e-01
   1.6675600e-01  -1.1781000e+00  -2.1505900e-01
   1.5370400e-01  -1.0963000e+00  -2.9907000e-01
   1.2620000e-01  -1.0142600e+00  -3.8167700e-01
   9.7297800e-02  -9.2755400e-01  -4.5492400e-01
   8.1215100e-02  -8.4341600e-01  -5.3027700e-01
   6.5365600e-02  -7.5740900e-01  -5.9673700e-01
   5.6042300e-02  -6.6719500e-01  -6.5594300e-01
   4.2290500e-02  -5.7464400e-01  -7.2474300e-01
   3.0636500e-02  -4.8069000e-01  -8.0056400e-01
   2.7373300e-02  -3.8510000e-01  -8.7872400e-01
   2.0614000e-02  -2.9278300e-01  -9.5594900e-01
   1.6884600e-02  -2.0607500e-01  -1.0226400e+00
   1.4786900e-02  -1.2380700e-01  -1.0839600e+00
   1.6651600e-02  -5.1121300e-02  -1.1415200e+00
   2.5042500e-02   1.5253800e-02  -1.1892600e+00
   4.2756700e-02   8.1862700e-02  -1.2330200e+00
   6.4200200e-02   1.4893900e-01  -1.2707000e+00
   7.6786600e-02   2.1765100e-01  -1.3046300e+00
   9.1004600e-02   2.8683100e-01  -1.3376300e+00
   1.0732000e-01   3.5928300e-01  -1.3696900e+00
   1.2550100e-01   4.3664200e-01  -1.4029200e+00
   1.4904200e-01   5.0745800e-01  -1.4368500e+00
   1.7095200e-01   5.7056100e-01  -1.4724200e+00
   1.8563600e-01   6.3296300e-01  -1.4991000e+00
   2.0871100e-01   6.8835400e-01  -1.5199200e+00
   2.3691400e-01   7.3790100e-01  -1.5330300e+00
   2.6488300e-01   7.7880200e-01  -1.5421600e+00
   3.0497300e-01   8.1970200e-01  -1.5552600e+00
   3.2828200e-01   8.6410800e-01  -1.5613500e+00
   3.5252200e-01   8.8958300e-01  -1.5789000e+00
   3.8515300e-01   9.1482400e-01  -1.5948100e+00
   4.0613100e-01   9.4380500e-01  -1.6041700e+00
   4.2897300e-01   9.7325300e-01  -1.6182100e+00
   4.3783000e-01   1.0080800e+00  -1.6210200e+00
   4.4249200e-01   1.0293400e+00  -1.6243000e+00
   4.4505500e-01   1.0559900e+00  -1.6292100e+00
   4.4948400e-01   1.0873100e+00  -1.6334200e+00
   4.6043900e-01   1.1137200e+00  -1.6357600e+00
   4.6673200e-01   1.1450300e+00  -1.6320200e+00
   4.7745400e-01   1.1658300e+00  -1.6275700e+00
   4.8444600e-01   1.1878000e+00  -1.6095500e+00
