**************************************************************************************
  	RED ACELEROGRÁFICA DE LA UNIVERSIDAD AUTONOMA METROPOLITANA (RA-UAM)
	   UNIDAD AZCAPOTZALCO. DIVISIÓN CBI-DEPARTAMENTO DE MATERIALES
     Av. San Pablo 420, Col. Nueva el Rosario, Azcapotzalco, C.P. 02128, Ciudad de México
		Área de Estructuras. e-mail: agb@azc.uam.mx
**************************************************************************************
ARCHIVO ESTANDAR DE ACELERACION:
VERSION DEL FORMATO                    : 2.0
NOMBRE DEL ARCHIVO                     : RIDX202209.202
FECHA Y HORA DE CREACION               : 11:30 a. m. 27/09/2022
REF. CATALOGO ACELEROGRAMAS, SMIS 1999 : REGISTRO NO.      /PAG.    


================================================================================
DATOS DE LA ESTACION:
NOMBRE DE LA ESTACION                  : UAM-XOCHIMILCO.
CLAVE DE LA ESTACION                   : RIDX
LOCALIZACION DE LA ESTACION            : CALZADA DEL HUESO 1100, COL. VILLA
                                       : QUIETUD, DEL. COYOACAN, C.P.04960,  
                                       : CIUDAD DE MEXICO.
                                       : 
                                       : 
COORDENADAS DE LA ESTACION             : 19.301345 LAT. N
                                       : 99.10268 LONG. W
ALTITUD (msnm)                         : 2232
TIPO DE SUELO                          : LAGO
                                       : 
                                       : 
INSTITUCION RESPONSABLE                : UNIVERSIDAD AUTONOMA METROPOLITANA
                                       : 

================================================================================
DATOS DEL ACELEROGRAFO: 
MODELO DEL ACELEROGRAFO                : BASALT KINEMETRICS
NUMERO DE SERIE DEL ACELEROGRAFO       : 1729
NUMERO DE CANALES                      : 3
ORIENTACION C1-C6 (rumbo;orientacion)  : /V/N00E/N90E
ORIENTACION C7-C12 (rumbo;orientacion) : 
VEL. DE MUESTREO, C1-C6 (muestras/s)   : /200/200/200
VEL. DE MUESTREO, C7-C12 (muestras/s)  : 
ESC. COMPLETA DE SENSORES, C1-C6, (g)  : /2/2/2
ESC. COMPLETA DE SENSORES, C7-C12 (g)  : 
FREC. NAT. DE SENSORES, C1-C6, (Hz)    : /208/210/200   
FREC. NAT. DE SENSORES, C7-C12 (Hz)    : 
AMORTIGUAMIENTO DE SENSORES, C1-C6     : /0.7/0.7/0.7      
AMORTIGUAMIENTO DE SENSORES, C7-C12    : 
INTERVALO DE MUESTREO, C1-C6 (s)       : /0.005/0.005/0.005
INTERVALO DE MUESTREO, C7-C12 (s)      : 
UMBRAL DE DISPARO, C1-C6 (Gal)         : /2/2/2
UMBRAL DE DISPARO, C7-C12 (Gal)        : 
MEMORIA DE PREEVENTO (s)               : 60
TIEMPO DE POSEVENTO (s)                : 80


================================================================================
DATOS DEL SISMO:
FECHA DEL SISMO [GMT]                  : 2022/09/20
HORA EPICENTRO (GMT)                   : 10:43:18
MAGNITUD(ES)                           : /M=4.8
COORDENADAS DEL EPICENTRO              : 17.9800 LAT. N
                                       : -103.2100 LONG. W
PROFUNDIDAD FOCAL (Km)                 : 12.0
FUENTE DE LOS DATOS EPICENTRALES       : SSN
                                       : INSTITUTO DE GEOFISICA, UNAM

================================================================================
DATOS DE ESTE REGISTRO:
HORA DE LA PRIMERA MUESTRA (GMT)       : 10:44:33.000
EXACTITUD DEL TIEMPO (s)               : 
DURACION DEL REGISTRO (s), C1-C6       : /153/153/153
DURACION DEL REGISTRO (s), C7-C12      : 
NUM. TOTAL DE MUESTRAS, C1-C6          : /30600/30600/30600
NUM. TOTAL DE MUESTRAS, C7-C12         : 
ACEL. MAX.(Gal), C1-C6                 : /0.219/0.575/-0.355
ACEL. MAX., C1-C6, EN LA MUESTRA       : /12426/14494/15201
ACEL. MAX.(Gal), C7-C12                : 
ACEL. MAX., C7-C12,EN LA MUESTRA       : 
UNIDADES DE LOS DATOS                  : Gal (cm/s/s)
FACTOR DE DECIMACION                   : 1
FORMATO DATOS (FORTRAN,16 campos/dato) : 3E16.7


================================================================================
CALIDAD DEL ACELEROGRAMA:
REGISTRO DIGITAL COMPLETO CON TIEMPO ABSOLUTO CORRECTO


================================================================================
COMENTARIOS:














================================================================================
DATOS DE ACELERACION:
---------+---------+---------+---------+---------+---------+---------+---------+
   CANAL-1   	      CANAL-2          CANAL-3
      V                 N00E             N90E
---------+---------+---------+---------+---------+---------+---------+---------+
[...]
   1.0202000e-03  -2.0114700e-01   1.9740000e-01
   1.7194500e-03  -1.9740700e-01   1.9810200e-01
  -2.0098600e-03  -1.9413500e-01   1.9716600e-01
   2.6517700e-03  -1.9203200e-01   1.9810200e-01
  -2.4760200e-03  -1.8735700e-01   2.0278200e-01
  -5.2730000e-03  -1.8665600e-01   1.9412400e-01
  -1.0775300e-03  -1.8104700e-01   1.9552800e-01
  -7.1376500e-03  -1.7380200e-01   1.9786800e-01
  -2.0098600e-03  -1.7193200e-01   1.9365500e-01
  -3.8745100e-03  -1.7099700e-01   1.9459200e-01
  -4.1075900e-03  -1.6819300e-01   1.9482600e-01
   3.3510200e-03  -1.6328500e-01   1.9108100e-01
  -5.0399200e-03  -1.5767600e-01   1.8874100e-01
   5.5404100e-04  -1.5557200e-01   1.8265700e-01
   1.2532900e-03  -1.4949600e-01   1.8055100e-01
  -2.4760200e-03  -1.4248400e-01   1.8148700e-01
   6.6141600e-03  -1.4225000e-01   1.7306200e-01
   8.7118900e-03  -1.3944600e-01   1.7072200e-01
   1.4072800e-02  -1.3500500e-01   1.6861600e-01
   1.4538900e-02  -1.3009700e-01   1.6323400e-01
   1.1508900e-02  -1.2355300e-01   1.5925500e-01
   1.3140400e-02  -1.1958000e-01   1.5597900e-01
   1.6170500e-02  -1.1490600e-01   1.5200100e-01
   2.4561400e-02  -1.1256800e-01   1.4568200e-01
   2.5260700e-02  -1.0999800e-01   1.4264000e-01
   2.6426100e-02  -1.0672600e-01   1.3234400e-01
   3.3185500e-02  -1.0695900e-01   1.2649300e-01
   3.1553900e-02  -9.8779300e-02   1.2345100e-01
   3.0621600e-02  -9.4572400e-02   1.1081400e-01
   3.6914800e-02  -9.2469000e-02   1.0145400e-01
   3.3884700e-02  -8.4288900e-02   9.6539400e-02
   3.5982400e-02  -8.5691200e-02   8.4838700e-02
   4.5771900e-02  -8.6626100e-02   7.4776000e-02
   4.1809500e-02  -8.1718100e-02   7.3372000e-02
   4.5771900e-02  -7.7978600e-02   6.2139200e-02
   4.7170300e-02  -7.8446100e-02   5.0204500e-02
   4.2974900e-02  -7.3771800e-02   4.2248000e-02
   4.9967300e-02  -7.2836900e-02   3.5461600e-02
   4.9035000e-02  -7.6576300e-02   2.8207100e-02
   5.2298100e-02  -7.9614600e-02   1.6272400e-02
   5.4162800e-02  -8.3354100e-02   1.4166200e-02
   5.2531200e-02  -8.2419200e-02   9.2519300e-03
   5.2764300e-02  -8.7561000e-02  -3.1508500e-03
   4.4839500e-02  -8.6158700e-02  -6.4270500e-03
   4.5305700e-02  -8.7561000e-02  -1.2511400e-02
   4.9035000e-02  -9.2702700e-02  -1.9531900e-02
   5.2531200e-02  -9.4572400e-02  -2.3042100e-02
   5.6027400e-02  -9.8779300e-02  -2.8190400e-02
   5.1365800e-02  -9.6208400e-02  -3.0998600e-02
   5.1132700e-02  -1.0041500e-01  -3.6614900e-02
   4.5538800e-02  -9.8078100e-02  -3.8019000e-02
   3.9478700e-02  -9.5974700e-02  -4.1295200e-02
   4.8568800e-02  -1.0088300e-01  -4.7379600e-02
   4.8335800e-02  -9.9714200e-02  -4.4571400e-02
   4.9734200e-02  -1.0555700e-01  -4.9251700e-02
   4.8568800e-02  -1.0602400e-01  -4.6911600e-02
   4.2741800e-02  -1.0766000e-01  -4.3401400e-02
   5.0899700e-02  -1.1397100e-01  -4.9719800e-02
   4.4606500e-02  -1.1140000e-01  -4.1763300e-02
   4.7636500e-02  -1.1350300e-01  -3.9657100e-02
   5.1598900e-02  -1.1864500e-01  -4.1295200e-02
   4.1576400e-02  -1.1864500e-01  -3.2636700e-02
   4.5538800e-02  -1.2238500e-01  -3.0530600e-02
   4.2741800e-02  -1.2285200e-01  -2.7488400e-02
   4.0177900e-02  -1.2121600e-01  -2.5148200e-02
   3.8080200e-02  -1.2518900e-01  -2.5148200e-02
   3.2020000e-02  -1.2518900e-01  -2.2574100e-02
   3.2020000e-02  -1.2191700e-01  -1.7659800e-02
   2.8290700e-02  -1.2448800e-01  -1.3447500e-02
   1.9200600e-02  -1.2191700e-01  -9.9372700e-03
   1.6403600e-02  -1.2495500e-01  -6.1930400e-03
   1.8268200e-02  -1.2939600e-01  -6.1930400e-03
   1.0343500e-02  -1.1981400e-01   1.9974800e-03
   1.1042700e-02  -1.2472200e-01   3.8695900e-03
   6.8472400e-03  -1.2238500e-01   5.9757300e-03
   3.2095900e-04  -1.1513900e-01   1.8846500e-02
   3.1179400e-03  -1.2051500e-01   1.6272400e-02
   3.2095900e-04  -1.1630800e-01   1.9548600e-02
  -1.5436900e-03  -1.1023100e-01   2.5398900e-02
  -9.2353800e-03  -1.0275200e-01   2.4228900e-02
  -1.1566200e-02  -1.0438800e-01   2.8675100e-02
  -1.2731600e-02  -1.0111600e-01   3.1483300e-02
  -1.7393200e-02  -9.2936400e-02   3.4525500e-02
  -1.3663900e-02  -9.2235300e-02   3.2887400e-02
  -1.9024800e-02  -8.3821500e-02   3.4291500e-02
  -2.3919500e-02  -8.2185500e-02   3.6397600e-02
  -2.6250300e-02  -7.5875200e-02   3.6163600e-02
  -3.3009700e-02  -6.6526600e-02   4.0843900e-02
  -3.2077400e-02  -6.9331200e-02   3.8269800e-02
  -3.4175100e-02  -6.3254600e-02   4.2014000e-02
  -3.5573600e-02  -5.8346600e-02   4.4354100e-02
  -3.3475900e-02  -6.0683700e-02   4.0375900e-02
  -4.4430700e-02  -5.1101400e-02   4.8800400e-02
  -4.1866800e-02  -4.8063100e-02   4.3418100e-02
  -4.1866800e-02  -4.2921300e-02   3.8035700e-02
  -5.2122400e-02  -3.0300700e-02   4.6460300e-02
  -4.4430700e-02  -3.1235600e-02   3.9907900e-02
  -4.5596100e-02  -2.6093800e-02   3.7333700e-02
  -4.8393100e-02  -1.8615000e-02   4.3184100e-02
  -5.0490800e-02  -1.1136100e-02   4.0843900e-02
  -5.1656200e-02  -2.7223200e-03   3.6865700e-02
  -4.8859200e-02   1.7182700e-03   3.6865700e-02
  -5.0490800e-02   6.1588600e-03   3.7333700e-02
  -4.4430700e-02   7.5611600e-03   3.3589500e-02
  -4.3498400e-02   1.3871500e-02   3.6397600e-02
  -4.0235200e-02   1.5273800e-02   3.5461600e-02
  -3.6505900e-02   1.3404000e-02   3.1717300e-02
  -4.1167600e-02   1.8545800e-02   3.3121400e-02
  -3.7205200e-02   2.3220100e-02   3.0079200e-02
  -3.0678900e-02   2.8128100e-02   2.9845200e-02
  -2.9047300e-02   3.0699000e-02   2.5867000e-02
  -2.9280400e-02   3.5139600e-02   2.6101000e-02
  -2.8115000e-02   3.4905800e-02   2.5164900e-02
  -2.2054900e-02   3.1400100e-02   1.9782600e-02
  -2.1821800e-02   4.2618400e-02   2.2824800e-02
  -2.3453400e-02   4.6825300e-02   1.6974400e-02
  -1.8558600e-02   4.7526500e-02   1.4166200e-02
  -1.6460900e-02   5.5940200e-02   1.2996200e-02
  -1.5062400e-02   5.5239100e-02   8.0818600e-03
  -1.5528600e-02   5.8511100e-02   1.2762200e-02
  -1.3663900e-02   5.8277400e-02   7.8478400e-03
  -1.0867000e-02   5.6407600e-02   6.2097400e-03
  -1.1333100e-02   6.2484200e-02   6.9117800e-03
  -8.0699800e-03   6.2016800e-02   1.5294500e-03
  -7.3707300e-03   6.5288800e-02   5.2736800e-03
  -2.2429400e-03   6.8327100e-02   4.1036100e-03
  -1.5436900e-03   6.8794600e-02   3.1675500e-03
  -4.3406700e-03   6.9729400e-02   6.9117800e-03
   3.8171800e-03   6.7392300e-02  -1.0865600e-04
   1.4863700e-03   7.4637400e-02   8.2740200e-04
   2.6517700e-03   7.8143200e-02   1.0614200e-03
   4.9825900e-03   7.9545500e-02  -5.4909900e-03
   1.0202000e-03   8.3986100e-02  -2.9168300e-03
   5.6818300e-03   7.8610600e-02  -2.9168300e-03
   5.2156700e-03   7.7208300e-02  -3.3848600e-03
   1.2907400e-02   7.6740900e-02  -6.8950800e-03
   1.2441200e-02   7.7909500e-02  -7.3631100e-03
   5.4487500e-03   7.5806000e-02  -8.7672000e-03
   9.4111400e-03   7.7442000e-02  -1.1107300e-02
   1.0576500e-02   8.2350000e-02  -8.7672000e-03
   1.5937400e-02   7.3468900e-02  -1.2511400e-02
   1.8035200e-02   7.4871200e-02  -1.0405300e-02
   2.2929900e-02   7.3702600e-02  -1.4383600e-02
   2.3629100e-02   7.6273400e-02  -1.5787600e-02
   2.1764500e-02   8.2116300e-02  -1.6021700e-02
   2.9689200e-02   7.8143200e-02  -2.3744100e-02
   3.2253100e-02   8.4453500e-02  -2.5850300e-02
   3.2020000e-02   8.6790600e-02  -2.7956400e-02
   3.4350900e-02   8.3284900e-02  -2.9126500e-02
   3.9245600e-02   8.2116300e-02  -3.3806800e-02
   3.9245600e-02   8.3752300e-02  -3.4976800e-02
   4.1343300e-02   8.3986100e-02  -3.8253000e-02
   4.6704200e-02   8.3752300e-02  -4.5273500e-02
   4.8335800e-02   8.7258100e-02  -4.6677600e-02
   5.2764300e-02   8.9595200e-02  -4.8315700e-02
   5.7659000e-02   8.7024300e-02  -5.2059900e-02
   6.0456000e-02   8.3518600e-02  -5.5102100e-02
   6.3253000e-02   8.9595200e-02  -5.6740200e-02
   6.5117600e-02   9.4269500e-02  -6.0718500e-02
   6.9313100e-02   9.7074100e-02  -6.5164700e-02
   7.1410800e-02   1.0128100e-01  -6.9377000e-02
   7.1177700e-02   1.0221600e-01  -7.1015100e-02
   7.9568700e-02   1.0525400e-01  -7.7333500e-02
   7.7937100e-02   1.0969500e-01  -8.3183900e-02
   7.6771700e-02   1.1530400e-01  -8.7864200e-02
   8.2831800e-02   1.2208200e-01  -9.6756700e-02
   8.0034800e-02   1.2909300e-01  -1.0120300e-01
   7.7704000e-02   1.3984400e-01  -1.0658500e-01
   7.7004800e-02   1.4638800e-01  -1.1360600e-01
   7.9102500e-02   1.5386700e-01  -1.2203000e-01
   7.7937100e-02   1.6531900e-01  -1.2530700e-01
   7.6305500e-02   1.6976000e-01  -1.2998700e-01
   7.3275500e-02   1.8191300e-01  -1.3490100e-01
   7.2809300e-02   1.9243000e-01  -1.3794300e-01
   7.3042400e-02   2.0131100e-01  -1.4590000e-01
   6.6749200e-02   2.1463300e-01  -1.4800600e-01
   6.3719100e-02   2.2211200e-01  -1.4894200e-01
   5.9989800e-02   2.3286300e-01  -1.5221800e-01
   5.6959800e-02   2.4034200e-01  -1.5455800e-01
   4.9268100e-02   2.5787000e-01  -1.5362200e-01
   4.6004900e-02   2.7072500e-01  -1.5643000e-01
   4.2741800e-02   2.7960600e-01  -1.6064300e-01
   3.5516300e-02   2.9947200e-01  -1.5900500e-01
   2.8523800e-02   3.0765200e-01  -1.5877100e-01
   1.5937400e-02   3.2471300e-01  -1.5549400e-01
   1.6170500e-02   3.3943700e-01  -1.5409000e-01
   7.5464900e-03   3.4972000e-01  -1.5128200e-01
  -5.9722400e-03   3.6818400e-01  -1.4683600e-01
  -6.9045700e-03   3.7683100e-01  -1.4800600e-01
  -1.5994700e-02   3.9225700e-01  -1.4309200e-01
  -2.4851800e-02   4.0698100e-01  -1.3747500e-01
  -3.1378100e-02   4.1352500e-01  -1.3607100e-01
  -3.6272800e-02   4.2567800e-01  -1.3045500e-01
  -4.4663800e-02   4.3713000e-01  -1.2577500e-01
  -5.8648700e-02   4.4764700e-01  -1.2460400e-01
  -6.1212600e-02   4.6026800e-01  -1.2249800e-01
  -6.6573400e-02   4.7452400e-01  -1.1618000e-01
  -7.8693700e-02   4.8480800e-01  -1.1173400e-01
  -8.8250000e-02   4.9135200e-01  -1.1009600e-01
  -9.6641000e-02   5.0444000e-01  -1.0330900e-01
  -1.0013700e-01   5.1308700e-01  -9.6522700e-02
  -1.0922700e-01   5.2009900e-01  -9.2076400e-02
  -1.1622000e-01   5.2827900e-01  -8.6460100e-02
  -1.1971600e-01   5.3458900e-01  -7.7333500e-02
  -1.2624200e-01   5.4323700e-01  -7.1717100e-02
  -1.3090400e-01   5.4627500e-01  -6.3058600e-02
  -1.3719700e-01   5.5048200e-01  -5.4634100e-02
  -1.4185900e-01   5.5328600e-01  -5.1591900e-02
  -1.4535500e-01   5.5141700e-01  -4.5507500e-02
  -1.5048300e-01   5.5539000e-01  -4.0593200e-02
  -1.5234700e-01   5.6029800e-01  -3.3572800e-02
  -1.5444500e-01   5.6029800e-01  -3.1466600e-02
  -1.5887400e-01   5.6029800e-01  -2.8190400e-02
  -1.5654300e-01   5.6006400e-01  -2.3042100e-02
  -1.6190400e-01   5.6263500e-01  -1.8829800e-02
  -1.6493400e-01   5.6590700e-01  -1.5553600e-02
  -1.5864100e-01   5.6193400e-01  -1.5553600e-02
  -1.6446800e-01   5.6917900e-01  -8.2991700e-03
  -1.5980600e-01   5.7385300e-01  -7.3631100e-03
  -1.5677600e-01   5.7268500e-01  -4.7889500e-03
  -1.5747500e-01   5.7525600e-01   8.2740200e-04
  -1.5304700e-01   5.7315200e-01   2.4655100e-03
  -1.5374600e-01   5.7175000e-01   4.5716400e-03
  -1.4419000e-01   5.6263500e-01   5.5077000e-03
  -1.3649800e-01   5.6240100e-01   7.8478400e-03
  -1.2973900e-01   5.6053100e-01   2.4655100e-03
  -1.2554300e-01   5.5702600e-01   4.8056500e-03
  -1.2740800e-01   5.5912900e-01   5.9757300e-03
  -1.1808400e-01   5.5118300e-01   3.1675500e-03
  -1.0689700e-01   5.4884600e-01   5.5077000e-03
  -1.0176900e-01   5.4463900e-01   5.9757300e-03
  -9.7340200e-02   5.4276900e-01   1.0188000e-02
  -9.1047000e-02   5.4066600e-01   9.7199600e-03
  -8.4287600e-02   5.3599100e-01   1.4166200e-02
  -7.5430500e-02   5.2711000e-01   1.5804300e-02
  -6.7039600e-02   5.1752800e-01   1.0890000e-02
  -5.9114800e-02   5.1682700e-01   1.4166200e-02
  -5.0723900e-02   5.0654300e-01   1.2996200e-02
  -4.5363000e-02   5.0350500e-01   8.5498900e-03
  -3.9536000e-02   5.0537500e-01   1.0422000e-02
  -2.6716500e-02   4.9836300e-01   7.8478400e-03
  -1.7393200e-02   4.9602600e-01   8.2740200e-04
  -1.6227800e-02   4.9579200e-01  -8.1070000e-04
  -6.4384100e-03   4.9205300e-01   1.2954300e-03
   8.0126500e-03   4.8574300e-01   8.2740200e-04
   1.3839700e-02   4.8387300e-01   1.2535800e-04
   2.1065200e-02   4.8223700e-01   4.8056500e-03
   3.5982400e-02   4.7148600e-01   5.2736800e-03
   4.6471100e-02   4.6167000e-01   7.6138300e-03
   5.3696600e-02   4.5232100e-01   9.2519300e-03
   5.6493600e-02   4.4344000e-01   1.2294100e-02
   6.5583800e-02   4.3876600e-01   2.0484600e-02
   8.1200300e-02   4.3082000e-01   2.0484600e-02
   8.6328000e-02   4.2591200e-01   2.0016600e-02
   8.8425800e-02   4.2380800e-01   2.6101000e-02
   8.8658900e-02   4.1656300e-01   2.9845200e-02
   9.5418200e-02   4.0885000e-01   3.0547300e-02
   9.5651300e-02   4.0113800e-01   3.7567700e-02
   9.6117500e-02   3.9365900e-01   4.3886100e-02
   1.0637300e-01   3.8454400e-01   4.7630300e-02
   1.0800500e-01   3.7496200e-01   5.5118800e-02
   1.1220000e-01   3.6444400e-01   6.0735200e-02
   1.1592900e-01   3.5229100e-01   6.5415500e-02
   1.1872600e-01   3.4364400e-01   6.9159700e-02
   1.2688400e-01   3.2985500e-01   7.1499800e-02
   1.2781700e-01   3.2050600e-01   7.3372000e-02
   1.2991400e-01   3.1559800e-01   7.5712100e-02
   1.3620700e-01   3.0438000e-01   7.5244100e-02
   1.3457600e-01   2.9923800e-01   7.8520300e-02
   1.3154600e-01   2.9129200e-01   8.2498500e-02
   1.3108000e-01   2.7843700e-01   8.3668600e-02
   1.3527500e-01   2.6114200e-01   8.2264500e-02
   1.3294400e-01   2.4758700e-01   8.6008700e-02
   1.2688400e-01   2.3543400e-01   9.2093100e-02
   1.3271100e-01   2.1720400e-01   8.9050900e-02
   1.2735000e-01   2.0715400e-01   9.2795200e-02
   1.2408700e-01   1.9009300e-01   9.1391100e-02
   1.2455300e-01   1.7396600e-01   8.9050900e-02
   1.2222300e-01   1.5924200e-01   9.4667300e-02
   1.2688400e-01   1.3937700e-01   8.7646800e-02
   1.2199000e-01   1.2699000e-01   8.6710800e-02
   1.1849300e-01   1.1436900e-01   8.6710800e-02
   1.1965900e-01   1.0221600e-01   7.8286300e-02
   1.1359900e-01   8.8894100e-02   8.0392400e-02
   1.1150100e-01   7.4637400e-02   7.9456300e-02
   1.0940300e-01   6.2250500e-02   7.5712100e-02
   1.0497500e-01   4.5656700e-02   7.5244100e-02
   1.0683900e-01   2.7427000e-02   7.0329800e-02
   9.8914400e-02   1.3170300e-02   7.1265800e-02
   9.3786700e-02  -3.8516400e-04   6.8223600e-02
   9.2155100e-02  -1.3005800e-02   6.4947400e-02
   8.3997200e-02  -2.8664700e-02   6.0969200e-02
   8.2365700e-02  -4.3856200e-02   5.5352800e-02
   7.7470900e-02  -5.8112800e-02   5.9097100e-02
   7.5839400e-02  -7.8446100e-02   5.4416800e-02
   7.1877000e-02  -9.2469000e-02   5.1608600e-02
   6.6050000e-02  -1.0766000e-01   4.6928300e-02
   6.0222900e-02  -1.1864500e-01   4.2248000e-02
   4.9967300e-02  -1.2799400e-01   4.4354100e-02
   4.9268100e-02  -1.4341900e-01   3.8971800e-02
   4.2508700e-02  -1.5019700e-01   4.1311900e-02
   3.4817000e-02  -1.6188200e-01   4.2482000e-02
   2.8057700e-02  -1.7380200e-01   4.1546000e-02
   1.9433600e-02  -1.8034600e-01   4.4588100e-02
   2.0366000e-02  -1.9203200e-01   4.2482000e-02
   1.0110400e-02  -2.0161400e-01   4.1546000e-02
   1.0202000e-03  -2.1026100e-01   4.2014000e-02
  -5.2730000e-03  -2.2148000e-01   4.1546000e-02
  -1.4130100e-02  -2.3246400e-01   3.6865700e-02
  -1.6227800e-02  -2.4531900e-01   3.4525500e-02
  -2.8115000e-02  -2.5186300e-01   2.9845200e-02
  -3.0678900e-02  -2.5934200e-01   2.1888700e-02
  -3.8137500e-02  -2.6448300e-01   2.0718700e-02
  -5.3054700e-02  -2.6378200e-01   1.7208400e-02
  -5.2122400e-02  -2.7266300e-01   1.0656000e-02
