**************************************************************************************
  	RED ACELEROGRÁFICA DE LA UNIVERSIDAD AUTONOMA METROPOLITANA (RA-UAM)
	   UNIDAD AZCAPOTZALCO. DIVISIÓN CBI-DEPARTAMENTO DE MATERIALES
     Av. San Pablo 420, Col. Nueva el Rosario, Azcapotzalco, C.P. 02128, Ciudad de México
		Área de Estructuras. e-mail: agb@azc.uam.mx
**************************************************************************************
ARCHIVO ESTANDAR DE ACELERACION:
VERSION DEL FORMATO                    : 2.0
NOMBRE DEL ARCHIVO                     : RIDX202210.141
FECHA Y HORA DE CREACION               : 11:30 a. m. 21/10/2022
REF. CATALOGO ACELEROGRAMAS, SMIS 1999 : REGISTRO NO.      /PAG.    


================================================================================
DATOS DE LA ESTACION:
NOMBRE DE LA ESTACION                  : UAM-XOCHIMILCO.
CLAVE DE LA ESTACION                   : RIDX
LOCALIZACION DE LA ESTACION            : CALZADA DEL HUESO 1100, COL. VILLA
                                       : QUIETUD, DEL. COYOACAN, C.P.04960,  
                                       : CIUDAD DE MEXICO.
                                       : 
                                       : 
COORDENADAS DE LA ESTACION             : 19.301345 LAT. N
                                       : 99.10268 LONG. W
ALTITUD (msnm)                         : 2232
TIPO DE SUELO                          : LAGO
                                       : 
                                       : 
INSTITUCION RESPONSABLE                : UNIVERSIDAD AUTONOMA METROPOLITANA
                                       : 

================================================================================
DATOS DEL ACELEROGRAFO: 
MODELO DEL ACELEROGRAFO                : BASALT KINEMETRICS
NUMERO DE SERIE DEL ACELEROGRAFO       : 1729
NUMERO DE CANALES                      : 3
ORIENTACION C1-C6 (rumbo;orientacion)  : /V/N00E/N90E
ORIENTACION C7-C12 (rumbo;orientacion) : 
VEL. DE MUESTREO, C1-C6 (muestras/s)   : /200/200/200
VEL. DE MUESTREO, C7-C12 (muestras/s)  : 
ESC. COMPLETA DE SENSORES, C1-C6, (g)  : /2/2/2
ESC. COMPLETA DE SENSORES, C7-C12 (g)  : 
FREC. NAT. DE SENSORES, C1-C6, (Hz)    : /208/210/200   
FREC. NAT. DE SENSORES, C7-C12 (Hz)    : 
AMORTIGUAMIENTO DE SENSORES, C1-C6     : /0.7/0.7/0.7      
AMORTIGUAMIENTO DE SENSORES, C7-C12    : 
INTERVALO DE MUESTREO, C1-C6 (s)       : /0.005/0.005/0.005
INTERVALO DE MUESTREO, C7-C12 (s)      : 
UMBRAL DE DISPARO, C1-C6 (Gal)         : /2/2/2
UMBRAL DE DISPARO, C7-C12 (Gal)        : 
MEMORIA DE PREEVENTO (s)               : 60
TIEMPO DE POSEVENTO (s)                : 80


================================================================================
DATOS DEL SISMO:
FECHA DEL SISMO [GMT]                  : 2022/10/14
HORA EPICENTRO (GMT)                   : 23:28:02
MAGNITUD(ES)                           : /M=5.0
COORDENADAS DEL EPICENTRO              : 16.5100 LAT. N
                                       : -98.5300 LONG. W
PROFUNDIDAD FOCAL (Km)                 : 16.0
FUENTE DE LOS DATOS EPICENTRALES       : SSN
                                       : INSTITUTO DE GEOFISICA, UNAM

================================================================================
DATOS DE ESTE REGISTRO:
HORA DE LA PRIMERA MUESTRA (GMT)       : 23:28:41.000
EXACTITUD DEL TIEMPO (s)               : 
DURACION DEL REGISTRO (s), C1-C6       : /160/160/160
DURACION DEL REGISTRO (s), C7-C12      : 
NUM. TOTAL DE MUESTRAS, C1-C6          : /32000/32000/32000
NUM. TOTAL DE MUESTRAS, C7-C12         : 
ACEL. MAX.(Gal), C1-C6                 : /0.239/-0.739/0.513
ACEL. MAX., C1-C6, EN LA MUESTRA       : /11230/15963/12138
ACEL. MAX.(Gal), C7-C12                : 
ACEL. MAX., C7-C12,EN LA MUESTRA       : 
UNIDADES DE LOS DATOS                  : Gal (cm/s/s)
FACTOR DE DECIMACION                   : 1
FORMATO DATOS (FORTRAN,16 campos/dato) : 3E16.7


================================================================================
CALIDAD DEL ACELEROGRAMA:
REGISTRO DIGITAL COMPLETO CON TIEMPO ABSOLUTO CORRECTO


================================================================================
COMENTARIOS:














================================================================================
DATOS DE ACELERACION:
---------+---------+---------+---------+---------+---------+---------+---------+
   CANAL-1   	      CANAL-2          CANAL-3
      V                 N00E             N90E
---------+---------+---------+---------+---------+---------+---------+---------+
[...]
  -5.6168100e-02   2.4576200e-01  -1.5029100e-01
  -5.2905000e-02   2.5020300e-01  -1.3835600e-01
  -5.6634300e-02   2.5183900e-01  -1.3905800e-01
  -6.0829800e-02   2.5347500e-01  -1.3203800e-01
  -5.5935100e-02   2.5090400e-01  -1.3344200e-01
  -4.9874900e-02   2.5324100e-01  -1.3718600e-01
  -5.5002700e-02   2.4903400e-01  -1.4210100e-01
  -6.5724500e-02   2.4903400e-01  -1.4327100e-01
  -6.9920000e-02   2.5183900e-01  -1.4069600e-01
  -6.9686900e-02   2.5207200e-01  -1.3484600e-01
  -7.2716900e-02   2.5511100e-01  -1.2408100e-01
  -7.1551500e-02   2.5254000e-01  -1.2712400e-01
  -6.2927500e-02   2.5277400e-01  -1.2782600e-01
  -6.7356100e-02   2.5838300e-01  -1.2993200e-01
  -7.5747000e-02   2.5814900e-01  -1.2782600e-01
  -7.3183100e-02   2.6586200e-01  -1.2127300e-01
  -6.9453800e-02   2.7287300e-01  -1.1448700e-01
  -6.7589100e-02   2.7474300e-01  -1.0138200e-01
  -6.1762100e-02   2.8035200e-01  -1.0325400e-01
  -5.7333500e-02   2.7521000e-01  -1.0793400e-01
  -6.1529000e-02   2.7544400e-01  -1.2548500e-01
  -6.3393700e-02   2.8362400e-01  -1.4163200e-01
  -6.5025200e-02   2.8666200e-01  -1.4654700e-01
  -6.5957600e-02   2.9390700e-01  -1.4327100e-01
  -5.6634300e-02   3.0068500e-01  -1.1589100e-01
  -4.5912600e-02   2.9717900e-01  -1.0138200e-01
  -4.2649400e-02   2.9344000e-01  -9.4361500e-02
  -4.8243400e-02   2.9086900e-01  -1.0068000e-01
  -5.1506500e-02   2.8853200e-01  -1.2033700e-01
  -5.5702000e-02   2.9297300e-01  -1.3180400e-01
  -5.9664400e-02   2.9904900e-01  -1.4139800e-01
  -5.1972700e-02   3.1307200e-01  -1.2899600e-01
  -4.3814800e-02   3.1611000e-01  -1.1238100e-01
  -3.4491600e-02   3.1587700e-01  -9.5297600e-02
  -2.7965300e-02   3.1143600e-01  -8.3362800e-02
  -2.0506700e-02   2.9297300e-01  -9.2255400e-02
  -1.4446500e-02   2.9507600e-01  -1.0044600e-01
  -1.5612000e-02   2.9320600e-01  -1.1167900e-01
  -6.5217700e-03   2.9437500e-01  -1.1448700e-01
  -9.2781700e-04   3.0395700e-01  -1.0653000e-01
  -3.0255500e-03   3.0208700e-01  -1.1121100e-01
  -2.3263100e-03   3.0582700e-01  -1.0887000e-01
  -1.6270600e-03   2.9717900e-01  -1.0278600e-01
   9.5608500e-03   2.8783100e-01  -1.0044600e-01
   1.7485600e-02   2.8455900e-01  -8.8277100e-02
   1.3756300e-02   2.7684600e-01  -8.2426800e-02
   2.1214900e-02   2.7217200e-01  -8.1022700e-02
   3.4034400e-02   2.7263900e-01  -7.0726000e-02
   3.3568200e-02   2.6960100e-01  -6.6981800e-02
   2.9139700e-02   2.5814900e-01  -7.9618600e-02
   3.3801300e-02   2.5300700e-01  -8.0554700e-02
   3.5432900e-02   2.4249000e-01  -8.0554700e-02
   3.7996800e-02   2.3594600e-01  -8.2192800e-02
   4.4290000e-02   2.3197300e-01  -6.6045700e-02
   4.3590800e-02   2.1748300e-01  -6.3003600e-02
   4.6154700e-02   2.1117200e-01  -6.2769500e-02
   4.7786200e-02   2.0649800e-01  -6.0429400e-02
   4.3357700e-02   1.9972000e-01  -6.0663400e-02
   4.5222300e-02   1.9060500e-01  -5.1302800e-02
   5.2214800e-02   1.8382800e-01  -4.0304100e-02
   5.6177200e-02   1.7845200e-01  -2.7199300e-02
   5.9673400e-02   1.7447900e-01  -1.5264600e-02
   6.2703400e-02   1.6980500e-01  -6.3720000e-03
   6.9695900e-02   1.6326100e-01  -4.0318500e-03
   7.9252200e-02   1.5835300e-01  -1.6917100e-03
   7.7154500e-02   1.4386200e-01  -4.7339000e-03
   7.3192100e-02   1.3942200e-01  -3.5638200e-03
   7.5989100e-02   1.4175900e-01   1.2817200e-02
   7.6222200e-02   1.3591600e-01   2.1007700e-02
   8.1583000e-02   1.3848700e-01   3.6452700e-02
   8.8575500e-02   1.4433000e-01   5.1897700e-02
   8.5312300e-02   1.4082400e-01   5.0025500e-02
   8.6011600e-02   1.3591600e-01   4.9089500e-02
   8.8109300e-02   1.3054000e-01   4.7217400e-02
   8.4380000e-02   1.2539900e-01   4.9791500e-02
   8.3447700e-02   1.2633400e-01   5.9386100e-02
   8.2981500e-02   1.2189300e-01   6.8044700e-02
   9.1372500e-02   1.2259400e-01   8.6063800e-02
   1.0046300e-01   1.2469800e-01   9.7062500e-02
   1.0023000e-01   1.1347900e-01   8.5127700e-02
   9.8364900e-02   1.1161000e-01   7.5299100e-02
   9.5334900e-02   1.1090800e-01   7.3895000e-02
   1.0069600e-01   1.0903900e-01   8.5361800e-02
   1.0582400e-01   1.1020700e-01   1.0455100e-01
   1.1025200e-01   1.0553300e-01   1.1578400e-01
   1.1957500e-01   1.0483200e-01   1.2654800e-01
   1.2074100e-01   1.0389700e-01   1.2257000e-01
   1.1141700e-01   1.0413100e-01   1.0782700e-01
   9.0673200e-02   1.0763600e-01   1.0127500e-01
   7.3658300e-02   1.1067500e-01   1.0338100e-01
   7.1560500e-02   1.1301200e-01   1.1859200e-01
   8.1583000e-02   1.1628400e-01   1.4035500e-01
   9.6733300e-02   1.1534900e-01   1.6211900e-01
   1.0302700e-01   1.0529900e-01   1.6937300e-01
   1.0186100e-01   1.0296200e-01   1.6633100e-01
   9.3936400e-02   9.9923700e-02   1.5814000e-01
   8.7410100e-02   1.0062500e-01   1.4690800e-01
   8.1350000e-02   1.0974000e-01   1.5158800e-01
   7.2959000e-02   1.1768600e-01   1.6001200e-01
   7.4124400e-02   1.2610000e-01   1.6960700e-01
   7.1793600e-02   1.2656700e-01   1.8130800e-01
   6.2237300e-02   1.3030700e-01   1.8318000e-01
   5.5944100e-02   1.3217600e-01   1.7545700e-01
   4.8951600e-02   1.2983900e-01   1.7054300e-01
   4.0560700e-02   1.2773600e-01   1.7686100e-01
   3.7530600e-02   1.2750200e-01   1.8411600e-01
   4.0560700e-02   1.3030700e-01   1.9605100e-01
   3.9395300e-02   1.2352900e-01   2.0634700e-01
   3.1004400e-02   1.2446400e-01   2.0470900e-01
   1.8651000e-02   1.2563200e-01   1.9651900e-01
   6.2977100e-03   1.2843700e-01   1.8832800e-01
  -3.9578800e-03   1.3241000e-01   1.7615900e-01
  -2.0932300e-03   1.3054000e-01   1.7101100e-01
   4.6661400e-03   1.4105800e-01   1.9137000e-01
  -5.5894500e-03   1.3778600e-01   1.9862500e-01
  -1.4213500e-02   1.3054000e-01   2.0026300e-01
  -1.7243500e-02   1.3498100e-01   2.0611300e-01
  -3.1927700e-02   1.2797000e-01   1.9066800e-01
  -4.2882500e-02   1.2586600e-01   1.8037200e-01
  -4.6611800e-02   1.3194300e-01   1.8247800e-01
  -4.4047900e-02   1.2797000e-01   1.9534900e-01
  -3.9153200e-02   1.2773600e-01   2.1009200e-01
  -4.7544100e-02   1.3381200e-01   2.1500600e-01
  -5.5002700e-02   1.3217600e-01   2.1243200e-01
  -5.1972700e-02   1.3381200e-01   2.0307100e-01
  -5.5935100e-02   1.3638300e-01   1.9792300e-01
  -6.5025200e-02   1.2890400e-01   1.9043400e-01
  -6.1062900e-02   1.2656700e-01   1.9394500e-01
  -5.5002700e-02   1.2236000e-01   2.0939000e-01
  -6.0829800e-02   1.1231100e-01   2.1243200e-01
  -6.7589100e-02   1.0763600e-01   2.1079400e-01
  -7.4115400e-02   1.0156000e-01   2.0681500e-01
  -7.6912400e-02   1.0529900e-01   1.9979500e-01
  -7.7844700e-02   1.0576700e-01   1.9207200e-01
  -8.3904800e-02   1.0109200e-01   1.8294600e-01
  -8.5769500e-02   1.0202700e-01   1.7967000e-01
  -8.9498800e-02   8.8238000e-02   1.7498900e-01
  -9.3228100e-02   8.3797400e-02   1.6726700e-01
  -9.3461200e-02   8.1226500e-02   1.7194700e-01
  -9.4393500e-02   6.7671000e-02   1.7545700e-01
  -8.6468700e-02   6.3464200e-02   1.7147900e-01
  -8.3205600e-02   5.7621300e-02   1.6726700e-01
  -8.4604100e-02   4.8038900e-02   1.5977800e-01
  -8.4137900e-02   4.1261200e-02   1.5626800e-01
  -8.3438700e-02   3.1912600e-02   1.4995000e-01
  -6.8754500e-02   2.5368600e-02   1.4948200e-01
  -6.1062900e-02   1.8123400e-02   1.5065200e-01
  -6.7589100e-02   3.6330500e-03   1.3661100e-01
  -6.1295900e-02  -1.5086900e-03   1.3310100e-01
  -5.1739600e-02  -8.7538600e-03   1.3076100e-01
  -4.9408800e-02  -2.2075600e-02   1.2210200e-01
  -4.7078000e-02  -2.9554500e-02   1.2140000e-01
  -4.3814800e-02  -3.9838000e-02   1.1952800e-01
  -3.5657000e-02  -4.7550600e-02   1.1227300e-01
  -2.4935200e-02  -5.2458600e-02   1.0408300e-01
  -1.9574300e-02  -6.0404900e-02   9.9402600e-02
  -1.5378900e-02  -7.2090700e-02   8.4893700e-02
  -9.0856700e-03  -8.0037000e-02   7.7405300e-02
  -6.7548600e-03  -9.0320500e-02   7.0618800e-02
   1.6360800e-03  -1.0177300e-01   5.9620100e-02
   1.3523200e-02  -1.1042000e-01   5.9152100e-02
   1.8884100e-02  -1.2023600e-01   4.6281300e-02
   3.1004400e-02  -1.2210600e-01   3.9962900e-02
   4.1726100e-02  -1.3028600e-01   2.8496200e-02
   4.3823800e-02  -1.4267300e-01   1.0477100e-02
   4.5688500e-02  -1.5412500e-01   7.9029000e-03
   4.8019300e-02  -1.6791400e-01  -5.2163300e-04
   5.4778700e-02  -1.7866500e-01  -1.0350200e-02
   6.1305000e-02  -1.8894800e-01  -2.1114900e-02
   6.5733500e-02  -1.9876400e-01  -3.2113600e-02
   7.2026700e-02  -2.0624300e-01  -3.9836100e-02
   8.2282300e-02  -2.0974900e-01  -4.3112300e-02
   9.4169400e-02  -2.2330400e-01  -5.0834800e-02
   9.9530300e-02  -2.3312100e-01  -6.4641700e-02
   1.0023000e-01  -2.4106700e-01  -6.8853900e-02
   1.0419200e-01  -2.5953000e-01  -8.0554700e-02
   1.1235000e-01  -2.6537300e-01  -8.9447200e-02
   1.1607900e-01  -2.7518900e-01  -9.2255400e-02
   1.2377100e-01  -2.8617400e-01  -9.5765600e-02
   1.3146200e-01  -2.9201700e-01  -9.8573800e-02
   1.2330500e-01  -3.0907800e-01  -1.1331700e-01
   1.2144000e-01  -3.1936100e-01  -1.1940100e-01
   1.2656800e-01  -3.3408600e-01  -1.2595400e-01
   1.2983100e-01  -3.4927700e-01  -1.4046200e-01
   1.3286100e-01  -3.5161400e-01  -1.4327100e-01
   1.2516900e-01  -3.6633800e-01  -1.5848200e-01
   1.2470300e-01  -3.7802400e-01  -1.7626700e-01
   1.2633500e-01  -3.7942600e-01  -1.7743700e-01
   1.1980800e-01  -3.9157900e-01  -1.8188300e-01
   1.2237200e-01  -4.0420000e-01  -1.7954300e-01
   1.2843200e-01  -4.1565200e-01  -1.8188300e-01
   1.3099600e-01  -4.3061000e-01  -1.9288200e-01
   1.2633500e-01  -4.4603500e-01  -1.9849800e-01
   1.2237200e-01  -4.6496600e-01  -2.1675100e-01
   1.2144000e-01  -4.8249500e-01  -2.3477000e-01
   1.0838700e-01  -4.9768600e-01  -2.4459900e-01
   9.6966400e-02  -5.1451400e-01  -2.4553500e-01
   9.1372500e-02  -5.2456300e-01  -2.4506700e-01
   8.0650700e-02  -5.3461300e-01  -2.5161900e-01
   7.5522900e-02  -5.4933700e-01  -2.5349200e-01
   6.8064300e-02  -5.5821800e-01  -2.5325700e-01
   5.2214800e-02  -5.7925300e-01  -2.5255500e-01
   4.8019300e-02  -6.0192300e-01  -2.5161900e-01
   5.1981700e-02  -6.1781600e-01  -2.4600300e-01
   5.0117000e-02  -6.3394200e-01  -2.4319500e-01
   4.6387700e-02  -6.4048600e-01  -2.4647100e-01
   4.3590800e-02  -6.5147100e-01  -2.5068300e-01
   3.8463000e-02  -6.5778100e-01  -2.5349200e-01
   2.8440500e-02  -6.6572800e-01  -2.6168200e-01
   1.4921700e-02  -6.8091900e-01  -2.7408500e-01
   2.3353200e-03  -6.9190400e-01  -2.7291500e-01
  -3.4917100e-03  -7.0756300e-01  -2.7221300e-01
  -3.7248000e-03  -7.1410700e-01  -2.6519200e-01
  -4.4240400e-03  -7.1691100e-01  -2.5700200e-01
  -6.0556100e-03  -7.1854700e-01  -2.5747000e-01
  -1.2815000e-02  -7.1901500e-01  -2.5606600e-01
  -2.1205900e-02  -7.2415600e-01  -2.6121400e-01
  -2.2138200e-02  -7.2672700e-01  -2.6051200e-01
  -2.4935200e-02  -7.3350500e-01  -2.5653400e-01
  -3.2160700e-02  -7.3724400e-01  -2.4881100e-01
  -3.1927700e-02  -7.3864700e-01  -2.4249300e-01
  -2.6100600e-02  -7.3537500e-01  -2.3945100e-01
  -3.1694600e-02  -7.2742800e-01  -2.3289800e-01
  -4.0318600e-02  -7.2509100e-01  -2.3781300e-01
  -4.1250900e-02  -7.1761200e-01  -2.3570600e-01
  -4.8709500e-02  -7.1363900e-01  -2.3126000e-01
  -5.1739600e-02  -7.1293800e-01  -2.2564400e-01
  -5.0574200e-02  -7.0966600e-01  -2.1300700e-01
  -5.5002700e-02  -7.0732900e-01  -2.0037000e-01
  -5.3604200e-02  -7.0312200e-01  -1.8773300e-01
  -5.3138100e-02  -6.9681200e-01  -1.8352100e-01
  -5.8499000e-02  -6.8863200e-01  -1.7977700e-01
  -6.8754500e-02  -6.8325600e-01  -1.7954300e-01
  -7.4115400e-02  -6.6993400e-01  -1.7205400e-01
  -7.0852300e-02  -6.5708000e-01  -1.5637500e-01
  -6.8754500e-02  -6.4632900e-01  -1.4584500e-01
  -6.5957600e-02  -6.3230600e-01  -1.3227200e-01
  -7.2017700e-02  -6.2342500e-01  -1.2384700e-01
  -7.5980100e-02  -6.1290800e-01  -1.1565700e-01
  -6.7123000e-02  -6.0262400e-01  -1.0980600e-01
  -6.6190600e-02  -5.8462800e-01  -1.0044600e-01
  -6.8987600e-02  -5.7037200e-01  -9.4361500e-02
  -6.6656800e-02  -5.5611500e-01  -9.5999600e-02
  -6.4092900e-02  -5.3554800e-01  -8.3362800e-02
  -6.5258300e-02  -5.2012300e-01  -7.5874400e-02
  -7.4581600e-02  -5.0469800e-01  -7.0258000e-02
  -7.2950000e-02  -4.9581700e-01  -6.0429400e-02
  -6.1995200e-02  -4.7595100e-01  -4.8260600e-02
  -6.7822200e-02  -4.6777100e-01  -3.9602100e-02
  -6.6889900e-02  -4.5912300e-01  -3.1411600e-02
  -5.5002700e-02  -4.3388200e-01  -1.6902700e-02
  -5.5002700e-02  -4.2289700e-01  -1.6434600e-02
  -5.3138100e-02  -4.0139600e-01  -4.7339000e-03
  -5.0341100e-02  -3.8480200e-01   2.0525300e-03
  -4.9175700e-02  -3.6610500e-01   1.3504800e-03
  -4.7777200e-02  -3.4997800e-01   6.0307800e-03
  -5.4536600e-02  -3.4226600e-01  -1.6917100e-03
  -6.3160600e-02  -3.2263300e-01   3.2226000e-03
  -6.4559100e-02  -3.1118100e-01   1.0945100e-02
  -5.8965100e-02  -2.8944600e-01   3.1772400e-02
  -5.4769700e-02  -2.7191700e-01   5.2599700e-02
  -4.7311000e-02  -2.5625800e-01   5.8918100e-02
  -3.9852400e-02  -2.3148500e-01   7.0852800e-02
  -4.4980200e-02  -2.1839600e-01   6.2194300e-02
  -4.4747100e-02  -2.0647700e-01   5.4003800e-02
  -3.7288500e-02  -1.8894800e-01   5.6577900e-02
  -3.4724600e-02  -1.7749600e-01   5.3535800e-02
  -3.3559200e-02  -1.6978400e-01   6.1960300e-02
  -3.1927700e-02  -1.5412500e-01   6.8746700e-02
  -3.0995300e-02  -1.3940100e-01   6.7576600e-02
  -3.2626900e-02  -1.2327400e-01   6.5938500e-02
  -3.0296100e-02  -1.0831700e-01   5.8684100e-02
  -2.8198400e-02  -9.0320500e-02   6.7342600e-02
  -3.0762300e-02  -7.8634700e-02   8.6531800e-02
  -2.5867500e-02  -7.0454700e-02   1.0150900e-01
  -2.1439000e-02  -5.3860900e-02   1.0782700e-01
  -1.5612000e-02  -4.5447200e-02   1.0455100e-01
  -7.6871800e-03  -3.2125400e-02   1.0267900e-01
  -5.8225300e-03  -2.0439600e-02   9.6360400e-02
  -3.4917100e-03  -7.1178600e-03   1.0104100e-01
   9.3683500e-04   2.2307500e-03   1.0689100e-01
   1.6360800e-03   3.8667600e-03   1.1016700e-01
   3.9668900e-03   1.7188500e-02   1.1906000e-01
   8.6285300e-03   2.8173100e-02   1.1438000e-01
   6.5307900e-03   4.0560100e-02   1.1157100e-01
   9.0946900e-03   5.2245800e-02   1.1297500e-01
   1.7252500e-02   6.6502500e-02   1.2210200e-01
   2.1914200e-02   8.4498500e-02   1.3801500e-01
   2.6575800e-02   8.8939100e-02   1.4175900e-01
   3.4034400e-02   9.5950600e-02   1.4012100e-01
   3.7763700e-02   1.1020700e-01   1.4152500e-01
   2.8906600e-02   1.1184300e-01   1.3567500e-01
   3.1703600e-02   1.1815400e-01   1.3310100e-01
   4.0793800e-02   1.2726800e-01   1.4292900e-01
   4.4290000e-02   1.2680100e-01   1.4924800e-01
   4.8252400e-02   1.3638300e-01   1.5954400e-01
   4.3357700e-02   1.4292700e-01   1.6469300e-01
   4.1493000e-02   1.5110700e-01   1.6211900e-01
   3.7297600e-02   1.6045600e-01   1.6399100e-01
   3.7064500e-02   1.6349400e-01   1.6282100e-01
   4.4523100e-02   1.7284300e-01   1.6633100e-01
   4.2658400e-02   1.7868600e-01   1.6399100e-01
   4.3590800e-02   1.8967000e-01   1.6094800e-01
   4.3124600e-02   1.9855200e-01   1.6328900e-01
   4.1259900e-02   2.0790000e-01   1.6141700e-01
   3.9861500e-02   2.1982000e-01   1.7147900e-01
   3.9395300e-02   2.2192300e-01   1.7335100e-01
   4.0793800e-02   2.2753200e-01   1.7147900e-01
   3.5432900e-02   2.3103800e-01   1.7639300e-01
   3.4500600e-02   2.3758200e-01   1.7311700e-01
   3.5899100e-02   2.4856700e-01   1.7592500e-01
   3.6598300e-02   2.5674700e-01   1.7452100e-01
   4.0793800e-02   2.6632900e-01   1.6984100e-01
   4.5455400e-02   2.7100300e-01   1.6984100e-01
   5.2914000e-02   2.7263900e-01   1.6469300e-01
