**************************************************************************************
  	RED ACELEROGRÁFICA DE LA UNIVERSIDAD AUTONOMA METROPOLITANA (RA-UAM)
	   UNIDAD AZCAPOTZALCO. DIVISIÓN CBI-DEPARTAMENTO DE MATERIALES
     Av. San Pablo 420, Col. Nueva el Rosario, Azcapotzalco, C.P. 02128, Ciudad de México
		Área de Estructuras. e-mail: agb@azc.uam.mx
**************************************************************************************
ARCHIVO ESTANDAR DE ACELERACION:
VERSION DEL FORMATO                    : 2.0
NOMBRE DEL ARCHIVO                     : RIDX202203.011
FECHA Y HORA DE CREACION               : 11:30 a. m. 04/03/2022
REF. CATALOGO ACELEROGRAMAS, SMIS 1999 : REGISTRO NO.      /PAG.    


================================================================================
DATOS DE LA ESTACION:
NOMBRE DE LA ESTACION                  : UAM-XOCHIMILCO.
CLAVE DE LA ESTACION                   : RIDX
LOCALIZACION DE LA ESTACION            : CALZADA DEL HUESO 1100, COL. VILLA
                                       : QUIETUD, DEL. COYOACAN, C.P.04960,  
                                       : CIUDAD DE MEXICO.
                                       : 
                                       : 
COORDENADAS DE LA ESTACION             : 19.301345 LAT. N
                                       : 99.10268 LONG. W
ALTITUD (msnm)                         : 2232
TIPO DE SUELO                          : LAGO
                                       : 
                                       : 
INSTITUCION RESPONSABLE                : UNIVERSIDAD AUTONOMA METROPOLITANA
                                       : 

================================================================================
DATOS DEL ACELEROGRAFO: 
MODELO DEL ACELEROGRAFO                : BASALT KINEMETRICS
NUMERO DE SERIE DEL ACELEROGRAFO       : 1729
NUMERO DE CANALES                      : 3
ORIENTACION C1-C6 (rumbo;orientacion)  : /V/N00E/N90E
ORIENTACION C7-C12 (rumbo;orientacion) : 
VEL. DE MUESTREO, C1-C6 (muestras/s)   : /200/200/200
VEL. DE MUESTREO, C7-C12 (muestras/s)  : 
ESC. COMPLETA DE SENSORES, C1-C6, (g)  : /2/2/2
ESC. COMPLETA DE SENSORES, C7-C12 (g)  : 
FREC. NAT. DE SENSORES, C1-C6, (Hz)    : /208/210/200   
FREC. NAT. DE SENSORES, C7-C12 (Hz)    : 
AMORTIGUAMIENTO DE SENSORES, C1-C6     : /0.7/0.7/0.7      
AMORTIGUAMIENTO DE SENSORES, C7-C12    : 
INTERVALO DE MUESTREO, C1-C6 (s)       : /0.005/0.005/0.005
INTERVALO DE MUESTREO, C7-C12 (s)      : 
UMBRAL DE DISPARO, C1-C6 (Gal)         : /2/2/2
UMBRAL DE DISPARO, C7-C12 (Gal)        : 
MEMORIA DE PREEVENTO (s)               : 60
TIEMPO DE POSEVENTO (s)                : 80


================================================================================
DATOS DEL SISMO:
FECHA DEL SISMO [GMT]                  : 2022/03/01
HORA EPICENTRO (GMT)                   : 19:35:45
MAGNITUD(ES)                           : /M=5.2
COORDENADAS DEL EPICENTRO              : 15.9400 LAT. N
                                       : -96.6100 LONG. W
PROFUNDIDAD FOCAL (Km)                 : 41.0
FUENTE DE LOS DATOS EPICENTRALES       : SSN
                                       : INSTITUTO DE GEOFISICA, UNAM

================================================================================
DATOS DE ESTE REGISTRO:
HORA DE LA PRIMERA MUESTRA (GMT)       : 19:36:55.000
EXACTITUD DEL TIEMPO (s)               : 
DURACION DEL REGISTRO (s), C1-C6       : /288/288/288
DURACION DEL REGISTRO (s), C7-C12      : 
NUM. TOTAL DE MUESTRAS, C1-C6          : /57600/57600/57600
NUM. TOTAL DE MUESTRAS, C7-C12         : 
ACEL. MAX.(Gal), C1-C6                 : /1.580/-2.157/-1.225
ACEL. MAX., C1-C6, EN LA MUESTRA       : /41458/41006/41474
ACEL. MAX.(Gal), C7-C12                : 
ACEL. MAX., C7-C12,EN LA MUESTRA       : 
UNIDADES DE LOS DATOS                  : Gal (cm/s/s)
FACTOR DE DECIMACION                   : 1
FORMATO DATOS (FORTRAN,16 campos/dato) : 3E16.7


================================================================================
CALIDAD DEL ACELEROGRAMA:
REGISTRO DIGITAL COMPLETO CON TIEMPO ABSOLUTO CORRECTO


================================================================================
COMENTARIOS:














================================================================================
DATOS DE ACELERACION:
---------+---------+---------+---------+---------+---------+---------+---------+
   CANAL-1   	      CANAL-2          CANAL-3
      V                 N00E             N90E
---------+---------+---------+---------+---------+---------+---------+---------+ 
[...]
   5.7162300e-01   1.2169800e-01   2.3331700e-01
   6.2709600e-01   1.4577000e-01   1.4626300e-01
   4.8911200e-01   1.3782400e-01   5.3593400e-02
   1.8867000e-01   1.3852500e-01  -6.0137800e-02
  -2.0034300e-01   9.2249400e-02  -1.4274500e-01
  -4.9402600e-01   1.0449100e-02  -1.3244800e-01
  -4.0289100e-01  -1.9966100e-01  -1.3034200e-01
  -1.3881000e-01  -4.7544500e-01  -2.6205700e-02
  -3.3922900e-02  -5.7360500e-01   2.0242700e-01
  -6.7253500e-02  -4.5300800e-01   3.7653400e-01
  -1.2762200e-01  -2.5154600e-01   3.5313200e-01
  -6.3757300e-02  -1.2440500e-01   7.7930900e-02
   1.1035500e-01  -8.5607900e-02  -2.2862800e-01
   2.8283500e-01  -4.0033400e-02  -3.4118900e-01
   3.5392500e-01   1.3174700e-01  -2.7379300e-01
   2.5230100e-01   4.1010200e-01  -1.3244800e-01
   6.1407500e-02   5.9614000e-01   5.6203400e-03
  -7.4246000e-02   5.2532400e-01   7.0442400e-02
  -7.1682100e-02   2.5912200e-01   6.9974400e-02
   2.7144500e-02  -9.6504400e-03   7.1378500e-02
   1.3412900e-01  -1.7348500e-01   5.4997400e-02
   2.1780500e-01  -2.8052600e-01   1.8959200e-02
   2.5160200e-01  -3.8546500e-01  -3.2992100e-02
   2.6302300e-01  -4.2028800e-01  -1.0179200e-01
   2.8842900e-01  -2.7608600e-01  -1.0647300e-01
   2.8306800e-01   1.1617600e-02  -3.9076500e-02
   2.2573000e-01   2.2640200e-01   6.2017900e-02
   1.2294100e-01   2.7478100e-01   1.5539000e-01
   5.6279700e-02   2.1050900e-01   1.7645100e-01
   6.4903700e-02   1.2497000e-01   1.4298700e-01
   8.1452500e-02   6.9111600e-02   6.3188000e-02
   7.7490100e-02   3.4376100e-03  -3.2992100e-02
   3.7633200e-02  -6.8079300e-02  -9.1729800e-02
  -5.9220100e-04  -1.5876100e-01  -1.0015400e-01
  -3.3891800e-03  -2.6673700e-01  -5.1947300e-02
   3.8798600e-02  -3.4012400e-01   1.6619000e-02
   1.2876800e-01  -3.3708600e-01   7.8398900e-02
   1.9706100e-01  -2.3915900e-01   1.1771300e-01
   2.0079000e-01  -4.9849500e-02   1.3760500e-01
   1.4345200e-01   1.8994200e-01   1.3643500e-01
   2.7843700e-02   3.7177300e-01   1.0203400e-01
  -9.4757100e-02   4.2809800e-01   3.8148400e-02
  -1.5465900e-01   3.4092200e-01  -5.7329600e-02
  -1.4790000e-01   1.4880900e-01  -1.3478800e-01
  -9.3358700e-02  -6.9481600e-02  -1.6357200e-01
  -1.9005600e-02  -2.4944200e-01  -1.4414900e-01
   4.4625600e-02  -3.3521600e-01  -7.1838500e-02
   1.0709100e-01  -3.2540000e-01   1.5214900e-02
   1.4415100e-01  -2.2794100e-01   8.4483300e-02
   1.4601600e-01  -8.1401000e-02   1.1490500e-01
   1.2667000e-01   7.5421900e-02   9.3843900e-02
   8.2384800e-02   2.1424900e-01   3.3702100e-02
   3.2272300e-02   2.7104200e-01  -1.8249200e-02
   5.9340800e-03   2.4276200e-01  -3.5566200e-02
   1.3159600e-02   1.4880900e-01  -2.7375700e-02
   1.8986600e-02   3.1950900e-02   1.2406800e-02
   1.9452800e-02  -5.0316900e-02   3.9084400e-02
   8.2649000e-03  -7.9063900e-02   3.7680400e-02
  -2.0404100e-02  -6.1535200e-02   3.5106200e-02
  -3.7885200e-02  -3.1853400e-02   2.1065300e-02
  -6.4456500e-02   2.9701800e-03   1.3108800e-02
  -8.9396300e-02   2.4238300e-02   1.1470700e-02
  -9.5689500e-02   2.7977700e-02   1.2406800e-02
  -8.8463900e-02   3.1950900e-02   2.4341500e-02
  -6.2125700e-02   2.7510300e-02   3.7680400e-02
  -2.9028100e-02   2.2134800e-02   4.8211000e-02
   3.8363500e-03   1.2318800e-02   4.3998700e-02
   2.7144500e-02   5.5410500e-03   2.0597300e-02
   2.6911400e-02   1.6993100e-02  -3.2722200e-03
  -1.0583600e-03   2.7276600e-02  -2.8779800e-02
  -4.1614600e-02   3.6858900e-02  -5.3351400e-02
  -8.4734600e-02   3.7560000e-02  -5.1479200e-02
  -1.1060700e-01   8.5793500e-03  -3.5800300e-02
  -9.8253400e-02  -2.2271100e-02  -1.5207000e-02
  -6.5388900e-02  -4.2136900e-02   9.5985900e-03
  -3.4389000e-02  -4.2838000e-02   2.5277600e-02
  -1.7141000e-02  -2.3205900e-02   3.4170100e-02
  -1.1314000e-02  -3.5738500e-03   4.0254500e-02
  -1.0847800e-02   1.2552500e-02   5.0317100e-02
   4.5355900e-03   1.5123400e-02   4.3296700e-02
   1.8054300e-02   1.7694200e-02   1.0534700e-02
   2.9040200e-03   3.1717200e-02  -2.7843800e-02
  -1.4577100e-02   5.3452700e-02  -5.5223500e-02
  -3.6253700e-02   4.6674900e-02  -5.2415300e-02
  -4.3013000e-02   1.1004600e-03  -1.6143000e-02
  -2.0637200e-02  -4.0267100e-02   2.4341500e-02
   9.8964700e-03  -6.7144400e-02   4.2360600e-02
   1.4558100e-02  -5.7094600e-02   4.4934800e-02
  -1.6441700e-02  -1.5259600e-02   2.6447600e-02
  -2.6697300e-02   9.2804900e-03   1.4080800e-03
  -4.9073200e-02  -3.1064200e-03  -1.4036900e-02
  -4.5576900e-02  -4.4707700e-02  -1.1696700e-02
   7.6790900e-02  -1.3188400e-01   9.5985900e-03
   2.0871500e-01  -2.2279900e-01   1.0066600e-02
   2.4740700e-01  -1.7769200e-01  -4.6404000e-04
   1.1734700e-01   6.4437300e-02  -3.6736300e-02
  -2.0873400e-01   4.3370700e-01  -8.3773300e-02
  -4.9425900e-01   6.4405100e-01  -8.9155600e-02
  -4.3342500e-01   4.1991800e-01  -8.7985500e-02
  -1.1317100e-01  -1.0594100e-01  -9.8984200e-02
   1.6279800e-01  -6.1053200e-01  -9.4069900e-02
   2.6698500e-01  -8.2578400e-01  -1.0292700e-02
   1.4018900e-01  -6.0305400e-01   1.0741700e-01
  -1.7607200e-02  -8.7243900e-02   1.4743300e-01
  -1.5742500e-02   3.9421000e-01   1.0648100e-01
  -1.1387000e-01   7.1346500e-01  -4.9103200e-03
  -4.5883000e-01   8.9295800e-01  -1.1864100e-01
  -8.2220500e-01   8.4083900e-01  -1.5304200e-01
  -9.4480500e-01   4.4586100e-01  -1.2964000e-01
  -6.4506300e-01  -3.1488300e-01  -1.0202600e-01
   7.9587800e-02  -1.2179600e+00  -7.6752800e-02
   9.0329800e-01  -1.7886900e+00  -4.3288700e-02
   1.4664200e+00  -1.6734700e+00  -4.6763000e-03
   1.5083800e+00  -8.7626700e-01   5.7571600e-02
   9.3989200e-01   2.6683500e-01   7.3484600e-02
   7.0730700e-02   1.3101400e+00  -2.3002500e-04
  -7.4831800e-01   1.9236400e+00  -8.2135200e-02
  -1.2711200e+00   1.9584700e+00  -1.2847000e-01
  -1.3135400e+00   1.3734800e+00  -1.0553700e-01
  -9.2009900e-01   2.7688400e-01  -1.0292700e-02
  -2.8728200e-01  -9.6811700e-01   1.1982000e-01
   3.6791000e-01  -1.8938600e+00   2.4291100e-01
   8.0260700e-01  -2.0948600e+00   3.1849800e-01
   8.7066700e-01  -1.5708700e+00   2.9907500e-01
   6.6275800e-01  -7.0027900e-01   1.8815200e-01
   3.7140600e-01   1.7194600e-01   4.2126600e-02
   1.6885800e-01   8.1489700e-01  -9.7346100e-02
   2.9242200e-02   1.2972900e+00  -1.7012500e-01
  -8.4734600e-02   1.6265900e+00  -1.8908000e-01
  -1.9055400e-01   1.5868600e+00  -1.4929700e-01
  -3.7492100e-01   1.2290400e+00  -9.2899800e-02
  -4.2573300e-01   5.9987900e-01  -9.2197800e-02
  -3.1991400e-01  -1.6717500e-01  -6.7158200e-02
  -2.8401900e-01  -7.2271600e-01   1.0300600e-02
  -2.5511700e-01  -1.0814700e+00   1.2637200e-01
  -1.7983200e-01  -1.2943800e+00   2.2793400e-01
  -5.1170900e-02  -1.1992600e+00   2.2255200e-01
   1.5836900e-01  -8.7299500e-01   9.2439800e-02
   3.0194800e-01  -4.3127300e-01  -7.4880700e-02
   3.2595500e-01  -3.5125400e-02  -1.6755100e-01
   3.3691000e-01   1.0159800e-01  -2.0452500e-01
   3.8515800e-01   4.2000600e-02  -2.5179600e-01
   4.9027800e-01  -9.9163400e-02  -3.1404400e-01
   5.5251000e-01  -1.9638900e-01  -3.1685200e-01
   5.7208900e-01  -1.8704000e-01  -2.8058000e-01
   5.2524000e-01  -8.0232500e-02  -2.0382300e-01
   3.1523300e-01   2.6566600e-01  -2.4099500e-02
   1.5906900e-01   7.1813900e-01   1.4509300e-01
   9.8964700e-03   9.2988500e-01   2.8503400e-01
  -2.1642600e-01   8.2564800e-01   3.5804600e-01
  -2.8215500e-01   5.0218600e-01   2.9392600e-01
  -2.2528300e-01   1.5839100e-01   1.7668500e-01
  -1.2738900e-01  -8.3504500e-02   2.0597300e-02
  -1.3877800e-02  -2.9244600e-01  -1.0179200e-01
   6.3738300e-02  -4.6983600e-01  -1.5725400e-01
   1.4252000e-01  -5.8669300e-01  -1.8884600e-01
   1.9403100e-01  -6.1801100e-01  -1.6942300e-01
   2.1827100e-01  -5.4345600e-01  -1.2121600e-01
   2.4227900e-01  -4.0766800e-01  -6.8328300e-02
   2.2689500e-01  -2.0036200e-01  -2.1525400e-02
   2.0731700e-01   1.4422200e-02   5.8543600e-03
   2.2200100e-01   1.5698900e-01   7.7264700e-03
   2.2689500e-01   2.4206100e-01  -1.5441000e-02
   1.7328700e-01   2.4603400e-01  -5.2415300e-02
   7.7023900e-02   2.1868900e-01  -8.1667100e-02
  -1.3644800e-02   1.9905700e-01  -7.7922900e-02
  -8.9396300e-02   1.4693900e-01  -5.1713300e-02
  -1.4720000e-01   6.8410500e-02  -2.4801600e-02
  -1.8146300e-01  -2.2271100e-02  -1.2398800e-02
  -1.5745600e-01  -1.2534000e-01  -2.3163500e-02
  -8.7065400e-02  -2.0480300e-01  -3.4162200e-02
  -2.1569500e-02  -2.1719000e-01  -2.9247800e-02
   3.7633200e-02  -1.6647300e-01  -2.0823300e-02
   7.6091600e-02  -6.7144400e-02  -3.0417900e-02
   8.4016400e-02   3.2418300e-02  -5.6627600e-02
   5.3482700e-02   1.0113100e-01  -6.0137800e-02
   1.7122000e-02   1.3151400e-01  -5.5925500e-02
  -3.6222600e-03   1.1679000e-01  -4.9373100e-02
  -2.7862700e-02   7.8226500e-02  -2.3631500e-02
  -4.0682200e-02   2.4705700e-02  -7.7184900e-03
  -5.5599400e-02  -1.0351600e-02   1.2406800e-02
  -8.1005300e-02  -5.3554900e-04   4.1658600e-02
  -1.2109500e-01   3.8728600e-02   6.4592000e-02
  -1.8449400e-01   8.2667100e-02   7.3718600e-02
  -2.5185400e-01   1.0066300e-01   6.7868200e-02
  -2.8891400e-01   6.4437300e-02   3.9786500e-02
  -2.9287600e-01  -1.7041300e-03   2.1101200e-03
  -2.8262100e-01  -6.3171200e-02  -9.1225800e-03
  -2.3227500e-01  -1.1902900e-01  -2.5035600e-02
  -1.7750100e-01  -1.3001400e-01  -3.2758100e-02
  -1.4790000e-01  -1.0383800e-01  -2.5269600e-02
  -1.1503500e-01  -6.7845500e-02  -3.1120000e-02
  -8.3569200e-02  -9.1830100e-03  -3.6970300e-02
  -4.5343900e-02   3.4288000e-02  -4.2118700e-02
  -1.5509400e-02   5.1816700e-02  -4.2586700e-02
  -5.4869100e-03   5.7192100e-02  -2.9715900e-02
   3.1371000e-03   3.0548600e-02   1.6420900e-03
   5.7010000e-03   1.6058200e-02   3.2766000e-02
  -5.0207500e-03   3.6157700e-02   5.5933500e-02
  -4.8373900e-02   5.5322400e-02   6.7400200e-02
  -7.7975300e-02   4.7609800e-02   6.6230100e-02
  -5.3035500e-02  -2.9048800e-02   6.8570300e-02
   1.8520500e-02  -1.8774100e-01   8.5887400e-02
   1.2876800e-01  -3.4339600e-01   9.9226200e-02
   1.6419600e-01  -3.1044200e-01   4.2360600e-02
   2.1084400e-02   1.1004600e-03  -7.4178700e-02
  -2.6047800e-01   4.3978400e-01  -2.0616300e-01
  -4.5743200e-01   6.4708900e-01  -2.8853600e-01
  -3.5604200e-01   3.6406000e-01  -2.3354300e-01
   2.1550500e-02  -2.7398200e-01  -7.8156900e-02
   4.2058600e-01  -8.4004100e-01   1.0250200e-01
   5.8863800e-01  -9.4778400e-01   2.7590700e-01
   6.1474300e-01  -5.8856300e-01   3.6413100e-01
   5.2174400e-01   1.1118000e-01   2.5086800e-01
   1.7748200e-01   9.5699600e-01  -7.8390900e-02
  -3.9356800e-01   1.5518000e+00  -4.7223800e-01
  -9.7161000e-01   1.5959700e+00  -6.9338200e-01
  -1.1667000e+00   9.5909900e-01  -6.1264600e-01
  -8.4737700e-01  -2.0667200e-01  -2.9345000e-01
  -1.5023100e-01  -1.4395200e+00   1.0811900e-01
   6.1777300e-01  -2.1567900e+00   3.9478700e-01
   1.1161000e+00  -1.9796400e+00   4.7762800e-01
   1.2888100e+00  -1.1340500e+00   4.1772000e-01
   1.1275200e+00  -9.3787900e-02   2.3846500e-01
   6.9515600e-01   8.1466300e-01  -2.1291300e-02
   1.3133200e-01   1.4244300e+00  -2.8011200e-01
  -4.2107100e-01   1.7107300e+00  -4.6708900e-01
  -7.5041500e-01   1.6209800e+00  -4.8206600e-01
  -7.9749800e-01   1.1752900e+00  -3.3604100e-01
  -6.3201000e-01   4.4773000e-01  -1.3946900e-01
  -4.3272500e-01  -3.8733400e-01   6.1783900e-02
  -2.6141000e-01  -1.1219000e+00   2.5601600e-01
  -1.0847800e-02  -1.7038500e+00   4.2474100e-01
   2.9122600e-01  -1.8648800e+00   5.2583500e-01
   5.8001400e-01  -1.4689700e+00   5.0102900e-01
   6.4947200e-01  -6.6568900e-01   3.4845200e-01
   4.2035300e-01   4.3955000e-01   1.2941400e-01
   1.0988800e-01   1.4725700e+00  -1.1185500e-01
  -2.2202000e-01   1.9365000e+00  -3.7090900e-01
  -5.5858900e-01   1.6254200e+00  -5.9369100e-01
  -6.2688200e-01   7.1019300e-01  -6.9244500e-01
  -2.0500500e-01  -3.6606600e-01  -6.4798300e-01
   3.8003000e-01  -1.0330900e+00  -4.3502900e-01
   6.7138200e-01  -1.0335600e+00  -5.5691500e-02
   6.3385600e-01  -6.9326800e-01   3.2247600e-01
   3.9471400e-01  -3.9691700e-01   5.2092100e-01
   1.1431700e-01  -2.6977600e-01   4.8371200e-01
   3.2738500e-02  -3.2142700e-01   2.4946400e-01
   1.9962500e-01  -4.4459500e-01  -3.8608400e-02
   4.3363900e-01  -4.0369400e-01  -2.0569500e-01
   6.0518700e-01  -1.2440500e-01  -2.0780100e-01
   6.2453200e-01   3.1498000e-01  -1.5140400e-01
   4.2454900e-01   7.5506600e-01  -1.2823600e-01
   6.4670600e-02   9.3058600e-01  -1.3946900e-01
  -2.6187700e-01   7.8147600e-01  -1.5772200e-01
  -4.1641000e-01   4.3417500e-01  -1.3127800e-01
  -4.6815400e-01   7.3785900e-02  -1.9185200e-02
  -4.3482300e-01  -1.9779100e-01   1.3386000e-01
  -2.8448600e-01  -3.9738400e-01   2.4571900e-01
  -8.1005300e-02  -5.0021900e-01   2.8573600e-01
   1.1804600e-01  -5.3971700e-01   2.6280200e-01
   2.3738400e-01  -4.9834900e-01   1.8791800e-01
   2.5346700e-01  -3.4363000e-01   6.3656000e-02
   2.0708300e-01  -1.8236600e-01  -8.0263000e-02
   1.5207600e-01  -8.6075300e-02  -1.8627200e-01
   1.2107600e-01  -2.7646500e-02  -2.4313700e-01
   8.7978800e-02   2.9146300e-02  -2.5858200e-01
   6.4437500e-02   8.9211100e-02  -2.2792600e-01
   4.3460200e-02   1.6329900e-01  -1.6544400e-01
  -5.7199900e-03   2.2196100e-01  -8.2603200e-02
  -5.9794900e-02   2.1752100e-01  -4.4422900e-03
  -9.1027800e-02   1.4623800e-01   4.5168800e-02
  -9.6155600e-02   3.0782300e-02   8.0037000e-02
  -6.8652000e-02  -8.2335900e-02   8.5887400e-02
  -1.1314000e-02  -1.4216700e-01   6.3656000e-02
   3.6467800e-02  -1.3702500e-01   2.1299300e-02
   6.6302200e-02  -9.8228500e-02  -3.4630200e-02
   7.3760800e-02  -4.1669400e-02  -6.9030300e-02
   6.5603000e-02  -4.0412800e-03  -9.3835900e-02
   4.2994000e-02   1.5590800e-02  -9.1963800e-02
  -3.8553400e-03   3.1249700e-02  -6.3882000e-02
  -4.5110800e-02   2.1200000e-02  -4.4692800e-02
  -7.7042900e-02   2.2690300e-03  -2.9013800e-02
  -8.7997800e-02  -3.9098600e-02  -5.4053400e-02
  -7.9606800e-02  -8.2102200e-02  -8.2369200e-02
  -6.7952800e-02  -9.1684500e-02  -7.6284800e-02
  -6.5155800e-02  -6.2002700e-02  -4.6564900e-02
  -1.0198300e-01   2.4939400e-02   2.9723900e-02
  -1.4859900e-01   1.1772400e-01   8.5887400e-02
  -1.7307300e-01   1.6516900e-01   8.8461500e-02
  -1.7936600e-01   1.6072800e-01   6.1783900e-02
  -1.7027600e-01   1.0767500e-01   2.1101200e-03
  -1.5512500e-01   2.4705700e-02  -6.0137800e-02
  -1.3881000e-01  -5.6393500e-02  -9.2899800e-02
  -1.1410300e-01  -1.2393700e-01  -9.3133900e-02
  -9.4990200e-02  -1.5455400e-01  -7.1370500e-02
  -8.5900000e-02  -1.3912900e-01  -3.8140400e-02
  -8.8230900e-02  -9.9163400e-02  -9.5906100e-03
  -1.0757700e-01  -3.0217400e-02   2.3873500e-02
  -1.1480200e-01   3.5690300e-02   3.8382400e-02
  -1.0897500e-01   8.4069400e-02   2.6213600e-02
  -9.2193200e-02   1.1375100e-01   1.5683000e-02
  -6.9351300e-02   9.4586600e-02  -1.8015100e-02
  -4.9772400e-02   3.9663500e-02  -3.3226100e-02
  -4.4644600e-02  -1.4091000e-02  -1.9887300e-02
  -4.6509300e-02  -8.2569600e-02   1.6420900e-03
  -4.9772400e-02  -1.4403700e-01   3.6744300e-02
  -3.4155900e-02  -1.6179900e-01   6.4358000e-02
   1.7588200e-02  -1.5899500e-01   7.8866900e-02
  -6.8854000e-03  -8.9814800e-02   5.4529400e-02
  -5.2569400e-02  -2.6010500e-02   3.6744300e-02
  -1.0614700e-02  -2.7412800e-02   4.0488500e-02
   9.8700500e-02  -6.6443300e-02   6.3890000e-02
   2.2060200e-01  -1.3679200e-01   1.0507700e-01
   1.7911400e-01  -6.8780400e-02   4.1658600e-02
