**************************************************************************************
  	RED ACELEROGRÁFICA DE LA UNIVERSIDAD AUTONOMA METROPOLITANA (RA-UAM)
	   UNIDAD AZCAPOTZALCO. DIVISIÓN CBI-DEPARTAMENTO DE MATERIALES
     Av. San Pablo 420, Col. Nueva el Rosario, Azcapotzalco, C.P. 02128, Ciudad de México
		Área de Estructuras. e-mail: agb@azc.uam.mx
**************************************************************************************
ARCHIVO ESTANDAR DE ACELERACION:
VERSION DEL FORMATO                    : 2.0
NOMBRE DEL ARCHIVO                     : RIDX202203.031
FECHA Y HORA DE CREACION               : 11:30 a. m. 10/03/2022
REF. CATALOGO ACELEROGRAMAS, SMIS 1999 : REGISTRO NO.      /PAG.    


================================================================================
DATOS DE LA ESTACION:
NOMBRE DE LA ESTACION                  : UAM-XOCHIMILCO.
CLAVE DE LA ESTACION                   : RIDX
LOCALIZACION DE LA ESTACION            : CALZADA DEL HUESO 1100, COL. VILLA
                                       : QUIETUD, DEL. COYOACAN, C.P.04960,  
                                       : CIUDAD DE MEXICO.
                                       : 
                                       : 
COORDENADAS DE LA ESTACION             : 19.301345 LAT. N
                                       : 99.10268 LONG. W
ALTITUD (msnm)                         : 2232
TIPO DE SUELO                          : LAGO
                                       : 
                                       : 
INSTITUCION RESPONSABLE                : UNIVERSIDAD AUTONOMA METROPOLITANA
                                       : 

================================================================================
DATOS DEL ACELEROGRAFO: 
MODELO DEL ACELEROGRAFO                : BASALT KINEMETRICS
NUMERO DE SERIE DEL ACELEROGRAFO       : 1729
NUMERO DE CANALES                      : 3
ORIENTACION C1-C6 (rumbo;orientacion)  : /V/N00E/N90E
ORIENTACION C7-C12 (rumbo;orientacion) : 
VEL. DE MUESTREO, C1-C6 (muestras/s)   : /200/200/200
VEL. DE MUESTREO, C7-C12 (muestras/s)  : 
ESC. COMPLETA DE SENSORES, C1-C6, (g)  : /2/2/2
ESC. COMPLETA DE SENSORES, C7-C12 (g)  : 
FREC. NAT. DE SENSORES, C1-C6, (Hz)    : /208/210/200   
FREC. NAT. DE SENSORES, C7-C12 (Hz)    : 
AMORTIGUAMIENTO DE SENSORES, C1-C6     : /0.7/0.7/0.7      
AMORTIGUAMIENTO DE SENSORES, C7-C12    : 
INTERVALO DE MUESTREO, C1-C6 (s)       : /0.005/0.005/0.005
INTERVALO DE MUESTREO, C7-C12 (s)      : 
UMBRAL DE DISPARO, C1-C6 (Gal)         : /2/2/2
UMBRAL DE DISPARO, C7-C12 (Gal)        : 
MEMORIA DE PREEVENTO (s)               : 60
TIEMPO DE POSEVENTO (s)                : 80


================================================================================
DATOS DEL SISMO:
FECHA DEL SISMO [GMT]                  : 2022/03/03
HORA EPICENTRO (GMT)                   : 14:40:33
MAGNITUD(ES)                           : /M=5.7
COORDENADAS DEL EPICENTRO              : 18.1500 LAT. N
                                       : -95.5100 LONG. W
PROFUNDIDAD FOCAL (Km)                 : 113.0
FUENTE DE LOS DATOS EPICENTRALES       : SSN
                                       : INSTITUTO DE GEOFISICA, UNAM

================================================================================
DATOS DE ESTE REGISTRO:
HORA DE LA PRIMERA MUESTRA (GMT)       : 14:41:04.000
EXACTITUD DEL TIEMPO (s)               : 
DURACION DEL REGISTRO (s), C1-C6       : /268/268/268
DURACION DEL REGISTRO (s), C7-C12      : 
NUM. TOTAL DE MUESTRAS, C1-C6          : /53600/53600/53600
NUM. TOTAL DE MUESTRAS, C7-C12         : 
ACEL. MAX.(Gal), C1-C6                 : /-1.270/1.716/1.822
ACEL. MAX., C1-C6, EN LA MUESTRA       : /16873/18443/16781
ACEL. MAX.(Gal), C7-C12                : 
ACEL. MAX., C7-C12,EN LA MUESTRA       : 
UNIDADES DE LOS DATOS                  : Gal (cm/s/s)
FACTOR DE DECIMACION                   : 1
FORMATO DATOS (FORTRAN,16 campos/dato) : 3E16.7


================================================================================
CALIDAD DEL ACELEROGRAMA:
REGISTRO DIGITAL COMPLETO CON TIEMPO ABSOLUTO CORRECTO


================================================================================
COMENTARIOS:














================================================================================
DATOS DE ACELERACION:
---------+---------+---------+---------+---------+---------+---------+---------+
   CANAL-1   	      CANAL-2          CANAL-3
      V                 N00E             N90E
---------+---------+---------+---------+---------+---------+---------+---------+ 
[...]
  -4.4875500e-02  -1.2667100e+00  -9.9773600e-02
  -9.6386500e-02  -1.1545200e+00  -7.4266000e-02
  -1.2948400e-01  -9.8133900e-01  -2.8399100e-02
  -1.1946200e-01  -7.6585400e-01   2.0978000e-02
  -7.5642300e-02  -5.4499300e-01   7.3865300e-02
  -3.5693200e-04  -3.6012400e-01   1.1598800e-01
   8.9845600e-02  -2.7037700e-01   1.0615900e-01
   1.5044700e-01  -2.8042700e-01   2.9636500e-02
   1.7515300e-01  -3.6947300e-01  -9.1349100e-02
   1.4811600e-01  -4.8703100e-01  -2.2169500e-01
   7.9590000e-02  -5.7584300e-01  -3.1249300e-01
  -2.0401900e-02  -6.1744500e-01  -3.5789200e-01
  -1.5139400e-01  -5.7981600e-01  -3.7614500e-01
  -2.5954400e-01  -4.7815000e-01  -3.7380500e-01
  -3.2550600e-01  -3.1571800e-01  -3.2981000e-01
  -3.2410700e-01  -1.2617500e-01  -2.1795100e-01
  -2.6094200e-01   2.8310800e-02  -5.7885000e-02
  -1.7307000e-01   1.2927600e-01   9.0480300e-02
  -5.4198800e-02   1.6924100e-01   1.8572400e-01
   7.2597600e-02   1.8793800e-01   2.1801800e-01
   1.9822900e-01   1.7368200e-01   1.7168300e-01
   2.9029600e-01   1.0310000e-01   5.1867900e-02
   3.1453600e-01  -1.9834600e-02  -1.2013300e-01
   2.7980700e-01  -1.7104800e-01  -2.9611200e-01
   1.8401100e-01  -2.8627000e-01  -4.0516300e-01
   6.1642800e-02  -3.3114300e-01  -3.9556800e-01
  -6.9116000e-02  -2.9187900e-01  -2.6288200e-01
  -2.0267200e-01  -2.0026300e-01  -6.8649600e-02
  -3.1641500e-01  -1.0981500e-01   1.1130800e-01
  -3.9426500e-01  -4.4608400e-02   2.0982800e-01
  -4.1734000e-01   2.1346400e-03   2.0912600e-01
  -4.0382100e-01   3.9996500e-02   1.1879600e-01
  -3.6792700e-01   5.3552000e-02  -3.1441300e-02
  -3.1501700e-01   4.4437100e-02  -1.6529800e-01
  -2.7213000e-01   1.4521600e-02  -2.4790500e-01
  -2.5954400e-01  -2.6612300e-02  -2.6615800e-01
  -2.7003200e-01  -5.0918700e-02  -2.0578200e-01
  -2.6397200e-01  -4.6010700e-02  -9.5327300e-02
  -2.4043100e-01  -1.5861400e-02   5.7670300e-03
  -2.1595700e-01  -4.1756700e-03   5.0697900e-02
  -1.9148400e-01  -2.0302000e-02   2.4254200e-02
  -1.5955200e-01  -3.2408100e-03  -3.3781400e-02
  -9.1258700e-02   5.3785700e-02  -5.9289000e-02
  -1.5973400e-02   1.0754000e-01  -4.6418200e-02
   1.5492600e-02   1.1478500e-01  -8.5078600e-03
  -1.0146400e-02   6.9444600e-02   3.3848800e-02
  -7.6574600e-02  -3.0070900e-03   5.8654400e-02
  -1.3344600e-01  -7.5926300e-02   8.7204100e-02
  -1.5908500e-01  -1.2687600e-01   1.1247800e-01
  -1.5698800e-01  -1.5001400e-01   1.0709500e-01
  -1.3810800e-01  -1.4370400e-01   6.4036700e-02
  -1.0827400e-01  -1.1028200e-01   1.5068200e-04
  -5.8860400e-02  -4.6244400e-02  -3.9397800e-02
  -8.0486200e-03   2.5973600e-02  -5.1098500e-02
   7.8009200e-03   7.7391000e-02  -6.3501300e-02
  -2.5995900e-02   1.0403500e-01  -9.8135500e-02
  -9.3123400e-02   1.2623700e-01  -1.2411100e-01
  -1.4113800e-01   1.6363200e-01  -1.0375200e-01
  -1.4113800e-01   1.9728700e-01  -4.5014200e-02
  -1.0594300e-01   2.4122500e-01   3.4550800e-02
  -2.7161300e-02   2.9217500e-01   7.5737400e-02
   4.8823300e-02   3.2255800e-01   6.0058400e-02
   8.7747900e-02   3.1835100e-01   3.8469700e-04
   1.0569500e-01   2.6085700e-01  -9.8603500e-02
   8.4717800e-02   1.6713800e-01  -1.7933900e-01
   5.6048800e-02   5.1214900e-02  -2.1069700e-01
   3.1109100e-02  -4.4842100e-02  -1.7419000e-01
   3.6936100e-02  -7.7796000e-02  -9.9305600e-02
   9.8003500e-02  -4.2271300e-02  -5.2502600e-02
   1.6116900e-01   6.4069200e-02  -5.5544800e-02
   2.2922800e-01   2.2813700e-01  -1.4681100e-01
   2.8749900e-01   4.3053500e-01  -2.9213400e-01
   3.2549100e-01   6.0886000e-01  -4.2786200e-01
   3.6278400e-01   6.8201200e-01  -5.1585200e-01
   3.8935500e-01   6.1026200e-01  -5.1468200e-01
   4.0776900e-01   4.2562700e-01  -4.4517900e-01
   4.1010000e-01   2.0593400e-01  -3.6374200e-01
   4.0124300e-01   3.7893100e-02  -3.2981000e-01
   3.7886700e-01   1.4054100e-02  -3.4736100e-01
   3.5695700e-01   1.2179700e-01  -4.1382100e-01
   3.3994200e-01   2.9614800e-01  -5.1632000e-01
   2.9309300e-01   4.7610900e-01  -6.0033100e-01
   2.5580000e-01   5.6094800e-01  -6.6562100e-01
   2.3132600e-01   5.6819300e-01  -6.7919400e-01
   2.1431100e-01   5.4599000e-01  -6.4760200e-01
   2.3062700e-01   5.2939600e-01  -6.2911500e-01
   2.4647600e-01   5.7263400e-01  -6.2677500e-01
   2.5813000e-01   6.3176400e-01  -6.7053500e-01
   2.3925100e-01   6.8645300e-01  -7.3676200e-01
   1.8983800e-01   7.0585100e-01  -7.9339300e-01
   1.3436400e-01   6.7920800e-01  -8.3668600e-01
   6.9567500e-02   6.3480200e-01  -8.4604600e-01
   3.7402300e-02   5.5720800e-01  -8.4230200e-01
   3.1575200e-02   4.8966500e-01  -8.2498500e-01
   4.9056400e-02   4.2142000e-01  -8.0790200e-01
   8.4717800e-02   3.4990300e-01  -8.0532800e-01
   1.1501800e-01   2.9404500e-01  -8.1609300e-01
   1.3786000e-01   2.2767000e-01  -8.5236500e-01
   1.1781500e-01   1.5755500e-01  -9.0525200e-01
   6.2575100e-02   6.9678400e-02  -9.6328800e-01
  -1.3176400e-02   4.9863800e-04  -9.9558200e-01
  -9.8251200e-02  -1.2823100e-02  -9.8341300e-01
  -1.5465700e-01   1.1950700e-02  -9.2912200e-01
  -1.6980700e-01   8.9310400e-02  -8.4370600e-01
  -1.2995000e-01   1.8256300e-01  -7.5571700e-01
  -5.3266400e-02   2.4075800e-01  -6.9768100e-01
   1.5958800e-02   2.3631700e-01  -7.0493600e-01
   3.7402300e-02   1.5077800e-01  -7.6554500e-01
   2.4116600e-02   4.9111400e-02  -8.4113200e-01
   2.4815900e-02  -8.6162600e-03  -9.0291200e-01
   1.8988800e-02  -1.5861400e-02  -9.3310000e-01
   1.0364800e-02  -6.6993900e-04  -9.5696900e-01
   1.7408000e-03   1.0782100e-02  -9.6703200e-01
   3.8385400e-03   3.0180500e-02  -9.5111900e-01
   5.4417200e-02   3.6490800e-02  -9.3052600e-01
   1.1059000e-01   2.7843300e-02  -8.8816900e-01
   1.6233400e-01  -2.0250800e-04  -8.3106900e-01
   2.1850700e-01  -6.0734800e-02  -7.5127000e-01
   2.8330300e-01  -1.0490700e-01  -6.2466900e-01
   3.6791200e-01  -9.5558300e-02  -4.8847200e-01
   4.4436300e-01  -6.7746200e-02  -3.9018600e-01
   4.9121200e-01  -6.4707900e-02  -3.6350800e-01
   4.9727200e-01  -8.8780600e-02  -4.0797100e-01
   4.6743800e-01  -1.2524000e-01  -4.7723900e-01
   3.9704700e-01  -1.5375300e-01  -5.2614800e-01
   3.0731100e-01  -1.8460400e-01  -5.2942500e-01
   2.4577700e-01  -1.9886000e-01  -4.8168600e-01
   2.3925100e-01  -1.9021300e-01  -4.1054500e-01
   2.8540100e-01  -1.7104800e-01  -3.4759500e-01
   3.5043100e-01  -1.1542400e-01  -3.2559800e-01
   4.2035500e-01  -4.6478100e-02  -3.4619100e-01
   4.9307700e-01   3.7191900e-02  -3.5859400e-01
   5.7418900e-01   1.2483500e-01  -3.4127700e-01
   6.4294800e-01   1.8747100e-01  -3.0851500e-01
   6.5786500e-01   2.1668500e-01  -2.7177400e-01
   6.1730900e-01   1.8373100e-01  -2.2661000e-01
   5.4785100e-01   9.0011600e-02  -1.7208400e-01
   4.7000200e-01  -3.6428400e-02  -1.1498500e-01
   3.9891200e-01  -1.2430500e-01  -5.8119000e-02
   3.5019800e-01  -1.5515600e-01  -2.3250800e-02
   3.1849900e-01  -1.3084900e-01  -1.7400400e-02
   2.9146100e-01  -3.6895800e-02  -5.9055000e-02
   2.6022800e-01   6.8276100e-02  -1.6810600e-01
   2.0895000e-01   1.3979300e-01  -3.1436500e-01
   1.3459700e-01   1.6713800e-01  -4.2645800e-01
   9.7304200e-02   2.0850500e-01  -4.3535100e-01
   1.5650700e-01   2.8329400e-01  -3.4197900e-01
   2.8050600e-01   3.2770000e-01  -2.0484600e-01
   4.2851300e-01   3.1531300e-01  -1.1475100e-01
   5.4878300e-01   2.3678500e-01  -1.1264400e-01
   5.8327900e-01   1.1361700e-01  -1.7746600e-01
   5.1731700e-01  -4.6478100e-02  -2.9938800e-01
   3.4786700e-01  -2.0376900e-01  -4.5547600e-01
   1.0103400e-01  -2.8556900e-01  -5.9635300e-01
  -1.4859700e-01  -2.6780600e-01  -6.7147100e-01
  -3.4182100e-01  -1.2243600e-01  -6.6445100e-01
  -4.4903900e-01   1.2132900e-01  -5.8137600e-01
  -4.6209100e-01   3.6930100e-01  -4.7092100e-01
  -4.2666300e-01   5.5043100e-01  -3.8012300e-01
  -3.8913700e-01   6.1704000e-01  -3.1647100e-01
  -3.6373100e-01   5.7800900e-01  -2.9307000e-01
  -3.3855800e-01   4.8242000e-01  -3.0477000e-01
  -3.1455100e-01   3.4569600e-01  -3.7357100e-01
  -3.0895700e-01   1.9541700e-01  -4.8309000e-01
  -3.1548300e-01   6.5938900e-02  -5.8184400e-01
  -3.3622700e-01  -4.7880400e-02  -6.7545000e-01
  -3.7468600e-01  -1.4720900e-01  -7.3465500e-01
  -4.1757300e-01  -2.0727400e-01  -7.2506100e-01
  -4.3272300e-01  -2.1054600e-01  -6.4994200e-01
  -4.1174600e-01  -1.8764200e-01  -5.4042300e-01
  -3.7375400e-01  -1.4604100e-01  -4.2505400e-01
  -3.1548300e-01  -1.1051600e-01  -3.4502100e-01
  -2.5301700e-01  -1.3552400e-01  -3.4268100e-01
  -2.2644600e-01  -2.1241600e-01  -3.7778300e-01
  -2.4835600e-01  -3.1641900e-01  -4.2084200e-01
  -3.0709200e-01  -3.9120800e-01  -4.4260500e-01
  -3.8494100e-01  -4.0055700e-01  -4.0212100e-01
  -4.4834000e-01  -3.5825400e-01  -3.1389700e-01
  -4.7281300e-01  -2.8954200e-01  -2.0180400e-01
  -4.5906100e-01  -2.3602100e-01  -1.0960200e-01
  -4.3831700e-01  -2.3228200e-01  -3.7057700e-02
  -4.3528700e-01  -2.9912400e-01   2.0744000e-02
  -4.4088100e-01  -4.1060700e-01   4.6953600e-02
  -4.6395600e-01  -5.1087000e-01   7.9013600e-02
  -4.6139200e-01  -5.5691200e-01   1.2324200e-01
  -4.0848300e-01  -5.3938400e-01   1.8455400e-01
  -3.2783600e-01  -4.8235700e-01   2.7418200e-01
  -2.1432600e-01  -4.2649900e-01   3.7480800e-01
  -9.5221100e-02  -4.2439600e-01   4.9626200e-01
   5.9362700e-03  -4.8960200e-01   6.2122600e-01
   6.1176600e-02  -5.9290400e-01   7.2700000e-01
   6.2342000e-02  -7.0204900e-01   7.9603500e-01
   4.0665400e-02  -7.7193000e-01   8.2411600e-01
   1.7357300e-02  -7.5860900e-01   8.3277500e-01
   1.5077200e-03  -6.7049800e-01   8.3511500e-01
  -1.2011000e-02  -5.4522700e-01   8.5945300e-01
  -1.6439600e-02  -4.2018900e-01   9.1187200e-01
  -1.5740300e-02  -3.3161100e-01   9.7739600e-01
  -1.3409500e-02  -2.8253100e-01   1.0504100e+00
  -1.2710300e-02  -2.6663800e-01   1.1398000e+00
  -6.6501300e-03  -2.6219700e-01   1.2549400e+00
   2.8079000e-02  -2.4817400e-01   1.3745200e+00
   4.2530100e-02  -2.3041200e-01   1.4765500e+00
   1.2928700e-02  -2.2059600e-01   1.5453500e+00
  -2.9958300e-02  -2.2316700e-01   1.5687500e+00
  -8.5431700e-02  -2.2153100e-01   1.5703900e+00
  -1.2761900e-01  -2.1662300e-01   1.5769400e+00
  -1.3321300e-01  -2.1124700e-01   1.5877100e+00
  -1.0407800e-01  -1.7128200e-01   1.6214000e+00
  -3.9281500e-02  -8.9949200e-02   1.6583800e+00
   2.2252000e-02   3.0180500e-02   1.6656300e+00
   7.1432200e-02   1.8934100e-01   1.6508900e+00
   1.2131200e-01   3.2957000e-01   1.5942600e+00
   1.3203300e-01   3.9243900e-01   1.4955000e+00
   9.4973400e-02   3.8262300e-01   1.3843500e+00
   3.1808300e-02   3.5247400e-01   1.3010400e+00
  -2.2266600e-02   3.4850100e-01   1.2914400e+00
  -2.1800400e-02   3.8449300e-01   1.3813100e+00
   3.1342200e-02   4.7307100e-01   1.5610300e+00
   1.0266500e-01   5.5089800e-01   1.7423900e+00
   1.3506300e-01   5.4528900e-01   1.8219500e+00
   1.0196600e-01   4.8896400e-01   1.7817000e+00
   4.8357100e-02   4.3871500e-01   1.6689100e+00
  -2.2965800e-02   4.2749600e-01   1.5502600e+00
  -1.1829600e-01   4.3450800e-01   1.4348900e+00
  -2.2225100e-01   4.7073400e-01   1.3015100e+00
  -3.1758100e-01   5.6702400e-01   1.1735000e+00
  -3.5837000e-01   7.0561800e-01   1.0855100e+00
  -3.4508500e-01   8.6010300e-01   1.0908900e+00
  -2.8821300e-01   9.6177000e-01   1.1655400e+00
  -2.1525800e-01   9.6480800e-01   1.2467500e+00
  -1.4277000e-01   8.4795000e-01   1.3134400e+00
  -4.3243900e-02   6.4298200e-01   1.3693700e+00
   7.8191500e-02   4.7213600e-01   1.4391100e+00
   2.0382200e-01   4.1791400e-01   1.4852100e+00
   2.9402500e-01   4.7470700e-01   1.4688300e+00
   3.1593500e-01   5.7310100e-01   1.3813100e+00
   2.5043900e-01   6.3900900e-01   1.2441700e+00
   1.2667300e-01   6.0956100e-01   1.1089100e+00
  -5.7178100e-03   4.6839700e-01   1.0356700e+00
  -1.2715300e-01   2.8259300e-01   1.0452600e+00
  -1.8262700e-01   1.5194600e-01   1.1063400e+00
  -1.5908500e-01   1.3815700e-01   1.2067300e+00
  -7.7740000e-02   2.1808800e-01   1.2972900e+00
   3.1575200e-02   3.0292600e-01   1.3419900e+00
   1.3366500e-01   3.3517900e-01   1.3429300e+00
   2.1640900e-01   3.0082300e-01   1.3071200e+00
   2.5486700e-01   2.1177700e-01   1.2315400e+00
   2.3855200e-01   1.2179700e-01   1.1178000e+00
   1.8797300e-01   5.9628600e-02   1.0244300e+00
   1.3879300e-01   3.9295400e-02   9.8231000e-01
   1.1618400e-01   4.9578800e-02   9.9073500e-01
   1.2131200e-01   6.9678400e-02   1.0396400e+00
   1.4811600e-01   6.6172600e-02   1.0894900e+00
   1.8191300e-01   1.8027300e-02   1.1365300e+00
   2.2340100e-01  -3.0819200e-02   1.1809900e+00
   2.8796500e-01  -8.2937700e-02   1.1992400e+00
   3.6022000e-01  -1.4160000e-01   1.1884800e+00
   4.1079900e-01  -2.2503700e-01   1.1274000e+00
   4.2688200e-01  -3.5217800e-01   1.0129700e+00
   4.2268600e-01  -4.9754900e-01   8.7513200e-01
   4.1709200e-01  -6.2305400e-01   7.3051000e-01
   4.3037800e-01  -6.6512200e-01   6.2918200e-01
   4.9144500e-01  -5.9594300e-01   6.1654500e-01
   6.0775300e-01  -4.3397800e-01   6.9400400e-01
   7.5272900e-01  -2.5074500e-01   8.2318000e-01
   8.8115700e-01  -1.0116800e-01   9.4089000e-01
   9.5131500e-01  -1.5627700e-02   9.8933100e-01
   9.3849500e-01  -1.6796300e-02   9.3269900e-01
   8.5645100e-01  -7.2654200e-02   7.9603500e-01
   7.4177500e-01  -1.3645900e-01   6.2473600e-01
   6.1684300e-01  -1.6590700e-01   4.5086300e-01
   5.1452000e-01  -1.6006400e-01   3.1209200e-01
   4.6277600e-01  -1.3692600e-01   2.3346300e-01
   4.4389600e-01  -9.6960600e-02   2.0561600e-01
   4.4855800e-01  -3.4558700e-02   2.1216800e-01
   4.9144500e-01   4.7942800e-02   2.2457100e-01
   5.5600900e-01   1.2506900e-01   2.1450800e-01
   6.0495600e-01   1.6106100e-01   1.8502200e-01
   6.1987300e-01   1.5054400e-01   1.3751700e-01
   6.1544400e-01   1.2460100e-01   9.0246300e-02
   5.9843000e-01   1.0076200e-01   6.6376800e-02
   5.6859500e-01   8.8375600e-02   5.7016200e-02
   5.2267800e-01   8.4636100e-02   5.7952300e-02
   4.6347500e-01   8.2065300e-02   4.9995800e-02
   4.0427300e-01   9.4452200e-02   2.2616100e-02
   3.2782200e-01   1.4727200e-01  -6.4017300e-03
   2.4181500e-01   2.3351300e-01  -4.0801900e-02
   1.7468700e-01   3.3751600e-01  -7.8010200e-02
   1.4228900e-01   4.5624300e-01  -1.1147400e-01
   1.2527400e-01   5.5557200e-01  -1.3745000e-01
   8.2387000e-02   5.8268300e-01  -1.4985300e-01
  -1.1311800e-02   5.1864500e-01  -1.5617100e-01
  -1.7656700e-01   3.9454300e-01  -1.5710700e-01
  -3.8307700e-01   2.6833600e-01  -1.5944700e-01
  -5.8865500e-01   2.3304500e-01  -1.4470400e-01
  -7.2850400e-01   3.3073800e-01  -1.0936800e-01
  -7.6649600e-01   5.1911300e-01  -8.4562600e-02
  -7.5950300e-01   7.1216200e-01  -7.2627900e-02
  -7.4015800e-01   7.8648300e-01  -1.0492200e-01
  -7.3969200e-01   7.3389700e-01  -1.5383100e-01
  -7.6882700e-01   6.2755700e-01  -1.7793400e-01
  -8.1381100e-01   5.2145000e-01  -1.9431600e-01
  -8.7651000e-01   4.7424000e-01  -1.6951000e-01
  -9.1380300e-01   4.9083300e-01  -1.0515600e-01
  -9.1054000e-01   5.5510500e-01  -5.6996900e-03
  -8.7790900e-01   6.3971000e-01   1.2230600e-01
  -8.4341300e-01   6.7523500e-01   2.1638000e-01
  -8.7138300e-01   6.1657200e-01   2.4212200e-01
  -9.7090800e-01   4.9854600e-01   1.7776800e-01
  -1.1126200e+00   4.0833200e-01   6.9653000e-02
  -1.2294000e+00   4.0061900e-01  -3.0271200e-02
  -1.2704200e+00   4.8919700e-01  -8.6200700e-02
  -1.2422200e+00   6.2779000e-01  -7.5202000e-02
  -1.1613400e+00   7.2431500e-01  -3.5185500e-02
