**************************************************************************************
  	RED ACELEROGRÁFICA DE LA UNIVERSIDAD AUTONOMA METROPOLITANA (RA-UAM)
	   UNIDAD AZCAPOTZALCO. DIVISIÓN CBI-DEPARTAMENTO DE MATERIALES
     Av. San Pablo 420, Col. Nueva el Rosario, Azcapotzalco, C.P. 02128, Ciudad de México
		Área de Estructuras. e-mail: agb@azc.uam.mx
**************************************************************************************
ARCHIVO ESTANDAR DE ACELERACION:
VERSION DEL FORMATO                    : 2.0
NOMBRE DEL ARCHIVO                     : RIDX202204.061
FECHA Y HORA DE CREACION               : 11:30 a. m. 11/04/2022
REF. CATALOGO ACELEROGRAMAS, SMIS 1999 : REGISTRO NO.      /PAG.    


================================================================================
DATOS DE LA ESTACION:
NOMBRE DE LA ESTACION                  : UAM-XOCHIMILCO.
CLAVE DE LA ESTACION                   : RIDX
LOCALIZACION DE LA ESTACION            : CALZADA DEL HUESO 1100, COL. VILLA
                                       : QUIETUD, DEL. COYOACAN, C.P.04960,  
                                       : CIUDAD DE MEXICO.
                                       : 
                                       : 
COORDENADAS DE LA ESTACION             : 19.301345 LAT. N
                                       : 99.10268 LONG. W
ALTITUD (msnm)                         : 2232
TIPO DE SUELO                          : LAGO
                                       : 
                                       : 
INSTITUCION RESPONSABLE                : UNIVERSIDAD AUTONOMA METROPOLITANA
                                       : 

================================================================================
DATOS DEL ACELEROGRAFO: 
MODELO DEL ACELEROGRAFO                : BASALT KINEMETRICS
NUMERO DE SERIE DEL ACELEROGRAFO       : 1729
NUMERO DE CANALES                      : 3
ORIENTACION C1-C6 (rumbo;orientacion)  : /V/N00E/N90E
ORIENTACION C7-C12 (rumbo;orientacion) : 
VEL. DE MUESTREO, C1-C6 (muestras/s)   : /200/200/200
VEL. DE MUESTREO, C7-C12 (muestras/s)  : 
ESC. COMPLETA DE SENSORES, C1-C6, (g)  : /2/2/2
ESC. COMPLETA DE SENSORES, C7-C12 (g)  : 
FREC. NAT. DE SENSORES, C1-C6, (Hz)    : /208/210/200   
FREC. NAT. DE SENSORES, C7-C12 (Hz)    : 
AMORTIGUAMIENTO DE SENSORES, C1-C6     : /0.7/0.7/0.7      
AMORTIGUAMIENTO DE SENSORES, C7-C12    : 
INTERVALO DE MUESTREO, C1-C6 (s)       : /0.005/0.005/0.005
INTERVALO DE MUESTREO, C7-C12 (s)      : 
UMBRAL DE DISPARO, C1-C6 (Gal)         : /2/2/2
UMBRAL DE DISPARO, C7-C12 (Gal)        : 
MEMORIA DE PREEVENTO (s)               : 60
TIEMPO DE POSEVENTO (s)                : 80


================================================================================
DATOS DEL SISMO:
FECHA DEL SISMO [GMT]                  : 2022/04/06
HORA EPICENTRO (GMT)                   : 05:20:35
MAGNITUD(ES)                           : /M=4.6
COORDENADAS DEL EPICENTRO              : 16.5400 LAT. N
                                       : -99.2500 LONG. W
PROFUNDIDAD FOCAL (Km)                 : 10.0
FUENTE DE LOS DATOS EPICENTRALES       : SSN
                                       : INSTITUTO DE GEOFISICA, UNAM

================================================================================
DATOS DE ESTE REGISTRO:
HORA DE LA PRIMERA MUESTRA (GMT)       : 05:21:13.000
EXACTITUD DEL TIEMPO (s)               : 
DURACION DEL REGISTRO (s), C1-C6       : /148/148/148
DURACION DEL REGISTRO (s), C7-C12      : 
NUM. TOTAL DE MUESTRAS, C1-C6          : /29600/29600/29600
NUM. TOTAL DE MUESTRAS, C7-C12         : 
ACEL. MAX.(Gal), C1-C6                 : /-0.243/-0.507/0.320
ACEL. MAX., C1-C6, EN LA MUESTRA       : /12084/13435/11636
ACEL. MAX.(Gal), C7-C12                : 
ACEL. MAX., C7-C12,EN LA MUESTRA       : 
UNIDADES DE LOS DATOS                  : Gal (cm/s/s)
FACTOR DE DECIMACION                   : 1
FORMATO DATOS (FORTRAN,16 campos/dato) : 3E16.7


================================================================================
CALIDAD DEL ACELEROGRAMA:
REGISTRO DIGITAL COMPLETO CON TIEMPO ABSOLUTO CORRECTO


================================================================================
COMENTARIOS:














================================================================================
DATOS DE ACELERACION:
---------+---------+---------+---------+---------+---------+---------+---------+
   CANAL-1   	      CANAL-2          CANAL-3
      V                 N00E             N90E
---------+---------+---------+---------+---------+---------+---------+---------+ 
[...]
  -5.1111200e-02   1.8232300e-01  -1.0034800e-01
  -5.2043500e-02   1.9190600e-01  -9.7305500e-02
  -5.4607400e-02   2.0429300e-01  -9.9411700e-02
  -5.2043500e-02   2.1481000e-01  -1.0058200e-01
  -4.9479600e-02   2.2275600e-01  -1.0105000e-01
  -4.6915700e-02   2.2906600e-01  -9.9645700e-02
  -4.3419500e-02   2.3935000e-01  -9.5667400e-02
  -4.4351800e-02   2.5056800e-01  -9.6603500e-02
  -3.9690200e-02   2.5874800e-01  -9.5667400e-02
  -3.4562400e-02   2.6716200e-01  -9.9411700e-02
  -3.2930800e-02   2.7440700e-01  -9.8943600e-02
  -3.0133800e-02   2.7651100e-01  -9.6603500e-02
  -2.8036100e-02   2.8188600e-01  -1.0034800e-01
  -2.1043700e-02   2.9614300e-01  -9.8007600e-02
  -1.5449700e-02   3.0946400e-01  -9.7773600e-02
  -1.8945900e-02   3.1671000e-01  -1.0245400e-01
  -1.9412100e-02   3.2418800e-01  -1.0245400e-01
  -1.3118900e-02   3.3283600e-01  -1.0128400e-01
  -1.1254200e-02   3.4125000e-01  -9.8241600e-02
  -1.2652700e-02   3.5083200e-01  -9.4029300e-02
  -7.0587600e-03   3.5924600e-01  -9.6135500e-02
  -7.5249300e-03   3.7256800e-01  -9.2859300e-02
  -1.2419600e-02   3.7934500e-01  -9.5433400e-02
  -1.0555000e-02   3.8518800e-01  -9.5667400e-02
  -9.6226600e-03   3.9710800e-01  -9.0519100e-02
  -9.6226600e-03   4.0061300e-01  -8.9349000e-02
  -1.0788100e-02   4.0856000e-01  -7.8350300e-02
  -1.1953500e-02   4.1253300e-01  -7.9286400e-02
  -1.2652700e-02   4.1720700e-01  -7.6946300e-02
  -1.3352000e-02   4.2772400e-01  -7.6712200e-02
  -9.3895800e-03   4.3263200e-01  -8.0690500e-02
  -5.6602700e-03   4.3426800e-01  -7.2968000e-02
  -4.9610300e-03   4.3310000e-01  -7.2500000e-02
  -3.7956200e-03   4.3567100e-01  -6.5947600e-02
  -1.2317300e-03   4.3800800e-01  -6.4075400e-02
   1.5652500e-03   4.4198100e-01  -6.2671400e-02
   7.3922900e-03   4.4338300e-01  -6.2905400e-02
   1.4151700e-02   4.4852500e-01  -6.0565200e-02
   1.7181700e-02   4.5203100e-01  -5.4480800e-02
   2.1843300e-02   4.4665500e-01  -5.9395200e-02
   2.7204200e-02   4.5483500e-01  -5.1438700e-02
   2.8369600e-02   4.5436800e-01  -5.3778800e-02
   2.9068900e-02   4.5156300e-01  -5.8693100e-02
   3.5129000e-02   4.5904200e-01  -5.2140700e-02
   4.2587600e-02   4.6044400e-01  -5.4714900e-02
   4.8414600e-02   4.6161300e-01  -5.6587000e-02
   5.6339400e-02   4.6395000e-01  -5.7757100e-02
   5.8903300e-02   4.6979300e-01  -5.3310800e-02
   5.5174000e-02   4.6161300e-01  -5.9629200e-02
   5.8204100e-02   4.5810700e-01  -6.1735300e-02
   6.4497300e-02   4.6184700e-01  -5.8927100e-02
   6.9158900e-02   4.5530300e-01  -6.8755700e-02
   7.2189000e-02   4.5740600e-01  -6.3841400e-02
   7.0091200e-02   4.4735600e-01  -6.7819700e-02
   6.5662700e-02   4.4338300e-01  -6.7585700e-02
   6.3564900e-02   4.4011100e-01  -6.3139400e-02
   6.6828100e-02   4.2936000e-01  -7.0393800e-02
   7.4519800e-02   4.2982800e-01  -6.5479500e-02
   7.5452100e-02   4.2024500e-01  -6.4075400e-02
   7.3587400e-02   4.1253300e-01  -5.9161100e-02
   8.1745300e-02   4.0435300e-01  -5.4480800e-02
   8.5241500e-02   4.0365200e-01  -4.6992400e-02
   8.2211500e-02   3.9640600e-01  -4.4886200e-02
   8.5008400e-02   3.8378600e-01  -4.8630500e-02
   9.1301600e-02   3.8144900e-01  -4.3716200e-02
   9.7827900e-02   3.6345300e-01  -4.5822300e-02
   9.9925700e-02   3.6088200e-01  -3.8333800e-02
   1.0085800e-01   3.5644100e-01  -3.3653500e-02
   1.0202300e-01   3.4475500e-01  -3.5993700e-02
   1.0435400e-01   3.3891300e-01  -3.6227700e-02
   1.0552000e-01   3.2792800e-01  -3.4589600e-02
   1.0505300e-01   3.2278600e-01  -3.6695700e-02
   1.0948200e-01   3.1297000e-01  -4.1376000e-02
   1.1158000e-01   3.0993200e-01  -3.5057600e-02
   1.1064700e-01   3.0221900e-01  -3.8333800e-02
   1.0831700e-01   2.9053300e-01  -3.9503900e-02
   1.0272300e-01   2.8328800e-01  -3.9035900e-02
   9.7594800e-02   2.7136900e-01  -4.1844100e-02
   9.8993300e-02   2.6202000e-01  -3.9503900e-02
   1.0482000e-01   2.5150300e-01  -3.6695700e-02
   1.0458700e-01   2.4449200e-01  -3.1781400e-02
   9.8294100e-02   2.3561000e-01  -3.1079400e-02
   8.8737700e-02   2.2906600e-01  -2.9675300e-02
   8.0346800e-02   2.2836500e-01  -3.0377300e-02
   7.4985900e-02   2.2018500e-01  -3.7163800e-02
   7.0324300e-02   2.1083700e-01  -4.3950200e-02
   6.7294200e-02   2.0218900e-01  -4.7694400e-02
   6.5196500e-02   1.9073700e-01  -4.9332500e-02
   5.8903300e-02   1.8816600e-01  -4.5354300e-02
   4.6083800e-02   1.8512800e-01  -4.3716200e-02
   3.6993600e-02   1.7788300e-01  -4.7460400e-02
   3.2798200e-02   1.7554600e-01  -4.5354300e-02
   2.9302000e-02   1.6876800e-01  -5.0268600e-02
   2.7204200e-02   1.6783300e-01  -5.0268600e-02
   2.2542600e-02   1.6830000e-01  -4.6056300e-02
   1.6948600e-02   1.6386000e-01  -4.9332500e-02
   1.5550100e-02   1.6572900e-01  -4.9566500e-02
   1.4850900e-02   1.6830000e-01  -4.8396500e-02
   8.7907800e-03   1.7017000e-01  -4.6524300e-02
   2.9637400e-03   1.7204000e-01  -4.7460400e-02
   2.4975800e-03   1.7204000e-01  -4.9332500e-02
  -3.3294600e-03   1.7484400e-01  -4.7226400e-02
  -1.5449700e-02   1.7858400e-01  -4.6524300e-02
  -2.5472200e-02   1.8115500e-01  -4.5588300e-02
  -3.1765400e-02   1.9120400e-01  -4.0674000e-02
  -3.3630100e-02   1.9471000e-01  -4.0908000e-02
  -3.6194000e-02   1.9845000e-01  -3.8567800e-02
  -4.2953300e-02   2.0569500e-01  -3.4121600e-02
  -4.9712700e-02   2.0172200e-01  -3.2717500e-02
  -5.6239000e-02   2.0452600e-01  -2.6399100e-02
  -6.2532200e-02   2.0312400e-01  -2.5697000e-02
  -7.0223900e-02   1.9845000e-01  -2.0548700e-02
  -7.8614800e-02   1.9751500e-01  -1.7038500e-02
  -7.9314000e-02   1.9447600e-01  -2.0548700e-02
  -8.0479400e-02   2.0265700e-01  -1.0954100e-02
  -8.7938100e-02   1.9868300e-01  -5.3377600e-03
  -9.3765100e-02   1.9634600e-01  -1.8944100e-04
  -1.0122400e-01   1.9798200e-01   1.0809200e-02
  -1.0891500e-01   1.8910100e-01   1.6191600e-02
  -1.1264500e-01   1.8863400e-01   2.7424300e-02
  -1.1497600e-01   1.7531200e-01   3.2572600e-02
  -1.1427600e-01   1.6666400e-01   4.5677400e-02
  -1.0891500e-01   1.5638100e-01   5.7378200e-02
  -1.0868200e-01   1.4118900e-01   6.3696600e-02
  -1.1590800e-01   1.3160700e-01   7.8907500e-02
  -1.1614100e-01   1.1431200e-01   8.5459900e-02
  -1.1124600e-01   1.1197500e-01   1.0301100e-01
  -1.0821600e-01   9.7952100e-02   1.1424400e-01
  -1.0565200e-01   8.0657100e-02   1.1986000e-01
  -1.0099100e-01   6.8503900e-02   1.3600700e-01
  -9.4464300e-02   5.2611300e-02   1.4958000e-01
  -8.9336500e-02   4.0925500e-02   1.6057900e-01
  -8.0945600e-02   2.0124900e-02   1.7064100e-01
  -6.8359200e-02   6.8031000e-03   1.8561800e-01
  -5.6472000e-02  -1.0258100e-02   1.9380900e-01
  -5.0178800e-02  -2.4514700e-02   2.0480700e-01
  -4.3885600e-02  -4.0173700e-02   2.1112600e-01
  -3.4562400e-02  -5.9805700e-02   2.1931600e-01
  -2.6870700e-02  -7.2893800e-02   2.2867700e-01
  -1.9179000e-02  -9.0188700e-02   2.3218700e-01
  -1.7314400e-02  -1.0023800e-01   2.4318600e-01
  -1.2652700e-02  -1.1426100e-01   2.4318600e-01
   1.6676400e-04  -1.2220800e-01   2.5278000e-01
   4.8283900e-03  -1.3015400e-01   2.6073700e-01
   8.0915400e-03  -1.4487800e-01   2.5933300e-01
   1.3452400e-02  -1.4838400e-01   2.6728900e-01
   1.7414800e-02  -1.5983600e-01   2.6635300e-01
   3.0933500e-02  -1.6941800e-01   2.6682100e-01
   4.2121400e-02  -1.7035300e-01   2.6892700e-01
   4.1422200e-02  -1.7829900e-01   2.6307700e-01
   4.0256800e-02  -1.8063700e-01   2.6073700e-01
   4.3286800e-02  -1.8180500e-01   2.6167300e-01
   4.9347000e-02  -1.8788200e-01   2.5746100e-01
   5.6339400e-02  -1.8671300e-01   2.5863100e-01
   6.1933400e-02  -1.8507700e-01   2.6260900e-01
   6.5662700e-02  -1.8671300e-01   2.5909900e-01
   7.1489700e-02  -1.8320700e-01   2.5769500e-01
   7.4286700e-02  -1.7689700e-01   2.5746100e-01
   7.2189000e-02  -1.7596200e-01   2.4856800e-01
   7.4053600e-02  -1.6965200e-01   2.4763200e-01
   7.7083700e-02  -1.6474400e-01   2.4388800e-01
   8.0346800e-02  -1.6404300e-01   2.3569700e-01
   8.1046100e-02  -1.5422700e-01   2.3593100e-01
   7.8016000e-02  -1.5189000e-01   2.2423100e-01
   7.7083700e-02  -1.4721500e-01   2.1744400e-01
   7.9880600e-02  -1.4043800e-01   2.1112600e-01
   8.1046100e-02  -1.3646400e-01   2.0597700e-01
   8.1512200e-02  -1.3482800e-01   2.0340300e-01
   8.5241500e-02  -1.3739900e-01   1.9544700e-01
   8.1978400e-02  -1.2851800e-01   1.9521300e-01
   7.9414500e-02  -1.2571300e-01   1.8304400e-01
   8.2444500e-02  -1.2477900e-01   1.7719400e-01
   7.7549800e-02  -1.1823500e-01   1.7766200e-01
   7.1256600e-02  -1.2431100e-01   1.6830100e-01
   6.9858100e-02  -1.2477900e-01   1.6806700e-01
   6.9158900e-02  -1.2384400e-01   1.6806700e-01
   7.0324300e-02  -1.3412700e-01   1.6221700e-01
   6.9392000e-02  -1.3319200e-01   1.6128100e-01
   6.2865700e-02  -1.3459500e-01   1.6057900e-01
   5.4241700e-02  -1.4020400e-01   1.5706800e-01
   5.3309400e-02  -1.4230700e-01   1.5332400e-01
   6.0301800e-02  -1.5095500e-01   1.5262200e-01
   6.4963400e-02  -1.6053700e-01   1.5145200e-01
   6.8226600e-02  -1.6825000e-01   1.4560200e-01
   6.9392000e-02  -1.7362500e-01   1.4607000e-01
   6.8226600e-02  -1.8484300e-01   1.4443200e-01
   7.1023500e-02  -1.9442600e-01   1.4092100e-01
   7.6384400e-02  -2.0541000e-01   1.4021900e-01
   7.4053600e-02  -2.1662900e-01   1.3834700e-01
   7.2888200e-02  -2.3252100e-01   1.3741100e-01
   7.8249100e-02  -2.5028400e-01   1.3553900e-01
   7.2888200e-02  -2.5752900e-01   1.3179500e-01
   6.3798000e-02  -2.7295400e-01   1.2922100e-01
   5.9835600e-02  -2.8487400e-01   1.3507100e-01
   5.9369500e-02  -3.0006500e-01   1.3787900e-01
   6.4963400e-02  -3.1806100e-01   1.4138900e-01
   6.5662700e-02  -3.3068200e-01   1.4817600e-01
   5.7737900e-02  -3.4610700e-01   1.4466600e-01
   5.0046200e-02  -3.6083100e-01   1.4770800e-01
   4.8880800e-02  -3.7742500e-01   1.5309000e-01
   5.1211600e-02  -3.8373500e-01   1.5543000e-01
   4.3753000e-02  -3.9355100e-01   1.6385500e-01
   3.5129000e-02  -4.1131400e-01   1.6876900e-01
   3.5595200e-02  -4.1972700e-01   1.7508800e-01
   3.0001200e-02  -4.2884200e-01   1.8047000e-01
   1.6948600e-02  -4.4543600e-01   1.7813000e-01
   1.1354700e-02  -4.4987700e-01   1.8374600e-01
   1.0422400e-02  -4.5385000e-01   1.8725600e-01
   5.2945600e-03  -4.6857400e-01   1.9100100e-01
   1.0990900e-03  -4.7184600e-01   2.0340300e-01
  -2.3971300e-03  -4.7768900e-01   2.0785000e-01
  -1.0321900e-02  -4.8399900e-01   2.0714800e-01
  -1.4750500e-02  -4.8399900e-01   2.0972200e-01
  -1.7314400e-02  -4.8586900e-01   2.1838000e-01
  -2.5938400e-02  -4.8914100e-01   2.2235900e-01
  -3.4795500e-02  -4.9404900e-01   2.2586900e-01
  -3.9923300e-02  -4.9381500e-01   2.3569700e-01
  -4.1787900e-02  -4.9802200e-01   2.3569700e-01
  -4.5517200e-02  -4.9848900e-01   2.3874000e-01
  -5.4840500e-02  -4.9802200e-01   2.4576000e-01
  -6.1832900e-02  -5.0713700e-01   2.4529200e-01
  -6.4863000e-02  -5.0176100e-01   2.5301400e-01
  -6.6028400e-02  -4.9942400e-01   2.5441900e-01
  -6.5562200e-02  -4.9708700e-01   2.4973800e-01
  -6.9990800e-02  -4.9077700e-01   2.5184400e-01
  -7.4652400e-02  -4.9194500e-01   2.4786600e-01
  -7.9081000e-02  -4.8166200e-01   2.5044000e-01
  -8.4441800e-02  -4.7815600e-01   2.4482400e-01
  -8.7238800e-02  -4.6974200e-01   2.3780300e-01
  -9.3765100e-02  -4.5945900e-01   2.3756900e-01
  -1.0215600e-01  -4.5969300e-01   2.2633700e-01
  -1.0565200e-01  -4.4590300e-01   2.2750700e-01
  -1.0821600e-01  -4.3725600e-01   2.2446500e-01
  -1.1194500e-01  -4.2767400e-01   2.1674200e-01
  -1.1474200e-01  -4.1902600e-01   2.1533800e-01
  -1.1637400e-01  -4.1598800e-01   2.0668000e-01
  -1.2196800e-01  -4.0430200e-01   2.0785000e-01
  -1.2779500e-01  -3.9822500e-01   2.0340300e-01
  -1.2429900e-01  -3.8607200e-01   1.9334100e-01
  -1.1870500e-01  -3.7181600e-01   1.9146900e-01
  -1.2056900e-01  -3.6270100e-01   1.8281000e-01
  -1.2336600e-01  -3.5265100e-01   1.7368300e-01
  -1.1987000e-01  -3.4423700e-01   1.6970500e-01
  -1.1474200e-01  -3.3114900e-01   1.6198300e-01
  -1.1054700e-01  -3.2133300e-01   1.5332400e-01
  -1.0751700e-01  -3.0567400e-01   1.4841000e-01
  -1.1008100e-01  -2.9305400e-01   1.3600700e-01
  -1.1171200e-01  -2.8674300e-01   1.2641200e-01
  -1.0355500e-01  -2.7482400e-01   1.1588200e-01
  -9.3765100e-02  -2.6500800e-01   1.0230900e-01
  -8.7005700e-02  -2.5565900e-01   9.4820500e-02
  -7.7682500e-02  -2.4958300e-01   8.2417700e-02
  -7.1622300e-02  -2.3579300e-01   7.9375500e-02
  -7.0223900e-02  -2.2924900e-01   6.7674800e-02
  -7.1156200e-02  -2.2060200e-01   5.7612200e-02
  -6.9990800e-02  -2.0985100e-01   5.1995800e-02
  -6.2299100e-02  -2.1312300e-01   3.3274700e-02
  -5.8569800e-02  -2.0424200e-01   3.2572600e-02
  -5.2742700e-02  -2.0494300e-01   2.5318200e-02
  -4.5284100e-02  -2.0097000e-01   1.9701800e-02
  -4.3419500e-02  -1.9302300e-01   1.5489500e-02
  -4.0855600e-02  -1.9279000e-01   5.8949400e-03
  -4.3419500e-02  -1.8531100e-01   7.0650100e-03
  -4.6216500e-02  -1.9279000e-01  -4.1676900e-03
  -4.1088700e-02  -1.9185500e-01  -9.0820000e-03
  -3.3863100e-02  -1.8764800e-01  -1.7974600e-02
  -2.8036100e-02  -1.8764800e-01  -3.0377300e-02
  -2.4773000e-02  -1.8274000e-01  -2.9441300e-02
  -2.4073700e-02  -1.8624600e-01  -3.4355600e-02
  -2.3840600e-02  -1.8998500e-01  -4.2546100e-02
  -1.8479800e-02  -1.9162100e-01  -4.7460400e-02
  -1.3118900e-02  -1.9395800e-01  -5.3310800e-02
  -1.0788100e-02  -1.9793100e-01  -6.4777500e-02
  -9.8557400e-03  -1.9863300e-01  -6.8053700e-02
  -1.4517400e-02  -2.0681300e-01  -7.4840100e-02
  -1.4284300e-02  -2.0774800e-01  -8.2328600e-02
  -1.0088800e-02  -2.0143700e-01  -8.6072800e-02
  -5.8933600e-03  -2.0657900e-01  -9.5199400e-02
  -3.3294600e-03  -2.0915000e-01  -9.6603500e-02
  -4.2617900e-03  -2.2060200e-01  -1.0409200e-01
   2.0314200e-03  -2.2317300e-01  -1.0643200e-01
   7.8584500e-03  -2.2293900e-01  -1.0900600e-01
   9.2569400e-03  -2.3111900e-01  -1.2047300e-01
   1.4850900e-02  -2.2621100e-01  -1.2328100e-01
   2.0444900e-02  -2.3018400e-01  -1.2960000e-01
   2.3708000e-02  -2.3345600e-01  -1.3615200e-01
   3.0234300e-02  -2.2854800e-01  -1.3802400e-01
   3.0001200e-02  -2.2340600e-01  -1.3872600e-01
   2.6038800e-02  -2.2177000e-01  -1.4574700e-01
   3.2332000e-02  -2.2060200e-01  -1.5206500e-01
   3.5362100e-02  -2.0681300e-01  -1.5066100e-01
   3.0001200e-02  -2.0377400e-01  -1.5674500e-01
   2.7437300e-02  -1.9606200e-01  -1.5744700e-01
   2.9768100e-02  -1.8180500e-01  -1.5697900e-01
   3.1399700e-02  -1.8250600e-01  -1.6189400e-01
   3.3497400e-02  -1.7269000e-01  -1.6048900e-01
   3.4895900e-02  -1.6521100e-01  -1.6189400e-01
   3.0933500e-02  -1.5469400e-01  -1.6119200e-01
   2.8369600e-02  -1.4137200e-01  -1.6236200e-01
   2.6038800e-02  -1.3529600e-01  -1.6610600e-01
   2.2076400e-02  -1.1940300e-01  -1.6306400e-01
   2.1144100e-02  -1.1613100e-01  -1.6727600e-01
   2.1610300e-02  -1.0561400e-01  -1.6868000e-01
   1.8114000e-02  -9.3460700e-02  -1.6961600e-01
   1.3918600e-02  -9.1123600e-02  -1.7078600e-01
   1.1587800e-02  -7.9671500e-02  -1.6517000e-01
   6.6930500e-03  -7.5464700e-02  -1.6844600e-01
   5.5276400e-03  -6.5882300e-02  -1.6844600e-01
   4.1291500e-03  -6.6116100e-02  -1.6844600e-01
  -6.6318000e-05  -5.7468600e-02  -1.6961600e-01
   1.0990900e-03  -4.9522300e-02  -1.6914800e-01
   1.0990900e-03  -5.6300000e-02  -1.7312600e-01
  -2.6302100e-03  -4.0407400e-02  -1.7125400e-01
  -3.5625400e-03  -3.6667900e-02  -1.7476400e-01
  -7.0587600e-03  -3.0825100e-02  -1.7546600e-01
