**************************************************************************************
  	RED ACELEROGRÁFICA DE LA UNIVERSIDAD AUTONOMA METROPOLITANA (RA-UAM)
	   UNIDAD AZCAPOTZALCO. DIVISIÓN CBI-DEPARTAMENTO DE MATERIALES
     Av. San Pablo 420, Col. Nueva el Rosario, Azcapotzalco, C.P. 02128, Ciudad de México
		Área de Estructuras. e-mail: agb@azc.uam.mx
**************************************************************************************
ARCHIVO ESTANDAR DE ACELERACION:
VERSION DEL FORMATO                    : 2.0
NOMBRE DEL ARCHIVO                     : RIDX202204.191
FECHA Y HORA DE CREACION               : 11:30 a. m. 25/04/2022
REF. CATALOGO ACELEROGRAMAS, SMIS 1999 : REGISTRO NO.      /PAG.    


================================================================================
DATOS DE LA ESTACION:
NOMBRE DE LA ESTACION                  : UAM-XOCHIMILCO.
CLAVE DE LA ESTACION                   : RIDX
LOCALIZACION DE LA ESTACION            : CALZADA DEL HUESO 1100, COL. VILLA
                                       : QUIETUD, DEL. COYOACAN, C.P.04960,  
                                       : CIUDAD DE MEXICO.
                                       : 
                                       : 
COORDENADAS DE LA ESTACION             : 19.301345 LAT. N
                                       : 99.10268 LONG. W
ALTITUD (msnm)                         : 2232
TIPO DE SUELO                          : LAGO
                                       : 
                                       : 
INSTITUCION RESPONSABLE                : UNIVERSIDAD AUTONOMA METROPOLITANA
                                       : 

================================================================================
DATOS DEL ACELEROGRAFO: 
MODELO DEL ACELEROGRAFO                : BASALT KINEMETRICS
NUMERO DE SERIE DEL ACELEROGRAFO       : 1729
NUMERO DE CANALES                      : 3
ORIENTACION C1-C6 (rumbo;orientacion)  : /V/N00E/N90E
ORIENTACION C7-C12 (rumbo;orientacion) : 
VEL. DE MUESTREO, C1-C6 (muestras/s)   : /200/200/200
VEL. DE MUESTREO, C7-C12 (muestras/s)  : 
ESC. COMPLETA DE SENSORES, C1-C6, (g)  : /2/2/2
ESC. COMPLETA DE SENSORES, C7-C12 (g)  : 
FREC. NAT. DE SENSORES, C1-C6, (Hz)    : /208/210/200   
FREC. NAT. DE SENSORES, C7-C12 (Hz)    : 
AMORTIGUAMIENTO DE SENSORES, C1-C6     : /0.7/0.7/0.7      
AMORTIGUAMIENTO DE SENSORES, C7-C12    : 
INTERVALO DE MUESTREO, C1-C6 (s)       : /0.005/0.005/0.005
INTERVALO DE MUESTREO, C7-C12 (s)      : 
UMBRAL DE DISPARO, C1-C6 (Gal)         : /2/2/2
UMBRAL DE DISPARO, C7-C12 (Gal)        : 
MEMORIA DE PREEVENTO (s)               : 60
TIEMPO DE POSEVENTO (s)                : 80


================================================================================
DATOS DEL SISMO:
FECHA DEL SISMO [GMT]                  : 2022/04/19
HORA EPICENTRO (GMT)                   : 12:44:10
MAGNITUD(ES)                           : /M=5.0
COORDENADAS DEL EPICENTRO              : 17.7700 LAT. N
                                       : -101.9000 LONG. W
PROFUNDIDAD FOCAL (Km)                 : 15.0
FUENTE DE LOS DATOS EPICENTRALES       : SSN
                                       : INSTITUTO DE GEOFISICA, UNAM

================================================================================
DATOS DE ESTE REGISTRO:
HORA DE LA PRIMERA MUESTRA (GMT)       : 12:44:45.000
EXACTITUD DEL TIEMPO (s)               : 
DURACION DEL REGISTRO (s), C1-C6       : /211/211/211
DURACION DEL REGISTRO (s), C7-C12      : 
NUM. TOTAL DE MUESTRAS, C1-C6          : /42200/42200/42200
NUM. TOTAL DE MUESTRAS, C7-C12         : 
ACEL. MAX.(Gal), C1-C6                 : /0.533/1.892/-1.472
ACEL. MAX., C1-C6, EN LA MUESTRA       : /17160/15592/17564
ACEL. MAX.(Gal), C7-C12                : 
ACEL. MAX., C7-C12,EN LA MUESTRA       : 
UNIDADES DE LOS DATOS                  : Gal (cm/s/s)
FACTOR DE DECIMACION                   : 1
FORMATO DATOS (FORTRAN,16 campos/dato) : 3E16.7


================================================================================
CALIDAD DEL ACELEROGRAMA:
REGISTRO DIGITAL COMPLETO CON TIEMPO ABSOLUTO CORRECTO


================================================================================
COMENTARIOS:














================================================================================
DATOS DE ACELERACION:
---------+---------+---------+---------+---------+---------+---------+---------+
   CANAL-1   	      CANAL-2          CANAL-3
      V                 N00E             N90E
---------+---------+---------+---------+---------+---------+---------+---------+
[...]
   3.4986700e-01   9.8345500e-02  -8.2551200e-02
   3.5639400e-01   1.3644100e-01  -6.8510300e-02
   3.6338600e-01   1.5163300e-01  -5.2597300e-02
   3.6548400e-01   1.5911100e-01  -5.4937500e-02
   3.6175400e-01   1.6238300e-01  -5.3533400e-02
   3.5476200e-01   1.6939500e-01  -6.0319800e-02
   3.3844600e-01   1.7149800e-01  -7.0850500e-02
   3.2842400e-01   1.5934500e-01  -7.5764800e-02
   3.1863400e-01   1.6495400e-01  -7.6700900e-02
   2.9113100e-01   1.4649100e-01  -6.5468200e-02
   2.7085300e-01   1.3387000e-01  -5.7979700e-02
   2.6152900e-01   1.3597400e-01  -4.6747000e-02
   2.5477000e-01   1.2756000e-01  -3.5748300e-02
   2.4544700e-01   1.5046400e-01  -3.4578200e-02
   2.3519100e-01   1.7593900e-01  -2.3813500e-02
   2.2097300e-01   2.1263200e-01  -1.0708700e-02
   1.9580000e-01   2.3039500e-01  -8.8010000e-04
   1.7505600e-01   2.2361700e-01   2.5329500e-02
   1.5920700e-01   2.2081200e-01   6.1835800e-02
   1.4801900e-01   1.7827600e-01   9.7172000e-02
   1.2471100e-01   1.4812700e-01   1.2478600e-01
   8.9748300e-02   1.3153300e-01   1.3695500e-01
   6.9470200e-02   1.1891200e-01   1.4678300e-01
   5.3620700e-02   1.3129900e-01   1.5005900e-01
   4.0102000e-02   1.3083200e-01   1.5216500e-01
   2.7282500e-02   1.3527200e-01   1.6129200e-01
   9.1021200e-03   1.2685900e-01   1.7743900e-01
  -9.0782400e-03   9.2502600e-02   2.1090300e-01
  -2.9356300e-02   5.5575600e-02   2.3219900e-01
  -4.3574300e-02   1.5376500e-02   2.5536600e-01
  -6.1754700e-02  -1.1033300e-02   2.8415000e-01
  -8.3897400e-02  -3.4404800e-02   2.9187200e-01
  -8.9258300e-02  -3.2768800e-02   3.0638100e-01
  -9.0656800e-02   2.0547700e-03   3.1948600e-01
  -8.7626700e-02   1.8648600e-02   3.2393200e-01
  -8.0401200e-02   2.6361200e-02   3.3703700e-01
  -8.7859800e-02   1.5844000e-02   3.5529000e-01
  -1.0743900e-01  -3.1366500e-02   3.7401100e-01
  -1.3261100e-01  -7.4603800e-02   3.9086000e-01
  -1.6873900e-01  -1.2111300e-01   3.9554100e-01
  -2.1116000e-01  -1.6435100e-01   3.8547800e-01
  -2.4752100e-01  -1.6622000e-01   3.7588400e-01
  -2.7199400e-01  -1.4612100e-01   3.5856600e-01
  -2.7339300e-01  -1.0545400e-01   3.4078100e-01
  -2.5987400e-01  -5.3803200e-02   3.3773900e-01
  -2.4705400e-01  -1.8979600e-02   3.3516500e-01
  -2.3167100e-01  -9.8352600e-04   3.3656900e-01
  -2.2048300e-01  -1.7811000e-02   3.3750500e-01
  -2.1885200e-01  -5.1232300e-02   3.3820700e-01
  -2.2467900e-01  -8.9094200e-02   3.3563300e-01
  -2.3796400e-01  -1.3887600e-01   3.1761400e-01
  -2.5707700e-01  -1.7907500e-01   3.0006300e-01
  -2.8504700e-01  -1.9940800e-01   2.7104500e-01
  -3.1837700e-01  -2.0338100e-01   2.3524100e-01
  -3.4308400e-01  -1.8982500e-01   2.0809500e-01
  -3.5240700e-01  -1.4939300e-01   1.7977900e-01
  -3.6126400e-01  -1.0381800e-01   1.5684600e-01
  -3.6732500e-01  -5.6374000e-02   1.4233700e-01
  -3.5963300e-01  -3.5543900e-03   1.3204000e-01
  -3.4751300e-01   2.6594900e-02   1.1870100e-01
  -3.3772300e-01   4.2487500e-02   1.0115000e-01
  -3.2956500e-01   4.2954900e-02   8.3833200e-02
  -3.1674600e-01   2.7997200e-02   6.2303900e-02
  -3.0066300e-01   1.0234800e-02   3.0945900e-02
  -2.9483600e-01  -2.3858200e-03   1.0352600e-02
  -2.9856600e-01  -1.1734400e-02   1.4600500e-03
  -3.0439300e-01  -2.4355100e-02  -9.5386400e-03
  -3.0928700e-01  -3.2067700e-02  -2.9862300e-03
  -3.1884400e-01  -3.9079100e-02   3.0981500e-03
  -3.3795600e-01  -4.1650000e-02   4.7362500e-03
  -3.5147500e-01  -4.8661400e-02   1.6940600e-03
  -3.5077600e-01  -4.6324300e-02  -1.2346800e-02
  -3.4448300e-01  -3.7443100e-02  -2.5685700e-02
  -3.4261800e-01  -3.9780300e-02  -5.7979700e-02
  -3.3958800e-01  -3.0197900e-02  -9.4720000e-02
  -3.2257300e-01  -1.8979600e-02  -1.2748200e-01
  -3.1115200e-01  -7.2938400e-03  -1.6258400e-01
  -3.0812200e-01  -4.0218200e-03  -1.8505000e-01
  -2.9460300e-01  -7.5275500e-03  -1.8832600e-01
  -2.7712200e-01  -1.6408700e-02  -1.7943300e-01
  -2.5940800e-01  -4.2818600e-02  -1.6141400e-01
  -2.3843000e-01  -6.0113500e-02  -1.3309800e-01
  -2.1046100e-01  -8.0914200e-02  -1.0759100e-01
  -1.8645300e-01  -9.8676500e-02  -8.0679100e-02
  -1.7782900e-01  -1.0849300e-01  -6.2191900e-02
  -1.6897200e-01  -1.2952700e-01  -4.7215000e-02
  -1.4776200e-01  -1.4214800e-01  -2.6621700e-02
  -1.3004800e-01  -1.6037700e-01  -1.3750900e-02
  -1.2119000e-01  -1.9052700e-01  -1.5821400e-03
  -1.1373200e-01  -2.1132700e-01   1.5969000e-02
  -1.0417600e-01  -2.4241100e-01   3.5626200e-02
  -9.0190600e-02  -2.7092500e-01   5.1539200e-02
  -8.1333500e-02  -2.8892100e-01   6.8154200e-02
  -6.7814800e-02  -3.1135700e-01   8.4301200e-02
  -5.1499100e-02  -3.1813500e-01   1.0185200e-01
  -4.2642000e-02  -3.3730000e-01   1.1355300e-01
  -3.1221000e-02  -3.5482800e-01   1.2080800e-01
  -1.9333800e-02  -3.5950300e-01   1.3625300e-01
  -2.3188800e-03  -3.7936900e-01   1.4537900e-01
   1.1199800e-02  -3.8731500e-01   1.6082400e-01
   1.9357700e-02  -4.0227300e-01   1.7954500e-01
   2.8214800e-02  -4.1536100e-01   1.9171400e-01
   3.1944100e-02  -4.2447600e-01   2.0879700e-01
   3.8470400e-02  -4.4340700e-01   2.2260400e-01
   4.3598200e-02  -4.4761300e-01   2.3477300e-01
   4.4996700e-02  -4.6187000e-01   2.5700400e-01
   4.4763600e-02  -4.8360600e-01   2.7712900e-01
   4.4064300e-02  -5.0347100e-01   2.9608500e-01
   4.4996700e-02  -5.3245200e-01   3.2533600e-01
   4.6861300e-02  -5.6377000e-01   3.4569600e-01
   4.9192100e-02  -5.9719100e-01   3.6488500e-01
   5.1989100e-02  -6.1705700e-01   3.8454200e-01
   6.0613100e-02  -6.2079600e-01   3.9717900e-01
   6.8537900e-02  -6.1635600e-01   4.1636800e-01
   7.4364900e-02  -5.9321800e-01   4.2736700e-01
   8.4620500e-02  -5.7124900e-01   4.4023800e-01
   9.3011500e-02  -5.5348600e-01   4.6925500e-01
   9.0913700e-02  -5.4694200e-01   4.9757100e-01
   7.7861200e-02  -5.6657400e-01   5.2518500e-01
   6.6906300e-02  -5.7311900e-01   5.5958500e-01
   6.2477800e-02  -5.6750900e-01   5.8322100e-01
   6.2011600e-02  -5.3408800e-01   5.8953900e-01
   7.1568000e-02  -4.7402300e-01   5.9141100e-01
   9.2778400e-02  -4.2050200e-01   5.8532700e-01
   1.1725200e-01  -3.7118900e-01   5.8462500e-01
   1.3659800e-01  -3.6230700e-01   5.9655900e-01
   1.5454500e-01  -3.8521100e-01   6.1902500e-01
   1.6736400e-01  -4.2097000e-01   6.4406400e-01
   1.6713100e-01  -4.5742900e-01   6.5412700e-01
   1.5827400e-01  -4.6140300e-01   6.6161500e-01
   1.4289100e-01  -4.3803100e-01   6.6231700e-01
   1.3216900e-01  -3.6371000e-01   6.5857300e-01
   1.3100400e-01  -2.6321200e-01   6.6746600e-01
   1.4359000e-01  -1.7463400e-01   6.8337900e-01
   1.7575500e-01  -1.0031300e-01   7.1637500e-01
   2.0069500e-01  -7.4136400e-02   7.5241300e-01
   2.0419100e-01  -8.3718700e-02   7.8330300e-01
   1.9580000e-01  -1.0896000e-01   8.1840500e-01
   1.7622200e-01  -1.3186400e-01   8.3689200e-01
   1.5104900e-01  -1.2204800e-01   8.4087100e-01
   1.3147000e-01  -8.1615300e-02   8.5023100e-01
   1.2541000e-01  -1.7577300e-02   8.5046500e-01
   1.3613200e-01   5.3004700e-02   8.4578500e-01
   1.6340200e-01   1.1657500e-01   8.5584800e-01
   1.9067300e-01   1.7360200e-01   8.6567600e-01
   2.1444700e-01   2.0211500e-01   8.7690900e-01
   2.4265000e-01   2.1403500e-01   8.9797000e-01
   2.6106300e-01   2.2011100e-01   9.1786200e-01
   2.6642400e-01   2.0234900e-01   9.3658300e-01
   2.6479300e-01   1.9159800e-01   9.5132600e-01
   2.5966500e-01   1.7991200e-01   9.5600600e-01
   2.4824400e-01   1.6542200e-01   9.5975000e-01
   2.2750000e-01   1.5841000e-01   9.5460200e-01
   2.1374800e-01   1.5654100e-01   9.4102900e-01
   2.0978500e-01   1.8061300e-01   9.3143400e-01
   2.0838700e-01   2.0188100e-01   9.1950000e-01
   2.0978500e-01   2.2712300e-01   9.1271300e-01
   2.2004100e-01   2.5096200e-01   9.0709700e-01
   2.3612400e-01   2.5820700e-01   9.0171500e-01
   2.5220600e-01   2.5844000e-01   8.9352400e-01
   2.6968700e-01   2.4137900e-01   8.7573900e-01
   2.8740100e-01   2.1847500e-01   8.5374200e-01
   3.1374000e-01   1.9066300e-01   8.2402200e-01
   3.3541600e-01   1.6869400e-01   8.0342800e-01
   3.3914600e-01   1.5350200e-01   7.8260100e-01
   3.4637100e-01   1.3714200e-01   7.6154000e-01
   3.5732600e-01   1.3527200e-01   7.5498700e-01
   3.5592700e-01   1.3363600e-01   7.4796700e-01
   3.4683700e-01   1.2125000e-01   7.4609500e-01
   3.4054400e-01   1.1797800e-01   7.3977600e-01
   3.3168700e-01   1.1377100e-01   7.2316100e-01
   3.1280700e-01   1.1190100e-01   7.0771600e-01
   2.9183000e-01   1.3293500e-01   6.8010300e-01
   2.7807800e-01   1.4882800e-01   6.3915000e-01
   2.7691300e-01   1.7547200e-01   5.9679300e-01
   2.8017600e-01   2.1169700e-01   5.5958500e-01
   2.8297300e-01   2.3366700e-01   5.2331300e-01
   2.9043200e-01   2.6428300e-01   4.8423200e-01
   2.9882200e-01   2.8672000e-01   4.5076800e-01
   3.0325100e-01   3.0798800e-01   4.2385700e-01
   3.0884500e-01   3.2762000e-01   3.9694500e-01
   3.1816800e-01   3.3977300e-01   3.6722500e-01
   3.2259700e-01   3.7623300e-01   3.4429200e-01
   3.1537100e-01   4.0240900e-01   3.1808200e-01
   3.0161900e-01   4.2811800e-01   2.7970300e-01
   2.8786800e-01   4.7486100e-01   2.4179300e-01
   2.7668000e-01   5.0571100e-01   1.9733000e-01
   2.6479300e-01   5.4427400e-01   1.5122900e-01
   2.5174000e-01   5.8470700e-01   1.0887300e-01
   2.3985300e-01   6.2817800e-01   6.6282100e-02
   2.2400300e-01   6.9315100e-01   3.0477900e-02
   2.0232700e-01   7.4433400e-01  -6.0284200e-03
   1.7855200e-01   8.0346400e-01  -4.3236800e-02
   1.5594300e-01   8.7007300e-01  -7.7402900e-02
   1.3147000e-01   9.2476300e-01  -1.1133500e-01
   1.0699600e-01   9.7664700e-01  -1.4152300e-01
   8.1823600e-02   1.0257300e+00  -1.6656200e-01
   5.6650700e-02   1.0766800e+00  -1.9230400e-01
   4.0335000e-02   1.1161800e+00  -2.1991800e-01
   2.5184700e-02   1.1652600e+00  -2.4378700e-01
   8.8690300e-03   1.2229800e+00  -2.7374100e-01
  -7.2135900e-03   1.2694900e+00  -3.0135500e-01
  -3.1687200e-02   1.3251200e+00  -3.2522400e-01
  -6.0822300e-02   1.3774700e+00  -3.5096600e-01
  -8.4596700e-02   1.4239800e+00  -3.6336900e-01
  -1.0254400e-01   1.4765600e+00  -3.7834600e-01
  -1.2864900e-01   1.5221400e+00  -3.9308900e-01
  -1.5941600e-01   1.5658400e+00  -4.0432100e-01
  -1.8202500e-01   1.6097800e+00  -4.1883000e-01
  -2.0090400e-01   1.6457700e+00  -4.2304300e-01
  -2.2001700e-01   1.6817700e+00  -4.3333900e-01
  -2.4169400e-01   1.7100500e+00  -4.4574200e-01
  -2.6896400e-01   1.7280400e+00  -4.5603900e-01
  -2.9809900e-01   1.7416000e+00  -4.6844100e-01
  -3.2210700e-01   1.7483800e+00  -4.6656900e-01
  -3.4448300e-01   1.7633300e+00  -4.6493100e-01
  -3.6499400e-01   1.7857700e+00  -4.5978300e-01
  -3.7688100e-01   1.8173200e+00  -4.5065600e-01
  -3.8177600e-01   1.8577500e+00  -4.5042200e-01
  -3.8806900e-01   1.8876700e+00  -4.4316800e-01
  -4.0461800e-01   1.8921100e+00  -4.3825400e-01
  -4.1324200e-01   1.8666400e+00  -4.3240300e-01
  -4.1790300e-01   1.8357800e+00  -4.1508600e-01
  -4.4074500e-01   1.7995600e+00  -4.1344800e-01
  -4.6591800e-01   1.7640300e+00  -4.1321400e-01
  -4.8806100e-01   1.7514100e+00  -4.1017200e-01
  -5.0274500e-01   1.7455700e+00  -4.1766000e-01
  -5.0833900e-01   1.7565600e+00  -4.0057700e-01
  -5.1230100e-01   1.7602900e+00  -3.7928200e-01
  -5.0484300e-01   1.7437000e+00  -3.6102900e-01
  -4.9085800e-01   1.7357500e+00  -3.3154300e-01
  -4.8176800e-01   1.7098100e+00  -3.2148000e-01
  -4.7757200e-01   1.6803600e+00  -3.1843800e-01
  -4.6708300e-01   1.6670400e+00  -3.2007600e-01
  -4.4820400e-01   1.6579300e+00  -3.2686300e-01
  -4.3375300e-01   1.6621300e+00  -3.2990500e-01
  -4.0997800e-01   1.6614300e+00  -3.3411700e-01
  -3.7291900e-01   1.6504500e+00  -3.2686300e-01
  -3.4448300e-01   1.6224000e+00  -3.1680000e-01
  -3.2816700e-01   1.5555600e+00  -3.1282200e-01
  -3.1837700e-01   1.4807700e+00  -3.0275900e-01
  -3.1161800e-01   1.4013100e+00  -2.9386600e-01
  -3.1161800e-01   1.3211400e+00  -2.9059000e-01
  -3.2979800e-01   1.2666900e+00  -2.9176000e-01
  -3.4658000e-01   1.2162100e+00  -3.0252500e-01
  -3.3772300e-01   1.1968100e+00  -3.0884300e-01
  -3.2000900e-01   1.1912000e+00  -3.1492800e-01
  -3.0229500e-01   1.1727300e+00  -3.2452200e-01
  -2.7036300e-01   1.1690000e+00  -3.2943700e-01
  -2.2677600e-01   1.1449200e+00  -3.3388300e-01
  -1.7549800e-01   1.1119700e+00  -3.3949900e-01
  -1.2888200e-01   1.0794800e+00  -3.4043500e-01
  -8.8092900e-02   1.0292300e+00  -3.3996700e-01
  -4.5439000e-02   9.7641400e-01  -3.4745600e-01
  -1.8634600e-02   9.1354400e-01  -3.4886000e-01
  -4.4166100e-03   8.5348000e-01  -3.5517800e-01
   9.8013600e-03   7.9645300e-01  -3.6032700e-01
   1.9357700e-02   7.3475200e-01  -3.5658200e-01
   2.9147100e-02   6.8099800e-01  -3.6313500e-01
   3.5673400e-02   6.2677600e-01  -3.5400800e-01
   4.0102000e-02   5.7722800e-01  -3.4605200e-01
   4.7560600e-02   5.4240400e-01  -3.4698800e-01
   5.0590600e-02   4.9963500e-01  -3.4207400e-01
   5.1523000e-02   4.6340900e-01  -3.5190200e-01
   6.0846200e-02   4.3886900e-01  -3.6524100e-01
   7.9492700e-02   3.9890300e-01  -3.8115400e-01
   9.3943800e-02   3.5543200e-01  -4.0081100e-01
   1.0839500e-01   3.1032500e-01  -4.1578800e-01
   1.2284600e-01   2.7176200e-01  -4.3029700e-01
   1.2867300e-01   2.3413400e-01  -4.4597600e-01
   1.3193600e-01   1.9884300e-01  -4.6142100e-01
   1.3636500e-01   1.7547200e-01  -4.6797300e-01
   1.4965000e-01   1.4041400e-01  -4.7288800e-01
   1.5710900e-01   1.1283600e-01  -4.7944000e-01
   1.5058300e-01   7.4272800e-02  -4.8248200e-01
   1.5221400e-01   2.5426300e-02  -4.7990800e-01
   1.5361300e-01  -1.1734400e-02  -4.7405800e-01
   1.4289100e-01  -6.3852900e-02  -4.6820700e-01
   1.2797400e-01  -1.0849300e-01  -4.6352700e-01
   1.1049300e-01  -1.4004400e-01  -4.5908100e-01
   8.9282200e-02  -1.7603600e-01  -4.5135800e-01
   6.8071700e-02  -2.1015900e-01  -4.5089000e-01
   4.6628200e-02  -2.3960700e-01  -4.4504000e-01
   2.1222400e-02  -2.6367900e-01  -4.2561700e-01
  -2.5519600e-03  -2.9289400e-01  -4.1298000e-01
  -2.0965400e-02  -3.2094000e-01  -3.9683300e-01
  -4.0777300e-02  -3.4080600e-01  -3.7553800e-01
  -6.7581700e-02  -3.7002000e-01  -3.5915700e-01
  -8.9025200e-02  -3.8684700e-01  -3.4277600e-01
  -1.0114500e-01  -3.9572900e-01  -3.2920300e-01
  -1.1280000e-01  -4.2657900e-01  -3.2124600e-01
  -1.2631800e-01  -4.3382400e-01  -3.1586400e-01
  -1.4146900e-01  -4.4364000e-01  -3.0814100e-01
  -1.5568700e-01  -4.6794700e-01  -3.0392900e-01
  -1.6757400e-01  -4.7238700e-01  -3.0112100e-01
  -1.7666400e-01  -4.9622600e-01  -2.9667500e-01
  -1.8016000e-01  -5.1562500e-01  -2.9480300e-01
  -1.8412200e-01  -5.2918000e-01  -2.9012200e-01
  -1.9904000e-01  -5.5138300e-01  -2.9339800e-01
  -2.0859600e-01  -5.7452100e-01  -2.9456900e-01
  -2.0673100e-01  -6.0724100e-01  -2.8544200e-01
  -2.1279200e-01  -6.3248200e-01  -2.8193200e-01
  -2.2118200e-01  -6.7151300e-01  -2.7444300e-01
  -2.2607700e-01  -7.0727100e-01  -2.6180600e-01
  -2.3376900e-01  -7.3181100e-01  -2.5174400e-01
  -2.4519000e-01  -7.6359600e-01  -2.4191500e-01
  -2.5917500e-01  -7.7691800e-01  -2.3208700e-01
  -2.6919700e-01  -7.8953900e-01  -2.2459800e-01
  -2.6360300e-01  -8.0122500e-01  -2.1453600e-01
  -2.5055100e-01  -7.9888700e-01  -2.0189900e-01
  -2.5404700e-01  -8.1337800e-01  -2.0377100e-01
  -2.5591200e-01  -8.4002100e-01  -2.0283500e-01
  -2.4822000e-01  -8.6292500e-01  -1.9675000e-01
  -2.4285900e-01  -8.9611300e-01  -2.0143100e-01
  -2.3307000e-01  -9.2345800e-01  -1.9370800e-01
