**************************************************************************************
  	RED ACELEROGRÁFICA DE LA UNIVERSIDAD AUTONOMA METROPOLITANA (RA-UAM)
	   UNIDAD AZCAPOTZALCO. DIVISIÓN CBI-DEPARTAMENTO DE MATERIALES
     Av. San Pablo 420, Col. Nueva el Rosario, Azcapotzalco, C.P. 02128, Ciudad de México
		Área de Estructuras. e-mail: agb@azc.uam.mx
**************************************************************************************
ARCHIVO ESTANDAR DE ACELERACION:
VERSION DEL FORMATO                    : 2.0
NOMBRE DEL ARCHIVO                     : RIDX202209.203
FECHA Y HORA DE CREACION               : 11:40 a. m. 27/09/2022
REF. CATALOGO ACELEROGRAMAS, SMIS 1999 : REGISTRO NO.      /PAG.    


================================================================================
DATOS DE LA ESTACION:
NOMBRE DE LA ESTACION                  : UAM-XOCHIMILCO.
CLAVE DE LA ESTACION                   : RIDX
LOCALIZACION DE LA ESTACION            : CALZADA DEL HUESO 1100, COL. VILLA
                                       : QUIETUD, DEL. COYOACAN, C.P.04960,  
                                       : CIUDAD DE MEXICO.
                                       : 
                                       : 
COORDENADAS DE LA ESTACION             : 19.301345 LAT. N
                                       : 99.10268 LONG. W
ALTITUD (msnm)                         : 2232
TIPO DE SUELO                          : LAGO
                                       : 
                                       : 
INSTITUCION RESPONSABLE                : UNIVERSIDAD AUTONOMA METROPOLITANA
                                       : 

================================================================================
DATOS DEL ACELEROGRAFO: 
MODELO DEL ACELEROGRAFO                : BASALT KINEMETRICS
NUMERO DE SERIE DEL ACELEROGRAFO       : 1729
NUMERO DE CANALES                      : 3
ORIENTACION C1-C6 (rumbo;orientacion)  : /V/N00E/N90E
ORIENTACION C7-C12 (rumbo;orientacion) : 
VEL. DE MUESTREO, C1-C6 (muestras/s)   : /200/200/200
VEL. DE MUESTREO, C7-C12 (muestras/s)  : 
ESC. COMPLETA DE SENSORES, C1-C6, (g)  : /2/2/2
ESC. COMPLETA DE SENSORES, C7-C12 (g)  : 
FREC. NAT. DE SENSORES, C1-C6, (Hz)    : /208/210/200   
FREC. NAT. DE SENSORES, C7-C12 (Hz)    : 
AMORTIGUAMIENTO DE SENSORES, C1-C6     : /0.7/0.7/0.7      
AMORTIGUAMIENTO DE SENSORES, C7-C12    : 
INTERVALO DE MUESTREO, C1-C6 (s)       : /0.005/0.005/0.005
INTERVALO DE MUESTREO, C7-C12 (s)      : 
UMBRAL DE DISPARO, C1-C6 (Gal)         : /2/2/2
UMBRAL DE DISPARO, C7-C12 (Gal)        : 
MEMORIA DE PREEVENTO (s)               : 60
TIEMPO DE POSEVENTO (s)                : 80


================================================================================
DATOS DEL SISMO:
FECHA DEL SISMO [GMT]                  : 2022/09/20
HORA EPICENTRO (GMT)                   : 19:04:29
MAGNITUD(ES)                           : /M=5.4
COORDENADAS DEL EPICENTRO              : 18.1400 LAT. N
                                       : -103.2500 LONG. W
PROFUNDIDAD FOCAL (Km)                 : 16.0
FUENTE DE LOS DATOS EPICENTRALES       : SSN
                                       : INSTITUTO DE GEOFISICA, UNAM

================================================================================
DATOS DE ESTE REGISTRO:
HORA DE LA PRIMERA MUESTRA (GMT)       : 19:05:17.000
EXACTITUD DEL TIEMPO (s)               : 
DURACION DEL REGISTRO (s), C1-C6       : /199/199/199
DURACION DEL REGISTRO (s), C7-C12      : 
NUM. TOTAL DE MUESTRAS, C1-C6          : /39800/39800/39800
NUM. TOTAL DE MUESTRAS, C7-C12         : 
ACEL. MAX.(Gal), C1-C6                 : /-4.757/-9.392/2.246
ACEL. MAX., C1-C6, EN LA MUESTRA       : /19451/19454/19539
ACEL. MAX.(Gal), C7-C12                : 
ACEL. MAX., C7-C12,EN LA MUESTRA       : 
UNIDADES DE LOS DATOS                  : Gal (cm/s/s)
FACTOR DE DECIMACION                   : 1
FORMATO DATOS (FORTRAN,16 campos/dato) : 3E16.7


================================================================================
CALIDAD DEL ACELEROGRAMA:
REGISTRO DIGITAL COMPLETO CON TIEMPO ABSOLUTO CORRECTO


================================================================================
COMENTARIOS:














================================================================================
DATOS DE ACELERACION:
---------+---------+---------+---------+---------+---------+---------+---------+
   CANAL-1   	      CANAL-2          CANAL-3
      V                 N00E             N90E
---------+---------+---------+---------+---------+---------+---------+---------+
[...]
  -5.0066000e-01  -1.3577500e-01  -3.2228900e-01
  -4.9996100e-01  -2.0705800e-01  -2.6963600e-01
  -4.6779600e-01  -3.2461600e-01  -2.0153800e-01
  -3.6990200e-01  -4.9546200e-01  -1.1097400e-01
  -2.3844400e-01  -6.2961500e-01  -3.5621400e-02
  -1.3099300e-01  -6.3896400e-01  -3.7259500e-02
  -9.9527100e-02  -4.9779900e-01  -1.4116200e-01
  -1.5127100e-01  -3.1106100e-01  -2.9186800e-01
  -2.0068400e-01  -1.3834500e-01  -4.4655100e-01
  -2.4007500e-01   7.4929400e-03  -5.7596100e-01
  -2.6291700e-01   7.1063500e-02  -6.5365400e-01
  -2.6757900e-01   8.9293300e-02  -6.7448200e-01
  -2.3634600e-01   7.3868100e-02  -6.3165700e-01
  -2.5778900e-01   2.0989000e-01  -5.7947200e-01
  -3.8598400e-01   5.7495400e-01  -4.8258900e-01
  -4.0439800e-01   7.0326300e-01  -3.2041700e-01
  -3.4286400e-01   3.0805100e-01  -1.6877600e-01
  -3.2957900e-01  -4.2254300e-01  -4.2407900e-02
  -2.7993200e-01  -1.1056900e+00   4.6049700e-02
  -1.7248200e-01  -1.3373000e+00   9.4724700e-02
  -6.4331800e-02  -1.1645900e+00   4.5815700e-02
   7.4118600e-02  -8.3131100e-01  -7.5638000e-02
   4.5216500e-02  -2.3229900e-01  -1.8117900e-01
  -2.0721100e-01   5.4550600e-01  -3.1339700e-01
  -3.3470600e-01   1.0711300e+00  -4.9709800e-01
  -4.8038200e-01   1.0365400e+00  -7.3228300e-01
  -6.1673500e-01   3.5830000e-01  -8.4484400e-01
  -4.9320200e-01  -5.6440800e-01  -7.1332800e-01
  -3.2328500e-01  -1.1201800e+00  -5.1394700e-01
  -1.5453400e-01  -1.2305000e+00  -3.2416200e-01
   5.8735300e-02  -1.0951800e+00  -1.1214400e-01
   2.5242600e-01  -8.4299700e-01   7.7875700e-02
   2.7876400e-01  -5.8450800e-01   1.0034100e-01
   1.1537400e-01  -2.1874300e-01  -6.3235200e-02
  -2.4707900e-02   2.0007400e-01  -2.5980800e-01
  -4.8482300e-02   4.1275500e-01  -3.8687700e-01
   2.3539900e-02   4.0667900e-01  -4.0583300e-01
   8.1810300e-02   3.0992100e-01  -3.5458300e-01
   6.4562300e-02   2.4518100e-01  -3.1597100e-01
   2.2607600e-02   2.2274500e-01  -3.4381900e-01
  -2.9369600e-02   2.1877200e-01  -3.7751700e-01
  -7.3422000e-02   1.6899000e-01  -3.5622200e-01
  -1.1397800e-01   3.0864500e-02  -2.8859100e-01
  -1.5173700e-01  -1.3180100e-01  -1.8796500e-01
  -1.7131600e-01  -2.2809200e-01  -9.0146900e-02
  -1.7551200e-01  -1.5423800e-01  -1.6666300e-02
  -1.8180500e-01  -1.3882400e-03   8.6073300e-03
  -2.1723300e-01   1.2949200e-01  -4.7556200e-02
  -2.5406000e-01   1.8464900e-01  -1.7158400e-01
  -2.8948900e-01   1.5169500e-01  -2.8461300e-01
  -2.9415000e-01   7.9944700e-02  -3.4732900e-01
  -2.8133100e-01  -6.7997100e-02  -3.4943500e-01
  -2.9251900e-01  -2.2388500e-01  -2.8367700e-01
  -2.6618000e-01  -3.4121000e-01  -1.7743400e-01
  -2.2748900e-01  -4.0127500e-01  -7.2361700e-02
  -1.8506800e-01  -3.9566600e-01  -2.3920700e-02
  -1.4754200e-01  -3.4214500e-01  -2.2984700e-02
  -1.3682000e-01  -2.3229900e-01  -7.0957700e-02
  -1.2167000e-01  -1.2338800e-01  -1.3109900e-01
  -1.3635400e-01   3.3435300e-02  -1.7228600e-01
  -1.8670000e-01   2.2484800e-01  -2.1534500e-01
  -2.5732300e-01   3.5198900e-01  -2.1347300e-01
  -3.2934500e-01   3.7092000e-01  -1.6550000e-01
  -4.2187900e-01   3.2043800e-01  -9.9507500e-02
  -5.5543500e-01   3.2511200e-01  -2.6260900e-02
  -6.6241900e-01   3.3422700e-01   6.4770900e-02
  -7.0111100e-01   2.6504700e-01   1.5276000e-01
  -6.4890000e-01   1.1757300e-01   2.1734800e-01
  -5.1021700e-01  -1.2245300e-01   2.7866000e-01
  -3.5125500e-01  -3.8818700e-01   2.9784900e-01
  -2.1769900e-01  -5.4243900e-01   2.8942500e-01
  -1.3565500e-01  -4.9779900e-01   2.6508700e-01
  -1.2050400e-01  -3.0451700e-01   2.1056200e-01
  -1.5873000e-01  -6.4257600e-02   1.4737800e-01
  -2.2888700e-01   1.8254600e-01   5.4006200e-02
  -3.1419500e-01   4.0621100e-01  -4.0769800e-02
  -4.0276600e-01   5.5999600e-01  -9.0848900e-02
  -4.4635200e-01   5.5064700e-01  -7.4701900e-02
  -4.1721700e-01   3.5269000e-01   1.8670000e-02
  -3.4939100e-01   7.4335500e-02   1.4667600e-01
  -2.3681200e-01  -2.2552100e-01   2.8965900e-01
  -1.5406800e-01  -3.8912200e-01   4.0011400e-01
  -1.6991800e-01  -3.6808800e-01   4.4574700e-01
  -2.1816600e-01  -2.6174700e-01   4.4972500e-01
  -2.8832300e-01  -6.3790200e-02   3.9566800e-01
  -3.5498400e-01   1.0168000e-01   2.8451100e-01
  -4.0253300e-01   2.1526600e-01   1.5510100e-01
  -4.5590900e-01   3.0033800e-01   4.8389800e-02
  -4.8923900e-01   3.0594700e-01  -7.5396800e-03
  -4.7945000e-01   2.6317700e-01   7.4372600e-03
  -4.1675100e-01   1.7319700e-01   7.2259300e-02
  -3.3657100e-01   7.9009800e-02   1.3989000e-01
  -2.7900000e-01   1.4504400e-02   1.9909500e-01
  -2.6198500e-01   1.8837700e-03   2.3513400e-01
  -2.8179700e-01   3.0163300e-02   2.4894000e-01
  -3.1303000e-01   9.1864200e-02   2.6415100e-01
  -3.3960100e-01   1.8628500e-01   2.7374600e-01
  -3.6710500e-01   2.6200900e-01   2.6274700e-01
  -3.8715000e-01   3.1716600e-01   2.3209100e-01
  -3.6803700e-01   3.3235700e-01   1.9207500e-01
  -3.3960100e-01   3.1319300e-01   1.5112200e-01
  -3.2351800e-01   2.6364500e-01   1.1438200e-01
  -3.0510500e-01   1.9633500e-01   7.9747800e-02
  -2.9578200e-01   1.5239600e-01   4.9091900e-02
  -2.9671400e-01   1.1336600e-01   3.8327200e-02
  -3.0184200e-01   8.6021300e-02   6.1026600e-02
  -2.9951100e-01   6.0780000e-02   1.1695600e-01
  -2.9088700e-01   3.9511900e-02   1.6960900e-01
  -2.9648100e-01   6.0078900e-02   2.0166900e-01
  -3.1069900e-01   1.1920900e-01   2.2015700e-01
  -3.2165400e-01   1.8020900e-01   2.1828400e-01
  -3.1559400e-01   2.0311300e-01   2.1571000e-01
  -2.9554900e-01   1.8932300e-01   2.2530500e-01
  -2.9508300e-01   1.4351500e-01   2.2460300e-01
  -2.8575900e-01   1.0004400e-01   2.0728600e-01
  -2.5126300e-01   7.9944700e-02   1.8879900e-01
  -2.3331600e-01   5.3768600e-02   1.5861100e-01
  -2.1909800e-01   3.1331900e-02   1.3123100e-01
  -2.0115100e-01   2.7592500e-02   1.0010700e-01
  -1.8063900e-01   4.3718800e-02   4.2773500e-02
  -1.6805300e-01   8.0879500e-02   1.5868900e-03
  -1.7597800e-01   9.9576800e-02  -2.0878500e-02
  -1.7085000e-01   9.3733900e-02  -1.6666300e-02
  -1.6129400e-01   8.4619000e-02   2.6158400e-02
  -1.7854200e-01   6.2649700e-02   6.7813000e-02
  -2.1187200e-01   5.1197700e-02   9.6830900e-02
  -2.2445900e-01   3.9979400e-02   1.1204200e-01
  -2.1769900e-01   3.5071300e-02   1.1251000e-01
  -2.1606800e-01   4.8393100e-02   1.0712800e-01
  -2.3424800e-01   4.2082800e-02   1.0361700e-01
  -2.2842100e-01   3.7174800e-02   9.9873100e-02
  -1.5989500e-01   5.6339400e-02   9.4256700e-02
  -1.6828600e-01   1.6992500e-01   7.6705600e-02
  -2.7480400e-01   3.7208900e-01   5.1432000e-02
  -3.6477400e-01   5.0296900e-01   5.3538100e-02
  -4.2071300e-01   5.0834500e-01   7.5301500e-02
  -4.3399900e-01   4.3285500e-01   8.2322000e-02
  -4.5101400e-01   2.9800100e-01   7.6705600e-02
  -4.2793900e-01   7.6906400e-02   1.0244700e-01
  -2.4730100e-01  -2.6057800e-01   1.9769100e-01
   1.0487400e-02  -5.8123600e-01   3.1820900e-01
   1.9835100e-01  -6.6747700e-01   3.8747700e-01
   2.5778700e-01  -5.1906800e-01   3.7905300e-01
   2.1559900e-01  -2.1780900e-01   3.1142200e-01
   1.5826100e-01   1.5800600e-01   1.9815900e-01
   1.7246700e-02   5.4129900e-01   4.3475500e-02
  -2.9158600e-01   9.1828100e-01  -1.2571700e-01
  -5.6405900e-01   1.0800100e+00  -2.5746700e-01
  -6.3817900e-01   8.7130500e-01  -2.7572100e-01
  -5.4541200e-01   3.8564400e-01  -1.5871300e-01
  -3.1978900e-01  -2.0121500e-01   4.4411600e-02
  -4.0091300e-02  -7.0276800e-01   2.8123400e-01
   1.9112600e-01  -1.0101000e+00   4.6423400e-01
   3.1629000e-01  -1.0227200e+00   5.5175500e-01
   2.9950800e-01  -7.1375200e-01   5.4192700e-01
   1.5103600e-01  -1.9046400e-01   4.1368700e-01
  -4.5685300e-02   3.5315800e-01   2.0447800e-01
  -2.2515800e-01   7.5982200e-01  -2.7899000e-02
  -3.9390900e-01   1.0138700e+00  -2.3172600e-01
  -5.3772000e-01   1.1080600e+00  -3.5341300e-01
  -6.1673500e-01   1.0070900e+00  -3.3656400e-01
  -6.1160700e-01   6.6960800e-01  -1.9662400e-01
  -5.1534500e-01   1.7273000e-01  -3.5614300e-03
  -3.7176600e-01  -3.4121000e-01   1.8692700e-01
  -2.3051900e-01  -7.6072900e-01   3.2031500e-01
  -9.8594800e-02  -1.0203900e+00   3.9660400e-01
   1.0953500e-02  -1.1152800e+00   4.1509100e-01
   6.3163800e-02  -1.0075300e+00   3.9239100e-01
   3.2164000e-02  -7.2216600e-01   3.3318600e-01
  -5.5241600e-02  -2.9166300e-01   2.3724000e-01
  -1.7830900e-01   1.7693700e-01   1.3614500e-01
  -3.1372900e-01   5.2330300e-01   2.4052300e-02
  -4.1628500e-01   6.9858900e-01  -6.5107300e-02
  -4.8714200e-01   6.5511800e-01  -1.2595100e-01
  -5.1557800e-01   4.2584300e-01  -1.4280000e-01
  -4.9786300e-01   1.1313200e-01  -8.5232600e-02
  -4.6243500e-01  -1.8181600e-01   1.0245400e-02
  -4.3306700e-01  -3.6785400e-01   1.2608300e-01
  -4.2164600e-01  -4.3235900e-01   2.2319900e-01
  -4.0533000e-01  -4.0852000e-01   2.8100000e-01
  -3.9390900e-01  -3.2952400e-01   3.0323200e-01
  -4.0905900e-01  -2.3557100e-01   2.7561800e-01
  -4.1558600e-01  -1.4839500e-01   2.2787900e-01
  -3.9810500e-01  -9.8613800e-02   1.7546000e-01
  -3.7246600e-01  -1.1100100e-01   1.2678500e-01
  -3.3517300e-01  -1.6569000e-01   9.3554700e-02
  -2.9508300e-01  -2.4468600e-01   6.2664700e-02
  -2.8272900e-01  -3.1293100e-01   3.9497300e-02
  -2.7736800e-01  -3.6528300e-01   1.7967900e-02
  -2.7410500e-01  -3.8140900e-01   1.8201900e-02
  -3.0976700e-01  -3.4471600e-01   4.3943500e-02
  -3.4915700e-01  -2.8675500e-01   5.9622500e-02
  -3.8528500e-01  -2.0238300e-01   8.8172300e-02
  -4.1721700e-01  -1.2666000e-01   1.1063800e-01
  -4.3096900e-01  -8.7161700e-02   1.1321200e-01
  -4.4565300e-01  -1.0235300e-01   1.1344600e-01
  -4.2421000e-01  -1.5236800e-01   1.0970200e-01
  -3.8458600e-01  -2.0215000e-01   1.2304100e-01
  -3.5568400e-01  -2.7857500e-01   1.3052900e-01
  -3.2118800e-01  -3.0615300e-01   1.3544300e-01
  -2.8342800e-01  -3.4167800e-01   1.2187000e-01
  -2.4800000e-01  -4.0781900e-01   8.8172300e-02
  -2.2352600e-01  -3.7439800e-01   4.5113600e-02
  -2.5825600e-01  -3.5640200e-01  -2.0644500e-02
  -2.6501500e-01  -3.4495000e-01  -2.7664900e-02
  -3.1536100e-01  -2.0869400e-01  -3.0473100e-02
  -4.9809700e-01   4.6523400e-02  -1.3390000e-02
  -5.2886300e-01   1.1476800e-01   5.3538100e-02
  -5.7268300e-01  -1.6195100e-01   8.6300200e-02
  -1.8949700e-01  -2.1009600e-01   3.2242800e-02
   1.9438900e-01   3.8751400e-01   1.2351600e-02
  -9.0552300e-01   1.1515300e+00   3.1680500e-01
  -1.5311100e+00   7.7314400e-01   3.4278000e-01
  -2.5918800e-01  -3.0194600e-01  -2.2821600e-01
   4.4658300e-01   7.4112500e-01  -4.6854900e-01
  -1.3052600e+00   3.9568100e+00  -6.5809300e-02
  -4.2357900e+00   5.5178000e+00   4.0011400e-01
  -4.7574300e+00   2.4902500e+00   2.5479100e-01
  -1.7961300e+00  -3.5725600e+00  -3.6066800e-01
   1.4173700e+00  -8.3041200e+00  -7.5825900e-01
   2.7981400e+00  -9.3916000e+00  -9.5483100e-01
   3.1885500e+00  -7.4080600e+00  -9.7355200e-01
   3.0356500e+00  -3.5741900e+00  -3.4803100e-01
   2.3005100e+00   7.9067300e-01   6.8514400e-01
   1.1772900e+00   4.2639200e+00   1.0736100e+00
  -3.2644400e-03   5.8534100e+00   3.4512000e-01
  -6.7127600e-01   5.5203700e+00  -8.1442200e-01
  -8.1019300e-01   4.2975700e+00  -1.3791000e+00
  -8.2790700e-01   3.2122000e+00  -1.0992200e+00
  -9.7824400e-01   2.3939600e+00  -5.6496300e-01
  -1.0514300e+00   1.3403700e+00  -1.8024300e-01
  -7.4190000e-01  -4.0501500e-01   1.1602000e-01
  -8.9038400e-02  -2.4684900e+00   2.2624100e-01
   5.8736400e-01  -4.0675700e+00   5.1432000e-02
   9.5796400e-01  -4.7233700e+00  -1.8960300e-01
   1.1064400e+00  -4.3793400e+00  -2.4319200e-01
   1.1964100e+00  -3.2684900e+00  -7.7042000e-02
   1.2884700e+00  -1.6000000e+00   4.5113600e-02
   1.3672500e+00   3.6461000e-01  -9.5529200e-02
   1.2875400e+00   2.3343600e+00  -4.3531900e-01
   9.3628700e-01   3.8013900e+00  -7.5100400e-01
   4.0765800e-01   4.1823500e+00  -8.7433000e-01
   3.8923300e-02   3.4068800e+00  -8.1582600e-01
  -2.0512500e-02   1.9690700e+00  -6.6582300e-01
   1.5382100e-02   5.6069700e-01  -5.3149900e-01
  -1.9114000e-02  -4.5292600e-01  -4.4818900e-01
  -3.2644400e-03  -1.0479700e+00  -3.3679800e-01
   1.7644100e-01  -1.3426800e+00  -8.2190400e-02
   3.9344000e-01  -1.3707300e+00   2.5174900e-01
   5.0322200e-01  -1.1491600e+00   3.8654100e-01
   5.4540900e-01  -7.9882500e-01   1.7850200e-01
   6.3910800e-01  -3.9519800e-01  -2.3079000e-01
   7.7406200e-01  -4.4625600e-02  -5.6940900e-01
   8.5657300e-01   2.5172500e-01  -7.1777400e-01
   9.0179100e-01   4.8684300e-01  -7.2268900e-01
   9.8034000e-01   5.7986200e-01  -6.5435600e-01
   1.0756700e+00   5.1932900e-01  -5.9819300e-01
   1.1101700e+00   4.0083600e-01  -5.7994000e-01
   1.0358100e+00   4.0995100e-01  -5.6472900e-01
   8.6543000e-01   5.3732500e-01  -4.9241800e-01
   6.2605600e-01   6.7451600e-01  -3.3913800e-01
   4.0859100e-01   7.1261200e-01  -1.2220700e-01
   3.0766600e-01   6.1819100e-01   8.0917900e-02
   3.3470400e-01   4.6557500e-01   1.7335400e-01
   4.3959000e-01   2.8444600e-01   1.5299400e-01
   5.3282300e-01   1.0962700e-01   5.1432000e-02
   6.6498000e-01  -4.4625600e-02  -6.0193000e-02
   7.8688200e-01  -1.0492400e-01  -1.3437600e-01
   7.4842400e-01  -1.4943700e-02  -2.1066400e-01
   6.3118300e-01   1.8161100e-01  -3.2580000e-01
   4.9716200e-01   4.4197000e-01  -4.4467900e-01
   3.9460600e-01   6.3899200e-01  -5.2424400e-01
   3.7432800e-01   6.5745500e-01  -5.2096800e-01
   3.7409500e-01   5.3709200e-01  -4.1753300e-01
   4.0998900e-01   3.8400800e-01  -2.9795200e-01
   5.0625200e-01   3.0828500e-01  -1.8679500e-01
   6.0298100e-01   3.5713100e-01  -9.5061200e-02
   6.9644600e-01   4.2818000e-01   2.7569600e-03
   7.5634800e-01   4.7258600e-01   1.3310300e-01
   6.5122900e-01   5.9692300e-01   2.3326100e-01
   3.4589200e-01   8.1334300e-01   2.4262200e-01
   6.0599900e-02   9.4983300e-01   1.4176200e-01
   5.6637500e-02   8.4723200e-01   4.8857900e-02
   1.9835100e-01   5.9411800e-01  -1.5730200e-02
   2.2165900e-01   3.8284000e-01  -8.7104700e-02
   1.4940400e-01   2.5406300e-01  -1.4584200e-01
   8.5772700e-02   1.5823900e-01  -1.8164700e-01
   1.3308800e-01   6.4986900e-02  -1.5028900e-01
   3.0230500e-01  -1.4943700e-02  -9.8805400e-02
   4.3586100e-01  -3.2706100e-02  -7.0489600e-02
   4.0602700e-01   3.7535000e-03  -4.0067700e-02
   3.4426000e-01   4.7925700e-02   4.3475500e-02
   3.9740300e-01   1.3253100e-01   1.5205800e-01
   4.7432000e-01   2.8795100e-01   1.9932900e-01
   4.9436500e-01   4.3542600e-01   1.6165300e-01
   4.0882400e-01   5.1044800e-01   9.1214500e-02
   3.4659100e-01   5.1675900e-01   2.7562500e-02
   2.8296000e-01   5.5555500e-01   4.3950700e-03
   4.2419500e-02   7.3411400e-01   4.0901400e-02
  -1.4614300e-01   9.2576000e-01   4.6283700e-02
  -2.7923300e-01   9.9914700e-01   1.2116800e-01
  -5.5077300e-01   1.1926600e+00   3.6477800e-01
  -8.8804200e-01   1.9001200e+00   8.0706500e-01
  -1.1407000e+00   2.9721700e+00   1.4665200e+00
  -1.2211200e+00   3.5665100e+00   2.0457100e+00
  -1.2607400e+00   2.7774900e+00   2.2460200e+00
  -1.4157400e+00   6.3945900e-01   1.8205800e+00
  -1.2162200e+00  -1.8150200e+00   6.2898000e-01
  -2.6757900e-01  -3.7151200e+00  -8.4765200e-01
   7.6637100e-01  -4.6612000e+00  -1.7968200e+00
   1.4576900e+00  -4.7584300e+00  -2.0104700e+00
   1.9520600e+00  -4.3496600e+00  -1.7724800e+00
   2.1352600e+00  -3.2392800e+00  -1.2532000e+00
   1.9247900e+00  -1.2629800e+00  -5.2798800e-01
   1.4698100e+00   1.0010200e+00   3.3716400e-01
