**************************************************************************************
  	RED ACELEROGRÁFICA DE LA UNIVERSIDAD AUTONOMA METROPOLITANA (RA-UAM)
	   UNIDAD AZCAPOTZALCO. DIVISIÓN CBI-DEPARTAMENTO DE MATERIALES
     Av. San Pablo 420, Col. Nueva el Rosario, Azcapotzalco, C.P. 02128, Ciudad de México
		Área de Estructuras. e-mail: agb@azc.uam.mx
**************************************************************************************
ARCHIVO ESTANDAR DE ACELERACION:
VERSION DEL FORMATO                    : 2.0
NOMBRE DEL ARCHIVO                     : RIDX202204.181
FECHA Y HORA DE CREACION               : 11:30 a. m. 22/04/2022
REF. CATALOGO ACELEROGRAMAS, SMIS 1999 : REGISTRO NO.      /PAG.    


================================================================================
DATOS DE LA ESTACION:
NOMBRE DE LA ESTACION                  : UAM-XOCHIMILCO.
CLAVE DE LA ESTACION                   : RIDX
LOCALIZACION DE LA ESTACION            : CALZADA DEL HUESO 1100, COL. VILLA
                                       : QUIETUD, DEL. COYOACAN, C.P.04960,  
                                       : CIUDAD DE MEXICO.
                                       : 
                                       : 
COORDENADAS DE LA ESTACION             : 19.301345 LAT. N
                                       : 99.10268 LONG. W
ALTITUD (msnm)                         : 2232
TIPO DE SUELO                          : LAGO
                                       : 
                                       : 
INSTITUCION RESPONSABLE                : UNIVERSIDAD AUTONOMA METROPOLITANA
                                       : 

================================================================================
DATOS DEL ACELEROGRAFO: 
MODELO DEL ACELEROGRAFO                : BASALT KINEMETRICS
NUMERO DE SERIE DEL ACELEROGRAFO       : 1729
NUMERO DE CANALES                      : 3
ORIENTACION C1-C6 (rumbo;orientacion)  : /V/N00E/N90E
ORIENTACION C7-C12 (rumbo;orientacion) : 
VEL. DE MUESTREO, C1-C6 (muestras/s)   : /200/200/200
VEL. DE MUESTREO, C7-C12 (muestras/s)  : 
ESC. COMPLETA DE SENSORES, C1-C6, (g)  : /2/2/2
ESC. COMPLETA DE SENSORES, C7-C12 (g)  : 
FREC. NAT. DE SENSORES, C1-C6, (Hz)    : /208/210/200   
FREC. NAT. DE SENSORES, C7-C12 (Hz)    : 
AMORTIGUAMIENTO DE SENSORES, C1-C6     : /0.7/0.7/0.7      
AMORTIGUAMIENTO DE SENSORES, C7-C12    : 
INTERVALO DE MUESTREO, C1-C6 (s)       : /0.005/0.005/0.005
INTERVALO DE MUESTREO, C7-C12 (s)      : 
UMBRAL DE DISPARO, C1-C6 (Gal)         : /2/2/2
UMBRAL DE DISPARO, C7-C12 (Gal)        : 
MEMORIA DE PREEVENTO (s)               : 60
TIEMPO DE POSEVENTO (s)                : 80


================================================================================
DATOS DEL SISMO:
FECHA DEL SISMO [GMT]                  : 2022/04/18
HORA EPICENTRO (GMT)                   : 12:27:28
MAGNITUD(ES)                           : /M=4.5
COORDENADAS DEL EPICENTRO              : 17.9700 LAT. N
                                       : -100.3200 LONG. W
PROFUNDIDAD FOCAL (Km)                 : 47.0
FUENTE DE LOS DATOS EPICENTRALES       : SSN
                                       : INSTITUTO DE GEOFISICA, UNAM

================================================================================
DATOS DE ESTE REGISTRO:
HORA DE LA PRIMERA MUESTRA (GMT)       : 12:27:51.000
EXACTITUD DEL TIEMPO (s)               : 
DURACION DEL REGISTRO (s), C1-C6       : /141/141/141
DURACION DEL REGISTRO (s), C7-C12      : 
NUM. TOTAL DE MUESTRAS, C1-C6          : /28200/28200/28200
NUM. TOTAL DE MUESTRAS, C7-C12         : 
ACEL. MAX.(Gal), C1-C6                 : /-0.363/0.505/-0.504
ACEL. MAX., C1-C6, EN LA MUESTRA       : /1992/12094/9025
ACEL. MAX.(Gal), C7-C12                : 
ACEL. MAX., C7-C12,EN LA MUESTRA       : 
UNIDADES DE LOS DATOS                  : Gal (cm/s/s)
FACTOR DE DECIMACION                   : 1
FORMATO DATOS (FORTRAN,16 campos/dato) : 3E16.7


================================================================================
CALIDAD DEL ACELEROGRAMA:
REGISTRO DIGITAL COMPLETO CON TIEMPO ABSOLUTO CORRECTO


================================================================================
COMENTARIOS:














================================================================================
DATOS DE ACELERACION:
---------+---------+---------+---------+---------+---------+---------+---------+
   CANAL-1   	      CANAL-2          CANAL-3
      V                 N00E             N90E
---------+---------+---------+---------+---------+---------+---------+---------+ 
[...]
  -3.7088800e-02  -1.0031600e-01  -4.4711300e-02
  -5.4569900e-02  -1.1457200e-01  -4.8923500e-02
  -6.4825500e-02  -1.3069900e-01  -5.9220200e-02
  -7.1818000e-02  -1.3093200e-01  -5.5241900e-02
  -8.7201400e-02  -1.1994800e-01  -5.7582100e-02
  -1.0165200e-01  -1.2298600e-01  -7.5133200e-02
  -1.1260700e-01  -1.1994800e-01  -7.3027000e-02
  -1.2286300e-01  -1.2018200e-01  -7.9111400e-02
  -1.2053200e-01  -1.2392100e-01  -8.7770000e-02
  -1.1843400e-01  -1.1971400e-01  -8.0749500e-02
  -1.2332900e-01  -1.1597500e-01  -8.5195800e-02
  -1.3032100e-01  -1.0218500e-01  -8.4259700e-02
  -1.4197600e-01  -1.0732700e-01  -9.1982200e-02
  -1.4244200e-01  -1.2228500e-01  -1.0461900e-01
  -1.4850200e-01  -1.2602400e-01  -1.0040700e-01
  -1.6714800e-01  -1.4612400e-01  -1.1163900e-01
  -1.7833600e-01  -1.5500500e-01  -1.1421400e-01
  -1.9185500e-01  -1.5360300e-01  -1.1632000e-01
  -2.1026800e-01  -1.6645700e-01  -1.3738100e-01
  -2.2635100e-01  -1.8211600e-01  -1.3995500e-01
  -2.4220100e-01  -1.9684000e-01  -1.4884800e-01
  -2.6108000e-01  -2.0689000e-01  -1.5657000e-01
  -2.7576400e-01  -2.2839200e-01  -1.5633600e-01
  -2.8671900e-01  -2.2815800e-01  -1.6756900e-01
  -2.9930600e-01  -2.2512000e-01  -1.6616500e-01
  -3.0023800e-01  -2.4218100e-01  -1.6663300e-01
  -3.0047100e-01  -2.3750700e-01  -1.6733500e-01
  -3.0956100e-01  -2.5129600e-01  -1.5984600e-01
  -3.1562100e-01  -2.6298200e-01  -1.5633600e-01
  -3.1026000e-01  -2.5784000e-01  -1.3855100e-01
  -3.0699700e-01  -2.5129600e-01  -1.2006400e-01
  -3.1468900e-01  -2.3633800e-01  -1.1515000e-01
  -3.1282400e-01  -2.3306600e-01  -1.0157700e-01
  -3.0676400e-01  -2.2138000e-01  -8.5195800e-02
  -3.0047100e-01  -2.3072900e-01  -6.9984900e-02
  -2.8811800e-01  -2.3446800e-01  -4.3073200e-02
  -2.7926100e-01  -2.1436900e-01  -2.3415900e-02
  -2.6644100e-01  -2.1460200e-01  -7.5029300e-03
  -2.5245600e-01  -1.9964500e-01   1.1920300e-02
  -2.4080200e-01  -1.8632300e-01   3.1811500e-02
  -2.2914800e-01  -1.8608900e-01   5.8021200e-02
  -2.1586200e-01  -1.7931100e-01   7.8848500e-02
  -1.9884700e-01  -1.6645700e-01   1.0154800e-01
  -1.8882500e-01  -1.4916200e-01   1.2050300e-01
  -1.8206600e-01  -1.4659100e-01   1.3665000e-01
  -1.6947900e-01  -1.4028100e-01   1.4507500e-01
  -1.5293000e-01  -1.3467200e-01   1.5256300e-01
  -1.3847900e-01  -1.4378700e-01   1.7339000e-01
  -1.2099800e-01  -1.3934600e-01   1.7596500e-01
  -9.4660000e-02  -1.2719300e-01   1.8415500e-01
  -7.1351800e-02  -1.2415500e-01   1.9562200e-01
  -5.9231600e-02  -1.1948000e-01   1.9281400e-01
  -5.3870700e-02  -1.1270300e-01   1.9421800e-01
  -3.8720400e-02  -1.1153400e-01   1.9047300e-01
  -1.8442300e-02  -1.1270300e-01   1.8930300e-01
  -7.2543900e-03  -1.0872900e-01   1.8298500e-01
  -2.3596800e-03  -9.9380900e-02   1.8298500e-01
   1.3696300e-03  -8.8630000e-02   1.8509100e-01
   2.7681200e-03  -7.9515100e-02   1.7105000e-01
   1.6027100e-03  -7.3204700e-02   1.6917800e-01
   7.6628300e-03  -7.3905900e-02   1.6613600e-01
   1.5354500e-02  -7.2269900e-02   1.6379600e-01
   2.3279300e-02  -5.2637800e-02   1.7128400e-01
   3.2835600e-02  -3.4641700e-02   1.7011400e-01
   3.5399500e-02  -1.8982800e-02   1.6403000e-01
   4.0993500e-02   2.9864300e-03   1.5583900e-01
   5.2181400e-02   9.7641800e-03   1.5045700e-01
   6.6632500e-02   1.7476800e-02   1.4250000e-01
   8.1549700e-02   2.9396300e-02   1.3618200e-01
   9.3669900e-02   3.8043700e-02   1.3150200e-01
   1.0602300e-01   6.0013000e-02   1.1769500e-01
   1.1045200e-01   7.3101000e-02   1.0365400e-01
   1.1185000e-01   7.6840500e-02   9.3825400e-02
   1.1511300e-01   8.4786800e-02   8.3528800e-02
   1.1767700e-01   8.8993700e-02   7.0892000e-02
   1.2630100e-01   9.7641100e-02   6.4105600e-02
   1.3399300e-01   1.1072900e-01   5.4276900e-02
   1.3818800e-01   1.2568700e-01   3.9066000e-02
   1.4471500e-01   1.3410100e-01   2.4323100e-02
   1.4960900e-01   1.3363300e-01   1.2856300e-02
   1.5310600e-01   1.3947600e-01   7.4740100e-03
   1.5217300e-01   1.4882500e-01  -7.1650800e-04
   1.5287300e-01   1.5934200e-01  -2.5886300e-03
   1.5846700e-01   1.7827300e-01  -9.3750500e-03
   1.5706800e-01   1.9556800e-01  -1.5459400e-02
   1.5054200e-01   1.9884000e-01  -1.1949200e-02
   1.4891000e-01   2.0281300e-01  -1.6629500e-02
   1.5100800e-01   2.0865600e-01  -7.7369500e-03
   1.5567000e-01   2.1356400e-01   2.3256800e-03
   1.5916600e-01   2.3226100e-01   2.1955100e-04
   1.5939900e-01   2.4628400e-01   9.8141500e-03
   1.6219600e-01   2.4955600e-01   2.0344800e-02
   1.6848900e-01   2.5306200e-01   2.7131200e-02
   1.7245100e-01   2.5399700e-01   3.8832000e-02
   1.7594800e-01   2.4745300e-01   4.0002000e-02
   1.8480500e-01   2.3810400e-01   3.6257800e-02
   1.9319600e-01   2.4534900e-01   5.0532700e-02
   1.8993300e-01   2.4254500e-01   4.6788500e-02
   1.8177500e-01   2.2945700e-01   3.9066000e-02
   1.8970000e-01   2.2618500e-01   5.3106900e-02
   1.9785700e-01   2.1473200e-01   4.6320400e-02
   1.9016600e-01   2.1146000e-01   4.9362600e-02
   1.8527100e-01   2.0912300e-01   5.8021200e-02
   1.9039900e-01   2.0094300e-01   4.7022500e-02
   1.9529300e-01   1.9276300e-01   4.2576200e-02
   1.9436100e-01   1.7079400e-01   3.5555800e-02
   1.9925600e-01   1.4438400e-01   3.1343500e-02
   2.0718100e-01   1.1540300e-01   2.9471400e-02
   2.1300800e-01   8.3150800e-02   2.9003400e-02
   2.1533800e-01   6.4453600e-02   2.8769300e-02
   2.0997800e-01   5.1131800e-02   9.3461200e-03
   2.0415100e-01   3.0798600e-02  -5.1627900e-03
   1.9902300e-01   8.8293200e-03  -7.2689200e-03
   1.9972200e-01  -1.5009600e-02  -8.2049800e-03
   1.9692500e-01  -2.9266300e-02  -4.2267300e-03
   1.8550400e-01  -4.0017200e-02  -6.5668800e-03
   1.8014300e-01  -5.3105200e-02  -1.5459400e-02
   1.7664700e-01  -5.2637800e-02  -2.6458100e-02
   1.6918800e-01  -6.5725900e-02  -3.7924800e-02
   1.6406100e-01  -8.7461400e-02  -4.7051400e-02
   1.5846700e-01  -9.1200800e-02  -4.8455500e-02
   1.4168500e-01  -1.0545700e-01  -5.0093600e-02
   1.2047400e-01  -1.1410500e-01  -5.3603800e-02
   1.0532400e-01  -1.2181800e-01  -5.4071900e-02
   8.9940600e-02  -1.4098200e-01  -5.8986200e-02
   6.9429400e-02  -1.5149900e-01  -5.3135800e-02
   4.7286700e-02  -1.8164900e-01  -4.9859600e-02
   2.9572500e-02  -2.0431900e-01  -5.4773900e-02
   1.6753000e-02  -2.1600500e-01  -5.4071900e-02
   9.5274800e-03  -2.3961000e-01  -5.4071900e-02
   3.9335200e-03  -2.4755600e-01  -5.7582100e-02
  -8.1867200e-03  -2.5597000e-01  -6.4134500e-02
  -2.4968600e-02  -2.7677100e-01  -7.0452900e-02
  -4.3148900e-02  -2.9102700e-01  -7.9579500e-02
  -5.4569900e-02  -3.0061000e-01  -8.6131900e-02
  -5.8299200e-02  -3.1276300e-01  -9.0578100e-02
  -7.1818000e-02  -3.1790500e-01  -9.2216200e-02
  -9.2096100e-02  -3.3309600e-01  -9.8300600e-02
  -1.0887800e-01  -3.4945600e-01  -1.0134300e-01
  -1.2216400e-01  -3.5740300e-01  -8.6599900e-02
  -1.4011100e-01  -3.7002300e-01  -7.8643400e-02
  -1.6505100e-01  -3.6511500e-01  -6.7176700e-02
  -1.8136600e-01  -3.5646800e-01  -5.1263700e-02
  -1.9372000e-01  -3.4992400e-01  -4.3541200e-02
  -2.1073500e-01  -3.4080900e-01  -2.5990100e-02
  -2.2705000e-01  -3.3122600e-01  -1.1715200e-02
  -2.4173400e-01  -3.2631800e-01  -3.5246800e-03
  -2.5059200e-01  -3.2468200e-01   8.1760500e-03
  -2.5408800e-01  -3.0762100e-01   8.4100600e-03
  -2.5828300e-01  -2.9640300e-01   8.6440800e-03
  -2.6667400e-01  -2.8284700e-01   9.5801400e-03
  -2.7366700e-01  -2.6929200e-01   5.8359000e-03
  -2.7366700e-01  -2.6789000e-01   1.4494400e-02
  -2.7087000e-01  -2.5526900e-01   2.5025100e-02
  -2.6923800e-01  -2.3961000e-01   2.6195200e-02
  -2.6923800e-01  -2.2067900e-01   2.5259100e-02
  -2.6550900e-01  -2.0455300e-01   1.9642800e-02
  -2.6457600e-01  -1.9380200e-01   6.7719600e-03
  -2.6667400e-01  -1.8164900e-01   4.6658300e-03
  -2.5571900e-01  -1.7580600e-01   1.3896200e-03
  -2.3753900e-01  -1.6552200e-01  -1.2885300e-02
  -2.2751600e-01  -1.5313500e-01  -1.4991400e-02
  -2.2145600e-01  -1.4145000e-01  -2.2947900e-02
  -2.1166700e-01  -1.2438800e-01  -4.0265000e-02
  -2.0141100e-01  -1.1854600e-01  -5.4305900e-02
  -1.9255400e-01  -1.1223500e-01  -6.9516800e-02
  -1.8509600e-01  -9.9147100e-02  -7.8877400e-02
  -1.8253200e-01  -9.2836800e-02  -8.8238000e-02
  -1.7507300e-01  -7.2269900e-02  -9.8534600e-02
  -1.5619300e-01  -5.7312100e-02  -9.9470700e-02
  -1.3894500e-01  -5.5442400e-02  -1.0368300e-01
  -1.3614800e-01  -4.4224100e-02  -1.1140500e-01
  -1.4290800e-01  -4.8430900e-02  -1.0976700e-01
  -1.3568200e-01  -3.7680000e-02  -1.0485300e-01
  -1.2123100e-01  -2.2488500e-02  -1.0040700e-01
  -1.0981000e-01  -1.6645600e-02  -9.4322400e-02
  -9.7456900e-02   1.0465300e-02  -9.2216200e-02
  -9.1163700e-02   2.0047600e-02  -9.0578100e-02
  -8.3239000e-02   2.4955700e-02  -7.3027000e-02
  -7.3915700e-02   2.6124200e-02  -6.3900500e-02
  -6.7855600e-02   2.3319700e-02  -6.2964400e-02
  -5.9231600e-02   3.7108900e-02  -4.8923500e-02
  -5.3637600e-02   4.1082000e-02  -3.9562900e-02
  -5.9464700e-02   4.4587800e-02  -3.1606400e-02
  -6.7156300e-02   3.6875100e-02  -2.2011800e-02
  -7.1584900e-02   3.0331100e-02  -1.3821300e-02
  -7.8810400e-02   2.9396300e-02  -3.9927100e-03
  -8.4171300e-02   1.8411600e-02   9.2159500e-04
  -8.4637500e-02   2.2852200e-02   1.1920300e-02
  -8.5802900e-02   2.3319700e-02   2.3855000e-02
  -8.3239000e-02   2.1449900e-02   2.7599300e-02
  -7.3449500e-02   2.7994000e-02   3.9768000e-02
  -6.6923300e-02   3.1967100e-02   5.9425300e-02
  -5.6201500e-02   4.1549500e-02   6.8551800e-02
  -3.7321900e-02   4.9963200e-02   7.4636200e-02
  -2.7066300e-02   6.5154700e-02   8.7975100e-02
  -2.0773100e-02   7.9411300e-02   9.3591400e-02
  -1.1216800e-02   8.7825100e-02   1.0342000e-01
   2.7681200e-03   9.9277100e-02   1.1980100e-01
   1.6753000e-02   1.1563700e-01   1.2986400e-01
   2.3512400e-02   1.4368300e-01   1.4530900e-01
   2.8174000e-02   1.7874000e-01   1.5443500e-01
   3.3768000e-02   2.2454900e-01   1.6473200e-01
   4.0993500e-02   2.5773600e-01   1.8251700e-01
   4.4256600e-02   2.8531400e-01   1.9749400e-01
   4.6354400e-02   3.2060500e-01   2.1434300e-01
   5.1016000e-02   3.5028700e-01   2.2300200e-01
   5.1948300e-02   3.8417600e-01   2.3119200e-01
   6.4301600e-02   4.0754800e-01   2.4102100e-01
   8.1316600e-02   4.2507600e-01   2.4663700e-01
   8.6677500e-02   4.3465900e-01   2.4897700e-01
   9.1572200e-02   4.3793100e-01   2.4874300e-01
   9.2970700e-02   4.4774700e-01   2.5178500e-01
   9.2970700e-02   4.5265500e-01   2.5529600e-01
   9.6933100e-02   4.7041700e-01   2.4944500e-01
   1.0415900e-01   4.8911400e-01   2.3423400e-01
   1.0858700e-01   4.9706100e-01   2.1995900e-01
   1.0928600e-01   5.0150100e-01   2.0849300e-01
   1.2164000e-01   4.9846300e-01   1.8930300e-01
   1.3469200e-01   5.0196900e-01   1.7128400e-01
   1.4075200e-01   5.0524100e-01   1.6192400e-01
   1.4588000e-01   5.0290300e-01   1.4039400e-01
   1.5100800e-01   4.9706100e-01   1.1558900e-01
   1.6196300e-01   4.7859700e-01   1.0154800e-01
   1.6779000e-01   4.5779600e-01   7.9784500e-02
   1.6872200e-01   4.3769700e-01   5.3106900e-02
   1.7781200e-01   4.2016800e-01   3.2747600e-02
   1.8224100e-01   4.1315700e-01   1.2856300e-02
   1.8014300e-01   3.9843300e-01  -8.6730100e-03
   1.8270700e-01   3.7249000e-01  -3.4648600e-02
   1.8900000e-01   3.4421100e-01  -5.5475900e-02
   1.9645900e-01   3.0868600e-01  -6.9984900e-02
   2.0228600e-01   2.7433000e-01  -8.7301900e-02
   2.0741400e-01   2.4675100e-01  -1.0555500e-01
   2.1277500e-01   2.2828800e-01  -1.1866000e-01
   2.1673700e-01   2.1122700e-01  -1.4229500e-01
   2.1906800e-01   1.7874000e-01  -1.7693000e-01
   2.2512800e-01   1.3854100e-01  -1.8839600e-01
   2.3002300e-01   9.3901700e-02  -2.1507400e-01
   2.2372900e-01   5.5338700e-02  -2.3988000e-01
   2.1743600e-01   2.0748800e-02  -2.4479400e-01
   2.1370700e-01  -1.4308500e-02  -2.7451400e-01
   2.1394000e-01  -4.7729800e-02  -2.8832100e-01
   2.1510500e-01  -9.1434500e-02  -3.0446800e-01
   2.0251900e-01  -1.2602400e-01  -3.2365700e-01
   1.8597000e-01  -1.6505500e-01  -3.1991300e-01
   1.7268500e-01  -2.0221600e-01  -3.2576300e-01
   1.5870000e-01  -2.2418500e-01  -3.2108300e-01
   1.4611300e-01  -2.5784000e-01  -3.1640200e-01
   1.3725600e-01  -2.7910800e-01  -3.2459300e-01
   1.2653400e-01  -3.0832200e-01  -3.1336000e-01
   1.0625600e-01  -3.4758600e-01  -2.9885100e-01
   8.9241400e-02  -3.6651700e-01  -2.9019300e-01
   7.4557200e-02  -3.8287700e-01  -2.6866300e-01
   5.9873100e-02  -3.9222600e-01  -2.5509000e-01
   4.3324300e-02  -3.9900400e-01  -2.4994200e-01
   2.2813100e-02  -4.1255900e-01  -2.3683700e-01
   1.3256800e-02  -4.2237500e-01  -2.2724300e-01
  -4.9235700e-03  -4.2424500e-01  -2.0641500e-01
  -2.7299400e-02  -4.2728300e-01  -1.8348200e-01
  -3.8254200e-02  -4.2985400e-01  -1.6967500e-01
  -5.2472200e-02  -4.2891900e-01  -1.4721000e-01
  -6.6457100e-02  -4.3663200e-01  -1.3082900e-01
  -8.2073600e-02  -4.4457800e-01  -1.1866000e-01
  -1.0211900e-01  -4.4714900e-01  -9.5726500e-02
  -1.1936700e-01  -4.4107300e-01  -7.0920900e-02
  -1.2892300e-01  -4.2354400e-01  -6.0624300e-02
  -1.3521600e-01  -4.0180800e-01  -4.2839200e-02
  -1.4500600e-01  -3.7516500e-01  -2.5054000e-02
  -1.5735900e-01  -3.4735300e-01  -2.4352000e-02
  -1.6505100e-01  -3.2678600e-01  -2.1206000e-03
  -1.6365200e-01  -3.1463300e-01   7.7080200e-03
  -1.6272000e-01  -2.9056000e-01   1.7536600e-02
  -1.6644900e-01  -2.6905800e-01   3.6725800e-02
  -1.7437400e-01  -2.4966000e-01   2.9237400e-02
  -1.8229900e-01  -2.2956000e-01   4.1406100e-02
  -1.8369700e-01  -2.3049500e-01   5.1936800e-02
  -1.8556200e-01  -2.1974400e-01   4.9596600e-02
  -1.8835900e-01  -2.1273300e-01   6.5275600e-02
  -1.9092300e-01  -1.9660600e-01   7.5572300e-02
  -1.9931400e-01  -1.6365300e-01   6.9019900e-02
  -2.0840400e-01  -1.4425400e-01   6.5275600e-02
  -2.0956900e-01  -1.1644200e-01   5.9659300e-02
  -2.0980200e-01  -1.0686000e-01   5.3106900e-02
  -2.1003500e-01  -1.0195200e-01   5.5915000e-02
  -2.0747100e-01  -8.3721900e-02   4.9362600e-02
  -2.1562900e-01  -7.5308200e-02   5.0064700e-02
  -2.2471900e-01  -6.4323600e-02   4.6788500e-02
  -2.2565200e-01  -4.5392600e-02   3.2747600e-02
  -2.3590700e-01  -3.9549700e-02   2.6195200e-02
  -2.5199000e-01  -4.6093800e-02   1.2856300e-02
  -2.6900500e-01  -4.2354300e-02   1.3090400e-02
  -2.8205800e-01  -4.9365800e-02   1.9408800e-02
  -2.8625300e-01  -5.1936700e-02   2.1280900e-02
  -2.9860600e-01  -4.4224100e-02   1.7770700e-02
  -3.1468900e-01  -4.9599500e-02   4.6658300e-03
  -3.2074900e-01  -5.2637800e-02   2.0916700e-03
  -3.2074900e-01  -6.6427000e-02   4.1978000e-03
  -3.1655400e-01  -7.8112800e-02   1.5664500e-02
  -3.1399000e-01  -8.3488200e-02   2.2685000e-02
  -3.1305700e-01  -1.0195200e-01   1.6132500e-02
  -3.0839600e-01  -1.1200100e-01   6.7719600e-03
  -3.0559900e-01  -1.2228500e-01  -3.5246800e-03
  -2.9744100e-01  -1.4308600e-01  -7.1650800e-04
  -2.8252400e-01  -1.4939600e-01   1.6236400e-03
  -2.7226800e-01  -1.5103200e-01   5.8359000e-03
  -2.6131300e-01  -1.5009700e-01   1.1218200e-02
  -2.4779500e-01  -1.3747600e-01   1.3558400e-02
  -2.2635100e-01  -1.3467200e-01   2.8535300e-02
  -2.0211100e-01  -1.3046500e-01   3.1577500e-02
  -1.8975700e-01  -1.2766000e-01   3.4385700e-02
  -1.7833600e-01  -1.2789400e-01   4.8894600e-02
  -1.5619300e-01  -1.1176800e-01   5.2872900e-02
  -1.3311800e-01  -9.7043700e-02   7.1828000e-02
  -1.1657000e-01  -8.5825400e-02   8.7507000e-02
