**************************************************************************************
  	RED ACELEROGRÁFICA DE LA UNIVERSIDAD AUTONOMA METROPOLITANA (RA-UAM)
	   UNIDAD AZCAPOTZALCO. DIVISIÓN CBI-DEPARTAMENTO DE MATERIALES
     Av. San Pablo 420, Col. Nueva el Rosario, Azcapotzalco, C.P. 02128, Ciudad de México
		Área de Estructuras. e-mail: agb@azc.uam.mx
**************************************************************************************
ARCHIVO ESTANDAR DE ACELERACION:
VERSION DEL FORMATO                    : 2.0
NOMBRE DEL ARCHIVO                     : RIDX202209.192
FECHA Y HORA DE CREACION               : 11:40 a. m. 26/09/2022
REF. CATALOGO ACELEROGRAMAS, SMIS 1999 : REGISTRO NO.      /PAG.    


================================================================================
DATOS DE LA ESTACION:
NOMBRE DE LA ESTACION                  : UAM-XOCHIMILCO.
CLAVE DE LA ESTACION                   : RIDX
LOCALIZACION DE LA ESTACION            : CALZADA DEL HUESO 1100, COL. VILLA
                                       : QUIETUD, DEL. COYOACAN, C.P.04960,  
                                       : CIUDAD DE MEXICO.
                                       : 
                                       : 
COORDENADAS DE LA ESTACION             : 19.301345 LAT. N
                                       : 99.10268 LONG. W
ALTITUD (msnm)                         : 2232
TIPO DE SUELO                          : LAGO
                                       : 
                                       : 
INSTITUCION RESPONSABLE                : UNIVERSIDAD AUTONOMA METROPOLITANA
                                       : 

================================================================================
DATOS DEL ACELEROGRAFO: 
MODELO DEL ACELEROGRAFO                : BASALT KINEMETRICS
NUMERO DE SERIE DEL ACELEROGRAFO       : 1729
NUMERO DE CANALES                      : 3
ORIENTACION C1-C6 (rumbo;orientacion)  : /V/N00E/N90E
ORIENTACION C7-C12 (rumbo;orientacion) : 
VEL. DE MUESTREO, C1-C6 (muestras/s)   : /200/200/200
VEL. DE MUESTREO, C7-C12 (muestras/s)  : 
ESC. COMPLETA DE SENSORES, C1-C6, (g)  : /2/2/2
ESC. COMPLETA DE SENSORES, C7-C12 (g)  : 
FREC. NAT. DE SENSORES, C1-C6, (Hz)    : /208/210/200   
FREC. NAT. DE SENSORES, C7-C12 (Hz)    : 
AMORTIGUAMIENTO DE SENSORES, C1-C6     : /0.7/0.7/0.7      
AMORTIGUAMIENTO DE SENSORES, C7-C12    : 
INTERVALO DE MUESTREO, C1-C6 (s)       : /0.005/0.005/0.005
INTERVALO DE MUESTREO, C7-C12 (s)      : 
UMBRAL DE DISPARO, C1-C6 (Gal)         : /2/2/2
UMBRAL DE DISPARO, C7-C12 (Gal)        : 
MEMORIA DE PREEVENTO (s)               : 60
TIEMPO DE POSEVENTO (s)                : 80


================================================================================
DATOS DEL SISMO:
FECHA DEL SISMO [GMT]                  : 2022/09/19
HORA EPICENTRO (GMT)                   : 19:30:42
MAGNITUD(ES)                           : /M=5.3
COORDENADAS DEL EPICENTRO              : 18.4500 LAT. N
                                       : -103.8800 LONG. W
PROFUNDIDAD FOCAL (Km)                 : 6.0
FUENTE DE LOS DATOS EPICENTRALES       : SSN
                                       : INSTITUTO DE GEOFISICA, UNAM

================================================================================
DATOS DE ESTE REGISTRO:
HORA DE LA PRIMERA MUESTRA (GMT)       : 19:32:21.000
EXACTITUD DEL TIEMPO (s)               : 
DURACION DEL REGISTRO (s), C1-C6       : /251/251/251
DURACION DEL REGISTRO (s), C7-C12      : 
NUM. TOTAL DE MUESTRAS, C1-C6          : /50200/50200/50200
NUM. TOTAL DE MUESTRAS, C7-C12         : 
ACEL. MAX.(Gal), C1-C6                 : /-0.906/1.564/-0.742
ACEL. MAX., C1-C6, EN LA MUESTRA       : /33945/34054/33751
ACEL. MAX.(Gal), C7-C12                : 
ACEL. MAX., C7-C12,EN LA MUESTRA       : 
UNIDADES DE LOS DATOS                  : Gal (cm/s/s)
FACTOR DE DECIMACION                   : 1
FORMATO DATOS (FORTRAN,16 campos/dato) : 3E16.7


================================================================================
CALIDAD DEL ACELEROGRAMA:
REGISTRO DIGITAL COMPLETO CON TIEMPO ABSOLUTO CORRECTO


================================================================================
COMENTARIOS:














================================================================================
DATOS DE ACELERACION:
---------+---------+---------+---------+---------+---------+---------+---------+
   CANAL-1   	      CANAL-2          CANAL-3
      V                 N00E             N90E
---------+---------+---------+---------+---------+---------+---------+---------+
[...]
  -6.0469500e-03  -5.2379700e-04  -3.2520700e-02
   9.3364300e-03  -8.0026900e-03  -4.0945200e-02
   9.5695200e-03  -1.8052400e-02  -2.4096200e-02
   1.5163500e-02  -2.8569600e-02  -1.3967300e-03
   3.2411500e-02  -2.6699900e-02   1.8026500e-02
   3.8704700e-02  -6.6003900e-03   2.9727200e-02
   5.6185800e-02   9.0585300e-03   2.8791200e-02
   6.2012900e-02  -1.1274700e-02   7.2618100e-03
   1.1259200e-01  -7.7689700e-03  -1.3565500e-02
   1.3333600e-01   7.9406800e-02   1.0538000e-02
   7.3666900e-02   1.5349500e-01   3.0663300e-02
   5.9215900e-02   2.1402700e-01   1.8260500e-02
  -2.8888900e-02   4.7111400e-01   5.2894700e-02
  -3.2024100e-01   9.0115000e-01   1.7060400e-01
  -7.4911100e-01   1.0605400e+00   2.5110500e-01
  -8.8686200e-01   5.4333200e-01   1.4088400e-01
  -4.2792500e-01  -4.5556700e-01  -1.3010500e-01
   1.7202700e-01  -1.2826900e+00  -3.5241900e-01
   4.7829600e-01  -1.5570700e+00  -3.7956400e-01
   4.7922900e-01  -1.3175100e+00  -2.9274500e-01
   3.3518400e-01  -7.8487200e-01  -1.7948200e-01
   2.2400500e-01  -2.5948000e-01  -5.5688100e-02
   2.3216200e-01   6.9824500e-02   1.6454600e-03
   3.2399700e-01   2.3295800e-01  -1.8011800e-02
   3.3774800e-01   3.8019800e-01  -4.0243200e-02
   2.3682400e-01   5.7862300e-01   4.2196200e-03
   8.2990200e-02   8.2308900e-01   1.5001100e-01
  -1.0464000e-01   1.0198800e+00   3.0165200e-01
  -2.4192500e-01   9.5864400e-01   3.3862700e-01
  -2.7152700e-01   6.0129300e-01   2.7684700e-01
  -2.4379000e-01   1.0534900e-01   1.9517600e-01
  -2.2351200e-01  -3.3426900e-01   1.5375500e-01
  -2.0859500e-01  -6.5095300e-01   1.3363000e-01
  -1.5452000e-01  -8.4680700e-01   9.9931600e-02
  -7.3174400e-02  -8.5849300e-01   8.0508400e-02
   9.1033500e-03  -7.1849700e-01   7.0913800e-02
   9.6975100e-02  -4.7753700e-01   3.8619800e-02
   1.6293700e-01  -1.6576000e-01  -1.5437600e-02
   1.7808700e-01   1.4157500e-01  -3.4626800e-02
   1.4685500e-01   3.5565800e-01  -1.1693400e-02
   1.1049400e-01   4.2577300e-01   1.0772000e-02
   1.1235800e-01   4.1595700e-01   3.8385800e-02
   1.1632100e-01   3.8931300e-01   5.1022600e-02
   8.2291000e-02   3.6617500e-01   5.5468800e-02
   1.1201100e-02   3.3836300e-01   6.6701500e-02
  -6.8279700e-02   2.5726400e-01   7.5594100e-02
  -1.1839200e-01   1.1516500e-01   9.1039100e-02
  -1.3820400e-01  -6.1523500e-02   9.1507100e-02
  -1.1652800e-01  -2.2909700e-01   6.1319200e-02
  -7.1076700e-02  -3.3310100e-01   4.9216600e-03
  -4.2407700e-02  -3.4876000e-01  -5.1943900e-02
  -1.9099500e-02  -2.7747600e-01  -7.1601100e-02
   5.1409700e-03  -1.6155400e-01  -4.0945200e-02
   1.9592000e-02  -6.3860600e-02   6.7937800e-03
   3.6140800e-02  -5.4318200e-03   3.1365300e-02
   5.8749700e-02   1.7706000e-02   3.4641500e-02
   7.1802300e-02   3.0794100e-02   2.5749000e-02
   6.6208300e-02   6.1644500e-02   2.8557100e-02
   4.2667100e-02   1.0651800e-01   4.5874200e-02
   7.9379400e-03   1.4624900e-01   6.4595400e-02
  -2.6325000e-02   1.6564800e-01   8.7996900e-02
  -5.1497800e-02   1.7336000e-01   1.0484600e-01
  -7.7369900e-02   1.6260900e-01   1.0999400e-01
  -1.0044500e-01   1.2778600e-01   1.0788800e-01
  -1.1466300e-01   8.3847400e-02   1.1139800e-01
  -1.2678300e-01   2.0510600e-02   1.1701500e-01
  -1.2072300e-01  -5.4278300e-02   1.1373800e-01
  -9.0888600e-02  -1.0920100e-01   1.0882400e-01
  -6.5016600e-02  -1.3304000e-01   9.9931600e-02
  -5.6392600e-02  -1.3257300e-01   8.0742400e-02
  -5.4061700e-02  -1.0756500e-01   6.6233500e-02
  -4.8001600e-02  -6.6197800e-02   5.1256600e-02
  -2.9588200e-02  -2.1090700e-02   3.0429300e-02
  -3.0168900e-03   3.0092900e-02   1.7090400e-02
   5.3740500e-03   6.8188500e-02   3.9856100e-03
  -1.1407800e-02   9.0157700e-02   3.9856100e-03
  -3.8212200e-02   1.0254500e-01   1.7090400e-02
  -5.5227200e-02   1.0348000e-01   3.7683700e-02
  -5.8723400e-02   1.0441400e-01   6.5531500e-02
  -6.4783500e-02   9.6000600e-02   7.3019900e-02
  -7.6903700e-02   7.5901100e-02   7.6764200e-02
  -9.4151800e-02   4.8089000e-02   7.8636300e-02
  -1.0790400e-01   1.9575700e-02   7.4892100e-02
  -1.0860300e-01  -2.3935200e-03   7.8168300e-02
  -1.0370800e-01  -2.4129000e-02   7.5126100e-02
  -9.6715700e-02  -4.1891400e-02   6.7637600e-02
  -9.4617900e-02  -5.8485200e-02   5.9447100e-02
  -9.3452500e-02  -6.9937200e-02   4.9618500e-02
  -8.1332300e-02  -6.9236100e-02   4.6576300e-02
  -5.5227200e-02  -5.6148000e-02   5.4532800e-02
  -3.1919000e-02  -3.8853100e-02   6.7637600e-02
  -2.8888900e-02  -2.9037100e-02   7.0913800e-02
  -2.9355100e-02  -1.3611900e-02   7.1147800e-02
  -3.5182100e-02   8.3573800e-03   7.3254000e-02
  -3.2851300e-02   2.5418600e-02   6.6935600e-02
  -2.4227300e-02   2.7989500e-02   5.1256600e-02
  -1.9565700e-02   1.6303700e-02   3.2535400e-02
  -1.3272500e-02  -3.5621000e-03   2.1302700e-02
  -1.7934100e-02  -3.0906800e-02   9.6019600e-03
  -1.3853200e-03  -5.0538900e-02   5.8577200e-03
   1.2832700e-02  -5.6381700e-02   1.0304000e-02
   4.2667100e-02  -6.5029200e-02   6.5597700e-03
   5.7584300e-02  -8.5362400e-02   9.8359700e-03
   6.8772200e-02  -1.1177200e-01   7.4958300e-03
   1.3823100e-01  -1.1224000e-01   8.4318800e-03
   7.3433900e-02  -5.9420000e-02   3.1833400e-02
   5.8050500e-02  -7.0872100e-02   4.3768100e-02
   2.0116300e-01  -1.2836600e-01   4.4470100e-02
   1.9020800e-01   4.2246100e-02   3.8385800e-02
  -2.5625800e-02   4.9378400e-01   9.8359700e-03
  -4.7710500e-01   1.0367000e+00  -1.4969600e-02
  -9.0550900e-01   1.2145600e+00  -3.6030900e-02
  -8.1740400e-01   6.0199400e-01  -6.6920800e-02
  -2.3050400e-01  -4.9085800e-01  -8.5408000e-02
   3.8226700e-01  -1.3362100e+00  -8.4940000e-02
   5.9693500e-01  -1.5023800e+00  -7.4409300e-02
   4.3774000e-01  -1.1232900e+00  -2.7840400e-02
   2.4451600e-01  -6.1893400e-01   7.6296100e-02
   2.5244000e-01  -2.6158400e-01   1.3737400e-01
   3.8856000e-01  -8.2557900e-02   9.5953400e-02
   4.8202600e-01   9.2922400e-03  -2.7372400e-02
   4.6501100e-01   1.7476300e-01  -1.4906000e-01
   3.2865800e-01   5.3959200e-01  -1.3806100e-01
   1.0000500e-01   1.0046900e+00  -7.9491400e-03
  -1.8109100e-01   1.3375000e+00   1.4299000e-01
  -4.0694700e-01   1.2968300e+00   2.2747000e-01
  -4.6708200e-01   8.3126900e-01   2.2349100e-01
  -4.0158600e-01   1.6214200e-01   1.5820100e-01
  -2.9833100e-01  -4.4621900e-01   1.0648400e-01
  -2.0463200e-01  -8.8560400e-01   1.0554800e-01
  -1.1233200e-01  -1.1749400e+00   1.2450300e-01
   1.6095800e-02  -1.2653900e+00   1.6381800e-01
   1.3636600e-01  -1.1102000e+00   1.7083800e-01
   1.9603500e-01  -7.6594100e-01   1.1303600e-01
   2.0652300e-01  -3.2749100e-01   1.8494500e-02
   1.8018500e-01   8.5483400e-02  -6.4814700e-02
   1.2214800e-01   3.7014900e-01  -1.0249100e-01
   6.7373700e-02   5.2767300e-01  -1.1044800e-01
   4.0802400e-02   6.1484900e-01  -1.1091600e-01
   1.0268800e-02   6.6065700e-01  -1.0366100e-01
  -4.2407700e-02   6.6229300e-01  -6.8324900e-02
  -9.0888600e-02   5.6857300e-01  -6.7790700e-03
  -1.1676100e-01   3.5869700e-01   6.3659300e-02
  -1.1652800e-01   7.4732500e-02   1.1982300e-01
  -9.5783300e-02  -2.0923200e-01   1.3737400e-01
  -6.0354900e-02  -4.0368300e-01   1.1139800e-01
  -1.9798800e-02  -4.6608500e-01   6.2021200e-02
   1.0734900e-02  -4.1420000e-01   1.5920400e-02
   3.7306200e-02  -2.8705900e-01  -2.2665900e-04
   6.2479000e-02  -1.4425900e-01   9.1339300e-03
   8.2757100e-02  -4.3527400e-02   7.0940000e-04
   1.0513300e-01   2.3782600e-02  -3.5328900e-02
   1.1865200e-01   6.7487300e-02  -8.7982200e-02
   1.1865200e-01   1.0161000e-01  -1.1934000e-01
   9.4411200e-02   1.3573200e-01  -1.0810700e-01
   4.5930200e-02   1.4578200e-01  -7.1835200e-02
   9.5695200e-03   1.4017300e-01  -2.0351900e-02
  -1.0941700e-02   1.1867100e-01   1.6856400e-02
  -2.3994200e-02   9.4364600e-02   4.1193900e-02
  -3.7746000e-02   7.8939400e-02   5.2192600e-02
  -5.9888800e-02   5.9307300e-02   4.2364000e-02
  -7.5039100e-02   3.8039200e-02   4.0725900e-02
  -8.4362300e-02   2.7482200e-03   3.5577600e-02
  -8.1565400e-02  -3.6515900e-02   1.9196600e-02
  -5.8956500e-02  -5.9186300e-02  -4.6729400e-03
  -3.7746000e-02  -6.3626900e-02  -3.4392800e-02
  -2.8888900e-02  -5.9653800e-02  -5.6156200e-02
  -2.5625800e-02  -4.9837700e-02  -6.4112700e-02
  -1.5836400e-02  -3.0205600e-02  -6.3878700e-02
   3.0432300e-03  -2.3935200e-03  -6.0134400e-02
   1.3998100e-02   3.5000900e-02  -5.1475900e-02
   1.3765000e-02   6.4449000e-02  -5.1709900e-02
   8.6371900e-03   8.8288000e-02  -3.2286700e-02
  -6.2800300e-03   9.6000600e-02  -5.1409700e-03
  -1.4204800e-02   9.1560000e-02   5.3896900e-03
  -6.0469500e-03   1.0090900e-01   2.1302700e-02
  -5.1146200e-03   9.5533200e-02   2.4578900e-02
  -1.9565700e-02   8.1977700e-02   2.9259200e-02
  -3.8911400e-02   6.7019900e-02   3.7449700e-02
  -4.9633200e-02   4.9491300e-02   3.8385800e-02
  -4.8001600e-02   3.7805500e-02   4.1193900e-02
  -4.7069300e-02   7.8899500e-03   3.4641500e-02
  -4.8700900e-02  -2.3895300e-02   2.2940800e-02
  -5.3362500e-02  -4.4462300e-02   9.3679400e-03
  -6.5016600e-02  -5.8017800e-02  -5.1409700e-03
  -6.2452700e-02  -5.6148000e-02  -1.1693400e-02
  -3.7513000e-02  -5.4979500e-02  -7.9491400e-03
  -7.4454400e-03  -4.9136600e-02  -1.6307500e-03
   5.1409700e-03  -4.1424000e-02   7.7298400e-03
   4.4417200e-03  -2.9971900e-02   1.6154400e-02
   1.3065700e-02  -5.1981000e-03   1.9898600e-02
   2.0058200e-02   2.0276900e-02   2.5515000e-02
   1.5396600e-02   3.7805500e-02   2.8089100e-02
   2.8101500e-03   2.0276900e-02   1.7558500e-02
   2.0757400e-02  -9.8724100e-03   6.0917400e-03
   3.6140800e-02  -1.2677000e-02  -3.5028600e-03
  -1.3505600e-02   2.1912900e-02  -2.1288000e-02
  -2.8189700e-02   4.2479800e-02  -3.1584600e-02
   4.6748000e-03   8.8248100e-03  -4.2349300e-02
   1.2599600e-02  -4.4969600e-03  -5.7092200e-02
   1.6795000e-02  -1.8052400e-02  -6.7622900e-02
   4.1967800e-02  -6.4094400e-02  -5.7560300e-02
   1.1305800e-01  -8.8868200e-02  -1.2395400e-02
   1.6293700e-01   4.3842200e-03   9.1339300e-03
   3.8937800e-02   3.6243600e-01  -3.6030900e-02
  -3.2700000e-01   8.9039900e-01  -1.5912300e-01
  -7.6123100e-01   1.1734300e+00  -2.8432000e-01
  -8.4327600e-01   7.7307400e-01  -2.4945200e-01
  -4.0181900e-01  -2.5761100e-01  -6.9027000e-02
   1.9510200e-01  -1.2018200e+00   8.6358800e-02
   4.8622100e-01  -1.4591400e+00   1.2684300e-01
   3.7550800e-01  -1.1515700e+00   1.2286500e-01
   2.1141800e-01  -7.4373800e-01   1.8932500e-01
   2.9299700e-01  -5.1656700e-01   2.7146400e-01
   4.6081500e-01  -4.1373200e-01   2.0617400e-01
   5.3143900e-01  -3.0692500e-01  -3.7368800e-03
   5.3050700e-01  -1.3140400e-01  -2.0662800e-01
   4.6664200e-01   2.4791600e-01  -2.8595900e-01
   2.9532700e-01   8.2192000e-01  -2.3775200e-01
   1.6095800e-02   1.3510500e+00  -1.4274200e-01
  -2.6500100e-01   1.5644300e+00  -8.6812100e-02
  -4.2442800e-01   1.3379600e+00  -8.4237900e-02
  -4.2885700e-01   8.0509300e-01  -6.9963000e-02
  -3.4867700e-01   1.8341000e-01   2.4137100e-04
  -2.4518900e-01  -4.0485100e-01   1.2660900e-01
  -9.6948700e-02  -9.1388300e-01   2.7333700e-01
   7.6463900e-02  -1.2539400e+00   3.6998500e-01
   2.0838800e-01  -1.2990500e+00   3.5547600e-01
   2.7574900e-01  -1.0211600e+00   2.3238400e-01
   2.7761300e-01  -5.4882000e-01   7.3488000e-02
   2.2773400e-01  -1.0289100e-01  -6.5750800e-02
   1.6247100e-01   2.0140600e-01  -1.7035500e-01
   1.1002800e-01   3.8370400e-01  -2.3611300e-01
   7.5531600e-02   4.9565400e-01  -2.7262000e-01
   4.9659500e-02   5.8469900e-01  -2.6302500e-01
   1.7727400e-02   6.2419700e-01  -2.0639400e-01
  -2.2595700e-02   5.6646900e-01  -1.1746800e-01
  -5.0565500e-02   4.0263500e-01  -6.7790700e-03
  -4.1009200e-02   1.5279300e-01   8.6358800e-02
  -5.5807800e-03  -1.0990300e-01   1.3690600e-01
   2.6118300e-02  -3.2468700e-01   1.3152400e-01
   4.2900200e-02  -4.4341400e-01   8.9635000e-02
   5.1291100e-02  -4.4481700e-01   4.7278300e-02
   6.3178300e-02  -3.6138000e-01   1.1708100e-02
   8.7651800e-02  -2.4125100e-01  -1.2161400e-02
   1.1795200e-01  -1.3444300e-01  -4.6093500e-02
   1.3030600e-01  -4.8902900e-02  -1.0155500e-01
   1.1981700e-01   1.9575700e-02  -1.6941900e-01
   1.0187000e-01   7.6368500e-02  -2.0967000e-01
   8.1824800e-02   1.0862100e-01  -1.9352300e-01
   6.7373700e-02   9.5766900e-02  -1.4204000e-01
   6.2479000e-02   6.8655900e-02  -6.9027000e-02
   4.9193400e-02   3.8272900e-02  -1.3967300e-03
   1.4930400e-02   1.9108300e-02   4.1896000e-02
  -1.4904000e-02   2.9625500e-02   6.8105600e-02
  -2.6092000e-02   5.6269000e-02   8.5422700e-02
  -3.5182100e-02   7.8939400e-02   9.0103000e-02
  -4.0776100e-02   7.8472000e-02   8.8932900e-02
  -4.6836200e-02   5.2295900e-02   6.5999500e-02
  -4.9167000e-02   1.1162000e-02   2.1302700e-02
  -3.5415200e-02  -2.1090700e-02  -1.9181800e-02
  -2.1197200e-02  -4.8902900e-02  -6.5516800e-02
  -1.6302500e-02  -7.5780100e-02  -9.6640700e-02
  -2.1663400e-02  -9.3075000e-02  -1.1021400e-01
  -1.9332600e-02  -1.0382600e-01  -1.0436300e-01
  -2.5507200e-03  -8.2090400e-02  -7.3473300e-02
   1.4116600e-03  -5.1707400e-02  -4.7965700e-02
  -7.2123600e-03  -2.9738200e-02  -1.9181800e-02
  -1.8400300e-02  -5.6366400e-05   1.2410100e-02
  -2.7956600e-02   1.6070000e-02   2.9961200e-02
  -2.8422800e-02   3.5234600e-02   3.8151700e-02
  -3.2385200e-02   5.4399300e-02   3.6045600e-02
  -4.6370100e-02   5.8138700e-02   1.7324400e-02
  -5.9189500e-02   5.3698100e-02   4.2196200e-03
  -5.7558000e-02   3.8506700e-02  -2.8008200e-03
  -4.5204600e-02   2.7288300e-02  -8.4171700e-03
  -3.9610700e-02   1.0694500e-02  -1.2395400e-02
  -4.4971600e-02  -1.5481600e-02  -1.7543700e-02
  -5.9655700e-02  -3.9554200e-02  -1.4969600e-02
  -7.1076700e-02  -6.2692100e-02  -2.4564200e-02
  -5.6625600e-02  -6.5496600e-02  -2.1288000e-02
  -2.3295000e-02  -5.2408600e-02  -9.3532300e-03
  -5.8138700e-03  -4.2826300e-02  -6.5450500e-03
   1.1785800e-03  -3.2542800e-02   2.8155300e-03
   7.4717800e-03  -1.9221000e-02  -2.3327900e-03
   6.3063700e-03   6.9550900e-03  -1.0991300e-02
   2.4719800e-02   1.9809400e-02  -1.5671600e-02
   3.6840100e-02   1.2798000e-02  -9.5872500e-03
   9.5695200e-03   7.6562400e-03  -1.0991300e-02
   2.1109100e-03  -2.8335900e-02  -1.2161400e-02
   1.6095800e-02  -7.6948700e-02   8.1978700e-03
   2.3554400e-02  -1.0078800e-01   1.1474100e-02
   3.7539300e-02  -1.0476100e-01   1.6622400e-02
   2.9381400e-02  -1.0242400e-01   9.8359700e-03
   4.0802400e-02  -1.1294100e-01   8.8999100e-03
   5.0591900e-02  -9.4711100e-02   1.4282300e-02
   2.0524300e-02  -4.4462300e-02  -1.8947800e-02
   6.1313600e-02  -4.0956500e-02  -1.7075700e-02
   1.0350100e-01  -9.0504200e-02  -2.3327900e-03
   1.3193700e-01  -1.4075300e-01   7.2618100e-03
   2.1165100e-01  -1.4075300e-01   4.7512300e-02
   1.8041800e-01   2.4951200e-02   1.3112200e-02
  -9.8114200e-02   4.3886100e-01  -1.8229000e-01
  -5.2978100e-01   8.6492400e-01  -4.4579100e-01
  -7.5540400e-01   8.3220400e-01  -5.3097200e-01
  -5.5635200e-01   2.0748300e-01  -3.2503900e-01
  -7.5738300e-02  -6.4020300e-01   2.5749000e-02
   3.4590600e-01  -1.2034600e+00   3.2458600e-01
   4.5079300e-01  -1.2207500e+00   4.5563400e-01
   3.6781600e-01  -8.5966100e-01   4.6733500e-01
   2.8950000e-01  -4.3687000e-01   3.9479000e-01
   2.5453800e-01  -1.4075300e-01   2.0336600e-01
   2.5034300e-01   1.1395700e-02  -3.9307100e-02
   2.6549300e-01   1.2942200e-01  -2.3236900e-01
   2.7784600e-01   2.9793100e-01  -2.8595900e-01
