**************************************************************************************
  	RED ACELEROGRÁFICA DE LA UNIVERSIDAD AUTONOMA METROPOLITANA (RA-UAM)
	   UNIDAD AZCAPOTZALCO. DIVISIÓN CBI-DEPARTAMENTO DE MATERIALES
     Av. San Pablo 420, Col. Nueva el Rosario, Azcapotzalco, C.P. 02128, Ciudad de México
		Área de Estructuras. e-mail: agb@azc.uam.mx
**************************************************************************************
ARCHIVO ESTANDAR DE ACELERACION:
VERSION DEL FORMATO                    : 2.0
NOMBRE DEL ARCHIVO                     : RIDX202208.121
FECHA Y HORA DE CREACION               : 11:30 a. m. 17/08/2022
REF. CATALOGO ACELEROGRAMAS, SMIS 1999 : REGISTRO NO.      /PAG.    


================================================================================
DATOS DE LA ESTACION:
NOMBRE DE LA ESTACION                  : UAM-XOCHIMILCO.
CLAVE DE LA ESTACION                   : RIDX
LOCALIZACION DE LA ESTACION            : CALZADA DEL HUESO 1100, COL. VILLA
                                       : QUIETUD, DEL. COYOACAN, C.P.04960,  
                                       : CIUDAD DE MEXICO.
                                       : 
                                       : 
COORDENADAS DE LA ESTACION             : 19.301345 LAT. N
                                       : 99.10268 LONG. W
ALTITUD (msnm)                         : 2232
TIPO DE SUELO                          : LAGO
                                       : 
                                       : 
INSTITUCION RESPONSABLE                : UNIVERSIDAD AUTONOMA METROPOLITANA
                                       : 

================================================================================
DATOS DEL ACELEROGRAFO: 
MODELO DEL ACELEROGRAFO                : BASALT KINEMETRICS
NUMERO DE SERIE DEL ACELEROGRAFO       : 1729
NUMERO DE CANALES                      : 3
ORIENTACION C1-C6 (rumbo;orientacion)  : /V/N00E/N90E
ORIENTACION C7-C12 (rumbo;orientacion) : 
VEL. DE MUESTREO, C1-C6 (muestras/s)   : /200/200/200
VEL. DE MUESTREO, C7-C12 (muestras/s)  : 
ESC. COMPLETA DE SENSORES, C1-C6, (g)  : /2/2/2
ESC. COMPLETA DE SENSORES, C7-C12 (g)  : 
FREC. NAT. DE SENSORES, C1-C6, (Hz)    : /208/210/200   
FREC. NAT. DE SENSORES, C7-C12 (Hz)    : 
AMORTIGUAMIENTO DE SENSORES, C1-C6     : /0.7/0.7/0.7      
AMORTIGUAMIENTO DE SENSORES, C7-C12    : 
INTERVALO DE MUESTREO, C1-C6 (s)       : /0.005/0.005/0.005
INTERVALO DE MUESTREO, C7-C12 (s)      : 
UMBRAL DE DISPARO, C1-C6 (Gal)         : /2/2/2
UMBRAL DE DISPARO, C7-C12 (Gal)        : 
MEMORIA DE PREEVENTO (s)               : 60
TIEMPO DE POSEVENTO (s)                : 80


================================================================================
DATOS DEL SISMO:
FECHA DEL SISMO [GMT]                  : 2022/08/12
HORA EPICENTRO (GMT)                   : 08:17:25
MAGNITUD(ES)                           : /M=5.1
COORDENADAS DEL EPICENTRO              : 18.2800 LAT. N
                                       : -100.9800 LONG. W
PROFUNDIDAD FOCAL (Km)                 : 56.0
FUENTE DE LOS DATOS EPICENTRALES       : SSN
                                       : INSTITUTO DE GEOFISICA, UNAM

================================================================================
DATOS DE ESTE REGISTRO:
HORA DE LA PRIMERA MUESTRA (GMT)       : 08:17:28.000
EXACTITUD DEL TIEMPO (s)               : 
DURACION DEL REGISTRO (s), C1-C6       : /216/216/216
DURACION DEL REGISTRO (s), C7-C12      : 
NUM. TOTAL DE MUESTRAS, C1-C6          : /43200/43200/43200
NUM. TOTAL DE MUESTRAS, C7-C12         : 
ACEL. MAX.(Gal), C1-C6                 : /0.673/-0.994/0.925
ACEL. MAX., C1-C6, EN LA MUESTRA       : /16795/15248/15944
ACEL. MAX.(Gal), C7-C12                : 
ACEL. MAX., C7-C12,EN LA MUESTRA       : 
UNIDADES DE LOS DATOS                  : Gal (cm/s/s)
FACTOR DE DECIMACION                   : 1
FORMATO DATOS (FORTRAN,16 campos/dato) : 3E16.7


================================================================================
CALIDAD DEL ACELEROGRAMA:
REGISTRO DIGITAL COMPLETO CON TIEMPO ABSOLUTO CORRECTO


================================================================================
COMENTARIOS:














================================================================================
DATOS DE ACELERACION:
---------+---------+---------+---------+---------+---------+---------+---------+
   CANAL-1   	      CANAL-2          CANAL-3
      V                 N00E             N90E
---------+---------+---------+---------+---------+---------+---------+---------+
[...]
   2.0596200e-01   8.5375100e-02  -1.8654300e-01
   2.0223300e-01   6.7846400e-02  -1.7016200e-01
   1.9267700e-01   5.0317800e-02  -1.5167500e-01
   1.7869200e-01   3.6294900e-02  -1.2967700e-01
   1.7146600e-01   1.9701100e-02  -1.0908400e-01
   1.4862400e-01   5.9118900e-03  -8.2406400e-02
   1.2974500e-01  -5.5401600e-03  -5.7132800e-02
   1.2182000e-01  -2.4003700e-02  -3.3263300e-02
   1.0410600e-01  -3.6858000e-02  -7.9897200e-03
   9.1752500e-02  -4.8777500e-02   1.3071600e-02
   8.0098400e-02  -6.2333000e-02   3.1792800e-02
   6.3083500e-02  -7.0045600e-02   5.4258200e-02
   5.0030900e-02  -8.3367300e-02   6.9937200e-02
   3.7444500e-02  -9.1781100e-02   8.2105900e-02
   2.2993500e-02  -9.6922800e-02   9.9189000e-02
   1.2971000e-02  -1.0673900e-01   1.0363500e-01
  -1.0139300e-03  -1.0977700e-01   1.1299600e-01
  -2.0126600e-02  -1.0673900e-01   1.2586700e-01
  -3.4577700e-02  -1.0370100e-01   1.2844100e-01
  -5.0194100e-02  -1.0183100e-01   1.3405700e-01
  -6.9306800e-02  -9.1781100e-02   1.3850300e-01
  -8.7021000e-02  -8.3133600e-02   1.4248200e-01
  -1.0263700e-01  -7.4018700e-02   1.4318400e-01
  -1.1988600e-01  -6.1631800e-02   1.4061000e-01
  -1.4109600e-01  -5.2984400e-02   1.4037600e-01
  -1.5997600e-01  -3.5923100e-02   1.3897100e-01
  -1.7232900e-01  -2.5639700e-02   1.3616300e-01
  -1.7815600e-01  -1.4888800e-02   1.3592900e-01
  -1.8025400e-01  -1.3332900e-03   1.3733300e-01
  -1.7908800e-01   4.9770300e-03   1.3780100e-01
  -1.7023100e-01   1.3390800e-02   1.3826900e-01
  -1.6650200e-01   1.5727900e-02   1.3967400e-01
  -1.5717900e-01   2.2973100e-02   1.4224800e-01
  -1.3829900e-01   2.8114800e-02   1.4154600e-01
  -1.3060700e-01   2.9750800e-02   1.4388600e-01
  -1.1755500e-01   4.2371500e-02   1.4833200e-01
  -1.0217100e-01   4.2371500e-02   1.4575800e-01
  -9.4712700e-02   4.8448100e-02   1.4482200e-01
  -8.1660100e-02   5.9900100e-02   1.4341800e-01
  -6.8840700e-02   5.8497800e-02   1.3265300e-01
  -5.9284300e-02   6.4574400e-02   1.2282400e-01
  -5.1359500e-02   6.7145300e-02   1.1697400e-01
  -4.6464800e-02   6.7379000e-02   1.0386900e-01
  -3.9705500e-02   6.1769800e-02   8.6552200e-02
  -3.1547600e-02   5.5225800e-02   7.4383400e-02
  -2.6886000e-02   4.8448100e-02   6.0108500e-02
  -3.0382200e-02   2.9283400e-02   4.7237700e-02
  -3.3412300e-02   1.1754800e-02   3.2260800e-02
  -3.5043800e-02  -8.8121700e-03   1.9156000e-02
  -4.2502400e-02  -2.9612800e-02   1.9156000e-02
  -4.6931000e-02  -5.6022700e-02   1.1901500e-02
  -5.7652700e-02  -7.7991900e-02   1.4475700e-02
  -6.6276800e-02  -9.5520500e-02   2.3836300e-02
  -6.8607600e-02  -1.2403400e-01   2.2198200e-02
  -8.3757900e-02  -1.3642100e-01   3.6941100e-02
  -9.2848000e-02  -1.4904100e-01   5.2620100e-02
  -9.5411900e-02  -1.6820600e-01   6.5490900e-02
  -1.0613400e-01  -1.7848900e-01   8.8424300e-02
  -1.1475800e-01  -1.9531700e-01   1.0738000e-01
  -1.1825400e-01  -2.0957400e-01   1.2820700e-01
  -1.2408100e-01  -2.2219400e-01   1.5652300e-01
  -1.2641200e-01  -2.4252700e-01   1.8156200e-01
  -1.2454700e-01  -2.6192600e-01   2.0636800e-01
  -1.2781000e-01  -2.8623200e-01   2.3023700e-01
  -1.3317100e-01  -3.0726700e-01   2.5270300e-01
  -1.3293800e-01  -3.2689900e-01   2.7470000e-01
  -1.3363700e-01  -3.4910200e-01   2.9037900e-01
  -1.3899800e-01  -3.6639700e-01   3.0254800e-01
  -1.4132900e-01  -3.8135400e-01   3.1401400e-01
  -1.3503600e-01  -3.9374100e-01   3.1682300e-01
  -1.2827600e-01  -4.0799800e-01   3.1261000e-01
  -1.2781000e-01  -4.0542700e-01   3.1729100e-01
  -1.1592300e-01  -4.0612800e-01   3.0863200e-01
  -9.9374300e-02  -4.0776400e-01   2.9225100e-01
  -8.5156400e-02  -3.9304000e-01   2.8593300e-01
  -6.2081300e-02  -3.8486000e-01   2.7423200e-01
  -3.8773100e-02  -3.6733100e-01   2.6674400e-01
  -9.1717800e-03  -3.5681400e-01   2.5714900e-01
   1.9963400e-02  -3.3858400e-01   2.5691500e-01
   5.2128700e-02  -3.1755000e-01   2.5738300e-01
   8.4993200e-02  -3.0563100e-01   2.5480900e-01
   1.1436100e-01  -2.7478000e-01   2.6791400e-01
   1.5864700e-01  -2.6239300e-01   2.6791400e-01
   1.9034600e-01  -2.4393000e-01   2.7236000e-01
   2.1295500e-01  -2.1845500e-01   2.8569900e-01
   2.4115800e-01  -2.0373100e-01   2.8991100e-01
   2.6097000e-01  -1.7498400e-01   2.9225100e-01
   2.7845100e-01  -1.5114500e-01   2.9435700e-01
   2.8544300e-01  -1.2122900e-01   2.9552700e-01
   2.9010500e-01  -8.8509100e-02   2.8991100e-01
   2.9406700e-01  -5.9762100e-02   2.8452900e-01
   2.8054900e-01  -2.7042000e-02   2.7446600e-01
   2.6563100e-01   2.6398700e-03   2.6276500e-01
   2.5281200e-01   3.0919400e-02   2.4708600e-01
   2.3136800e-01   5.9432700e-02   2.3000300e-01
   2.1062400e-01   8.6076200e-02   2.1385600e-01
   1.9081200e-01   1.0617600e-01   1.9045500e-01
   1.6866900e-01   1.2767800e-01   1.7758400e-01
   1.4815800e-01   1.4450500e-01   1.5558700e-01
   1.2601600e-01   1.5969700e-01   1.3241900e-01
   1.0667000e-01   1.7956200e-01   1.1276200e-01
   8.0797700e-02   1.9966200e-01   9.1466500e-02
   5.7256500e-02   2.2139700e-01   7.3915400e-02
   4.0008400e-02   2.4032800e-01   5.0513900e-02
   1.3204000e-02   2.6323200e-01   4.0919300e-02
  -7.5402100e-03   2.8566900e-01   2.5240400e-02
  -2.9683000e-02   3.0810600e-01   1.8219900e-02
  -5.5788100e-02   3.3147700e-01   1.5879800e-02
  -7.4201500e-02   3.5064200e-01   8.3913100e-03
  -9.4479600e-02   3.7167600e-01   1.7517900e-02
  -1.1102800e-01   3.8873800e-01   1.4709700e-02
  -1.2734400e-01   4.0556500e-01   2.5708400e-02
  -1.4202800e-01   4.2239300e-01   3.8345200e-02
  -1.5088500e-01   4.3477900e-01   4.6769700e-02
  -1.6556900e-01   4.5137300e-01   6.7129000e-02
  -1.6370500e-01   4.6282500e-01   7.4149400e-02
  -1.6207300e-01   4.7731600e-01   9.4274700e-02
  -1.6463700e-01   4.9601300e-01   1.0761400e-01
  -1.5205100e-01   5.0793200e-01   1.1580400e-01
  -1.5881000e-01   5.3504300e-01   1.3873700e-01
  -1.5671200e-01   5.5654500e-01   1.4529000e-01
  -1.4505800e-01   5.7313900e-01   1.5254400e-01
  -1.4925400e-01   6.0422300e-01   1.6354300e-01
  -1.4156200e-01   6.2198500e-01   1.6307500e-01
  -1.3037400e-01   6.4512300e-01   1.6190500e-01
  -1.2920900e-01   6.6919600e-01   1.6003300e-01
  -1.2314900e-01   6.8064800e-01   1.4856600e-01
  -1.1102800e-01   6.9817700e-01   1.3288700e-01
  -1.0403600e-01   7.0542200e-01   1.1486800e-01
  -8.4923300e-02   7.0659000e-01   8.6786200e-02
  -7.0705300e-02   7.0892700e-01   6.1746700e-02
  -5.9750500e-02   7.0121500e-01   3.2494800e-02
  -3.5510000e-02   6.9350200e-01   9.0283600e-04
  -1.7096600e-02   6.8041400e-01  -2.9051000e-02
  -1.0139300e-03   6.6335300e-01  -6.2047100e-02
   1.5534900e-02   6.4862900e-01  -8.4278500e-02
   5.0030900e-02   6.2198500e-01  -1.1750900e-01
   6.7279000e-02   5.9838000e-01  -1.4091000e-01
   8.4760100e-02   5.7430700e-01  -1.5612100e-01
   1.2415100e-01   5.4579400e-01  -1.8584100e-01
   1.3767000e-01   5.2452600e-01  -1.9730800e-01
   1.6657200e-01   4.9390900e-01  -2.1673100e-01
   1.8871400e-01   4.6492900e-01  -2.3170800e-01
   2.0316500e-01   4.3501300e-01  -2.3919600e-01
   2.3183500e-01   4.0392900e-01  -2.5159900e-01
   2.4465400e-01   3.7331200e-01  -2.4855700e-01
   2.7099200e-01   3.3755400e-01  -2.5136500e-01
   2.9033800e-01   3.0740500e-01  -2.4762100e-01
   3.0269100e-01   2.6954300e-01  -2.4364300e-01
   3.2133800e-01   2.3705600e-01  -2.3802600e-01
   3.3112700e-01   2.0153200e-01  -2.2726100e-01
   3.4394700e-01   1.6320200e-01  -2.2141100e-01
   3.5350300e-01   1.3352000e-01  -2.0877400e-01
   3.5956300e-01   9.8463100e-02  -1.9964800e-01
   3.6608900e-01   7.1819600e-02  -1.8888300e-01
   3.7238300e-01   4.1904000e-02  -1.8326700e-01
   3.7168300e-01   1.8298800e-02  -1.7601200e-01
   3.6935300e-01  -4.3715800e-03  -1.7343800e-01
   3.6888600e-01  -2.8210500e-02  -1.7531000e-01
   3.6445800e-01  -4.3635800e-02  -1.7156600e-01
   3.5909700e-01  -6.7007300e-02  -1.7975600e-01
   3.5536800e-01  -8.1731300e-02  -1.8396900e-01
   3.5000700e-01  -9.6455400e-02  -1.9145700e-01
   3.3322500e-01  -1.0860900e-01  -2.0035000e-01
   3.2087200e-01  -1.1912600e-01  -2.0760400e-01
   3.0455600e-01  -1.3268100e-01  -2.2117700e-01
   2.8171400e-01  -1.4460100e-01  -2.3287800e-01
   2.5910500e-01  -1.5839000e-01  -2.4528100e-01
   2.2903800e-01  -1.6727100e-01  -2.5838500e-01
   2.0433100e-01  -1.8573500e-01  -2.7593700e-01
   1.6983500e-01  -1.9485000e-01  -2.8225500e-01
   1.3347400e-01  -2.0723600e-01  -2.9419000e-01
   1.0154200e-01  -2.2780300e-01  -3.0986900e-01
   6.3316600e-02  -2.3621700e-01  -3.1150700e-01
   3.6512200e-02  -2.6262700e-01  -3.2554800e-01
   7.3770100e-03  -2.8342800e-01  -3.3210000e-01
  -2.2457400e-02  -2.9885300e-01  -3.3116400e-01
  -4.4367100e-02  -3.2128900e-01  -3.3397200e-01
  -7.0239100e-02  -3.3671500e-01  -3.2742000e-01
  -9.4945800e-02  -3.5471100e-01  -3.2203700e-01
  -1.1429200e-01  -3.7083700e-01  -3.1384700e-01
  -1.3387000e-01  -3.8976800e-01  -3.0284800e-01
  -1.5205100e-01  -4.0215500e-01  -2.9138100e-01
  -1.6417100e-01  -4.1500900e-01  -2.8155300e-01
  -1.8095300e-01  -4.2763000e-01  -2.6798000e-01
  -2.0053200e-01  -4.3323900e-01  -2.5627900e-01
  -2.1684700e-01  -4.4445700e-01  -2.4996100e-01
  -2.3665900e-01  -4.4889800e-01  -2.4013200e-01
  -2.6113300e-01  -4.5824700e-01  -2.4177000e-01
  -2.9143400e-01  -4.6268700e-01  -2.4247200e-01
  -3.1800500e-01  -4.6502400e-01  -2.4528100e-01
  -3.4574200e-01  -4.7320400e-01  -2.5136500e-01
  -3.7674100e-01  -4.7437300e-01  -2.5323700e-01
  -4.0121500e-01  -4.8372200e-01  -2.6283200e-01
  -4.3011700e-01  -4.8699400e-01  -2.6891600e-01
  -4.5598900e-01  -4.9470600e-01  -2.7991500e-01
  -4.7393600e-01  -5.0872900e-01  -2.9302000e-01
  -4.9607900e-01  -5.1340300e-01  -2.9699800e-01
  -5.1425900e-01  -5.2719300e-01  -3.0027400e-01
  -5.2195100e-01  -5.4285200e-01  -3.1220900e-01
  -5.3290600e-01  -5.5009700e-01  -3.1782500e-01
  -5.3500400e-01  -5.6809300e-01  -3.1946300e-01
  -5.3127400e-01  -5.9052900e-01  -3.2882400e-01
  -5.3127400e-01  -6.0408500e-01  -3.3022800e-01
  -5.1169600e-01  -6.2769000e-01  -3.3795000e-01
  -4.8955300e-01  -6.5526900e-01  -3.3912000e-01
  -4.6834200e-01  -6.7770500e-01  -3.3607800e-01
  -4.3664300e-01  -7.0294700e-01  -3.3912000e-01
  -4.0750800e-01  -7.3122600e-01  -3.3280200e-01
  -3.7511000e-01  -7.5787000e-01  -3.2625000e-01
  -3.4480900e-01  -7.8427900e-01  -3.1571900e-01
  -3.1404200e-01  -8.1536400e-01  -3.0401800e-01
  -2.7558400e-01  -8.4574700e-01  -2.8974300e-01
  -2.4108800e-01  -8.7519500e-01  -2.6961800e-01
  -2.0869000e-01  -8.9950100e-01  -2.4691900e-01
  -1.6766700e-01  -9.2661200e-01  -2.2655900e-01
  -1.3317100e-01  -9.5045100e-01  -2.0386000e-01
  -1.0147200e-01  -9.6681100e-01  -1.7554400e-01
  -6.2547500e-02  -9.8667700e-01  -1.5799300e-01
  -3.0615300e-02  -9.9018300e-01  -1.3225200e-01
   6.6777600e-03  -9.9392200e-01  -1.1025400e-01
   4.3504600e-02  -9.8901400e-01  -9.4809200e-02
   6.6579700e-02  -9.6914800e-01  -6.9301600e-02
   9.8278800e-02  -9.5816400e-01  -5.6196700e-02
   1.2415100e-01  -9.3175400e-01  -3.8645600e-02
   1.4349700e-01  -9.0698000e-01  -1.8286400e-02
   1.6936900e-01  -8.8244000e-01  -1.4373100e-03
   1.9337600e-01  -8.5205700e-01   1.9624000e-02
   2.2740600e-01  -8.2868500e-01   3.2962800e-02
   2.4791700e-01  -7.8825300e-01   5.6364300e-02
   2.6703000e-01  -7.5576600e-01   7.5553500e-02
   2.9849600e-01  -7.2374700e-01   8.8424300e-02
   3.1271400e-01  -6.8378200e-01   1.0644300e-01
   3.3718700e-01  -6.5223000e-01   1.1323000e-01
   3.5793200e-01  -6.1366700e-01   1.2633500e-01
   3.7145000e-01  -5.7697400e-01   1.3405700e-01
   3.9033000e-01  -5.3794400e-01   1.3733300e-01
   3.9778900e-01  -5.0031500e-01   1.4552400e-01
   4.0454800e-01  -4.6198600e-01   1.4950200e-01
   4.0571300e-01  -4.2505900e-01   1.5652300e-01
   4.0897600e-01  -3.9210500e-01   1.5816100e-01
   4.0454800e-01  -3.4980300e-01   1.6588300e-01
   3.9872100e-01  -3.1965300e-01   1.6986100e-01
   3.8846500e-01  -2.8296000e-01   1.7477600e-01
   3.6445800e-01  -2.4065800e-01   1.8788100e-01
   3.5327000e-01  -2.0723600e-01   1.8881700e-01
   3.2833000e-01  -1.6890700e-01   1.9677300e-01
   3.0572100e-01  -1.3291500e-01   2.0309200e-01
   2.8987200e-01  -9.4352000e-02   2.0566600e-01
   2.6493200e-01  -5.9061000e-02   2.1245200e-01
   2.5164600e-01  -2.4237400e-02   2.1385600e-01
   2.3300000e-01   1.3858200e-02   2.2087700e-01
   2.1621800e-01   4.6812100e-02   2.2438700e-01
   2.0060200e-01   7.9765900e-02   2.2415300e-01
   1.7612800e-01   1.1529100e-01   2.2813100e-01
   1.5771500e-01   1.4801100e-01   2.2368500e-01
   1.4070000e-01   1.7488800e-01   2.1760000e-01
   1.1715800e-01   2.0854300e-01   2.1806800e-01
   9.8511900e-02   2.3658900e-01   2.1549400e-01
   8.3128500e-02   2.5692200e-01   2.1338800e-01
   5.8421900e-02   2.7725500e-01   2.1221800e-01
   4.0474600e-02   2.8496800e-01   2.0824000e-01
   3.0685200e-02   2.9501800e-01   2.0753800e-01
   1.4602500e-02   2.9945800e-01   2.0777200e-01
   3.8456300e-04   2.9197900e-01   2.0285800e-01
  -1.5698100e-02   2.9221300e-01   2.0519800e-01
  -2.8284500e-02   2.8496800e-01   2.1175000e-01
  -3.3645300e-02   2.7375000e-01   2.0847400e-01
  -4.3900900e-02   2.6814000e-01   2.1572800e-01
  -4.9728000e-02   2.5762300e-01   2.1947300e-01
  -5.0893400e-02   2.4804100e-01   2.1853600e-01
  -5.4156500e-02   2.4173100e-01   2.2649300e-01
  -5.5788100e-02   2.3168100e-01   2.2134500e-01
  -5.6720400e-02   2.2186500e-01   2.2087700e-01
  -5.5788100e-02   2.1719000e-01   2.2064300e-01
  -5.3923400e-02   2.1251600e-01   2.1526000e-01
  -5.7652700e-02   2.0924400e-01   2.1315400e-01
  -6.3945900e-02   2.0737400e-01   2.0238900e-01
  -7.0006100e-02   2.0573800e-01   1.9770900e-01
  -7.4434600e-02   2.0737400e-01   1.8905100e-01
  -7.8630100e-02   2.0550500e-01   1.7781800e-01
  -8.1427100e-02   2.0527100e-01   1.7009500e-01
  -8.2592500e-02   2.0690700e-01   1.5886300e-01
  -9.3314200e-02   2.0971200e-01   1.6003300e-01
  -1.0193800e-01   2.0714100e-01   1.5301200e-01
  -1.0170500e-01   2.0176500e-01   1.4295000e-01
  -1.0729900e-01   2.0854300e-01   1.4435400e-01
  -1.1126100e-01   2.0386900e-01   1.3756700e-01
  -1.0496800e-01   1.9498800e-01   1.3171700e-01
  -1.0333700e-01   1.9592200e-01   1.3265300e-01
  -1.0753200e-01   1.8727500e-01   1.3382300e-01
  -1.0030700e-01   1.7956200e-01   1.3124900e-01
  -9.3081100e-02   1.7301800e-01   1.2797300e-01
  -9.0750300e-02   1.6226700e-01   1.2984500e-01
  -7.9562400e-02   1.5572300e-01   1.3078100e-01
  -6.9306800e-02   1.4941300e-01   1.3405700e-01
  -6.0449700e-02   1.4263500e-01   1.3756700e-01
  -4.5998700e-02   1.3842800e-01   1.4061000e-01
  -3.2713000e-02   1.3772700e-01   1.4903400e-01
  -1.4299600e-02   1.3655900e-01   1.5137400e-01
   8.3093400e-03   1.3679200e-01   1.4903400e-01
   2.0662700e-02   1.4076600e-01   1.5348000e-01
   3.4647500e-02   1.4614100e-01   1.5207600e-01
   5.8188800e-02   1.5151700e-01   1.4646000e-01
   7.0775200e-02   1.5852800e-01   1.4482200e-01
   7.4504500e-02   1.6717500e-01   1.3780100e-01
   8.4760100e-02   1.7278500e-01   1.2539900e-01
   8.8489400e-02   1.7956200e-01   1.1767600e-01
   8.8722500e-02   1.8096500e-01   1.0457100e-01
   8.7324000e-02   1.8540500e-01   9.0530500e-02
   8.1963100e-02   1.9265000e-01   8.1169900e-02
   7.8233800e-02   1.8750900e-01   6.0342600e-02
   6.1918100e-02   1.9054700e-01   5.1216000e-02
   5.1429400e-02   1.8844400e-01   3.7175100e-02
   4.2572300e-02   1.7956200e-01   1.3305600e-02
