**************************************************************************************
  	RED ACELEROGRÁFICA DE LA UNIVERSIDAD AUTONOMA METROPOLITANA (RA-UAM)
	   UNIDAD AZCAPOTZALCO. DIVISIÓN CBI-DEPARTAMENTO DE MATERIALES
     Av. San Pablo 420, Col. Nueva el Rosario, Azcapotzalco, C.P. 02128, Ciudad de México
		Área de Estructuras. e-mail: agb@azc.uam.mx
**************************************************************************************
ARCHIVO ESTANDAR DE ACELERACION:
VERSION DEL FORMATO                    : 2.0
NOMBRE DEL ARCHIVO                     : RIDX202203.061
FECHA Y HORA DE CREACION               : 11:30 a. m. 11/03/2022
REF. CATALOGO ACELEROGRAMAS, SMIS 1999 : REGISTRO NO.      /PAG.    


================================================================================
DATOS DE LA ESTACION:
NOMBRE DE LA ESTACION                  : UAM-XOCHIMILCO.
CLAVE DE LA ESTACION                   : RIDX
LOCALIZACION DE LA ESTACION            : CALZADA DEL HUESO 1100, COL. VILLA
                                       : QUIETUD, DEL. COYOACAN, C.P.04960,  
                                       : CIUDAD DE MEXICO.
                                       : 
                                       : 
COORDENADAS DE LA ESTACION             : 19.301345 LAT. N
                                       : 99.10268 LONG. W
ALTITUD (msnm)                         : 2232
TIPO DE SUELO                          : LAGO
                                       : 
                                       : 
INSTITUCION RESPONSABLE                : UNIVERSIDAD AUTONOMA METROPOLITANA
                                       : 

================================================================================
DATOS DEL ACELEROGRAFO: 
MODELO DEL ACELEROGRAFO                : BASALT KINEMETRICS
NUMERO DE SERIE DEL ACELEROGRAFO       : 1729
NUMERO DE CANALES                      : 3
ORIENTACION C1-C6 (rumbo;orientacion)  : /V/N00E/N90E
ORIENTACION C7-C12 (rumbo;orientacion) : 
VEL. DE MUESTREO, C1-C6 (muestras/s)   : /200/200/200
VEL. DE MUESTREO, C7-C12 (muestras/s)  : 
ESC. COMPLETA DE SENSORES, C1-C6, (g)  : /2/2/2
ESC. COMPLETA DE SENSORES, C7-C12 (g)  : 
FREC. NAT. DE SENSORES, C1-C6, (Hz)    : /208/210/200   
FREC. NAT. DE SENSORES, C7-C12 (Hz)    : 
AMORTIGUAMIENTO DE SENSORES, C1-C6     : /0.7/0.7/0.7      
AMORTIGUAMIENTO DE SENSORES, C7-C12    : 
INTERVALO DE MUESTREO, C1-C6 (s)       : /0.005/0.005/0.005
INTERVALO DE MUESTREO, C7-C12 (s)      : 
UMBRAL DE DISPARO, C1-C6 (Gal)         : /2/2/2
UMBRAL DE DISPARO, C7-C12 (Gal)        : 
MEMORIA DE PREEVENTO (s)               : 60
TIEMPO DE POSEVENTO (s)                : 80


================================================================================
DATOS DEL SISMO:
FECHA DEL SISMO [GMT]                  : 2022/03/06
HORA EPICENTRO (GMT)                   : 03:29:20
MAGNITUD(ES)                           : /M=5.6
COORDENADAS DEL EPICENTRO              : 16.7400 LAT. N
                                       : -95.2700 LONG. W
PROFUNDIDAD FOCAL (Km)                 : 88.0
FUENTE DE LOS DATOS EPICENTRALES       : SSN
                                       : INSTITUTO DE GEOFISICA, UNAM

================================================================================
DATOS DE ESTE REGISTRO:
HORA DE LA PRIMERA MUESTRA (GMT)       : 03:30:47.000
EXACTITUD DEL TIEMPO (s)               : 
DURACION DEL REGISTRO (s), C1-C6       : /171/171/171
DURACION DEL REGISTRO (s), C7-C12      : 
NUM. TOTAL DE MUESTRAS, C1-C6          : /34200/34200/34200
NUM. TOTAL DE MUESTRAS, C7-C12         : 
ACEL. MAX.(Gal), C1-C6                 : /-0.327/0.626/-0.706
ACEL. MAX., C1-C6, EN LA MUESTRA       : /15576/12053/16526
ACEL. MAX.(Gal), C7-C12                : 
ACEL. MAX., C7-C12,EN LA MUESTRA       : 
UNIDADES DE LOS DATOS                  : Gal (cm/s/s)
FACTOR DE DECIMACION                   : 1
FORMATO DATOS (FORTRAN,16 campos/dato) : 3E16.7


================================================================================
CALIDAD DEL ACELEROGRAMA:
REGISTRO DIGITAL COMPLETO CON TIEMPO ABSOLUTO CORRECTO


================================================================================
COMENTARIOS:














================================================================================
DATOS DE ACELERACION:
---------+---------+---------+---------+---------+---------+---------+---------+
   CANAL-1   	      CANAL-2          CANAL-3
      V                 N00E             N90E
---------+---------+---------+---------+---------+---------+---------+---------+
[...]
   9.8053100e-02   4.0776000e-02   2.1117500e-01
   9.3624600e-02   3.4232000e-02   2.0017600e-01
   8.8030600e-02   2.6753100e-02   1.9900600e-01
   8.5466700e-02   2.8622800e-02   1.9432600e-01
   8.0339000e-02   2.1377700e-02   1.9081600e-01
   7.2647300e-02   1.8806800e-02   1.8426300e-01
   7.0782600e-02   1.1795300e-02   1.7583900e-01
   6.3557100e-02   2.9141600e-03   1.7981700e-01
   6.3324000e-02  -8.0704600e-03   1.7186000e-01
   6.0527000e-02  -9.9401800e-03   1.7045600e-01
   6.1459300e-02  -1.5549300e-02   1.6437200e-01
   4.9339100e-02  -2.0223600e-02   1.5828800e-01
   3.2790300e-02  -1.6951600e-02   1.6460600e-01
   4.5143600e-02  -2.9806000e-02   1.5384100e-01
   4.5376700e-02  -3.1208300e-02   1.5337300e-01
   3.7451900e-02  -3.7986000e-02   1.5033100e-01
   2.7662500e-02  -4.2894000e-02   1.4284300e-01
   2.6497100e-02  -4.1258000e-02   1.4307700e-01
   3.3023400e-02  -4.8736900e-02   1.3278000e-01
   2.7429400e-02  -4.6867200e-02   1.2482400e-01
   1.9970800e-02  -5.1074100e-02   1.2154700e-01
   1.7873100e-02  -5.6683200e-02   1.2014300e-01
   2.9294100e-02  -5.9254100e-02   1.1405900e-01
   2.8827900e-02  -5.8553000e-02   1.0610200e-01
   2.2068600e-02  -5.9487800e-02   1.0001800e-01
   1.9504700e-02  -5.6916900e-02   9.1359400e-02
   1.7640000e-02  -5.5280900e-02   8.6211100e-02
   2.3000900e-02  -5.9020400e-02   8.0360700e-02
   1.9271600e-02  -5.2242600e-02   7.4276300e-02
   1.6940800e-02  -5.8319200e-02   6.8426000e-02
   1.2745300e-02  -6.1123800e-02   6.1171500e-02
   5.2867000e-03  -5.5748400e-02   5.7193300e-02
   9.2490800e-03  -5.7618100e-02   4.9938800e-02
   2.4897200e-03  -4.6399800e-02   4.5258500e-02
  -9.6305200e-03  -4.5464900e-02   4.7130600e-02
  -7.5327900e-03  -5.3644900e-02   3.8706100e-02
  -5.6681300e-03  -4.2894000e-02   3.6600000e-02
  -6.8335400e-03  -4.3127700e-02   3.5429900e-02
  -1.8953800e-02  -4.9671800e-02   2.8643500e-02
  -3.2006300e-02  -4.1959200e-02   2.5835300e-02
  -2.9442500e-02  -3.9622000e-02   2.1155000e-02
  -3.0607900e-02  -3.9154600e-02   1.9516900e-02
  -3.7833400e-02  -4.0323200e-02   1.2028400e-02
  -4.5292000e-02  -4.1491700e-02   1.7410800e-02
  -4.6457400e-02  -4.3361500e-02   1.7878800e-02
  -4.9720500e-02  -4.6166000e-02   7.8161700e-03
  -6.0908500e-02  -4.4997500e-02   1.5538700e-02
  -6.0908500e-02  -4.3828900e-02   9.2202600e-03
  -6.7201700e-02  -3.7284900e-02   9.9223000e-03
  -7.3028700e-02  -4.2426600e-02   1.1794400e-02
  -7.2562500e-02  -4.4296300e-02   6.6461000e-03
  -8.2352000e-02  -4.3595200e-02   1.6006700e-02
  -8.5848200e-02  -5.3177500e-02   1.2730500e-02
  -9.4938400e-02  -5.1775200e-02   1.2028400e-02
  -1.0216400e-01  -5.8553000e-02   1.0858400e-02
  -1.0146500e-01  -6.4395800e-02   8.2842000e-03
  -1.1288600e-01  -6.4162100e-02   1.7176800e-02
  -1.2011100e-01  -7.2108400e-02   2.1155000e-02
  -1.2197600e-01  -8.1457100e-02   2.5601300e-02
  -1.2267500e-01  -8.5196500e-02   2.4665200e-02
  -1.3456200e-01  -8.3326800e-02   2.6771400e-02
  -1.4598300e-01  -9.4077700e-02   3.3557800e-02
  -1.4015600e-01  -9.6181100e-02   3.6366000e-02
  -1.4272000e-01  -9.4545100e-02   4.3386400e-02
  -1.5320900e-01  -1.0062200e-01   5.1810900e-02
  -1.5693800e-01  -1.0529600e-01   6.0703500e-02
  -1.5530600e-01  -1.1277500e-01   6.5383800e-02
  -1.5460700e-01  -1.1464500e-01   7.2638200e-02
  -1.5833700e-01  -1.2352600e-01   7.7084500e-02
  -1.6626100e-01  -1.2609700e-01   8.0594700e-02
  -1.6136700e-01  -1.2118900e-01   9.4635600e-02
  -1.5460700e-01  -1.2609700e-01   1.0469800e-01
  -1.6160000e-01  -1.3123800e-01   1.0703800e-01
  -1.6066700e-01  -1.3684800e-01   1.1265500e-01
  -1.5903600e-01  -1.3848400e-01   1.2622800e-01
  -1.5810300e-01  -1.4222300e-01   1.3278000e-01
  -1.5647200e-01  -1.5087000e-01   1.3863000e-01
  -1.4947900e-01  -1.5274000e-01   1.4939500e-01
  -1.4108900e-01  -1.5531100e-01   1.6343600e-01
  -1.4435200e-01  -1.6372500e-01   1.7396700e-01
  -1.4132200e-01  -1.7026900e-01   1.7654100e-01
  -1.3549500e-01  -1.7424200e-01   1.9315600e-01
  -1.2384000e-01  -1.7844900e-01   2.0275000e-01
  -1.1894600e-01  -1.8639500e-01   2.1257900e-01
  -1.1568300e-01  -1.8756400e-01   2.2615200e-01
  -1.0076500e-01  -1.8920000e-01   2.3481000e-01
  -1.0123200e-01  -1.9621100e-01   2.5165900e-01
  -9.9133800e-02  -1.9574400e-01   2.6102000e-01
  -9.0509800e-02  -2.0369000e-01   2.7623100e-01
  -8.1186600e-02  -2.0789700e-01   2.8208100e-01
  -7.3261800e-02  -2.0485900e-01   2.9401600e-01
  -6.8367100e-02  -2.1374000e-01   3.0946100e-01
  -6.4404700e-02  -2.1958300e-01   3.1133300e-01
  -5.9043800e-02  -2.2098500e-01   3.3192700e-01
  -4.3194300e-02  -2.2612700e-01   3.3543700e-01
  -4.3427300e-02  -2.3056700e-01   3.4058500e-01
  -4.0630400e-02  -2.3197000e-01   3.5392400e-01
  -2.8976300e-02  -2.3407300e-01   3.5954000e-01
  -2.3149200e-02  -2.4038300e-01   3.7030500e-01
  -1.3592900e-02  -2.4272100e-01   3.7194300e-01
  -1.1495200e-02  -2.4388900e-01   3.8224000e-01
  -2.6380700e-03  -2.4669400e-01   3.9113200e-01
   5.0536200e-03  -2.4552500e-01   3.9464200e-01
   1.1346800e-02  -2.5487400e-01   3.9885500e-01
   1.9504700e-02  -2.6141800e-01   4.0189700e-01
   2.2301600e-02  -2.5604200e-01   4.0727900e-01
   2.9294100e-02  -2.6398900e-01   4.0961900e-01
   2.7895600e-02  -2.6445600e-01   4.1500200e-01
   3.3955700e-02  -2.5861300e-01   4.1734200e-01
   3.4655000e-02  -2.6398900e-01   4.1898000e-01
   2.9527200e-02  -2.6095000e-01   4.2272400e-01
   4.4910600e-02  -2.6375500e-01   4.2459600e-01
   4.7008300e-02  -2.6398900e-01   4.2717000e-01
   3.9549700e-02  -2.5674400e-01   4.2951100e-01
   4.0015800e-02  -2.6141800e-01   4.2857500e-01
   3.2324200e-02  -2.5464000e-01   4.3021300e-01
   3.2091100e-02  -2.5043300e-01   4.3208500e-01
   3.6519600e-02  -2.5230300e-01   4.2623400e-01
   3.2324200e-02  -2.4155200e-01   4.2576600e-01
   3.3023400e-02  -2.3968200e-01   4.2693600e-01
   2.8827900e-02  -2.4061700e-01   4.2483000e-01
   2.3467100e-02  -2.3313800e-01   4.2717000e-01
   2.6497100e-02  -2.2636100e-01   4.2483000e-01
   2.1602400e-02  -2.2308900e-01   4.1874600e-01
   1.9038500e-02  -2.2192000e-01   4.1710800e-01
   2.8361800e-02  -2.1771300e-01   4.1102300e-01
   2.9294100e-02  -2.0696200e-01   4.0751300e-01
   1.8106200e-02  -1.9901600e-01   4.0704500e-01
   9.9483300e-03  -1.9434200e-01   3.9721700e-01
   9.7152500e-03  -1.8616100e-01   3.9230200e-01
   1.7640000e-02  -1.8055200e-01   3.8387800e-01
   1.6707700e-02  -1.7400800e-01   3.7943100e-01
   1.4143800e-02  -1.7190500e-01   3.7241100e-01
   1.6241500e-02  -1.6489300e-01   3.6094400e-01
   9.7152500e-03  -1.5648000e-01   3.5954000e-01
   1.1346800e-02  -1.5881700e-01   3.3824500e-01
   7.1513500e-03  -1.4643000e-01   3.3005400e-01
   6.6851900e-03  -1.4152200e-01   3.2443800e-01
   1.7873100e-02  -1.4479400e-01   3.0712100e-01
   1.9504700e-02  -1.3451000e-01   2.9986600e-01
   1.8106200e-02  -1.3053700e-01   2.8348500e-01
   1.6707700e-02  -1.2726500e-01   2.7482700e-01
   2.0203900e-02  -1.1674800e-01   2.6172200e-01
   2.0670100e-02  -1.1371000e-01   2.4300100e-01
   2.1136200e-02  -1.1230700e-01   2.3153400e-01
   2.5564800e-02  -1.0576300e-01   2.1655700e-01
   3.0692600e-02  -1.0085500e-01   2.0415400e-01
   3.2324200e-02  -9.8518300e-02   1.8753900e-01
   3.1391800e-02  -9.6882300e-02   1.6975400e-01
   3.3023400e-02  -8.8702200e-02   1.5407500e-01
   2.7429400e-02  -8.6365100e-02   1.3675800e-01
   2.9527200e-02  -8.5430200e-02   1.2154700e-01
   3.3256500e-02  -8.1690800e-02   1.0586800e-01
   3.9083500e-02  -8.0522200e-02   8.6211100e-02
   3.8151200e-02  -6.9070100e-02   6.8426000e-02
   2.5098600e-02  -7.0238700e-02   5.3683000e-02
   2.9527200e-02  -7.2342200e-02   3.3089800e-02
   3.0925700e-02  -6.9070100e-02   1.5304600e-02
   3.1391800e-02  -7.4679300e-02  -1.3104000e-03
   2.8594900e-02  -7.1641000e-02  -1.5585300e-02
   2.6963300e-02  -7.1874700e-02  -2.9392200e-02
   3.9549700e-02  -7.8185000e-02  -5.0687500e-02
   3.8617400e-02  -7.7016500e-02  -6.4962400e-02
   2.6497100e-02  -7.3277000e-02  -8.2279500e-02
   1.6940800e-02  -7.5380500e-02  -9.6788400e-02
   3.2324200e-02  -7.9821000e-02  -1.1644600e-01
   4.1880500e-02  -8.0755900e-02  -1.3680500e-01
   3.0459500e-02  -8.0288500e-02  -1.5178200e-01
   2.3467100e-02  -8.1690800e-02  -1.7424700e-01
   2.0670100e-02  -8.0755900e-02  -1.8290600e-01
   3.0226400e-02  -8.1924500e-02  -2.0373300e-01
   2.6031000e-02  -8.2625600e-02  -2.2128400e-01
   1.6707700e-02  -8.1457100e-02  -2.3368700e-01
   1.5309200e-02  -8.3326800e-02  -2.5240800e-01
   1.7406900e-02  -7.9587300e-02  -2.6410900e-01
   1.8106200e-02  -8.0522200e-02  -2.8306400e-01
   7.1513500e-03  -8.1223300e-02  -2.9429700e-01
   6.2190200e-03  -7.7250200e-02  -3.1208200e-01
  -1.4726700e-03  -7.2575900e-02  -3.2401700e-01
  -2.6380700e-03  -7.0939900e-02  -3.3829200e-01
   2.0235600e-03  -7.3978200e-02  -3.5794900e-01
  -1.1029000e-02  -6.6499300e-02  -3.6450100e-01
  -1.1728300e-02  -6.9070100e-02  -3.8673300e-01
  -1.6389900e-02  -6.7667900e-02  -4.0241200e-01
  -2.3615400e-02  -6.0890100e-02  -4.1387800e-01
  -2.2683100e-02  -5.9254100e-02  -4.2487700e-01
  -2.6878600e-02  -4.7568300e-02  -4.3728000e-01
  -2.7344700e-02  -5.1074100e-02  -4.6231900e-01
  -3.4104100e-02  -4.6399800e-02  -4.7214800e-01
  -4.5292000e-02  -3.4714000e-02  -4.8150900e-01
  -4.9254400e-02  -3.6350000e-02  -5.0140000e-01
  -4.8089000e-02  -3.2143100e-02  -5.1731300e-01
  -4.9953600e-02  -2.4898000e-02  -5.2339700e-01
  -5.6479900e-02  -2.3028200e-02  -5.3603400e-01
  -6.1374600e-02  -1.9756200e-02  -5.5522300e-01
  -6.3938500e-02  -1.2043600e-02  -5.6528600e-01
  -6.7900900e-02  -1.6717900e-02  -5.7885900e-01
  -7.4660300e-02  -1.2511000e-02  -5.8681500e-01
  -7.3494900e-02  -8.0704600e-03  -5.9828200e-01
  -7.4427200e-02  -1.1342500e-02  -6.1419500e-01
  -7.8389600e-02  -3.6298600e-03  -6.1606700e-01
  -7.8156500e-02  -5.2658700e-03  -6.2285300e-01
  -8.8412100e-02   2.4467300e-03  -6.3268200e-01
  -9.7269200e-02   8.7570400e-03  -6.4391500e-01
  -1.0029900e-01   8.1072500e-04  -6.5187100e-01
  -9.8434600e-02   5.7187500e-03  -6.5093500e-01
  -9.6803000e-02   1.2963900e-02  -6.5772200e-01
  -1.0705900e-01   1.1795300e-02  -6.6801800e-01
  -1.1405100e-01   1.4366200e-02  -6.7386900e-01
  -1.1801300e-01   2.3948500e-02  -6.7176200e-01
  -1.2104300e-01   2.5350800e-02  -6.7995300e-01
  -1.2780300e-01   2.4883400e-02  -6.9142000e-01
  -1.3386300e-01   2.8389100e-02  -6.9165400e-01
  -1.3153200e-01   2.6285700e-02  -6.9820600e-01
  -1.3153200e-01   2.2780000e-02  -7.0218400e-01
  -1.3852500e-01   2.3948500e-02  -7.0195000e-01
  -1.5041200e-01   1.9741700e-02  -7.0452500e-01
  -1.5250900e-01   1.7638200e-02  -7.0592900e-01
  -1.5460700e-01   1.7638200e-02  -7.0312000e-01
  -1.5320900e-01   2.9141600e-03  -7.0522700e-01
  -1.3829200e-01  -4.0973000e-03  -7.0616300e-01
  -1.3269800e-01  -5.4995900e-03  -6.9539800e-01
  -1.3572800e-01  -8.0704600e-03  -6.9282400e-01
  -1.3735900e-01  -3.1624300e-03  -6.9516400e-01
  -1.3036700e-01  -2.6950000e-03  -6.9282400e-01
  -1.2733700e-01  -8.2528100e-04  -6.8510100e-01
  -1.2407400e-01  -1.0590000e-03  -6.8065500e-01
  -1.1475000e-01  -2.9287200e-03  -6.8112300e-01
  -1.1195300e-01   3.3815900e-03  -6.6895400e-01
  -1.0496100e-01   8.0559000e-03  -6.5842400e-01
  -1.1148700e-01   8.9907600e-03  -6.5584900e-01
  -1.1405100e-01   1.3431400e-02  -6.5163700e-01
  -9.4006000e-02   1.5534800e-02  -6.4578700e-01
  -8.5848200e-02   1.6937100e-02  -6.3549000e-01
  -8.8878200e-02   2.0209100e-02  -6.2449100e-01
  -8.4915900e-02   1.9040500e-02  -6.1864100e-01
  -7.4194100e-02   2.2078800e-02  -6.1068500e-01
  -7.2562500e-02   2.9557700e-02  -6.0389800e-01
  -7.3261800e-02   3.3297100e-02  -5.9945200e-01
  -6.9765600e-02   4.0074900e-02  -5.8611300e-01
  -5.5314500e-02   4.3113200e-02  -5.7932700e-01
  -3.7600300e-02   3.4933200e-02  -5.7090200e-01
  -4.1329600e-02   3.8205200e-02  -5.5405300e-01
  -3.8299500e-02   4.1243500e-02  -5.4843700e-01
  -2.6412400e-02   4.2412000e-02  -5.4118200e-01
  -1.4758300e-02   4.7553800e-02  -5.3416200e-01
  -8.6981900e-03   4.6385200e-02  -5.2643900e-01
  -9.3974400e-03   5.7136100e-02  -5.1544100e-01
   3.4220500e-03   5.7837300e-02  -5.0888800e-01
   5.7528600e-03   5.7136100e-02  -4.9648500e-01
   1.0647600e-02   6.2511600e-02  -4.8291300e-01
   2.0437000e-02   6.0174400e-02  -4.7214800e-01
   1.9504700e-02   6.5549900e-02  -4.6278700e-01
   3.0226400e-02   6.6017300e-02  -4.5319300e-01
   3.6985800e-02   6.6718400e-02  -4.3962000e-01
   4.1880500e-02   6.6017300e-02  -4.2347300e-01
   4.4677500e-02   6.5549900e-02  -4.1200600e-01
   4.2346700e-02   6.6484700e-02  -4.0264600e-01
   4.7241400e-02   6.6718400e-02  -3.8696700e-01
   5.5865400e-02   7.7001900e-02  -3.7503200e-01
   6.7286400e-02   8.3312200e-02  -3.6590500e-01
   7.1948000e-02   8.7752800e-02  -3.5303400e-01
   7.4045700e-02   9.3128300e-02  -3.3688700e-01
   7.4978100e-02   9.8503700e-02  -3.2425100e-01
   7.8474300e-02   9.5932800e-02  -3.1816600e-01
   7.9872800e-02   9.8737400e-02  -3.0623200e-01
   7.8474300e-02   1.0364500e-01  -2.9616900e-01
   9.2925400e-02   9.9906000e-02  -2.8727600e-01
   9.6654700e-02   1.0668400e-01  -2.7159700e-01
   9.4090800e-02   1.0154200e-01  -2.6457700e-01
   9.7120800e-02   9.8971100e-02  -2.4632400e-01
   9.4323800e-02   9.8737400e-02  -2.2853900e-01
   1.0574500e-01   9.2193400e-02  -2.2783700e-01
   1.1133900e-01   1.0014000e-01  -2.1262600e-01
   1.0854200e-01   1.0107500e-01  -1.9718100e-01
   1.1763200e-01   1.0364500e-01  -1.8875600e-01
   1.2532400e-01   1.0715100e-01  -1.7869400e-01
   1.2975200e-01   1.0715100e-01  -1.6746100e-01
   1.3161700e-01   1.0761900e-01  -1.6231200e-01
   1.2392500e-01   1.0715100e-01  -1.5248400e-01
   1.2788800e-01   1.1182500e-01  -1.3984700e-01
   1.5189500e-01   1.0761900e-01  -1.4382500e-01
   1.5142900e-01   1.1626600e-01  -1.3001800e-01
   1.4187200e-01   1.2374500e-01  -1.1831800e-01
   1.4583500e-01   1.2094000e-01  -1.1410500e-01
   1.4956400e-01   1.2771800e-01  -1.0146900e-01
   1.5585700e-01   1.2725100e-01  -1.0100100e-01
   1.5212800e-01   1.2841900e-01  -9.1640100e-02
   1.5795500e-01   1.3473000e-01  -8.1811400e-02
   1.7263900e-01   1.3636600e-01  -8.0407400e-02
   1.6844400e-01   1.3917000e-01  -6.9408700e-02
   1.6238400e-01   1.4688300e-01  -5.6303800e-02
   1.6914300e-01   1.4992100e-01  -5.4899800e-02
   1.7124100e-01   1.5436200e-01  -4.7879300e-02
   1.7380500e-01   1.5833500e-01  -3.7114600e-02
   1.8499300e-01   1.5623100e-01  -3.6646600e-02
   1.8126300e-01   1.7118900e-01  -2.8222100e-02
   1.7893200e-01   1.7843400e-01  -2.4243800e-02
   1.7800000e-01   1.8287500e-01  -2.1201600e-02
   1.7916600e-01   1.9549600e-01  -1.3011100e-02
   1.8779000e-01   1.9502800e-01  -1.1139000e-02
   1.7986500e-01   2.0577900e-01  -2.4804700e-03
   1.8079700e-01   2.1349200e-01   1.4977800e-03
   1.8266200e-01   2.1606200e-01   2.9018600e-03
   1.7683500e-01   2.2658000e-01   1.2262500e-02
   1.7077500e-01   2.3733100e-01   1.6006700e-02
   1.5702300e-01   2.3966800e-01   1.6708700e-02
   1.5772200e-01   2.3709700e-01   2.1623000e-02
   1.6378200e-01   2.4527700e-01   2.3261100e-02
   1.6051900e-01   2.4738000e-01   2.5133300e-02
   1.4606800e-01   2.5953400e-01   3.5897900e-02
   1.4140600e-01   2.6444200e-01   4.1280300e-02
   1.4257200e-01   2.6584400e-01   4.5492500e-02
   1.3254900e-01   2.8267100e-01   5.1576900e-02
   1.2835400e-01   2.8056800e-01   5.3917100e-02
