**************************************************************************************
  	RED ACELEROGRÁFICA DE LA UNIVERSIDAD AUTONOMA METROPOLITANA (RA-UAM)
	   UNIDAD AZCAPOTZALCO. DIVISIÓN CBI-DEPARTAMENTO DE MATERIALES
     Av. San Pablo 420, Col. Nueva el Rosario, Azcapotzalco, C.P. 02128, Ciudad de México
		Área de Estructuras. e-mail: agb@azc.uam.mx
**************************************************************************************
ARCHIVO ESTANDAR DE ACELERACION:
VERSION DEL FORMATO                    : 2.0
NOMBRE DEL ARCHIVO                     : RIDX202210.011
FECHA Y HORA DE CREACION               : 11:30 a. m. 07/10/2022
REF. CATALOGO ACELEROGRAMAS, SMIS 1999 : REGISTRO NO.      /PAG.    


================================================================================
DATOS DE LA ESTACION:
NOMBRE DE LA ESTACION                  : UAM-XOCHIMILCO.
CLAVE DE LA ESTACION                   : RIDX
LOCALIZACION DE LA ESTACION            : CALZADA DEL HUESO 1100, COL. VILLA
                                       : QUIETUD, DEL. COYOACAN, C.P.04960,  
                                       : CIUDAD DE MEXICO.
                                       : 
                                       : 
COORDENADAS DE LA ESTACION             : 19.301345 LAT. N
                                       : 99.10268 LONG. W
ALTITUD (msnm)                         : 2232
TIPO DE SUELO                          : LAGO
                                       : 
                                       : 
INSTITUCION RESPONSABLE                : UNIVERSIDAD AUTONOMA METROPOLITANA
                                       : 

================================================================================
DATOS DEL ACELEROGRAFO: 
MODELO DEL ACELEROGRAFO                : BASALT KINEMETRICS
NUMERO DE SERIE DEL ACELEROGRAFO       : 1729
NUMERO DE CANALES                      : 3
ORIENTACION C1-C6 (rumbo;orientacion)  : /V/N00E/N90E
ORIENTACION C7-C12 (rumbo;orientacion) : 
VEL. DE MUESTREO, C1-C6 (muestras/s)   : /200/200/200
VEL. DE MUESTREO, C7-C12 (muestras/s)  : 
ESC. COMPLETA DE SENSORES, C1-C6, (g)  : /2/2/2
ESC. COMPLETA DE SENSORES, C7-C12 (g)  : 
FREC. NAT. DE SENSORES, C1-C6, (Hz)    : /208/210/200   
FREC. NAT. DE SENSORES, C7-C12 (Hz)    : 
AMORTIGUAMIENTO DE SENSORES, C1-C6     : /0.7/0.7/0.7      
AMORTIGUAMIENTO DE SENSORES, C7-C12    : 
INTERVALO DE MUESTREO, C1-C6 (s)       : /0.005/0.005/0.005
INTERVALO DE MUESTREO, C7-C12 (s)      : 
UMBRAL DE DISPARO, C1-C6 (Gal)         : /2/2/2
UMBRAL DE DISPARO, C7-C12 (Gal)        : 
MEMORIA DE PREEVENTO (s)               : 60
TIEMPO DE POSEVENTO (s)                : 80


================================================================================
DATOS DEL SISMO:
FECHA DEL SISMO [GMT]                  : 2022/10/01
HORA EPICENTRO (GMT)                   : 16:36:51
MAGNITUD(ES)                           : /M=5.6
COORDENADAS DEL EPICENTRO              : 14.8900 LAT. N
                                       : -94.1000 LONG. W
PROFUNDIDAD FOCAL (Km)                 : 10.0
FUENTE DE LOS DATOS EPICENTRALES       : SSN
                                       : INSTITUTO DE GEOFISICA, UNAM

================================================================================
DATOS DE ESTE REGISTRO:
HORA DE LA PRIMERA MUESTRA (GMT)       : 18:27:18.000
EXACTITUD DEL TIEMPO (s)               : 
DURACION DEL REGISTRO (s), C1-C6       : /189/189/189
DURACION DEL REGISTRO (s), C7-C12      : 
NUM. TOTAL DE MUESTRAS, C1-C6          : /37800/37800/37800
NUM. TOTAL DE MUESTRAS, C7-C12         : 
ACEL. MAX.(Gal), C1-C6                 : /-0.310/-1.120/1.322
ACEL. MAX., C1-C6, EN LA MUESTRA       : /18507/17377/18438
ACEL. MAX.(Gal), C7-C12                : 
ACEL. MAX., C7-C12,EN LA MUESTRA       : 
UNIDADES DE LOS DATOS                  : Gal (cm/s/s)
FACTOR DE DECIMACION                   : 1
FORMATO DATOS (FORTRAN,16 campos/dato) : 3E16.7


================================================================================
CALIDAD DEL ACELEROGRAMA:
REGISTRO DIGITAL COMPLETO CON TIEMPO ABSOLUTO CORRECTO


================================================================================
COMENTARIOS:














================================================================================
DATOS DE ACELERACION:
---------+---------+---------+---------+---------+---------+---------+---------+
   CANAL-1   	      CANAL-2          CANAL-3
      V                 N00E             N90E
---------+---------+---------+---------+---------+---------+---------+---------+
[...]
  -3.2313500e-02  -5.6966900e-02  -9.4875200e-01
  -3.5110500e-02  -3.6867400e-02  -9.4617800e-01
  -2.8584200e-02  -3.1491900e-02  -9.5039000e-01
  -2.4388700e-02  -2.6116500e-02  -9.4945400e-01
  -1.6930100e-02  -1.5599300e-02  -9.4922000e-01
  -8.7722600e-03  -6.2506700e-03  -9.5553800e-01
  -1.0403800e-02   7.0711100e-03  -9.5998400e-01
  -4.5768000e-03   2.0626600e-02  -9.7168500e-01
  -2.2459800e-03   3.7220400e-02  -9.7847200e-01
  -2.0129000e-03   5.3113000e-02  -9.8291800e-01
  -1.5467400e-03   6.5032500e-02  -9.8783200e-01
  -8.4749200e-04   7.4381100e-02  -9.8736400e-01
   7.5434400e-03   7.9990300e-02  -9.9017200e-01
   1.5934400e-02   8.3496000e-02  -9.9415100e-01
   2.3159900e-02   9.3078300e-02  -9.9461900e-01
   2.8287700e-02   9.8921200e-02  -9.9719300e-01
   3.3182400e-02   1.0827000e-01  -9.9695900e-01
   3.5047100e-02   1.1504800e-01  -9.9461900e-01
   3.6911700e-02   1.1668400e-01  -1.0009400e+00
   4.8332700e-02   1.2673300e-01  -1.0042100e+00
   5.3227400e-02   1.3678300e-01  -1.0028100e+00
   5.4392800e-02   1.5057200e-01  -1.0004700e+00
   5.3926700e-02   1.5922000e-01  -9.9719300e-01
   5.3926700e-02   1.7090600e-01  -9.9625700e-01
   6.4415300e-02   1.8563000e-01  -9.9438500e-01
   6.8144600e-02   1.9123900e-01  -9.9578900e-01
   7.0242400e-02   2.0199000e-01  -9.9532100e-01
   7.5836300e-02   2.0923500e-01  -9.9883100e-01
   7.7701000e-02   2.1461000e-01  -1.0030400e+00
   7.7701000e-02   2.1928500e-01  -1.0000000e+00
   8.3761100e-02   2.1975200e-01  -9.9976700e-01
   9.4482900e-02   2.2232300e-01  -9.9719300e-01
   9.9377600e-02   2.2582900e-01  -9.9251200e-01
   1.0240800e-01   2.3494300e-01  -9.8151400e-01
   1.0800200e-01   2.4756400e-01  -9.7683300e-01
   1.1219700e-01   2.5948400e-01  -9.7589700e-01
   1.1615900e-01   2.7046800e-01  -9.7215300e-01
   1.2175300e-01   2.7771300e-01  -9.7285500e-01
   1.2128700e-01   2.8355600e-01  -9.6443100e-01
   1.2921200e-01   2.8308900e-01  -9.6092000e-01
   1.3154300e-01   2.8449100e-01  -9.5647400e-01
   1.2804700e-01   2.9126900e-01  -9.5366600e-01
   1.3503900e-01   2.9337200e-01  -9.5741000e-01
   1.2921200e-01   2.9921500e-01  -9.4664600e-01
   1.3527200e-01   3.0342200e-01  -9.3541300e-01
   1.3760300e-01   3.0529200e-01  -9.1973400e-01
   1.2851300e-01   3.0435700e-01  -9.0077900e-01
   1.2897900e-01   3.0108500e-01  -8.9375800e-01
   1.3061000e-01   3.0692800e-01  -8.9375800e-01
   1.4762500e-01   3.0833000e-01  -8.9492800e-01
   1.5042200e-01   3.1020000e-01  -8.9399200e-01
   1.5415200e-01   3.1651000e-01  -8.9680000e-01
   1.6114400e-01   3.1697800e-01  -8.9446000e-01
   1.5391900e-01   3.2469000e-01  -8.8276000e-01
   1.6091100e-01   3.3403900e-01  -8.7059100e-01
   1.4692600e-01   3.3333800e-01  -8.5304000e-01
   1.3643800e-01   3.3076700e-01  -8.4157300e-01
   1.5042200e-01   3.3193500e-01  -8.4367900e-01
   1.5088900e-01   3.3637600e-01  -8.4040300e-01
   1.5321900e-01   3.3333800e-01  -8.3946700e-01
   1.5415200e-01   3.2539100e-01  -8.4250900e-01
   1.5252000e-01   3.2585900e-01  -8.3034000e-01
   1.5438500e-01   3.2866300e-01  -8.1583100e-01
   1.4785900e-01   3.3731100e-01  -8.0038600e-01
   1.4855800e-01   3.4221900e-01  -7.7230500e-01
   1.5461800e-01   3.3216900e-01  -7.5124300e-01
   1.5252000e-01   3.2889700e-01  -7.4235100e-01
   1.5461800e-01   3.3520700e-01  -7.3673400e-01
   1.5858000e-01   3.3287000e-01  -7.4024500e-01
   1.6370800e-01   3.2843000e-01  -7.4328700e-01
   1.5997900e-01   3.2866300e-01  -7.3533000e-01
   1.5624900e-01   3.2211900e-01  -7.2526800e-01
   1.6044500e-01   3.2609200e-01  -7.1660900e-01
   1.5694900e-01   3.2819600e-01  -7.0935500e-01
   1.5648300e-01   3.2656000e-01  -6.8922900e-01
   1.5485100e-01   3.3240300e-01  -6.5974400e-01
   1.5624900e-01   3.2819600e-01  -6.4102200e-01
   1.5158800e-01   3.2726100e-01  -6.2464100e-01
   1.4482800e-01   3.1814600e-01  -6.1715300e-01
   1.4739200e-01   3.1534200e-01  -6.0966400e-01
   1.5135500e-01   3.1323800e-01  -6.0100600e-01
   1.6300900e-01   2.9711200e-01  -5.9890000e-01
   1.6021200e-01   2.9173600e-01  -5.9234700e-01
   1.5811400e-01   2.7911600e-01  -5.8860300e-01
   1.5741500e-01   2.7818100e-01  -5.6567000e-01
   1.4995600e-01   2.8846400e-01  -5.4414000e-01
   1.4832500e-01   2.9010000e-01  -5.3805600e-01
   1.4389600e-01   3.0061700e-01  -5.2120700e-01
   1.4599400e-01   3.0879800e-01  -5.0412400e-01
   1.4715900e-01   3.0762900e-01  -4.8680700e-01
   1.4739200e-01   3.0061700e-01  -4.7557400e-01
   1.4925700e-01   2.8729600e-01  -4.6410700e-01
   1.4669300e-01   2.7794700e-01  -4.4819400e-01
   1.5252000e-01   2.6859800e-01  -4.3766400e-01
   1.5298600e-01   2.6298900e-01  -4.2502700e-01
   1.4809200e-01   2.6906600e-01  -4.1168800e-01
   1.4949000e-01   2.6953300e-01  -3.9951900e-01
   1.4203100e-01   2.7327300e-01  -3.8079800e-01
   1.3853500e-01   2.7631100e-01  -3.6558700e-01
   1.4109900e-01   2.6532600e-01  -3.6488500e-01
   1.3690400e-01   2.5667900e-01  -3.5388600e-01
   1.3457300e-01   2.4943400e-01  -3.3095300e-01
   1.3760300e-01   2.3330700e-01  -3.1972000e-01
   1.3387400e-01   2.2886700e-01  -2.9842500e-01
   1.2944500e-01   2.3073700e-01  -2.8040600e-01
   1.3806900e-01   2.2372500e-01  -2.7759800e-01
   1.3457300e-01   2.3213900e-01  -2.5302600e-01
   1.2734700e-01   2.3751400e-01  -2.3453900e-01
   1.2991100e-01   2.3541100e-01  -2.2260400e-01
   1.2758000e-01   2.3494300e-01  -2.0364900e-01
   1.2734700e-01   2.2746500e-01  -1.9241600e-01
   1.2921200e-01   2.1811600e-01  -1.7743900e-01
   1.2921200e-01   2.1227300e-01  -1.6059000e-01
   1.2128700e-01   2.1274100e-01  -1.4303900e-01
   1.1755800e-01   2.0362600e-01  -1.3227400e-01
   1.1592600e-01   2.0175600e-01  -1.1589300e-01
   1.1243000e-01   1.9731500e-01  -9.6938300e-02
   1.1406200e-01   1.9053800e-01  -7.9855200e-02
   1.1033200e-01   1.8960300e-01  -5.6219700e-02
   1.1033200e-01   1.8095500e-01  -3.5860400e-02
   1.0940000e-01   1.8656400e-01  -1.1054900e-02
   1.1312900e-01   1.8048800e-01   1.1138900e-03
   1.1103200e-01   1.7628100e-01   1.3048600e-02
   1.0077600e-01   1.8025400e-01   3.0599700e-02
   1.0217500e-01   1.7090600e-01   3.9960300e-02
   9.8678300e-02   1.6693200e-01   5.9851600e-02
   1.0124200e-01   1.5618100e-01   7.8572700e-02
   9.8911400e-02   1.4823500e-01   9.3783700e-02
   9.1452800e-02   1.4356100e-01   1.1110100e-01
   9.1919000e-02   1.3561500e-01   1.2327000e-01
   8.3994200e-02   1.3047300e-01   1.4362900e-01
   7.9099500e-02   1.2416200e-01   1.7241300e-01
   8.4693400e-02   1.1364500e-01   1.9253800e-01
   9.1219700e-02   1.0593300e-01   2.1547100e-01
   8.7490400e-02   1.0733500e-01   2.4097900e-01
   8.1663400e-02   1.0499800e-01   2.5478600e-01
   7.6069400e-02   1.0523200e-01   2.7350700e-01
   6.7911600e-02   1.0382900e-01   2.9339800e-01
   6.7678500e-02   9.6817800e-02   3.0556700e-01
   6.4415300e-02   9.0741200e-02   3.2592600e-01
   6.6513100e-02   8.0691400e-02   3.4956200e-01
   6.7911600e-02   7.2277700e-02   3.6992100e-01
   5.9520600e-02   6.3630200e-02   3.9379100e-01
   6.2783800e-02   5.6618700e-02   4.1953200e-01
   6.3016800e-02   5.1477000e-02   4.3942300e-01
   6.4648400e-02   4.2595800e-02   4.5510200e-01
   6.3483000e-02   4.2128400e-02   4.7780200e-01
   5.5558200e-02   4.0492400e-02   4.9769300e-01
   5.8122100e-02   3.3714600e-02   5.1360600e-01
   4.9032000e-02   3.4883200e-02   5.3560300e-01
   4.6468100e-02   2.9975200e-02   5.5058000e-01
   4.7866500e-02   2.0626600e-02   5.6930200e-01
   3.8543300e-02   1.8055700e-02   5.9387300e-01
   3.4580900e-02   9.6419700e-03   6.1259400e-01
   2.7355400e-02   5.9646900e-05   6.3786800e-01
   3.2483200e-02  -6.7181000e-03   6.5869500e-01
   4.0407900e-02  -1.7469000e-02   6.7928800e-01
   3.7144800e-02  -2.7051300e-02   7.0222200e-01
   3.5746300e-02  -3.1491900e-02   7.1860300e-01
   2.9453100e-02  -3.4763900e-02   7.3919600e-01
   2.7122300e-02  -4.1074200e-02   7.5604500e-01
   2.8986900e-02  -4.7384600e-02   7.7336200e-01
   2.6889200e-02  -5.2760000e-02   7.8623300e-01
   2.8287700e-02  -5.5564600e-02   8.0612400e-01
   2.7122300e-02  -5.8836600e-02   8.2835600e-01
   3.1550800e-02  -6.9821200e-02   8.4169500e-01
   4.0641000e-02  -7.3794400e-02   8.7305300e-01
   4.3904200e-02  -7.5897800e-02   8.9107200e-01
   4.6701100e-02  -8.1273300e-02   9.0394300e-01
   4.7400400e-02  -8.0572100e-02   9.2360000e-01
   4.5768800e-02  -8.4311600e-02   9.3553500e-01
   3.5513200e-02  -8.3376700e-02   9.5776600e-01
   3.0851600e-02  -8.8985900e-02   9.6946700e-01
   3.5513200e-02  -9.6932200e-02   9.8046500e-01
   4.0407900e-02  -9.2491600e-02   1.0027000e+00
   4.3438000e-02  -1.0137300e-01   1.0188400e+00
   3.8543300e-02  -1.0908500e-01   1.0349900e+00
   4.9032000e-02  -1.1376000e-01   1.0586300e+00
   5.5325200e-02  -1.2100500e-01   1.0789900e+00
   5.2761300e-02  -1.2240700e-01   1.0885800e+00
   5.6257500e-02  -1.2754900e-01   1.1000500e+00
   5.4392800e-02  -1.2497800e-01   1.1143200e+00
   5.2528200e-02  -1.2334200e-01   1.1222800e+00
   4.5768800e-02  -1.2053700e-01   1.1342100e+00
   5.0896600e-02  -1.1399300e-01   1.1480200e+00
   5.7422900e-02  -1.1890100e-01   1.1531700e+00
   5.6024400e-02  -1.1726500e-01   1.1662700e+00
   5.9287500e-02  -1.2100500e-01   1.1803100e+00
   5.5558200e-02  -1.3409300e-01   1.1859300e+00
   5.4159700e-02  -1.3269100e-01   1.1971600e+00
   5.3693600e-02  -1.3409300e-01   1.2048900e+00
   5.3926700e-02  -1.4320800e-01   1.2076900e+00
   5.3227400e-02  -1.4040300e-01   1.2172900e+00
   4.3438000e-02  -1.3432700e-01   1.2273500e+00
   3.8077100e-02  -1.3619600e-01   1.2315600e+00
   3.2483200e-02  -1.3432700e-01   1.2374100e+00
   3.2250100e-02  -1.3128800e-01   1.2491100e+00
   3.6212500e-02  -1.3783200e-01   1.2559000e+00
   3.6445600e-02  -1.4274000e-01   1.2699400e+00
   4.8798900e-02  -1.4928400e-01   1.2835100e+00
   5.4392800e-02  -1.5933400e-01   1.2809400e+00
   5.5791300e-02  -1.5746400e-01   1.2821100e+00
   6.1152200e-02  -1.5255600e-01   1.2786000e+00
   4.9731200e-02  -1.5208900e-01   1.2814100e+00
   3.6445600e-02  -1.5115400e-01   1.2914700e+00
   2.9686200e-02  -1.4835000e-01   1.2891300e+00
   2.6656100e-02  -1.4390900e-01   1.2889000e+00
   2.4558400e-02  -1.3689800e-01   1.2842200e+00
   2.3159900e-02  -1.3128800e-01   1.2793000e+00
   2.5723800e-02  -1.3666400e-01   1.2935800e+00
   2.3159900e-02  -1.5138800e-01   1.3069200e+00
   1.1272700e-02  -1.6611200e-01   1.3062100e+00
  -2.4790600e-03  -1.7312300e-01   1.3085500e+00
  -4.3437100e-03  -1.7312300e-01   1.3083200e+00
  -5.9752900e-03  -1.6844900e-01   1.2973200e+00
  -1.0870000e-02  -1.6868300e-01   1.2881900e+00
  -9.2384300e-03  -1.6751400e-01   1.2867900e+00
  -8.7722600e-03  -1.6517700e-01   1.2968500e+00
  -1.0170800e-02  -1.7382500e-01   1.3087900e+00
  -1.3667000e-02  -1.7452600e-01   1.3155700e+00
  -1.0403800e-02  -1.7382500e-01   1.3223600e+00
  -3.1783100e-03  -1.7102000e-01   1.3160400e+00
  -7.1406900e-03  -1.6541100e-01   1.2961500e+00
  -9.2384300e-03  -1.7779800e-01   1.2772000e+00
  -1.2967700e-02  -1.8574400e-01   1.2605800e+00
  -2.0892500e-02  -1.8457500e-01   1.2470100e+00
  -2.3689500e-02  -1.8691300e-01   1.2346100e+00
  -4.2802200e-02  -1.8223800e-01   1.2350700e+00
  -6.1914900e-02  -1.7803100e-01   1.2385800e+00
  -7.1471200e-02  -1.7289000e-01   1.2374100e+00
  -8.4290700e-02  -1.6424200e-01   1.2481800e+00
  -7.7764400e-02  -1.7102000e-01   1.2488800e+00
  -7.9396000e-02  -1.8527700e-01   1.2474800e+00
  -8.2426000e-02  -2.0116900e-01   1.2549600e+00
  -7.4734300e-02  -2.1192000e-01   1.2521600e+00
  -8.4989900e-02  -2.1145300e-01   1.2367100e+00
  -8.7786900e-02  -2.1379000e-01   1.2091000e+00
  -9.4080100e-02  -2.0607700e-01   1.1859300e+00
  -1.0666700e-01  -1.9345700e-01   1.1625300e+00
  -1.1132800e-01  -1.8317300e-01   1.1468500e+00
  -1.1925300e-01  -1.8621100e-01   1.1501300e+00
  -1.2065100e-01  -1.9929900e-01   1.1484900e+00
  -1.2787700e-01  -1.9766300e-01   1.1494200e+00
  -1.3859900e-01  -2.0350600e-01   1.1494200e+00
  -1.4465900e-01  -2.0631100e-01   1.1396000e+00
  -1.5095200e-01  -2.0748000e-01   1.1211100e+00
  -1.5258400e-01  -2.2033400e-01   1.1089400e+00
  -1.5305000e-01  -2.2313800e-01   1.1110500e+00
  -1.5747800e-01  -2.3178600e-01   1.0960700e+00
  -1.6820000e-01  -2.3505800e-01   1.0750100e+00
  -1.7589200e-01  -2.3669400e-01   1.0590900e+00
  -1.9057600e-01  -2.3552500e-01   1.0448200e+00
  -1.9989900e-01  -2.2290500e-01   1.0375600e+00
  -1.9383900e-01  -2.2547600e-01   1.0179100e+00
  -2.0316200e-01  -2.1963300e-01   1.0036300e+00
  -2.1062100e-01  -2.1776300e-01   9.9216600e-01
  -2.0852300e-01  -2.2454100e-01   9.7461500e-01
  -2.1108700e-01  -2.2898100e-01   9.6151000e-01
  -2.1574900e-01  -2.5095100e-01   9.3740700e-01
  -2.2250800e-01  -2.6427200e-01   9.1845100e-01
  -2.2483900e-01  -2.6310400e-01   9.0979300e-01
  -2.2670300e-01  -2.5398900e-01   8.9668800e-01
  -2.3742500e-01  -2.4253700e-01   8.7866900e-01
  -2.5560600e-01  -2.2991600e-01   8.6322400e-01
  -2.5607200e-01  -2.2080100e-01   8.4777900e-01
  -2.5677100e-01  -2.2313800e-01   8.3584400e-01
  -2.6935700e-01  -2.3131800e-01   8.3022800e-01
  -2.6259800e-01  -2.5071700e-01   8.1080500e-01
  -2.6003400e-01  -2.5749500e-01   7.9302000e-01
  -2.7332000e-01  -2.5609200e-01   7.7804300e-01
  -2.7332000e-01  -2.6146800e-01   7.5300300e-01
  -2.7635000e-01  -2.5515700e-01   7.3545200e-01
  -2.9056800e-01  -2.4814600e-01   7.1649700e-01
  -2.9359800e-01  -2.4510800e-01   6.9801000e-01
  -2.9686100e-01  -2.4534100e-01   6.8443700e-01
  -2.9429700e-01  -2.4838000e-01   6.6712000e-01
  -2.8870300e-01  -2.4230300e-01   6.5565300e-01
  -2.8404200e-01  -2.4604300e-01   6.3529400e-01
  -2.7891400e-01  -2.4931500e-01   6.1516800e-01
  -2.8520700e-01  -2.4417300e-01   5.9972300e-01
  -2.8147800e-01  -2.5235300e-01   5.6719500e-01
  -2.8730500e-01  -2.5352100e-01   5.4449600e-01
  -2.9243200e-01  -2.5211900e-01   5.2647700e-01
  -2.9359800e-01  -2.4557500e-01   5.0401100e-01
  -3.0338700e-01  -2.3318800e-01   4.9254500e-01
  -2.9942500e-01  -2.3085100e-01   4.7031300e-01
  -3.0338700e-01  -2.2384000e-01   4.4761400e-01
  -3.0222200e-01  -2.1963300e-01   4.3053100e-01
  -3.0222200e-01  -2.1776300e-01   4.0876700e-01
  -3.0968100e-01  -2.2010000e-01   3.9051400e-01
  -3.0268800e-01  -2.2407300e-01   3.6875100e-01
  -2.9476300e-01  -2.2757900e-01   3.4581800e-01
  -2.9103400e-01  -2.2734500e-01   3.2265000e-01
  -2.9406400e-01  -2.1799700e-01   3.0346100e-01
  -2.9010200e-01  -2.1823000e-01   2.8520800e-01
  -2.9313200e-01  -2.0631100e-01   2.6835900e-01
  -2.9522900e-01  -1.9719600e-01   2.5548800e-01
  -2.8054500e-01  -1.9532600e-01   2.3442700e-01
  -2.7448500e-01  -1.8153700e-01   2.1921600e-01
  -2.6120000e-01  -1.8130300e-01   1.9441000e-01
  -2.6423000e-01  -1.7756400e-01   1.7264700e-01
  -2.6819200e-01  -1.7569400e-01   1.5556400e-01
  -2.5094400e-01  -1.7943400e-01   1.2537600e-01
  -2.5350800e-01  -1.7756400e-01   1.0525000e-01
  -2.4768100e-01  -1.7569400e-01   7.4360500e-02
  -2.4045500e-01  -1.6774800e-01   4.8384900e-02
  -2.3929000e-01  -1.6541100e-01   2.8025600e-02
  -2.3742500e-01  -1.5746400e-01   8.6023600e-03
  -2.4465100e-01  -1.5255600e-01  -5.6725300e-03
  -2.3206400e-01  -1.5255600e-01  -3.3052300e-02
  -2.1528300e-01  -1.4437600e-01  -4.8263200e-02
  -2.0852300e-01  -1.3970200e-01  -6.8154500e-02
  -2.0502700e-01  -1.2661400e-01  -8.8981800e-02
  -1.9803400e-01  -1.1773300e-01  -1.0536300e-01
  -1.8871100e-01  -1.1492800e-01  -1.3180600e-01
