**************************************************************************************
  	RED ACELEROGRÁFICA DE LA UNIVERSIDAD AUTONOMA METROPOLITANA (RA-UAM)
	   UNIDAD AZCAPOTZALCO. DIVISIÓN CBI-DEPARTAMENTO DE MATERIALES
     Av. San Pablo 420, Col. Nueva el Rosario, Azcapotzalco, C.P. 02128, Ciudad de México
		Área de Estructuras. e-mail: agb@azc.uam.mx
**************************************************************************************
ARCHIVO ESTANDAR DE ACELERACION:
VERSION DEL FORMATO                    : 2.0
NOMBRE DEL ARCHIVO                     : RIDX202206.021
FECHA Y HORA DE CREACION               : 11:30 a. m. 08/06/2022
REF. CATALOGO ACELEROGRAMAS, SMIS 1999 : REGISTRO NO.      /PAG.    


================================================================================
DATOS DE LA ESTACION:
NOMBRE DE LA ESTACION                  : UAM-XOCHIMILCO.
CLAVE DE LA ESTACION                   : RIDX
LOCALIZACION DE LA ESTACION            : CALZADA DEL HUESO 1100, COL. VILLA
                                       : QUIETUD, DEL. COYOACAN, C.P.04960,  
                                       : CIUDAD DE MEXICO.
                                       : 
                                       : 
COORDENADAS DE LA ESTACION             : 19.301345 LAT. N
                                       : 99.10268 LONG. W
ALTITUD (msnm)                         : 2232
TIPO DE SUELO                          : LAGO
                                       : 
                                       : 
INSTITUCION RESPONSABLE                : UNIVERSIDAD AUTONOMA METROPOLITANA
                                       : 

================================================================================
DATOS DEL ACELEROGRAFO: 
MODELO DEL ACELEROGRAFO                : BASALT KINEMETRICS
NUMERO DE SERIE DEL ACELEROGRAFO       : 1729
NUMERO DE CANALES                      : 3
ORIENTACION C1-C6 (rumbo;orientacion)  : /V/N00E/N90E
ORIENTACION C7-C12 (rumbo;orientacion) : 
VEL. DE MUESTREO, C1-C6 (muestras/s)   : /200/200/200
VEL. DE MUESTREO, C7-C12 (muestras/s)  : 
ESC. COMPLETA DE SENSORES, C1-C6, (g)  : /2/2/2
ESC. COMPLETA DE SENSORES, C7-C12 (g)  : 
FREC. NAT. DE SENSORES, C1-C6, (Hz)    : /208/210/200   
FREC. NAT. DE SENSORES, C7-C12 (Hz)    : 
AMORTIGUAMIENTO DE SENSORES, C1-C6     : /0.7/0.7/0.7      
AMORTIGUAMIENTO DE SENSORES, C7-C12    : 
INTERVALO DE MUESTREO, C1-C6 (s)       : /0.005/0.005/0.005
INTERVALO DE MUESTREO, C7-C12 (s)      : 
UMBRAL DE DISPARO, C1-C6 (Gal)         : /2/2/2
UMBRAL DE DISPARO, C7-C12 (Gal)        : 
MEMORIA DE PREEVENTO (s)               : 60
TIEMPO DE POSEVENTO (s)                : 80


================================================================================
DATOS DEL SISMO:
FECHA DEL SISMO [GMT]                  : 2022/06/02
HORA EPICENTRO (GMT)                   : 21:05:56
MAGNITUD(ES)                           : /M=4.5
COORDENADAS DEL EPICENTRO              : 16.6900 LAT. N
                                       : -99.8800 LONG. W
PROFUNDIDAD FOCAL (Km)                 : 16.0
FUENTE DE LOS DATOS EPICENTRALES       : SSN
                                       : INSTITUTO DE GEOFISICA, UNAM

================================================================================
DATOS DE ESTE REGISTRO:
HORA DE LA PRIMERA MUESTRA (GMT)       : 21:06:33.000
EXACTITUD DEL TIEMPO (s)               : 
DURACION DEL REGISTRO (s), C1-C6       : /154/154/154
DURACION DEL REGISTRO (s), C7-C12      : 
NUM. TOTAL DE MUESTRAS, C1-C6          : /30800/30800/30800
NUM. TOTAL DE MUESTRAS, C7-C12         : 
ACEL. MAX.(Gal), C1-C6                 : /0.324/-0.601/0.418
ACEL. MAX., C1-C6, EN LA MUESTRA       : /2385/14651/13092
ACEL. MAX.(Gal), C7-C12                : 
ACEL. MAX., C7-C12,EN LA MUESTRA       : 
UNIDADES DE LOS DATOS                  : Gal (cm/s/s)
FACTOR DE DECIMACION                   : 1
FORMATO DATOS (FORTRAN,16 campos/dato) : 3E16.7


================================================================================
CALIDAD DEL ACELEROGRAMA:
REGISTRO DIGITAL COMPLETO CON TIEMPO ABSOLUTO CORRECTO


================================================================================
COMENTARIOS:














================================================================================
DATOS DE ACELERACION:
---------+---------+---------+---------+---------+---------+---------+---------+
   CANAL-1   	      CANAL-2          CANAL-3
      V                 N00E             N90E
---------+---------+---------+---------+---------+---------+---------+---------+
[...]
   3.4670900e-03  -4.3674100e-02   4.2420000e-02
   9.0319100e-04  -3.0352300e-02   4.7568300e-02
  -5.8561700e-03  -3.2222000e-02   4.6164300e-02
  -4.9529800e-04  -2.1938500e-02   4.4760200e-02
   1.0459500e-02  -1.6329400e-02   3.6335600e-02
   1.8850500e-02  -1.0486500e-02   3.6803700e-02
   2.3045900e-02   7.3183200e-04   2.9315200e-02
   2.5143700e-02   4.9387100e-03   3.4229500e-02
   2.6775200e-02   1.3586200e-02   3.5399600e-02
   3.4000800e-02   1.1015300e-02   3.4463500e-02
   3.9128600e-02   1.4754700e-02   4.1484000e-02
   4.3557100e-02   2.8076500e-02   3.4697500e-02
   4.5421800e-02   3.0881100e-02   3.5399600e-02
   4.6354100e-02   4.7474900e-02   3.5399600e-02
   5.6609700e-02   5.9394400e-02   3.3059400e-02
   6.2669800e-02   7.4819600e-02   3.5867600e-02
   5.7542000e-02   9.3283100e-02   3.8675800e-02
   5.1481900e-02   9.3984200e-02   3.1655300e-02
   6.1038200e-02   1.1525200e-01   3.0017200e-02
   6.9662200e-02   1.2763900e-01   3.0953300e-02
   7.1060700e-02   1.4399900e-01   2.5805000e-02
   7.5256200e-02   1.6620200e-01   3.0953300e-02
   8.0150900e-02   1.7251300e-01   2.9783200e-02
   8.6910300e-02   1.9705300e-01   3.0485300e-02
   8.1549400e-02   2.0476500e-01   2.8847200e-02
   8.1083200e-02   2.1738600e-01   2.5337000e-02
   8.9474200e-02   2.3327900e-01   2.7443100e-02
   9.0639600e-02   2.3888800e-01   3.1187300e-02
   9.8098200e-02   2.5361200e-01   3.3059400e-02
   9.8797400e-02   2.6225900e-01   3.0719300e-02
   8.2481700e-02   2.7745100e-01   2.9081200e-02
   7.7120900e-02   2.8493000e-01   2.6507000e-02
   8.1782500e-02   2.9988700e-01   3.7739700e-02
   7.7353900e-02   3.1274200e-01   4.0547900e-02
   8.1549400e-02   3.1835100e-01   4.4292100e-02
   9.6000500e-02   3.4032000e-01   5.7397000e-02
   9.9729800e-02   3.5434300e-01   6.2311300e-02
   9.4135800e-02   3.6673000e-01   6.3481300e-02
   9.0872700e-02   3.7444300e-01   6.1375200e-02
   8.6444100e-02   3.8285600e-01   7.1437800e-02
   7.5955400e-02   3.9103600e-01   7.4012000e-02
   7.3391500e-02   3.9687900e-01   8.7350800e-02
   7.8985500e-02   4.0763000e-01   1.0583800e-01
   8.5978000e-02   4.0856500e-01   1.0888000e-01
   8.6677200e-02   4.1697900e-01   1.1730500e-01
   7.4557000e-02   4.2212000e-01   1.1800700e-01
   6.1970600e-02   4.2282200e-01   1.2549500e-01
   5.5444300e-02   4.3287100e-01   1.3509000e-01
   5.2880400e-02   4.3404000e-01   1.4749300e-01
   6.1271300e-02   4.4128500e-01   1.6551200e-01
   7.3857700e-02   4.5156900e-01   1.7861700e-01
   6.5466800e-02   4.4572600e-01   1.8095700e-01
   5.4978100e-02   4.5040000e-01   1.7744600e-01
   5.0316500e-02   4.5297100e-01   1.8165900e-01
   4.2391700e-02   4.4338900e-01   1.8025500e-01
   4.4023300e-02   4.4315500e-01   1.9148700e-01
   4.2391700e-02   4.3848100e-01   2.0389000e-01
   3.9827800e-02   4.3404000e-01   2.0693200e-01
   3.3767700e-02   4.3217000e-01   2.0412400e-01
   2.5143700e-02   4.3076800e-01   1.9663600e-01
   1.9549700e-02   4.2819700e-01   1.9710400e-01
   8.8279600e-03   4.2001700e-01   1.9359400e-01
   1.0692600e-02   4.1651100e-01   2.0248600e-01
   1.5354200e-02   4.1160300e-01   2.0482600e-01
   1.3023400e-02   4.0950000e-01   2.0201800e-01
   1.2790300e-02   4.0950000e-01   2.0459200e-01
   6.9633100e-03   4.0342300e-01   1.8704100e-01
   2.7678400e-03   3.9454200e-01   1.7627600e-01
   1.6024400e-03   3.8986800e-01   1.6644800e-01
  -9.6146100e-04   3.8449200e-01   1.5966100e-01
  -2.1268700e-03   3.7514400e-01   1.6036300e-01
  -2.5930300e-03   3.7070300e-01   1.5732100e-01
  -3.7584400e-03   3.6392500e-01   1.5708700e-01
  -1.2382500e-02   3.5831600e-01   1.4374800e-01
  -2.2871100e-02   3.4966900e-01   1.3111200e-01
  -2.5201900e-02   3.4032000e-01   1.2175100e-01
  -3.1029000e-02   3.3377600e-01   1.0864600e-01
  -3.4758300e-02   3.2466100e-01   1.0232800e-01
  -2.7765800e-02   3.2466100e-01   9.6711400e-02
  -2.5435000e-02   3.2045400e-01   9.2265100e-02
  -2.8465100e-02   3.1461100e-01   8.8988900e-02
  -2.8465100e-02   3.0713300e-01   7.9394300e-02
  -2.5668100e-02   2.9568100e-01   6.1375200e-02
  -2.2405000e-02   2.9521300e-01   5.3184700e-02
  -2.5668100e-02   2.9100600e-01   5.1780600e-02
  -2.0307200e-02   2.9077200e-01   4.4994200e-02
  -3.2922800e-03   2.9264200e-01   4.3356100e-02
  -4.2246000e-03   2.8750000e-01   3.3059400e-02
  -7.9539100e-03   2.8890300e-01   2.4868900e-02
  -4.9238500e-03   2.8469600e-01   2.4868900e-02
  -1.8937900e-03   2.7955400e-01   1.6210400e-02
   2.0686000e-03   2.7464600e-01   1.4572300e-02
  -6.5554200e-03   2.6973800e-01   1.2934200e-02
  -8.1869900e-03   2.7394500e-01   1.4338300e-02
   1.8355200e-03   2.7347800e-01   2.0422600e-02
   1.2324200e-02   2.7277600e-01   1.3636200e-02
   1.8384300e-02   2.7090700e-01   1.4104200e-02
   1.2790300e-02   2.6599900e-01   1.2466100e-02
   1.3256500e-02   2.6927100e-01   1.0360000e-02
   1.8617400e-02   2.7371100e-01   1.9954600e-02
   2.4444400e-02   2.7464600e-01   2.2060700e-02
   3.1903000e-02   2.7908700e-01   3.2357400e-02
   3.5865400e-02   2.8866900e-01   3.8207800e-02
   3.2602300e-02   2.8820200e-01   3.2357400e-02
   3.0504500e-02   2.8586400e-01   3.4931600e-02
   3.8662400e-02   2.8983800e-01   3.7505700e-02
   4.0993200e-02   2.8773400e-01   4.3122100e-02
   3.4933100e-02   2.9170700e-01   5.2950700e-02
   3.6331600e-02   2.9614800e-01   6.3949400e-02
   5.0083400e-02   2.9801800e-01   7.7522200e-02
   5.1248800e-02   3.0502900e-01   8.5244700e-02
   3.6564700e-02   3.0409400e-01   8.6414800e-02
   3.3767700e-02   2.9965400e-01   8.5010700e-02
   3.7263900e-02   3.0058900e-01   8.9223000e-02
   2.9805300e-02   2.9871900e-01   9.6711400e-02
   2.7474500e-02   2.9614800e-01   1.0490200e-01
   3.8196200e-02   2.9708300e-01   1.1847500e-01
   3.5632300e-02   2.9217500e-01   1.2198500e-01
   3.4933100e-02   2.9053900e-01   1.2034700e-01
   3.6564700e-02   2.8633200e-01   1.2292100e-01
   2.4444400e-02   2.7160800e-01   1.1543300e-01
   2.3978300e-02   2.6763500e-01   1.1800700e-01
   2.1880500e-02   2.6576500e-01   1.2713300e-01
   1.6286600e-02   2.6225900e-01   1.2994200e-01
   2.1647400e-02   2.5758500e-01   1.3509000e-01
   1.6519700e-02   2.4473100e-01   1.3134600e-01
   4.3994100e-03   2.3491500e-01   1.2572900e-01
   2.5347600e-03   2.2206000e-01   1.2058100e-01
   3.9332500e-03   2.0850500e-01   1.1870900e-01
  -3.7584400e-03   1.9798800e-01   1.2104900e-01
  -1.5645600e-02   1.8209500e-01   1.1824100e-01
  -1.8675700e-02   1.6924100e-01   1.1870900e-01
  -8.4200700e-03   1.6199500e-01   1.2268700e-01
  -2.8261100e-03   1.4797200e-01   1.2619700e-01
  -6.3223400e-03   1.3091100e-01   1.1894300e-01
  -1.5179400e-02   1.2249700e-01   1.1168800e-01
  -2.7066600e-02   1.0940900e-01   1.0630600e-01
  -1.8908700e-02   1.0076200e-01   9.8817600e-02
  -9.1193100e-03   9.5853900e-02   9.6477400e-02
  -9.1193100e-03   7.8792700e-02   9.1095100e-02
  -2.8261100e-03   6.5003500e-02   9.0627000e-02
  -4.9238500e-03   5.1214300e-02   8.6882800e-02
  -1.2848600e-02   3.6022800e-02   8.4308700e-02
  -1.7743300e-02   2.0831300e-02   8.0564400e-02
  -2.1472600e-02   6.1072800e-03   7.3544000e-02
  -1.7743300e-02  -5.5784800e-03   7.3075900e-02
  -2.0540300e-02  -1.2823700e-02   6.9799700e-02
  -3.7322200e-02  -1.8666500e-02   7.2607900e-02
  -3.0096700e-02  -3.4325500e-02   7.0501800e-02
   2.0686000e-03  -4.0635800e-02   7.1203800e-02
   1.3023400e-02  -4.7880900e-02   7.2607900e-02
   1.2091100e-02  -5.8398100e-02   6.9097700e-02
   7.6625600e-03  -6.0735300e-02   7.0267800e-02
   1.6024400e-03  -6.9382800e-02   6.5821500e-02
   6.9633100e-03  -7.1252500e-02   7.1671900e-02
   1.0459500e-02  -7.4991900e-02   7.8458300e-02
   2.0249000e-02  -8.4574200e-02   8.1734500e-02
   3.2835400e-02  -8.5742800e-02   8.6648800e-02
   3.4233900e-02  -9.4390300e-02   8.6180800e-02
   5.0316500e-02  -1.0560900e-01   8.6414800e-02
   6.1504400e-02  -1.0490700e-01   9.4839300e-02
   4.3324000e-02  -1.0771200e-01   1.0724200e-01
   3.7030800e-02  -1.1449000e-01   1.1192200e-01
   4.7752600e-02  -1.1519100e-01   1.2058100e-01
   5.3346500e-02  -1.2126800e-01   1.2572900e-01
   5.6376600e-02  -1.2617600e-01   1.2455900e-01
   5.9639700e-02  -1.2921400e-01   1.3134600e-01
   6.8729900e-02  -1.3529000e-01   1.3953600e-01
   7.5955400e-02  -1.3458900e-01   1.4772700e-01
   7.4090800e-02  -1.3762800e-01   1.5544900e-01
   6.7797600e-02  -1.4300300e-01   1.5544900e-01
   6.6865300e-02  -1.4417200e-01   1.5708700e-01
   6.7564500e-02  -1.4604100e-01   1.6668200e-01
   5.9406700e-02  -1.4861200e-01   1.7276600e-01
   5.4278900e-02  -1.5539000e-01   1.8189300e-01
   5.4511900e-02  -1.5445500e-01   1.9265700e-01
   5.5444300e-02  -1.5352000e-01   1.9921000e-01
   4.9384100e-02  -1.6263500e-01   2.0716600e-01
   3.9594700e-02  -1.6427100e-01   2.0880400e-01
   3.9361600e-02  -1.7081500e-01   2.1278300e-01
   3.5632300e-02  -1.7759300e-01   2.1863300e-01
   2.5143700e-02  -1.8016400e-01   2.1933500e-01
   1.2790300e-02  -1.9231700e-01   2.2003700e-01
   7.6625600e-03  -1.9395300e-01   2.2776000e-01
   4.6325000e-03  -2.0096400e-01   2.3548200e-01
  -7.2838000e-04  -2.1779200e-01   2.3688600e-01
  -1.1945400e-03  -2.2527100e-01   2.4343900e-01
  -1.3780900e-02  -2.3882600e-01   2.5069300e-01
  -2.4735800e-02  -2.5284900e-01   2.5560700e-01
  -2.0540300e-02  -2.6219800e-01   2.5584100e-01
  -1.9374900e-02  -2.7294900e-01   2.5701100e-01
  -2.2638000e-02  -2.8837400e-01   2.6169200e-01
  -3.1262100e-02  -3.0520100e-01   2.5677700e-01
  -4.1983800e-02  -3.2062700e-01   2.5584100e-01
  -6.0630300e-02  -3.4142700e-01   2.4999100e-01
  -7.2750600e-02  -3.5661900e-01   2.4039600e-01
  -6.8788200e-02  -3.6550000e-01   2.4788500e-01
  -7.4382100e-02  -3.8419700e-01   2.4203500e-01
  -7.8577600e-02  -3.9611700e-01   2.3595000e-01
  -8.0675300e-02  -4.1014000e-01   2.3407800e-01
  -8.2773100e-02  -4.3421200e-01   2.1816500e-01
  -7.8344500e-02  -4.4239200e-01   2.1208100e-01
  -8.6036200e-02  -4.5664900e-01   2.0108200e-01
  -9.6291800e-02  -4.7371000e-01   1.9031700e-01
  -1.1190800e-01  -4.7861800e-01   1.8376500e-01
  -1.2123200e-01  -4.9334200e-01   1.6902200e-01
  -1.1820100e-01  -5.0362600e-01   1.6410800e-01
  -1.2869000e-01  -5.1507800e-01   1.5123700e-01
  -1.2635900e-01  -5.3026900e-01   1.3766400e-01
  -1.0864500e-01  -5.3868300e-01   1.2806900e-01
  -9.9321900e-02  -5.5153700e-01   1.1239000e-01
  -9.7690300e-02  -5.5808100e-01   1.0747600e-01
  -9.5825600e-02  -5.6602800e-01   9.3201200e-02
  -8.8134000e-02  -5.7701200e-01   8.0798400e-02
  -8.9299400e-02  -5.7958300e-01   7.9862400e-02
  -9.3261700e-02  -5.8776300e-01   6.7459600e-02
  -8.5570100e-02  -5.9220400e-01   5.8099000e-02
  -7.5314500e-02  -5.9500800e-01   4.9206400e-02
  -7.4615200e-02  -5.9430700e-01   3.6101600e-02
  -8.2073800e-02  -5.9454100e-01   2.5102900e-02
  -7.6713000e-02  -6.0085100e-01   1.9720600e-02
  -7.1818200e-02  -5.9407400e-01   1.5040300e-02
  -7.7645300e-02  -5.9711200e-01   5.6797200e-03
  -7.5314500e-02  -5.9851400e-01   6.3366300e-05
  -7.2983700e-02  -5.9313900e-01  -9.2972200e-03
  -6.7855900e-02  -5.9243800e-01  -1.0935300e-02
  -6.1562700e-02  -5.8612700e-01  -1.6785700e-02
  -6.4825800e-02  -5.8051800e-01  -2.3806100e-02
  -7.1585200e-02  -5.6672900e-01  -2.5210200e-02
  -7.4848300e-02  -5.6065200e-01  -4.3697400e-02
  -6.1795700e-02  -5.5527700e-01  -4.8611700e-02
  -4.8510100e-02  -5.4382500e-01  -5.8206300e-02
  -4.3848500e-02  -5.3634600e-01  -7.2481200e-02
  -4.0352200e-02  -5.2442600e-01  -6.9439000e-02
  -4.3615400e-02  -5.1811600e-01  -7.2247200e-02
  -4.2450000e-02  -5.0783300e-01  -7.3885300e-02
  -2.8698200e-02  -4.9988600e-01  -8.0905700e-02
  -8.4200700e-03  -4.9544600e-01  -8.6054000e-02
  -9.1193100e-03  -4.8399400e-01  -8.8160200e-02
  -1.5179400e-02  -4.8329300e-01  -9.3542500e-02
   4.8655800e-03  -4.7394400e-01  -9.4478600e-02
   1.0459500e-02  -4.5922000e-01  -9.8456800e-02
  -4.4576800e-03  -4.5664900e-01  -1.0524300e-01
  -2.9135200e-05  -4.4917000e-01  -1.0992400e-01
   1.6752700e-02  -4.4075600e-01  -1.0407300e-01
   2.4910600e-02  -4.3654900e-01  -1.0360500e-01
   2.3512100e-02  -4.3210900e-01  -1.0875300e-01
   2.0015900e-02  -4.2509700e-01  -1.1249800e-01
   2.6076000e-02  -4.1551500e-01  -1.1928400e-01
   3.3068400e-02  -4.0359600e-01  -1.1788000e-01
   2.7474500e-02  -3.9144200e-01  -1.1437000e-01
   3.1203800e-02  -3.8863800e-01  -1.0851900e-01
   4.1226300e-02  -3.8302900e-01  -1.0524300e-01
   3.2835400e-02  -3.7905500e-01  -1.1179600e-01
   2.7707600e-02  -3.8115900e-01  -1.1788000e-01
   3.9594700e-02  -3.7274500e-01  -1.1811400e-01
   3.6797700e-02  -3.7087500e-01  -1.1624200e-01
   2.8173700e-02  -3.7227800e-01  -1.2022000e-01
   2.9339100e-02  -3.6620100e-01  -1.1975200e-01
   2.5376800e-02  -3.6853800e-01  -1.2256000e-01
   3.4000800e-02  -3.7157700e-01  -1.2747500e-01
   4.0527100e-02  -3.7204400e-01  -1.2747500e-01
   3.2602300e-02  -3.7484900e-01  -1.3636700e-01
   3.8196200e-02  -3.7391400e-01  -1.3660100e-01
   4.3324000e-02  -3.7181000e-01  -1.3823900e-01
   4.0760100e-02  -3.6713600e-01  -1.4198400e-01
   3.1436900e-02  -3.6526600e-01  -1.4128100e-01
   2.6076000e-02  -3.6713600e-01  -1.4994000e-01
   3.9361600e-02  -3.6035800e-01  -1.5111000e-01
   3.7263900e-02  -3.5825500e-01  -1.6000300e-01
   2.7474500e-02  -3.5919000e-01  -1.6444900e-01
   2.7940600e-02  -3.5264600e-01  -1.5789700e-01
   2.1181300e-02  -3.5077600e-01  -1.6702300e-01
   2.1414400e-02  -3.5217800e-01  -1.7029900e-01
   3.6331600e-02  -3.4984100e-01  -1.6632100e-01
   5.2414200e-02  -3.4773800e-01  -1.6678900e-01
   5.2181100e-02  -3.4119400e-01  -1.6678900e-01
   3.4000800e-02  -3.3535100e-01  -1.6936300e-01
   3.4000800e-02  -3.3114400e-01  -1.7498000e-01
   4.4489400e-02  -3.1852300e-01  -1.7638400e-01
   3.8196200e-02  -3.1314800e-01  -1.8106400e-01
   3.3068400e-02  -3.0917500e-01  -1.8551000e-01
   3.2602300e-02  -2.9959200e-01  -1.8129800e-01
   3.4700000e-02  -2.9141200e-01  -1.7942600e-01
   3.9827800e-02  -2.8393300e-01  -1.7849000e-01
   3.5632300e-02  -2.7481800e-01  -1.7451200e-01
   3.2369200e-02  -2.6547000e-01  -1.7919200e-01
   3.6564700e-02  -2.5799100e-01  -1.8785000e-01
   3.8895500e-02  -2.4046200e-01  -1.9042500e-01
   3.4233900e-02  -2.3251600e-01  -1.9978500e-01
   2.9106100e-02  -2.2433600e-01  -2.0118900e-01
   2.4444400e-02  -2.0610600e-01  -2.0352900e-01
   2.0948200e-02  -1.9862700e-01  -2.1101800e-01
   2.6309100e-02  -1.8180000e-01  -2.0446500e-01
   2.1647400e-02  -1.7315200e-01  -2.1312400e-01
   1.0692600e-02  -1.6847800e-01  -2.2154900e-01
   1.3489600e-02  -1.5258500e-01  -2.2669700e-01
   1.6519700e-02  -1.4370400e-01  -2.3371700e-01
   1.5587300e-02  -1.3178500e-01  -2.3161100e-01
   1.9549700e-02  -1.2150100e-01  -2.3769600e-01
   2.6775200e-02  -1.1028300e-01  -2.3746200e-01
   2.2346700e-02  -9.9999500e-02  -2.4144000e-01
   9.9933700e-03  -9.2286800e-02  -2.4822600e-01
   6.7302300e-03  -8.0601100e-02  -2.4869400e-01
   5.5648200e-03  -7.8030200e-02  -2.5220400e-01
   3.4670900e-03  -7.3823300e-02  -2.5501300e-01
   1.1858000e-02  -6.2371300e-02  -2.5571500e-01
   1.8384300e-02  -5.7930700e-02  -2.5103400e-01
   7.4294700e-03  -5.6528400e-02  -2.5267200e-01
  -2.9135200e-05  -5.3256400e-02  -2.5875700e-01
   3.2340100e-03  -4.8582100e-02  -2.6250100e-01
   4.3994100e-03  -4.3674100e-02  -2.6741500e-01
   4.6325000e-03  -4.0635800e-02  -2.7396800e-01
   9.5272100e-03  -3.0352300e-02  -2.7584000e-01
   1.4888100e-02  -2.0068800e-02  -2.7326600e-01
