**************************************************************************************
  	RED ACELEROGRÁFICA DE LA UNIVERSIDAD AUTONOMA METROPOLITANA (RA-UAM)
	   UNIDAD AZCAPOTZALCO. DIVISIÓN CBI-DEPARTAMENTO DE MATERIALES
     Av. San Pablo 420, Col. Nueva el Rosario, Azcapotzalco, C.P. 02128, Ciudad de México
		Área de Estructuras. e-mail: agb@azc.uam.mx
**************************************************************************************
ARCHIVO ESTANDAR DE ACELERACION:
VERSION DEL FORMATO                    : 2.0
NOMBRE DEL ARCHIVO                     : RUML202203.011
FECHA Y HORA DE CREACION               : 11:30 a. m. 04/03/2022
REF. CATALOGO ACELEROGRAMAS, SMIS 1999 : REGISTRO NO.      /PAG.    


================================================================================
DATOS DE LA ESTACION:
NOMBRE DE LA ESTACION                  : UAM-LERMA.
CLAVE DE LA ESTACION                   : RUML
LOCALIZACION DE LA ESTACION            : AV. DE LAS GARZAS 10, EL PANTEON, C.P.52005,
                                       : LERMA DE VILLADA, ESTADO DE MEXICO.   
                                       : 
                                       : 
                                       : 
COORDENADAS DE LA ESTACION             : 19.291278 LAT. N
                                       : 99.500578 LONG. W
ALTITUD (msnm)                         : 2570
TIPO DE SUELO                          : DEPOSITOS LACUSTRES
                                       : 
                                       : 
INSTITUCION RESPONSABLE                : UNIVERSIDAD AUTONOMA METROPOLITANA
                                       : 

================================================================================
DATOS DEL ACELEROGRAFO: 
MODELO DEL ACELEROGRAFO                : ETNA2 KINEMETRICS
NUMERO DE SERIE DEL ACELEROGRAFO       : 103733
NUMERO DE CANALES                      : 3
ORIENTACION C1-C6 (rumbo;orientacion)  : /N90E/N00E/V 
ORIENTACION C7-C12 (rumbo;orientacion) : 
VEL. DE MUESTREO, C1-C6 (muestras/s)   : /200/200/200
VEL. DE MUESTREO, C7-C12 (muestras/s)  : 
ESC. COMPLETA DE SENSORES, C1-C6, (g)  : /2/2/2
ESC. COMPLETA DE SENSORES, C7-C12 (g)  : 
FREC. NAT. DE SENSORES, C1-C6, (Hz)    : /212/206/208   
FREC. NAT. DE SENSORES, C7-C12 (Hz)    : 
AMORTIGUAMIENTO DE SENSORES, C1-C6     : /0.7/0.7/0.7      
AMORTIGUAMIENTO DE SENSORES, C7-C12    : 
INTERVALO DE MUESTREO, C1-C6 (s)       : /0.005/0.005/0.005
INTERVALO DE MUESTREO, C7-C12 (s)      : 
UMBRAL DE DISPARO, C1-C6 (Gal)         : /2/2/2
UMBRAL DE DISPARO, C7-C12 (Gal)        : 
MEMORIA DE PREEVENTO (s)               : 50
TIEMPO DE POSEVENTO (s)                : 60


================================================================================
DATOS DEL SISMO:
FECHA DEL SISMO [GMT]                  : 2022/03/01
HORA EPICENTRO (GMT)                   : 19:35:45
MAGNITUD(ES)                           : /M=5.2
COORDENADAS DEL EPICENTRO              : 15.9400 LAT. N
                                       : -96.6100 LONG. W
PROFUNDIDAD FOCAL (Km)                 : 41.0
FUENTE DE LOS DATOS EPICENTRALES       : SSN
                                       : INSTITUTO DE GEOFISICA, UNAM

================================================================================
DATOS DE ESTE REGISTRO:
HORA DE LA PRIMERA MUESTRA (GMT)       : 19:37:11.000
EXACTITUD DEL TIEMPO (s)               : 
DURACION DEL REGISTRO (s), C1-C6       : /168/168/168
DURACION DEL REGISTRO (s), C7-C12      : 
NUM. TOTAL DE MUESTRAS, C1-C6          : /33600/33600/33600
NUM. TOTAL DE MUESTRAS, C7-C12         : 
ACEL. MAX.(Gal), C1-C6                 : /-1.301/1.645/-0.485
ACEL. MAX., C1-C6, EN LA MUESTRA       : /11886/10946/12181
ACEL. MAX.(Gal), C7-C12                : 
ACEL. MAX., C7-C12,EN LA MUESTRA       : 
UNIDADES DE LOS DATOS                  : Gal (cm/s/s)
FACTOR DE DECIMACION                   : 1
FORMATO DATOS (FORTRAN,16 campos/dato) : 3E16.7


================================================================================
CALIDAD DEL ACELEROGRAMA:
REGISTRO DIGITAL COMPLETO CON TIEMPO ABSOLUTO CORRECTO


================================================================================
COMENTARIOS:














================================================================================
DATOS DE ACELERACION:
---------+---------+---------+---------+---------+---------+---------+---------+
   CANAL-1   	     CANAL-2          CANAL-3
     N90E              N00E              V
---------+---------+---------+---------+---------+---------+---------+---------+
[...]
   5.7065700e-01   9.2828500e-01  -2.2348200e-02
   5.9640300e-01   9.2664900e-01  -1.4857400e-02
   5.7346600e-01   8.8855300e-01  -1.5142600e-03
   5.4982600e-01   8.9649900e-01   3.4016200e-03
   5.5333700e-01   8.9018900e-01   1.1594800e-02
   5.3461300e-01   9.1145700e-01   3.7344600e-02
   5.2291000e-01   9.1145700e-01   4.6005900e-02
   5.2618700e-01   8.8902000e-01   2.5406100e-02
   5.0956900e-01   8.8037300e-01   1.4872000e-02
   4.7563200e-01   8.4928900e-01  -8.1199200e-04
   4.4918400e-01   8.4718500e-01  -2.4506200e-03
   4.4169400e-01   8.0207800e-01   1.4403800e-02
   4.1571500e-01   7.4178000e-01   1.4872000e-02
   3.8482000e-01   7.7894100e-01   1.1360700e-02
   3.8739400e-01   8.2358000e-01   1.4637900e-02
   3.8130900e-01   7.9459900e-01   2.0958300e-02
   3.6422300e-01   7.5743900e-01  -5.4937800e-03
   3.5462700e-01   7.0765700e-01  -1.7666400e-02
   3.0383800e-01   6.9573800e-01  -1.5142600e-03
   2.7434700e-01   7.0765700e-01   2.9334400e-03
   3.0851900e-01   6.9223200e-01  -7.3665000e-03
   3.1039100e-01   6.6255000e-01  -1.5559600e-02
   2.7013400e-01   6.1440500e-01  -1.7198300e-02
   2.4462200e-01   6.5811000e-01  -3.1945900e-02
   2.6428300e-01   6.7353500e-01  -2.9605000e-02
   2.8464500e-01   6.0762700e-01  -5.5589000e-02
   2.4251600e-01   5.5691100e-01  -9.0468300e-02
   2.0811000e-01   5.0432500e-01  -7.2209300e-02
   2.2309000e-01   5.3026700e-01  -7.2209300e-02
   2.1513200e-01   5.7163500e-01  -7.9700200e-02
   2.2309000e-01   4.8890000e-01  -6.9166200e-02
   2.3806900e-01   3.9564700e-01  -5.7461700e-02
   1.7042800e-01   3.9588100e-01  -4.0373100e-02
   1.4749100e-01   4.1691600e-01  -1.1580100e-02
   1.8493900e-01   4.2182400e-01   1.2531100e-02
   1.8400300e-01   3.9027200e-01  -8.0687700e-03
   1.7042800e-01   3.3908800e-01  -3.2882300e-02
   1.4608600e-01   3.1010800e-01  -2.4689100e-02
   1.3812900e-01   2.7551800e-01  -5.9619600e-03
   1.2923500e-01   2.5027700e-01   8.7856800e-03
   1.2759600e-01   2.2971000e-01   2.0256100e-02
   1.2549000e-01   1.7291700e-01   2.3533300e-02
   8.6871300e-02   1.5608900e-01   2.0490200e-02
   6.3934200e-02   1.6964500e-01   3.6408300e-02
   7.1423800e-02   1.1682500e-01   6.4030800e-02
   8.1020000e-02   7.9197000e-02   5.7710400e-02
   5.7146700e-02   3.5492200e-02   5.0921800e-02
   4.1231100e-02  -1.6685100e-03   6.8478500e-02
   3.5613900e-02   1.8898400e-02   5.9349100e-02
   1.1974600e-02  -2.9948100e-02   5.4901300e-02
   1.0570300e-02  -8.2534000e-02   6.7542200e-02
   1.5251300e-02  -1.2553800e-01   9.1887500e-02
  -2.1963000e-02  -1.8162900e-01   1.1482800e-01
  -5.2155700e-02  -1.5498600e-01   1.1693500e-01
  -3.1559100e-02  -1.5451800e-01   1.1646700e-01
  -5.5198400e-02  -2.0850700e-01   9.8676100e-02
  -1.1230700e-01  -2.4169400e-01   9.0483000e-02
  -1.0856200e-01  -2.9311100e-01   9.4696600e-02
  -1.0622200e-01  -3.0152500e-01   9.3292100e-02
  -1.4460600e-01  -3.0877000e-01   1.0195300e-01
  -1.5045800e-01  -3.8262400e-01   1.0686900e-01
  -1.4133000e-01  -4.3450900e-01   1.0686900e-01
  -1.9937500e-01  -4.8218700e-01   1.3051200e-01
  -2.6912200e-01  -4.9363900e-01   1.6656200e-01
  -2.5788800e-01  -4.7517600e-01   1.7569200e-01
  -2.5320700e-01  -5.2869600e-01   1.8528900e-01
  -3.2178400e-01  -6.2054700e-01   2.1361400e-01
  -3.4004000e-01  -6.4789100e-01   2.4170500e-01
  -3.2318800e-01  -6.0886100e-01   2.4943000e-01
  -3.6250900e-01  -5.9834400e-01   2.2812800e-01
  -3.7748800e-01  -6.3643900e-01   1.9090700e-01
  -3.8802100e-01  -6.8365000e-01   1.5204900e-01
  -4.4606500e-01  -7.2057700e-01   1.4174900e-01
  -4.6221500e-01  -7.4324700e-01   1.4923900e-01
  -4.3529900e-01  -7.5797100e-01   1.6000800e-01
  -4.3202200e-01  -7.7105900e-01   1.4432400e-01
  -4.7017300e-01  -7.6334700e-01   1.1131700e-01
  -5.0598300e-01  -7.7316300e-01   1.0289000e-01
  -5.1557900e-01  -8.0144200e-01   9.5398900e-02
  -5.5700600e-01  -8.2434600e-01   8.9780700e-02
  -5.3477100e-01  -8.6010500e-01   6.7308100e-02
  -4.6759800e-01  -8.6104000e-01   1.2531100e-02
  -5.1417500e-01  -8.7506200e-01  -4.4586800e-02
  -5.5747400e-01  -9.3512700e-01  -4.2011800e-02
  -5.5911300e-01  -9.6738000e-01   8.5516000e-03
  -5.9492300e-01  -9.7976700e-01   4.0856000e-02
  -6.1013600e-01  -1.0017400e+00   5.8178600e-02
  -5.8205000e-01  -1.0218400e+00   7.2458100e-02
  -5.5911300e-01  -1.0267400e+00   7.4330800e-02
  -5.6004900e-01  -1.0012700e+00   5.9349100e-02
  -5.6238900e-01  -9.7065200e-01   4.9751400e-02
  -5.5232500e-01  -1.0064100e+00   4.2962800e-02
  -5.7151700e-01  -1.0835400e+00   2.1426500e-02
  -6.0779600e-01  -1.1134500e+00   1.5574300e-02
  -5.7924100e-01  -1.1157900e+00   1.5574300e-02
  -5.6473000e-01  -1.1153200e+00   6.4447900e-03
  -5.9585900e-01  -1.1253700e+00   3.4769600e-02
  -5.6238900e-01  -1.1468700e+00   5.6774100e-02
  -5.1932400e-01  -1.1501500e+00   3.8983300e-02
  -5.4460100e-01  -1.1513100e+00   1.0424300e-02
  -5.4928300e-01  -1.1641700e+00  -1.6261900e-02
  -5.2423900e-01  -1.1971200e+00  -1.3452800e-02
  -5.3781400e-01  -1.2550800e+00  -5.7278700e-03
  -5.6870900e-01  -1.2679400e+00  -9.9414900e-03
  -5.4600600e-01  -1.2352200e+00  -1.5325600e-02
  -5.0083400e-01  -1.2550800e+00  -4.4352700e-02
  -5.1838800e-01  -1.2665400e+00  -7.0102500e-02
  -5.2143000e-01  -1.2852300e+00  -7.8997900e-02
  -5.1464300e-01  -1.3410900e+00  -7.9232000e-02
  -5.5794200e-01  -1.3644600e+00  -4.8332200e-02
  -5.5115500e-01  -1.3857300e+00  -3.4989100e-02
  -5.0106800e-01  -1.3642300e+00  -6.0504900e-02
  -5.1160000e-01  -1.3644600e+00  -7.1038900e-02
  -5.4366500e-01  -1.4210200e+00  -5.1141300e-02
  -5.1698300e-01  -1.4460300e+00  -3.2882300e-02
  -5.0223800e-01  -1.4413500e+00  -4.3416300e-02
  -5.3547300e-01  -1.4441600e+00  -4.3416300e-02
  -5.2915400e-01  -1.4327100e+00  -2.7030000e-02
  -4.9334400e-01  -1.4193900e+00  -4.3182200e-02
  -5.0083400e-01  -1.4436900e+00  -6.0270800e-02
  -5.2189800e-01  -1.4504700e+00  -3.5925400e-02
  -5.1979200e-01  -1.4771100e+00  -2.6847100e-03
  -5.2775000e-01  -1.4495300e+00   2.4652600e-03
  -5.1183400e-01  -1.4060600e+00  -1.6964200e-02
  -4.6596000e-01  -1.4261600e+00  -2.9605000e-02
  -4.7766300e-01  -1.3974200e+00  -3.9670900e-02
  -5.0972800e-01  -1.3929800e+00  -5.1609400e-02
  -4.8608800e-01  -1.3929800e+00  -4.4352700e-02
  -4.6455600e-01  -1.3894700e+00  -3.9670900e-02
  -4.8515200e-01  -1.4203200e+00  -5.0673100e-02
  -4.9708900e-01  -1.3843300e+00  -6.9634400e-02
  -4.6642800e-01  -1.3424900e+00  -7.4550200e-02
  -4.5308700e-01  -1.3565200e+00  -5.3248100e-02
  -4.7227900e-01  -1.3394500e+00  -3.6861800e-02
  -4.4864000e-01  -1.3326800e+00  -3.0541400e-02
  -4.3459700e-01  -1.3502100e+00  -3.4520900e-02
  -4.4793800e-01  -1.2950500e+00  -4.2245900e-02
  -4.1259600e-01  -1.2307800e+00  -4.8332200e-02
  -3.8170100e-01  -1.2228300e+00  -5.8632100e-02
  -3.8029700e-01  -1.2436300e+00  -5.0204900e-02
  -3.6859400e-01  -1.2272700e+00  -3.8266300e-02
  -3.6157300e-01  -1.1468700e+00  -4.5523100e-02
  -3.2599700e-01  -1.1008300e+00  -4.9268600e-02
  -2.7497300e-01  -1.1064400e+00  -4.2948100e-02
  -2.7871800e-01  -1.0788600e+00  -3.7330000e-02
  -2.8644200e-01  -1.0547900e+00  -4.0841300e-02
  -2.6725000e-01  -1.0134200e+00  -4.2245900e-02
  -2.3612100e-01  -9.4891700e-01  -3.4520900e-02
  -2.0803400e-01  -9.0544500e-01  -5.3950300e-02
  -2.1341800e-01  -8.8324300e-01  -8.7191100e-02
  -2.1131100e-01  -9.0474400e-01  -8.7425200e-02
  -2.1177900e-01  -8.6477900e-01  -7.0804800e-02
  -2.2582200e-01  -8.0611600e-01  -6.7293500e-02
  -2.0171500e-01  -7.6287900e-01  -7.6657000e-02
  -1.6613900e-01  -6.9930900e-01  -8.3913800e-02
  -1.6754300e-01  -6.7079500e-01  -8.6957000e-02
  -2.0803400e-01  -6.3223200e-01  -6.4484400e-02
  -2.0311900e-01  -5.7520600e-01  -4.2245900e-02
  -1.6005400e-01  -5.2238600e-01  -5.3716300e-02
  -1.9024600e-01  -4.8172000e-01  -6.3313900e-02
  -2.0967300e-01  -4.7891500e-01  -6.8463900e-02
  -1.8533100e-01  -4.4315700e-01  -5.6291200e-02
  -2.0616200e-01  -3.8846700e-01  -2.8434600e-02
  -2.2652500e-01  -3.4195800e-01  -1.7900500e-02
  -1.9960900e-01  -2.8843700e-01  -3.4286800e-02
  -1.9118300e-01  -2.8726900e-01  -5.5823100e-02
  -2.3705700e-01  -2.5852200e-01  -4.9736700e-02
  -2.5320700e-01  -2.0687100e-01  -1.7432400e-02
  -2.3916300e-01  -1.6223100e-01  -2.6847100e-03
  -2.6093000e-01  -6.7576200e-02  -3.0307300e-02
  -2.6959000e-01  -1.1952000e-02  -6.0036700e-02
  -2.5624900e-01   2.3806500e-02  -9.1170600e-02
  -2.8971900e-01   1.1565700e-01  -1.2347500e-01
  -2.9954900e-01   1.3318500e-01  -1.1317500e-01
  -2.7591000e-01   1.2360300e-01  -9.0468300e-02
  -3.0937900e-01   1.9512000e-01  -1.0825900e-01
  -3.0259200e-01   2.4069400e-01  -1.3120000e-01
  -2.7169700e-01   2.4840700e-01  -1.1013200e-01
  -2.8878200e-01   2.6172900e-01  -7.2209300e-02
  -3.1991100e-01   2.8510000e-01  -3.8968600e-02
  -3.1874100e-01   3.5988900e-01  -8.3028600e-03
  -2.9018700e-01   4.1995400e-01  -5.0256100e-03
  -3.3489100e-01   4.4332500e-01   1.2948200e-03
  -3.5736000e-01   4.9895000e-01   2.4235600e-02
  -3.0984700e-01   5.7630900e-01   3.4535500e-02
  -3.0914500e-01   6.5881100e-01   2.7746900e-02
  -3.4729500e-01   7.1513600e-01   1.3467500e-02
  -3.2833700e-01   7.7450000e-01   1.2531100e-02
  -3.0446400e-01   8.7219300e-01  -2.4506200e-03
  -3.4238000e-01   9.2688200e-01  -1.4857400e-02
  -3.1874100e-01   8.9112400e-01  -1.3218700e-02
  -2.7427100e-01   9.1659900e-01   5.5084300e-03
  -3.0703900e-01   1.0005000e+00   3.4769600e-02
  -3.2552900e-01   1.0388300e+00   5.2794500e-02
  -2.7637800e-01   1.0904800e+00   7.8310300e-02
  -2.5227000e-01   1.1353600e+00   7.7608000e-02
  -2.8433500e-01   1.1863100e+00   7.8778500e-02
  -2.7403700e-01   1.2225300e+00   7.8544400e-02
  -2.2675900e-01   1.2286100e+00   7.0819400e-02
  -2.1622600e-01   1.2854000e+00   6.5669500e-02
  -1.8111800e-01   1.3454700e+00   1.2999300e-02
  -1.3360600e-01   1.3784200e+00  -3.7330000e-02
  -1.9141700e-01   1.3875400e+00  -4.7864000e-02
  -2.4946200e-01   1.4172200e+00  -1.5559600e-02
  -1.8205500e-01   1.4550800e+00  -8.1199200e-04
  -1.2073300e-01   1.4424600e+00  -1.5325600e-02
  -1.6286200e-01   1.4494700e+00  -2.2165300e-03
  -1.5958600e-01   1.4630300e+00   1.2297000e-02
  -1.0996700e-01   1.5008900e+00   1.8149300e-02
  -1.2892500e-01   1.5294000e+00  -1.7483500e-03
  -1.2705200e-01   1.5114000e+00  -2.5157300e-02
  -8.9135900e-02   1.5025200e+00  -1.9539200e-02
  -8.9135900e-02   1.5072000e+00  -1.7900500e-02
  -6.4560500e-02   1.5555800e+00  -4.9970800e-02
  -3.4728500e-03   1.5798800e+00  -6.9166200e-02
  -3.2963400e-02   1.5488000e+00  -5.0673100e-02
  -8.9135900e-02   1.5100000e+00  -3.0073200e-02
  -3.4835800e-02   1.4994800e+00  -3.4381200e-04
   3.5145800e-02   1.5553400e+00  -2.4506200e-03
   3.4677600e-02   1.6172800e+00  -4.6459500e-02
   4.9188900e-02   1.6453200e+00  -8.1104700e-02
   9.3892800e-02   1.6147100e+00  -1.0521600e-01
   7.6807000e-02   1.5644600e+00  -1.1926100e-01
   6.5572500e-02   1.5770800e+00  -1.4477700e-01
   1.1448900e-01   1.5824500e+00  -1.7497500e-01
   1.2595800e-01   1.5516000e+00  -1.8129500e-01
   1.1519200e-01   1.5284700e+00  -1.8550900e-01
   1.4304400e-01   1.5336100e+00  -1.8480600e-01
   1.6761900e-01   1.5216900e+00  -1.6935700e-01
   1.6059800e-01   1.4632600e+00  -1.4594800e-01
   1.8376900e-01   1.4391900e+00  -1.2558200e-01
   2.3666500e-01   1.4487700e+00  -1.3002900e-01
   2.3923900e-01   1.4193200e+00  -1.3775400e-01
   2.2028100e-01   1.3718800e+00  -1.1692000e-01
   2.4509100e-01   1.3414900e+00  -1.0147100e-01
   2.7200700e-01   1.3340100e+00  -1.0849300e-01
   2.8160300e-01   1.3246700e+00  -1.0732300e-01
   3.0851900e-01   1.2809600e+00  -9.5852400e-02
   3.1694500e-01   1.2402900e+00  -8.2977500e-02
   3.2490200e-01   1.2185600e+00  -7.8061600e-02
   3.6071200e-01   1.2230000e+00  -8.9766100e-02
   3.7709600e-01   1.1963600e+00  -8.5786500e-02
   3.8084100e-01   1.1194600e+00  -8.4850200e-02
   3.9371400e-01   1.1056700e+00  -8.7191100e-02
   4.2694900e-01   1.0930500e+00  -7.2677500e-02
   4.4637500e-01   1.0374300e+00  -6.9400300e-02
   4.3373700e-01   9.8905100e-01  -4.4352700e-02
   4.5878000e-01   9.4698200e-01  -2.9839100e-02
   4.8803700e-01   9.5118900e-01  -3.0073200e-02
   4.6556800e-01   9.2290900e-01  -1.6730100e-02
   4.8054700e-01   8.7710100e-01  -8.0687700e-03
   5.3765600e-01   8.5583300e-01  -9.2392200e-03
   5.3180400e-01   8.0815500e-01  -2.7264100e-02
   5.0208000e-01   7.7169500e-01  -2.6795900e-02
   5.2103800e-01   7.3920900e-01  -2.2582300e-02
   5.5474200e-01   7.1139700e-01  -3.2180000e-02
   5.5427300e-01   6.8592200e-01  -5.6057200e-02
   5.6035900e-01   6.4712500e-01  -7.0570700e-02
   5.7487000e-01   5.8659300e-01  -5.6993500e-02
   5.4912400e-01   5.4779600e-01  -5.5120800e-02
   5.6106100e-01   5.2045100e-01  -6.0036700e-02
   5.9336000e-01   4.6833300e-01  -5.7461700e-02
   5.4795400e-01   4.2836800e-01  -4.4352700e-02
   5.1916600e-01   3.8910300e-01  -3.0073200e-02
   5.7604000e-01   3.7367800e-01  -3.9670900e-02
   5.8353000e-01   3.3067500e-01  -6.2845800e-02
   5.1916600e-01   2.4092800e-01  -5.6291200e-02
   5.0582500e-01   1.9932700e-01  -2.5625500e-02
   5.3297500e-01   1.8670600e-01  -1.2282400e-02
   5.3672000e-01   1.5375200e-01  -2.3284600e-02
   5.2501700e-01   1.1191700e-01  -3.6393600e-02
   5.2361300e-01   4.6243100e-02  -3.8500400e-02
   5.0114400e-01  -1.1250800e-02  -3.5457300e-02
   4.8148300e-01  -4.0465200e-02  -9.0051300e-03
   4.9997300e-01  -9.3518600e-02   2.5406100e-02
   4.9786700e-01  -1.2483600e-01   2.5640100e-02
   4.7352500e-01  -1.7765600e-01   2.1894700e-02
   4.6463100e-01  -2.3141100e-01   3.9919600e-02
   4.5597200e-01  -2.6600000e-01   7.1989900e-02
   4.3935400e-01  -3.5107300e-01   1.1365800e-01
   4.3958800e-01  -3.8239100e-01   1.3800300e-01
   4.4356700e-01  -3.6275900e-01   1.3191700e-01
   4.1548100e-01  -3.5364400e-01   1.0640100e-01
   3.9465000e-01  -3.7911900e-01   9.1185200e-02
   4.1758700e-01  -4.4689600e-01   8.5567100e-02
   4.0026700e-01  -5.2402200e-01   7.5033100e-02
   3.3683900e-01  -5.9553900e-01   8.9546600e-02
   3.3356200e-01  -6.1961200e-01   1.1365800e-01
   3.6913800e-01  -6.4228200e-01   1.3519400e-01
   3.6679800e-01  -6.4976100e-01   1.5743300e-01
   3.5088200e-01  -6.3760800e-01   1.7358500e-01
   3.4666900e-01  -6.8318200e-01   1.8552300e-01
   3.4198800e-01  -7.4161100e-01   1.8060700e-01
   3.4175400e-01  -7.8414700e-01   1.8318200e-01
   3.5041400e-01  -8.1803600e-01   1.9231200e-01
   3.5532900e-01  -8.3439600e-01   1.8809800e-01
   3.3777500e-01  -8.2387900e-01   1.7241400e-01
   3.5743600e-01  -8.4047300e-01   1.7007300e-01
   4.0354400e-01  -8.8534600e-01   1.8599200e-01
   3.8903300e-01  -9.2577900e-01   2.1267800e-01
   3.8341500e-01  -9.7322300e-01   2.4123700e-01
   4.1524600e-01  -9.8397400e-01   2.4825900e-01
   3.9558600e-01  -9.5335700e-01   2.3889600e-01
   3.8809600e-01  -9.4003500e-01   2.2531900e-01
   4.5058800e-01  -9.4143800e-01   2.1782800e-01
   4.7797200e-01  -9.5195500e-01   1.9793000e-01
   4.5878000e-01  -9.8023400e-01   1.7779800e-01
   4.8569600e-01  -9.5359100e-01   1.3964200e-01
   4.9271800e-01  -9.7392400e-01   1.3051200e-01
   4.6627000e-01  -9.9729600e-01   1.6211400e-01
   5.1893200e-01  -9.4704700e-01   1.5111200e-01
   5.5708200e-01  -9.4657900e-01   1.6117800e-01
   5.4561400e-01  -9.2858300e-01   1.6281700e-01
   5.9827500e-01  -8.6267600e-01   9.1185200e-02
   6.6919300e-01  -8.1312800e-01   5.2743400e-03
