**************************************************************************************
  	RED ACELEROGRÁFICA DE LA UNIVERSIDAD AUTONOMA METROPOLITANA (RA-UAM)
	   UNIDAD AZCAPOTZALCO. DIVISIÓN CBI-DEPARTAMENTO DE MATERIALES
     Av. San Pablo 420, Col. Nueva el Rosario, Azcapotzalco, C.P. 02128, Ciudad de México
		Área de Estructuras. e-mail: agb@azc.uam.mx
**************************************************************************************
ARCHIVO ESTANDAR DE ACELERACION:
VERSION DEL FORMATO                    : 2.0
NOMBRE DEL ARCHIVO                     : RUML202210.061
FECHA Y HORA DE CREACION               : 11:30 a. m. 13/10/2022
REF. CATALOGO ACELEROGRAMAS, SMIS 1999 : REGISTRO NO.      /PAG.    


================================================================================
DATOS DE LA ESTACION:
NOMBRE DE LA ESTACION                  : UAM-LERMA.
CLAVE DE LA ESTACION                   : RUML
LOCALIZACION DE LA ESTACION            : AV. DE LAS GARZAS 10, EL PANTEON, C.P.52005,
                                       : LERMA DE VILLADA, ESTADO DE MEXICO.   
                                       : 
                                       : 
                                       : 
COORDENADAS DE LA ESTACION             : 19.291278 LAT. N
                                       : 99.500578 LONG. W
ALTITUD (msnm)                         : 2570
TIPO DE SUELO                          : DEPOSITOS LACUSTRES
                                       : 
                                       : 
INSTITUCION RESPONSABLE                : UNIVERSIDAD AUTONOMA METROPOLITANA
                                       : 

================================================================================
DATOS DEL ACELEROGRAFO: 
MODELO DEL ACELEROGRAFO                : ETNA2 KINEMETRICS
NUMERO DE SERIE DEL ACELEROGRAFO       : 103733
NUMERO DE CANALES                      : 3
ORIENTACION C1-C6 (rumbo;orientacion)  : /N90E/N00E/V 
ORIENTACION C7-C12 (rumbo;orientacion) : 
VEL. DE MUESTREO, C1-C6 (muestras/s)   : /200/200/200
VEL. DE MUESTREO, C7-C12 (muestras/s)  : 
ESC. COMPLETA DE SENSORES, C1-C6, (g)  : /2/2/2
ESC. COMPLETA DE SENSORES, C7-C12 (g)  : 
FREC. NAT. DE SENSORES, C1-C6, (Hz)    : /212/206/208   
FREC. NAT. DE SENSORES, C7-C12 (Hz)    : 
AMORTIGUAMIENTO DE SENSORES, C1-C6     : /0.7/0.7/0.7      
AMORTIGUAMIENTO DE SENSORES, C7-C12    : 
INTERVALO DE MUESTREO, C1-C6 (s)       : /0.005/0.005/0.005
INTERVALO DE MUESTREO, C7-C12 (s)      : 
UMBRAL DE DISPARO, C1-C6 (Gal)         : /2/2/2
UMBRAL DE DISPARO, C7-C12 (Gal)        : 
MEMORIA DE PREEVENTO (s)               : 50
TIEMPO DE POSEVENTO (s)                : 60


================================================================================
DATOS DEL SISMO:
FECHA DEL SISMO [GMT]                  : 2022/10/06
HORA EPICENTRO (GMT)                   : 07:03:42
MAGNITUD(ES)                           : /M=4.7
COORDENADAS DEL EPICENTRO              : 18.3100 LAT. N
                                       : -103.5900 LONG. W
PROFUNDIDAD FOCAL (Km)                 : 4.0
FUENTE DE LOS DATOS EPICENTRALES       : SSN
                                       : INSTITUTO DE GEOFISICA, UNAM

================================================================================
DATOS DE ESTE REGISTRO:
HORA DE LA PRIMERA MUESTRA (GMT)       : 07:05:12.000
EXACTITUD DEL TIEMPO (s)               : 
DURACION DEL REGISTRO (s), C1-C6       : /118/118/118
DURACION DEL REGISTRO (s), C7-C12      : 
NUM. TOTAL DE MUESTRAS, C1-C6          : /23600/23600/23600
NUM. TOTAL DE MUESTRAS, C7-C12         : 
ACEL. MAX.(Gal), C1-C6                 : /0.395/-0.448/-0.188
ACEL. MAX., C1-C6, EN LA MUESTRA       : /9172/10011/9470
ACEL. MAX.(Gal), C7-C12                : 
ACEL. MAX., C7-C12,EN LA MUESTRA       : 
UNIDADES DE LOS DATOS                  : Gal (cm/s/s)
FACTOR DE DECIMACION                   : 1
FORMATO DATOS (FORTRAN,16 campos/dato) : 3E16.7


================================================================================
CALIDAD DEL ACELEROGRAMA:
REGISTRO DIGITAL COMPLETO CON TIEMPO ABSOLUTO CORRECTO


================================================================================
COMENTARIOS:














================================================================================
DATOS DE ACELERACION:
---------+---------+---------+---------+---------+---------+---------+---------+
   CANAL-1   	     CANAL-2          CANAL-3
     N90E              N00E              V
---------+---------+---------+---------+---------+---------+---------+---------+
[...]
   2.1951800e-01   2.3385500e-02  -5.6081600e-02
   2.4269000e-01   1.4504300e-02  -5.4443000e-02
   2.1530600e-01   2.4787800e-02  -6.2168000e-02
   2.2209300e-01   2.5255200e-02  -6.2870200e-02
   2.6000900e-01   1.5439100e-02  -5.5379400e-02
   2.4058300e-01   1.8010000e-02  -5.3038500e-02
   2.2630600e-01   2.6423800e-02  -5.1399800e-02
   2.5907300e-01   2.3619200e-02  -4.9293000e-02
   2.5649900e-01   1.1933400e-02  -5.4443000e-02
   2.2794400e-01   2.0113400e-02  -5.4443000e-02
   2.4760500e-01   2.3385500e-02  -4.9761200e-02
   2.5907300e-01   2.0814600e-02  -5.2102100e-02
   2.3098700e-01   1.0297400e-02  -5.6549800e-02
   2.3005100e-01   1.5439100e-02  -5.7954300e-02
   2.4830700e-01   2.7124900e-02  -6.0295200e-02
   2.3075300e-01   6.7916800e-03  -6.4274800e-02
   2.1156100e-01   9.1288300e-03  -6.5679300e-02
   2.3449800e-01   1.3102000e-02  -6.7083800e-02
   2.3075300e-01   8.4276800e-03  -7.3872400e-02
   2.0149600e-01   3.7533800e-03  -7.1297500e-02
   2.2045500e-01  -8.6335300e-03  -5.6783900e-02
   2.2841200e-01  -4.8940900e-03  -5.6549800e-02
   1.9236800e-01  -6.7638100e-03  -5.4443000e-02
   1.8932600e-01  -1.5878700e-02  -3.9929400e-02
   2.0547500e-01  -1.5177600e-02  -3.5715800e-02
   1.7575100e-01  -1.2840400e-02  -3.2906700e-02
   1.5187700e-01  -2.3591300e-02  -2.8225000e-02
   1.6638900e-01  -1.8215900e-02  -2.5181800e-02
   1.4696200e-01  -1.9618100e-02  -2.3777300e-02
   1.0904600e-01  -2.1721600e-02  -2.4947700e-02
   1.1232300e-01  -1.2139300e-02  -1.7222700e-02
   1.1045000e-01  -2.5928500e-02  -1.6520500e-02
   7.4874200e-02  -2.9667900e-02  -1.9329500e-02
   6.2937500e-02  -2.7097000e-02  -1.1136400e-02
   7.1363400e-02  -2.6863300e-02  -6.4546200e-03
   4.4213400e-02  -2.8499300e-02  -2.7091800e-03
   1.9637900e-02  -3.5978200e-02   5.4839600e-03
   3.0404300e-02  -3.0836500e-02   1.7890700e-02
   1.5893100e-02  -2.8499300e-02   1.7890700e-02
  -1.7576400e-02  -3.0135300e-02   1.9529300e-02
  -1.1022900e-02  -3.3641100e-02   3.0531600e-02
  -7.0440500e-03  -3.1070200e-02   3.1233800e-02
  -4.9407500e-02  -2.3591300e-02   3.1233800e-02
  -6.2280400e-02  -2.8966800e-02   3.5681500e-02
  -4.0279500e-02  -3.1070200e-02   4.3874700e-02
  -6.8599800e-02  -3.1303900e-02   4.6215600e-02
  -9.8792500e-02  -2.4759900e-02   4.8088300e-02
  -7.7259700e-02  -2.9434200e-02   5.2301900e-02
  -7.9366200e-02  -4.1353700e-02   5.1833700e-02
  -1.2055900e-01  -3.2005100e-02   5.4174600e-02
  -1.0464400e-01  -3.4342200e-02   5.8154100e-02
  -8.4749400e-02  -4.8131400e-02   5.5111000e-02
  -1.2196400e-01  -4.9066300e-02   5.6983700e-02
  -1.2009100e-01  -5.0468600e-02   6.7751800e-02
  -9.5281700e-02  -4.9066300e-02   7.4774500e-02
  -1.1915500e-01  -6.0518300e-02   7.6413100e-02
  -1.3296400e-01  -7.0100600e-02   8.1563100e-02
  -1.0464400e-01  -6.2154300e-02   8.6010800e-02
  -1.1564400e-01  -7.1502900e-02   8.1797200e-02
  -1.3811300e-01  -7.9449300e-02   8.4138100e-02
  -1.1470800e-01  -8.3188700e-02   9.1863000e-02
  -1.0511200e-01  -8.3889900e-02   8.7649400e-02
  -1.2711300e-01  -8.1085300e-02   8.3201700e-02
  -1.2313400e-01  -9.0901300e-02   8.6713100e-02
  -9.9728700e-02  -9.5809300e-02   8.7883500e-02
  -1.1611200e-01  -9.6977900e-02   8.6479000e-02
  -1.3039000e-01  -9.8146500e-02   8.0626700e-02
  -1.0417600e-01  -1.0282100e-01   7.7115400e-02
  -1.0417600e-01  -1.1544100e-01   7.2667700e-02
  -1.2851700e-01  -1.0679400e-01   6.9390400e-02
  -1.0792100e-01  -1.0796300e-01   7.4306300e-02
  -8.9430400e-02  -1.2549100e-01   6.7751800e-02
  -1.1166500e-01  -1.2198500e-01   5.8388200e-02
  -1.0628200e-01  -1.2666000e-01   6.0026800e-02
  -8.0536400e-02  -1.2712700e-01   5.9090500e-02
  -9.0366600e-02  -1.2736100e-01   5.2770100e-02
  -1.0160100e-01  -1.3600800e-01   4.9726900e-02
  -7.3983000e-02  -1.2993200e-01   4.7854200e-02
  -7.2812700e-02  -1.3086700e-01   3.6852000e-02
  -9.6920100e-02  -1.3297000e-01   3.5447400e-02
  -7.2578700e-02  -1.4068300e-01   3.9895100e-02
  -5.7599300e-02  -1.4138400e-01   3.3574700e-02
  -8.7089900e-02  -1.3437200e-01   2.6083800e-02
  -7.5387300e-02  -1.3951400e-01   2.5849800e-02
  -4.8471300e-02  -1.4489000e-01   2.8424700e-02
  -7.3514900e-02  -1.4091600e-01   2.1636100e-02
  -7.5621300e-02  -1.4185100e-01   1.9529300e-02
  -4.7769100e-02  -1.4909600e-01   1.6720300e-02
  -5.5726900e-02  -1.5283600e-01   9.4634800e-03
  -7.2344600e-02  -1.4792800e-01   6.8885000e-03
  -5.6429100e-02  -1.4395500e-01   5.7180500e-03
  -3.7938900e-02  -1.6475500e-01   1.2703400e-03
  -5.4322600e-02  -1.6358700e-01  -4.1137200e-03
  -5.1982100e-02  -1.5307000e-01  -2.4750900e-03
  -2.4363900e-02  -1.6054800e-01  -2.9432700e-03
  -3.6768700e-02  -1.6639100e-01  -4.5819000e-03
  -4.6364800e-02  -1.6896200e-01  -3.6828500e-04
  -2.1087200e-02  -1.6125000e-01   8.0216400e-04
  -2.1789300e-02  -1.6592400e-01  -6.2205300e-03
  -3.8173000e-02  -1.6919600e-01  -2.0069100e-03
  -1.8980700e-02  -1.6685900e-01   8.5271200e-03
  -8.6824100e-03  -1.6405400e-01   3.8453300e-03
  -3.1151400e-02  -1.6475500e-01  -1.0705500e-03
  -2.2725500e-02  -1.6966300e-01  -1.3419500e-04
  -3.2992100e-03  -1.6498900e-01   1.5044300e-03
  -2.0151000e-02  -1.6428800e-01   2.2067000e-03
  -2.8810900e-02  -1.6405400e-01   5.6807400e-04
  -4.7035300e-03  -1.6849500e-01   1.2703400e-03
  -1.3597500e-02  -1.6382000e-01  -2.2410000e-03
  -3.8407000e-02  -1.5727600e-01  -3.6828500e-04
  -1.8044500e-02  -1.5727600e-01   5.0157800e-03
  -1.2193200e-02  -1.5867900e-01  -1.7728200e-03
  -4.0045400e-02  -1.5938000e-01  -7.1568800e-03
  -3.3726000e-02  -1.4909600e-01  -7.3909700e-03
  -7.9802600e-03  -1.4862900e-01  -9.9659600e-03
  -2.7406600e-02  -1.5470600e-01  -9.9659600e-03
  -3.8641100e-02  -1.5353700e-01  -6.4546200e-03
  -1.2427200e-02  -1.4699300e-01  -6.9228000e-03
  -2.4363900e-02  -1.4769400e-01  -1.2775000e-02
  -5.0109600e-02  -1.5657500e-01  -9.0296000e-03
  -3.4194100e-02  -1.5307000e-01  -3.4114500e-03
  -3.4428200e-02  -1.4933000e-01  -1.3009100e-02
  -6.3684700e-02  -1.5190100e-01  -2.3309100e-02
  -5.5492800e-02  -1.5704300e-01  -2.4947700e-02
  -4.2620000e-02  -1.5470600e-01  -2.3777300e-02
  -6.8131700e-02  -1.4699300e-01  -2.7288600e-02
  -7.2578700e-02  -1.5727600e-01  -2.8693100e-02
  -5.3152300e-02  -1.6452200e-01  -2.1670400e-02
  -6.8131700e-02  -1.6358700e-01  -1.7690900e-02
  -9.5515800e-02  -1.5517300e-01  -2.0265900e-02
  -8.2408800e-02  -1.6241800e-01  -1.3243200e-02
  -7.9834300e-02  -1.7410400e-01  -1.0902300e-02
  -1.1494200e-01  -1.6475500e-01  -1.4413700e-02
  -1.2149600e-01  -1.6078200e-01  -1.4647800e-02
  -1.0698400e-01  -1.6896200e-01  -1.2775000e-02
  -1.2851700e-01  -1.7947900e-01  -9.9659600e-03
  -1.5777400e-01  -1.6288600e-01  -1.2775000e-02
  -1.3858100e-01  -1.6475500e-01  -1.1838700e-02
  -1.4630500e-01  -1.7690900e-01  -1.7456800e-02
  -1.9007300e-01  -1.7246800e-01  -1.1136400e-02
  -1.7790200e-01  -1.6756000e-01  -2.4750900e-03
  -1.7111500e-01  -1.6218400e-01  -7.8591500e-03
  -2.1254200e-01  -1.7667500e-01  -6.6887100e-03
  -2.1324400e-01  -1.7083200e-01  -1.3046400e-03
  -1.9217900e-01  -1.5844500e-01  -6.0237400e-04
  -2.2775500e-01  -1.6008100e-01  -3.8796300e-03
  -2.4250100e-01  -1.6919600e-01   4.0794200e-03
  -2.1581900e-01  -1.6522300e-01   6.8885000e-03
  -2.3758500e-01  -1.5751000e-01   5.2498700e-03
  -2.6684200e-01  -1.5634200e-01   1.0633900e-02
  -2.4671300e-01  -1.5564000e-01   2.1402100e-02
  -2.4413900e-01  -1.5634200e-01   2.6786100e-02
  -2.8205500e-01  -1.4325400e-01   2.6552000e-02
  -2.7901300e-01  -1.4091600e-01   3.1936100e-02
  -2.5865000e-01  -1.3437200e-01   3.2872400e-02
  -2.8837500e-01  -1.3273600e-01   3.2638400e-02
  -3.0101400e-01  -1.2852900e-01   3.1233800e-02
  -2.7245900e-01  -1.2128400e-01   3.0297500e-02
  -2.8392800e-01  -1.2595900e-01   2.4913400e-02
  -3.0522700e-01  -1.1731100e-01   2.5381600e-02
  -2.8041700e-01  -1.1123500e-01   2.9595200e-02
  -2.7245900e-01  -1.1193600e-01   2.7020200e-02
  -2.9329000e-01  -1.0983200e-01   2.7722500e-02
  -2.8018300e-01  -1.0609300e-01   3.4745200e-02
  -2.5818200e-01  -9.5341900e-02   3.7788300e-02
  -2.7339500e-01  -8.9499000e-02   3.5213300e-02
  -2.7433200e-01  -8.4824700e-02   4.1065600e-02
  -2.4952200e-01  -7.9449300e-02   4.8088300e-02
  -2.4999000e-01  -7.1269200e-02   4.1065600e-02
  -2.6614000e-01  -5.6778900e-02   3.4511100e-02
  -2.4367100e-01  -5.8181200e-02   4.2470100e-02
  -2.2096800e-01  -5.1637100e-02   4.5045100e-02
  -2.3992600e-01  -3.8549100e-02   4.0597400e-02
  -2.2728700e-01  -2.9434200e-02   4.5279200e-02
  -1.9147700e-01  -2.1254200e-02   5.0195100e-02
  -1.9849900e-01  -7.2312400e-03   4.7854200e-02
  -2.0247800e-01   7.9602500e-03   5.0429200e-02
  -1.6339100e-01   1.5205400e-02   5.3004200e-02
  -1.5402900e-01   2.4787800e-02   4.9492800e-02
  -1.7088100e-01   3.9745500e-02   5.1365500e-02
  -1.3717700e-01   5.9143900e-02   5.8388200e-02
  -1.1026100e-01   6.1714800e-02   5.7217800e-02
  -1.3015500e-01   7.2232000e-02   5.6515500e-02
  -1.1119700e-01   8.8358300e-02   6.0729100e-02
  -7.4217000e-02   1.0448500e-01   5.5579100e-02
  -8.7323900e-02   1.1336600e-01   5.3004200e-02
  -7.9366200e-02   1.2435000e-01   5.3706400e-02
  -3.7704900e-02   1.4632000e-01   5.2067800e-02
  -3.3491900e-02   1.5636900e-01   4.9024600e-02
  -3.7938900e-02   1.7810500e-01   4.4108800e-02
  -3.0651600e-03   1.8698600e-01   4.8790500e-02
   1.7063300e-02   2.0194400e-01   4.5279200e-02
   5.5947700e-03   2.1760300e-01   3.7554200e-02
   2.3148700e-02   2.2741900e-01   3.5915600e-02
   5.4979800e-02   2.4190900e-01   3.1936100e-02
   5.3575500e-02   2.5055700e-01   2.9829300e-02
   4.9128500e-02   2.7112400e-01   2.7488400e-02
   8.5874700e-02   2.8327700e-01   2.6786100e-02
   9.8747500e-02   2.9098900e-01   1.9295200e-02
   7.9555300e-02   3.0477900e-01   1.6252100e-02
   1.1162000e-01   3.2254100e-01   1.8124800e-02
   1.3572800e-01   3.3516200e-01   8.0589400e-03
   1.1747200e-01   3.3796600e-01   1.9726100e-03
   1.3572800e-01   3.5105400e-01  -2.4750900e-03
   1.6755900e-01   3.7115400e-01  -1.5350000e-02
   1.5445200e-01   3.7910000e-01  -2.4011300e-02
   1.5796300e-01   3.7466000e-01  -2.6820400e-02
   1.9166600e-01   3.9078600e-01  -3.3374900e-02
   1.8628300e-01   4.0387400e-01  -4.7654400e-02
   1.8090000e-01   4.0083600e-01  -5.3272500e-02
   2.1132700e-01   4.0644500e-01  -4.9761200e-02
   2.2607200e-01   4.1298900e-01  -5.4677100e-02
   2.1319900e-01   4.2420700e-01  -5.9358900e-02
   2.2724200e-01   4.2467500e-01  -5.9593000e-02
   2.5392400e-01   4.2631100e-01  -5.9124800e-02
   2.4011500e-01   4.3939900e-01  -6.0997500e-02
   2.3426400e-01   4.4126800e-01  -6.1933900e-02
   2.6445600e-01   4.3869800e-01  -6.1933900e-02
   2.6211600e-01   4.4103500e-01  -7.2233800e-02
   2.4315800e-01   4.3916500e-01  -7.5979200e-02
   2.6796700e-01   4.4757900e-01  -7.9256500e-02
   2.8318100e-01   4.4220300e-01  -8.6513300e-02
   2.6422200e-01   4.3495800e-01  -8.6279200e-02
   2.7592500e-01   4.4524200e-01  -9.0024600e-02
   2.9886200e-01   4.4290400e-01  -8.6747400e-02
   2.8154200e-01   4.3425700e-01  -8.5811000e-02
   2.7569100e-01   4.3565900e-01  -8.5342800e-02
   2.9862800e-01   4.3378900e-01  -8.4172400e-02
   2.9207500e-01   4.2864800e-01  -9.0024600e-02
   2.7241400e-01   4.2771300e-01  -9.0258700e-02
   2.9230900e-01   4.2163600e-01  -9.1195100e-02
   3.0424500e-01   4.2023400e-01  -9.0726900e-02
   2.7896800e-01   4.1041800e-01  -9.2365500e-02
   2.8388300e-01   4.0761300e-01  -8.7215600e-02
   3.0377700e-01   4.0293900e-01  -8.3470100e-02
   2.8271300e-01   3.9335700e-01  -8.4640600e-02
   2.6632900e-01   3.9102000e-01  -7.9256500e-02
   2.8996800e-01   3.8447600e-01  -8.0427000e-02
   2.8388300e-01   3.7419200e-01  -8.3001900e-02
   2.5205200e-01   3.5923400e-01  -8.3001900e-02
   2.6984000e-01   3.6414200e-01  -7.8554200e-02
   2.7873400e-01   3.4451000e-01  -8.1831500e-02
   2.4713700e-01   3.2160600e-01  -7.9958800e-02
   2.5017900e-01   3.2441100e-01  -6.5445200e-02
   2.6632900e-01   3.0828400e-01  -6.3104300e-02
   2.3285900e-01   2.9426100e-01  -5.7720300e-02
   2.2022100e-01   2.7720000e-01  -4.8356700e-02
   2.3660400e-01   2.6995500e-01  -3.9461300e-02
   2.1109300e-01   2.5897000e-01  -4.1568100e-02
   1.8698500e-01   2.3630000e-01  -3.9461300e-02
   1.9892200e-01   2.2765300e-01  -3.0097700e-02
   1.9307100e-01   2.1526600e-01  -3.6418100e-02
   1.6334600e-01   2.0755300e-01  -3.4545400e-02
   1.6943100e-01   1.8628500e-01  -2.8225000e-02
   1.7528300e-01   1.7086000e-01  -2.1436400e-02
   1.5117500e-01   1.6338100e-01  -2.2372700e-02
   1.4251500e-01   1.5076000e-01  -2.0968200e-02
   1.5468600e-01   1.2809000e-01  -9.2636900e-03
   1.4509000e-01   1.1289800e-01  -9.2636900e-03
   1.1934400e-01   1.1219700e-01  -6.2205300e-03
   1.3315300e-01   8.6254900e-02   1.2703400e-03
   1.3479200e-01   7.9710800e-02   6.4203200e-03
   1.0717300e-01   6.1714800e-02   1.1570300e-02
   1.0225800e-01   5.8442800e-02   1.8358900e-02
   1.1559900e-01   4.7691900e-02   1.9529300e-02
   9.8981600e-02   2.1282000e-02   1.4613500e-02
   7.4406100e-02   2.6891200e-02   2.1402100e-02
   9.6641100e-02   5.6231000e-03   2.5147500e-02
   8.6576800e-02  -1.1546400e-03   2.0699800e-02
   6.0363000e-02  -2.0786700e-02   2.2104300e-02
   7.9087100e-02  -2.6863300e-02   2.0699800e-02
   8.3534100e-02  -3.5277100e-02   1.5549800e-02
   5.8724600e-02  -5.4208000e-02   1.3911200e-02
   6.7618600e-02  -6.0284600e-02   1.8827100e-02
   8.7747100e-02  -8.0617800e-02   1.6486200e-02
   5.6618100e-02  -7.3372700e-02   1.0633900e-02
   5.0298700e-02  -9.6977900e-02   1.5081600e-02
   6.9959100e-02  -1.0305500e-01   1.8124800e-02
   5.5681900e-02  -1.1637600e-01   1.3208900e-02
   3.3681000e-02  -1.2666000e-01   8.9953000e-03
   4.7958200e-02  -1.2011600e-01   8.0589400e-03
   5.8022500e-02  -1.5049900e-01   3.3771500e-03
   2.6659500e-02  -1.4325400e-01   1.9726100e-03
   3.6489700e-02  -1.5049900e-01   2.6748800e-03
   5.1937100e-02  -1.5891200e-01  -2.9432700e-03
   3.3212900e-02  -1.6966300e-01  -5.7523500e-03
   2.4787000e-02  -1.6615800e-01  -4.8159900e-03
   4.1404800e-02  -1.6218400e-01  -3.6455400e-03
   3.8830200e-02  -1.8485500e-01  -7.3909700e-03
   1.2850400e-02  -1.8064800e-01  -9.9659600e-03
   3.3681000e-02  -1.8555600e-01  -6.9228000e-03
   3.8596100e-02  -1.8321900e-01  -1.2540900e-02
   1.4488800e-02  -1.9537200e-01  -9.2636900e-03
   2.1978400e-02  -2.0355200e-01  -2.0069100e-03
   3.5553400e-02  -1.9513800e-01  -7.8591500e-03
   1.8701700e-02  -1.9724200e-01  -1.8861400e-02
   1.0743900e-02  -2.0144900e-01  -1.5818200e-02
   3.4617200e-02  -2.0822600e-01  -8.0932400e-03
   1.9637900e-02  -1.9023000e-01  -1.1604600e-02
  -5.8737900e-03  -2.0285100e-01  -1.4647800e-02
   1.7531400e-02  -2.1126500e-01  -1.6052300e-02
   2.2212500e-02  -1.9841000e-01  -1.8627300e-02
  -7.5121500e-03  -2.1079700e-01  -2.2138600e-02
   2.3180400e-03  -2.0331800e-01  -1.7222700e-02
   2.1276300e-02  -2.1617300e-01  -1.6520500e-02
  -4.9375800e-03  -2.1196600e-01  -2.4011300e-02
  -1.1959100e-02  -2.0355200e-01  -2.3075000e-02
   1.0509900e-02  -2.1664000e-01  -1.2775000e-02
  -4.9375800e-03  -2.1266700e-01  -1.3009100e-02
  -3.0683300e-02  -2.1827600e-01  -1.2072800e-02
  -1.9214800e-02  -2.1056400e-01  -6.4546200e-03
  -1.8746700e-02  -2.1921100e-01  -1.5350000e-02
  -4.9407500e-02  -2.2365200e-01  -1.2072800e-02
  -4.8237200e-02  -2.1944500e-01  -1.1370500e-02
  -3.3960000e-02  -2.2622200e-01  -1.2306900e-02
