**************************************************************************************
  	RED ACELEROGRÁFICA DE LA UNIVERSIDAD AUTONOMA METROPOLITANA (RA-UAM)
	   UNIDAD AZCAPOTZALCO. DIVISIÓN CBI-DEPARTAMENTO DE MATERIALES
     Av. San Pablo 420, Col. Nueva el Rosario, Azcapotzalco, C.P. 02128, Ciudad de México
		Área de Estructuras. e-mail: agb@azc.uam.mx
**************************************************************************************
ARCHIVO ESTANDAR DE ACELERACION:
VERSION DEL FORMATO                    : 2.0
NOMBRE DEL ARCHIVO                     : RUML202209.231
FECHA Y HORA DE CREACION               : 11:30 a. m. 30/09/2022
REF. CATALOGO ACELEROGRAMAS, SMIS 1999 : REGISTRO NO.      /PAG.    


================================================================================
DATOS DE LA ESTACION:
NOMBRE DE LA ESTACION                  : UAM-LERMA.
CLAVE DE LA ESTACION                   : RUML
LOCALIZACION DE LA ESTACION            : AV. DE LAS GARZAS 10, EL PANTEON, C.P.52005,
                                       : LERMA DE VILLADA, ESTADO DE MEXICO.   
                                       : 
                                       : 
                                       : 
COORDENADAS DE LA ESTACION             : 19.291278 LAT. N
                                       : 99.500578 LONG. W
ALTITUD (msnm)                         : 2570
TIPO DE SUELO                          : DEPOSITOS LACUSTRES
                                       : 
                                       : 
INSTITUCION RESPONSABLE                : UNIVERSIDAD AUTONOMA METROPOLITANA
                                       : 

================================================================================
DATOS DEL ACELEROGRAFO: 
MODELO DEL ACELEROGRAFO                : ETNA2 KINEMETRICS
NUMERO DE SERIE DEL ACELEROGRAFO       : 103733
NUMERO DE CANALES                      : 3
ORIENTACION C1-C6 (rumbo;orientacion)  : /N90E/N00E/V 
ORIENTACION C7-C12 (rumbo;orientacion) : 
VEL. DE MUESTREO, C1-C6 (muestras/s)   : /200/200/200
VEL. DE MUESTREO, C7-C12 (muestras/s)  : 
ESC. COMPLETA DE SENSORES, C1-C6, (g)  : /2/2/2
ESC. COMPLETA DE SENSORES, C7-C12 (g)  : 
FREC. NAT. DE SENSORES, C1-C6, (Hz)    : /212/206/208   
FREC. NAT. DE SENSORES, C7-C12 (Hz)    : 
AMORTIGUAMIENTO DE SENSORES, C1-C6     : /0.7/0.7/0.7      
AMORTIGUAMIENTO DE SENSORES, C7-C12    : 
INTERVALO DE MUESTREO, C1-C6 (s)       : /0.005/0.005/0.005
INTERVALO DE MUESTREO, C7-C12 (s)      : 
UMBRAL DE DISPARO, C1-C6 (Gal)         : /2/2/2
UMBRAL DE DISPARO, C7-C12 (Gal)        : 
MEMORIA DE PREEVENTO (s)               : 50
TIEMPO DE POSEVENTO (s)                : 60


================================================================================
DATOS DEL SISMO:
FECHA DEL SISMO [GMT]                  : 2022/09/23
HORA EPICENTRO (GMT)                   : 18:25:56
MAGNITUD(ES)                           : /M=5.2
COORDENADAS DEL EPICENTRO              : 18.3600 LAT. N
                                       : -103.7600 LONG. W
PROFUNDIDAD FOCAL (Km)                 : 10.0
FUENTE DE LOS DATOS EPICENTRALES       : SSN
                                       : INSTITUTO DE GEOFISICA, UNAM

================================================================================
DATOS DE ESTE REGISTRO:
HORA DE LA PRIMERA MUESTRA (GMT)       : 18:27:14.000
EXACTITUD DEL TIEMPO (s)               : 
DURACION DEL REGISTRO (s), C1-C6       : /167/167/167
DURACION DEL REGISTRO (s), C7-C12      : 
NUM. TOTAL DE MUESTRAS, C1-C6          : /33400/33400/33400
NUM. TOTAL DE MUESTRAS, C7-C12         : 
ACEL. MAX.(Gal), C1-C6                 : /-1.333/-1.317/-0.607
ACEL. MAX., C1-C6, EN LA MUESTRA       : /11322/12722/12101
ACEL. MAX.(Gal), C7-C12                : 
ACEL. MAX., C7-C12,EN LA MUESTRA       : 
UNIDADES DE LOS DATOS                  : Gal (cm/s/s)
FACTOR DE DECIMACION                   : 1
FORMATO DATOS (FORTRAN,16 campos/dato) : 3E16.7


================================================================================
CALIDAD DEL ACELEROGRAMA:
REGISTRO DIGITAL COMPLETO CON TIEMPO ABSOLUTO CORRECTO


================================================================================
COMENTARIOS:














================================================================================
DATOS DE ACELERACION:
---------+---------+---------+---------+---------+---------+---------+---------+
   CANAL-1   	     CANAL-2          CANAL-3
     N90E              N00E              V
---------+---------+---------+---------+---------+---------+---------+---------+
[...]
  -1.0927200e-01  -5.0226200e-01   9.5631600e-02
  -7.8142700e-02  -5.2960700e-01   7.3627200e-02
  -9.7995100e-03  -6.2800100e-01   4.3663700e-02
   6.3224800e-02  -7.2265600e-01   4.2025100e-02
   6.6033400e-02  -8.2759400e-01   5.1622800e-02
   8.6906100e-03  -8.6522200e-01   8.2054400e-02
  -3.7651700e-02  -8.1474000e-01   8.6502200e-02
  -4.7247900e-02  -7.7197000e-01   6.6370400e-02
  -2.7821500e-02  -8.1894700e-01   3.2661500e-02
   5.3862700e-02  -9.0495400e-01   1.1593500e-02
   9.2481300e-02  -9.9960800e-01   1.0891200e-02
   5.8777800e-02  -1.0797700e+00   2.3766100e-02
  -1.5416800e-02  -1.0692600e+00   4.0386500e-02
  -5.8014300e-02  -9.9213000e-01   3.1725200e-02
  -6.7610400e-02  -9.6478500e-01   1.6743400e-02
  -4.5375400e-02  -1.0115300e+00  -1.6965500e-02
   3.0457500e-02  -1.0863200e+00  -2.7499500e-02
   3.4670400e-02  -1.1533900e+00  -3.4288100e-02
  -3.3438800e-02  -1.1933600e+00  -7.8359800e-03
  -1.1465500e-01  -1.1318900e+00   1.9318400e-02
  -1.4110300e-01  -1.0332600e+00   6.9116700e-03
  -1.5163500e-01  -1.0339600e+00  -2.1413200e-02
  -1.1699500e-01  -1.0571000e+00  -5.3951600e-02
  -6.0120700e-02  -1.1120300e+00  -5.1142600e-02
  -8.9845400e-02  -1.1597000e+00  -3.9672200e-02
  -1.7316800e-01  -1.1531600e+00  -6.6655400e-03
  -2.3893700e-01  -1.0669200e+00   1.0594200e-03
  -2.6257600e-01  -9.6642100e-01  -1.5092800e-02
  -2.7147000e-01  -9.6665500e-01  -3.3351800e-02
  -2.0921200e-01  -1.0045200e+00  -3.8969900e-02
  -1.7363600e-01  -1.0484500e+00  -3.0776800e-02
  -2.2372300e-01  -1.0760300e+00  -1.4624600e-02
  -3.0072600e-01  -1.0428500e+00   1.1593500e-02
  -3.4262200e-01  -9.2458600e-01   1.6041200e-02
  -3.4987700e-01  -8.6732600e-01   5.9753100e-03
  -3.2647200e-01  -8.7714200e-01  -1.6263200e-02
  -2.5344800e-01  -9.1453600e-01  -2.7967700e-02
  -2.2629800e-01  -9.7763900e-01  -3.5692700e-02
  -2.7989600e-01  -9.8371600e-01  -1.5326900e-02
  -3.5479200e-01  -9.1383500e-01   5.2730400e-03
  -3.7164400e-01  -8.1053300e-01  -2.9201000e-03
  -3.7468700e-01  -7.8342200e-01  -3.8267600e-02
  -3.2436600e-01  -8.2432200e-01  -7.0806100e-02
  -2.3823400e-01  -8.8765900e-01  -8.2744700e-02
  -2.3800000e-01  -9.3510300e-01  -8.1106000e-02
  -3.0283300e-01  -9.2972800e-01  -4.5992600e-02
  -3.4660100e-01  -8.3787800e-01  -4.2949400e-02
  -3.6345200e-01  -7.4065200e-01  -5.2781200e-02
  -3.5221800e-01  -7.4018500e-01  -8.6958300e-02
  -2.5415000e-01  -7.9136800e-01  -1.1528300e-01
  -2.0289300e-01  -8.3390400e-01  -1.2183800e-01
  -2.2185100e-01  -8.5937900e-01  -1.1598500e-01
  -2.6164000e-01  -8.1544100e-01  -9.3512800e-02
  -2.9838600e-01  -6.8923500e-01  -1.0451500e-01
  -3.0025800e-01  -6.1467900e-01  -1.2722200e-01
  -2.4455400e-01  -5.9831900e-01  -1.7169900e-01
  -1.4555000e-01  -6.2519700e-01  -1.9651200e-01
  -1.0646300e-01  -6.6820000e-01  -2.0049200e-01
  -1.2869800e-01  -6.7007000e-01  -1.7216700e-01
  -1.7808300e-01  -5.6606700e-01  -1.4594900e-01
  -1.8557300e-01  -4.1251600e-01  -1.5695100e-01
  -1.5982700e-01  -3.5291800e-01  -1.8597800e-01
  -7.7908700e-02  -3.4123300e-01  -2.2530500e-01
   1.9925100e-02  -3.3819400e-01  -2.4473500e-01
   3.9351400e-02  -3.5104900e-01  -2.4637300e-01
   1.2201400e-02  -3.3422100e-01  -2.1992100e-01
  -1.9395700e-02  -1.8861600e-01  -2.2951900e-01
  -1.7757300e-02  -5.2594200e-02  -2.5339600e-01
   3.8883300e-02  -5.3996500e-02  -2.7118700e-01
   1.4678100e-01  -5.5866200e-02  -2.7703900e-01
   2.0318800e-01  -4.0441000e-02  -2.7821000e-01
   2.2121000e-01  -4.4414200e-02  -2.6252600e-01
   1.8563400e-01   1.6277600e-03  -2.2788000e-01
   1.4935600e-01   1.4325900e-01  -2.1594200e-01
   1.6059000e-01   2.3300600e-01  -2.1968700e-01
   2.0248600e-01   2.2833200e-01  -2.5807800e-01
   3.1646900e-01   2.0285700e-01  -2.6603700e-01
   3.8106800e-01   1.4419400e-01  -2.4918200e-01
   3.3589600e-01   1.4583000e-01  -1.8738300e-01
   2.5725400e-01   2.4492500e-01  -1.3237200e-01
   2.3946600e-01   3.6131600e-01  -1.2371000e-01
   2.3946600e-01   3.9660700e-01  -1.3120100e-01
   3.0546900e-01   3.7837700e-01  -1.4875800e-01
   3.9347200e-01   3.6669100e-01  -1.3822400e-01
   3.8879100e-01   2.7460700e-01  -1.0311000e-01
   3.3051200e-01   2.3440800e-01  -3.9438100e-02
   2.5982900e-01   3.7276800e-01  -1.6965500e-02
   2.3033800e-01   4.7139500e-01  -5.9632700e-03
   2.4648800e-01   4.6952600e-01  -5.0269100e-03
   3.2442700e-01   4.2909300e-01   2.9321400e-03
   3.8504600e-01   3.5243400e-01   2.2127500e-02
   3.7919500e-01   2.8605900e-01   5.6070500e-02
   2.8721300e-01   3.0078300e-01   1.1623200e-01
   2.2565700e-01   4.0595500e-01   1.4315200e-01
   2.4250900e-01   4.6228100e-01   1.4760000e-01
   2.7855300e-01   4.4732300e-01   1.3472500e-01
   3.7872700e-01   3.8141500e-01   1.4549300e-01
   4.2811200e-01   3.0896300e-01   1.6351800e-01
   3.7521600e-01   2.7203600e-01   2.2180600e-01
   3.1225600e-01   3.2625800e-01   2.7213500e-01
   3.1155400e-01   4.3072900e-01   2.8126500e-01
   3.1951200e-01   4.4288200e-01   2.7588100e-01
   3.9885600e-01   4.2395100e-01   2.6581500e-01
   5.1845600e-01   3.6832700e-01   2.8430800e-01
   5.2196700e-01   2.9891400e-01   3.1052600e-01
   4.6087900e-01   2.9494000e-01   3.6038700e-01
   4.2975000e-01   3.8235000e-01   3.8122100e-01
   4.4683600e-01   4.7092800e-01   3.8075300e-01
   4.9130600e-01   4.7162900e-01   3.5757800e-01
   6.0575800e-01   4.2745700e-01   3.4095800e-01
   6.8861200e-01   3.6084800e-01   3.4002100e-01
   6.6544100e-01   3.1130000e-01   3.5781200e-01
   6.0809800e-01   3.1340400e-01   3.9245700e-01
   6.0575800e-01   4.1927700e-01   3.8730700e-01
   6.2752500e-01   5.0341400e-01   3.5968500e-01
   6.8650600e-01   4.6415000e-01   3.1356900e-01
   8.1172400e-01   3.9894400e-01   2.9086200e-01
   8.3864000e-01   3.4705900e-01   2.7822200e-01
   7.7146700e-01   3.1807800e-01   2.9320300e-01
   7.3074200e-01   3.4822800e-01   2.9414000e-01
   7.2699700e-01   4.3680600e-01   2.6394200e-01
   7.1763500e-01   4.8167900e-01   2.2882900e-01
   8.1219200e-01   4.4148000e-01   1.8856500e-01
   9.0885500e-01   3.9730800e-01   1.6445400e-01
   8.6672600e-01   3.5150000e-01   1.5345200e-01
   7.9206300e-01   3.1620900e-01   1.7054000e-01
   7.4197600e-01   4.0221600e-01   1.6164500e-01
   7.1810300e-01   4.9570200e-01   1.5392000e-01
   7.4361400e-01   5.0785500e-01   1.1295400e-01
   8.3746900e-01   4.8822300e-01   6.3327300e-02
   8.4870400e-01   4.6204700e-01   3.6641100e-02
   7.7989200e-01   4.2184800e-01   2.6575200e-02
   7.0265500e-01   4.1694000e-01   6.0284100e-02
   6.4858900e-01   5.4735300e-01   5.8177300e-02
   6.3524800e-01   6.3032200e-01   2.4234300e-02
   6.6497300e-01   6.0040600e-01  -2.5392700e-02
   7.2559200e-01   5.6605000e-01  -5.6526600e-02
   6.9680400e-01   5.3473200e-01  -4.5758500e-02
   6.0856600e-01   5.0949100e-01  -4.5587300e-03
   5.4162700e-01   5.9386200e-01  -6.4314500e-03
   5.1096700e-01   7.1913400e-01  -5.2547100e-02
   4.8568900e-01   7.3245500e-01  -9.6790100e-02
   5.2454200e-01   6.9342500e-01  -1.3588300e-01
   5.6152200e-01   6.3616500e-01  -1.3518100e-01
   5.1260500e-01   5.7469800e-01  -1.0989900e-01
   4.3326100e-01   5.7282800e-01  -8.7894600e-02
   3.5251300e-01   6.9996900e-01  -9.7492300e-02
   3.2044800e-01   7.8363900e-01  -1.1458100e-01
   3.2349100e-01   7.4928300e-01  -1.3892600e-01
   3.6281200e-01   6.9085400e-01  -1.5063100e-01
   3.8153600e-01   6.2751700e-01  -1.6069700e-01
   3.2981000e-01   5.7376300e-01  -1.4431000e-01
   2.2284800e-01   6.0274300e-01  -1.1130400e-01
   1.6667600e-01   7.2474300e-01  -1.1341000e-01
   1.4959000e-01   7.4531000e-01  -1.1856000e-01
   1.4444100e-01   6.8688100e-01  -1.4360800e-01
   1.9780500e-01   6.2985400e-01  -1.4665100e-01
   1.8984700e-01   5.6651800e-01  -1.2769000e-01
   1.0699300e-01   5.3473200e-01  -6.9869700e-02
   2.0861300e-02   5.9947100e-01  -2.5626800e-02
  -3.2502600e-02   6.9272400e-01  -2.0242700e-02
  -5.8482400e-02   6.7963600e-01  -1.4624600e-02
  -2.5481000e-02   6.2471300e-01  -1.6497300e-02
   1.4776000e-02   5.6581600e-01  -1.0411000e-02
  -9.0973600e-03   4.9266400e-01   6.6775800e-03
  -1.0763300e-01   4.7513500e-01   6.1688600e-02
  -1.9938200e-01   5.5483200e-01   1.0640000e-01
  -2.0944600e-01   6.0578200e-01   1.3659700e-01
  -2.1272300e-01   5.9923800e-01   1.4198100e-01
  -1.7199800e-01   5.5553300e-01   1.2676600e-01
  -1.3150700e-01   4.7607000e-01   1.0920900e-01
  -1.9048800e-01   4.0665600e-01   1.3730000e-01
  -2.9791800e-01   4.1016200e-01   2.0846300e-01
  -3.3513200e-01   5.0364800e-01   2.4170400e-01
  -3.5338800e-01   5.2725300e-01   2.4006500e-01
  -3.5385600e-01   4.8682100e-01   2.1642200e-01
  -2.8551300e-01   3.9847600e-01   2.2063600e-01
  -2.7427800e-01   3.1877900e-01   2.5270600e-01
  -3.3677000e-01   3.0171800e-01   3.0561000e-01
  -3.9434700e-01   3.5594000e-01   3.2410300e-01
  -4.1119900e-01   4.3026200e-01   3.0022600e-01
  -4.3015700e-01   3.9777500e-01   2.6628300e-01
  -4.0207100e-01   3.2509000e-01   2.4521500e-01
  -3.3536600e-01   2.2856500e-01   2.4942900e-01
  -3.4285600e-01   1.7317500e-01   2.5457900e-01
  -4.2828500e-01   1.9233900e-01   2.6862400e-01
  -4.8796800e-01   2.5100200e-01   2.5434400e-01
  -5.0762800e-01   2.8863000e-01   2.2040100e-01
  -5.2775700e-01   2.4632800e-01   1.7826500e-01
  -4.8071200e-01   1.6733200e-01   1.5953800e-01
  -4.4162600e-01   9.1374400e-02   1.4689700e-01
  -4.9381900e-01   4.0190800e-02   1.5860200e-01
  -5.8790800e-01   4.3930200e-02   1.7779700e-01
  -6.5040000e-01   1.2082300e-01   1.6328400e-01
  -7.0165800e-01   1.6078800e-01   1.2934100e-01
  -6.9814700e-01   1.0422900e-01   7.8309000e-02
  -6.5367700e-01   2.6869000e-02   5.6772800e-02
  -6.7942300e-01  -3.4598100e-02   3.3597900e-02
  -7.4448900e-01  -8.6015500e-02   4.0152400e-02
  -8.3272700e-01  -7.5030900e-02   4.0386500e-02
  -9.0856000e-01  -8.8894300e-03   1.3700300e-02
  -9.5466800e-01   1.8689000e-02  -2.6563200e-02
  -9.3758200e-01  -3.7402700e-02  -6.4719800e-02
  -9.0387900e-01  -1.1546400e-01  -8.5319700e-02
  -9.4437000e-01  -1.8113800e-01  -1.0147200e-01
  -1.0588200e+00  -2.0404200e-01  -8.5085600e-02
  -1.1451900e+00  -1.2785100e-01  -9.1874200e-02
  -1.1840400e+00  -7.8302900e-02  -1.2394400e-01
  -1.1980800e+00  -1.0494600e-01  -1.8621200e-01
  -1.1372300e+00  -1.5005300e-01  -2.3443500e-01
  -1.1262300e+00  -2.3045200e-01  -2.5152300e-01
  -1.1810000e+00  -2.9729400e-01  -2.2624200e-01
  -1.2666600e+00  -2.4377300e-01  -1.9908700e-01
  -1.3324300e+00  -1.4327600e-01  -2.1968700e-01
  -1.3277500e+00  -1.3065500e-01  -2.6112100e-01
  -1.2910000e+00  -1.6431000e-01  -3.2596400e-01
  -1.2404500e+00  -2.1455900e-01  -3.5639500e-01
  -1.2076800e+00  -2.8584200e-01  -3.5897000e-01
  -1.2458300e+00  -3.2253500e-01  -3.3345500e-01
  -1.3333600e+00  -2.4704500e-01  -3.3275200e-01
  -1.3303200e+00  -1.4514500e-01  -3.6084300e-01
  -1.2910000e+00  -1.4888500e-01  -3.9782900e-01
  -1.2240600e+00  -1.8300700e-01  -4.3622000e-01
  -1.1107800e+00  -2.3769700e-01  -4.6454500e-01
  -1.0852700e+00  -3.2230200e-01  -4.7273800e-01
  -1.1545500e+00  -3.2253500e-01  -4.3692200e-01
  -1.1887200e+00  -2.3629400e-01  -4.2357900e-01
  -1.1531400e+00  -1.9539400e-01  -4.2404700e-01
  -1.0944000e+00  -2.0147100e-01  -4.4815900e-01
  -9.7620100e-01  -2.5031700e-01  -4.5728800e-01
  -8.7555800e-01  -3.3258500e-01  -4.6009700e-01
  -8.8234600e-01  -3.7582200e-01  -4.2287700e-01
  -9.3454000e-01  -3.6974600e-01  -3.6856800e-01
  -9.0528300e-01  -2.8888000e-01  -3.7067500e-01
  -8.5074900e-01  -2.5195300e-01  -3.7090900e-01
  -7.8802300e-01  -2.9121700e-01  -4.0532000e-01
  -6.6772000e-01  -3.5502200e-01  -4.1491800e-01
  -6.0873900e-01  -4.4897500e-01  -4.0321300e-01
  -6.1786700e-01  -4.9057700e-01  -3.3673200e-01
  -6.4337900e-01  -4.2069600e-01  -2.8312500e-01
  -6.0593000e-01  -3.2931300e-01  -2.7633700e-01
  -5.5069400e-01  -3.1809500e-01  -2.3818000e-01
  -4.7392500e-01  -3.3492200e-01  -2.6556900e-01
  -3.4262200e-01  -3.7909400e-01  -2.8195500e-01
  -3.0704600e-01  -4.8800600e-01  -2.0587600e-01
  -3.5994200e-01  -5.2493300e-01  -9.9599100e-02
  -3.6064400e-01  -3.7722500e-01  -6.0272100e-02
  -3.3794100e-01  -2.6667700e-01  -5.2781200e-02
  -2.9604500e-01  -2.9098400e-01  -3.6863100e-02
  -1.4391100e-01  -3.2417100e-01  -2.8670000e-02
  -5.4035400e-02  -3.5759300e-01  -1.7667700e-02
  -9.8271200e-02  -3.8914400e-01   3.1662300e-03
  -1.0552700e-01  -3.7371900e-01   2.5872900e-02
  -3.0864200e-02  -2.9425600e-01   6.8711300e-02
   2.5542400e-02  -2.2717900e-01   1.2044500e-01
   7.2586900e-02  -1.7015300e-01   1.2021100e-01
   1.4350500e-01  -1.5005300e-01   1.0382500e-01
   1.6714400e-01  -2.2016800e-01   1.0499500e-01
   1.6035600e-01  -3.1038200e-01   1.4900400e-01
   2.0857100e-01  -3.0220200e-01   1.9675800e-01
   2.5397700e-01  -1.7506100e-01   2.5481300e-01
   2.2589100e-01  -1.2247500e-01   2.9741700e-01
   3.0219200e-01  -1.3065500e-01   2.9554400e-01
   4.1430300e-01  -1.4795000e-01   3.0139600e-01
   3.7755700e-01  -2.2951700e-01   3.3276400e-01
   3.2934200e-01  -2.4307200e-01   3.5781200e-01
   3.5953500e-01  -2.0217200e-01   3.6577100e-01
   3.7287600e-01  -1.8417600e-01   3.8730700e-01
   4.2389900e-01  -2.0006900e-01   3.7279400e-01
   5.3296700e-01  -2.5709500e-01   3.6623900e-01
   5.5169200e-01  -3.2814400e-01   3.9924600e-01
   5.1447700e-01  -3.8096400e-01   4.6081200e-01
   4.7281600e-01  -3.4964600e-01   5.0130900e-01
   4.6111300e-01  -2.6667700e-01   5.0177700e-01
   4.8802900e-01  -2.7812900e-01   4.7696400e-01
   5.6573500e-01  -3.9288400e-01   4.4840500e-01
   6.4788700e-01  -4.7398300e-01   4.6760000e-01
   6.3688700e-01  -5.2960700e-01   4.9381800e-01
   5.8914000e-01  -5.8756800e-01   5.2495200e-01
   5.7205400e-01  -5.3661900e-01   5.2893200e-01
   5.8539500e-01  -4.6697100e-01   5.2659100e-01
   6.2565200e-01  -5.0343100e-01   5.2073800e-01
   7.3472000e-01  -5.6723500e-01   5.1254500e-01
   7.9487200e-01  -6.3361000e-01   5.2448400e-01
   7.6889200e-01  -7.0606200e-01   5.3782700e-01
   7.4174200e-01  -7.2289000e-01   5.5046800e-01
   7.2255000e-01  -6.4155700e-01   5.3852900e-01
   7.3472000e-01  -5.8172600e-01   5.1371600e-01
   8.0563800e-01  -6.0159100e-01   4.6198200e-01
   9.0604700e-01  -6.6983600e-01   4.1867500e-01
   9.6502800e-01  -7.4696200e-01   4.0509800e-01
   9.7836900e-01  -8.1123400e-01   4.3553000e-01
   9.2430300e-01  -7.8178600e-01   4.7719800e-01
   8.9411000e-01  -6.4576400e-01   4.7111100e-01
   9.2149400e-01  -6.1771800e-01   4.2359100e-01
   9.7626200e-01  -6.6259100e-01   3.7068700e-01
   1.0668400e+00  -7.0466000e-01   3.5032100e-01
   1.0900100e+00  -7.5514200e-01   3.5008700e-01
   1.0188600e+00  -7.7126900e-01   3.6108900e-01
   9.6573000e-01  -6.6960300e-01   3.3393500e-01
   9.5355900e-01  -5.7004000e-01   2.8711700e-01
   9.6479400e-01  -5.7541500e-01   2.4147000e-01
   1.0410900e+00  -5.9294400e-01   2.1478300e-01
   1.0724600e+00  -6.4716600e-01   2.0635600e-01
   1.0331400e+00  -6.7287500e-01   2.0471700e-01
   9.4630400e-01  -6.2449500e-01   2.0705800e-01
   8.7047100e-01  -5.0553400e-01   1.8084000e-01
   8.5502300e-01  -4.1461900e-01   1.4127900e-01
   8.5502300e-01  -4.2700600e-01   8.5331700e-02
   8.9668500e-01  -4.6720500e-01   4.9984200e-02
   9.3109000e-01  -5.1651900e-01   3.5470600e-02
   8.5432100e-01  -5.4620100e-01   6.0050000e-02
   7.2067700e-01  -4.3915900e-01   8.2288500e-02
   6.8299500e-01  -2.8186900e-01   6.3795500e-02
