**************************************************************************************
  	RED ACELEROGRÁFICA DE LA UNIVERSIDAD AUTONOMA METROPOLITANA (RA-UAM)
	   UNIDAD AZCAPOTZALCO. DIVISIÓN CBI-DEPARTAMENTO DE MATERIALES
     Av. San Pablo 420, Col. Nueva el Rosario, Azcapotzalco, C.P. 02128, Ciudad de México
		Área de Estructuras. e-mail: agb@azc.uam.mx
**************************************************************************************
ARCHIVO ESTANDAR DE ACELERACION:
VERSION DEL FORMATO                    : 2.0
NOMBRE DEL ARCHIVO                     : RUML202203.181
FECHA Y HORA DE CREACION               : 11:30 a. m. 25/03/2022
REF. CATALOGO ACELEROGRAMAS, SMIS 1999 : REGISTRO NO.      /PAG.    


================================================================================
DATOS DE LA ESTACION:
NOMBRE DE LA ESTACION                  : UAM-LERMA.
CLAVE DE LA ESTACION                   : RUML
LOCALIZACION DE LA ESTACION            : AV. DE LAS GARZAS 10, EL PANTEON, C.P.52005,
                                       : LERMA DE VILLADA, ESTADO DE MEXICO.   
                                       : 
                                       : 
                                       : 
COORDENADAS DE LA ESTACION             : 19.291278 LAT. N
                                       : 99.500578 LONG. W
ALTITUD (msnm)                         : 2570
TIPO DE SUELO                          : DEPOSITOS LACUSTRES
                                       : 
                                       : 
INSTITUCION RESPONSABLE                : UNIVERSIDAD AUTONOMA METROPOLITANA
                                       : 

================================================================================
DATOS DEL ACELEROGRAFO: 
MODELO DEL ACELEROGRAFO                : ETNA2 KINEMETRICS
NUMERO DE SERIE DEL ACELEROGRAFO       : 103733
NUMERO DE CANALES                      : 3
ORIENTACION C1-C6 (rumbo;orientacion)  : /N90E/N00E/V 
ORIENTACION C7-C12 (rumbo;orientacion) : 
VEL. DE MUESTREO, C1-C6 (muestras/s)   : /200/200/200
VEL. DE MUESTREO, C7-C12 (muestras/s)  : 
ESC. COMPLETA DE SENSORES, C1-C6, (g)  : /2/2/2
ESC. COMPLETA DE SENSORES, C7-C12 (g)  : 
FREC. NAT. DE SENSORES, C1-C6, (Hz)    : /212/206/208   
FREC. NAT. DE SENSORES, C7-C12 (Hz)    : 
AMORTIGUAMIENTO DE SENSORES, C1-C6     : /0.7/0.7/0.7      
AMORTIGUAMIENTO DE SENSORES, C7-C12    : 
INTERVALO DE MUESTREO, C1-C6 (s)       : /0.005/0.005/0.005
INTERVALO DE MUESTREO, C7-C12 (s)      : 
UMBRAL DE DISPARO, C1-C6 (Gal)         : /2/2/2
UMBRAL DE DISPARO, C7-C12 (Gal)        : 
MEMORIA DE PREEVENTO (s)               : 50
TIEMPO DE POSEVENTO (s)                : 60


================================================================================
DATOS DEL SISMO:
FECHA DEL SISMO [GMT]                  : 2022/03/18
HORA EPICENTRO (GMT)                   : 19:53:51
MAGNITUD(ES)                           : /M=4.8
COORDENADAS DEL EPICENTRO              : 16.8500 LAT. N
                                       : -99.9500 LONG. W
PROFUNDIDAD FOCAL (Km)                 : 22.0
FUENTE DE LOS DATOS EPICENTRALES       : SSN
                                       : INSTITUTO DE GEOFISICA, UNAM

================================================================================
DATOS DE ESTE REGISTRO:
HORA DE LA PRIMERA MUESTRA (GMT)       : 19:54:21.000
EXACTITUD DEL TIEMPO (s)               : 
DURACION DEL REGISTRO (s), C1-C6       : /133/133/133
DURACION DEL REGISTRO (s), C7-C12      : 
NUM. TOTAL DE MUESTRAS, C1-C6          : /26600/26600/26600
NUM. TOTAL DE MUESTRAS, C7-C12         : 
ACEL. MAX.(Gal), C1-C6                 : /0.483/0.430/0.298
ACEL. MAX., C1-C6, EN LA MUESTRA       : /11228/10171/11941
ACEL. MAX.(Gal), C7-C12                : 
ACEL. MAX., C7-C12,EN LA MUESTRA       : 
UNIDADES DE LOS DATOS                  : Gal (cm/s/s)
FACTOR DE DECIMACION                   : 1
FORMATO DATOS (FORTRAN,16 campos/dato) : 3E16.7


================================================================================
CALIDAD DEL ACELEROGRAMA:
REGISTRO DIGITAL COMPLETO CON TIEMPO ABSOLUTO CORRECTO


================================================================================
COMENTARIOS:














================================================================================
DATOS DE ACELERACION:
---------+---------+---------+---------+---------+---------+---------+---------+
   CANAL-1   	     CANAL-2          CANAL-3
     N90E              N00E              V
---------+---------+---------+---------+---------+---------+---------+---------+
[...]
   2.4342600e-01   1.6657200e-01   9.1362700e-02
   2.2517000e-01   1.5184800e-01   1.0564200e-01
   2.1323300e-01   1.6633900e-01   1.2951900e-01
   2.1885000e-01   2.0186300e-01   1.4801200e-01
   2.1885000e-01   1.9999400e-01   1.6580300e-01
   1.9357300e-01   1.9672200e-01   1.7235800e-01
   2.0714800e-01   2.0957600e-01   1.7821000e-01
   2.2095700e-01   2.1004400e-01   1.8336000e-01
   1.7835900e-01   2.0981000e-01   1.7867800e-01
   1.8163600e-01   2.0163000e-01   1.8453000e-01
   2.0878600e-01   2.1892500e-01   1.7212400e-01
   1.7555100e-01   2.2757200e-01   1.4543700e-01
   1.5284800e-01   2.1612000e-01   1.2834900e-01
   1.7063600e-01   2.0256500e-01   1.1594200e-01
   1.5191200e-01   1.8924300e-01   9.7215000e-02
   1.1469700e-01   1.9134600e-01   8.7851400e-02
   1.3014500e-01   1.7031200e-01   8.3403700e-02
   1.2523000e-01   1.5395200e-01   5.8824300e-02
   7.6780800e-02   1.3385200e-01   4.4310700e-02
   7.8185100e-02   1.1796000e-01   3.6585800e-02
   8.2398100e-02   9.7860200e-02   2.1135800e-02
   4.9162600e-02   4.9481100e-02   1.3410900e-02
   5.1035100e-02   4.6676500e-02   3.3450200e-03
   5.8992800e-02   4.1067400e-02  -5.3163000e-03
   2.3885000e-02   3.6729100e-03  -1.5382200e-02
   1.2182400e-02  -9.4151400e-03  -1.8191200e-02
   2.4587200e-02  -1.4790600e-02  -9.7640000e-03
   6.5651500e-03  -2.3905500e-02  -2.0063900e-02
  -9.1163400e-03  -4.1667800e-02  -3.1066200e-02
  -9.8185000e-03  -4.8679300e-02  -3.2938900e-02
  -1.7542200e-02  -6.4104500e-02  -2.9661600e-02
  -3.2287500e-02  -7.0181100e-02  -2.5682100e-02
  -4.1883600e-02  -4.9847900e-02  -2.0766200e-02
  -3.4862100e-02  -6.2468500e-02  -1.2807200e-02
  -4.4926300e-02  -6.2234800e-02  -2.5916200e-02
  -7.5119100e-02  -4.8913000e-02  -3.7620700e-02
  -6.3416400e-02  -5.1951300e-02  -3.3173000e-02
  -5.8501300e-02  -5.3587300e-02  -2.8257100e-02
  -1.0414200e-01  -5.1717600e-02  -3.6684300e-02
  -9.5481600e-02  -3.2786700e-02  -5.5177400e-02
  -6.8097500e-02  -2.6242600e-02  -6.5711400e-02
  -1.0788600e-01  -3.5357500e-02  -7.2968200e-02
  -1.1209900e-01  -2.2503200e-02  -7.9756800e-02
  -6.7629400e-02  -1.6192900e-02  -9.6845400e-02
  -8.4013000e-02  -2.1568300e-02  -1.2400000e-01
  -1.1139700e-01  -2.5074100e-02  -1.4015200e-01
  -8.7523800e-02  -1.6426600e-02  -1.4553600e-01
  -8.4715200e-02  -1.9464900e-02  -1.3757700e-01
  -1.0648200e-01  -3.2553000e-02  -1.2961800e-01
  -1.0063100e-01  -2.9280900e-02  -1.2844700e-01
  -9.0098400e-02  -4.9745500e-03  -1.1112500e-01
  -9.9460500e-02   3.2054800e-03  -9.7547600e-02
  -1.0250300e-01  -1.0817400e-02  -8.2097700e-02
  -8.9162200e-02   2.4239900e-02  -7.3904600e-02
  -8.9864300e-02   3.5224500e-02  -9.1695400e-02
  -1.0578000e-01   4.2937100e-02  -8.9822700e-02
  -9.4779400e-02   4.5741700e-02  -8.1629500e-02
  -9.4779400e-02   5.3688000e-02  -8.9120400e-02
  -1.3363200e-01   8.1500100e-02  -9.5909000e-02
  -1.3035500e-01   7.3553800e-02  -1.0410200e-01
  -1.0905700e-01   7.7994400e-02  -1.1299800e-01
  -1.5235600e-01   8.6641800e-02  -1.1276300e-01
  -1.6335700e-01   7.7526900e-02  -1.0457000e-01
  -1.1467400e-01   7.0982900e-02  -1.0691100e-01
  -1.3269600e-01   7.4956100e-02  -1.2095700e-01
  -1.4954800e-01   5.7661100e-02  -1.2680900e-01
  -1.1373800e-01   6.9113200e-02  -1.1908400e-01
  -1.1139700e-01   6.2802900e-02  -1.1767900e-01
  -1.1982300e-01   4.7611400e-02  -1.2470200e-01
  -9.8524300e-02   6.3504000e-02  -1.2259500e-01
  -7.8863900e-02   5.3688000e-02  -1.2774500e-01
  -7.3012600e-02   4.8312500e-02  -1.3991800e-01
  -7.5587200e-02   4.7845100e-02  -1.2493600e-01
  -5.4054400e-02   3.1017600e-02  -1.0199500e-01
  -2.5265900e-02   2.4707300e-02  -9.2163600e-02
  -4.3053900e-02   5.2519400e-02  -8.1395400e-02
  -1.1222800e-02   4.4339400e-02  -6.8754600e-02
   2.6459600e-02   2.5642200e-02  -6.1966000e-02
  -2.3288300e-03   3.6626800e-02  -6.0561500e-02
   3.2310900e-02   4.5507900e-02  -6.2200100e-02
   8.1227800e-02   3.6860500e-02  -6.7350100e-02
   5.5482100e-02  -1.9362500e-03  -7.0159100e-02
   7.7951100e-02  -1.1752300e-02  -6.7116000e-02
   1.2429300e-01  -1.8530000e-02  -4.8857000e-02
   9.0823900e-02  -6.9012500e-02  -3.1300300e-02
   9.1292000e-02  -5.5924500e-02  -1.8191200e-02
   1.2335700e-01  -2.7411200e-02  -9.0617300e-03
   1.0767600e-01  -9.0046900e-02  -3.6776700e-03
   9.6675200e-02  -1.2931100e-01   1.0601800e-02
   9.9952000e-02  -1.3819200e-01   2.6988100e-02
   8.4738600e-02  -1.5782400e-01   4.7588000e-02
   6.1567400e-02  -1.7184700e-01   6.9358300e-02
   5.2673400e-02  -1.8189700e-01   9.8853600e-02
   5.1737200e-02  -1.6343400e-01   1.0962200e-01
   3.6289800e-02  -1.7161400e-01   1.0704700e-01
   3.9905800e-03  -1.7254800e-01   1.1172900e-01
   1.0544000e-02  -1.3562100e-01   9.8853600e-02
   6.3311000e-03  -1.4286700e-01   8.9724100e-02
  -3.4394000e-02  -1.6764000e-01   9.5576300e-02
  -3.1819400e-02  -1.4941100e-01   9.5108200e-02
  -3.3457800e-02  -1.3608900e-01   9.4171800e-02
  -6.5522900e-02  -1.4754100e-01   1.0540800e-01
  -6.8331500e-02  -1.3398500e-01   1.2624200e-01
  -5.0543600e-02  -1.2113100e-01   1.3069000e-01
  -6.4118600e-02  -1.1271700e-01   1.3069000e-01
  -8.0502300e-02  -1.1645700e-01   1.4309700e-01
  -5.2884100e-02  -1.2931100e-01   1.4239400e-01
  -4.4926300e-02  -1.3118100e-01   1.3818100e-01
  -8.1906600e-02  -1.4684000e-01   1.3841500e-01
  -8.4013000e-02  -1.4754100e-01   1.3747800e-01
  -6.5288900e-02  -1.1879400e-01   1.2296500e-01
  -9.1034600e-02  -1.1225000e-01   9.6278600e-02
  -1.1631200e-01  -1.5759100e-01   9.0192300e-02
  -1.1069500e-01  -1.8049500e-01   9.2533200e-02
  -1.3995200e-01  -1.7138000e-01   8.4340000e-02
  -1.8840000e-01  -1.6764000e-01   9.1596800e-02
  -1.7950600e-01  -1.8283200e-01   1.0494000e-01
  -1.8676200e-01  -1.9264800e-01   1.0283300e-01
  -2.4972200e-01  -1.7231500e-01   9.0660500e-02
  -2.5182800e-01  -2.0690500e-01   9.3001400e-02
  -2.3778500e-01  -2.2069400e-01   1.0096000e-01
  -2.8623400e-01  -2.0363300e-01   9.4171800e-02
  -2.9723500e-01  -2.1952500e-01   9.2299100e-02
  -2.7008500e-01  -2.3541800e-01   9.4171800e-02
  -3.0121300e-01  -2.4453300e-01   8.5510500e-02
  -3.2017200e-01  -2.2279700e-01   7.6381000e-02
  -2.8740400e-01  -2.3635300e-01   8.1062800e-02
  -2.9980900e-01  -2.6019200e-01   7.4742400e-02
  -3.0987300e-01  -2.5832200e-01   5.9292400e-02
  -2.8038300e-01  -2.4990800e-01   5.5547000e-02
  -2.7593600e-01  -2.6136000e-01   5.9292400e-02
  -2.8389400e-01  -2.6673600e-01   5.8356100e-02
  -2.6353100e-01  -2.3354800e-01   4.6885700e-02
  -2.4199800e-01  -2.3074400e-01   3.5883500e-02
  -2.4878600e-01  -2.4616900e-01   2.2540400e-02
  -2.5533900e-01  -2.3752100e-01   1.7156300e-02
  -2.3474300e-01  -2.0526900e-01   2.0433600e-02
  -2.2538100e-01  -2.2186200e-01   1.7156300e-02
  -2.4199800e-01  -2.1485100e-01   1.3410900e-02
  -2.1461400e-01  -1.5875900e-01   1.3176800e-02
  -1.8886800e-01  -1.6553700e-01   9.8995300e-03
  -2.0572000e-01  -1.6857500e-01   1.2942700e-02
  -1.9191100e-01  -1.3562100e-01   3.3450200e-03
  -1.6031400e-01  -1.1669000e-01  -1.4445800e-02
  -1.6874000e-01  -1.2440300e-01  -1.1402600e-02
  -1.7037800e-01  -1.2814300e-01  -5.5503900e-03
  -1.3386600e-01  -8.7008600e-02  -1.0232200e-02
  -1.2871700e-01  -7.0414800e-02  -2.7086600e-02
  -1.2473800e-01  -1.1178200e-01  -3.1768400e-02
  -9.8056200e-02  -8.8410900e-02  -3.3641100e-02
  -9.2204900e-02  -6.2468500e-02  -4.8388800e-02
  -9.0332400e-02  -1.0220000e-01  -6.0561500e-02
  -7.2544500e-02  -9.5889800e-02  -6.2434200e-02
  -5.6394900e-02  -8.4905200e-02  -6.8052300e-02
  -5.2884100e-02  -8.2568000e-02  -8.0927300e-02
  -5.1011700e-02  -9.0280600e-02  -7.2265900e-02
  -3.8841000e-02  -8.6307500e-02  -6.5009200e-02
  -1.6606000e-02  -4.8679300e-02  -7.4138700e-02
  -3.0181000e-02  -5.3119900e-02  -7.8820500e-02
  -2.1755200e-02  -5.4288500e-02  -7.2734100e-02
   1.9204000e-02  -7.0779900e-03  -8.3268200e-02
  -1.6266700e-03   1.5592400e-02  -1.0620900e-01
  -1.3926200e-03   7.4123600e-03  -1.1159300e-01
   4.8226400e-02   3.4289600e-02  -1.2797900e-01
   2.3651000e-02   5.6726300e-02  -1.4389700e-01
  -6.7758200e-03   7.7293200e-02  -1.4249300e-01
   4.8460500e-02   7.4488600e-02  -1.3804500e-01
   4.8694500e-02   9.3185900e-02  -1.3757700e-01
   2.5862700e-03   1.3291700e-01  -1.4506800e-01
   3.7928100e-02   1.3081400e-01  -1.3874700e-01
   6.5078200e-02   1.5628900e-01  -1.3710900e-01
   3.0906600e-02   1.6844200e-01  -1.4694100e-01
   3.4651400e-02   1.7451900e-01  -1.4623800e-01
   4.8928600e-02   1.7522000e-01  -1.3968400e-01
   2.4119100e-02   1.8433500e-01  -1.2844700e-01
   2.3885000e-02   2.1214700e-01  -1.2470200e-01
   2.9268200e-02   2.1191300e-01  -1.0995400e-01
   1.4522900e-02   2.0256500e-01  -9.9420300e-02
   4.7979800e-04   2.1822400e-01  -1.0363400e-01
  -6.5417700e-03   2.2359900e-01  -8.3502200e-02
   3.5224800e-03   2.0981000e-01  -6.1966000e-02
  -4.4353000e-03   2.1822400e-01  -5.6347800e-02
  -1.5201700e-02   2.2266400e-01  -5.4241000e-02
   1.0310000e-02   2.1354900e-01  -3.9493400e-02
   1.5225100e-02   1.8854200e-01  -1.6786700e-02
   7.1385000e-04   2.2079400e-01  -3.4435800e-03
   4.6822100e-02   2.4276400e-01  -4.1458500e-03
   7.7717000e-02   2.2009300e-01  -1.5148100e-02
   6.1099300e-02   2.1565300e-01  -1.5616200e-02
   9.9249800e-02   1.8947700e-01  -9.5299100e-03
   1.2218700e-01   1.9368300e-01   1.9404800e-03
   1.0861200e-01   1.8246500e-01   1.6688100e-02
   1.4652800e-01   1.9789000e-01   2.0667700e-02
   1.7531700e-01   2.0934200e-01   1.5283600e-02
   1.6314600e-01   1.5792500e-01   2.1135800e-02
   1.7648700e-01   1.5208200e-01   4.8290200e-02
   2.0199900e-01   1.4787500e-01   7.7551400e-02
   2.0761600e-01   1.4904400e-01   9.9321800e-02
   2.2563800e-01   1.4437000e-01   1.0142900e-01
   2.4576600e-01   1.4904400e-01   9.7917200e-02
   2.6168200e-01   1.5956100e-01   1.0447200e-01
   2.7666100e-01   1.4834300e-01   1.0142900e-01
   2.7853400e-01   1.4834300e-01   9.5810400e-02
   3.1387600e-01   1.3385200e-01   8.5978700e-02
   3.3564200e-01   1.3128100e-01   7.5210500e-02
   3.1457800e-01   1.2053100e-01   8.5276400e-02
   3.4594100e-01   9.2718400e-02   9.8853600e-02
   3.7168700e-01   9.8795000e-02   1.0423800e-01
   3.4219600e-01   1.2123200e-01   1.1266500e-01
   3.8058100e-01   1.0814400e-01   1.1360100e-01
   4.3534900e-01   1.0206700e-01   9.0192300e-02
   3.9977300e-01   9.9496200e-02   5.9994700e-02
   4.0656000e-01   7.2151500e-02   4.3842500e-02
   4.6601000e-01   5.7193700e-02   2.9797200e-02
   4.4213600e-01   4.1301100e-02   1.6922200e-02
   4.2411400e-01   3.5691900e-02   9.1972600e-03
   4.7888200e-01   2.5642200e-02  -2.5072200e-03
   4.7677600e-01   6.3461600e-04  -1.3743500e-02
   4.4845600e-01  -1.5258000e-02  -2.1702600e-02
   4.8052100e-01  -2.3204300e-02  -2.3107100e-02
   4.8262700e-01  -4.4939900e-02  -2.2638900e-02
   4.5266900e-01  -7.0181100e-02  -2.7788900e-02
   4.6320100e-01  -7.6257700e-02  -2.7320700e-02
   4.6507300e-01  -8.6073800e-02  -1.9127600e-02
   4.2879500e-01  -1.0407000e-01  -9.0617300e-03
   4.1428400e-01  -1.1505400e-01   1.7063900e-03
   4.1896500e-01  -1.1295100e-01   1.7390400e-02
   3.9345300e-01  -1.3562100e-01   3.7756200e-02
   3.6138800e-01  -1.3959500e-01   4.4778900e-02
   3.5506900e-01  -1.1388600e-01   4.7588000e-02
   3.4453600e-01  -1.1669000e-01   5.1567500e-02
   3.0755600e-01  -1.1225000e-01   5.1801600e-02
   2.8157600e-01  -1.0220000e-01   5.4376600e-02
   2.8040600e-01  -8.4437700e-02   4.3608400e-02
   2.5115000e-01  -8.4671500e-02   3.4947100e-02
   2.0738200e-01  -8.2568000e-02   4.2203900e-02
   2.0831800e-01  -5.7093100e-02   5.3674300e-02
   2.0153100e-01  -5.6625600e-02   5.4142500e-02
   1.4957100e-01  -5.3353600e-02   5.6483400e-02
   1.3459200e-01  -4.3070100e-02   7.1933300e-02
   1.5308200e-01  -1.1051100e-02   6.8187900e-02
   1.1937800e-01  -1.2219700e-02   7.5210500e-02
   8.8249400e-02  -3.6759800e-02   9.3703600e-02
   1.0814400e-01  -1.9362500e-03   8.9490000e-02
   8.4738600e-02   9.7495100e-03   9.0660500e-02
   6.1567400e-02  -5.6757000e-03   1.0330100e-01
   9.3632600e-02   1.2554100e-02   1.1430400e-01
   7.5142400e-02   2.7044400e-02   1.1547400e-01
   4.7992400e-02   1.9565600e-02   1.1500600e-01
   7.4674300e-02   3.3588500e-02   1.1594200e-01
   6.6716600e-02   6.0699400e-02   1.0868500e-01
   3.2310900e-02   4.9481100e-02   1.1196300e-01
   4.3545400e-02   5.9297200e-02   1.1711300e-01
   4.4013500e-02   9.2251000e-02   1.0634400e-01
   2.2714800e-02   8.8277800e-02   9.0894600e-02
   2.8800100e-02   1.0744200e-01   8.7149100e-02
   1.5927200e-02   1.2707500e-01   8.3403700e-02
   9.4790200e-04   1.3198300e-01   6.5612900e-02
   1.1714300e-02   1.4881000e-01   6.3740200e-02
   1.8841100e-03   1.5558800e-01   6.6081000e-02
  -1.8607200e-03   1.6867600e-01   5.4610700e-02
   7.1385000e-04   1.8573700e-01   4.8056100e-02
  -2.2925400e-02   1.8363400e-01   5.7887900e-02
  -1.7542200e-02   1.6540400e-01   5.9760600e-02
  -1.0988800e-02   1.9274900e-01   3.2606200e-02
  -4.1883600e-02   2.2126200e-01   2.2072200e-02
  -4.4692300e-02   1.8433500e-01   2.3710800e-02
  -3.4394000e-02   1.7872600e-01   9.6654400e-03
  -7.2310400e-02   2.1097800e-01  -8.3594700e-03
  -8.7289800e-02   1.9812400e-01  -1.4445800e-02
  -6.2948300e-02   1.6961100e-01  -1.4679900e-02
  -1.0695000e-01   2.0443400e-01  -2.5213900e-02
  -1.4463300e-01   2.1214700e-01  -1.9595800e-02
  -1.1280100e-01   1.7381800e-01  -6.7208400e-03
  -1.4697300e-01   2.1471800e-01  -7.6572000e-03
  -2.0408200e-01   2.3879000e-01  -7.4231100e-03
  -1.8067700e-01   2.1658800e-01   3.1109300e-03
  -1.9846500e-01   2.3645300e-01   1.9404800e-03
  -2.6470100e-01   2.6052600e-01  -9.5299100e-03
  -2.5463700e-01   2.6239600e-01  -5.3163000e-03
  -2.4761500e-01   2.6894000e-01  -5.7844800e-03
  -3.1947000e-01   2.7384800e-01  -1.4914000e-02
  -3.2344800e-01   2.5865600e-01  -1.6552600e-02
  -2.8810700e-01   2.6426500e-01  -1.3977600e-02
  -3.4404500e-01   2.5421600e-01  -2.2873000e-02
  -3.5855600e-01   2.4556800e-01  -3.5513900e-02
  -3.2110800e-01   2.6169500e-01  -3.4577500e-02
  -3.5715200e-01   2.2032700e-01  -3.5513900e-02
  -3.8125900e-01   1.9064500e-01  -4.5813800e-02
  -3.4732200e-01   1.9064500e-01  -5.4475100e-02
  -3.7002500e-01   1.8410100e-01  -5.3304700e-02
  -4.0560100e-01   1.5371800e-01  -5.0495600e-02
  -3.6417300e-01   1.4413600e-01  -5.4241000e-02
  -3.7142900e-01   1.4623900e-01  -4.5813800e-02
  -4.2362300e-01   7.6592100e-02  -1.6318500e-02
  -4.0372800e-01   6.0933200e-02   1.5751800e-02
  -3.9062100e-01   9.5756700e-02   4.4778900e-02
  -4.0606900e-01   6.7477200e-02   5.9994700e-02
  -3.9530200e-01   4.7377700e-02   5.9994700e-02
  -3.8570600e-01   1.1796000e-01   5.3908400e-02
  -3.7494000e-01   1.1585600e-01   2.6754000e-02
  -3.6908900e-01   3.6159300e-02   2.1745700e-03
  -3.8430200e-01   5.3688000e-02  -7.4231100e-03
  -3.7447200e-01   5.7427400e-02  -2.2170800e-02
  -3.6651400e-01  -2.8711100e-03  -1.5616200e-02
  -3.7868500e-01  -2.1568300e-02   1.5985900e-02
  -3.5527900e-01  -7.0779900e-03   2.6754000e-02
  -3.4381100e-01  -3.5722600e-03   1.8794900e-02
  -3.5668400e-01  -8.7140000e-03   1.9263100e-02
  -3.2110800e-01  -3.0449500e-02   5.3594200e-04
  -2.9395800e-01  -5.8261600e-02  -3.7152500e-02
  -3.1010700e-01  -9.4253800e-02  -6.0327400e-02
  -2.8997900e-01  -1.2276700e-01  -7.3904600e-02
  -2.6914800e-01  -1.3819200e-01  -7.8352300e-02
  -2.8412800e-01  -1.4987800e-01  -6.8988700e-02
