**************************************************************************************
  	RED ACELEROGRÁFICA DE LA UNIVERSIDAD AUTONOMA METROPOLITANA (RA-UAM)
	   UNIDAD AZCAPOTZALCO. DIVISIÓN CBI-DEPARTAMENTO DE MATERIALES
     Av. San Pablo 420, Col. Nueva el Rosario, Azcapotzalco, C.P. 02128, Ciudad de México
		Área de Estructuras. e-mail: agb@azc.uam.mx
**************************************************************************************
ARCHIVO ESTANDAR DE ACELERACION:
VERSION DEL FORMATO                    : 2.0
NOMBRE DEL ARCHIVO                     : RUML202210.011
FECHA Y HORA DE CREACION               : 11:30 a. m. 07/10/2022
REF. CATALOGO ACELEROGRAMAS, SMIS 1999 : REGISTRO NO.      /PAG.    


================================================================================
DATOS DE LA ESTACION:
NOMBRE DE LA ESTACION                  : UAM-LERMA.
CLAVE DE LA ESTACION                   : RUML
LOCALIZACION DE LA ESTACION            : AV. DE LAS GARZAS 10, EL PANTEON, C.P.52005,
                                       : LERMA DE VILLADA, ESTADO DE MEXICO.   
                                       : 
                                       : 
                                       : 
COORDENADAS DE LA ESTACION             : 19.291278 LAT. N
                                       : 99.500578 LONG. W
ALTITUD (msnm)                         : 2570
TIPO DE SUELO                          : DEPOSITOS LACUSTRES
                                       : 
                                       : 
INSTITUCION RESPONSABLE                : UNIVERSIDAD AUTONOMA METROPOLITANA
                                       : 

================================================================================
DATOS DEL ACELEROGRAFO: 
MODELO DEL ACELEROGRAFO                : ETNA2 KINEMETRICS
NUMERO DE SERIE DEL ACELEROGRAFO       : 103733
NUMERO DE CANALES                      : 3
ORIENTACION C1-C6 (rumbo;orientacion)  : /N90E/N00E/V 
ORIENTACION C7-C12 (rumbo;orientacion) : 
VEL. DE MUESTREO, C1-C6 (muestras/s)   : /200/200/200
VEL. DE MUESTREO, C7-C12 (muestras/s)  : 
ESC. COMPLETA DE SENSORES, C1-C6, (g)  : /2/2/2
ESC. COMPLETA DE SENSORES, C7-C12 (g)  : 
FREC. NAT. DE SENSORES, C1-C6, (Hz)    : /212/206/208   
FREC. NAT. DE SENSORES, C7-C12 (Hz)    : 
AMORTIGUAMIENTO DE SENSORES, C1-C6     : /0.7/0.7/0.7      
AMORTIGUAMIENTO DE SENSORES, C7-C12    : 
INTERVALO DE MUESTREO, C1-C6 (s)       : /0.005/0.005/0.005
INTERVALO DE MUESTREO, C7-C12 (s)      : 
UMBRAL DE DISPARO, C1-C6 (Gal)         : /2/2/2
UMBRAL DE DISPARO, C7-C12 (Gal)        : 
MEMORIA DE PREEVENTO (s)               : 50
TIEMPO DE POSEVENTO (s)                : 60


================================================================================
DATOS DEL SISMO:
FECHA DEL SISMO [GMT]                  : 2022/10/01
HORA EPICENTRO (GMT)                   : 16:36:51
MAGNITUD(ES)                           : /M=5.6
COORDENADAS DEL EPICENTRO              : 14.8900 LAT. N
                                       : -94.1000 LONG. W
PROFUNDIDAD FOCAL (Km)                 : 10.0
FUENTE DE LOS DATOS EPICENTRALES       : SSN
                                       : INSTITUTO DE GEOFISICA, UNAM

================================================================================
DATOS DE ESTE REGISTRO:
HORA DE LA PRIMERA MUESTRA (GMT)       : 16:39:31.000
EXACTITUD DEL TIEMPO (s)               : 
DURACION DEL REGISTRO (s), C1-C6       : /166/166/166
DURACION DEL REGISTRO (s), C7-C12      : 
NUM. TOTAL DE MUESTRAS, C1-C6          : /33200/33200/33200
NUM. TOTAL DE MUESTRAS, C7-C12         : 
ACEL. MAX.(Gal), C1-C6                 : /-0.760/-0.877/-0.174
ACEL. MAX., C1-C6, EN LA MUESTRA       : /12138/12156/16961
ACEL. MAX.(Gal), C7-C12                : 
ACEL. MAX., C7-C12,EN LA MUESTRA       : 
UNIDADES DE LOS DATOS                  : Gal (cm/s/s)
FACTOR DE DECIMACION                   : 1
FORMATO DATOS (FORTRAN,16 campos/dato) : 3E16.7


================================================================================
CALIDAD DEL ACELEROGRAMA:
REGISTRO DIGITAL COMPLETO CON TIEMPO ABSOLUTO CORRECTO


================================================================================
COMENTARIOS:














================================================================================
DATOS DE ACELERACION:
---------+---------+---------+---------+---------+---------+---------+---------+
   CANAL-1   	     CANAL-2          CANAL-3
     N90E              N00E              V
---------+---------+---------+---------+---------+---------+---------+---------+
[...]
  -5.2469800e-03  -4.7057800e-01  -6.7293100e-02
   4.0393200e-02  -4.4580400e-01  -4.7395500e-02
  -8.9918100e-03  -3.9649000e-01  -2.7966100e-02
  -2.6077600e-02  -3.5161600e-01  -2.8902400e-02
  -2.4383500e-03  -3.7311800e-01  -4.8331900e-02
  -2.4673300e-02  -4.2313300e-01  -6.5654500e-02
   5.5194200e-03  -4.2383400e-01  -5.2779600e-02
   6.3798400e-02  -3.6727500e-01  -2.5391100e-02
   1.2306900e-02  -3.0580800e-01  -7.8343500e-03
  -2.7950000e-02  -2.8383900e-01  -9.0047900e-03
   2.0498800e-02  -3.1165100e-01  -3.0307000e-02
   2.0498800e-02  -3.3642500e-01  -5.1140900e-02
   2.0498800e-02  -3.2100000e-01  -4.2011400e-02
   7.1756200e-02  -2.7729500e-01  -1.0409300e-02
   4.9521200e-02  -2.1839900e-01   3.6360500e-03
  -1.5021400e-03  -1.9666300e-01  -9.7070600e-03
   3.1265200e-02  -2.2330700e-01  -3.0775100e-02
   7.6671300e-02  -2.4527600e-01  -4.6927300e-02
   8.6735500e-02  -2.2704600e-01  -3.1945600e-02
   8.9310100e-02  -1.5880100e-01   2.4656000e-03
   8.4395000e-02  -1.0785100e-01   1.2297400e-02
   7.7373400e-02  -1.1953700e-01  -7.8343500e-03
   7.8309600e-02  -1.4688200e-01  -3.3116000e-02
   1.1622600e-01  -1.4758300e-01  -3.0072900e-02
   1.6444100e-01  -1.0925400e-01  -7.6002600e-03
   1.3612100e-01  -5.1292300e-02   1.4638300e-02
   1.0756600e-01  -1.0392100e-02   1.6276900e-02
   1.4220600e-01  -1.2028100e-02  -9.7070600e-03
   1.4244000e-01  -4.9656300e-02  -3.7329600e-02
   1.5671700e-01  -5.6667800e-02  -3.0541000e-02
   2.2997500e-01  -1.6001300e-02  -2.4502800e-03
   2.0282500e-01   5.9488700e-02   7.8496600e-03
   1.3799300e-01   9.9454000e-02   7.6155700e-03
   1.9416500e-01   6.5097900e-02  -1.5793400e-02
   2.2201800e-01   4.8504100e-02  -3.7095600e-02
   2.1920900e-01   5.2477300e-02  -2.7497900e-02
   2.7491300e-01   1.0716700e-01  -3.6207300e-03
   2.5946600e-01   1.7400900e-01   7.8496600e-03
   2.1125100e-01   1.8008600e-01  -5.7275400e-03
   2.4214600e-01   1.6092100e-01  -2.8434200e-02
   2.8170100e-01   1.3147300e-01  -3.8031900e-02
   2.9831900e-01   1.4923500e-01  -2.4220600e-02
   3.1634100e-01   2.1490900e-01  -5.7275400e-03
   2.9644600e-01   2.7146800e-01   6.2110300e-03
   2.7865800e-01   2.8081700e-01  -5.7275400e-03
   2.9153100e-01   2.4248800e-01  -3.0307000e-02
   3.1002100e-01   2.2122000e-01  -4.0372800e-02
   3.6970500e-01   2.5277100e-01  -2.6795600e-02
   3.7204500e-01   3.1026500e-01  -1.9821000e-03
   3.1680900e-01   3.5326900e-01   1.2951500e-03
   3.4091600e-01   3.5537200e-01  -1.2282100e-02
   3.5683200e-01   3.2522300e-01  -4.0138700e-02
   3.4934200e-01   3.0675900e-01  -5.3481800e-02
   4.1160000e-01   3.3877800e-01  -2.7029700e-02
   4.2517500e-01   4.0188200e-01  -4.0889100e-03
   3.5753400e-01   4.3483500e-01  -5.7275400e-03
   3.7766200e-01   4.1660600e-01  -2.3518400e-02
   4.2517500e-01   3.8084700e-01  -4.5756900e-02
   4.1136600e-01   3.7406900e-01  -3.8031900e-02
   4.4577200e-01   4.1520300e-01  -2.6843700e-03
   4.5817600e-01   4.9256300e-01   2.1895000e-02
   4.1300400e-01   5.1546700e-01   1.0892800e-02
   4.1136600e-01   4.8625300e-01  -2.4454700e-02
   4.3921800e-01   4.6241400e-01  -3.9436500e-02
   4.7339000e-01   4.5072800e-01  -3.1477400e-02
   4.8205000e-01   4.9046000e-01  -4.7911800e-03
   4.5934700e-01   5.4070800e-01   1.9788200e-02
   4.5677200e-01   5.6641700e-01   9.0201100e-03
   4.5583600e-01   5.4398000e-01  -1.8368400e-02
   4.4834600e-01   5.0518400e-01  -2.7029700e-02
   5.0147600e-01   5.1523400e-01  -1.7480200e-03
   5.2043400e-01   5.5870500e-01   1.9320100e-02
   4.5817600e-01   6.0918700e-01   1.9788200e-02
   4.7175100e-01   6.0685000e-01   9.4882900e-03
   4.9796500e-01   5.5730200e-01  -1.0409300e-02
   4.7081500e-01   5.4538300e-01  -1.0877500e-02
   5.1622100e-01   5.6595000e-01   1.3467800e-02
   5.4149900e-01   6.1690000e-01   3.1960900e-02
   4.7175100e-01   6.6037100e-01   3.6876800e-02
   4.6613400e-01   6.4611400e-01   2.7279100e-02
   5.0428500e-01   6.1292600e-01   1.5340500e-02
   4.9866700e-01   5.8137500e-01   1.5106400e-02
   5.1364700e-01   6.1058900e-01   3.5940400e-02
   5.2277500e-01   6.7345900e-01   7.0585700e-02
   4.8579400e-01   7.0080300e-01   7.2458400e-02
   4.6285700e-01   6.8234000e-01   4.8815400e-02
   4.7175100e-01   6.4003700e-01   3.1960900e-02
   5.0451900e-01   6.3302600e-01   3.1960900e-02
   5.1247600e-01   6.5826700e-01   5.2794900e-02
   4.7853900e-01   7.1155400e-01   7.3160700e-02
   4.7900700e-01   7.3726300e-01   7.2926600e-02
   4.8111300e-01   6.9122100e-01   4.6474500e-02
   4.5958100e-01   6.5219100e-01   3.1024500e-02
   5.0568900e-01   6.4424400e-01   5.3965300e-02
   5.3143500e-01   6.9355800e-01   8.7674200e-02
   4.5560200e-01   7.5525900e-01   1.0406100e-01
   4.5443100e-01   7.4848100e-01   9.5165100e-02
   4.9024100e-01   7.0617900e-01   7.1756100e-02
   4.4460100e-01   6.5990300e-01   6.0051700e-02
   4.7128300e-01   6.6878400e-01   8.3928800e-02
   5.1317900e-01   7.1973400e-01   1.1740400e-01
   4.3360100e-01   7.4988400e-01   1.2583100e-01
   4.0598300e-01   7.5011700e-01   1.0195400e-01
   4.5092100e-01   7.1482600e-01   7.6672000e-02
   4.4062200e-01   6.6738200e-01   7.8778800e-02
   4.4389900e-01   6.6971900e-01   1.0054900e-01
   4.5092100e-01   7.2440900e-01   1.2583100e-01
   4.1300400e-01   7.5619400e-01   1.2489400e-01
   3.9404600e-01   7.2207200e-01   1.0101700e-01
   3.9591800e-01   6.6948600e-01   9.2356000e-02
   4.1487700e-01   6.5850100e-01   1.0289000e-01
   4.2821800e-01   6.8187300e-01   1.1927600e-01
   3.8304600e-01   7.2230500e-01   1.3776900e-01
   3.5355500e-01   7.4100200e-01   1.2957600e-01
   3.6338500e-01   6.9239000e-01   1.0265600e-01
   3.4512900e-01   6.3606400e-01   7.9949300e-02
   3.6619400e-01   6.2110700e-01   9.0015100e-02
   3.9685500e-01   6.4237500e-01   1.1763800e-01
   3.2476700e-01   7.0057000e-01   1.2044700e-01
   2.9317000e-01   7.0430900e-01   1.0967900e-01
   3.2406400e-01   6.3863500e-01   8.0417500e-02
   2.9855300e-01   5.9376200e-01   6.1924400e-02
   3.1283000e-01   5.7249400e-01   7.4565200e-02
   3.4091600e-01   5.9633300e-01   9.6569600e-02
   2.7772200e-01   6.3419500e-01   1.0499700e-01
   2.3652900e-01   6.1900300e-01   8.6035600e-02
   2.4916800e-01   5.7576600e-01   5.8413000e-02
   2.5197600e-01   5.2411500e-01   4.9283500e-02
   2.7046600e-01   5.0682000e-01   6.3797100e-02
   2.5806200e-01   5.3650200e-01   8.2524300e-02
   2.0282500e-01   5.6828700e-01   8.3694700e-02
   1.8878200e-01   5.4211100e-01   5.4667600e-02
   1.7918600e-01   4.6031000e-01   3.0088200e-02
   1.8222900e-01   4.1637200e-01   2.8683600e-02
   2.1593200e-01   4.3413400e-01   4.0388100e-02
   1.7099400e-01   4.5587000e-01   5.7710800e-02
   1.1809900e-01   4.6872400e-01   5.4667600e-02
   1.3214200e-01   4.3810700e-01   3.1024500e-02
   1.0756600e-01   3.6238400e-01  -8.1165700e-04
   9.7970000e-02   3.2522300e-01  -8.0684400e-03
   1.4290800e-01   3.2569000e-01   1.5808700e-02
   9.8672200e-02   3.4789300e-01   2.7747300e-02
   2.0264700e-02   3.5887800e-01   1.9320100e-02
   3.5712200e-02   3.1166800e-01  -2.2161900e-03
   3.5478100e-02   2.3337300e-01  -2.2113800e-02
   7.3918400e-03   1.9854900e-01  -2.1645600e-02
   2.7988400e-02   2.2472500e-01   5.0405900e-03
   2.0086400e-03   2.5323900e-01   1.8383700e-02
  -6.4228100e-02   2.3594400e-01  -1.9821000e-03
  -7.9441500e-02   1.7447700e-01  -3.1711500e-02
  -6.5632400e-02   1.0903600e-01  -5.2311400e-02
  -5.8844900e-02   7.7017400e-02  -4.2245500e-02
  -8.5292800e-02   9.7818000e-02  -1.8602500e-02
  -1.2555000e-01   1.1838500e-01  -5.4934500e-03
  -1.5059300e-01   1.1114000e-01  -2.6093300e-02
  -1.8570100e-01   5.0140100e-02  -6.0270400e-02
  -1.9014800e-01  -2.2311600e-02  -6.6824900e-02
  -1.6042400e-01  -3.5633400e-02  -5.2311400e-02
  -1.9927600e-01  -1.7169900e-02  -3.5456900e-02
  -2.5591700e-01   8.5387900e-03  -3.1945600e-02
  -2.5849100e-01  -3.1192800e-02  -5.3715900e-02
  -2.8657800e-01  -1.0995500e-01  -8.2040800e-02
  -3.0670600e-01  -1.5412700e-01  -8.6488500e-02
  -2.7230000e-01  -1.6347600e-01  -6.4484000e-02
  -3.0319500e-01  -1.3566400e-01  -4.0606900e-02
  -3.8324100e-01  -1.2467900e-01  -4.7629600e-02
  -3.9283700e-01  -1.6137200e-01  -7.0570400e-02
  -3.8675200e-01  -2.4036800e-01  -9.8427000e-02
  -3.9541200e-01  -2.8804600e-01  -1.0708800e-01
  -3.9564600e-01  -2.6444100e-01  -8.0168100e-02
  -4.2560500e-01  -2.5369000e-01  -5.3950000e-02
  -4.6960600e-01  -2.4621100e-01  -5.5354500e-02
  -4.9862900e-01  -2.8991600e-01  -7.9934000e-02
  -5.0752300e-01  -3.6306800e-01  -9.6320200e-02
  -4.7943700e-01  -3.8386900e-01  -8.8829400e-02
  -4.8669200e-01  -3.8293400e-01  -6.3547700e-02
  -5.5012000e-01  -3.4834400e-01  -4.1777300e-02
  -5.6182300e-01  -3.6166600e-01  -4.9970500e-02
  -5.7516400e-01  -4.2219800e-01  -8.2508900e-02
  -6.1542100e-01  -4.7034400e-01  -9.3511200e-02
  -5.6954700e-01  -4.8997600e-01  -7.7827200e-02
  -5.6299300e-01  -4.5562000e-01  -5.5354500e-02
  -6.5567800e-01  -4.3762400e-01  -3.9436500e-02
  -6.5825300e-01  -4.6286500e-01  -4.9970500e-02
  -6.3625200e-01  -5.3227800e-01  -7.6188500e-02
  -6.7767900e-01  -5.8486400e-01  -7.9465800e-02
  -6.5310300e-01  -5.6523200e-01  -5.2545500e-02
  -6.2548500e-01  -5.4887200e-01  -2.3518400e-02
  -7.0295600e-01  -5.3601800e-01  -1.5091100e-02
  -7.2893600e-01  -5.5050800e-01  -3.1711500e-02
  -6.9406300e-01  -6.1922000e-01  -5.0672800e-02
  -7.0436100e-01  -6.7040400e-01  -5.4418200e-02
  -6.9593500e-01  -6.5848500e-01  -2.6327400e-02
  -6.9593500e-01  -6.1758400e-01   4.3383200e-03
  -7.3197900e-01  -6.1781800e-01   1.2951500e-03
  -7.5772500e-01  -6.4726600e-01  -1.4154800e-02
  -7.5515000e-01  -7.0663000e-01  -1.9070700e-02
  -7.1840400e-01  -7.3888300e-01  -1.2984300e-02
  -7.0553100e-01  -7.1200500e-01   6.2110300e-03
  -7.4929900e-01  -6.7928500e-01   2.6576800e-02
  -7.5046900e-01  -6.7741600e-01   2.6342700e-02
  -7.3853200e-01  -7.3280600e-01   1.9974200e-03
  -7.5983100e-01  -7.8305500e-01  -9.4729700e-03
  -6.9921200e-01  -7.9590900e-01   1.0658700e-02
  -6.6808300e-01  -7.7160300e-01   3.1258600e-02
  -7.4087300e-01  -7.3210500e-01   5.4199400e-02
  -7.3595800e-01  -7.3327300e-01   5.3965300e-02
  -6.9968000e-01  -7.9076700e-01   3.3131300e-02
  -7.1700000e-01  -8.3657600e-01   2.5874600e-02
  -6.7604000e-01  -8.3517300e-01   3.8515400e-02
  -6.4350700e-01  -8.0175200e-01   6.7308400e-02
  -6.9359400e-01  -7.6108600e-01   7.6203800e-02
  -7.0108400e-01  -7.8632700e-01   6.6606200e-02
  -6.7253000e-01  -8.3564100e-01   4.6474500e-02
  -6.5825300e-01  -8.6018100e-01   3.3131300e-02
  -6.1986800e-01  -8.4896300e-01   4.2963100e-02
  -6.1354900e-01  -8.1086700e-01   7.1288000e-02
  -6.3765600e-01  -7.8445700e-01   8.5801500e-02
  -6.3086800e-01  -8.0105100e-01   6.0285700e-02
  -6.2080400e-01  -8.6134900e-01   4.0622200e-02
  -5.7539800e-01  -8.7654100e-01   4.2729000e-02
  -5.2320400e-01  -8.5527300e-01   6.2860700e-02
  -5.5667400e-01  -8.0292100e-01   9.3292400e-02
  -5.6486600e-01  -7.6015100e-01   9.9846900e-02
  -5.3163000e-01  -7.9661000e-01   7.3394800e-02
  -5.4941800e-01  -8.4498900e-01   4.5304000e-02
  -5.0143800e-01  -8.5924600e-01   5.3263100e-02
  -4.2841300e-01  -8.2231900e-01   7.9012900e-02
  -4.7616000e-01  -7.7370600e-01   9.7740100e-02
  -4.9652200e-01  -7.4612800e-01   9.3292400e-02
  -4.4432900e-01  -7.6131900e-01   6.3797100e-02
  -4.4947800e-01  -8.0853000e-01   4.3197200e-02
  -4.1717900e-01  -8.0549200e-01   4.8815400e-02
  -3.5421900e-01  -7.5454200e-01   7.1990200e-02
  -3.7949600e-01  -7.0055300e-01   7.8778800e-02
  -3.9494400e-01  -6.9354200e-01   6.3094800e-02
  -3.5796400e-01  -7.3187100e-01   4.1558600e-02
  -3.3011100e-01  -7.5360700e-01   2.8683600e-02
  -3.0319500e-01  -7.3911600e-01   4.2729000e-02
  -2.7557700e-01  -6.8910100e-01   7.4097000e-02
  -2.7510900e-01  -6.3254200e-01   8.8610600e-02
  -2.8072600e-01  -6.1594800e-01   6.6372100e-02
  -2.7768400e-01  -6.5287500e-01   4.1090400e-02
  -2.3883100e-01  -6.8185600e-01   3.8515400e-02
  -1.8429700e-01  -6.5474500e-01   5.3731200e-02
  -1.9108400e-01  -5.9024000e-01   7.5735700e-02
  -2.0185100e-01  -5.3227800e-01   7.5735700e-02
  -1.7750900e-01  -5.2947400e-01   5.5135800e-02
  -1.7516900e-01  -5.6266100e-01   3.0322300e-02
  -1.5106100e-01  -5.8065700e-01   2.7513200e-02
  -8.8335500e-02  -5.3531700e-01   5.2794900e-02
  -8.9973900e-02  -4.7969200e-01   7.1522100e-02
  -1.1993300e-01  -4.4533600e-01   7.2224300e-02
  -9.2782500e-02  -4.2897600e-01   4.9751700e-02
  -6.4228100e-02  -4.7314800e-01   2.4470000e-02
  -4.8312600e-02  -4.7478400e-01   2.9854100e-02
  -8.0556000e-03  -4.2547000e-01   5.8178900e-02
  -7.9998600e-04  -3.6377000e-01   7.1756100e-02
  -2.8418100e-02  -3.2263600e-01   5.5135800e-02
  -1.2970700e-02  -3.5021400e-01   3.4770000e-02
   2.1669000e-02  -3.6493800e-01   2.1426900e-02
   4.9521200e-02  -3.6073100e-01   2.9151800e-02
   7.7139400e-02  -3.1772800e-01   5.1390300e-02
   7.4096700e-02  -2.4013400e-01   6.2158500e-02
   6.0521700e-02  -2.1723000e-01   4.6942600e-02
   7.5267000e-02  -2.4387400e-01   1.6745100e-02
   1.0007600e-01  -2.5649400e-01   9.2542000e-03
   1.4688700e-01  -2.4223800e-01   2.0958700e-02
   1.7497300e-01  -1.9409200e-01   3.8749500e-02
   1.3541800e-01  -1.2958700e-01   4.5772200e-02
   1.4361000e-01  -1.1112300e-01   2.9854100e-02
   1.8199500e-01  -1.4898500e-01   5.2746700e-03
   1.7731400e-01  -1.6487800e-01  -1.0938800e-04
   2.2669900e-01  -1.3893600e-01   2.0724600e-02
   2.6204100e-01  -8.8453000e-02   4.0388100e-02
   2.0797500e-01  -1.6001300e-02   4.6006300e-02
   2.1359200e-01  -8.0549900e-03   3.2663200e-02
   2.6297700e-01  -4.1242600e-02   8.5519300e-03
   2.5595500e-01  -5.7135200e-02  -1.7480200e-03
   2.8942500e-01  -1.9974500e-02   1.6745100e-02
   3.1634100e-01   4.6167000e-02   3.8749500e-02
   2.7116900e-01   7.5381400e-02   3.3365400e-02
   2.7397700e-01   7.5147600e-02   1.2063300e-02
   3.1048900e-01   5.6216700e-02  -1.0409300e-02
   3.3483100e-01   5.9488700e-02  -8.3025300e-03
   3.5730000e-01   9.2442600e-02   1.6276900e-02
   3.4747000e-01   1.5975300e-01   3.8281300e-02
   3.3389500e-01   1.9668000e-01   2.9854100e-02
   3.4840600e-01   1.5694800e-01  -3.8548200e-03
   3.5191700e-01   1.3170700e-01  -1.5091100e-02
   3.9053500e-01   1.4292500e-01   2.2315100e-03
   4.3149400e-01   1.8569500e-01   3.0790400e-02
   3.7508800e-01   2.5908200e-01   4.2729000e-02
   3.6806600e-01   2.8899700e-01   2.7747300e-02
   4.1815300e-01   2.4786300e-01  -8.1165700e-04
   4.0691900e-01   2.1911600e-01  -1.2750200e-02
   4.3547300e-01   2.4108500e-01   1.1595100e-02
   4.7198500e-01   2.8923100e-01   3.5706300e-02
   4.1534500e-01   3.4485500e-01   3.5004100e-02
   3.9919500e-01   3.6378600e-01   1.8149600e-02
   4.4343100e-01   3.2802800e-01  -1.2798400e-03
   4.4811200e-01   2.9413900e-01  -8.5366200e-03
   4.6473000e-01   3.3387000e-01   7.1473900e-03
   4.8696500e-01   3.8785900e-01   3.1960900e-02
   4.6098500e-01   4.1660600e-01   2.8449600e-02
   4.4202700e-01   4.1917700e-01   5.0405900e-03
   4.5326100e-01   3.8248300e-01  -1.0643400e-02
   4.9234800e-01   3.6705800e-01  -1.1579800e-02
   5.2137000e-01   3.8996200e-01   7.3814800e-03
   4.8743300e-01   4.5329900e-01   3.2195000e-02
   4.7409200e-01   5.0097700e-01   3.0556400e-02
   4.9117800e-01   4.7947500e-01  -5.7756700e-04
   4.7198500e-01   4.3086200e-01  -1.6729800e-02
   5.0428500e-01   4.1660600e-01  -1.0409300e-02
   5.5039300e-01   4.5914200e-01   5.2746700e-03
