**************************************************************************************
  	RED ACELEROGRÁFICA DE LA UNIVERSIDAD AUTONOMA METROPOLITANA (RA-UAM)
	   UNIDAD AZCAPOTZALCO. DIVISIÓN CBI-DEPARTAMENTO DE MATERIALES
     Av. San Pablo 420, Col. Nueva el Rosario, Azcapotzalco, C.P. 02128, Ciudad de México
		Área de Estructuras. e-mail: agb@azc.uam.mx
**************************************************************************************
ARCHIVO ESTANDAR DE ACELERACION:
VERSION DEL FORMATO                    : 2.0
NOMBRE DEL ARCHIVO                     : RUML202204.271
FECHA Y HORA DE CREACION               : 11:30 a. m. 02/05/2022
REF. CATALOGO ACELEROGRAMAS, SMIS 1999 : REGISTRO NO.      /PAG.    


================================================================================
DATOS DE LA ESTACION:
NOMBRE DE LA ESTACION                  : UAM-LERMA.
CLAVE DE LA ESTACION                   : RUML
LOCALIZACION DE LA ESTACION            : AV. DE LAS GARZAS 10, EL PANTEON, C.P.52005,
                                       : LERMA DE VILLADA, ESTADO DE MEXICO.   
                                       : 
                                       : 
                                       : 
COORDENADAS DE LA ESTACION             : 19.291278 LAT. N
                                       : 99.500578 LONG. W
ALTITUD (msnm)                         : 2570
TIPO DE SUELO                          : DEPOSITOS LACUSTRES
                                       : 
                                       : 
INSTITUCION RESPONSABLE                : UNIVERSIDAD AUTONOMA METROPOLITANA
                                       : 

================================================================================
DATOS DEL ACELEROGRAFO: 
MODELO DEL ACELEROGRAFO                : ETNA2 KINEMETRICS
NUMERO DE SERIE DEL ACELEROGRAFO       : 103733
NUMERO DE CANALES                      : 3
ORIENTACION C1-C6 (rumbo;orientacion)  : /N90E/N00E/V 
ORIENTACION C7-C12 (rumbo;orientacion) : 
VEL. DE MUESTREO, C1-C6 (muestras/s)   : /200/200/200
VEL. DE MUESTREO, C7-C12 (muestras/s)  : 
ESC. COMPLETA DE SENSORES, C1-C6, (g)  : /2/2/2
ESC. COMPLETA DE SENSORES, C7-C12 (g)  : 
FREC. NAT. DE SENSORES, C1-C6, (Hz)    : /212/206/208   
FREC. NAT. DE SENSORES, C7-C12 (Hz)    : 
AMORTIGUAMIENTO DE SENSORES, C1-C6     : /0.7/0.7/0.7      
AMORTIGUAMIENTO DE SENSORES, C7-C12    : 
INTERVALO DE MUESTREO, C1-C6 (s)       : /0.005/0.005/0.005
INTERVALO DE MUESTREO, C7-C12 (s)      : 
UMBRAL DE DISPARO, C1-C6 (Gal)         : /2/2/2
UMBRAL DE DISPARO, C7-C12 (Gal)        : 
MEMORIA DE PREEVENTO (s)               : 50
TIEMPO DE POSEVENTO (s)                : 60


================================================================================
DATOS DEL SISMO:
FECHA DEL SISMO [GMT]                  : 2022/04/27
HORA EPICENTRO (GMT)                   : 11:01:29
MAGNITUD(ES)                           : /M=4.8
COORDENADAS DEL EPICENTRO              : 15.5300 LAT. N
                                       : -96.8000 LONG. W
PROFUNDIDAD FOCAL (Km)                 : 16.0
FUENTE DE LOS DATOS EPICENTRALES       : SSN
                                       : INSTITUTO DE GEOFISICA, UNAM

================================================================================
DATOS DE ESTE REGISTRO:
HORA DE LA PRIMERA MUESTRA (GMT)       : 11:03:15.000
EXACTITUD DEL TIEMPO (s)               : 
DURACION DEL REGISTRO (s), C1-C6       : /114/114/114
DURACION DEL REGISTRO (s), C7-C12      : 
NUM. TOTAL DE MUESTRAS, C1-C6          : /22800/22800/22800
NUM. TOTAL DE MUESTRAS, C7-C12         : 
ACEL. MAX.(Gal), C1-C6                 : /0.526/0.644/0.120
ACEL. MAX., C1-C6, EN LA MUESTRA       : /10549/10314/11312
ACEL. MAX.(Gal), C7-C12                : 
ACEL. MAX., C7-C12,EN LA MUESTRA       : 
UNIDADES DE LOS DATOS                  : Gal (cm/s/s)
FACTOR DE DECIMACION                   : 1
FORMATO DATOS (FORTRAN,16 campos/dato) : 3E16.7


================================================================================
CALIDAD DEL ACELEROGRAMA:
REGISTRO DIGITAL COMPLETO CON TIEMPO ABSOLUTO CORRECTO


================================================================================
COMENTARIOS:














================================================================================
DATOS DE ACELERACION:
---------+---------+---------+---------+---------+---------+---------+---------+
   CANAL-1   	     CANAL-2          CANAL-3
     N90E              N00E              V
---------+---------+---------+---------+---------+---------+---------+---------+
[...]
   1.3549400e-01   3.7777400e-01  -4.3971200e-02
   1.5258000e-01   3.9506900e-01  -5.1930200e-02
   1.1934400e-01   3.7473600e-01  -5.4739300e-02
   1.2121700e-01   3.5393500e-01  -4.0928000e-02
   1.1185500e-01   3.7123000e-01  -3.2266700e-02
   1.1840800e-01   3.5253300e-01  -4.3503000e-02
   8.3534300e-02   3.4014600e-01  -3.3905300e-02
   8.0959700e-02   3.4996200e-01  -2.6882600e-02
   9.5002800e-02   3.3243300e-01  -3.9289400e-02
   4.9128600e-02   3.2495400e-01  -4.1396200e-02
   7.1129500e-02   3.1280100e-01  -3.5309800e-02
   6.5980300e-02   3.0368600e-01  -3.4607600e-02
   3.6957900e-02   3.0438700e-01  -4.6078000e-02
   4.2341100e-02   2.7517300e-01  -4.5843900e-02
   4.6554000e-02   2.7330300e-01  -3.2734900e-02
   4.5149700e-02   2.7026500e-01  -3.7884800e-02
   1.0275900e-02   2.4969800e-01  -4.0225700e-02
   3.6489800e-02   2.4642600e-01  -3.4373500e-02
   3.3681100e-02   2.2609300e-01  -3.2734900e-02
  -8.2141900e-03   2.2772900e-01  -2.9457600e-02
   9.3397200e-03   2.2375500e-01  -2.7819000e-02
  -1.8947900e-03   2.0646100e-01  -2.7350800e-02
  -1.7342200e-02   2.0459100e-01  -3.8587100e-02
  -3.4896100e-02   1.8729600e-01  -3.4607600e-02
  -2.8108600e-02   1.7093600e-01  -2.6882600e-02
  -3.2789700e-02   1.4733100e-01  -3.4607600e-02
  -7.4919100e-02   1.4966800e-01  -3.0394000e-02
  -5.2918200e-02   1.3447600e-01  -3.2500800e-02
  -7.1642300e-02   1.1811600e-01  -3.7650700e-02
  -9.0132500e-02   1.1484400e-01  -3.8587100e-02
  -7.4451000e-02   9.1940000e-02  -3.4139400e-02
  -8.0302300e-02   8.7733200e-02  -3.1798500e-02
  -8.3110900e-02   6.5763900e-02  -4.3737100e-02
  -9.9962600e-02   4.9403900e-02  -4.0225700e-02
  -7.1408300e-02   5.3844500e-02  -3.5778000e-02
  -9.5983800e-02   4.0055300e-02  -3.8821200e-02
  -1.2126100e-01   3.6783200e-02  -3.8821200e-02
  -7.8663900e-02   2.8603200e-02  -3.9991600e-02
  -1.0745200e-01   7.1014000e-03  -3.0862100e-02
  -1.2266600e-01  -1.4377600e-04  -2.3137200e-02
  -1.2009100e-01  -1.1128400e-02  -1.5880400e-02
  -1.2313400e-01  -7.8563800e-03  -1.5880400e-02
  -1.3998600e-01  -2.2580400e-02  -2.6882600e-02
  -1.6222100e-01  -3.9407900e-02  -2.6648500e-02
  -1.2313400e-01  -3.3331300e-02  -2.9223500e-02
  -1.4583700e-01  -4.7588000e-02  -3.0159900e-02
  -1.6502900e-01  -6.1377200e-02  -2.4541700e-02
  -1.3600700e-01  -6.7220100e-02  -2.5244000e-02
  -1.5332700e-01  -7.7036100e-02  -2.8521200e-02
  -1.6315700e-01  -8.7553300e-02  -2.6882600e-02
  -1.6830600e-01  -1.0461500e-01  -1.7284900e-02
  -1.4841100e-01  -8.5683600e-02  -2.5009900e-02
  -1.6198600e-01  -9.4564700e-02  -3.4841700e-02
  -1.7556100e-01  -1.2541500e-01  -2.2669000e-02
  -1.3319800e-01  -1.0858800e-01  -1.2135000e-02
  -1.6713600e-01  -1.2635000e-01  -1.2603100e-02
  -1.7883800e-01  -1.2284400e-01  -1.4709900e-02
  -1.5777400e-01  -1.3920400e-01  -6.5168100e-03
  -1.7041200e-01  -1.6000500e-01  -4.1759100e-03
  -1.8398700e-01  -1.4294400e-01  -3.7077300e-03
  -1.8492400e-01  -1.6397800e-01   7.5285700e-03
  -1.5566700e-01  -1.8431100e-01   8.9331100e-03
  -1.9100900e-01  -1.7730000e-01   6.1240300e-03
  -1.9662600e-01  -1.8921900e-01   1.5019400e-02
  -1.5660300e-01  -2.1749900e-01   2.3680800e-02
  -1.8843400e-01  -1.9903500e-01   1.9935300e-02
  -1.9779600e-01  -2.1960200e-01   1.6189900e-02
  -1.6643300e-01  -2.2380900e-01   1.6658100e-02
  -1.5239000e-01  -2.2614600e-01   1.9935300e-02
  -1.7813600e-01  -2.5536100e-01   2.7426200e-02
  -1.5917800e-01  -2.2123800e-01   3.3044300e-02
  -1.2524000e-01  -2.4881700e-01   2.6723900e-02
  -1.6619900e-01  -2.7312300e-01   2.4383000e-02
  -1.5473100e-01  -2.5466000e-01   2.9298900e-02
  -1.2430400e-01  -2.8434200e-01   3.3746600e-02
  -1.4560300e-01  -2.8410800e-01   3.8194300e-02
  -1.3998600e-01  -2.8691200e-01   3.4214800e-02
  -1.2921900e-01  -3.0841400e-01   3.9832900e-02
  -1.2243200e-01  -3.0210400e-01   4.2407900e-02
  -1.4045400e-01  -3.2056700e-01   4.4046600e-02
  -1.4092200e-01  -3.2337200e-01   4.6621500e-02
  -1.0253700e-01  -3.1612700e-01   3.7492000e-02
  -1.2641100e-01  -3.4393900e-01   3.7023900e-02
  -1.1868700e-01  -3.4370500e-01   3.6789800e-02
  -8.6153600e-02  -3.4931400e-01   3.8428400e-02
  -9.5047500e-02  -3.7011500e-01   3.9130700e-02
  -1.0862300e-01  -3.6567400e-01   4.3578400e-02
  -9.6451900e-02  -3.8483900e-01   5.0132900e-02
  -7.6089300e-02  -3.7993100e-01   4.5217000e-02
  -1.1307000e-01  -3.7946400e-01   4.9430600e-02
  -9.2707000e-02  -4.0306900e-01   5.2707900e-02
  -6.9535900e-02  -3.8741000e-01   4.7089700e-02
  -1.0347300e-01  -4.0610700e-01   4.4514700e-02
  -9.4579400e-02  -4.2270100e-01   4.8728400e-02
  -7.9834200e-02  -4.2013000e-01   5.0835200e-02
  -8.8494100e-02  -4.2854400e-01   4.1003400e-02
  -1.1307000e-01  -4.2644000e-01   4.3344300e-02
  -9.2707000e-02  -4.4303400e-01   4.4748800e-02
  -8.0770400e-02  -4.3578900e-01   3.5853400e-02
  -1.1213300e-01  -4.4280100e-01   3.5853400e-02
  -9.9728600e-02  -4.6804200e-01   3.4214800e-02
  -8.2642800e-02  -4.5986200e-01   3.2342100e-02
  -1.0066500e-01  -4.6757400e-01   3.0001200e-02
  -1.0347300e-01  -4.6804200e-01   2.9767100e-02
  -8.4281100e-02  -4.5986200e-01   3.2576200e-02
  -8.1004400e-02  -4.7762400e-01   2.5787600e-02
  -9.9728600e-02  -4.6710700e-01   2.6958000e-02
  -9.2707000e-02  -4.5986200e-01   3.3278400e-02
  -7.7727700e-02  -4.8697300e-01   2.9767100e-02
  -1.0932500e-01  -4.7622200e-01   2.7894400e-02
  -1.0675000e-01  -4.6453600e-01   2.8830700e-02
  -8.7557900e-02  -4.7902600e-01   2.6723900e-02
  -1.0628200e-01  -4.7224900e-01   1.9935300e-02
  -1.1236700e-01  -4.6617200e-01   2.5085300e-02
  -9.5281600e-02  -4.6850900e-01   3.0937500e-02
  -9.5749700e-02  -4.6243300e-01   2.0403500e-02
  -1.2500600e-01  -4.6430200e-01   2.1573900e-02
  -1.1096300e-01  -4.5682300e-01   2.3914800e-02
  -1.0089900e-01  -4.5845900e-01   1.4317200e-02
  -1.2430400e-01  -4.6266600e-01   1.4083100e-02
  -1.1189900e-01  -4.4911100e-01   1.2912600e-02
  -9.4813500e-02  -4.5682300e-01   9.1672000e-03
  -1.0113300e-01  -4.5308400e-01   7.9967500e-03
  -1.0370700e-01  -4.4841000e-01   1.2912600e-02
  -8.7557900e-02  -4.4256700e-01   1.4551300e-02
  -9.1536800e-02  -4.3298400e-01   8.4649300e-03
  -1.0160100e-01  -4.4093100e-01   1.0337600e-02
  -8.5685500e-02  -4.2036400e-01   1.5253500e-02
  -7.7961700e-02  -4.2083100e-01   1.8062600e-02
  -8.9898400e-02  -4.2270100e-01   2.0637600e-02
  -8.9430300e-02  -3.9932900e-01   2.1339900e-02
  -7.2578500e-02  -4.0423700e-01   1.5019400e-02
  -8.6153600e-02  -4.0260100e-01   8.6990200e-03
  -9.2238900e-02  -3.8928000e-01   1.4551300e-02
  -6.6259100e-02  -3.8460500e-01   2.2042100e-02
  -6.9535900e-02  -3.7689300e-01   1.1508100e-02
  -8.2642800e-02  -3.7268600e-01   9.6353800e-03
  -6.2514300e-02  -3.6403800e-01   1.6424000e-02
  -5.5492700e-02  -3.5585800e-01   5.8899400e-03
  -7.4451000e-02  -3.5141800e-01  -1.9638900e-04
  -5.7833300e-02  -3.3529100e-01  -2.7713800e-03
  -3.9577200e-02  -3.1869800e-01  -7.2190800e-03
  -5.0577600e-02  -3.1495800e-01  -7.9213500e-03
  -4.0279300e-02  -3.1145300e-01  -8.9865800e-04
  -1.9214600e-02  -2.8621100e-01   5.1876700e-03
  -3.6066400e-02  -2.7709600e-01  -1.8350200e-03
  -5.1279800e-02  -2.7335700e-01  -5.1122700e-03
  -2.5066000e-02  -2.5395900e-01  -1.1327500e-03
  -2.4831900e-02  -2.3946800e-01  -2.5372900e-03
  -4.1683700e-02  -2.2754900e-01  -6.9849900e-03
  -2.4597800e-02  -2.1282500e-01  -5.1122700e-03
  -1.1256900e-02  -1.9997000e-01  -8.9865800e-04
  -2.7172400e-02  -1.8641500e-01  -5.8145400e-03
  -2.7874600e-02  -1.7917000e-01  -3.9418200e-03
  -9.3844600e-03  -1.5696700e-01  -8.9865800e-04
  -1.2193100e-02  -1.3640000e-01  -1.0730400e-02
  -2.4831900e-02  -1.3523100e-01  -1.0496300e-02
  -1.6607300e-03  -9.8537900e-02  -3.2395500e-03
   9.8078200e-03  -9.8537900e-02   1.2081500e-03
  -2.5066000e-02  -7.6335000e-02   2.3786000e-03
  -6.3417800e-03  -4.4316000e-02   1.6763300e-03
   1.0510000e-02  -5.9273700e-02   5.4217600e-03
  -2.1555200e-02  -1.6971300e-02   3.7831400e-03
  -1.6874100e-02  -1.4166700e-02   5.4217600e-03
   1.0978100e-02   1.9596600e-03   9.8694700e-03
   5.1267800e-03   4.5197000e-02   4.2513100e-03
  -2.0853000e-02   3.6315800e-02   5.1876700e-03
   1.5659100e-02   8.0020600e-02   9.6353800e-03
   3.2042800e-02   8.3760000e-02   1.1976300e-02
  -1.3129300e-02   1.0315800e-01   9.6353800e-03
   1.0041900e-02   1.4008500e-01   6.1240300e-03
   3.4383300e-02   1.3026900e-01   9.6353800e-03
   7.4673000e-03   1.6930000e-01   1.1274000e-02
   3.0203100e-03   1.7794700e-01   1.7594400e-02
   2.9702300e-02   2.0482500e-01   1.4083100e-02
   3.8830300e-02   2.2258700e-01   7.0603900e-03
   3.2543600e-03   2.3100100e-01   9.8694700e-03
   3.7426000e-02   2.5647600e-01   1.4083100e-02
   7.2065700e-02   2.6395400e-01   1.7828500e-02
   2.9936300e-02   2.9200000e-01   1.6658100e-02
   5.4277700e-02   3.0181600e-01   1.5721700e-02
   8.3768300e-02   3.2495400e-01   1.5253500e-02
   7.1363500e-02   3.4131400e-01   1.7828500e-02
   5.7320400e-02   3.5627200e-01   2.6489800e-02
   8.5874800e-02   3.8875800e-01   2.6255700e-02
   1.0647100e-01   3.8314900e-01   1.9701200e-02
   6.6682500e-02   4.0161300e-01   2.4851200e-02
   1.0038600e-01   4.2568500e-01   3.0937500e-02
   1.2098300e-01   4.1960900e-01   3.5619300e-02
   9.8747600e-02   4.6214500e-01   3.4683000e-02
   1.0436500e-01   4.7055900e-01   3.1405700e-02
   1.3057900e-01   4.7242900e-01   3.2108000e-02
   1.4181300e-01   4.9603400e-01   2.8128500e-02
   1.1255700e-01   4.8598400e-01   4.1003400e-02
   1.5258000e-01   5.1753600e-01   4.5685200e-02
   1.6779300e-01   5.1216000e-01   3.8896600e-02
   1.3174900e-01   5.1823700e-01   4.1237500e-02
   1.6053700e-01   5.5446300e-01   3.9598900e-02
   1.8113400e-01   5.3412900e-01   4.0301100e-02
   1.6592100e-01   5.6124000e-01   4.1237500e-02
   1.7200600e-01   5.6521300e-01   4.7792000e-02
   2.0266700e-01   5.7129000e-01   4.8260200e-02
   2.0453900e-01   5.8718300e-01   4.8260200e-02
   1.8815600e-01   5.7105600e-01   5.7155600e-02
   2.1132700e-01   6.1616300e-01   5.6453300e-02
   2.1436900e-01   6.0564600e-01   5.0367000e-02
   1.9985800e-01   6.0517900e-01   4.6153400e-02
   2.1717800e-01   6.3392600e-01   5.4814700e-02
   2.2162500e-01   6.1219000e-01   6.0198700e-02
   2.1811400e-01   6.3042000e-01   5.8326000e-02
   2.0781600e-01   6.3743100e-01   5.9496500e-02
   2.2349700e-01   6.2247400e-01   5.5048800e-02
   2.2700800e-01   6.3602900e-01   4.7089700e-02
   2.0126200e-01   6.2971900e-01   4.3344300e-02
   2.3730700e-01   6.3205600e-01   4.4280600e-02
   2.3871100e-01   6.4374200e-01   4.0535200e-02
   2.1671000e-01   6.1639700e-01   3.7726100e-02
   2.4222200e-01   6.3532800e-01   3.7960200e-02
   2.4947700e-01   6.3976900e-01   3.1171600e-02
   2.3356200e-01   6.2317500e-01   2.2978500e-02
   2.4034900e-01   6.4397600e-01   2.0403500e-02
   2.7007400e-01   6.3252300e-01   1.5019400e-02
   2.5158400e-01   6.2107100e-01   1.5955800e-02
   2.4315800e-01   6.2574600e-01   2.0169400e-02
   2.6867000e-01   6.2644700e-01   2.2042100e-02
   2.5298800e-01   6.2597900e-01   1.5487600e-02
   2.4081700e-01   6.2855000e-01   7.5285700e-03
   2.4479600e-01   6.1359300e-01   1.2444500e-02
   2.5415800e-01   6.1943500e-01  -8.9865800e-04
   2.4971100e-01   6.1289100e-01  -1.4944000e-02
   2.3941300e-01   5.8157400e-01  -1.7519000e-02
   2.6984000e-01   5.9863500e-01  -2.1498500e-02
   2.6235000e-01   5.7947000e-01  -2.7819000e-02
   2.4432800e-01   5.7316000e-01  -3.3671200e-02
   2.7569100e-01   5.9442800e-01  -3.9289400e-02
   2.6890400e-01   5.7012100e-01  -4.7950700e-02
   2.4877500e-01   5.7105600e-01  -4.9823400e-02
   2.6679700e-01   5.5913700e-01  -4.3737100e-02
   2.7592500e-01   5.4815200e-01  -4.5609800e-02
   2.4783900e-01   5.4745100e-01  -5.7080200e-02
   2.4854100e-01   5.3623300e-01  -6.1762000e-02
   2.7101000e-01   5.3226000e-01  -6.4805100e-02
   2.4854100e-01   5.1730200e-01  -6.6443800e-02
   2.3871100e-01   5.2127500e-01  -6.8550600e-02
   2.5181800e-01   5.0140900e-01  -7.2998300e-02
   2.4245600e-01   4.8084200e-01  -8.4234600e-02
   2.2326300e-01   4.7546700e-01  -8.7980000e-02
   2.2420000e-01   4.6845500e-01  -7.9786900e-02
   2.3660400e-01   4.5606800e-01  -8.7043700e-02
   2.1858200e-01   4.4274700e-01  -9.7109500e-02
   2.0945400e-01   4.3643600e-01  -1.0062100e-01
   2.3286000e-01   4.0979300e-01  -1.0132300e-01
   2.1109300e-01   4.0091200e-01  -9.3130000e-02
   1.8979400e-01   3.8899200e-01  -8.6341400e-02
   2.1202900e-01   3.7917600e-01  -9.0086800e-02
   1.8511300e-01   3.7380100e-01  -9.5939100e-02
   1.5796300e-01   3.4972800e-01  -9.4300400e-02
   1.7504900e-01   3.4365100e-01  -8.9150500e-02
   1.6521800e-01   3.2729100e-01  -8.7277700e-02
   1.3596200e-01   2.9200000e-01  -9.1959500e-02
   1.3128100e-01   2.8522300e-01  -9.4768600e-02
   1.3643000e-01   2.6816100e-01  -9.0086800e-02
   1.0811000e-01   2.3871300e-01  -8.8214100e-02
   8.0491600e-02   2.4549100e-01  -8.6341400e-02
   9.2428200e-02   2.1627700e-01  -8.9384600e-02
   8.7747200e-02   1.8495900e-01  -9.8748100e-02
   5.9426900e-02   1.7537600e-01  -9.2661800e-02
   5.9895000e-02   1.4055300e-01  -7.7446000e-02
   6.9257100e-02   1.3961800e-01  -7.6275500e-02
   3.5787600e-02   1.1461000e-01  -8.0021000e-02
   1.1914300e-02   8.4928600e-02  -7.4871000e-02
   3.7191900e-02   8.9836600e-02  -7.1359600e-02
   2.3181500e-03   4.4028400e-02  -7.1359600e-02
  -2.5768100e-02   3.5380900e-02  -5.9889300e-02
   6.9992000e-03   2.1358000e-02  -5.3100700e-02
  -2.3193500e-02  -2.3515300e-02  -5.9421100e-02
  -4.7066900e-02  -2.3047900e-02  -5.4973400e-02
  -3.8875000e-02  -5.5066900e-02  -4.4439300e-02
  -4.7300900e-02  -7.6335000e-02  -4.1864300e-02
  -7.3982900e-02  -8.6618400e-02  -4.9823400e-02
  -8.2408700e-02  -1.1443100e-01  -4.8418900e-02
  -6.2982400e-02  -1.3616600e-01  -3.5309800e-02
  -8.3813000e-02  -1.6023900e-01  -2.9223500e-02
  -9.7154000e-02  -1.7753400e-01  -2.5946300e-02
  -8.9196200e-02  -1.8805100e-01  -1.8923600e-02
  -9.3877300e-02  -2.1562900e-01  -1.7050800e-02
  -1.1985700e-01  -2.4250700e-01  -1.2135000e-02
  -1.2383600e-01  -2.4297400e-01  -4.3047900e-04
  -1.0675000e-01  -2.6798100e-01  -6.2827200e-03
  -1.4466700e-01  -2.8527600e-01  -5.5804500e-03
  -1.4700700e-01  -3.0888200e-01   3.0808700e-03
  -1.2055900e-01  -3.2033400e-01   3.0808700e-03
  -1.5730500e-01  -3.3178600e-01   2.1445100e-03
  -1.6432700e-01  -3.6567400e-01   2.8467800e-03
  -1.4209200e-01  -3.6076600e-01   1.0805800e-02
  -1.6128400e-01  -3.7642500e-01   1.1508100e-02
  -1.8000800e-01  -3.9816100e-01   1.6658100e-02
  -1.6971000e-01  -4.0026400e-01   2.7894400e-02
  -1.6690200e-01  -4.1639100e-01   2.6021700e-02
  -1.9920100e-01  -4.2503800e-01   1.9233100e-02
  -1.9826500e-01  -4.3181600e-01   2.3914800e-02
  -1.8328500e-01  -4.5612200e-01   3.4683000e-02
  -2.1347800e-01  -4.5144800e-01   3.3512500e-02
  -2.3103200e-01  -4.5168200e-01   3.4683000e-02
  -2.1511600e-01  -4.7996100e-01   4.0769300e-02
  -2.1558400e-01  -4.7411800e-01   4.5451100e-02
  -2.5794800e-01  -4.8019500e-01   5.5517000e-02
  -2.4554300e-01  -4.9328300e-01   5.8326000e-02
  -2.2986200e-01  -4.8463600e-01   5.3878300e-02
  -2.7714000e-01  -5.0496900e-01   4.5451100e-02
  -2.7035300e-01  -5.0239800e-01   4.8260200e-02
  -2.5233100e-01  -4.9585400e-01   5.3644200e-02
  -2.8065100e-01  -5.1665500e-01   4.4280600e-02
  -2.9960900e-01  -4.9234800e-01   4.5451100e-02
  -2.8556600e-01  -5.0683800e-01   4.3110200e-02
