**************************************************************************************
  	RED ACELEROGRÁFICA DE LA UNIVERSIDAD AUTONOMA METROPOLITANA (RA-UAM)
	   UNIDAD AZCAPOTZALCO. DIVISIÓN CBI-DEPARTAMENTO DE MATERIALES
     Av. San Pablo 420, Col. Nueva el Rosario, Azcapotzalco, C.P. 02128, Ciudad de México
		Área de Estructuras. e-mail: agb@azc.uam.mx
**************************************************************************************
ARCHIVO ESTANDAR DE ACELERACION:
VERSION DEL FORMATO                    : 2.0
NOMBRE DEL ARCHIVO                     : RUML202205.251
FECHA Y HORA DE CREACION               : 11:30 a. m. 30/05/2022
REF. CATALOGO ACELEROGRAMAS, SMIS 1999 : REGISTRO NO.      /PAG.    


================================================================================
DATOS DE LA ESTACION:
NOMBRE DE LA ESTACION                  : UAM-LERMA.
CLAVE DE LA ESTACION                   : RUML
LOCALIZACION DE LA ESTACION            : AV. DE LAS GARZAS 10, EL PANTEON, C.P.52005,
                                       : LERMA DE VILLADA, ESTADO DE MEXICO.   
                                       : 
                                       : 
                                       : 
COORDENADAS DE LA ESTACION             : 19.291278 LAT. N
                                       : 99.500578 LONG. W
ALTITUD (msnm)                         : 2570
TIPO DE SUELO                          : DEPOSITOS LACUSTRES
                                       : 
                                       : 
INSTITUCION RESPONSABLE                : UNIVERSIDAD AUTONOMA METROPOLITANA
                                       : 

================================================================================
DATOS DEL ACELEROGRAFO: 
MODELO DEL ACELEROGRAFO                : ETNA2 KINEMETRICS
NUMERO DE SERIE DEL ACELEROGRAFO       : 103733
NUMERO DE CANALES                      : 3
ORIENTACION C1-C6 (rumbo;orientacion)  : /N90E/N00E/V 
ORIENTACION C7-C12 (rumbo;orientacion) : 
VEL. DE MUESTREO, C1-C6 (muestras/s)   : /200/200/200
VEL. DE MUESTREO, C7-C12 (muestras/s)  : 
ESC. COMPLETA DE SENSORES, C1-C6, (g)  : /2/2/2
ESC. COMPLETA DE SENSORES, C7-C12 (g)  : 
FREC. NAT. DE SENSORES, C1-C6, (Hz)    : /212/206/208   
FREC. NAT. DE SENSORES, C7-C12 (Hz)    : 
AMORTIGUAMIENTO DE SENSORES, C1-C6     : /0.7/0.7/0.7      
AMORTIGUAMIENTO DE SENSORES, C7-C12    : 
INTERVALO DE MUESTREO, C1-C6 (s)       : /0.005/0.005/0.005
INTERVALO DE MUESTREO, C7-C12 (s)      : 
UMBRAL DE DISPARO, C1-C6 (Gal)         : /2/2/2
UMBRAL DE DISPARO, C7-C12 (Gal)        : 
MEMORIA DE PREEVENTO (s)               : 50
TIEMPO DE POSEVENTO (s)                : 60


================================================================================
DATOS DEL SISMO:
FECHA DEL SISMO [GMT]                  : 2022/05/25
HORA EPICENTRO (GMT)                   : 21:43:02
MAGNITUD(ES)                           : /M=5.5
COORDENADAS DEL EPICENTRO              : 16.1100 LAT. N
                                       : -95.9900 LONG. W
PROFUNDIDAD FOCAL (Km)                 : 12.0
FUENTE DE LOS DATOS EPICENTRALES       : SSN
                                       : INSTITUTO DE GEOFISICA, UNAM

================================================================================
DATOS DE ESTE REGISTRO:
HORA DE LA PRIMERA MUESTRA (GMT)       : 21:44:36.000
EXACTITUD DEL TIEMPO (s)               : 
DURACION DEL REGISTRO (s), C1-C6       : /176/176/176
DURACION DEL REGISTRO (s), C7-C12      : 
NUM. TOTAL DE MUESTRAS, C1-C6          : /35200/35200/35200
NUM. TOTAL DE MUESTRAS, C7-C12         : 
ACEL. MAX.(Gal), C1-C6                 : /0.986/-1.167/0.422
ACEL. MAX., C1-C6, EN LA MUESTRA       : /17199/15309/11857
ACEL. MAX.(Gal), C7-C12                : 
ACEL. MAX., C7-C12,EN LA MUESTRA       : 
UNIDADES DE LOS DATOS                  : Gal (cm/s/s)
FACTOR DE DECIMACION                   : 1
FORMATO DATOS (FORTRAN,16 campos/dato) : 3E16.7


================================================================================
CALIDAD DEL ACELEROGRAMA:
REGISTRO DIGITAL COMPLETO CON TIEMPO ABSOLUTO CORRECTO


================================================================================
COMENTARIOS:














================================================================================
DATOS DE ACELERACION:
---------+---------+---------+---------+---------+---------+---------+---------+
   CANAL-1   	     CANAL-2          CANAL-3
     N90E              N00E              V
---------+---------+---------+---------+---------+---------+---------+---------+
[...]
   1.2223600e-01  -5.7559300e-01   8.5509900e-04
   1.5079000e-01  -5.9919800e-01   6.9414300e-03
   1.5430100e-01  -5.8587700e-01   9.9846000e-03
   1.5055600e-01  -5.7909900e-01   2.5902700e-02
   1.8402500e-01  -5.9008300e-01   3.8543500e-02
   1.9994100e-01  -5.7115300e-01   4.1352600e-02
   1.8987700e-01  -5.9475800e-01   5.2588900e-02
   2.2241000e-01  -5.8494200e-01   7.6700200e-02
   2.4347500e-01  -5.6297200e-01   9.0745500e-02
   2.2943200e-01  -5.8026700e-01   9.6363700e-02
   2.4792200e-01  -5.5783100e-01   1.0994100e-01
   2.7671000e-01  -5.6110300e-01   1.1860200e-01
   2.7530600e-01  -5.4240600e-01   1.2960400e-01
   2.7975300e-01  -5.2370800e-01   1.4388400e-01
   3.1883900e-01  -5.4544400e-01   1.5792900e-01
   3.3007400e-01  -5.0804900e-01   1.6284500e-01
   3.1766900e-01  -5.0501100e-01   1.7174100e-01
   3.4809600e-01  -5.0080400e-01   1.8344500e-01
   3.7360800e-01  -4.7790000e-01   1.9046800e-01
   3.6307500e-01  -4.8023700e-01   2.0147000e-01
   3.8671500e-01  -4.3957100e-01   2.0825900e-01
   4.2650300e-01  -4.4868600e-01   2.1785600e-01
   4.2182200e-01  -4.5569700e-01   2.2136800e-01
   4.2088600e-01  -4.2274300e-01   2.2956100e-01
   4.5318500e-01  -4.1456300e-01   2.3915800e-01
   4.6793100e-01  -4.0451400e-01   2.3283800e-01
   4.6371800e-01  -3.9352900e-01   2.2487900e-01
   4.9765500e-01  -3.8885500e-01   2.2956100e-01
   5.2691200e-01  -3.7553300e-01   2.3471100e-01
   5.1778400e-01  -3.6524900e-01   2.4501100e-01
   5.2995500e-01  -3.6828800e-01   2.5648100e-01
   5.6553000e-01  -3.3673600e-01   2.5601300e-01
   5.5897700e-01  -3.2668600e-01   2.5062900e-01
   5.5336000e-01  -3.1897400e-01   2.4149900e-01
   6.0625600e-01  -2.9536800e-01   2.4477700e-01
   6.1468100e-01  -2.9864100e-01   2.4009500e-01
   5.9104200e-01  -2.7036100e-01   2.3611500e-01
   6.2053300e-01  -2.6475200e-01   2.3892400e-01
   6.3761900e-01  -2.5984400e-01   2.2792200e-01
   6.1702200e-01  -2.2221600e-01   2.1785600e-01
   6.2498000e-01  -2.2455300e-01   2.0919500e-01
   6.5564100e-01  -2.0655700e-01   2.0240600e-01
   6.4815100e-01  -1.8225000e-01   1.9866100e-01
   6.3176700e-01  -1.8318500e-01   2.0029900e-01
   6.5189600e-01  -1.5186700e-01   1.9655400e-01
   6.5283200e-01  -1.2779500e-01   1.8087000e-01
   6.2755400e-01  -1.1984800e-01   1.7057000e-01
   6.3902300e-01  -1.0395600e-01   1.7080400e-01
   6.5259800e-01  -8.5492200e-02   1.5418400e-01
   6.3153300e-01  -7.0768100e-02   1.4084100e-01
   6.2615000e-01  -6.0484600e-02   1.4458600e-01
   6.4323600e-01  -3.8749100e-02   1.4084100e-01
   6.2263900e-01  -1.4910200e-02   1.3358400e-01
   6.0344700e-01  -1.1170700e-02   1.1977300e-01
   6.3410800e-01  -3.9255500e-03   1.1368600e-01
   6.1889400e-01   2.1315700e-02   1.0525900e-01
   5.8425500e-01   2.4120300e-02   1.0221600e-01
   6.0391500e-01   3.5572300e-02   1.0174800e-01
   6.0251100e-01   5.0296400e-02   8.4893300e-02
   5.6716900e-01   5.6139300e-02   7.5295600e-02
   5.6740300e-01   7.7407400e-02   7.1550200e-02
   5.7957400e-01   8.6989700e-02   6.9443400e-02
   5.4633800e-01   9.3300000e-02   6.0782100e-02
   5.2176300e-01   1.0451800e-01   4.8141200e-02
   5.3252900e-01   1.2158000e-01   4.2054900e-02
   5.1848600e-01   1.2508500e-01   2.8477700e-02
   4.9157000e-01   1.3046100e-01   2.2391300e-02
   4.9157000e-01   1.5032700e-01   2.5668600e-02
   4.8291000e-01   1.5850700e-01   1.2091400e-02
   4.4733400e-01   1.7580200e-01  -8.7425800e-03
   4.3867400e-01   1.8748700e-01  -1.9042500e-02
   4.5037700e-01   1.8515000e-01  -2.3022000e-02
   4.2861000e-01   1.9777100e-01  -3.3790200e-02
   3.9958700e-01   2.0688600e-01  -4.8069600e-02
   4.0450300e-01   2.1296200e-01  -5.1581000e-02
   3.8835300e-01   2.2628400e-01  -5.9540000e-02
   3.4130800e-01   2.4357900e-01  -7.7564900e-02
   3.4060600e-01   2.6251000e-01  -9.2546700e-02
   3.4458500e-01   2.4357900e-01  -1.0401700e-01
   3.1743500e-01   2.3960600e-01  -1.0682600e-01
   3.0362600e-01   2.7372800e-01  -1.0331500e-01
   2.9239200e-01   2.6998900e-01  -1.0752800e-01
   2.6828400e-01   2.6484700e-01  -1.1759400e-01
   2.4183600e-01   2.8962100e-01  -1.2508500e-01
   2.3785700e-01   2.8798500e-01  -1.2485100e-01
   2.3668700e-01   2.7583200e-01  -1.3187400e-01
   2.0555800e-01   2.7419600e-01  -1.3796000e-01
   1.9245100e-01   2.8985500e-01  -1.3515100e-01
   1.9689800e-01   2.9780100e-01  -1.4334400e-01
   1.6108800e-01   2.8518000e-01  -1.5270800e-01
   1.4798100e-01   2.9780100e-01  -1.5200500e-01
   1.5991800e-01   2.9359400e-01  -1.4474900e-01
   1.3113000e-01   2.9850200e-01  -1.4428000e-01
   1.1615000e-01   3.0457900e-01  -1.3491700e-01
   1.1966100e-01   2.9780100e-01  -1.1829700e-01
   8.7361900e-02   3.1953600e-01  -1.2742600e-01
   5.9509700e-02   3.2280800e-01  -1.3608700e-01
   7.2148500e-02   3.0481200e-01  -1.2929900e-01
   6.6765300e-02   3.0738300e-01  -1.2391500e-01
   2.9316900e-02   3.2818400e-01  -1.2297800e-01
   1.8784600e-02   3.1743300e-01  -1.2414900e-01
   3.3295800e-02   3.2911900e-01  -1.1899900e-01
   9.6565700e-03   3.4103800e-01  -1.1455100e-01
  -1.7727500e-02   3.3496200e-01  -1.0916700e-01
   6.6138900e-03   3.5880100e-01  -1.0050600e-01
  -3.4503500e-03   3.5225700e-01  -1.0167600e-01
  -4.1600900e-02   3.5015300e-01  -9.7696700e-02
  -3.2238800e-02   3.8287300e-01  -9.3248900e-02
  -2.7089600e-02   3.7679700e-01  -9.7228500e-02
  -5.3537500e-02   3.6931800e-01  -8.9971700e-02
  -5.2133200e-02   3.8988500e-01  -7.5926300e-02
  -4.1834900e-02   3.9152100e-01  -7.1946800e-02
  -6.9687100e-02   4.1863200e-01  -7.0308200e-02
  -8.2560000e-02   4.1068500e-01  -6.1880900e-02
  -7.1559500e-02   4.0811400e-01  -5.5560500e-02
  -8.1155700e-02   4.4013300e-01  -5.8135500e-02
  -9.0283700e-02   4.2447500e-01  -6.0944600e-02
  -7.2729800e-02   4.3101900e-01  -4.8771900e-02
  -8.0687600e-02   4.4504100e-01  -3.7535600e-02
  -1.1251900e-01   4.6607600e-01  -3.8237900e-02
  -1.0292300e-01   4.8734400e-01  -4.6899200e-02
  -8.1155700e-02   4.6864700e-01  -5.7433200e-02
  -9.2156100e-02   4.7799500e-01  -6.1178700e-02
  -1.0128400e-01   4.9529000e-01  -5.4624200e-02
  -7.3197900e-02   4.9809500e-01  -5.3453700e-02
  -7.5070300e-02   5.0440500e-01  -6.1178700e-02
  -1.1088000e-01   5.0814500e-01  -6.5392300e-02
  -8.9581600e-02   5.3455400e-01  -6.9371800e-02
  -6.5240100e-02   5.2310200e-01  -6.7265000e-02
  -9.0751800e-02   5.1422100e-01  -6.5860500e-02
  -8.6070800e-02   5.4483800e-01  -6.4455900e-02
  -6.1261200e-02   5.4180000e-01  -6.8903600e-02
  -7.6006500e-02   5.5138200e-01  -7.4990000e-02
  -8.9113400e-02   5.5488800e-01  -7.6862700e-02
  -5.9154800e-02   5.4273400e-01  -8.4821700e-02
  -4.3707300e-02   5.6774200e-01  -9.3717100e-02
  -6.7112500e-02   5.6049700e-01  -9.9101200e-02
  -4.6984100e-02   5.6143200e-01  -9.2780800e-02
  -3.3877100e-02   5.8223200e-01  -9.8164800e-02
  -5.4707800e-02   5.6797600e-01  -1.1619000e-01
  -2.8728000e-02   5.8199900e-01  -1.1946700e-01
  -2.0460400e-03   5.6891100e-01  -1.1712600e-01
  -1.7727500e-02   5.6984500e-01  -1.1899900e-01
  -2.6387500e-02   5.9602200e-01  -1.2695800e-01
   4.7414700e-03   5.7405200e-01  -1.3959900e-01
   1.0826800e-02   5.7335100e-01  -1.4802600e-01
  -1.2344300e-02   5.6680700e-01  -1.4685500e-01
   1.5976000e-02   5.6563900e-01  -1.4381200e-01
   3.8210900e-02   5.6820900e-01  -1.4802600e-01
   1.9328500e-03   5.5021300e-01  -1.5270800e-01
   5.4436300e-03   5.7381900e-01  -1.5902800e-01
   3.2827700e-02   5.5675700e-01  -1.7190300e-01
   1.6210000e-02   5.2357000e-01  -1.8103300e-01
   1.7146200e-02   5.2871200e-01  -1.7401000e-01
   4.2892000e-02   4.9879600e-01  -1.6534900e-01
   3.6104500e-02   5.1211800e-01  -1.7166900e-01
   3.5712100e-03   5.1281900e-01  -1.7892600e-01
   1.4571700e-02   4.7051600e-01  -1.7962800e-01
   3.2125600e-02   4.7963100e-01  -1.8501200e-01
   1.1060900e-02   4.5392300e-01  -1.9250300e-01
   1.8784600e-02   4.2050100e-01  -1.8407600e-01
   3.4466100e-02   4.0601100e-01  -1.7869200e-01
  -2.7482000e-03   4.0250500e-01  -1.8641700e-01
  -3.3409000e-02   4.1255500e-01  -1.9320500e-01
  -4.3865600e-03   3.5716500e-01  -1.9905700e-01
  -2.7482000e-03   3.2397700e-01  -2.0022800e-01
  -4.9324600e-02   3.3052100e-01  -2.0256900e-01
  -4.1366800e-02   3.0341000e-01  -2.0748500e-01
  -2.4983200e-02   2.8471300e-01  -2.0982600e-01
  -8.5134600e-02   2.6344500e-01  -2.1169800e-01
  -1.0385900e-01   2.4708500e-01  -2.1801900e-01
  -6.5240100e-02   2.2114200e-01  -2.2316900e-01
  -9.3560400e-02   1.7276300e-01  -2.1965700e-01
  -1.3311500e-01   1.6364800e-01  -2.1638000e-01
  -1.2726400e-01   1.4962500e-01  -2.1731600e-01
  -1.3920100e-01   1.0872500e-01  -2.2902100e-01
  -1.7594700e-01   8.5821100e-02  -2.3089400e-01
  -1.7664900e-01   4.6089500e-02  -2.1778500e-01
  -1.6822300e-01   1.6641400e-02  -2.0818700e-01
  -2.0239500e-01  -1.3741600e-02  -2.0163200e-01
  -2.1854400e-01  -5.8381200e-02  -2.0303700e-01
  -2.2041700e-01  -5.2538300e-02  -2.0116400e-01
  -2.5037500e-01  -1.0746100e-01  -1.9905700e-01
  -2.5622700e-01  -1.6752600e-01  -1.8641700e-01
  -2.3843900e-01  -1.7967900e-01  -1.6394400e-01
  -2.6418400e-01  -2.3834200e-01  -1.5341000e-01
  -3.0210100e-01  -2.5423500e-01  -1.4779200e-01
  -2.8899400e-01  -2.7737200e-01  -1.4591900e-01
  -2.8805800e-01  -3.2949100e-01  -1.4030100e-01
  -3.1895300e-01  -3.6197700e-01  -1.3234200e-01
  -3.0725000e-01  -4.2040600e-01  -1.1712600e-01
  -2.8033400e-01  -4.5032200e-01  -9.7696700e-02
  -3.1708000e-01  -4.7532900e-01  -9.1376200e-02
  -3.4750700e-01  -5.1646300e-01  -7.6862700e-02
  -3.1403800e-01  -5.3983500e-01  -6.7499100e-02
  -3.1544200e-01  -5.9943200e-01  -6.8669500e-02
  -3.2995300e-01  -6.3659300e-01  -5.8837800e-02
  -3.0514400e-01  -6.6954700e-01  -3.8472000e-02
  -2.9812200e-01  -7.1488700e-01  -1.4828900e-02
  -3.3065500e-01  -7.0951200e-01  -7.8062200e-03
  -3.3627300e-01  -7.6209800e-01  -3.3585200e-03
  -2.9695200e-01  -8.0790600e-01   6.2391600e-03
  -3.0467500e-01  -8.1725500e-01   2.1455000e-02
  -3.2082500e-01  -8.7287900e-01   4.4864000e-02
  -2.8641900e-01  -8.9204400e-01   6.5932000e-02
  -2.9110000e-01  -9.0676800e-01   7.3657000e-02
  -3.2363400e-01  -9.3177500e-01   7.0847900e-02
  -2.9788800e-01  -9.5234200e-01   8.3254700e-02
  -2.6722700e-01  -1.0049300e+00   9.8938700e-02
  -2.8056800e-01  -1.0262000e+00   1.1649500e-01
  -2.7963200e-01  -1.0212900e+00   1.3194500e-01
  -2.6301400e-01  -1.0334400e+00   1.3358400e-01
  -2.7167400e-01  -1.0642900e+00   1.4224500e-01
  -2.7237600e-01  -1.0949100e+00   1.6471800e-01
  -2.4288600e-01  -1.1009900e+00   1.8227500e-01
  -2.3258700e-01  -1.1129000e+00   1.9351100e-01
  -2.3820500e-01  -1.1484300e+00   2.1598400e-01
  -2.3118300e-01  -1.1222500e+00   2.3260400e-01
  -2.1760800e-01  -1.1096300e+00   2.2932700e-01
  -2.1035200e-01  -1.1603500e+00   2.2956100e-01
  -1.9350100e-01  -1.1673600e+00   2.4711700e-01
  -1.6073300e-01  -1.1638500e+00   2.6046100e-01
  -1.7267000e-01  -1.1612800e+00   2.6420600e-01
  -1.8226600e-01  -1.1531000e+00   2.6959000e-01
  -1.5464800e-01  -1.1318400e+00   2.7450600e-01
  -1.5862700e-01  -1.1388500e+00   2.6959000e-01
  -1.5277600e-01  -1.1498300e+00   2.7567600e-01
  -1.1181700e-01  -1.1411800e+00   2.9253100e-01
  -1.1275300e-01  -1.1358100e+00   2.8972200e-01
  -1.4739200e-01  -1.0946700e+00   2.8878500e-01
  -1.3849800e-01  -1.0918700e+00   2.8714700e-01
  -1.0502900e-01  -1.1014500e+00   2.7591000e-01
  -1.1696600e-01  -1.0811200e+00   2.7708100e-01
  -1.2422100e-01  -1.0820500e+00   2.8808300e-01
  -8.0219500e-02  -1.0685000e+00   2.9557400e-01
  -8.5836700e-02  -1.0360100e+00   2.9697900e-01
  -1.3756200e-01  -1.0091300e+00   2.9744700e-01
  -1.1205100e-01  -1.0000200e+00   2.9908500e-01
  -7.6006500e-02  -1.0014200e+00   2.9861700e-01
  -1.0292300e-01  -9.6706600e-01   3.0002200e-01
  -9.4496600e-02  -9.3715100e-01   3.1149200e-01
  -6.8048800e-02  -9.2242700e-01   3.1476900e-01
  -1.0105000e-01  -8.7545000e-01   2.9931900e-01
  -1.1649800e-01  -8.4857300e-01   2.8948800e-01
  -7.7410800e-02  -8.6516600e-01   2.9393500e-01
  -7.3197900e-02  -8.3548500e-01   2.9978800e-01
  -9.7773400e-02  -7.9201300e-01   2.9299900e-01
  -9.0283700e-02  -7.6396800e-01   2.8012400e-01
  -8.5836700e-02  -7.2306700e-01   2.6912200e-01
  -1.0783800e-01  -7.3311700e-01   2.6537600e-01
  -1.0362500e-01  -7.0647400e-01   2.6397200e-01
  -7.7878900e-02  -6.8006400e-01   2.5999200e-01
  -9.0985900e-02  -6.9268400e-01   2.6256700e-01
  -1.1626300e-01  -6.2233600e-01   2.5975800e-01
  -1.0807200e-01  -5.6928300e-01   2.3962700e-01
  -1.0034800e-01  -5.8237100e-01   2.2394300e-01
  -1.1673200e-01  -5.9008300e-01   2.2581500e-01
  -9.7539300e-02  -5.5268900e-01   2.2698600e-01
  -6.9921200e-02  -5.1389200e-01   2.2347400e-01
  -1.0807200e-01  -5.0431000e-01   2.2207000e-01
  -1.2047600e-01  -4.5873500e-01   2.1645200e-01
  -9.3560400e-02  -4.2484700e-01   1.9000000e-01
  -1.0011400e-01  -4.2531400e-01   1.6729300e-01
  -9.6837200e-02  -4.1806900e-01   1.7337900e-01
  -7.2261700e-02  -4.1199200e-01   1.8133800e-01
  -8.3496200e-02  -3.4818800e-01   1.7150600e-01
  -1.1462500e-01  -3.0845700e-01   1.5441800e-01
  -1.0105000e-01  -3.2201200e-01   1.3967000e-01
  -7.9517300e-02  -2.9373200e-01   1.2539100e-01
  -9.7773400e-02  -2.7854100e-01   1.2234800e-01
  -8.8177200e-02  -2.7363300e-01   1.2983900e-01
  -6.1261200e-02  -2.3366800e-01   1.2749800e-01
  -1.0292300e-01  -1.8645700e-01   1.0128000e-01
  -1.2562600e-01  -1.6892900e-01   7.9041000e-02
  -7.8113000e-02  -1.6659100e-01   7.5529700e-02
  -6.9921200e-02  -1.7477100e-01   6.9911600e-02
  -9.4028500e-02  -1.4555700e-01   6.7336600e-02
  -7.6474600e-02  -9.5074500e-02   6.6868400e-02
  -7.5304400e-02  -8.0350400e-02   5.5163900e-02
  -1.1158200e-01  -4.9967500e-02   3.9948100e-02
  -9.9411700e-02  -3.8515400e-02   2.9179900e-02
  -5.7048300e-02  -4.5526900e-02   2.1220900e-02
  -5.9154800e-02  -3.6879400e-02   8.3459700e-03
  -8.4432400e-02   7.4875900e-04   6.2391600e-03
  -7.3432000e-02   3.5572300e-02   1.6773200e-02
  -5.9388800e-02   4.7258100e-02   5.3028000e-03
  -7.3197900e-02   6.3150700e-02  -3.3585200e-03
  -5.7984500e-02   7.3667900e-02   8.5509900e-04
  -2.1472400e-02   7.6706200e-02   2.2596400e-03
  -3.4813300e-02   1.0638800e-01   2.9619100e-03
  -5.8686700e-02   1.5967500e-01  -1.1551700e-02
  -3.5749600e-02   1.5476700e-01  -2.9576600e-02
  -2.2408600e-02   1.4214700e-01  -3.6599200e-02
  -2.1472400e-02   1.5710400e-01  -2.6299300e-02
   1.2465200e-02   1.8328000e-01  -1.4126600e-02
   1.1060900e-02   2.0711900e-01  -2.1617500e-02
  -2.8025800e-02   2.3329500e-01  -3.9876500e-02
  -3.4503500e-03   2.6391200e-01  -6.2817300e-02
   2.6976400e-02   2.4194300e-01  -8.0374000e-02
   2.0423000e-02   2.2067500e-01  -7.1010400e-02
   4.6402800e-02   2.3446400e-01  -5.6262800e-02
   6.2318300e-02   2.8401200e-01  -5.5794600e-02
   3.0253200e-02   3.2187400e-01  -6.6094500e-02
   3.2827700e-02   3.0294300e-01  -7.2883100e-02
   6.4892900e-02   3.1743300e-01  -7.1712700e-02
   6.7701500e-02   3.2280800e-01  -7.8501300e-02
   7.7765700e-02   2.9429500e-01  -7.3819500e-02
   9.5319700e-02   3.2911900e-01  -6.6562700e-02
   9.2979100e-02   3.7375800e-01  -7.1946800e-02
   7.9638200e-02   3.7960100e-01  -8.2012600e-02
   9.3213200e-02   3.5973500e-01  -8.1076300e-02
   1.3113000e-01   3.5926800e-01  -7.1712700e-02
   1.2808700e-01   3.8240600e-01  -6.5860500e-02
   1.1029900e-01   3.8895000e-01  -5.2283300e-02
   1.2832100e-01   4.2003400e-01  -5.6262800e-02
