**************************************************************************************
  	RED ACELEROGRÁFICA DE LA UNIVERSIDAD AUTONOMA METROPOLITANA (RA-UAM)
	   UNIDAD AZCAPOTZALCO. DIVISIÓN CBI-DEPARTAMENTO DE MATERIALES
     Av. San Pablo 420, Col. Nueva el Rosario, Azcapotzalco, C.P. 02128, Ciudad de México
		Área de Estructuras. e-mail: agb@azc.uam.mx
**************************************************************************************
ARCHIVO ESTANDAR DE ACELERACION:
VERSION DEL FORMATO                    : 2.0
NOMBRE DEL ARCHIVO                     : RUML202209.221
FECHA Y HORA DE CREACION               : 11:30 a. m. 29/09/2022
REF. CATALOGO ACELEROGRAMAS, SMIS 1999 : REGISTRO NO.      /PAG.    


================================================================================
DATOS DE LA ESTACION:
NOMBRE DE LA ESTACION                  : UAM-LERMA.
CLAVE DE LA ESTACION                   : RUML
LOCALIZACION DE LA ESTACION            : AV. DE LAS GARZAS 10, EL PANTEON, C.P.52005,
                                       : LERMA DE VILLADA, ESTADO DE MEXICO.   
                                       : 
                                       : 
                                       : 
COORDENADAS DE LA ESTACION             : 19.291278 LAT. N
                                       : 99.500578 LONG. W
ALTITUD (msnm)                         : 2570
TIPO DE SUELO                          : DEPOSITOS LACUSTRES
                                       : 
                                       : 
INSTITUCION RESPONSABLE                : UNIVERSIDAD AUTONOMA METROPOLITANA
                                       : 

================================================================================
DATOS DEL ACELEROGRAFO: 
MODELO DEL ACELEROGRAFO                : ETNA2 KINEMETRICS
NUMERO DE SERIE DEL ACELEROGRAFO       : 103733
NUMERO DE CANALES                      : 3
ORIENTACION C1-C6 (rumbo;orientacion)  : /N90E/N00E/V 
ORIENTACION C7-C12 (rumbo;orientacion) : 
VEL. DE MUESTREO, C1-C6 (muestras/s)   : /200/200/200
VEL. DE MUESTREO, C7-C12 (muestras/s)  : 
ESC. COMPLETA DE SENSORES, C1-C6, (g)  : /2/2/2
ESC. COMPLETA DE SENSORES, C7-C12 (g)  : 
FREC. NAT. DE SENSORES, C1-C6, (Hz)    : /212/206/208   
FREC. NAT. DE SENSORES, C7-C12 (Hz)    : 
AMORTIGUAMIENTO DE SENSORES, C1-C6     : /0.7/0.7/0.7      
AMORTIGUAMIENTO DE SENSORES, C7-C12    : 
INTERVALO DE MUESTREO, C1-C6 (s)       : /0.005/0.005/0.005
INTERVALO DE MUESTREO, C7-C12 (s)      : 
UMBRAL DE DISPARO, C1-C6 (Gal)         : /2/2/2
UMBRAL DE DISPARO, C7-C12 (Gal)        : 
MEMORIA DE PREEVENTO (s)               : 50
TIEMPO DE POSEVENTO (s)                : 60


================================================================================
DATOS DEL SISMO:
FECHA DEL SISMO [GMT]                  : 2022/09/22
HORA EPICENTRO (GMT)                   : 06:16:09
MAGNITUD(ES)                           : /M=6.9
COORDENADAS DEL EPICENTRO              : 18.0100 LAT. N
                                       : -103.1800 LONG. W
PROFUNDIDAD FOCAL (Km)                 : 12.0
FUENTE DE LOS DATOS EPICENTRALES       : SSN
                                       : INSTITUTO DE GEOFISICA, UNAM

================================================================================
DATOS DE ESTE REGISTRO:
HORA DE LA PRIMERA MUESTRA (GMT)       : 06:16:28.000
EXACTITUD DEL TIEMPO (s)               : 
DURACION DEL REGISTRO (s), C1-C6       : /393/393/393
DURACION DEL REGISTRO (s), C7-C12      : 
NUM. TOTAL DE MUESTRAS, C1-C6          : /78600/78600/78600
NUM. TOTAL DE MUESTRAS, C7-C12         : 
ACEL. MAX.(Gal), C1-C6                 : /24.61/-25.66/5.691
ACEL. MAX., C1-C6, EN LA MUESTRA       : /21251/20411/21877
ACEL. MAX.(Gal), C7-C12                : 
ACEL. MAX., C7-C12,EN LA MUESTRA       : 
UNIDADES DE LOS DATOS                  : Gal (cm/s/s)
FACTOR DE DECIMACION                   : 1
FORMATO DATOS (FORTRAN,16 campos/dato) : 3E16.7


================================================================================
CALIDAD DEL ACELEROGRAMA:
REGISTRO DIGITAL COMPLETO CON TIEMPO ABSOLUTO CORRECTO


================================================================================
COMENTARIOS:














================================================================================
DATOS DE ACELERACION:
---------+---------+---------+---------+---------+---------+---------+---------+
   CANAL-1   	     CANAL-2          CANAL-3
     N90E              N00E              V
---------+---------+---------+---------+---------+---------+---------+---------+ 
[...]
  -8.9259600e+00  -8.4780300e+00  -4.7993900e-01
  -8.9243200e+00  -8.7645700e+00  -4.7876900e-01
  -8.9231500e+00  -9.0373100e+00  -4.4927300e-01
  -8.9367200e+00  -9.2871600e+00  -4.1439400e-01
  -8.9032500e+00  -9.4986700e+00  -4.3593000e-01
  -8.7637600e+00  -9.6996600e+00  -4.6519100e-01
  -8.6722400e+00  -9.9380500e+00  -4.6448900e-01
  -8.5676200e+00  -1.0144700e+01  -5.0592300e-01
  -8.4697900e+00  -1.0370400e+01  -5.6468000e-01
  -8.4037900e+00  -1.0568100e+01  -6.1711600e-01
  -8.2479100e+00  -1.0742300e+01  -6.9717400e-01
  -8.1718400e+00  -1.0942300e+01  -7.5429200e-01
  -8.1758200e+00  -1.1104100e+01  -8.0555800e-01
  -8.0847700e+00  -1.1285200e+01  -8.8187100e-01
  -8.0012200e+00  -1.1431500e+01  -9.9704300e-01
  -7.9300600e+00  -1.1560000e+01  -1.0647000e+00
  -7.8193600e+00  -1.1716200e+01  -1.0930200e+00
  -7.7659900e+00  -1.1839600e+01  -1.1761200e+00
  -7.6740100e+00  -1.1949400e+01  -1.2397900e+00
  -7.5347500e+00  -1.2033100e+01  -1.2667100e+00
  -7.4069600e+00  -1.2077700e+01  -1.2845100e+00
  -7.2344600e+00  -1.2093600e+01  -1.2978500e+00
  -7.0783500e+00  -1.2113500e+01  -1.3093200e+00
  -6.8770600e+00  -1.2107600e+01  -1.3046400e+00
  -6.6701600e+00  -1.2094100e+01  -1.2655400e+00
  -6.4410200e+00  -1.2041300e+01  -1.1955500e+00
  -6.1416700e+00  -1.1971800e+01  -1.1115100e+00
  -5.9307900e+00  -1.1888900e+01  -1.0078100e+00
  -5.7302100e+00  -1.1811300e+01  -9.1675000e-01
  -5.3793600e+00  -1.1782800e+01  -8.3926700e-01
  -5.1141800e+00  -1.1687900e+01  -7.4492900e-01
  -4.9058800e+00  -1.1623100e+01  -6.5363400e-01
  -4.5157100e+00  -1.1509800e+01  -5.5859300e-01
  -4.2341500e+00  -1.1290300e+01  -4.9094100e-01
  -3.9706000e+00  -1.1215500e+01  -4.5699800e-01
  -3.6216300e+00  -1.1107100e+01  -3.9660300e-01
  -3.3145600e+00  -1.0874100e+01  -3.4814700e-01
  -2.9482600e+00  -1.0714900e+01  -3.2075800e-01
  -2.6007000e+00  -1.0484000e+01  -2.6949300e-01
  -2.1143400e+00  -1.0020300e+01  -2.3063400e-01
  -1.5692300e+00  -9.7066800e+00  -1.6813200e-01
  -1.4767800e+00  -9.6220700e+00  -1.1639800e-01
  -1.5324800e+00  -9.3023500e+00  -2.2361100e-01
  -1.1928700e+00  -8.9517700e+00  -3.4557200e-01
  -6.8240500e-01  -8.6341600e+00  -3.0671300e-01
  -2.0681100e-01  -8.1940700e+00  -1.2084600e-01
   1.4824600e-01  -7.6955600e+00   1.0341200e-01
   4.9838800e-01  -7.2082600e+00   2.4527100e-01
   1.0406900e+00  -6.7873400e+00   3.4429100e-01
   1.4678300e+00  -6.2353000e+00   4.6227200e-01
   1.7414400e+00  -5.6760200e+00   5.3437100e-01
   2.0063900e+00  -5.2487900e+00   5.8165700e-01
   2.3148700e+00  -4.7844000e+00   6.6733400e-01
   2.6900500e+00  -4.2052500e+00   6.8582700e-01
   3.0687500e+00  -3.5396300e+00   6.4673400e-01
   3.4533000e+00  -2.7933800e+00   6.1302600e-01
   3.9611900e+00  -2.0597400e+00   5.9289400e-01
   4.5156600e+00  -1.4301200e+00   5.9266000e-01
   4.8974000e+00  -8.4489300e-01   5.6808000e-01
   5.2466000e+00  -2.6060500e-01   5.4396900e-01
   5.5923000e+00   2.7810900e-01   5.3366900e-01
   5.9939300e+00   7.0253600e-01   5.4443700e-01
   6.4611000e+00   1.1281300e+00   5.8751000e-01
   6.8737300e+00   1.6102900e+00   6.0904600e-01
   7.3203100e+00   2.0833300e+00   6.1302600e-01
   7.7507300e+00   2.4974700e+00   6.7740000e-01
   8.1130400e+00   2.8840300e+00   8.0287200e-01
   8.4638900e+00   3.2661600e+00   9.1617200e-01
   8.6616600e+00   3.5466200e+00   9.5245600e-01
   8.8905600e+00   3.8186600e+00   8.7942000e-01
   9.3802000e+00   3.9617000e+00   8.2230200e-01
   9.7862800e+00   4.0028300e+00   8.6794900e-01
   1.0228900e+01   4.1568500e+00   9.3794200e-01
   1.0782600e+01   4.4284200e+00   9.9318700e-01
   1.1253100e+01   4.7638100e+00   1.0437500e+00
   1.1820400e+01   5.0975500e+00   1.0940800e+00
   1.2363400e+01   5.4705600e+00   1.1465200e+00
   1.2777500e+01   5.8940500e+00   1.1959100e+00
   1.3203400e+01   6.3677900e+00   1.2218900e+00
   1.3528800e+01   6.7896500e+00   1.2310200e+00
   1.3781300e+01   7.1960800e+00   1.2448300e+00
   1.4004600e+01   7.4945400e+00   1.2628600e+00
   1.4050000e+01   7.7441400e+00   1.3000800e+00
   1.4148500e+01   8.0096400e+00   1.3506400e+00
   1.4231600e+01   8.2471000e+00   1.3731100e+00
   1.4201900e+01   8.6088900e+00   1.4033100e+00
   1.4280100e+01   8.9218300e+00   1.4527100e+00
   1.4269500e+01   9.2689000e+00   1.4740100e+00
   1.4206600e+01   9.6283600e+00   1.4798600e+00
   1.4212400e+01   9.8623100e+00   1.4859500e+00
   1.4179200e+01   1.0134300e+01   1.4758800e+00
   1.4035500e+01   1.0418100e+01   1.4796300e+00
   1.3856400e+01   1.0678400e+01   1.4901600e+00
   1.3681800e+01   1.0931100e+01   1.4620700e+00
   1.3507900e+01   1.1204100e+01   1.4307000e+00
   1.3385500e+01   1.1467700e+01   1.3941800e+00
   1.3251700e+01   1.1695100e+01   1.3742900e+00
   1.3148700e+01   1.1915700e+01   1.3485400e+00
   1.2977800e+01   1.2078900e+01   1.3080400e+00
   1.2798500e+01   1.2209000e+01   1.3108500e+00
   1.2632100e+01   1.2376800e+01   1.3054600e+00
   1.2350800e+01   1.2540400e+01   1.2972700e+00
   1.2091900e+01   1.2656400e+01   1.2886100e+00
   1.1885500e+01   1.2848000e+01   1.2682400e+00
   1.1743000e+01   1.3066500e+01   1.2324300e+00
   1.1602100e+01   1.3206500e+01   1.1734400e+00
   1.1440100e+01   1.3356600e+01   1.1521300e+00
   1.1329900e+01   1.3501300e+01   1.1306000e+00
   1.1104900e+01   1.3699000e+01   1.0671600e+00
   1.0891500e+01   1.3891600e+01   1.0016100e+00
   1.0792000e+01   1.4035800e+01   9.3138700e-01
   1.0576200e+01   1.4220400e+01   9.0516900e-01
   1.0415200e+01   1.4402000e+01   8.7122600e-01
   1.0318300e+01   1.4542000e+01   7.9655200e-01
   1.0130600e+01   1.4680600e+01   7.2445200e-01
   9.9112600e+00   1.4852400e+01   6.7318700e-01
   9.7048300e+00   1.4948400e+01   6.4298900e-01
   9.5129100e+00   1.5067100e+01   5.4701200e-01
   9.2519400e+00   1.5178900e+01   4.6999700e-01
   9.0164800e+00   1.5232600e+01   4.0023800e-01
   8.7901500e+00   1.5375600e+01   3.3890700e-01
   8.5069500e+00   1.5463800e+01   3.1994500e-01
   8.2457500e+00   1.5574100e+01   2.5229300e-01
   7.9346900e+00   1.5724100e+01   1.6146700e-01
   7.5995300e+00   1.5761300e+01   6.3851100e-02
   7.2943300e+00   1.5845200e+01  -1.2257800e-03
   6.9982500e+00   1.5998700e+01  -1.0890700e-01
   6.6705800e+00   1.6057200e+01  -1.9879700e-01
   6.3843300e+00   1.6142700e+01  -2.4421100e-01
   6.1165800e+00   1.6315400e+01  -3.6172400e-01
   5.8195600e+00   1.6318500e+01  -4.2539600e-01
   5.6241300e+00   1.6395600e+01  -4.9819800e-01
   5.3114400e+00   1.6509900e+01  -5.5999800e-01
   4.9641000e+00   1.6535100e+01  -5.4501600e-01
   4.7092200e+00   1.6670900e+01  -5.6912700e-01
   4.4080000e+00   1.6725800e+01  -6.0166600e-01
   4.1224500e+00   1.6806900e+01  -6.2577700e-01
   3.8530600e+00   1.6871400e+01  -6.2741600e-01
   3.5771100e+00   1.6917900e+01  -6.6229500e-01
   3.2550500e+00   1.7024700e+01  -7.3884200e-01
   2.9793400e+00   1.7013100e+01  -7.9736500e-01
   2.6179600e+00   1.7021500e+01  -8.5190800e-01
   2.2011200e+00   1.7052100e+01  -9.3126400e-01
   1.9298500e+00   1.7041600e+01  -1.0602500e+00
   1.5530300e+00   1.7007200e+01  -1.1728400e+00
   1.1471800e+00   1.6952800e+01  -1.2812300e+00
   8.1014500e-01   1.6900200e+01  -1.4053000e+00
   4.4221500e-01   1.6818800e+01  -1.5155500e+00
   6.3753000e-02   1.6672800e+01  -1.6471100e+00
  -3.1751800e-01   1.6469900e+01  -1.7566600e+00
  -7.8140900e-01   1.6285000e+01  -1.8086300e+00
  -1.3014700e+00   1.6085200e+01  -1.8472600e+00
  -1.6605100e+00   1.5861500e+01  -1.8973500e+00
  -2.0651900e+00   1.5626900e+01  -1.9434700e+00
  -2.5836100e+00   1.5324000e+01  -1.9401900e+00
  -3.0489100e+00   1.5014800e+01  -1.9444000e+00
  -3.4416500e+00   1.4696000e+01  -2.0043300e+00
  -3.8774500e+00   1.4243800e+01  -2.0394400e+00
  -4.4085200e+00   1.3781500e+01  -2.0464700e+00
  -4.9058800e+00   1.3345800e+01  -2.0556000e+00
  -5.4961600e+00   1.2849700e+01  -2.0541900e+00
  -5.9886000e+00   1.2319800e+01  -2.0399100e+00
  -6.3996000e+00   1.1729000e+01  -2.0193100e+00
  -6.8920400e+00   1.1132800e+01  -1.9832600e+00
  -7.3367400e+00   1.0488000e+01  -1.9296600e+00
  -7.8275500e+00   9.7569000e+00  -1.8926700e+00
  -8.3092300e+00   9.1010900e+00  -1.8402300e+00
  -8.8058900e+00   8.4637500e+00  -1.7629800e+00
  -9.3034800e+00   7.7551300e+00  -1.6979100e+00
  -9.7687800e+00   7.0144800e+00  -1.5977200e+00
  -1.0203400e+01   6.2453300e+00  -1.5038500e+00
  -1.0762300e+01   5.5416100e+00  -1.4387700e+00
  -1.1424900e+01   4.8998300e+00  -1.3090800e+00
  -1.2194000e+01   4.2524400e+00  -1.1393700e+00
  -1.3027700e+01   3.5417100e+00  -1.0438600e+00
  -1.3441800e+01   2.6680800e+00  -1.0857600e+00
  -1.3561400e+01   1.6292200e+00  -1.1887600e+00
  -1.3499600e+01   3.9333100e-01  -1.1787000e+00
  -1.3388900e+01  -8.1895100e-01  -1.1000400e+00
  -1.3246100e+01  -1.6773900e+00  -1.0831900e+00
  -1.3213100e+01  -2.4372000e+00  -1.0153000e+00
  -1.3386500e+01  -3.3973000e+00  -9.0130100e-01
  -1.3277900e+01  -4.3702500e+00  -8.3201000e-01
  -1.2980200e+01  -5.2866500e+00  -7.9455600e-01
  -1.2770700e+01  -6.1387800e+00  -7.9127800e-01
  -1.2579300e+01  -6.8866700e+00  -7.6857200e-01
  -1.2344500e+01  -7.6941500e+00  -7.1168800e-01
  -1.2264000e+01  -8.4707900e+00  -6.8547000e-01
  -1.2368900e+01  -9.3278200e+00  -6.3935400e-01
  -1.2474900e+01  -1.0238600e+01  -5.4642100e-01
  -1.2561500e+01  -1.0972000e+01  -4.6144600e-01
  -1.2628200e+01  -1.1736700e+01  -3.5399900e-01
  -1.2648100e+01  -1.2537700e+01  -2.4889300e-01
  -1.2690700e+01  -1.3323200e+01  -1.4448900e-01
  -1.2699600e+01  -1.4047200e+01  -4.5234600e-02
  -1.2660300e+01  -1.4775500e+01   4.4421700e-02
  -1.2628400e+01  -1.5564500e+01   1.7106400e-01
  -1.2632600e+01  -1.6343300e+01   2.6540200e-01
  -1.2700300e+01  -1.7046700e+01   3.5576100e-01
  -1.2668000e+01  -1.7702300e+01   4.6906000e-01
  -1.2686000e+01  -1.8449700e+01   5.6667600e-01
  -1.2783800e+01  -1.9132900e+01   6.7248400e-01
  -1.2780300e+01  -1.9702700e+01   7.7010000e-01
  -1.2734200e+01  -2.0335800e+01   8.8808100e-01
  -1.2609700e+01  -2.0952600e+01   9.9950800e-01
  -1.2595900e+01  -2.1485000e+01   1.1254500e+00
  -1.2565900e+01  -2.2074700e+01   1.2623900e+00
  -1.2475800e+01  -2.2629000e+01   1.3574300e+00
  -1.2546300e+01  -2.3151800e+01   1.4840700e+00
  -1.2465300e+01  -2.3571400e+01   1.6020500e+00
  -1.2416400e+01  -2.3960300e+01   1.6654900e+00
  -1.2476100e+01  -2.4312900e+01   1.7446100e+00
  -1.2474400e+01  -2.4464200e+01   1.8487800e+00
  -1.2374700e+01  -2.4735500e+01   1.9030900e+00
  -1.2222300e+01  -2.4915200e+01   1.9520200e+00
  -1.2183500e+01  -2.5017400e+01   1.9974300e+00
  -1.2045200e+01  -2.5264600e+01   2.0543200e+00
  -1.1948700e+01  -2.5403700e+01   2.1294600e+00
  -1.1819800e+01  -2.5468900e+01   2.1470200e+00
  -1.1707400e+01  -2.5567500e+01   2.2069400e+00
  -1.1619200e+01  -2.5656100e+01   2.2451000e+00
  -1.1326600e+01  -2.5635500e+01   2.2778700e+00
  -1.1259200e+01  -2.5587600e+01   2.3799300e+00
  -1.1112700e+01  -2.5598800e+01   2.4450100e+00
  -1.0810300e+01  -2.5486900e+01   2.5213200e+00
  -1.0740600e+01  -2.5324000e+01   2.5953000e+00
  -1.0414800e+01  -2.5262100e+01   2.6016200e+00
  -1.0045900e+01  -2.5202000e+01   2.6343900e+00
  -9.9686600e+00  -2.5011300e+01   2.6954900e+00
  -9.6646300e+00  -2.4755400e+01   2.6959600e+00
  -9.3596600e+00  -2.4644100e+01   2.7224100e+00
  -9.1941800e+00  -2.4383100e+01   2.7270900e+00
  -8.9556800e+00  -2.4178100e+01   2.6547600e+00
  -8.7555700e+00  -2.4129200e+01   2.6325200e+00
  -8.3654000e+00  -2.3842000e+01   2.6400100e+00
  -8.0807900e+00  -2.3629800e+01   2.6713800e+00
  -7.9991100e+00  -2.3276200e+01   2.6830800e+00
  -7.7650600e+00  -2.2757100e+01   2.6446900e+00
  -7.5033900e+00  -2.2446500e+01   2.6456300e+00
  -7.2239300e+00  -2.2172100e+01   2.6833100e+00
  -7.0921600e+00  -2.1848700e+01   2.7329400e+00
  -7.0135200e+00  -2.1514000e+01   2.7437100e+00
  -6.6212400e+00  -2.1211300e+01   2.7139800e+00
  -6.3052700e+00  -2.0747400e+01   2.7310700e+00
  -6.2395100e+00  -2.0181300e+01   2.7973200e+00
  -6.1821600e+00  -1.9754100e+01   2.7685200e+00
  -6.1035200e+00  -1.9288800e+01   2.6908100e+00
  -5.7456600e+00  -1.8878400e+01   2.6774600e+00
  -5.4788400e+00  -1.8543900e+01   2.6622500e+00
  -5.6017100e+00  -1.8094000e+01   2.6758200e+00
  -5.4650300e+00  -1.7516500e+01   2.6674000e+00
  -5.1848700e+00  -1.6812300e+01   2.5934200e+00
  -5.0875000e+00  -1.6092700e+01   2.5311600e+00
  -4.7923600e+00  -1.5498600e+01   2.4901900e+00
  -4.7113800e+00  -1.4988200e+01   2.4351800e+00
  -4.7485900e+00  -1.4388000e+01   2.3214100e+00
  -4.4213900e+00  -1.3837100e+01   2.1931300e+00
  -4.2706600e+00  -1.3336300e+01   2.0725700e+00
  -4.1976300e+00  -1.2749900e+01   1.9517800e+00
  -3.9385400e+00  -1.2113200e+01   1.8635300e+00
  -3.6719500e+00  -1.1375200e+01   1.7706000e+00
  -3.3250900e+00  -1.0580100e+01   1.6235900e+00
  -2.9859500e+00  -9.8971500e+00   1.4555100e+00
  -2.8651800e+00  -9.2481300e+00   1.3298100e+00
  -2.7205300e+00  -8.6357900e+00   1.2153400e+00
  -2.5229900e+00  -8.1664900e+00   1.0608400e+00
  -2.2030400e+00  -7.6600300e+00   9.0001900e-01
  -1.8112400e+00  -7.0967800e+00   7.8133600e-01
  -1.6460000e+00  -6.4253100e+00   7.2492000e-01
  -1.3178600e+00  -5.7311800e+00   6.3503000e-01
  -8.8579700e-01  -5.0723300e+00   4.7327400e-01
  -5.5929400e-01  -4.4396700e+00   3.3118200e-01
  -2.3934500e-01  -3.8436900e+00   2.2420300e-01
   6.7731900e-02  -3.2979700e+00   1.2213900e-01
   4.9721800e-01  -2.8319400e+00  -3.2359700e-02
   1.0037100e+00  -2.4061100e+00  -1.7445200e-01
   1.4016000e+00  -1.9197500e+00  -2.6129900e-01
   1.7732700e+00  -1.2328600e+00  -3.6055300e-01
   2.2060300e+00  -6.6119300e-01  -4.4716700e-01
   2.5905800e+00  -5.5402700e-02  -5.2230900e-01
   3.0942600e+00   5.8965100e-01  -5.8059800e-01
   3.4977700e+00   1.0722700e+00  -6.0119800e-01
   3.8029700e+00   1.6568000e+00  -6.1711600e-01
   4.3169500e+00   2.2885300e+00  -6.4661100e-01
   4.7422200e+00   2.9525100e+00  -6.9553600e-01
   5.0881500e+00   3.6468800e+00  -7.3533100e-01
   5.5103800e+00   4.2526700e+00  -7.5148300e-01
   5.7942900e+00   4.8311200e+00  -7.7629700e-01
   6.0721100e+00   5.3836200e+00  -8.2943500e-01
   6.5317800e+00   5.8627400e+00  -8.8257300e-01
   6.8063300e+00   6.3145100e+00  -8.9193700e-01
   7.0237600e+00   6.7824100e+00  -9.2073000e-01
   7.3942700e+00   7.2860600e+00  -9.9353200e-01
   7.7446400e+00   7.7135300e+00  -1.0492500e+00
   8.0765300e+00   8.0884100e+00  -1.0899800e+00
   8.4065400e+00   8.4833800e+00  -1.1433500e+00
   8.6108700e+00   8.9183300e+00  -1.2091300e+00
   8.7946000e+00   9.3673000e+00  -1.2608600e+00
   9.0178900e+00   9.8552900e+00  -1.3170400e+00
   9.2563900e+00   1.0441900e+01  -1.3713500e+00
   9.5101000e+00   1.0981300e+01  -1.3919500e+00
   9.6346100e+00   1.1521000e+01  -1.4060000e+00
   9.8401100e+00   1.2077900e+01  -1.4013200e+00
   1.0074200e+01   1.2558400e+01  -1.3669000e+00
   1.0259500e+01   1.3025200e+01  -1.3315600e+00
   1.0399300e+01   1.3467600e+01  -1.2791200e+00
   1.0559600e+01   1.3840600e+01  -1.2735000e+00
   1.0840500e+01   1.4130200e+01  -1.3912500e+00
   1.1089500e+01   1.4133500e+01  -1.4886300e+00
   1.1282300e+01   1.4009300e+01  -1.5181300e+00
   1.1414600e+01   1.4129700e+01  -1.5731400e+00
   1.1460900e+01   1.4238200e+01  -1.6616200e+00
   1.1472900e+01   1.4407100e+01  -1.7374700e+00
   1.1581000e+01   1.4749800e+01  -1.7590100e+00
   1.1595700e+01   1.5150600e+01  -1.7412100e+00
