**************************************************************************************
  	RED ACELEROGRÁFICA DE LA UNIVERSIDAD AUTONOMA METROPOLITANA (RA-UAM)
	   UNIDAD AZCAPOTZALCO. DIVISIÓN CBI-DEPARTAMENTO DE MATERIALES
     Av. San Pablo 420, Col. Nueva el Rosario, Azcapotzalco, C.P. 02128, Ciudad de México
		Área de Estructuras. e-mail: agb@azc.uam.mx
**************************************************************************************
ARCHIVO ESTANDAR DE ACELERACION:
VERSION DEL FORMATO                    : 2.0
NOMBRE DEL ARCHIVO                     : RUML202209.203
FECHA Y HORA DE CREACION               : 11:40 a. m. 27/09/2022
REF. CATALOGO ACELEROGRAMAS, SMIS 1999 : REGISTRO NO.      /PAG.    


================================================================================
DATOS DE LA ESTACION:
NOMBRE DE LA ESTACION                  : UAM-LERMA.
CLAVE DE LA ESTACION                   : RUML
LOCALIZACION DE LA ESTACION            : AV. DE LAS GARZAS 10, EL PANTEON, C.P.52005,
                                       : LERMA DE VILLADA, ESTADO DE MEXICO.   
                                       : 
                                       : 
                                       : 
COORDENADAS DE LA ESTACION             : 19.291278 LAT. N
                                       : 99.500578 LONG. W
ALTITUD (msnm)                         : 2570
TIPO DE SUELO                          : DEPOSITOS LACUSTRES
                                       : 
                                       : 
INSTITUCION RESPONSABLE                : UNIVERSIDAD AUTONOMA METROPOLITANA
                                       : 

================================================================================
DATOS DEL ACELEROGRAFO: 
MODELO DEL ACELEROGRAFO                : ETNA2 KINEMETRICS
NUMERO DE SERIE DEL ACELEROGRAFO       : 103733
NUMERO DE CANALES                      : 3
ORIENTACION C1-C6 (rumbo;orientacion)  : /N90E/N00E/V 
ORIENTACION C7-C12 (rumbo;orientacion) : 
VEL. DE MUESTREO, C1-C6 (muestras/s)   : /200/200/200
VEL. DE MUESTREO, C7-C12 (muestras/s)  : 
ESC. COMPLETA DE SENSORES, C1-C6, (g)  : /2/2/2
ESC. COMPLETA DE SENSORES, C7-C12 (g)  : 
FREC. NAT. DE SENSORES, C1-C6, (Hz)    : /212/206/208   
FREC. NAT. DE SENSORES, C7-C12 (Hz)    : 
AMORTIGUAMIENTO DE SENSORES, C1-C6     : /0.7/0.7/0.7      
AMORTIGUAMIENTO DE SENSORES, C7-C12    : 
INTERVALO DE MUESTREO, C1-C6 (s)       : /0.005/0.005/0.005
INTERVALO DE MUESTREO, C7-C12 (s)      : 
UMBRAL DE DISPARO, C1-C6 (Gal)         : /2/2/2
UMBRAL DE DISPARO, C7-C12 (Gal)        : 
MEMORIA DE PREEVENTO (s)               : 50
TIEMPO DE POSEVENTO (s)                : 60


================================================================================
DATOS DEL SISMO:
FECHA DEL SISMO [GMT]                  : 2022/09/20
HORA EPICENTRO (GMT)                   : 19:04:29
MAGNITUD(ES)                           : /M=5.4
COORDENADAS DEL EPICENTRO              : 18.1400 LAT. N
                                       : -103.2500 LONG. W
PROFUNDIDAD FOCAL (Km)                 : 16.0
FUENTE DE LOS DATOS EPICENTRALES       : SSN
                                       : INSTITUTO DE GEOFISICA, UNAM

================================================================================
DATOS DE ESTE REGISTRO:
HORA DE LA PRIMERA MUESTRA (GMT)       : 19:05:33.000
EXACTITUD DEL TIEMPO (s)               : 
DURACION DEL REGISTRO (s), C1-C6       : /164/164/164
DURACION DEL REGISTRO (s), C7-C12      : 
NUM. TOTAL DE MUESTRAS, C1-C6          : /32800/32800/32800
NUM. TOTAL DE MUESTRAS, C7-C12         : 
ACEL. MAX.(Gal), C1-C6                 : /1.384/1.342/0.275
ACEL. MAX., C1-C6, EN LA MUESTRA       : /14203/10401/11354
ACEL. MAX.(Gal), C7-C12                : 
ACEL. MAX., C7-C12,EN LA MUESTRA       : 
UNIDADES DE LOS DATOS                  : Gal (cm/s/s)
FACTOR DE DECIMACION                   : 1
FORMATO DATOS (FORTRAN,16 campos/dato) : 3E16.7


================================================================================
CALIDAD DEL ACELEROGRAMA:
REGISTRO DIGITAL COMPLETO CON TIEMPO ABSOLUTO CORRECTO


================================================================================
COMENTARIOS:














================================================================================
DATOS DE ACELERACION:
---------+---------+---------+---------+---------+---------+---------+---------+
   CANAL-1   	     CANAL-2          CANAL-3
     N90E              N00E              V
---------+---------+---------+---------+---------+---------+---------+---------+
[...]
   8.7561200e-01   4.1525300e-01   2.4085600e-02
   8.3582300e-01   4.1128000e-01   1.5892500e-02
   8.4658900e-01   4.0567100e-01   3.4619700e-02
   8.6320700e-01   3.9421900e-01   4.7260500e-02
   8.3278000e-01   3.7902700e-01   5.9667300e-02
   8.2318400e-01   3.6664000e-01   6.5753600e-02
   8.3746100e-01   3.8790900e-01   5.1942300e-02
   8.3231200e-01   3.7154800e-01   4.5153700e-02
   7.9931100e-01   3.5542200e-01   4.2110500e-02
   8.0329000e-01   3.5331900e-01   4.9835500e-02
   8.0820500e-01   3.3555600e-01   4.0237800e-02
   7.7356500e-01   3.0587400e-01   3.2981000e-02
   7.7379900e-01   2.6731100e-01   4.6324200e-02
   7.8620400e-01   2.7969800e-01   5.7794500e-02
   7.5250000e-01   2.5726200e-01   7.0903600e-02
   7.2698900e-01   2.4160300e-01   8.6353500e-02
   7.4103200e-01   2.4651100e-01   9.8760200e-02
   7.2347800e-01   2.2407400e-01   1.0133500e-01
   6.8556100e-01   2.1729600e-01   1.0554900e-01
   6.8439100e-01   1.8317400e-01   1.1842400e-01
   6.7245400e-01   1.7172200e-01   1.1959400e-01
   6.3266600e-01   1.4554600e-01   1.1514700e-01
   6.1019700e-01   1.3409400e-01   1.2685100e-01
   6.1581400e-01   1.3175700e-01   1.3153300e-01
   5.9194000e-01   1.1259200e-01   1.2849000e-01
   5.5776900e-01   1.1492900e-01   1.1982800e-01
   5.5800300e-01   9.1090100e-02   1.0367600e-01
   5.2664000e-01   8.5247200e-02   9.1971600e-02
   4.9504300e-01   4.9722500e-02   8.2374000e-02
   4.8287200e-01   2.7285800e-02   7.8160300e-02
   4.5923300e-01   1.6534900e-02   6.1071800e-02
   4.3559400e-01  -2.4832700e-02   4.2110500e-02
   4.0586900e-01  -3.9089300e-02   4.9601400e-02
   3.9229400e-01  -6.9004900e-02   7.1137700e-02
   3.5952700e-01  -6.4330600e-02   7.6989900e-02
   3.1599300e-01  -9.3545000e-02   7.4414900e-02
   3.1739700e-01  -1.3631500e-01   7.3244500e-02
   2.9820500e-01  -1.3725000e-01   5.9901400e-02
   2.3805400e-01  -1.6856800e-01   5.8496800e-02
   2.2635100e-01  -1.7628000e-01   6.4817200e-02
   2.1137200e-01  -1.9030300e-01   4.7494600e-02
   1.4724100e-01  -2.1227200e-01   2.0106100e-02
   1.3904900e-01  -2.1671300e-01  -7.2786900e-04
   1.2547400e-01  -2.2793100e-01  -9.3891900e-03
   7.7961900e-02  -2.5995000e-01  -1.9455000e-02
   5.5258800e-02  -2.6555900e-01  -3.6543600e-02
   2.7406600e-02  -2.6509200e-01  -4.9184400e-02
   5.6397600e-03  -2.9173600e-01  -6.1357100e-02
  -3.6255600e-02  -2.9360500e-01  -6.4868400e-02
  -6.4575900e-02  -2.8823000e-01  -6.8848000e-02
  -6.5746200e-02  -2.8823000e-01  -7.8679700e-02
  -1.2285500e-01  -3.1136800e-01  -8.8979700e-02
  -1.6662300e-01  -3.3170100e-01  -9.3895600e-02
  -1.6241000e-01  -3.3427200e-01  -9.6236500e-02
  -2.0524100e-01  -3.4268500e-01  -1.0232300e-01
  -2.6071200e-01  -3.5133300e-01  -9.5768300e-02
  -2.6141400e-01  -3.6675800e-01  -9.6002400e-02
  -2.9020200e-01  -3.6629100e-01  -1.0115200e-01
  -3.4590700e-01  -3.7119900e-01  -9.7406900e-02
  -3.5971600e-01  -3.7236700e-01  -9.8811400e-02
  -3.8124800e-01  -3.7283500e-01  -1.0536600e-01
  -4.3274000e-01  -3.8779300e-01  -1.1262300e-01
  -4.6972000e-01  -3.9363500e-01  -1.0630200e-01
  -4.7229500e-01  -4.0976200e-01  -1.0794100e-01
  -5.1231800e-01  -4.0602200e-01  -1.2432700e-01
  -5.7246900e-01  -4.0882700e-01  -1.2549800e-01
  -5.7434200e-01  -4.1303400e-01  -1.3415900e-01
  -6.0032100e-01  -4.0976200e-01  -1.4375700e-01
  -6.6164300e-01  -4.2565400e-01  -1.4165000e-01
  -6.7638800e-01  -4.2144700e-01  -1.4165000e-01
  -6.9043100e-01  -4.3780800e-01  -1.4094800e-01
  -7.4379500e-01  -4.5463500e-01  -1.4469300e-01
  -7.6251900e-01  -4.5066200e-01  -1.3860700e-01
  -7.7679700e-01  -4.5977700e-01  -1.3088200e-01
  -8.2267100e-01  -4.5206400e-01  -1.2198600e-01
  -8.4724600e-01  -4.5557000e-01  -1.0981400e-01
  -8.6643900e-01  -4.6538600e-01  -1.0840900e-01
  -8.8399300e-01  -4.7753900e-01  -1.0419600e-01
  -9.1886600e-01  -4.8314800e-01  -1.0068400e-01
  -9.4508000e-01  -4.6678800e-01  -9.6470500e-02
  -9.4320800e-01  -4.8011000e-01  -9.3661500e-02
  -9.7972000e-01  -4.8127900e-01  -1.0091800e-01
  -1.0066400e+00  -4.6094500e-01  -1.0560000e-01
  -9.9867800e-01  -4.5907600e-01  -1.0583400e-01
  -1.0248900e+00  -4.6047800e-01  -1.1168600e-01
  -1.0721700e+00  -4.6258100e-01  -1.1402700e-01
  -1.0707700e+00  -4.6725600e-01  -1.0911100e-01
  -1.0714700e+00  -4.7356600e-01  -1.1309100e-01
  -1.1166400e+00  -4.6585300e-01  -1.1192000e-01
  -1.1159400e+00  -4.5557000e-01  -9.7875100e-02
  -1.1037700e+00  -4.4528600e-01  -9.6704600e-02
  -1.1547900e+00  -4.4411800e-01  -1.0747300e-01
  -1.1723400e+00  -4.5720600e-01  -1.0606800e-01
  -1.1430900e+00  -4.5884200e-01  -9.9279600e-02
  -1.1737500e+00  -4.7566900e-01  -9.4363700e-02
  -1.2002000e+00  -4.7824000e-01  -8.1488800e-02
  -1.1765600e+00  -4.6094500e-01  -7.6104700e-02
  -1.1962200e+00  -4.5767300e-01  -8.0318400e-02
  -1.2189200e+00  -4.5884200e-01  -7.0954800e-02
  -1.1994900e+00  -4.6608700e-01  -5.8782100e-02
  -1.1992600e+00  -4.7426700e-01  -4.7311700e-02
  -1.2140100e+00  -4.8945900e-01  -2.7180000e-02
  -1.2175200e+00  -4.8712100e-01  -8.2187400e-03
  -1.2123700e+00  -4.7613700e-01   8.1675400e-03
  -1.2095600e+00  -4.6748900e-01   1.4722000e-02
  -1.2229000e+00  -4.7076100e-01   2.6192400e-02
  -1.2046400e+00  -4.7730500e-01   4.5153700e-02
  -1.1807700e+00  -4.7076100e-01   4.7962800e-02
  -1.2004300e+00  -4.7052800e-01   5.1942300e-02
  -1.1941100e+00  -4.6655500e-01   6.1774100e-02
  -1.1655600e+00  -4.7964300e-01   5.8262700e-02
  -1.1856900e+00  -4.7122900e-01   5.5687700e-02
  -1.1849800e+00  -4.7777300e-01   7.1137700e-02
  -1.1370000e+00  -4.8852400e-01   7.8862600e-02
  -1.1505800e+00  -4.6515200e-01   7.0435400e-02
  -1.1477700e+00  -4.8174600e-01   7.5117200e-02
  -1.1007200e+00  -4.8291500e-01   8.9396700e-02
  -1.1114900e+00  -4.8011000e-01   9.4312500e-02
  -1.1136000e+00  -4.7824000e-01   8.9864800e-02
  -1.0710000e+00  -4.6141300e-01   8.7055800e-02
  -1.0555500e+00  -4.8291500e-01   8.5651200e-02
  -1.0527400e+00  -4.9226300e-01   8.5417100e-02
  -1.0143600e+00  -4.7894100e-01   8.9396700e-02
  -9.8369900e-01  -4.7286500e-01   8.7523900e-02
  -9.8252800e-01  -4.6515200e-01   8.2608100e-02
  -9.7223000e-01  -4.6982700e-01   8.8460300e-02
  -9.2963300e-01  -4.6912500e-01   9.1503500e-02
  -9.1254700e-01  -4.5276500e-01   8.0969400e-02
  -9.1839800e-01  -4.4809100e-01   8.0501200e-02
  -8.7463000e-01  -4.5650500e-01   8.6119400e-02
  -8.4818300e-01  -4.4949300e-01   9.0333000e-02
  -8.4233100e-01  -4.4154700e-01   9.0333000e-02
  -8.0745700e-01  -4.3360100e-01   8.5417100e-02
  -7.8147800e-01  -4.1911000e-01   8.1671700e-02
  -7.6462600e-01  -4.2612200e-01   7.7458100e-02
  -7.5105100e-01  -4.0976200e-01   7.4649000e-02
  -7.3068800e-01  -3.8592300e-01   6.1774100e-02
  -6.9300600e-01  -3.8849400e-01   4.7962800e-02
  -6.7826100e-01  -3.9106500e-01   4.8196900e-02
  -6.6328100e-01  -3.6372000e-01   4.4451400e-02
  -6.1881100e-01  -3.1043300e-01   2.8767400e-02
  -6.0266200e-01  -3.0832900e-01   1.8701600e-02
  -5.8253300e-01  -3.0996500e-01   1.6126600e-02
  -5.2472200e-01  -3.0692700e-01   1.4019800e-02
  -5.0389200e-01  -2.9687700e-01   1.0274300e-02
  -4.9687000e-01  -2.4662800e-01   1.6828900e-02
  -4.5099600e-01  -2.3844800e-01   3.1810600e-02
  -4.1401600e-01  -2.2582800e-01   3.3449200e-02
  -4.0207900e-01  -2.0946800e-01   2.7831100e-02
  -3.7329100e-01  -1.8469400e-01   2.4319700e-02
  -3.2296900e-01  -1.6342600e-01   2.8299200e-02
  -3.0260700e-01  -1.5921900e-01   3.0874200e-02
  -2.9184100e-01  -1.2603100e-01   3.0640100e-02
  -2.2934900e-01  -1.1341100e-01   2.7362900e-02
  -1.9400700e-01  -1.1247600e-01   1.7531100e-02
  -1.9190000e-01  -8.3261500e-02   2.2681100e-02
  -1.3432300e-01  -3.5116100e-02   3.9535600e-02
  -1.0202400e-01  -2.6936100e-02   3.6258300e-02
  -1.2191900e-01   8.7600500e-04   2.5958400e-02
  -6.0831100e-02   1.4898900e-02   1.9169800e-02
  -9.1370300e-04   2.1676700e-02   1.2147100e-02
  -2.9000000e-02   5.5097900e-02   1.5892500e-02
   1.8512600e-02   4.4814500e-02   2.5490200e-02
   7.6089500e-02   8.2676400e-02   2.4787900e-02
   6.0876100e-02   1.0417800e-01   1.3083400e-02
   9.1536900e-02   1.0932000e-01   2.4787900e-02
   1.4466700e-01   1.4040400e-01   4.3515100e-02
   1.6315700e-01   1.5138900e-01   4.3749200e-02
   1.7977500e-01   1.8854900e-01   4.4451400e-02
   2.2190400e-01   1.8878300e-01   4.9601400e-02
   2.4999000e-01   1.9649600e-01   5.5219600e-02
   2.6450100e-01   2.2290600e-01   6.1071800e-02
   2.8299200e-01   2.4136900e-01   6.1305900e-02
   3.1950400e-01   2.6380600e-01   6.2944500e-02
   3.4127100e-01   2.6100100e-01   6.9264900e-02
   3.4993000e-01   2.8834600e-01   7.7458100e-02
   4.0657100e-01   3.0751000e-01   8.5417100e-02
   4.2904000e-01   3.3625700e-01   8.8460300e-02
   4.4167900e-01   3.3719200e-01   9.2673900e-02
   4.7725500e-01   3.4841100e-01   9.8994300e-02
   5.1025600e-01   3.8931100e-01   1.0695300e-01
   5.3342700e-01   3.8767500e-01   1.0297400e-01
   5.5004500e-01   4.1385100e-01   1.0554900e-01
   6.0106800e-01   4.3091200e-01   1.0367600e-01
   6.1604800e-01   4.6573600e-01   9.2439800e-02
   6.2470800e-01   4.7882400e-01   9.8526100e-02
   6.8298700e-01   4.9448300e-01   9.5014800e-02
   7.2020100e-01   5.1434800e-01   8.5183000e-02
   7.2066900e-01   4.9892300e-01   7.7692200e-02
   7.5999000e-01   5.2486600e-01   7.6053500e-02
   8.0773700e-01   5.3070900e-01   7.9330800e-02
   7.9463000e-01   5.4403000e-01   8.3310300e-02
   8.2903500e-01   5.6039000e-01   8.5183000e-02
   8.8778200e-01   5.7160900e-01   7.7224000e-02
   8.9574000e-01   5.9007200e-01   6.2008200e-02
   9.1563500e-01   5.8352800e-01   5.6624100e-02
   9.6267900e-01   5.9965500e-01   5.9433200e-02
   1.0036400e+00   5.9240900e-01   5.1240000e-02
   1.0085500e+00   5.9124100e-01   3.8599200e-02
   1.0237700e+00   5.9918700e-01   3.6726500e-02
   1.0731500e+00   5.8867000e-01   4.4217300e-02
   1.0750200e+00   5.9918700e-01   5.0069600e-02
   1.0731500e+00   5.9357800e-01   6.2008200e-02
   1.1326000e+00   6.1321000e-01   5.5687700e-02
   1.1522600e+00   6.1508000e-01   4.3046900e-02
   1.1356400e+00   6.0970400e-01   5.4985500e-02
   1.1990700e+00   6.0900300e-01   5.7326400e-02
   1.2299700e+00   5.9942100e-01   3.5556000e-02
   1.1986000e+00   6.3073900e-01   1.4253900e-02
   1.2568800e+00   6.1461200e-01   3.2516600e-03
   1.2905900e+00   5.9778500e-01  -2.8346800e-03
   1.2678800e+00   5.8539800e-01   5.8266400e-03
   1.2933900e+00   5.7207600e-01   2.8767400e-02
   1.3231200e+00   5.8376200e-01   4.3046900e-02
   1.3168000e+00   5.9521400e-01   2.9469700e-02
   1.3097800e+00   6.3728300e-01   1.7531100e-02
   1.3455900e+00   6.3144000e-01   6.0607300e-03
   1.3523800e+00   5.9988800e-01  -1.3836900e-02
   1.3303800e+00   5.7090800e-01  -2.1327800e-02
   1.3591600e+00   5.6226000e-01  -3.1393600e-02
   1.3842100e+00   5.8656600e-01  -3.7714000e-02
   1.3605700e+00   5.8867000e-01  -3.9586800e-02
   1.3526100e+00   5.9521400e-01  -3.5139000e-02
   1.3781200e+00   5.8306100e-01  -3.2330000e-02
   1.3561200e+00   5.8189200e-01  -3.7011800e-02
   1.3441800e+00   5.8843600e-01  -2.9052700e-02
   1.3734400e+00   5.8563200e-01  -2.5775500e-02
   1.3647800e+00   5.7815300e-01  -2.4605000e-02
   1.3460600e+00   5.4823700e-01  -1.6177800e-02
   1.3406700e+00   5.6039000e-01  -4.2392100e-03
   1.3343500e+00   5.6576600e-01   5.3584600e-03
   1.3058000e+00   5.6880400e-01   1.1678900e-02
   1.2999500e+00   5.7441300e-01   2.5022000e-02
   1.3123500e+00   5.6623300e-01   2.2447000e-02
   1.2929300e+00   5.6249400e-01   1.6828900e-02
   1.2732700e+00   5.4660100e-01   2.7128800e-02
   1.2709300e+00   5.6623300e-01   2.9469700e-02
   1.2601600e+00   5.6693400e-01   2.3149300e-02
   1.2196700e+00   5.5595000e-01   1.7531100e-02
   1.2135800e+00   5.6039000e-01   1.7297000e-02
   1.2208400e+00   5.5595000e-01   1.4253900e-02
   1.1789400e+00   5.6132500e-01   1.3551600e-02
   1.1485200e+00   5.5478100e-01   1.6360700e-02
   1.1478100e+00   5.6366200e-01   6.0607300e-03
   1.1178600e+00   5.5314500e-01  -1.1730100e-02
   1.0731500e+00   5.3959000e-01  -1.8284600e-02
   1.0659000e+00   5.5104200e-01  -1.0559600e-02
   1.0539600e+00   5.2252900e-01  -4.4733000e-03
   1.0064500e+00   5.2463200e-01  -6.3460200e-03
   9.7882900e-01   5.3795400e-01  -1.5007300e-02
   9.7742400e-01   5.1505000e-01  -1.8752800e-02
   9.4091200e-01   4.9915700e-01  -1.9689100e-02
   8.9644200e-01   5.0219500e-01  -1.5943700e-02
   8.8474000e-01   5.0616800e-01  -1.6177800e-02
   8.4775900e-01   4.7321500e-01  -2.6711800e-02
   7.8433100e-01   4.5872400e-01  -1.9923200e-02
   7.7403300e-01   4.6059400e-01  -1.9923200e-02
   7.6303300e-01   4.5358200e-01  -3.1627700e-02
   6.9960400e-01   4.3862500e-01  -3.5139000e-02
   6.7362500e-01   4.2086200e-01  -3.7479900e-02
   6.6800700e-01   4.2810800e-01  -5.1057100e-02
   6.1464300e-01   4.1969400e-01  -7.0486600e-02
   5.6057700e-01   3.9725700e-01  -6.6975200e-02
   5.6221600e-01   3.5518800e-01  -7.1657000e-02
   5.2219300e-01   3.2036500e-01  -8.4297900e-02
   4.4167900e-01   3.1685900e-01  -7.4934300e-02
   4.3957200e-01   2.9862900e-01  -6.5336600e-02
   4.1710300e-01   2.8460600e-01  -5.0589000e-02
   3.4852600e-01   2.6333800e-01  -3.7948100e-02
   3.4384500e-01   2.4651100e-01  -3.8416300e-02
   3.3073800e-01   2.2500900e-01  -4.5204900e-02
   2.5818200e-01   1.9392500e-01  -4.4736700e-02
   2.3664900e-01   1.7639600e-01  -2.9755000e-02
   2.2705300e-01   1.4998600e-01  -2.4136800e-02
   1.5707200e-01   1.4297500e-01  -2.6477700e-02
   1.1096300e-01   1.3012100e-01  -2.0625500e-02
   9.6217900e-02   9.6465600e-02  -7.2823800e-03
   6.9770100e-02   6.5381400e-02   2.0812100e-03
   2.3427700e-02   6.1642000e-02   6.9970900e-03
  -1.7531400e-02   5.9304800e-02   1.1210700e-02
  -3.3915100e-02   2.7753300e-02   1.0040300e-02
  -7.6746600e-02   1.2094300e-02   8.4016300e-03
  -1.0764100e-01  -7.0703100e-03   1.0742500e-02
  -1.0787600e-01  -1.1277200e-02   2.5493900e-03
  -1.6475000e-01  -2.8338400e-02  -2.1327800e-02
  -2.2139100e-01  -6.1526000e-02  -3.1861800e-02
  -2.1296500e-01  -6.3162000e-02  -3.0925400e-02
  -2.3941300e-01  -8.9338100e-02  -3.4202700e-02
  -2.9839400e-01  -1.0195900e-01  -4.0523100e-02
  -3.0190500e-01  -1.2346100e-01  -5.1759400e-02
  -3.2203300e-01  -1.5080500e-01  -6.1123000e-02
  -3.7633300e-01  -1.4870200e-01  -6.4166200e-02
  -3.8756800e-01  -1.7254100e-01  -6.2059400e-02
  -4.0676000e-01  -1.8492800e-01  -7.4232000e-02
  -4.6106000e-01  -2.0082000e-01  -1.0138600e-01
  -4.8189100e-01  -2.4265500e-01  -1.1590000e-01
  -4.8329500e-01  -2.7327200e-01  -1.1355900e-01
  -5.2402000e-01  -2.8636000e-01  -1.1004800e-01
  -5.7106500e-01  -2.9734500e-01  -1.1824100e-01
  -5.8347000e-01  -3.2328700e-01  -1.2362500e-01
  -5.9166100e-01  -3.5577400e-01  -1.2479500e-01
  -6.2770500e-01  -3.7704200e-01  -1.2830700e-01
  -6.5813200e-01  -3.9293400e-01  -1.1894300e-01
  -6.5415300e-01  -4.2261600e-01  -1.1473000e-01
  -6.8036700e-01  -4.5884200e-01  -1.1777300e-01
  -7.1781500e-01  -4.8735500e-01  -1.1238900e-01
  -7.0775100e-01  -4.9506800e-01  -1.0443000e-01
  -7.2624100e-01  -5.2077600e-01  -9.4363700e-02
  -7.7117900e-01  -5.4882200e-01  -9.0150100e-02
  -7.5573200e-01  -5.5980700e-01  -9.5066000e-02
  -7.5737000e-01  -5.8785300e-01  -9.9045500e-02
  -8.0511700e-01  -6.1005600e-01  -9.5534200e-02
  -8.0488300e-01  -6.3272600e-01  -8.8043300e-02
  -8.0581900e-01  -6.5492900e-01  -9.2725100e-02
  -8.2735200e-01  -6.6661500e-01  -1.0794100e-01
