**************************************************************************************
  	RED ACELEROGRÁFICA DE LA UNIVERSIDAD AUTONOMA METROPOLITANA (RA-UAM)
	   UNIDAD AZCAPOTZALCO. DIVISIÓN CBI-DEPARTAMENTO DE MATERIALES
     Av. San Pablo 420, Col. Nueva el Rosario, Azcapotzalco, C.P. 02128, Ciudad de México
		Área de Estructuras. e-mail: agb@azc.uam.mx
**************************************************************************************
ARCHIVO ESTANDAR DE ACELERACION:
VERSION DEL FORMATO                    : 2.0
NOMBRE DEL ARCHIVO                     : RUML202209.192
FECHA Y HORA DE CREACION               : 11:40 a. m. 26/09/2022
REF. CATALOGO ACELEROGRAMAS, SMIS 1999 : REGISTRO NO.      /PAG.    


================================================================================
DATOS DE LA ESTACION:
NOMBRE DE LA ESTACION                  : UAM-LERMA.
CLAVE DE LA ESTACION                   : RUML
LOCALIZACION DE LA ESTACION            : AV. DE LAS GARZAS 10, EL PANTEON, C.P.52005,
                                       : LERMA DE VILLADA, ESTADO DE MEXICO.   
                                       : 
                                       : 
                                       : 
COORDENADAS DE LA ESTACION             : 19.291278 LAT. N
                                       : 99.500578 LONG. W
ALTITUD (msnm)                         : 2570
TIPO DE SUELO                          : DEPOSITOS LACUSTRES
                                       : 
                                       : 
INSTITUCION RESPONSABLE                : UNIVERSIDAD AUTONOMA METROPOLITANA
                                       : 

================================================================================
DATOS DEL ACELEROGRAFO: 
MODELO DEL ACELEROGRAFO                : ETNA2 KINEMETRICS
NUMERO DE SERIE DEL ACELEROGRAFO       : 103733
NUMERO DE CANALES                      : 3
ORIENTACION C1-C6 (rumbo;orientacion)  : /N90E/N00E/V 
ORIENTACION C7-C12 (rumbo;orientacion) : 
VEL. DE MUESTREO, C1-C6 (muestras/s)   : /200/200/200
VEL. DE MUESTREO, C7-C12 (muestras/s)  : 
ESC. COMPLETA DE SENSORES, C1-C6, (g)  : /2/2/2
ESC. COMPLETA DE SENSORES, C7-C12 (g)  : 
FREC. NAT. DE SENSORES, C1-C6, (Hz)    : /212/206/208   
FREC. NAT. DE SENSORES, C7-C12 (Hz)    : 
AMORTIGUAMIENTO DE SENSORES, C1-C6     : /0.7/0.7/0.7      
AMORTIGUAMIENTO DE SENSORES, C7-C12    : 
INTERVALO DE MUESTREO, C1-C6 (s)       : /0.005/0.005/0.005
INTERVALO DE MUESTREO, C7-C12 (s)      : 
UMBRAL DE DISPARO, C1-C6 (Gal)         : /2/2/2
UMBRAL DE DISPARO, C7-C12 (Gal)        : 
MEMORIA DE PREEVENTO (s)               : 50
TIEMPO DE POSEVENTO (s)                : 60


================================================================================
DATOS DEL SISMO:
FECHA DEL SISMO [GMT]                  : 2022/09/19
HORA EPICENTRO (GMT)                   : 19:30:42
MAGNITUD(ES)                           : /M=5.3
COORDENADAS DEL EPICENTRO              : 18.4500 LAT. N
                                       : -103.8800 LONG. W
PROFUNDIDAD FOCAL (Km)                 : 6.0
FUENTE DE LOS DATOS EPICENTRALES       : SSN
                                       : INSTITUTO DE GEOFISICA, UNAM

================================================================================
DATOS DE ESTE REGISTRO:
HORA DE LA PRIMERA MUESTRA (GMT)       : 19:32:07.000
EXACTITUD DEL TIEMPO (s)               : 
DURACION DEL REGISTRO (s), C1-C6       : /158/158/158
DURACION DEL REGISTRO (s), C7-C12      : 
NUM. TOTAL DE MUESTRAS, C1-C6          : /31600/31600/31600
NUM. TOTAL DE MUESTRAS, C7-C12         : 
ACEL. MAX.(Gal), C1-C6                 : /0.750/-0.731/-0.377
ACEL. MAX., C1-C6, EN LA MUESTRA       : /14843/11421/13371
ACEL. MAX.(Gal), C7-C12                : 
ACEL. MAX., C7-C12,EN LA MUESTRA       : 
UNIDADES DE LOS DATOS                  : Gal (cm/s/s)
FACTOR DE DECIMACION                   : 1
FORMATO DATOS (FORTRAN,16 campos/dato) : 3E16.7


================================================================================
CALIDAD DEL ACELEROGRAMA:
REGISTRO DIGITAL COMPLETO CON TIEMPO ABSOLUTO CORRECTO


================================================================================
COMENTARIOS:














================================================================================
DATOS DE ACELERACION:
---------+---------+---------+---------+---------+---------+---------+---------+
   CANAL-1   	     CANAL-2          CANAL-3
     N90E              N00E              V
---------+---------+---------+---------+---------+---------+---------+---------+
[...]
   2.3622900e-01   1.9764300e-03  -1.3591600e-03
   2.4606000e-01   2.0206200e-02  -1.2361400e-02
   2.3552700e-01   1.4363300e-02  -3.0386300e-02
   2.3248500e-01   1.0415700e-03  -3.4599900e-02
   2.4161300e-01  -3.6586600e-02  -2.8045400e-02
   2.2639900e-01  -2.9575100e-02  -2.3831800e-02
   2.2639900e-01  -3.5651700e-02  -3.1088600e-02
   2.4793200e-01  -4.8739800e-02  -2.8981700e-02
   2.4769800e-01  -4.5467800e-02  -1.8681800e-02
   2.2827200e-01  -3.6352900e-02  -8.3818500e-03
   2.1259000e-01  -1.9759100e-02  -6.9773200e-03
   2.4840000e-01  -5.3647800e-02  -1.8915900e-02
   2.4348500e-01  -6.8371900e-02  -2.0320400e-02
   1.9620600e-01  -7.2812500e-02  -1.1250700e-03
   2.3037800e-01  -6.2762700e-02   3.5567200e-03
   2.3622900e-01  -6.8138200e-02  -4.6364200e-03
   1.7841800e-01  -8.2394800e-02   3.0885400e-03
   2.0627100e-01  -5.5050100e-02   6.3657900e-03
   2.1446300e-01  -5.5751200e-02  -7.9136800e-03
   1.4424700e-01  -6.2996400e-02  -1.0254600e-02
   1.7818400e-01  -7.2812500e-02  -8.1477600e-03
   1.8192900e-01  -6.5333600e-02  -2.3363600e-02
   1.2458600e-01  -6.3931300e-02  -4.5368000e-02
   1.6835400e-01  -9.7352600e-02  -5.9647500e-02
   1.6531200e-01  -1.1932200e-01  -4.7708900e-02
   1.3090600e-01  -1.3498100e-01  -3.0152200e-02
   1.5290700e-01  -1.2890400e-01  -1.5638600e-02
   1.2809700e-01  -1.3334500e-01  -1.1250700e-03
   9.2989400e-02  -1.0716900e-01   1.6840000e-03
   9.9776900e-02  -1.0623400e-01   2.7946300e-04
   8.7606200e-02  -1.4292700e-01   8.4726000e-03
   8.8308400e-02  -1.2773600e-01  -4.2280600e-04
   8.8074300e-02  -1.4526400e-01  -1.3063600e-02
   5.4838900e-02  -1.4783500e-01   9.8173200e-04
   8.3393300e-02  -1.4806900e-01   1.4499100e-03
   7.1924700e-02  -1.4923700e-01   5.4294400e-03
   2.5348400e-02  -1.4690000e-01   1.5495300e-02
   6.9350200e-02  -1.4526400e-01   2.2752100e-02
   4.0795800e-02  -1.3685000e-01   2.3688400e-02
  -7.1848900e-03  -1.6583100e-01   1.1983900e-02
   2.5348400e-02  -1.4035600e-01   1.4090800e-02
  -2.0357400e-03  -1.5788500e-01   5.1953500e-03
  -1.9823700e-02  -1.9200700e-01  -1.4468200e-02
  -1.4440500e-02  -1.6816800e-01  -3.0386300e-02
  -6.1719000e-02  -1.4643300e-01  -3.9281700e-02
  -4.5101300e-02  -1.3755200e-01  -5.9647500e-02
  -4.8144000e-02  -1.6746700e-01  -7.9545100e-02
  -8.6060500e-02  -1.7237500e-01  -7.6970100e-02
  -3.1526300e-02  -1.9013800e-01  -8.6099600e-02
  -7.0144900e-02  -1.9527900e-01  -7.6736000e-02
  -1.0244400e-01  -2.1678100e-01  -5.0518000e-02
  -3.1994400e-02  -2.4669700e-01  -3.7877200e-02
  -1.0127400e-01  -2.3641300e-01  -2.4300000e-02
  -1.3006200e-01  -2.2729800e-01  -1.3063600e-02
  -7.2719500e-02  -2.1748200e-01  -1.1250700e-03
  -1.2959400e-01  -2.3547800e-01   1.0813500e-02
  -1.4433900e-01  -2.2168900e-01   2.4858900e-02
  -1.2187000e-01  -2.2963500e-01   2.1113400e-02
  -1.6353200e-01  -2.4903400e-01   5.4294400e-03
  -1.6423400e-01  -2.4365800e-01   9.1748700e-03
  -1.7523400e-01  -2.4786500e-01   1.9943000e-02
  -1.9021400e-01  -2.5768100e-01   3.5861100e-02
  -1.7266000e-01  -2.5768100e-01   3.6563400e-02
  -2.3421500e-01  -2.2239000e-01   3.7967900e-02
  -2.3117300e-01  -2.4132100e-01   5.0842800e-02
  -1.8834100e-01  -2.4716400e-01   4.6863300e-02
  -2.7517500e-01  -2.2963500e-01   3.9606500e-02
  -2.6253600e-01  -2.6258900e-01   2.5795200e-02
  -2.1315100e-01  -2.4809900e-01   7.5362400e-03
  -3.0138800e-01  -2.3828300e-01   8.4726000e-03
  -2.8383500e-01  -2.6305700e-01   1.9474800e-02
  -2.2415100e-01  -2.6025200e-01   1.3622600e-02
  -3.0162300e-01  -2.4295700e-01   4.7271700e-03
  -3.0981400e-01  -2.6843200e-01   1.3622600e-02
  -2.4755600e-01  -2.7801400e-01   3.3286100e-02
  -3.0045200e-01  -2.4319100e-01   4.6395100e-02
  -3.4117700e-01  -2.6586100e-01   5.0140600e-02
  -3.0115400e-01  -2.7497600e-01   4.6863300e-02
  -3.2175100e-01  -2.5814900e-01   3.3052000e-02
  -3.7956200e-01  -2.6445900e-01   4.3117900e-02
  -3.4773100e-01  -2.7450900e-01   5.5056400e-02
  -3.3485800e-01  -2.5020200e-01   3.6797500e-02
  -4.1373400e-01  -2.1047100e-01   2.3922500e-02
  -3.8026400e-01  -2.4950100e-01   1.4324800e-02
  -3.4492200e-01  -2.8409100e-01   1.4558900e-02
  -4.2426600e-01  -2.7147000e-01   1.3154400e-02
  -4.1022300e-01  -2.7030200e-01   5.1953500e-03
  -3.8564700e-01  -2.6773100e-01   4.4930800e-03
  -4.4369200e-01  -2.4342500e-01   1.9180900e-03
  -4.2964900e-01  -2.4225600e-01  -3.4659700e-03
  -3.9758400e-01  -2.6329000e-01  -9.5523000e-03
  -4.3620300e-01  -2.4459300e-01  -1.0722800e-02
  -4.3339400e-01  -2.7357400e-01  -1.6106800e-02
  -4.1349900e-01  -2.8970000e-01  -9.7863900e-03
  -4.4439400e-01  -2.5721400e-01   7.0680600e-03
  -4.5843700e-01  -2.7988400e-01   1.0813500e-02
  -4.5211800e-01  -2.9110300e-01   1.7602100e-02
  -4.4767100e-01  -2.6399200e-01   3.0711100e-02
  -4.6592700e-01  -2.4459300e-01   4.2649700e-02
  -4.8792800e-01  -2.7661200e-01   5.3417800e-02
  -4.6405500e-01  -2.5651300e-01   6.5590500e-02
  -4.5984200e-01  -2.1584600e-01   6.5122300e-02
  -4.8488500e-01  -2.4062000e-01   5.5056400e-02
  -4.6920400e-01  -2.2986900e-01   5.0608700e-02
  -4.5960800e-01  -2.2239000e-01   4.6161000e-02
  -4.6662900e-01  -2.3010300e-01   4.6863300e-02
  -4.3994700e-01  -2.3337500e-01   4.3586100e-02
  -4.3713900e-01  -2.3314100e-01   4.7799700e-02
  -4.3620300e-01  -2.3197300e-01   5.5056400e-02
  -4.2426600e-01  -2.1748200e-01   5.9036000e-02
  -4.4416000e-01  -2.0860100e-01   7.6358600e-02
  -4.2730900e-01  -2.1537900e-01   7.2613200e-02
  -4.3058500e-01  -1.9574700e-01   6.6526800e-02
  -4.6826800e-01  -1.8476200e-01   7.7529100e-02
  -4.3901100e-01  -1.5204200e-01   7.3081300e-02
  -4.2707400e-01  -1.6559700e-01   5.5758700e-02
  -4.6873600e-01  -1.6139100e-01   4.4756500e-02
  -4.3245800e-01  -1.1838700e-01   4.7565600e-02
  -3.9875400e-01  -1.4432900e-01   3.2115700e-02
  -4.3971300e-01  -1.2680100e-01   2.0879400e-02
  -3.9688200e-01  -1.2282800e-01   2.1347500e-02
  -3.6785900e-01  -1.1114200e-01   1.1281700e-02
  -4.1373400e-01  -9.7820000e-02   2.6203600e-03
  -3.7675300e-01  -1.1862100e-01  -5.1046000e-03
  -3.4866700e-01  -1.0576600e-01   4.9612600e-03
  -3.7441300e-01  -1.0670100e-01   7.7703300e-03
  -3.5264600e-01  -1.0459800e-01   1.6840000e-03
  -3.3860300e-01  -1.0950600e-01   6.1317000e-03
  -3.4351800e-01  -8.8471400e-02   7.3021500e-03
  -3.4187900e-01  -7.4214700e-02   5.8976200e-03
  -3.4492200e-01  -7.6551900e-02   8.0044200e-03
  -3.1613400e-01  -5.9490700e-02  -1.1250700e-03
  -3.2315500e-01  -5.3180400e-02  -1.4000000e-02
  -3.4187900e-01  -3.4716900e-02  -7.9136800e-03
  -2.7938800e-01  -2.9808800e-02  -1.6575000e-02
  -2.8360000e-01  -3.0743700e-02  -2.6640800e-02
  -3.0747400e-01  -2.5602000e-02  -1.5872700e-02
  -2.3562000e-01  -1.4149900e-02  -1.4702300e-02
  -2.3959900e-01  -1.3215100e-02  -1.7043200e-02
  -2.5972700e-01  -1.4149900e-02  -1.3531800e-02
  -1.9770300e-01  -1.4149900e-02  -4.6364200e-03
  -1.9957600e-01  -1.6954500e-02   2.8544500e-03
  -2.1759800e-01  -1.6019600e-02   3.5567200e-03
  -1.7617100e-01  -1.8356800e-02   1.1047600e-02
  -1.7055300e-01  -3.6072000e-04   1.8772500e-02
  -1.7289400e-01   3.4042600e-04   2.3922500e-02
  -1.6259600e-01   1.4129600e-02   2.2752100e-02
  -1.5463800e-01   5.5497200e-02   1.4793000e-02
  -1.1695500e-01   4.1006900e-02   1.4090800e-02
  -1.3170100e-01   3.3060600e-02   1.7133900e-02
  -1.1976400e-01   5.1056600e-02   2.7668000e-02
  -6.6400100e-02   5.4562400e-02   3.0242900e-02
  -9.4252300e-02   6.2508700e-02   3.3286100e-02
  -7.4357900e-02   5.6665800e-02   5.1311000e-02
  -1.9121600e-02   7.6297900e-02   5.2481500e-02
  -3.9250000e-02   6.8117900e-02   4.4990600e-02
  -3.2696600e-02   7.3493300e-02   3.8904300e-02
   2.7454800e-02   9.8500800e-02   2.4390700e-02
   2.4178100e-02   9.6397400e-02   9.8771400e-03
   1.9029000e-02   9.7566000e-02   1.3154400e-02
   7.2626900e-02   8.0037300e-02   2.4156600e-02
   8.2457100e-02   9.3826500e-02   2.5561100e-02
   8.1520900e-02   7.4661900e-02   2.9540700e-02
   1.0656400e-01   8.0972200e-02   4.0074700e-02
   1.0867100e-01   1.2140500e-01   4.2883800e-02
   1.1756500e-01   1.4711400e-01   3.3052000e-02
   1.4097000e-01   1.7258900e-01   1.5963500e-02
   1.5524700e-01   1.6347400e-01  -6.5689600e-04
   1.9152500e-01   1.5669600e-01  -1.1190900e-02
   2.0018500e-01   1.4711400e-01  -1.6575000e-02
   1.9316400e-01   1.6207100e-01  -1.2595500e-02
   2.5659200e-01   1.3449300e-01  -1.2361400e-02
   2.5940100e-01   1.3192200e-01  -6.5091400e-03
   2.3669700e-01   1.7889900e-01   1.8304400e-02
   3.0036000e-01   1.7539300e-01   2.4390700e-02
   3.0504100e-01   1.8193700e-01   2.1581600e-02
   2.8818900e-01   1.9292200e-01   1.8070300e-02
   3.3757400e-01   2.1395600e-01   1.6840000e-03
   3.4810600e-01   2.1465700e-01  -1.2595500e-02
   3.3734000e-01   2.1138500e-01  -2.3597700e-02
   3.6846900e-01   2.1535800e-01  -3.3663500e-02
   3.9444900e-01   2.1535800e-01  -5.6136100e-02
   3.8859700e-01   2.2984900e-01  -7.8608800e-02
   3.8438400e-01   2.2447300e-01  -8.4226900e-02
   4.3494000e-01   2.3662700e-01  -7.7438300e-02
   4.6677100e-01   2.4130100e-01  -7.9545100e-02
   4.2510900e-01   2.3475700e-01  -8.6567800e-02
   4.7589900e-01   2.1535800e-01  -7.1117900e-02
   5.4447600e-01   2.1325500e-01  -6.0817900e-02
   4.6887700e-01   2.5672600e-01  -4.1856700e-02
   4.9860200e-01   2.3452300e-01  -2.7109000e-02
   5.7537100e-01   2.3499100e-01  -3.1322600e-02
   5.1100700e-01   2.5859600e-01  -2.6172700e-02
   5.4119900e-01   2.5742700e-01  -2.7343100e-02
   6.1188300e-01   2.5345400e-01  -2.5236300e-02
   5.7303000e-01   2.4270300e-01  -3.9984000e-02
   5.8028600e-01   2.8313600e-01  -5.6604300e-02
   6.3037300e-01   2.6186800e-01  -5.0049800e-02
   6.0813800e-01   2.5438900e-01  -4.5133900e-02
   6.1422400e-01   2.8453800e-01  -6.4329300e-02
   6.5494900e-01   2.6654200e-01  -7.4863300e-02
   6.5377800e-01   2.5135100e-01  -5.1922500e-02
   6.4371400e-01   2.5275300e-01  -4.0920300e-02
   6.4792700e-01   2.7892900e-01  -3.8813500e-02
   6.8912000e-01   2.8944600e-01  -5.1454400e-02
   6.7437500e-01   3.1538900e-01  -6.8074700e-02
   6.5214000e-01   2.8757700e-01  -7.6736000e-02
   7.0784400e-01   2.5696000e-01  -8.0481500e-02
   7.1533400e-01   2.7776000e-01  -7.5097400e-02
   6.9309900e-01   2.5766100e-01  -7.4395100e-02
   7.2024900e-01   2.6537400e-01  -6.5499700e-02
   7.3429200e-01   2.5999800e-01  -6.7372500e-02
   7.0316300e-01   2.6303600e-01  -5.6370200e-02
   7.1463200e-01   2.7705900e-01  -2.5236300e-02
   7.4716500e-01   2.7145000e-01  -2.1490900e-02
   7.2516400e-01   2.7729300e-01  -2.8747700e-02
   7.1884500e-01   2.6140000e-01  -2.5470400e-02
   7.4412300e-01   2.8009800e-01  -1.3531800e-02
   7.3803700e-01   2.5883000e-01  -1.2595500e-02
   7.2469600e-01   2.4691000e-01  -1.5404500e-02
   7.4950600e-01   2.5088300e-01  -1.2829600e-02
   7.2890900e-01   2.4878000e-01  -1.5638600e-02
   7.0410000e-01   2.6140000e-01  -9.7863900e-03
   7.4880400e-01   2.2587600e-01  -7.9136800e-03
   7.2984500e-01   2.5929700e-01  -1.1190900e-02
   7.0597200e-01   2.4994800e-01  -1.3063600e-02
   7.1861100e-01   2.4153500e-01  -8.6159400e-03
   7.0058900e-01   2.4387200e-01   8.7066900e-03
   7.1041900e-01   2.0928200e-01   8.0044200e-03
   6.9169500e-01   2.1886400e-01  -1.3591600e-03
   6.5822500e-01   1.9268800e-01  -1.5932500e-03
   6.9029100e-01   1.8707900e-01  -1.1250700e-03
   6.7039600e-01   1.8404100e-01   3.3226300e-03
   6.0884000e-01   2.0110200e-01   1.6431600e-02
   6.6314100e-01   1.7492600e-01   1.5963500e-02
   6.5377800e-01   1.5926700e-01   9.1748700e-03
   5.5711500e-01   1.8544300e-01   2.0411200e-02
   6.1562800e-01   1.3729800e-01   2.3454300e-02
   6.1422400e-01   1.4758100e-01   2.0879400e-02
   5.2083700e-01   1.4571100e-01   2.3220300e-02
   5.4728500e-01   1.3776500e-01   2.4156600e-02
   5.5360400e-01   1.5973400e-01   8.9407800e-03
   4.9204800e-01   1.7212100e-01  -6.9773200e-03
   4.9555900e-01   1.4010200e-01  -1.0722800e-02
   5.1077300e-01   8.8918500e-02  -1.7043200e-02
   4.6021700e-01   1.1673100e-01  -1.0254600e-02
   4.3774800e-01   8.1673300e-02  -5.8068700e-03
   4.4828100e-01   8.7983700e-02   1.2158200e-03
   4.3072700e-01   1.2070400e-01  -3.2318800e-03
   3.7198000e-01   1.0901800e-01  -1.3531800e-02
   3.6051100e-01   1.0364300e-01  -2.0614300e-03
   3.9444900e-01   6.0872700e-02   2.1521800e-03
   3.2516900e-01   6.4612100e-02   1.6899800e-02
   3.0550900e-01   3.6566300e-02   3.1413400e-02
   3.4389300e-01   4.8953200e-02   1.4324800e-02
   2.6384800e-01   5.4328700e-02   2.8544500e-03
   2.4137900e-01   3.1424600e-02   1.6665700e-02
   2.9521100e-01   4.7550900e-02   2.1581600e-02
   2.2288800e-01   1.5765600e-02   1.7602100e-02
   1.8941900e-01   3.1450100e-03   2.1581600e-02
   2.5120900e-01  -7.1384600e-03   1.9943000e-02
   1.7209900e-01   1.4363300e-02   2.8838400e-02
   1.4541700e-01  -1.7889400e-02   4.0542900e-02
   1.9854700e-01  -2.8874000e-02   3.5627000e-02
   1.2341600e-01  -2.6978700e-03   3.4924700e-02
   1.0703300e-01  -3.1912300e-02   3.7265600e-02
   1.3020400e-01  -3.4483200e-02   4.1479200e-02
   7.0052300e-02  -6.5567300e-02   6.0206400e-02
   5.5307000e-02  -5.4115200e-02   6.6526800e-02
   4.9455700e-02  -7.6551900e-02   6.4420000e-02
  -2.2697900e-03  -8.3563400e-02   7.8933600e-02
   9.4328100e-03  -6.1360400e-02   8.5254000e-02
  -1.7717200e-02  -8.4030800e-02   8.3615400e-02
  -8.5358300e-02  -5.5985000e-02   8.4083600e-02
  -5.6335800e-02  -7.6785600e-02   7.3315400e-02
  -7.8570800e-02  -6.8839300e-02   6.2079100e-02
  -1.1882800e-01  -5.9023300e-02   5.1545100e-02
  -8.9571300e-02  -7.0007900e-02   3.7265600e-02
  -1.0735900e-01  -8.9406200e-02   2.0879400e-02
  -1.4644600e-01  -1.0927200e-01   1.0579400e-02
  -1.4059500e-01  -8.8003900e-02   8.7066900e-03
  -1.3216900e-01  -1.1768600e-01  -4.8705100e-03
  -1.6914900e-01  -9.9222300e-02  -9.7863900e-03
  -1.8927700e-01  -1.3100800e-01  -8.1477600e-03
  -1.9302200e-01  -1.5975500e-01  -2.0320400e-02
  -2.2017200e-01  -1.4900400e-01  -3.3195400e-02
  -2.5013100e-01  -1.6606500e-01  -4.1154400e-02
  -2.5762100e-01  -1.6302700e-01  -3.9984000e-02
  -2.4966300e-01  -1.8032100e-01  -5.4497500e-02
  -2.9132400e-01  -1.6536400e-01  -6.1754300e-02
  -3.0162300e-01  -2.1117200e-01  -5.5668000e-02
  -2.7306800e-01  -2.1981900e-01  -5.2156600e-02
  -3.1309100e-01  -2.1654700e-01  -4.6772600e-02
  -3.5171000e-01  -2.3594600e-01  -3.6940800e-02
  -3.0841000e-01  -2.3851700e-01  -1.8681800e-02
  -3.1566600e-01  -2.6399200e-01  -2.1959100e-02
  -3.8471100e-01  -2.1654700e-01  -2.1725000e-02
  -3.5615700e-01  -2.4108700e-01  -2.0554500e-02
  -3.5826300e-01  -2.7544400e-01  -1.8213600e-02
  -4.1186100e-01  -2.7380800e-01  -1.0488700e-02
  -3.9969000e-01  -2.8268900e-01  -1.6575000e-02
  -4.0601000e-01  -2.7894900e-01  -1.3765900e-02
  -4.3830900e-01  -2.9834800e-01  -1.8681800e-02
  -4.5165000e-01  -2.8502600e-01  -2.1959100e-02
  -4.4509600e-01  -2.9133600e-01  -3.2727200e-02
  -4.6335300e-01  -3.0045100e-01  -4.5836200e-02
  -4.9026900e-01  -3.1798000e-01  -3.2024900e-02
  -4.6545900e-01  -3.2569200e-01  -2.5704500e-02
  -4.7224700e-01  -3.1657700e-01  -2.5938600e-02
  -5.1601400e-01  -3.3597600e-01  -2.9449900e-02
  -4.8558800e-01  -3.2522500e-01  -2.0788600e-02
  -4.7341700e-01  -3.4252000e-01  -1.0722800e-02
  -5.3895100e-01  -3.3948200e-01  -1.1659100e-02
  -5.1788700e-01  -3.4298700e-01  -2.5296100e-03
  -4.8909800e-01  -3.7033200e-01   5.1355300e-04
