**************************************************************************************
  	RED ACELEROGRÁFICA DE LA UNIVERSIDAD AUTONOMA METROPOLITANA (RA-UAM)
	   UNIDAD AZCAPOTZALCO. DIVISIÓN CBI-DEPARTAMENTO DE MATERIALES
     Av. San Pablo 420, Col. Nueva el Rosario, Azcapotzalco, C.P. 02128, Ciudad de México
		Área de Estructuras. e-mail: agb@azc.uam.mx
**************************************************************************************
ARCHIVO ESTANDAR DE ACELERACION:
VERSION DEL FORMATO                    : 2.0
NOMBRE DEL ARCHIVO                     : RUML202208.121
FECHA Y HORA DE CREACION               : 11:30 a. m. 17/08/2022
REF. CATALOGO ACELEROGRAMAS, SMIS 1999 : REGISTRO NO.      /PAG.    


================================================================================
DATOS DE LA ESTACION:
NOMBRE DE LA ESTACION                  : UAM-LERMA.
CLAVE DE LA ESTACION                   : RUML
LOCALIZACION DE LA ESTACION            : AV. DE LAS GARZAS 10, EL PANTEON, C.P.52005,
                                       : LERMA DE VILLADA, ESTADO DE MEXICO.   
                                       : 
                                       : 
                                       : 
COORDENADAS DE LA ESTACION             : 19.291278 LAT. N
                                       : 99.500578 LONG. W
ALTITUD (msnm)                         : 2570
TIPO DE SUELO                          : DEPOSITOS LACUSTRES
                                       : 
                                       : 
INSTITUCION RESPONSABLE                : UNIVERSIDAD AUTONOMA METROPOLITANA
                                       : 

================================================================================
DATOS DEL ACELEROGRAFO: 
MODELO DEL ACELEROGRAFO                : ETNA2 KINEMETRICS
NUMERO DE SERIE DEL ACELEROGRAFO       : 103733
NUMERO DE CANALES                      : 3
ORIENTACION C1-C6 (rumbo;orientacion)  : /N90E/N00E/V 
ORIENTACION C7-C12 (rumbo;orientacion) : 
VEL. DE MUESTREO, C1-C6 (muestras/s)   : /200/200/200
VEL. DE MUESTREO, C7-C12 (muestras/s)  : 
ESC. COMPLETA DE SENSORES, C1-C6, (g)  : /2/2/2
ESC. COMPLETA DE SENSORES, C7-C12 (g)  : 
FREC. NAT. DE SENSORES, C1-C6, (Hz)    : /212/206/208   
FREC. NAT. DE SENSORES, C7-C12 (Hz)    : 
AMORTIGUAMIENTO DE SENSORES, C1-C6     : /0.7/0.7/0.7      
AMORTIGUAMIENTO DE SENSORES, C7-C12    : 
INTERVALO DE MUESTREO, C1-C6 (s)       : /0.005/0.005/0.005
INTERVALO DE MUESTREO, C7-C12 (s)      : 
UMBRAL DE DISPARO, C1-C6 (Gal)         : /2/2/2
UMBRAL DE DISPARO, C7-C12 (Gal)        : 
MEMORIA DE PREEVENTO (s)               : 50
TIEMPO DE POSEVENTO (s)                : 60


================================================================================
DATOS DEL SISMO:
FECHA DEL SISMO [GMT]                  : 2022/08/12
HORA EPICENTRO (GMT)                   : 08:17:25
MAGNITUD(ES)                           : /M=5.1
COORDENADAS DEL EPICENTRO              : 18.2800 LAT. N
                                       : -100.9800 LONG. W
PROFUNDIDAD FOCAL (Km)                 : 56.0
FUENTE DE LOS DATOS EPICENTRALES       : SSN
                                       : INSTITUTO DE GEOFISICA, UNAM

================================================================================
DATOS DE ESTE REGISTRO:
HORA DE LA PRIMERA MUESTRA (GMT)       : 08:17:04.000
EXACTITUD DEL TIEMPO (s)               : 
DURACION DEL REGISTRO (s), C1-C6       : /217/217/217
DURACION DEL REGISTRO (s), C7-C12      : 
NUM. TOTAL DE MUESTRAS, C1-C6          : /43400/43400/43400
NUM. TOTAL DE MUESTRAS, C7-C12         : 
ACEL. MAX.(Gal), C1-C6                 : /1.558/1.763/1.121
ACEL. MAX., C1-C6, EN LA MUESTRA       : /17532/17122/13073
ACEL. MAX.(Gal), C7-C12                : 
ACEL. MAX., C7-C12,EN LA MUESTRA       : 
UNIDADES DE LOS DATOS                  : Gal (cm/s/s)
FACTOR DE DECIMACION                   : 1
FORMATO DATOS (FORTRAN,16 campos/dato) : 3E16.7


================================================================================
CALIDAD DEL ACELEROGRAMA:
REGISTRO DIGITAL COMPLETO CON TIEMPO ABSOLUTO CORRECTO


================================================================================
COMENTARIOS:














================================================================================
DATOS DE ACELERACION:
---------+---------+---------+---------+---------+---------+---------+---------+
   CANAL-1   	     CANAL-2          CANAL-3
     N90E              N00E              V
---------+---------+---------+---------+---------+---------+---------+---------+
[...]
  -4.2347700e-02   4.9072000e-01   2.5094000e-01
  -7.6051200e-02   5.3091900e-01   2.1489000e-01
  -1.0226500e-01   5.6878100e-01   1.6643400e-01
  -9.8286200e-02   6.2300300e-01   1.0369800e-01
  -1.0156300e-01   6.6624100e-01   3.8152600e-02
  -1.1818100e-01   7.0667300e-01  -4.4012900e-02
  -1.1232900e-01   7.6066200e-01  -1.0698300e-01
  -9.3371100e-02   8.0623600e-01  -1.6573900e-01
  -9.5009500e-02   8.4853900e-01  -2.1326000e-01
  -8.3540900e-02   8.9902100e-01  -2.3596600e-01
  -4.0007200e-02   9.5043800e-01  -2.4205300e-01
  -2.7134300e-02   9.9671400e-01  -2.2566600e-01
  -2.8538600e-02   1.0640200e+00  -1.9593700e-01
   2.8804100e-02   1.1056300e+00  -1.4303300e-01
   6.0635200e-02   1.1507300e+00  -9.3171700e-02
   3.7464100e-02   1.2098600e+00  -3.6990200e-02
   6.5550300e-02   1.2227200e+00   2.7150400e-02
   1.2125500e-01   1.2654900e+00   7.7713800e-02
   8.6146900e-02   1.2809100e+00   1.3693800e-01
   8.8253400e-02   1.2736700e+00   1.9780200e-01
   1.2851000e-01   1.2970400e+00   2.4579000e-01
   1.0557300e-01   1.2589400e+00   2.8535100e-01
   1.0627500e-01   1.2220200e+00   3.2936000e-01
   1.1540300e-01   1.2164100e+00   3.6681400e-01
   1.3412800e-01   1.1472300e+00   3.9350100e-01
   1.3389400e-01   1.0993200e+00   4.0707800e-01
   1.3623400e-01   1.0768800e+00   4.1222800e-01
   1.8749200e-01   1.0084000e+00   4.1012100e-01
   1.9030000e-01   9.9227300e-01   3.9677800e-01
   1.8304500e-01   9.4109000e-01   3.9022300e-01
   2.4530200e-01   8.9995600e-01   3.8203000e-01
   2.4577000e-01   9.0392900e-01   3.5885500e-01
   2.3523800e-01   8.3848900e-01   3.3638300e-01
   2.8883600e-01   8.4199500e-01   3.2444400e-01
   2.8087800e-01   8.2166100e-01   3.0735600e-01
   2.8930400e-01   7.8099500e-01   2.8418100e-01
   3.0030500e-01   7.9688700e-01   2.6077200e-01
   3.0826200e-01   7.5318300e-01   2.4274700e-01
   3.1575200e-01   7.4360000e-01   2.1512400e-01
   2.9047400e-01   7.4266600e-01   1.8445900e-01
   3.2136900e-01   7.1532100e-01   1.6339100e-01
   3.2956100e-01   7.0877700e-01   1.3366100e-01
   3.0007100e-01   6.8447000e-01   1.2289300e-01
   3.2371000e-01   6.7535600e-01   1.3085200e-01
   3.6232800e-01   6.7208400e-01   1.2523400e-01
   3.3120000e-01   6.4917900e-01   1.2968200e-01
   3.5975400e-01   6.3679300e-01   1.3085200e-01
   4.0118100e-01   6.3211800e-01   1.1048600e-01
   3.8667000e-01   6.0734400e-01   9.5504600e-02
   4.1943700e-01   5.5826400e-01   7.2095600e-02
   4.3465100e-01   5.4517600e-01   4.2366200e-02
   4.4050200e-01   5.0614600e-01  -2.3449100e-03
   4.3184200e-01   4.4491200e-01  -4.7992400e-02
   4.3745900e-01   4.1312700e-01  -6.4144600e-02
   4.1967100e-01   3.5119200e-01  -8.5914900e-02
   3.8994700e-01   3.0795500e-01  -1.0183300e-01
   3.5811600e-01   2.4765700e-01  -9.7619400e-02
   3.3049700e-01   1.9553800e-01  -8.1701300e-02
   2.9375100e-01   1.5884500e-01  -6.4612800e-02
   2.1300300e-01   1.0298700e-01  -5.2674200e-02
   2.1253500e-01   7.0266700e-02  -5.0567400e-02
   1.6010700e-01   1.1370400e-02  -6.4144600e-02
   9.1998200e-02  -4.5222000e-03  -9.1064900e-02
   7.7018900e-02  -4.2851500e-02  -1.2430600e-01
   6.1805500e-02  -8.3751700e-02  -1.6363300e-01
   1.4292900e-02  -8.8659700e-02  -2.1489800e-01
   1.3356700e-02  -1.2932600e-01  -2.5609800e-01
   5.6656300e-02  -1.0034500e-01  -2.9870200e-01
   2.2016600e-02  -1.5012700e-01  -3.0642700e-01
   6.7188700e-02  -1.5012700e-01  -3.0572500e-01
   1.0159400e-01  -7.7207700e-02  -3.2936800e-01
   1.4278800e-01  -1.2161400e-01  -3.3381600e-01
   1.7344800e-01  -8.0012200e-02  -3.3639100e-01
   1.9006600e-01  -6.3885900e-02  -3.3451800e-01
   2.6683500e-01  -6.3184700e-02  -3.4224300e-01
   2.5115400e-01  -1.1299900e-02  -3.4809500e-01
   2.7479300e-01  -3.4671500e-02  -3.4973400e-01
   3.2113500e-01  -4.5222000e-03  -3.4762700e-01
   2.9281500e-01   2.2555400e-03  -3.4224300e-01
   2.9585800e-01  -2.9296000e-02  -3.3475200e-01
   3.3845500e-01  -1.3403400e-02  -3.1415200e-01
   3.0498600e-01  -5.1031500e-02  -3.0947100e-01
   3.0404900e-01  -8.1882000e-02  -2.9121200e-01
   3.2839100e-01  -1.0502000e-01  -2.8395500e-01
   3.0007100e-01  -1.5597000e-01  -2.9776600e-01
   3.0685800e-01  -2.0224500e-01  -3.1134300e-01
   2.8766600e-01  -2.5833700e-01  -3.3264500e-01
   2.9866600e-01  -3.1863600e-01  -3.5418200e-01
   2.8064400e-01  -3.9108700e-01  -3.8812500e-01
   2.3968500e-01  -4.4227100e-01  -4.0497900e-01
   2.6121800e-01  -5.0888000e-01  -4.1996100e-01
   2.3664200e-01  -5.6847700e-01  -4.4056100e-01
   1.8070400e-01  -6.0937700e-01  -4.4243300e-01
   1.9474700e-01  -6.7201300e-01  -4.4734900e-01
   1.8561900e-01  -7.0333100e-01  -4.5039300e-01
   1.2663800e-01  -7.4399700e-01  -4.4805200e-01
   1.4044700e-01  -7.7484800e-01  -4.4056100e-01
   1.1985000e-01  -8.0476300e-01  -4.3143100e-01
   8.9423700e-02  -8.3514600e-01  -4.2955900e-01
   6.2507700e-02  -8.5337600e-01  -4.1832200e-01
   4.1208900e-02  -8.8399300e-01  -3.9819100e-01
   2.6229600e-02  -9.0011900e-01  -3.7876100e-01
  -3.7900700e-02  -9.3120300e-01  -3.5020200e-01
  -5.2880100e-02  -9.5317300e-01  -3.1064100e-01
  -9.1732700e-02  -9.6836400e-01  -2.6827100e-01
  -1.3737300e-01  -1.0055200e+00  -2.2309100e-01
  -1.7669400e-01  -1.0188500e+00  -1.6339900e-01
  -1.9916300e-01  -1.0501600e+00  -9.6683000e-02
  -2.3544100e-01  -1.0768100e+00  -3.7224300e-02
  -2.9769900e-01  -1.0817200e+00   3.2768500e-02
  -2.8061300e-01  -1.1158400e+00   9.7377300e-02
  -3.2578500e-01  -1.1135000e+00   1.4653600e-01
  -3.7821300e-01  -1.1364100e+00   1.9335400e-01
  -3.6861600e-01  -1.1469200e+00   2.2519000e-01
  -3.9038300e-01  -1.1410800e+00   2.4485400e-01
  -4.2783200e-01  -1.1642200e+00   2.4391700e-01
  -4.4047000e-01  -1.1567400e+00   2.4883300e-01
  -4.3859800e-01  -1.1667900e+00   2.4391700e-01
  -4.6504600e-01  -1.1745000e+00   2.1980600e-01
  -4.8657900e-01  -1.2030100e+00   2.2472200e-01
  -4.8283400e-01  -1.2126000e+00   2.1114500e-01
  -4.8447200e-01  -1.2067500e+00   2.0295200e-01
  -5.2262300e-01  -1.2331600e+00   2.1816800e-01
  -5.2543100e-01  -1.2537300e+00   2.3268100e-01
  -5.1606900e-01  -1.2696200e+00   2.5117400e-01
  -5.6732700e-01  -1.2876200e+00   2.6802900e-01
  -5.7224200e-01  -1.3173000e+00   3.0407800e-01
  -5.6522000e-01  -1.3317900e+00   3.3614900e-01
  -6.0922200e-01  -1.3654500e+00   3.6611200e-01
  -6.1858400e-01  -1.3984000e+00   4.0637600e-01
  -6.0992400e-01  -1.4124200e+00   4.3025300e-01
  -6.3730800e-01  -1.4397700e+00   4.3961600e-01
  -6.5977700e-01  -1.4594000e+00   4.4781000e-01
  -6.5182000e-01  -1.4774000e+00   4.5038500e-01
  -6.5205400e-01  -1.4825400e+00   4.3961600e-01
  -6.7499100e-01  -1.4818400e+00   4.2463500e-01
  -6.7358600e-01  -1.4848700e+00   4.1948500e-01
  -6.4971300e-01  -1.4622000e+00   4.1058900e-01
  -6.6118200e-01  -1.4430400e+00   4.0122600e-01
  -6.5767100e-01  -1.4252800e+00   4.1105700e-01
  -6.2022300e-01  -1.3726900e+00   4.2416600e-01
  -6.0103000e-01  -1.3430100e+00   4.3868000e-01
  -5.8488100e-01  -1.2878500e+00   4.5413000e-01
  -5.4415600e-01  -1.2205400e+00   4.6185500e-01
  -4.9500500e-01  -1.1866500e+00   4.5740700e-01
  -4.6457800e-01  -1.1081300e+00   4.4172300e-01
  -4.0817100e-01  -1.0501600e+00   4.1644200e-01
  -3.3889200e-01  -1.0048200e+00   3.8390300e-01
  -2.8927300e-01  -9.4031800e-01   3.4012800e-01
  -2.2210000e-01  -8.9754800e-01   2.8652200e-01
  -1.3058500e-01  -8.4870200e-01   2.4204500e-01
  -5.9433500e-02  -8.0499700e-01   1.9288600e-01
  -3.2610000e-03  -7.6923900e-01   1.4115200e-01
   1.0276500e-01  -7.2086000e-01   9.5270500e-02
   1.7930000e-01  -6.8930800e-01   4.3068500e-02
   2.2985500e-01  -6.6266400e-01  -7.0628200e-04
   3.0451800e-01  -6.3742300e-01  -4.8226500e-02
   3.7239300e-01  -6.1522000e-01  -1.0300300e-01
   4.0984100e-01  -5.9979500e-01  -1.6012100e-01
   4.2762900e-01  -5.9418600e-01  -2.1747300e-01
   4.8192900e-01  -5.8343500e-01  -2.6920700e-01
   4.8988700e-01  -5.8764200e-01  -3.3124100e-01
   4.7443900e-01  -5.7899400e-01  -3.8484700e-01
   5.0276000e-01  -5.7151500e-01  -4.3424000e-01
   5.0463200e-01  -5.7245000e-01  -4.8831500e-01
   4.7443900e-01  -5.5819400e-01  -5.2342900e-01
   4.7912100e-01  -5.4627400e-01  -5.3747400e-01
   4.9503600e-01  -5.2383800e-01  -5.4309200e-01
   4.5712000e-01  -4.9836300e-01  -5.3653800e-01
   4.4752300e-01  -4.7055000e-01  -5.1125600e-01
   4.5875800e-01  -4.2217100e-01  -4.7544000e-01
   4.3277800e-01  -3.6841700e-01  -4.4524300e-01
   4.0773500e-01  -3.2634800e-01  -4.1153400e-01
   4.0890500e-01  -2.5202700e-01  -3.7571800e-01
   4.0422400e-01  -1.7513400e-01  -3.6120400e-01
   3.6443500e-01  -1.1600400e-01  -3.3615700e-01
   3.5366900e-01  -2.2752000e-02  -3.1298200e-01
   3.5226400e-01   7.2603800e-02  -3.0104300e-01
   3.1294300e-01   1.7286800e-01  -2.8746600e-01
   2.8790000e-01   2.5770600e-01  -2.6452500e-01
   2.9609200e-01   3.7035700e-01  -2.1630300e-01
   2.5372800e-01   4.6992000e-01  -1.7603900e-01
   2.2587600e-01   5.6527600e-01  -1.2992400e-01
   2.5209000e-01   6.9545500e-01  -7.6317200e-02
   2.0808800e-01   7.4523600e-01  -3.2542500e-02
   2.0879000e-01   8.5999100e-01   7.0186800e-03
   2.3032300e-01   9.6563000e-01   4.2366200e-02
   2.4179200e-01   1.0144800e+00   6.5072900e-02
   2.6075000e-01   1.1021200e+00   7.0222900e-02
   2.5606900e-01   1.1474600e+00   7.7245600e-02
   3.1809300e-01   1.2070600e+00   8.7311400e-02
   3.4173200e-01   1.2463200e+00   9.0354600e-02
   3.3400800e-01   1.2862900e+00   9.1056900e-02
   3.8432900e-01   1.3204100e+00   8.8481900e-02
   4.1265000e-01   1.3365400e+00   8.2629600e-02
   3.7637200e-01   1.3641100e+00   9.6206800e-02
   3.8947900e-01   1.3585100e+00   1.1235900e-01
   4.0656400e-01   1.3774400e+00   1.2359500e-01
   3.4898800e-01   1.3786000e+00   1.3412900e-01
   3.3120000e-01   1.3708900e+00   1.5566600e-01
   3.1107100e-01   1.3772000e+00   1.9054500e-01
   2.6519700e-01   1.3711300e+00   2.0927200e-01
   2.0387500e-01   1.3781400e+00   2.2472200e-01
   1.7134200e-01   1.3867800e+00   2.4017200e-01
   1.4325600e-01   1.3975400e+00   2.4953600e-01
   6.3443900e-02   1.4162300e+00   2.6592200e-01
   4.5187800e-02   1.4332900e+00   2.8699000e-01
   3.6293800e-02   1.4763000e+00   2.9682200e-01
  -6.8643100e-04   1.4935900e+00   3.1391000e-01
  -9.8144700e-03   1.5155600e+00   3.3263700e-01
   1.5931300e-02   1.5782000e+00   3.4621500e-01
   3.6059800e-02   1.5859100e+00   3.6470800e-01
   3.4187300e-02   1.6305500e+00   3.8928700e-01
   9.7849500e-02   1.6513500e+00   4.2229400e-01
   1.6104400e-01   1.6765900e+00   4.4125500e-01
   1.8093800e-01   1.7072100e+00   4.6419600e-01
   2.4764300e-01   1.7025300e+00   4.7847500e-01
   3.2722100e-01   1.7569900e+00   4.8058200e-01
   3.6654100e-01   1.7203000e+00   4.7800700e-01
   4.0820300e-01   1.7284800e+00   4.5670500e-01
   4.5571500e-01   1.7630700e+00   4.2416600e-01
   4.8380200e-01   1.7081400e+00   3.6798500e-01
   4.9152500e-01   1.7048700e+00   3.0524900e-01
   5.0580200e-01   1.6772900e+00   2.3759700e-01
   5.1071800e-01   1.6387300e+00   1.5753800e-01
   4.6273700e-01   1.5983000e+00   8.6141000e-02
   4.4190600e-01   1.5272500e+00   2.7384500e-02
   4.3465100e-01   1.4828400e+00  -3.0903800e-02
   3.6701000e-01   1.4169300e+00  -8.2403600e-02
   3.0404900e-01   1.3290600e+00  -1.1189900e-01
   2.9656000e-01   1.2624500e+00  -1.3179600e-01
   2.3757900e-01   1.1855600e+00  -1.6035500e-01
   1.6478800e-01   1.1018900e+00  -1.8985100e-01
   1.6385200e-01   1.0224200e+00  -2.0576900e-01
   1.2055300e-01   9.2893700e-01  -2.1864400e-01
   6.6252500e-02   8.5578400e-01  -2.3198700e-01
   3.9570500e-02   7.8403300e-01  -2.3690300e-01
   3.8868400e-02   6.9896100e-01  -2.4252100e-01
  -6.5377300e-03   6.4193400e-01  -2.6452500e-01
  -5.7327100e-02   5.8210300e-01  -2.6990900e-01
  -3.4389900e-02   5.1713000e-01  -2.5960900e-01
  -7.9562000e-02   4.7482800e-01  -2.6429100e-01
  -1.3737300e-01   4.4654800e-01  -2.5960900e-01
  -1.3035100e-01   4.1055600e-01  -2.4228700e-01
  -1.4696900e-01   3.6638400e-01  -2.2473000e-01
  -2.1273800e-01   3.4932300e-01  -2.1372800e-01
  -2.3450500e-01   3.4721900e-01  -2.0506700e-01
  -2.4035600e-01   3.2992400e-01  -2.0108700e-01
  -3.0167800e-01   3.2665200e-01  -2.0998200e-01
  -3.3889200e-01   3.3436500e-01  -2.1794100e-01
  -3.3959400e-01   3.3693600e-01  -2.3807300e-01
  -3.8055300e-01   3.4651800e-01  -2.7435700e-01
  -4.3719400e-01   3.4394700e-01  -3.0478900e-01
  -4.2174600e-01   3.4324600e-01  -3.3288000e-01
  -4.2947000e-01   3.4815400e-01  -3.6705700e-01
  -4.8377000e-01   3.3810400e-01  -3.9912700e-01
  -4.6996100e-01   3.3974000e-01  -4.3002700e-01
  -4.5708800e-01   3.3226200e-01  -4.6701300e-01
  -4.7955700e-01   3.1823900e-01  -5.0704200e-01
  -4.7136500e-01   3.1917300e-01  -5.4543300e-01
  -4.4772600e-01   2.9650300e-01  -5.8827100e-01
  -4.3836400e-01   2.8061000e-01  -6.3228000e-01
  -4.4866200e-01   2.6845700e-01  -6.6598900e-01
  -4.2806600e-01   2.4929300e-01  -6.8658900e-01
  -4.0817100e-01   2.2872600e-01  -6.9923000e-01
  -4.3461900e-01   1.9694000e-01  -7.0601800e-01
  -4.3204500e-01   1.8221600e-01  -6.9431400e-01
  -4.1893800e-01   1.6328500e-01  -6.7020300e-01
  -4.5685400e-01   1.2472200e-01  -6.3789800e-01
  -4.9640900e-01   1.0065000e-01  -5.9833700e-01
  -4.9079200e-01   8.0082700e-02  -5.5877600e-01
  -5.3830400e-01   3.3573400e-02  -5.1781000e-01
  -6.0922200e-01   5.0601200e-03  -4.7169500e-01
  -6.1320100e-01  -3.3035500e-02  -4.1972700e-01
  -6.5813900e-01  -8.0246000e-02  -3.7384500e-01
  -7.2437600e-01  -1.0221500e-01  -3.3170900e-01
  -7.5737700e-01  -1.4264800e-01  -2.8442300e-01
  -7.8616500e-01  -1.6905800e-01  -2.3268900e-01
  -8.3765700e-01  -1.9032600e-01  -1.8259400e-01
  -8.9710600e-01  -2.0481600e-01  -1.2875300e-01
  -9.0108500e-01  -2.1673600e-01  -7.4678600e-02
  -9.3057600e-01  -2.4104200e-01  -2.4817500e-02
  -9.9564200e-01  -2.2187700e-01   3.3704900e-02
  -1.0026600e+00  -2.1930700e-01   8.1927400e-02
  -1.0080500e+00  -2.3379700e-01   1.1657300e-01
  -1.0555600e+00  -2.1112700e-01   1.4442900e-01
  -1.0637500e+00  -1.9570100e-01   1.6877500e-01
  -1.0295800e+00  -1.9032600e-01   1.7790400e-01
  -1.0504100e+00  -1.7677000e-01   1.7392500e-01
  -1.0431500e+00  -1.4989300e-01   1.8516100e-01
  -9.7153500e-01  -1.3540300e-01   1.8703400e-01
  -9.5140600e-01  -1.1553700e-01   1.8422500e-01
  -9.1536200e-01  -9.1931700e-02   1.8656500e-01
  -8.2197500e-01  -8.3985400e-02   1.9148100e-01
  -7.5293000e-01  -6.0613900e-02   1.9733400e-01
  -7.0284300e-01  -5.1265300e-02   1.9616300e-01
  -6.0524300e-01  -4.3085200e-02   2.0061100e-01
  -5.0904800e-01  -4.5889800e-02   1.9475900e-01
  -4.5474800e-01  -5.9445300e-02   1.8235200e-01
  -3.8102100e-01  -6.9728800e-02   1.7579700e-01
  -2.8950700e-01  -1.0852600e-01   1.8235200e-01
  -2.1952500e-01  -1.4428400e-01   1.8235200e-01
  -1.8886400e-01  -1.8682000e-01   1.9873800e-01
  -1.1747800e-01  -2.5997300e-01   2.4157700e-01
  -4.6560700e-02  -3.1629800e-01   2.6919900e-01
  -3.7900700e-02  -3.8477700e-01   3.2397600e-01
   5.3989300e-03  -4.4601000e-01   3.7734900e-01
   6.1805500e-02  -4.9041600e-01   4.1386700e-01
   7.2805900e-02  -5.8063000e-01   4.5834400e-01
   8.4508600e-02  -6.2597100e-01   4.9205200e-01
   1.3178700e-01  -6.7481800e-01   5.1827100e-01
   1.4746900e-01  -7.5311200e-01   5.3255000e-01
   1.5378800e-01  -8.0055600e-01   5.5057500e-01
   2.0130100e-01  -8.4566300e-01   5.6251300e-01
   2.3008900e-01  -8.7090500e-01   5.6532300e-01
