**************************************************************************************
  	RED ACELEROGRÁFICA DE LA UNIVERSIDAD AUTONOMA METROPOLITANA (RA-UAM)
	   UNIDAD AZCAPOTZALCO. DIVISIÓN CBI-DEPARTAMENTO DE MATERIALES
     Av. San Pablo 420, Col. Nueva el Rosario, Azcapotzalco, C.P. 02128, Ciudad de México
		Área de Estructuras. e-mail: agb@azc.uam.mx
**************************************************************************************
ARCHIVO ESTANDAR DE ACELERACION:
VERSION DEL FORMATO                    : 2.0
NOMBRE DEL ARCHIVO                     : RUML202206.021
FECHA Y HORA DE CREACION               : 11:30 a. m. 08/06/2022
REF. CATALOGO ACELEROGRAMAS, SMIS 1999 : REGISTRO NO.      /PAG.    


================================================================================
DATOS DE LA ESTACION:
NOMBRE DE LA ESTACION                  : UAM-LERMA.
CLAVE DE LA ESTACION                   : RUML
LOCALIZACION DE LA ESTACION            : AV. DE LAS GARZAS 10, EL PANTEON, C.P.52005,
                                       : LERMA DE VILLADA, ESTADO DE MEXICO.   
                                       : 
                                       : 
                                       : 
COORDENADAS DE LA ESTACION             : 19.291278 LAT. N
                                       : 99.500578 LONG. W
ALTITUD (msnm)                         : 2570
TIPO DE SUELO                          : DEPOSITOS LACUSTRES
                                       : 
                                       : 
INSTITUCION RESPONSABLE                : UNIVERSIDAD AUTONOMA METROPOLITANA
                                       : 

================================================================================
DATOS DEL ACELEROGRAFO: 
MODELO DEL ACELEROGRAFO                : ETNA2 KINEMETRICS
NUMERO DE SERIE DEL ACELEROGRAFO       : 103733
NUMERO DE CANALES                      : 3
ORIENTACION C1-C6 (rumbo;orientacion)  : /N90E/N00E/V 
ORIENTACION C7-C12 (rumbo;orientacion) : 
VEL. DE MUESTREO, C1-C6 (muestras/s)   : /200/200/200
VEL. DE MUESTREO, C7-C12 (muestras/s)  : 
ESC. COMPLETA DE SENSORES, C1-C6, (g)  : /2/2/2
ESC. COMPLETA DE SENSORES, C7-C12 (g)  : 
FREC. NAT. DE SENSORES, C1-C6, (Hz)    : /212/206/208   
FREC. NAT. DE SENSORES, C7-C12 (Hz)    : 
AMORTIGUAMIENTO DE SENSORES, C1-C6     : /0.7/0.7/0.7      
AMORTIGUAMIENTO DE SENSORES, C7-C12    : 
INTERVALO DE MUESTREO, C1-C6 (s)       : /0.005/0.005/0.005
INTERVALO DE MUESTREO, C7-C12 (s)      : 
UMBRAL DE DISPARO, C1-C6 (Gal)         : /2/2/2
UMBRAL DE DISPARO, C7-C12 (Gal)        : 
MEMORIA DE PREEVENTO (s)               : 50
TIEMPO DE POSEVENTO (s)                : 60


================================================================================
DATOS DEL SISMO:
FECHA DEL SISMO [GMT]                  : 2022/06/02
HORA EPICENTRO (GMT)                   : 21:05:56
MAGNITUD(ES)                           : /M=4.5
COORDENADAS DEL EPICENTRO              : 16.6900 LAT. N
                                       : -99.8800 LONG. W
PROFUNDIDAD FOCAL (Km)                 : 16.0
FUENTE DE LOS DATOS EPICENTRALES       : SSN
                                       : INSTITUTO DE GEOFISICA, UNAM

================================================================================
DATOS DE ESTE REGISTRO:
HORA DE LA PRIMERA MUESTRA (GMT)       : 21:06:27.000
EXACTITUD DEL TIEMPO (s)               : 
DURACION DEL REGISTRO (s), C1-C6       : /135/135/135
DURACION DEL REGISTRO (s), C7-C12      : 
NUM. TOTAL DE MUESTRAS, C1-C6          : /27000/27000/27000
NUM. TOTAL DE MUESTRAS, C7-C12         : 
ACEL. MAX.(Gal), C1-C6                 : /0.779/-0.532/0.257
ACEL. MAX., C1-C6, EN LA MUESTRA       : /12689/13746/11196
ACEL. MAX.(Gal), C7-C12                : 
ACEL. MAX., C7-C12,EN LA MUESTRA       : 
UNIDADES DE LOS DATOS                  : Gal (cm/s/s)
FACTOR DE DECIMACION                   : 1
FORMATO DATOS (FORTRAN,16 campos/dato) : 3E16.7


================================================================================
CALIDAD DEL ACELEROGRAMA:
REGISTRO DIGITAL COMPLETO CON TIEMPO ABSOLUTO CORRECTO


================================================================================
COMENTARIOS:














================================================================================
DATOS DE ACELERACION:
---------+---------+---------+---------+---------+---------+---------+---------+
   CANAL-1   	     CANAL-2          CANAL-3
     N90E              N00E              V
---------+---------+---------+---------+---------+---------+---------+---------+
[...]
   1.2728800e-01  -2.3716000e-01   1.0964700e-01
   1.0762800e-01  -2.2524100e-01   9.3963500e-02
   8.3052100e-02  -1.9485800e-01   8.7409000e-02
   9.4052500e-02  -1.5793100e-01   8.6472600e-02
   9.8031400e-02  -1.3385800e-01   7.1725000e-02
   5.3561500e-02  -9.7632400e-02   4.8784200e-02
   6.2923600e-02  -7.1923700e-02   5.4168200e-02
   7.3456000e-02  -3.8502400e-02   4.8081900e-02
   3.3901100e-02  -2.4245800e-02   1.6245700e-02
   3.9050300e-02  -8.1194300e-03   8.2866600e-03
   5.5668000e-02   1.2213800e-02  -3.8860000e-03
   3.4603300e-02   3.4416700e-02  -1.9570000e-02
   1.1666200e-02   5.5918600e-02  -3.1508600e-02
   4.1390800e-02   7.2746100e-02  -3.3615400e-02
   4.2561100e-02   8.1393500e-02  -2.9635900e-02
  -4.2493600e-03   9.4014100e-02  -4.0404000e-02
   1.7049400e-02   1.3771900e-01  -5.6088000e-02
   2.7113600e-02   1.3281100e-01  -7.0133400e-02
  -7.5260900e-03   1.2182600e-01  -7.0835600e-02
   1.8359900e-03   1.6015600e-01  -7.5751500e-02
   1.8687700e-02   1.6202500e-01  -8.5817400e-02
   1.6019400e-03   1.5805200e-01  -9.2840100e-02
  -1.4547700e-02   1.7464600e-01  -9.6585500e-02
   1.4474800e-02   1.8422800e-01  -9.0031000e-02
   1.3304500e-02   1.9895200e-01  -1.0197000e-01
  -2.8356700e-02   1.8586400e-01  -1.1835600e-01
  -3.5472100e-03   1.8165700e-01  -1.0899200e-01
   2.3836900e-02   1.9591400e-01  -1.0805600e-01
  -1.7356300e-02   1.8820100e-01  -1.2444200e-01
  -2.7888600e-02   1.7885300e-01  -1.2186700e-01
   7.4532400e-03   1.6576500e-01  -1.0501300e-01
  -1.3611500e-02   1.7534700e-01  -1.0220400e-01
  -2.7186500e-02   1.7441200e-01  -1.0197000e-01
  -3.0791000e-03   1.5244300e-01  -9.6819600e-02
  -1.1739000e-02   1.5384500e-01  -8.3944700e-02
  -3.6080500e-02   1.6973800e-01  -7.7858300e-02
  -2.8356700e-02   1.6132400e-01  -8.7690100e-02
  -9.8666200e-03   1.2463100e-01  -9.0265100e-02
  -3.6782600e-02   1.3327800e-01  -8.9094600e-02
  -3.7016700e-02   1.4589900e-01  -7.7156100e-02
  -1.0568800e-02   1.2393000e-01  -6.5919800e-02
  -2.9292900e-02   1.1575000e-01  -6.7558400e-02
  -3.9825300e-02   1.0663500e-01  -5.7258400e-02
  -1.3611500e-02   1.0897200e-01  -3.7829000e-02
  -7.9942000e-03   1.0499900e-01  -2.7763100e-02
  -3.3505900e-02   9.0508400e-02  -1.1611000e-02
  -2.4143800e-02   1.0032400e-01   3.6048700e-03
   2.7722000e-03   9.0742100e-02   9.3523200e-05
  -2.2739500e-02   8.4431800e-02  -6.6950800e-03
  -3.2803700e-02   8.3263200e-02   3.2761300e-04
  -7.3858200e-04   7.5316900e-02   1.3904800e-02
  -1.2909300e-02   7.9991200e-02   5.2435000e-03
  -2.1335200e-02   7.0175200e-02  -7.3973500e-03
   8.8575600e-03   6.7838000e-02   3.3707800e-03
   1.4942900e-02   7.7887800e-02   6.4139400e-03
  -9.7263400e-04   8.5600400e-02  -2.9496400e-03
   1.0964000e-02   7.8588900e-02  -9.0359700e-03
   3.7880000e-02   6.2462600e-02  -2.4720000e-02
   2.6645500e-02   7.2512300e-02  -3.6658600e-02
   3.8816200e-02   7.9991200e-02  -4.2042600e-02
   7.9775400e-02   7.0876300e-02  -5.1406200e-02
   6.9009000e-02   7.6485500e-02  -6.3578900e-02
   7.2051600e-02   8.4198100e-02  -7.3644700e-02
   1.2705400e-01   8.3730700e-02  -7.2942500e-02
   1.3431000e-01   8.0926100e-02  -6.7558400e-02
   1.0950000e-01   9.0508400e-02  -6.8494700e-02
   1.4507600e-01   1.1364600e-01  -6.1472100e-02
   1.7643900e-01   1.1294500e-01  -6.5919800e-02
   1.5677900e-01   1.1878800e-01  -8.3710600e-02
   1.5654400e-01   1.1715200e-01  -7.9497000e-02
   1.8275800e-01   1.3257700e-01  -7.9965100e-02
   1.8790700e-01   1.5571500e-01  -9.2137800e-02
   1.7175800e-01   1.2930500e-01  -1.0103300e-01
   1.8931200e-01   1.3701800e-01  -9.7287800e-02
   1.8697100e-01   1.5244300e-01  -9.2606000e-02
   1.4835300e-01   1.4636600e-01  -8.8158300e-02
   1.5748100e-01   1.4215900e-01  -7.6687900e-02
   1.5139500e-01   1.4099100e-01  -7.2240200e-02
   1.1254300e-01   1.4215900e-01  -7.4581100e-02
   9.9669800e-02   1.4730100e-01  -6.4047000e-02
   1.0528700e-01   1.3538200e-01  -4.8363000e-02
   7.2285700e-02   1.2556600e-01  -4.9767600e-02
   2.3836900e-02   1.4075700e-01  -3.7594900e-02
   3.6475700e-02   1.2790300e-01  -3.5488100e-02
   1.4942900e-02   1.2299500e-01  -3.7594900e-02
  -4.8953300e-02   1.2159300e-01  -2.6358600e-02
  -4.8017100e-02   1.2930500e-01  -2.0740500e-02
  -5.7379200e-02   1.3468100e-01  -1.8633700e-02
  -1.2197800e-01   1.1458100e-01  -2.5890400e-02
  -1.4257400e-01   1.2042400e-01  -1.8399600e-02
  -1.3789300e-01   1.1621700e-01  -8.5677900e-03
  -1.8540600e-01   1.1364600e-01  -2.1208600e-02
  -2.1934300e-01   1.1551600e-01  -3.2913100e-02
  -2.0810900e-01   9.8454700e-02  -3.1274500e-02
  -2.3408900e-01   1.0079200e-01  -3.4083600e-02
  -2.9049500e-01   1.0102600e-01  -3.7126700e-02
  -2.9985700e-01   9.2144400e-02  -3.1976800e-02
  -3.0500600e-01   9.4247900e-02  -3.1040400e-02
  -3.5766800e-01   9.9857000e-02  -4.3681200e-02
  -3.7522200e-01   9.5416400e-02  -4.3447200e-02
  -3.6960500e-01   9.4949000e-02  -3.9233500e-02
  -4.1220200e-01   9.2378100e-02  -4.6958500e-02
  -4.4801200e-01   9.3079300e-02  -4.3681200e-02
  -4.3303300e-01   1.0242800e-01  -4.3447200e-02
  -4.4379900e-01   9.8221000e-02  -4.7426700e-02
  -4.9341800e-01   1.1317900e-01  -5.3513000e-02
  -4.9435500e-01   1.1761900e-01  -5.7492500e-02
  -4.8452400e-01   1.0336300e-01  -5.9599300e-02
  -5.2173900e-01   1.0663500e-01  -6.1472100e-02
  -5.3180300e-01   1.1925500e-01  -5.9833400e-02
  -5.1541900e-01   1.2837000e-01  -6.1472100e-02
  -5.3929300e-01   1.1504900e-01  -6.1238000e-02
  -5.5497400e-01   1.1341300e-01  -5.5619800e-02
  -5.2922800e-01   1.1761900e-01  -5.0235800e-02
  -5.3016500e-01   1.0943900e-01  -5.0469800e-02
  -5.5965500e-01   1.0780300e-01  -5.2576700e-02
  -5.4491000e-01   9.8688400e-02  -4.2276700e-02
  -5.2759000e-01   1.0009100e-01  -3.5488100e-02
  -5.5895300e-01   8.8638700e-02  -4.4149400e-02
  -5.5848500e-01   7.2512300e-02  -4.7660800e-02
  -5.3133500e-01   7.5550600e-02  -5.3278900e-02
  -5.4748400e-01   6.5500900e-02  -5.7024400e-02
  -5.5497400e-01   4.0493300e-02  -5.4683500e-02
  -5.3695200e-01   2.9041300e-02  -5.8194800e-02
  -5.3437800e-01   2.3432100e-02  -5.7726600e-02
  -5.4912300e-01   7.6174700e-04  -4.9533500e-02
  -5.3882500e-01  -1.3962300e-02  -3.3849500e-02
  -5.1893000e-01  -2.3310900e-02  -2.9870000e-02
  -5.4374000e-01  -2.9387500e-02  -3.7594900e-02
  -5.3952700e-01  -5.3226500e-02  -3.0104000e-02
  -5.1120600e-01  -7.9402600e-02  -2.6826800e-02
  -5.3063300e-01  -8.5712900e-02  -3.1742700e-02
  -5.4678200e-01  -9.9268400e-02  -2.6124500e-02
  -5.2244100e-01  -1.2778200e-01  -1.5122300e-02
  -5.1869600e-01  -1.5419100e-01  -1.5824600e-02
  -5.4139900e-01  -1.5442500e-01  -1.4420000e-02
  -5.2735600e-01  -1.6213800e-01   1.7321500e-03
  -5.0980200e-01  -1.8410700e-01   1.2500300e-02
  -5.2899400e-01  -2.0186900e-01   1.2734400e-02
  -5.3882500e-01  -2.1519100e-01   1.2500300e-02
  -5.0488700e-01  -2.3692700e-01   1.8586600e-02
  -5.1120600e-01  -2.6286900e-01   1.6948000e-02
  -5.3788800e-01  -2.7338600e-01   2.1863900e-02
  -4.9763100e-01  -2.8600700e-01   2.3970700e-02
  -4.8944000e-01  -3.0517200e-01   2.0927500e-02
  -5.1659000e-01  -3.2807600e-01   2.8418400e-02
  -4.9388600e-01  -3.4069600e-01   3.4972900e-02
  -4.7422600e-01  -3.4466900e-01   4.4804600e-02
  -4.9061000e-01  -3.5962700e-01   5.0656900e-02
  -4.9248200e-01  -3.7528600e-01   5.8850000e-02
  -4.6673600e-01  -3.7224800e-01   6.3765900e-02
  -4.6884300e-01  -3.8229800e-01   5.9786400e-02
  -4.7750300e-01  -4.0286500e-01   5.7445500e-02
  -4.3982000e-01  -4.1688700e-01   6.2595500e-02
  -4.2975600e-01  -4.2179500e-01   5.5572800e-02
  -4.3560800e-01  -4.1782200e-01   4.2931900e-02
  -4.0611700e-01  -4.3605200e-01   5.4168200e-02
  -3.7990300e-01  -4.4049300e-01   6.0722700e-02
  -3.8669100e-01  -4.3838900e-01   5.2997800e-02
  -3.6890300e-01  -4.3324800e-01   4.8316000e-02
  -3.1273000e-01  -4.4259600e-01   6.0020500e-02
  -3.1811300e-01  -4.6106000e-01   6.8213600e-02
  -3.0992100e-01  -4.4189500e-01   6.3063600e-02
  -2.5211100e-01  -4.3675300e-01   7.3597700e-02
  -2.3408900e-01  -4.4166100e-01   8.2024900e-02
  -2.2636500e-01  -4.2950800e-01   8.3897600e-02
  -1.8072500e-01  -4.1829000e-01   1.0122000e-01
  -1.3555300e-01  -4.0987600e-01   1.1105200e-01
  -1.4070200e-01  -3.8814000e-01   1.0800900e-01
  -1.1893500e-01  -3.8463500e-01   1.0964700e-01
  -5.5740800e-02  -3.6289900e-01   1.0449800e-01
  -4.7549000e-02  -3.3765800e-01   9.7708900e-02
  -4.0995600e-02  -3.3391900e-01   8.8111200e-02
   6.7510900e-03  -3.0003000e-01   7.7343100e-02
   3.5773600e-02  -2.8460500e-01   6.7745400e-02
   4.2561100e-02  -2.5866200e-01   5.5806900e-02
   7.5562400e-02  -2.2804600e-01   5.9318200e-02
   1.1792600e-01  -2.2243600e-01   6.5170500e-02
   1.1184100e-01  -1.8971600e-01   5.8147800e-02
   1.3571400e-01  -1.6657800e-01   6.0722700e-02
   1.8907800e-01  -1.6120300e-01   7.0554500e-02
   1.8322600e-01  -1.2965100e-01   5.8147800e-02
   1.8907800e-01  -1.0581200e-01   5.5104600e-02
   2.5016500e-01  -1.0067100e-01   6.2595500e-02
   2.7380500e-01  -9.1322100e-02   5.0188700e-02
   2.6537900e-01  -7.0521400e-02   4.5741000e-02
   3.0516800e-01  -5.1356800e-02   4.2931900e-02
   3.5221200e-01  -4.4812700e-02   3.7079700e-02
   3.5244600e-01  -3.8268700e-02   3.2397900e-02
   3.6344700e-01  -3.0088700e-02   2.9822900e-02
   4.1025700e-01  -1.0690300e-02   3.3100200e-02
   4.2874700e-01  -2.7439800e-03   2.9120600e-02
   4.3296000e-01   5.9034800e-03   2.8652500e-02
   4.6923800e-01   8.7080700e-03   3.0525200e-02
   5.0060100e-01   1.8524100e-02   2.5843400e-02
   4.9943100e-01   3.7221300e-02   2.8886600e-02
   5.2681500e-01   3.0677300e-02   3.6143300e-02
   5.6449700e-01   4.8439700e-02   4.2229700e-02
   5.5209300e-01   5.6619700e-02   4.1059200e-02
   5.6285900e-01   6.4098600e-02   4.8316000e-02
   5.9960500e-01   7.6251800e-02   6.4702300e-02
   5.9890300e-01   7.6485500e-02   5.8381800e-02
   5.9586000e-01   1.0172700e-01   6.4234100e-02
   6.3284100e-01   1.0897200e-01   7.2661300e-02
   6.4852200e-01   1.1341300e-01   7.0788600e-02
   6.3050000e-01   1.2439700e-01   7.2427200e-02
   6.6935300e-01   1.3351200e-01   7.9684000e-02
   6.9650300e-01   1.4192600e-01   8.7409000e-02
   6.7005500e-01   1.4262700e-01   7.8279500e-02
   6.8948100e-01   1.5922100e-01   8.4599900e-02
   7.2856800e-01   1.6716700e-01   9.4431700e-02
   7.1827000e-01   1.6810200e-01   9.3963500e-02
   7.0609900e-01   1.8399500e-01   9.6304400e-02
   7.3956800e-01   1.8399500e-01   1.0239100e-01
   7.5244100e-01   1.7861900e-01   1.1011600e-01
   7.2880200e-01   1.9778400e-01   1.0613600e-01
   7.4495200e-01   1.9217500e-01   1.1035000e-01
   7.7257000e-01   1.9988700e-01   1.1994700e-01
   7.3980200e-01   2.1694800e-01   1.2603400e-01
   7.3512100e-01   2.1694800e-01   1.2720400e-01
   7.7888900e-01   2.2933500e-01   1.2743800e-01
   7.5173900e-01   2.1905200e-01   1.2603400e-01
   7.2341900e-01   2.2723200e-01   1.2018200e-01
   7.5033500e-01   2.3798300e-01   1.2533100e-01
   7.4916500e-01   2.2863400e-01   1.1479700e-01
   7.2505700e-01   2.2840000e-01   9.8879400e-02
   7.2810000e-01   2.3307500e-01   1.0262500e-01
   7.4565400e-01   2.2583000e-01   1.0426300e-01
   7.2154600e-01   2.1414400e-01   1.0098600e-01
   7.0352400e-01   2.1975300e-01   9.9581600e-02
   7.1920600e-01   2.0432800e-01   1.0215700e-01
   6.9533300e-01   1.9404400e-01   9.6538500e-02
   6.6982100e-01   2.0292500e-01   9.0452100e-02
   6.9322600e-01   1.9871900e-01   9.5133900e-02
   6.7941700e-01   1.8165700e-01   8.7409000e-02
   6.3073400e-01   1.7301000e-01   7.5704500e-02
   6.4430900e-01   1.7721700e-01   7.2193100e-02
   6.5109700e-01   1.7184100e-01   7.4768100e-02
   6.0896700e-01   1.7861900e-01   7.5704500e-02
   5.8930700e-01   1.8165700e-01   7.4768100e-02
   5.9843500e-01   1.7978800e-01   7.1256800e-02
   5.7971100e-01   1.7885300e-01   6.3531800e-02
   5.3781500e-01   1.8025500e-01   6.6106800e-02
   5.3664500e-01   1.7838500e-01   6.9384100e-02
   5.3173000e-01   1.8002100e-01   5.8850000e-02
   4.9100500e-01   1.8983700e-01   4.8316000e-02
   4.8304700e-01   1.7254200e-01   5.0188700e-02
   4.9030300e-01   1.8072300e-01   4.7379600e-02
   4.4466300e-01   1.9007100e-01   4.3166000e-02
   4.1868300e-01   1.7768400e-01   4.9486400e-02
   4.2781100e-01   1.7838500e-01   6.0020500e-02
   3.9340500e-01   1.7067300e-01   5.3934100e-02
   3.5361600e-01   1.7815200e-01   4.9720500e-02
   3.4261600e-01   1.7768400e-01   5.6275000e-02
   3.2482800e-01   1.7347700e-01   4.2931900e-02
   2.8620900e-01   1.8773400e-01   3.0759300e-02
   2.7684700e-01   1.6599800e-01   2.4907000e-02
   2.6795300e-01   1.5548100e-01   1.2968500e-02
   2.0967400e-01   1.7324400e-01  -2.9496400e-03
   1.8978000e-01   1.6272600e-01  -9.7382400e-03
   1.8743900e-01   1.7043900e-01  -1.2547300e-02
   1.3501200e-01   1.7020500e-01  -2.9167700e-02
   9.3584400e-02   1.4893700e-01  -4.6490300e-02
   9.3584400e-02   1.5174200e-01  -5.5853900e-02
   7.3924100e-02   1.3538200e-01  -6.2642500e-02
   2.1028300e-02   1.2790300e-01  -6.6622000e-02
   6.9851400e-03   1.3164200e-01  -6.2876600e-02
   2.5381500e-03   1.2369600e-01  -7.1537900e-02
  -4.1463700e-02   1.1364600e-01  -8.6519700e-02
  -6.0421900e-02   9.9857000e-02  -7.9497000e-02
  -5.5506800e-02   1.0453100e-01  -7.5283300e-02
  -8.9210300e-02   9.8221000e-02  -9.1669600e-02
  -1.1191300e-01   7.5083200e-02  -9.2840100e-02
  -9.5763800e-02   7.6251800e-02  -8.5583300e-02
  -1.0629600e-01   7.4849500e-02  -9.6585500e-02
  -1.4117000e-01   6.8539200e-02  -1.0992900e-01
  -1.2525400e-01   6.7604300e-02  -1.1203500e-01
  -9.9976700e-02   4.9374500e-02  -1.1297200e-01
  -1.3180800e-01   5.6619700e-02  -1.2467600e-01
  -1.3204200e-01   4.9374500e-02  -1.2584700e-01
  -9.4593500e-02   3.7455000e-02  -1.2186700e-01
  -1.1378600e-01   5.5451100e-02  -1.2350600e-01
  -1.3625500e-01   5.0309400e-02  -1.2046300e-01
  -1.0582800e-01   5.5451100e-02  -1.2374000e-01
  -9.3891300e-02   4.9374500e-02  -1.2725100e-01
  -1.2642500e-01   4.9842000e-02  -1.2514400e-01
  -1.0536000e-01   6.1060300e-02  -1.2374000e-01
  -6.8379700e-02   4.7271100e-02  -1.1999400e-01
  -1.0512600e-01   4.9608200e-02  -1.1531300e-01
  -1.0536000e-01   6.9474000e-02  -1.0243800e-01
  -7.0018000e-02   8.0926100e-02  -8.6285600e-02
  -7.9614200e-02   7.1577500e-02  -8.2774200e-02
  -1.1074300e-01   7.3914600e-02  -7.3176500e-02
  -9.0380600e-02   9.4481600e-02  -5.7726600e-02
  -7.2358500e-02   9.6351300e-02  -4.5554000e-02
  -1.1682800e-01   1.0172700e-01  -3.9467600e-02
  -9.7870200e-02   1.1481500e-01  -2.9401800e-02
  -8.1486600e-02   1.0616700e-01  -1.3717800e-02
  -1.1799900e-01   1.1761900e-01  -2.9496400e-03
  -1.2244600e-01   1.2322900e-01   1.9054800e-02
  -1.1308400e-01   1.2556600e-01   4.2463800e-02
  -1.3110600e-01   1.2790300e-01   5.7679600e-02
  -1.7183100e-01   1.3234300e-01   7.1959100e-02
  -1.6387300e-01   1.4987200e-01   8.7409000e-02
  -1.6878800e-01   1.2743500e-01   9.5368000e-02
  -2.1536400e-01   1.5010600e-01   9.9815700e-02
  -2.2051400e-01   1.5244300e-01   1.1245700e-01
  -2.1606700e-01   1.3678400e-01   1.2416100e-01
  -2.4789800e-01   1.5548100e-01   1.2954500e-01
  -2.7738800e-01   1.5735100e-01   1.4007900e-01
  -2.7177100e-01   1.6786800e-01   1.4991100e-01
  -2.9236800e-01   1.6483000e-01   1.4640000e-01
  -3.3309300e-01   1.6927000e-01   1.4569700e-01
  -3.2560300e-01   1.8048900e-01   1.4757000e-01
  -3.3168800e-01   1.8259200e-01   1.4054700e-01
