**************************************************************************************
  	RED ACELEROGRÁFICA DE LA UNIVERSIDAD AUTONOMA METROPOLITANA (RA-UAM)
	   UNIDAD AZCAPOTZALCO. DIVISIÓN CBI-DEPARTAMENTO DE MATERIALES
     Av. San Pablo 420, Col. Nueva el Rosario, Azcapotzalco, C.P. 02128, Ciudad de México
		Área de Estructuras. e-mail: agb@azc.uam.mx
**************************************************************************************
ARCHIVO ESTANDAR DE ACELERACION:
VERSION DEL FORMATO                    : 2.0
NOMBRE DEL ARCHIVO                     : RUML202209.202
FECHA Y HORA DE CREACION               : 11:30 a. m. 27/09/2022
REF. CATALOGO ACELEROGRAMAS, SMIS 1999 : REGISTRO NO.      /PAG.    


================================================================================
DATOS DE LA ESTACION:
NOMBRE DE LA ESTACION                  : UAM-LERMA.
CLAVE DE LA ESTACION                   : RUML
LOCALIZACION DE LA ESTACION            : AV. DE LAS GARZAS 10, EL PANTEON, C.P.52005,
                                       : LERMA DE VILLADA, ESTADO DE MEXICO.   
                                       : 
                                       : 
                                       : 
COORDENADAS DE LA ESTACION             : 19.291278 LAT. N
                                       : 99.500578 LONG. W
ALTITUD (msnm)                         : 2570
TIPO DE SUELO                          : DEPOSITOS LACUSTRES
                                       : 
                                       : 
INSTITUCION RESPONSABLE                : UNIVERSIDAD AUTONOMA METROPOLITANA
                                       : 

================================================================================
DATOS DEL ACELEROGRAFO: 
MODELO DEL ACELEROGRAFO                : ETNA2 KINEMETRICS
NUMERO DE SERIE DEL ACELEROGRAFO       : 103733
NUMERO DE CANALES                      : 3
ORIENTACION C1-C6 (rumbo;orientacion)  : /N90E/N00E/V 
ORIENTACION C7-C12 (rumbo;orientacion) : 
VEL. DE MUESTREO, C1-C6 (muestras/s)   : /200/200/200
VEL. DE MUESTREO, C7-C12 (muestras/s)  : 
ESC. COMPLETA DE SENSORES, C1-C6, (g)  : /2/2/2
ESC. COMPLETA DE SENSORES, C7-C12 (g)  : 
FREC. NAT. DE SENSORES, C1-C6, (Hz)    : /212/206/208   
FREC. NAT. DE SENSORES, C7-C12 (Hz)    : 
AMORTIGUAMIENTO DE SENSORES, C1-C6     : /0.7/0.7/0.7      
AMORTIGUAMIENTO DE SENSORES, C7-C12    : 
INTERVALO DE MUESTREO, C1-C6 (s)       : /0.005/0.005/0.005
INTERVALO DE MUESTREO, C7-C12 (s)      : 
UMBRAL DE DISPARO, C1-C6 (Gal)         : /2/2/2
UMBRAL DE DISPARO, C7-C12 (Gal)        : 
MEMORIA DE PREEVENTO (s)               : 50
TIEMPO DE POSEVENTO (s)                : 60


================================================================================
DATOS DEL SISMO:
FECHA DEL SISMO [GMT]                  : 2022/09/20
HORA EPICENTRO (GMT)                   : 10:43:18
MAGNITUD(ES)                           : /M=4.8
COORDENADAS DEL EPICENTRO              : 17.9800 LAT. N
                                       : -103.2100 LONG. W
PROFUNDIDAD FOCAL (Km)                 : 12.0
FUENTE DE LOS DATOS EPICENTRALES       : SSN
                                       : INSTITUTO DE GEOFISICA, UNAM

================================================================================
DATOS DE ESTE REGISTRO:
HORA DE LA PRIMERA MUESTRA (GMT)       : 10:44:22.000
EXACTITUD DEL TIEMPO (s)               : 
DURACION DEL REGISTRO (s), C1-C6       : /142/142/142
DURACION DEL REGISTRO (s), C7-C12      : 
NUM. TOTAL DE MUESTRAS, C1-C6          : /28400/28400/28400
NUM. TOTAL DE MUESTRAS, C7-C12         : 
ACEL. MAX.(Gal), C1-C6                 : /0.923/1.082/-0.326
ACEL. MAX., C1-C6, EN LA MUESTRA       : /12240/10310/11838
ACEL. MAX.(Gal), C7-C12                : 
ACEL. MAX., C7-C12,EN LA MUESTRA       : 
UNIDADES DE LOS DATOS                  : Gal (cm/s/s)
FACTOR DE DECIMACION                   : 1
FORMATO DATOS (FORTRAN,16 campos/dato) : 3E16.7


================================================================================
CALIDAD DEL ACELEROGRAMA:
REGISTRO DIGITAL COMPLETO CON TIEMPO ABSOLUTO CORRECTO


================================================================================
COMENTARIOS:














================================================================================
DATOS DE ACELERACION:
---------+---------+---------+---------+---------+---------+---------+---------+
   CANAL-1   	     CANAL-2          CANAL-3
     N90E              N00E              V
---------+---------+---------+---------+---------+---------+---------+---------+
[...]
   1.3183800e-02   9.6916700e-02   6.7230500e-02
   1.2481700e-02   1.0883600e-01   6.1846500e-02
  -5.0722200e-03   1.2449500e-01   6.5357800e-02
   3.2610200e-02   1.1771700e-01   7.3551000e-02
   5.7419700e-02   1.1421200e-01   7.4721400e-02
   3.3546400e-02   1.4108900e-01   6.7230500e-02
   4.8291700e-02   1.3781700e-01   6.5591900e-02
   8.5740000e-02   1.4015400e-01   6.6762400e-02
   6.9824500e-02   1.5137200e-01   6.0441900e-02
   6.0930500e-02   1.5674800e-01   5.9271500e-02
   9.0889200e-02   1.5511200e-01   5.3185200e-02
   9.4165900e-02   1.4716600e-01   4.3821600e-02
   7.3101200e-02   1.6539500e-01   3.9842000e-02
   8.4335700e-02   1.7007000e-01   3.6564800e-02
   1.0423000e-01   1.6305800e-01   3.0712500e-02
   7.8250300e-02   1.6726500e-01   1.7135300e-02
   6.1866700e-02   1.7264000e-01   1.2687600e-02
   9.2293500e-02   1.7007000e-01   9.8785700e-03
   7.6846000e-02   1.7731500e-01   4.2604200e-03
   4.2206300e-02   1.7591300e-01   5.8990400e-03
   7.4271500e-02   1.7684700e-01  -5.1031700e-03
   7.2633100e-02   1.9203900e-01  -1.2594000e-02
   2.6056700e-02   1.8198900e-01  -1.3530400e-02
   4.3610600e-02   1.9531100e-01  -1.3530400e-02
   6.1632600e-02   1.9624600e-01  -1.8446300e-02
   1.9503300e-02   1.9484300e-01  -2.3830300e-02
   1.5056300e-02   2.1050200e-01  -1.8212200e-02
   4.8057600e-02   2.0582800e-01  -2.1723500e-02
   1.3183800e-02   2.1751400e-01  -2.4766700e-02
  -1.2795900e-02   2.1377400e-01  -1.8212200e-02
   1.6226500e-02   2.2639500e-01  -1.4466800e-02
   1.0131300e-03   2.3247200e-01  -1.4700800e-02
  -3.8775700e-02   2.3270500e-01  -1.0487200e-02
  -2.5902900e-02   2.5023400e-01  -5.5713500e-03
  -1.6072700e-02   2.4532600e-01  -5.8054400e-03
  -6.6159800e-02   2.5794700e-01  -6.7418000e-03
  -6.9904700e-02   2.5771300e-01   7.4907000e-04
  -4.8840000e-02   2.7150200e-01   6.1331300e-03
  -8.3479700e-02   2.7454000e-01  -8.8955700e-04
  -1.1320400e-01   2.7196900e-01  -2.7622700e-03
  -9.2139600e-02   2.9674300e-01  -8.8955700e-04
  -1.0548100e-01   2.8926400e-01  -9.0827000e-03
  -1.5392900e-01   2.9744400e-01  -7.9122500e-03
  -1.3684400e-01   2.9744400e-01  -8.3804300e-03
  -1.3426900e-01   3.0539100e-01  -2.1021300e-02
  -1.7429200e-01   3.1216900e-01  -3.0384900e-02
  -1.8248400e-01   3.0492300e-01  -3.3193900e-02
  -1.6586600e-01   3.1240200e-01  -3.1555300e-02
  -1.9559100e-01   3.0866300e-01  -4.2791600e-02
  -2.2437900e-01   3.1637500e-01  -4.4664300e-02
  -1.9395200e-01   3.0562400e-01  -4.6771100e-02
  -2.1174000e-01   3.0913000e-01  -5.7071100e-02
  -2.4965700e-01   3.1053300e-01  -5.6837000e-02
  -2.3186900e-01   3.0936400e-01  -6.1050600e-02
  -2.2859200e-01   3.0492300e-01  -6.4561900e-02
  -2.6931700e-01   3.0071600e-01  -6.5498300e-02
  -2.6744500e-01   3.0679300e-01  -6.4093800e-02
  -2.4661400e-01   2.9043300e-01  -5.9880200e-02
  -2.8546700e-01   3.0819500e-01  -5.7773300e-02
  -2.8850900e-01   2.9136800e-01  -5.3559700e-02
  -2.7072100e-01   2.9417200e-01  -4.2791600e-02
  -2.9155200e-01   3.0188500e-01  -3.3662100e-02
  -3.0138200e-01   2.8786200e-01  -2.8512100e-02
  -2.9482900e-01   2.9837900e-01  -1.6573600e-02
  -2.9155200e-01   2.8809600e-01  -1.0487200e-02
  -2.9904200e-01   2.9674300e-01  -7.4440700e-03
  -3.0419100e-01   2.8225300e-01   4.9626800e-03
  -2.8733900e-01   2.8599200e-01   1.5730800e-02
  -2.8546700e-01   2.8435600e-01   1.9944400e-02
  -3.0863800e-01   2.7290400e-01   2.8371700e-02
  -2.7376400e-01   2.7617600e-01   3.8203400e-02
  -2.5761500e-01   2.7080100e-01   4.0778400e-02
  -2.8453100e-01   2.6846400e-01   5.1546500e-02
  -2.4965700e-01   2.5467500e-01   5.5057900e-02
  -2.2812400e-01   2.5724500e-01   4.8035200e-02
  -2.4099700e-01   2.3808100e-01   4.7098800e-02
  -2.2297500e-01   2.3247200e-01   5.0610200e-02
  -1.8997300e-01   2.2172100e-01   5.0610200e-02
  -1.8435600e-01   2.0910000e-01   3.9139800e-02
  -1.8927100e-01   1.9694700e-01   3.6798900e-02
  -1.4971600e-01   1.7193900e-01   3.9842000e-02
  -1.2982200e-01   1.7754900e-01   3.5394300e-02
  -1.4807800e-01   1.3968700e-01   3.1414800e-02
  -1.1507700e-01   1.2028800e-01   3.0946600e-02
  -8.6054300e-02   1.0392800e-01   2.1349000e-02
  -1.0922500e-01   6.9572100e-02   1.1517200e-02
  -8.8862900e-02   5.1108500e-02   2.0412600e-02
  -4.9776200e-02   1.8622100e-02   2.1349000e-02
  -7.5521900e-02   1.5609100e-03   8.4740300e-03
  -7.5756000e-02  -3.7703300e-02   4.7285900e-03
  -3.0115800e-02  -6.3645700e-02   9.1763000e-03
  -3.9711900e-02  -9.8001800e-02   1.1985400e-02
  -6.7096000e-02  -1.2815100e-01   1.9242200e-02
  -2.4498600e-02  -1.5035400e-01   2.3689900e-02
  -5.7743800e-03  -1.9476000e-01   2.1817100e-02
  -5.1414600e-02  -2.1228900e-01   2.8605700e-02
  -2.1924000e-02  -2.4477500e-01   3.3053400e-02
   1.4354100e-02  -2.6721200e-01   3.9373900e-02
  -1.7242900e-02  -2.9782800e-01   4.6396600e-02
  -8.8170600e-03  -3.2423800e-01   4.9907900e-02
   2.7695100e-02  -3.3826100e-01   5.2248800e-02
   2.1141600e-02  -3.6256700e-01   4.8503400e-02
   5.9282300e-03  -3.7799300e-01   5.4121500e-02
   3.4950700e-02  -4.0276700e-01   5.9271500e-02
   5.3674900e-02  -4.0650600e-01   5.9505600e-02
   3.4248500e-02  -4.1772400e-01   5.7398800e-02
   4.0099800e-02  -4.2987700e-01   5.9505600e-02
   7.4739600e-02  -4.3478600e-01   5.8335100e-02
   6.2100700e-02  -4.3759000e-01   4.3353400e-02
   5.0632200e-02  -4.5021100e-01   4.5226100e-02
   9.0187000e-02  -4.6236400e-01   4.4523800e-02
   8.6676200e-02  -4.4717200e-01   3.1648900e-02
   6.9824500e-02  -4.6119500e-01   2.2519400e-02
   9.6272400e-02  -4.5839100e-01   2.3923900e-02
   1.1172000e-01  -4.5698800e-01   1.9008100e-02
   9.5570200e-02  -4.6867400e-01   2.1536100e-03
   1.0001700e-01  -4.6049400e-01   2.3877000e-03
   1.3372100e-01  -4.6587000e-01  -3.2304500e-03
   1.2389100e-01  -4.7264700e-01  -1.5871300e-02
   1.0937900e-01  -4.7895800e-01  -2.3362200e-02
   1.4846600e-01  -4.7872400e-01  -2.8512100e-02
   1.5314700e-01  -4.8994200e-01  -3.3662100e-02
   1.2997600e-01  -5.0139400e-01  -3.9514400e-02
   1.6227500e-01  -5.0583500e-01  -3.9982500e-02
   1.7889300e-01  -5.2126000e-01  -4.2791600e-02
   1.5572200e-01  -5.3481600e-01  -4.6771100e-02
   1.6999900e-01  -5.4790400e-01  -4.3728000e-02
   1.9410600e-01  -5.5631700e-01  -3.7407500e-02
   1.8357400e-01  -5.6917200e-01  -3.8343900e-02
   1.7795700e-01  -5.9277700e-01  -3.7641600e-02
   2.0276600e-01  -6.0563100e-01  -3.0384900e-02
   2.1072400e-01  -6.1311000e-01  -2.9916700e-02
   1.8778700e-01  -6.3508000e-01  -2.5234900e-02
   2.0580900e-01  -6.5284200e-01  -1.6573600e-02
   2.2219200e-01  -6.5471200e-01  -1.6339500e-02
   1.9200000e-01  -6.7621300e-01  -1.3764500e-02
   2.0019200e-01  -6.8509500e-01  -5.8054400e-03
   2.2266100e-01  -6.9187200e-01   2.8089100e-04
   2.0136200e-01  -7.1664600e-01  -1.1236500e-03
   1.9059500e-01  -7.1594500e-01  -8.8955700e-04
   2.1540500e-01  -7.2973400e-01   1.2172500e-03
   2.1095800e-01  -7.2763100e-01   9.8316000e-04
   1.8497800e-01  -7.3721300e-01  -1.8728800e-04
   1.9925500e-01  -7.3814800e-01  -2.9963600e-03
   2.1446900e-01  -7.2693000e-01  -4.1668100e-03
   1.8872300e-01  -7.5193700e-01  -9.5508700e-03
   1.8334000e-01  -7.2412500e-01  -1.0955400e-02
   2.1283000e-01  -7.1524400e-01  -1.3764500e-02
   1.9925500e-01  -7.2319000e-01  -2.3128100e-02
   1.7585000e-01  -6.9818300e-01  -2.4064400e-02
   2.0651100e-01  -6.8673100e-01  -2.1489400e-02
   2.1751100e-01  -6.6920200e-01  -2.9682600e-02
   1.7819100e-01  -6.4092200e-01  -3.6237100e-02
   1.9691500e-01  -6.2526300e-01  -3.3428000e-02
   2.3459700e-01  -6.0329400e-01  -3.9046200e-02
   1.9200000e-01  -5.6917200e-01  -4.3728000e-02
   1.9504200e-01  -5.4720300e-01  -3.8812100e-02
   2.4115100e-01  -5.2032500e-01  -3.9280300e-02
   2.0768100e-01  -4.8970900e-01  -4.7707500e-02
   1.9387200e-01  -4.6026000e-01  -4.7473400e-02
   2.3600200e-01  -4.3501900e-01  -4.6303000e-02
   2.2359700e-01  -4.0837600e-01  -5.0048400e-02
   2.0276600e-01  -3.7448700e-01  -4.7941600e-02
   2.2453300e-01  -3.5579000e-01  -4.9346100e-02
   2.3085200e-01  -3.3054900e-01  -5.3325600e-02
   2.1446900e-01  -3.0974800e-01  -5.4027900e-02
   2.1540500e-01  -2.8707700e-01  -4.6068900e-02
   2.3319300e-01  -2.5903200e-01  -4.5366600e-02
   2.2406500e-01  -2.4758000e-01  -5.2857500e-02
   2.1025600e-01  -2.2561000e-01  -4.5366600e-02
   2.2921400e-01  -1.9429200e-01  -4.2557500e-02
   2.3178900e-01  -1.7980200e-01  -4.7941600e-02
   2.1142600e-01  -1.6975200e-01  -4.9580200e-02
   2.2289500e-01  -1.4053800e-01  -4.5366600e-02
   2.3717200e-01  -1.1903600e-01  -4.4196100e-02
   2.1727700e-01  -1.0478000e-01  -5.0984700e-02
   2.1680900e-01  -8.8185800e-02  -4.2557500e-02
   2.4185300e-01  -5.5231900e-02  -4.1387100e-02
   2.2523500e-01  -3.5599800e-02  -4.9580200e-02
   2.1119200e-01  -2.4381500e-02  -4.1621200e-02
   2.3998000e-01   1.1610700e-02  -3.1555300e-02
   2.3412900e-01   2.9840500e-02  -3.2023500e-02
   2.1259600e-01   5.3212000e-02  -3.9046200e-02
   2.2453300e-01   7.8920700e-02  -3.4364400e-02
   2.3998000e-01   9.0840100e-02  -2.5703100e-02
   2.2570300e-01   1.1958700e-01  -2.5234900e-02
   2.0440400e-01   1.5347600e-01  -2.2894000e-02
   2.2827800e-01   1.6562900e-01  -1.5871300e-02
   2.3015000e-01   1.8409300e-01  -1.5637200e-02
   1.8544600e-01   2.1517700e-01  -8.8486100e-03
   2.0744700e-01   2.4345600e-01   5.8990400e-03
   2.2640500e-01   2.6402300e-01   5.8990400e-03
   1.7233900e-01   2.8388900e-01   8.2399400e-03
   1.8146700e-01   3.2432200e-01   2.0178500e-02
   2.0066000e-01   3.5096500e-01   2.0412600e-02
   1.5572200e-01   3.6966200e-01   2.5328500e-02
   1.5665800e-01   4.0822500e-01   3.8203400e-02
   1.6742400e-01   4.4281500e-01   3.9373900e-02
   1.3629500e-01   4.6782300e-01   4.4055700e-02
   1.2155000e-01   5.0404900e-01   5.3185200e-02
   1.2974200e-01   5.4448100e-01   5.6462400e-02
   1.1593300e-01   5.7696800e-01   5.7164700e-02
   7.9186600e-02   6.0337800e-01   6.0676000e-02
   7.9888700e-02   6.4708200e-01   7.3316900e-02
   8.7612400e-02   6.8751500e-01   7.5189600e-02
   4.2908500e-02   7.1859900e-01   7.0273700e-02
   2.6524800e-02   7.6323900e-01   7.7530500e-02
   4.5483000e-02   7.9151900e-01   7.7062300e-02
   4.5239200e-03   8.1886300e-01   7.6125900e-02
  -2.7541200e-02   8.6093200e-01   8.1744100e-02
  -5.7743800e-03   8.9435300e-01   7.9403200e-02
  -3.4796800e-02   9.1772500e-01   7.0976000e-02
  -7.5756000e-02   9.4740700e-01   6.7932800e-02
  -6.7096000e-02   9.8386600e-01   6.9805500e-02
  -7.9500800e-02   1.0032600e+00   6.2548700e-02
  -1.1063000e-01   1.0119100e+00   5.1312400e-02
  -1.2186400e-01   1.0376200e+00   4.9439700e-02
  -1.2397100e-01   1.0588900e+00   4.7098800e-02
  -1.3988600e-01   1.0621600e+00   3.2819400e-02
  -1.6493000e-01   1.0673000e+00   3.1414800e-02
  -1.6235500e-01   1.0822600e+00   3.4223900e-02
  -1.6141900e-01   1.0792200e+00   2.0880800e-02
  -1.9067600e-01   1.0803900e+00   1.5730800e-02
  -1.8997300e-01   1.0759500e+00   1.8774000e-02
  -1.7124900e-01   1.0656700e+00   1.5028500e-02
  -1.9886700e-01   1.0726800e+00   4.9626800e-03
  -2.0823000e-01   1.0476700e+00  -1.8728800e-04
  -1.7990900e-01   1.0348200e+00  -1.8259200e-03
  -1.9208000e-01   1.0238300e+00  -4.6349900e-03
  -2.0752700e-01   9.9835700e-01  -4.1668100e-03
  -1.8388800e-01   9.8363200e-01  -8.1463400e-03
  -1.7195100e-01   9.5091200e-01  -1.4466800e-02
  -1.9254800e-01   9.3408500e-01  -1.5637200e-02
  -1.8107900e-01   9.0884400e-01  -1.2594000e-02
  -1.4667400e-01   8.7402000e-01  -1.7509900e-02
  -1.6048300e-01   8.5228500e-01  -2.5703100e-02
  -1.5720600e-01   8.1933100e-01  -2.3596300e-02
  -1.1624700e-01   7.9292100e-01  -2.7341700e-02
  -1.1039600e-01   7.5903200e-01  -3.1789400e-02
  -1.1765100e-01   7.2467600e-01  -2.8278000e-02
  -7.7628400e-02   7.0060300e-01  -2.7809900e-02
  -4.9074000e-02   6.6297500e-01  -3.1789400e-02
  -6.0542600e-02   6.2698300e-01  -3.1555300e-02
  -2.5200700e-02   6.0267700e-01  -2.6873500e-02
   2.2077800e-02   5.6691800e-01  -2.6873500e-02
   2.2780000e-02   5.3302900e-01  -3.2257600e-02
   3.7525300e-02   5.0872300e-01  -3.5534800e-02
   9.2059400e-02   4.6992600e-01  -3.2725800e-02
   1.1289000e-01   4.3486900e-01  -3.4832600e-02
   1.0961300e-01   4.0916000e-01  -4.1621200e-02
   1.5478500e-01   3.7363600e-01  -4.0450700e-02
   1.9691500e-01   3.3600700e-01  -4.0450700e-02
   1.8895700e-01   3.0515700e-01  -3.9046200e-02
   2.0768100e-01   2.8225300e-01  -3.5768900e-02
   2.6806700e-01   2.4135300e-01  -4.5366600e-02
   2.6479000e-01   2.0886600e-01  -4.9112000e-02
   2.5730000e-01   1.8853300e-01  -4.4898400e-02
   3.1909000e-01   1.5113900e-01  -4.7239300e-02
   3.2470700e-01   1.1912000e-01  -5.2857500e-02
   3.0340900e-01   8.7334400e-02  -5.1452900e-02
   3.5232500e-01   6.5365200e-02  -5.0750700e-02
   3.6824100e-01   3.4281000e-02  -5.9646100e-02
   3.3664400e-01  -7.5101600e-05  -5.6134700e-02
   3.6683700e-01  -2.6017500e-02  -5.1218800e-02
   3.9117800e-01  -5.1258700e-02  -5.9880200e-02
   3.5607000e-01  -7.7434900e-02  -5.9880200e-02
   3.6683700e-01  -1.1342700e-01  -5.0984700e-02
   3.9164600e-01  -1.2511300e-01  -4.7941600e-02
   3.6473000e-01  -1.4965300e-01  -5.2389300e-02
   3.5677200e-01  -1.7512800e-01  -4.9814300e-02
   3.7151800e-01  -1.9476000e-01  -4.1621200e-02
   3.5115500e-01  -2.2397400e-01  -4.3493900e-02
   3.2213300e-01  -2.3098600e-01  -4.2323400e-02
   3.2821800e-01  -2.5903200e-01  -3.6939400e-02
   3.1511100e-01  -2.7282100e-01  -3.7407500e-02
   2.7321600e-01  -2.9151800e-01  -3.5768900e-02
   2.6174700e-01  -3.1605800e-01  -3.0618900e-02
   2.4208700e-01  -3.2190100e-01  -2.8980300e-02
   2.0861700e-01  -3.4503900e-01  -2.7341700e-02
   1.7585000e-01  -3.6023000e-01  -2.0319000e-02
   1.4121000e-01  -3.6677400e-01  -1.1891800e-02
   1.1991200e-01  -3.7004600e-01  -1.4232700e-02
   7.4739600e-02  -3.9832600e-01  -1.3296300e-02
   2.3482100e-02  -4.0790800e-01  -2.9963600e-03
   1.1545500e-02  -4.0580500e-01  -4.6349900e-03
  -3.4328700e-02  -4.2496900e-01  -9.5508700e-03
  -1.0852300e-01  -4.2660500e-01  -2.2941000e-03
  -1.0899100e-01  -4.3338300e-01   3.7922400e-03
  -1.4644000e-01  -4.4436800e-01  -2.7622700e-03
  -2.3116700e-01  -4.4390000e-01  -3.4645400e-03
  -2.3257100e-01  -4.4530300e-01   5.1967700e-03
  -2.5784900e-01  -4.5348300e-01   8.2399400e-03
  -3.3297900e-01  -4.5254800e-01   1.4092200e-02
  -3.5170300e-01  -4.4506900e-01   1.7369400e-02
  -3.5895900e-01  -4.5605400e-01   1.4092200e-02
  -4.1279100e-01  -4.6002700e-01   1.8539900e-02
  -4.5328200e-01  -4.5395000e-01   2.6030800e-02
  -4.4158000e-01  -4.5675500e-01   2.9308000e-02
  -4.6404900e-01  -4.5979300e-01   2.7201200e-02
  -5.1671000e-01  -4.6563600e-01   3.1180700e-02
  -5.0758200e-01  -4.5301500e-01   3.3755700e-02
  -5.0430500e-01  -4.6470100e-01   3.0712500e-02
  -5.4526500e-01  -4.7428300e-01   3.7501100e-02
  -5.4479700e-01  -4.6750600e-01   4.2885200e-02
  -5.2771100e-01  -4.7685400e-01   3.9373900e-02
  -5.4877500e-01  -4.8036000e-01   3.3989800e-02
  -5.5954200e-01  -4.8830600e-01   3.6096600e-02
  -5.3122100e-01  -4.9975800e-01   4.2651100e-02
  -5.3332800e-01  -5.0139400e-01   3.1414800e-02
  -5.6047800e-01  -5.0443300e-01   2.4626200e-02
  -5.2092300e-01  -5.3131000e-01   3.2585300e-02
  -5.0407100e-01  -5.3668500e-01   2.6030800e-02
  -5.4386000e-01  -5.3785400e-01   2.2987600e-02
  -5.0922100e-01  -5.4650100e-01   2.9308000e-02
  -4.6896400e-01  -5.7080800e-01   2.3221700e-02
