**************************************************************************************
  	RED ACELEROGRÁFICA DE LA UNIVERSIDAD AUTONOMA METROPOLITANA (RA-UAM)
	   UNIDAD AZCAPOTZALCO. DIVISIÓN CBI-DEPARTAMENTO DE MATERIALES
     Av. San Pablo 420, Col. Nueva el Rosario, Azcapotzalco, C.P. 02128, Ciudad de México
		Área de Estructuras. e-mail: agb@azc.uam.mx
**************************************************************************************
ARCHIVO ESTANDAR DE ACELERACION:
VERSION DEL FORMATO                    : 2.0
NOMBRE DEL ARCHIVO                     : RUML202203.061
FECHA Y HORA DE CREACION               : 11:30 a. m. 11/03/2022
REF. CATALOGO ACELEROGRAMAS, SMIS 1999 : REGISTRO NO.      /PAG.    


================================================================================
DATOS DE LA ESTACION:
NOMBRE DE LA ESTACION                  : UAM-LERMA.
CLAVE DE LA ESTACION                   : RUML
LOCALIZACION DE LA ESTACION            : AV. DE LAS GARZAS 10, EL PANTEON, C.P.52005,
                                       : LERMA DE VILLADA, ESTADO DE MEXICO.   
                                       : 
                                       : 
                                       : 
COORDENADAS DE LA ESTACION             : 19.291278 LAT. N
                                       : 99.500578 LONG. W
ALTITUD (msnm)                         : 2570
TIPO DE SUELO                          : DEPOSITOS LACUSTRES
                                       : 
                                       : 
INSTITUCION RESPONSABLE                : UNIVERSIDAD AUTONOMA METROPOLITANA
                                       : 

================================================================================
DATOS DEL ACELEROGRAFO: 
MODELO DEL ACELEROGRAFO                : ETNA2 KINEMETRICS
NUMERO DE SERIE DEL ACELEROGRAFO       : 103733
NUMERO DE CANALES                      : 3
ORIENTACION C1-C6 (rumbo;orientacion)  : /N90E/N00E/V 
ORIENTACION C7-C12 (rumbo;orientacion) : 
VEL. DE MUESTREO, C1-C6 (muestras/s)   : /200/200/200
VEL. DE MUESTREO, C7-C12 (muestras/s)  : 
ESC. COMPLETA DE SENSORES, C1-C6, (g)  : /2/2/2
ESC. COMPLETA DE SENSORES, C7-C12 (g)  : 
FREC. NAT. DE SENSORES, C1-C6, (Hz)    : /212/206/208   
FREC. NAT. DE SENSORES, C7-C12 (Hz)    : 
AMORTIGUAMIENTO DE SENSORES, C1-C6     : /0.7/0.7/0.7      
AMORTIGUAMIENTO DE SENSORES, C7-C12    : 
INTERVALO DE MUESTREO, C1-C6 (s)       : /0.005/0.005/0.005
INTERVALO DE MUESTREO, C7-C12 (s)      : 
UMBRAL DE DISPARO, C1-C6 (Gal)         : /2/2/2
UMBRAL DE DISPARO, C7-C12 (Gal)        : 
MEMORIA DE PREEVENTO (s)               : 50
TIEMPO DE POSEVENTO (s)                : 60


================================================================================
DATOS DEL SISMO:
FECHA DEL SISMO [GMT]                  : 2022/03/06
HORA EPICENTRO (GMT)                   : 03:29:20
MAGNITUD(ES)                           : /M=5.6
COORDENADAS DEL EPICENTRO              : 16.7400 LAT. N
                                       : -95.2700 LONG. W
PROFUNDIDAD FOCAL (Km)                 : 88.0
FUENTE DE LOS DATOS EPICENTRALES       : SSN
                                       : INSTITUTO DE GEOFISICA, UNAM

================================================================================
DATOS DE ESTE REGISTRO:
HORA DE LA PRIMERA MUESTRA (GMT)       : 03:30:43.000
EXACTITUD DEL TIEMPO (s)               : 
DURACION DEL REGISTRO (s), C1-C6       : /169/169/169
DURACION DEL REGISTRO (s), C7-C12      : 
NUM. TOTAL DE MUESTRAS, C1-C6          : /33800/33800/33800
NUM. TOTAL DE MUESTRAS, C7-C12         : 
ACEL. MAX.(Gal), C1-C6                 : /-0.623/0.753/-0.296
ACEL. MAX., C1-C6, EN LA MUESTRA       : /16891/18766/11449
ACEL. MAX.(Gal), C7-C12                : 
ACEL. MAX., C7-C12,EN LA MUESTRA       : 
UNIDADES DE LOS DATOS                  : Gal (cm/s/s)
FACTOR DE DECIMACION                   : 1
FORMATO DATOS (FORTRAN,16 campos/dato) : 3E16.7


================================================================================
CALIDAD DEL ACELEROGRAMA:
REGISTRO DIGITAL COMPLETO CON TIEMPO ABSOLUTO CORRECTO


================================================================================
COMENTARIOS:














================================================================================
DATOS DE ACELERACION:
---------+---------+---------+---------+---------+---------+---------+---------+
   CANAL-1   	     CANAL-2          CANAL-3
     N90E              N00E              V
---------+---------+---------+---------+---------+---------+---------+---------+
[...]
  -9.5798500e-03   5.7224500e-01  -1.5080200e-02
  -4.1645000e-02   5.5939000e-01  -1.6016500e-02
  -5.2177300e-02   5.5705300e-01  -1.8357400e-02
  -4.0708800e-02   5.3929100e-01  -1.7889200e-02
  -4.9134700e-02   5.3438300e-01  -2.2571000e-02
  -7.2773900e-02   5.3531800e-01  -2.8891400e-02
  -7.2773900e-02   5.1942500e-01  -2.5146000e-02
  -6.1305400e-02   5.2152800e-01  -2.9359600e-02
  -8.2136000e-02   4.9558600e-01  -3.8489100e-02
  -9.1732200e-02   4.9582000e-01  -3.6850500e-02
  -7.3476100e-02   4.9558600e-01  -3.6382300e-02
  -8.4242500e-02   4.7572000e-01  -4.3639100e-02
  -1.0249900e-01   4.9465100e-01  -4.5980000e-02
  -8.3540300e-02   4.7011100e-01  -4.6448200e-02
  -7.6518800e-02   4.6193100e-01  -5.3939000e-02
  -1.0132800e-01   4.7011100e-01  -5.3236800e-02
  -9.6179200e-02   4.4837500e-01  -4.9959500e-02
  -8.0029600e-02   4.5118000e-01  -5.3002700e-02
  -1.0086000e-01   4.4229900e-01  -5.3236800e-02
  -1.0413700e-01   4.3926100e-01  -5.3002700e-02
  -8.1199800e-02   4.3692300e-01  -4.8086800e-02
  -9.5477000e-02   4.2196600e-01  -4.7618600e-02
  -1.0905200e-01   4.1612300e-01  -4.5043600e-02
  -8.5646800e-02   4.1331800e-01  -3.5680000e-02
  -8.6114900e-02   4.0256700e-01  -4.0127700e-02
  -1.0741400e-01   3.8831100e-01  -3.7552800e-02
  -9.0561900e-02   3.9625700e-01  -3.0998300e-02
  -7.4880400e-02   3.8153300e-01  -3.3807300e-02
  -9.4072700e-02   3.6867900e-01  -3.0764200e-02
  -9.0327800e-02   3.7218400e-01  -2.4911900e-02
  -7.2305800e-02   3.5933000e-01  -2.3741500e-02
  -8.1433900e-02   3.5325300e-01  -2.6316500e-02
  -8.5178700e-02   3.3408900e-01  -2.3741500e-02
  -7.0199400e-02   3.2988200e-01  -1.9996000e-02
  -6.6454500e-02   3.2520700e-01  -2.1868800e-02
  -7.5816600e-02   3.0838000e-01  -1.9527900e-02
  -6.5518300e-02   3.0534200e-01  -1.1334700e-02
  -5.1943300e-02   2.9459100e-01  -1.5548300e-02
  -6.4816200e-02   2.8384000e-01  -2.6316500e-02
  -6.0369200e-02   2.7285500e-01  -2.2102800e-02
  -3.5559600e-02   2.5813100e-01  -1.9059700e-02
  -4.6092000e-02   2.3826500e-01  -2.3741500e-02
  -5.3113600e-02   2.3289000e-01  -2.3273300e-02
  -2.7367800e-02   2.2844900e-01  -1.9761900e-02
  -2.6197600e-02   1.9993600e-01  -1.6484700e-02
  -4.5389800e-02   1.9502800e-01  -1.9059700e-02
  -3.0176400e-02   1.8264100e-01  -1.9996000e-02
  -1.4729000e-02   1.5880200e-01  -2.0932400e-02
  -3.5325600e-02   1.5179100e-01  -2.4911900e-02
  -3.3219100e-02   1.2538100e-01  -1.8357400e-02
  -1.4494900e-02   1.2584800e-01  -1.7889200e-02
  -2.5261300e-02   1.0037300e-01  -2.6082400e-02
  -4.1176900e-02   8.4948200e-02  -2.8189200e-02
  -2.3857000e-02   7.7703000e-02  -2.7018700e-02
  -2.1048400e-02   3.8438800e-02  -2.9593700e-02
  -4.6092000e-02   3.1193700e-02  -2.5614200e-02
  -3.6027700e-02   1.9507900e-02  -1.6952900e-02
  -3.0176400e-02   2.9141300e-03  -2.6550500e-02
  -5.6858400e-02  -1.9990000e-02  -3.4275500e-02
  -5.6390300e-02  -2.9572300e-02  -3.3807300e-02
  -3.7198000e-02  -5.9955300e-02  -3.2871000e-02
  -6.2007500e-02  -7.3277100e-02  -3.1700500e-02
  -7.9093300e-02  -8.6131400e-02  -3.4509600e-02
  -5.8964900e-02  -1.1137300e-01  -3.8020900e-02
  -7.2773900e-02  -1.2446100e-01  -4.5511800e-02
  -1.0015800e-01  -1.5040300e-01  -4.5043600e-02
  -8.5646800e-02  -1.5180500e-01  -4.5277700e-02
  -8.2370100e-02  -1.8359100e-01  -4.5745900e-02
  -1.1162700e-01  -2.0088600e-01  -5.0661800e-02
  -1.1560500e-01  -2.0439100e-01  -5.4641300e-02
  -1.0788200e-01  -2.2706200e-01  -5.2768600e-02
  -1.2543600e-01  -2.4225300e-01  -6.4473100e-02
  -1.5024500e-01  -2.6071700e-01  -6.2366300e-02
  -1.4064900e-01  -2.7474000e-01  -5.7684500e-02
  -1.4088300e-01  -2.9156700e-01  -6.6814000e-02
  -1.8114000e-01  -3.0979700e-01  -6.5643500e-02
  -1.8020400e-01  -3.2195000e-01  -5.8152700e-02
  -1.7107600e-01  -3.3106500e-01  -6.4004900e-02
  -2.1624800e-01  -3.5303400e-01  -6.9389000e-02
  -2.2139700e-01  -3.6378500e-01  -6.6814000e-02
  -2.0243900e-01  -3.8178100e-01  -6.7984400e-02
  -2.4363200e-01  -4.1122900e-01  -6.7282100e-02
  -2.6118600e-01  -4.1520300e-01  -6.8218500e-02
  -2.4714300e-01  -4.2244800e-01  -6.6814000e-02
  -2.7195200e-01  -4.5493400e-01  -6.7282100e-02
  -3.0542200e-01  -4.5797200e-01  -6.9623000e-02
  -2.9488900e-01  -4.7269600e-01  -6.8218500e-02
  -2.9863400e-01  -4.9817100e-01  -6.9389000e-02
  -3.4029600e-01  -5.0354700e-01  -7.1963900e-02
  -3.4427400e-01  -5.2154300e-01  -6.8920800e-02
  -3.3561500e-01  -5.2902200e-01  -6.7282100e-02
  -3.6299900e-01  -5.4771900e-01  -7.5475300e-02
  -3.8710600e-01  -5.5987200e-01  -7.2198000e-02
  -3.6931800e-01  -5.6992200e-01  -6.8920800e-02
  -3.7914800e-01  -5.8698300e-01  -7.5475300e-02
  -4.1495800e-01  -6.0311000e-01  -7.1963900e-02
  -4.0208500e-01  -6.0474600e-01  -6.8218500e-02
  -3.9529800e-01  -6.1432800e-01  -6.4239000e-02
  -4.2291600e-01  -6.3279100e-01  -6.6345800e-02
  -4.2315000e-01  -6.3653100e-01  -6.8452600e-02
  -4.0419200e-01  -6.4985300e-01  -6.3068500e-02
  -4.1963900e-01  -6.5429300e-01  -6.3536700e-02
  -4.3064000e-01  -6.6597900e-01  -6.0025400e-02
  -4.0512800e-01  -6.7649600e-01  -5.1364100e-02
  -4.0349000e-01  -6.7579500e-01  -5.0895900e-02
  -4.2385200e-01  -6.8397500e-01  -5.5811800e-02
  -4.0255300e-01  -6.8701300e-01  -4.7384500e-02
  -3.8055300e-01  -6.9823200e-01  -4.2000500e-02
  -4.0442600e-01  -7.0524300e-01  -4.4341400e-02
  -3.9834000e-01  -7.0220500e-01  -3.6850500e-02
  -3.6042400e-01  -7.1669500e-01  -3.1934600e-02
  -3.7329700e-01  -7.1903200e-01  -3.0998300e-02
  -3.8148900e-01  -7.1669500e-01  -2.3039200e-02
  -3.4450900e-01  -7.1926600e-01  -1.5080200e-02
  -3.3655100e-01  -7.2090200e-01  -1.6484700e-02
  -3.5199800e-01  -7.2697900e-01  -7.3551900e-03
  -3.2929500e-01  -7.3118600e-01   4.3492900e-03
  -3.0308100e-01  -7.1996700e-01   5.7538300e-03
  -3.1291100e-01  -7.1786400e-01   1.0201500e-02
  -3.0495400e-01  -7.1996700e-01   1.1372000e-02
  -2.7335700e-01  -7.1669500e-01   1.3478800e-02
  -2.7054800e-01  -7.1342300e-01   1.7926500e-02
  -2.7008000e-01  -7.1248800e-01   2.9162800e-02
  -2.4058900e-01  -7.0711300e-01   4.1569500e-02
  -2.3099300e-01  -6.9753100e-01   4.3208200e-02
  -2.3216300e-01  -7.0547700e-01   4.7421800e-02
  -2.0548200e-01  -6.8397500e-01   5.7487600e-02
  -1.9050200e-01  -6.8491000e-01   6.6383100e-02
  -1.9611900e-01  -6.7696400e-01   7.0830800e-02
  -1.7856600e-01  -6.6808200e-01   7.7619400e-02
  -1.5165000e-01  -6.6247300e-01   8.0662500e-02
  -1.5609700e-01  -6.5172200e-01   7.8321600e-02
  -1.5165000e-01  -6.5546200e-01   8.3237500e-02
  -1.2192500e-01  -6.2507900e-01   8.6748900e-02
  -1.1349900e-01  -6.3536200e-01   8.5578400e-02
  -1.1841400e-01  -6.2250800e-01   9.0260200e-02
  -1.0320100e-01  -5.9890300e-01   9.0728400e-02
  -8.6114900e-02  -5.9679900e-01   9.0026100e-02
  -9.1732200e-02  -5.8464600e-01   8.9792000e-02
  -9.1732200e-02  -5.7810200e-01   8.8153400e-02
  -6.6688600e-02  -5.5917100e-01   9.0026100e-02
  -6.2007500e-02  -5.4982300e-01   8.5812500e-02
  -8.0263600e-02  -5.4678400e-01   9.1196600e-02
  -5.5688100e-02  -5.2317900e-01   9.4239700e-02
  -4.1879100e-02  -5.1242800e-01   8.2535200e-02
  -6.7156700e-02  -5.0728600e-01   8.0662500e-02
  -4.3751500e-02  -4.8461600e-01   8.6514800e-02
  -1.9644100e-02  -4.8765400e-01   8.8153400e-02
  -4.3751500e-02  -4.6475000e-01   8.2769300e-02
  -3.5325600e-02  -4.4815600e-01   8.2067100e-02
   1.4206000e-03  -4.4137900e-01   8.4408000e-02
  -1.2856600e-02  -4.2057800e-01   7.8087500e-02
  -2.9240200e-02  -4.0281600e-01   7.5278500e-02
   1.5463700e-02  -3.8645600e-01   7.7385300e-02
   2.1315000e-02  -3.9089600e-01   7.6683000e-02
  -1.0516100e-02  -3.6144800e-01   8.1833000e-02
   2.5762000e-02  -3.4134800e-01   8.8153400e-02
   4.0975400e-02  -3.2662400e-01   8.0896600e-02
   1.0782700e-02  -3.0325300e-01   8.0662500e-02
   3.7464600e-02  -2.8502300e-01   8.3939800e-02
   6.1103900e-02  -2.6398900e-01   8.3003400e-02
   4.4018100e-02  -2.5393900e-01   8.6982900e-02
   5.2912100e-02  -2.2262100e-01   8.6514800e-02
   7.6785400e-02  -2.1303900e-01   9.1898800e-02
   7.4444900e-02  -1.9177100e-01   9.2132900e-02
   7.3274600e-02  -1.5951800e-01   9.0260200e-02
   9.4105300e-02  -1.5414300e-01   1.0079400e-01
   1.0206300e-01  -1.2142200e-01   1.0219900e-01
   9.5743600e-02  -1.0506200e-01   9.6580600e-02
   1.0861600e-01  -8.5430200e-02   1.0617800e-01
   1.3108500e-01  -5.6683300e-02   1.1554200e-01
   1.2195700e-01  -3.8920900e-02   1.1015800e-01
   1.1961700e-01  -7.8367800e-03   1.1366900e-01
   1.5332000e-01   8.1068800e-04   1.1507400e-01
   1.5449100e-01   2.5584500e-02   1.1671200e-01
   1.3787300e-01   5.1293200e-02   1.2537400e-01
   1.6104400e-01   7.0691600e-02   1.2490500e-01
   1.8000200e-01   9.9438500e-02   1.2373500e-01
   1.6081000e-01   1.1533100e-01   1.2373500e-01
   1.6783200e-01   1.3846900e-01   1.2958700e-01
   1.9451400e-01   1.5716600e-01   1.3239600e-01
   1.8257700e-01   1.8451100e-01   1.2560800e-01
   1.7766200e-01   1.9713200e-01   1.3426900e-01
   2.0153500e-01   2.2237300e-01   1.3824900e-01
   2.0364200e-01   2.5836500e-01   1.2982100e-01
   1.9053500e-01   2.6420800e-01   1.3169400e-01
   2.0949300e-01   2.9505800e-01   1.3661000e-01
   2.2260000e-01   3.1141800e-01   1.3333300e-01
   2.0457800e-01   3.3011600e-01   1.2701200e-01
   2.1768500e-01   3.6400400e-01   1.3544000e-01
   2.4272800e-01   3.7872800e-01   1.3403500e-01
   2.2821700e-01   4.0139900e-01   1.1928700e-01
   2.2891900e-01   4.2827600e-01   1.1554200e-01
   2.5606900e-01   4.5118000e-01   1.1694600e-01
   2.5419700e-01   4.6473600e-01   1.1273300e-01
   2.4085600e-01   4.8530200e-01   1.0781700e-01
   2.5817600e-01   5.0773900e-01   1.0898700e-01
   2.7432500e-01   5.2970800e-01   9.6112400e-02
   2.5138800e-01   5.4513400e-01   8.6280700e-02
   2.5349500e-01   5.5705300e-01   8.5812500e-02
   2.8626200e-01   5.8767000e-01   7.8087500e-02
   2.6613400e-01   5.9748600e-01   6.9426200e-02
   2.5372900e-01   6.0356200e-01   6.5914900e-02
   2.8579400e-01   6.3301100e-01   6.2871700e-02
   2.7455900e-01   6.4329400e-01   4.9762700e-02
   2.5513300e-01   6.5498000e-01   4.4378600e-02
   2.7830400e-01   6.7204100e-01   4.2974100e-02
   2.7643200e-01   6.7811800e-01   3.7824100e-02
   2.5560100e-01   6.9658100e-01   2.9631000e-02
   2.6660200e-01   7.0335900e-01   2.3310600e-02
   2.7245300e-01   7.1551200e-01   2.3778700e-02
   2.5653700e-01   7.2299100e-01   1.0903800e-02
   2.4764300e-01   7.2252300e-01   2.0083900e-03
   2.6215500e-01   7.3865000e-01   5.5197400e-03
   2.6262300e-01   7.3257300e-01  -2.2052200e-03
   2.3289800e-01   7.3981800e-01  -1.2037000e-02
   2.4109000e-01   7.4425900e-01  -1.3441500e-02
   2.5606900e-01   7.4566100e-01  -2.0464200e-02
   2.2377000e-01   7.4192200e-01  -2.7252800e-02
   2.1674900e-01   7.4309000e-01  -3.0530100e-02
   2.4717500e-01   7.5267300e-01  -3.1700500e-02
   2.2728100e-01   7.3374200e-01  -3.3339100e-02
   2.0270500e-01   7.4005200e-01  -3.1700500e-02
   2.3523900e-01   7.4028600e-01  -3.3105100e-02
   2.3079200e-01   7.3350800e-01  -4.8086800e-02
   2.0808900e-01   7.2556200e-01  -5.0427700e-02
   2.3406800e-01   7.1808300e-01  -4.9257200e-02
   2.4366500e-01   7.1738200e-01  -5.3236800e-02
   2.2306800e-01   7.1037000e-01  -6.5877600e-02
   2.3243000e-01   7.0452700e-01  -7.2900300e-02
   2.5302700e-01   6.8512900e-01  -7.2432100e-02
   2.3640900e-01   6.7811800e-01  -8.9286600e-02
   2.3430300e-01   6.6736700e-01  -8.8116100e-02
   2.6590000e-01   6.5965400e-01  -8.7179800e-02
   2.6098400e-01   6.4212500e-01  -9.7011500e-02
   2.4179200e-01   6.2576500e-01  -9.8416100e-02
   2.6683600e-01   6.2366200e-01  -1.0028900e-01
   2.7853800e-01   6.0005700e-01  -1.0473600e-01
   2.6145300e-01   5.8276200e-01  -1.1129100e-01
   2.7128300e-01   5.6780400e-01  -1.1222700e-01
   2.9328400e-01   5.5939000e-01  -1.1878200e-01
   2.8345300e-01   5.3531800e-01  -1.2369800e-01
   2.6824000e-01   5.2222900e-01  -1.2229300e-01
   2.9141100e-01   5.1802300e-01  -1.2182500e-01
   2.9422000e-01   4.8834100e-01  -1.3142300e-01
   2.7245300e-01   4.7759000e-01  -1.3563600e-01
   2.8977300e-01   4.5865900e-01  -1.2580500e-01
   2.9609200e-01   4.4159800e-01  -1.3470000e-01
   2.7151700e-01   4.2827600e-01  -1.4289300e-01
   2.7807000e-01   4.0911100e-01  -1.3680700e-01
   2.9492200e-01   3.9649100e-01  -1.3774300e-01
   2.6917600e-01   3.7498900e-01  -1.4476600e-01
   2.5770800e-01   3.6517300e-01  -1.4897900e-01
   2.8041100e-01   3.3736100e-01  -1.4687300e-01
   2.6472900e-01   3.1819600e-01  -1.4546800e-01
   2.3968600e-01   3.1609300e-01  -1.4523400e-01
   2.4951600e-01   2.8851400e-01  -1.4453200e-01
   2.5138800e-01   2.7051800e-01  -1.4640400e-01
   2.2236600e-01   2.5158700e-01  -1.4757500e-01
   2.1113100e-01   2.4013500e-01  -1.4055200e-01
   2.3032400e-01   2.2237300e-01  -1.3423200e-01
   2.0668400e-01   1.9923500e-01  -1.3891400e-01
   1.7461900e-01   1.8941900e-01  -1.3212500e-01
   1.9591800e-01   1.7773300e-01  -1.2440000e-01
   1.8772600e-01   1.5646500e-01  -1.3446600e-01
   1.4770300e-01   1.3402800e-01  -1.2440000e-01
   1.5729900e-01   1.2304400e-01  -1.1175900e-01
   1.6221400e-01   1.0247700e-01  -1.1480200e-01
   1.1961700e-01   8.7752800e-02  -1.0637500e-01
   1.1891500e-01   7.1626400e-02  -9.4904700e-02
   1.3085100e-01   5.7369800e-02  -8.9988800e-02
   9.3169000e-02   4.6151500e-02  -9.1159300e-02
   8.1466400e-02   2.3013600e-02  -8.4136600e-02
   9.3637200e-02   8.9907200e-03  -7.6177600e-02
   6.8827600e-02  -2.4613300e-03  -6.9623000e-02
   4.2613800e-02  -2.3262000e-02  -6.2834400e-02
   4.8231000e-02  -2.7702600e-02  -5.9089000e-02
   3.8166800e-02  -4.5698700e-02  -5.2768600e-02
   2.3568100e-03  -6.9537600e-02  -5.4641300e-02
   9.5249500e-04  -6.4629600e-02  -4.5277700e-02
   7.0378500e-03  -9.2441700e-02  -3.7084600e-02
  -2.8772100e-02  -1.0669800e-01  -3.8957300e-02
  -5.1007100e-02  -1.0529600e-01  -3.2168700e-02
  -4.1879100e-02  -1.2282500e-01  -2.5614200e-02
  -5.7326500e-02  -1.3427700e-01  -2.7721000e-02
  -8.9859700e-02  -1.5110400e-01  -2.5380100e-02
  -8.9391600e-02  -1.5671300e-01  -1.6250600e-02
  -8.5412800e-02  -1.7120400e-01  -1.4612000e-02
  -1.2005200e-01  -1.8662900e-01  -9.9301800e-03
  -1.3737200e-01  -1.8873200e-01  -3.8438500e-03
  -1.2052100e-01  -2.0111900e-01  -3.3756700e-03
  -1.4579800e-01  -2.1327300e-01  -8.7597300e-03
  -1.7154400e-01  -2.2168600e-01  -2.9074900e-03
  -1.5165000e-01  -2.3337200e-01   9.2651700e-03
  -1.6896900e-01  -2.4459000e-01   4.1152000e-03
  -2.0501300e-01  -2.4575900e-01   5.0515600e-03
  -1.9097000e-01  -2.6024900e-01   1.2776500e-02
  -1.9331100e-01  -2.7263600e-01   1.0903800e-02
  -2.3263200e-01  -2.7474000e-01   1.2776500e-02
  -2.2701400e-01  -2.7918000e-01   1.5819700e-02
  -2.1624800e-01  -2.9086600e-01   1.6053800e-02
  -2.5042000e-01  -3.0629100e-01   1.6053800e-02
  -2.6329200e-01  -2.9881200e-01   1.6522000e-02
  -2.4971700e-01  -3.0746000e-01   2.1906000e-02
  -2.6118600e-01  -3.2078200e-01   2.0033300e-02
  -2.8576100e-01  -3.2639100e-01   1.9096900e-02
  -2.8154800e-01  -3.2405400e-01   2.3310600e-02
  -2.7218600e-01  -3.3831000e-01   2.1671900e-02
  -3.0542200e-01  -3.4929500e-01   2.3076500e-02
  -3.1174100e-01  -3.4064700e-01   2.5417400e-02
  -2.9208100e-01  -3.5841000e-01   2.1671900e-02
  -3.1829500e-01  -3.6565500e-01   1.8628800e-02
  -3.3327400e-01  -3.6518700e-01   2.0501500e-02
  -3.1876300e-01  -3.7336700e-01   2.3544600e-02
  -3.2952900e-01  -3.8622200e-01   2.0267400e-02
