**************************************************************************************
  	RED ACELEROGRÁFICA DE LA UNIVERSIDAD AUTONOMA METROPOLITANA (RA-UAM)
	   UNIDAD AZCAPOTZALCO. DIVISIÓN CBI-DEPARTAMENTO DE MATERIALES
     Av. San Pablo 420, Col. Nueva el Rosario, Azcapotzalco, C.P. 02128, Ciudad de México
		Área de Estructuras. e-mail: agb@azc.uam.mx
**************************************************************************************
ARCHIVO ESTANDAR DE ACELERACION:
VERSION DEL FORMATO                    : 2.0
NOMBRE DEL ARCHIVO                     : RUML202212.111
FECHA Y HORA DE CREACION               : 11:30 a. m. 16/12/2022
REF. CATALOGO ACELEROGRAMAS, SMIS 1999 : REGISTRO NO.      /PAG.    


================================================================================
DATOS DE LA ESTACION:
NOMBRE DE LA ESTACION                  : UAM-LERMA.
CLAVE DE LA ESTACION                   : RUML
LOCALIZACION DE LA ESTACION            : AV. DE LAS GARZAS 10, EL PANTEON, C.P.52005,
                                       : LERMA DE VILLADA, ESTADO DE MEXICO.   
                                       : 
                                       : 
                                       : 
COORDENADAS DE LA ESTACION             : 19.291278 LAT. N
                                       : 99.500578 LONG. W
ALTITUD (msnm)                         : 2570
TIPO DE SUELO                          : DEPOSITOS LACUSTRES
                                       : 
                                       : 
INSTITUCION RESPONSABLE                : UNIVERSIDAD AUTONOMA METROPOLITANA
                                       : 

================================================================================
DATOS DEL ACELEROGRAFO: 
MODELO DEL ACELEROGRAFO                : ETNA2 KINEMETRICS
NUMERO DE SERIE DEL ACELEROGRAFO       : 103733
NUMERO DE CANALES                      : 3
ORIENTACION C1-C6 (rumbo;orientacion)  : /N90E/N00E/V 
ORIENTACION C7-C12 (rumbo;orientacion) : 
VEL. DE MUESTREO, C1-C6 (muestras/s)   : /200/200/200
VEL. DE MUESTREO, C7-C12 (muestras/s)  : 
ESC. COMPLETA DE SENSORES, C1-C6, (g)  : /2/2/2
ESC. COMPLETA DE SENSORES, C7-C12 (g)  : 
FREC. NAT. DE SENSORES, C1-C6, (Hz)    : /212/206/208   
FREC. NAT. DE SENSORES, C7-C12 (Hz)    : 
AMORTIGUAMIENTO DE SENSORES, C1-C6     : /0.7/0.7/0.7      
AMORTIGUAMIENTO DE SENSORES, C7-C12    : 
INTERVALO DE MUESTREO, C1-C6 (s)       : /0.005/0.005/0.005
INTERVALO DE MUESTREO, C7-C12 (s)      : 
UMBRAL DE DISPARO, C1-C6 (Gal)         : /2/2/2
UMBRAL DE DISPARO, C7-C12 (Gal)        : 
MEMORIA DE PREEVENTO (s)               : 50
TIEMPO DE POSEVENTO (s)                : 60


================================================================================
DATOS DEL SISMO:
FECHA DEL SISMO [GMT]                  : 2022/12/11
HORA EPICENTRO (GMT)                   : 14:31:30
MAGNITUD(ES)                           : /M=6.0
COORDENADAS DEL EPICENTRO              : 17.1300 LAT. N
                                       : -100.6380 LONG. W
PROFUNDIDAD FOCAL (Km)                 : 14.1
FUENTE DE LOS DATOS EPICENTRALES       : SSN
                                       : INSTITUTO DE GEOFISICA, UNAM

================================================================================
DATOS DE ESTE REGISTRO:
HORA DE LA PRIMERA MUESTRA (GMT)       : 14:31:25.000
EXACTITUD DEL TIEMPO (s)               : 
DURACION DEL REGISTRO (s), C1-C6       : /307/307/307
DURACION DEL REGISTRO (s), C7-C12      : 
NUM. TOTAL DE MUESTRAS, C1-C6          : /61400/61400/61400
NUM. TOTAL DE MUESTRAS, C7-C12         : 
ACEL. MAX.(Gal), C1-C6                 : /6.067/7.175/-2.263
ACEL. MAX., C1-C6, EN LA MUESTRA       : /19794/20048/18046
ACEL. MAX.(Gal), C7-C12                : 
ACEL. MAX., C7-C12,EN LA MUESTRA       : 
UNIDADES DE LOS DATOS                  : Gal (cm/s/s)
FACTOR DE DECIMACION                   : 1
FORMATO DATOS (FORTRAN,16 campos/dato) : 3E16.7


================================================================================
CALIDAD DEL ACELEROGRAMA:
REGISTRO DIGITAL COMPLETO CON TIEMPO ABSOLUTO CORRECTO


================================================================================
COMENTARIOS:














================================================================================
DATOS DE ACELERACION:
---------+---------+---------+---------+---------+---------+---------+---------+
   CANAL-1   	     CANAL-2          CANAL-3
     N90E              N00E              V
---------+---------+---------+---------+---------+---------+---------+---------+
[...]
   1.5644100e+00   2.2800300e+00  -1.0765300e+00
   1.2795700e+00   2.1360600e+00  -1.0638900e+00
   1.1059000e+00   1.9724600e+00  -1.0500700e+00
   8.7068000e-01   1.8406500e+00  -1.0266700e+00
   6.0830700e-01   1.6501700e+00  -1.0142600e+00
   3.9859700e-01   1.4650700e+00  -9.9927700e-01
   1.8935400e-01   1.2979600e+00  -9.6720700e-01
  -4.9847400e-02   1.1530600e+00  -9.5316200e-01
  -2.9677200e-01   1.0055800e+00  -9.2413500e-01
  -4.6903500e-01   8.5787500e-01  -8.8948900e-01
  -6.6821300e-01   7.1647700e-01  -8.7029400e-01
  -8.4983800e-01   5.3604900e-01  -8.3658500e-01
  -1.0270200e+00   3.9745600e-01  -7.8344700e-01
  -1.2051300e+00   2.4297000e-01  -7.3218100e-01
  -1.3546900e+00   9.8767500e-02  -6.7740400e-01
  -1.5484800e+00  -2.0661000e-02  -5.9734500e-01
  -1.6376600e+00  -1.5761800e-01  -5.1869100e-01
  -1.7443900e+00  -2.8499300e-01  -4.2739600e-01
  -1.8918400e+00  -4.0699200e-01  -3.2275800e-01
  -1.9222600e+00  -5.1660500e-01  -2.3427200e-01
  -1.9920100e+00  -6.4631700e-01  -1.3993400e-01
  -2.1015500e+00  -7.4751500e-01  -4.4425600e-02
  -2.1401700e+00  -8.6273700e-01   5.0146600e-02
  -2.1682500e+00  -9.8356800e-01   1.3137600e-01
  -2.2426800e+00  -1.0747200e+00   2.0441200e-01
  -2.2508700e+00  -1.2049000e+00   2.8845000e-01
  -2.2623400e+00  -1.3131100e+00   3.7061500e-01
  -2.3271700e+00  -1.3925700e+00   4.5067400e-01
  -2.3353700e+00  -1.4909600e+00   5.3541400e-01
  -2.3721100e+00  -1.5973000e+00   6.3303000e-01
  -2.3910700e+00  -1.7064500e+00   7.2572900e-01
  -2.4460700e+00  -1.8181700e+00   8.1796100e-01
  -2.5057600e+00  -1.9488100e+00   9.1674700e-01
  -2.4905400e+00  -2.0909100e+00   1.0094500e+00
  -2.5652100e+00  -2.2105700e+00   1.0913800e+00
  -2.6115500e+00  -2.3321100e+00   1.1599700e+00
  -2.6234800e+00  -2.4576100e+00   1.2217700e+00
  -2.6880800e+00  -2.5863900e+00   1.2688200e+00
  -2.7206200e+00  -2.7418100e+00   1.3004200e+00
  -2.7288100e+00  -2.9068100e+00   1.3247600e+00
  -2.7695300e+00  -3.0671400e+00   1.3425600e+00
  -2.7994900e+00  -3.2178900e+00   1.3446600e+00
  -2.8186800e+00  -3.3831200e+00   1.3463000e+00
  -2.8247700e+00  -3.5539700e+00   1.3434900e+00
  -2.8130700e+00  -3.6993400e+00   1.3243000e+00
  -2.8622200e+00  -3.8694800e+00   1.3130600e+00
  -2.8395200e+00  -4.0534200e+00   1.2980800e+00
  -2.8247700e+00  -4.1938800e+00   1.2777100e+00
  -2.8678400e+00  -4.3383200e+00   1.2470500e+00
  -2.8371700e+00  -4.5112700e+00   1.2280900e+00
  -2.8418600e+00  -4.6627100e+00   1.2149800e+00
  -2.8886700e+00  -4.8027100e+00   1.1817400e+00
  -2.8825800e+00  -4.9663100e+00   1.1555200e+00
  -2.8753300e+00  -5.1021000e+00   1.1171300e+00
  -2.9572400e+00  -5.2299400e+00   1.0778000e+00
  -3.0073300e+00  -5.3715700e+00   1.0410500e+00
  -3.0295700e+00  -5.4561800e+00   9.8533500e-01
  -3.0686500e+00  -5.5417200e+00   9.0925600e-01
  -3.1257600e+00  -5.6590400e+00   8.3809200e-01
  -3.1695300e+00  -5.7413100e+00   7.7207900e-01
  -3.1657800e+00  -5.8184400e+00   6.8663600e-01
  -3.2495700e+00  -5.8932200e+00   6.1126000e-01
  -3.2711100e+00  -5.9250100e+00   5.3845800e-01
  -3.2991900e+00  -5.9434700e+00   4.5582400e-01
  -3.3909400e+00  -5.9460400e+00   3.7482900e-01
  -3.4122400e+00  -5.9343600e+00   2.9406800e-01
  -3.4068600e+00  -5.9605300e+00   2.3039600e-01
  -3.3967900e+00  -5.9539900e+00   1.6110500e-01
  -3.4620900e+00  -5.9112200e+00   6.9342000e-02
  -3.4305000e+00  -5.9497800e+00  -2.9917300e-03
  -3.4164500e+00  -5.8948600e+00  -7.0175500e-02
  -3.4557700e+00  -5.8249800e+00  -1.3876400e-01
  -3.4337700e+00  -5.8048800e+00  -2.1788600e-01
  -3.4124700e+00  -5.7448200e+00  -3.0052000e-01
  -3.3614500e+00  -5.7137300e+00  -3.4804000e-01
  -3.3469400e+00  -5.6239800e+00  -3.9813500e-01
  -3.2668900e+00  -5.6001500e+00  -4.6251000e-01
  -3.2264000e+00  -5.5227900e+00  -5.1681900e-01
  -3.2168100e+00  -5.4145800e+00  -5.6293400e-01
  -3.1641500e+00  -5.3577800e+00  -6.0975200e-01
  -3.1496300e+00  -5.2297100e+00  -6.5540000e-01
  -3.1089100e+00  -5.1397300e+00  -6.9636500e-01
  -3.0745000e+00  -5.0051100e+00  -7.1883800e-01
  -3.0300300e+00  -4.8742300e+00  -7.5395100e-01
  -3.0127100e+00  -4.7573700e+00  -8.1317600e-01
  -2.9769000e+00  -4.6426100e+00  -8.4196900e-01
  -2.9242400e+00  -4.4932700e+00  -8.8223300e-01
  -2.9326700e+00  -4.3558500e+00  -9.3958400e-01
  -2.9006000e+00  -4.2422600e+00  -9.6510000e-01
  -2.8987300e+00  -4.0398600e+00  -9.9717100e-01
  -2.8645600e+00  -3.9498800e+00  -1.0301800e+00
  -2.8739200e+00  -3.7825400e+00  -1.0538200e+00
  -2.8786000e+00  -3.6481600e+00  -1.0821500e+00
  -2.7779600e+00  -3.6107600e+00  -1.0884700e+00
  -2.8236000e+00  -3.4417900e+00  -1.0931500e+00
  -2.7725800e+00  -3.3856900e+00  -1.0870600e+00
  -2.6995500e+00  -3.2674300e+00  -1.0566300e+00
  -2.7203800e+00  -3.1148200e+00  -1.0407100e+00
  -2.6438500e+00  -3.0133900e+00  -1.0130900e+00
  -2.5914200e+00  -2.8619400e+00  -9.6556800e-01
  -2.5277600e+00  -2.7742900e+00  -9.3256200e-01
  -2.4657300e+00  -2.6436500e+00  -8.9932100e-01
  -2.4109700e+00  -2.5307600e+00  -8.5086500e-01
  -2.3241300e+00  -2.4363400e+00  -8.1668700e-01
  -2.2759200e+00  -2.2989200e+00  -7.8485100e-01
  -2.1977400e+00  -2.2002900e+00  -7.3171300e-01
  -2.1041200e+00  -2.0757200e+00  -6.9777000e-01
  -2.0163500e+00  -1.9511500e+00  -6.7600000e-01
  -1.9335000e+00  -1.8513500e+00  -6.4510000e-01
  -1.8323900e+00  -1.7426800e+00  -6.0226100e-01
  -1.7603000e+00  -1.6421800e+00  -5.6457300e-01
  -1.7354900e+00  -1.5339700e+00  -5.2992800e-01
  -1.6079300e+00  -1.4283300e+00  -4.6766000e-01
  -1.5615900e+00  -1.3306400e+00  -4.1733000e-01
  -1.5098600e+00  -1.2696400e+00  -3.4850800e-01
  -1.4251400e+00  -1.1852600e+00  -2.6353400e-01
  -1.3804300e+00  -1.1060300e+00  -1.9892500e-01
  -1.3053000e+00  -1.0448000e+00  -1.1793000e-01
  -1.3301100e+00  -9.1555700e-01  -3.1550700e-02
  -1.2795600e+00  -8.3843100e-01   4.7337500e-02
  -1.2205800e+00  -7.4634700e-01   1.1943700e-01
  -1.2374300e+00  -6.6711700e-01   1.9481400e-01
  -1.1908500e+00  -6.1149300e-01   2.6644500e-01
  -1.1831300e+00  -5.0071200e-01   3.2286100e-01
  -1.2102800e+00  -4.3013000e-01   3.7646800e-01
  -1.1871100e+00  -3.3804600e-01   4.3756500e-01
  -1.1812600e+00  -2.3334200e-01   4.9819400e-01
  -1.1997500e+00  -1.2630000e-01   5.3635100e-01
  -1.1950600e+00  -2.6648900e-03   5.8925500e-01
  -1.1885100e+00   1.4294000e-01   6.4075500e-01
  -1.1482500e+00   2.7195100e-01   6.7212300e-01
  -1.1747000e+00   4.0797300e-01   7.0934300e-01
  -1.1910900e+00   5.8372700e-01   7.2385700e-01
  -1.1150200e+00   6.8679500e-01   7.3158200e-01
  -1.1447400e+00   8.2772500e-01   7.4211600e-01
  -1.1302300e+00   9.7823800e-01   7.4562700e-01
  -1.0803800e+00   1.0780300e+00   7.5265000e-01
  -1.1035500e+00   1.2012000e+00   7.4352000e-01
  -1.0614200e+00   1.3063700e+00   7.3111300e-01
  -1.0059500e+00   1.3954200e+00   7.2970900e-01
  -9.7997100e-01   1.4550200e+00   7.0793900e-01
  -9.5211800e-01   1.5368200e+00   6.9225500e-01
  -8.9313700e-01   1.6097400e+00   6.8055000e-01
  -8.4796500e-01   1.6506400e+00   6.4660700e-01
  -8.1402800e-01   1.7212200e+00   6.2273000e-01
  -7.5223800e-01   1.7569800e+00   6.0423700e-01
  -6.8366100e-01   1.8009200e+00   5.7918900e-01
  -6.2233900e-01   1.8252200e+00   5.6116400e-01
  -5.4697400e-01   1.8341000e+00   5.4665100e-01
  -4.4328900e-01   1.8855200e+00   5.2909400e-01
  -3.9109500e-01   1.8955700e+00   5.0732400e-01
  -3.3562500e-01   1.9568000e+00   4.8274400e-01
  -2.3053600e-01   1.9942000e+00   4.5886700e-01
  -1.5049000e-01   2.0014400e+00   4.1556100e-01
  -7.3954700e-02   2.0299600e+00   3.6242200e-01
   2.9730400e-02   2.0086900e+00   3.2145700e-01
   1.3060700e-01   2.0283200e+00   2.6831800e-01
   2.2235500e-01   2.0091600e+00   2.0768900e-01
   3.0638000e-01   2.0068200e+00   1.5548700e-01
   4.1170400e-01   2.0138300e+00   1.0890300e-01
   5.2217600e-01   1.9832100e+00   5.6935200e-02
   6.0830700e-01   1.9939600e+00  -6.5083800e-04
   7.3493000e-01   1.9677900e+00  -4.7000600e-02
   8.6857300e-01   1.9640500e+00  -1.0950300e-01
   9.4744900e-01   1.9472200e+00  -1.7715400e-01
   1.0747700e+00   1.9058500e+00  -2.3005900e-01
   1.1983500e+00   1.9163700e+00  -2.8319700e-01
   1.2648200e+00   1.8960400e+00  -3.5670100e-01
   1.3530600e+00   1.8665900e+00  -4.1873500e-01
   1.4455100e+00   1.8507000e+00  -4.6648900e-01
   1.5257900e+00   1.8284900e+00  -5.2782100e-01
   1.5346900e+00   1.8186800e+00  -5.5216600e-01
   1.6145000e+00   1.8280300e+00  -5.8025700e-01
   1.6755900e+00   1.8553700e+00  -6.0202700e-01
   1.6783900e+00   1.8626200e+00  -6.1139100e-01
   1.7233300e+00   1.9098300e+00  -6.1302900e-01
   1.7341000e+00   1.9656900e+00  -5.8353400e-01
   1.7500100e+00   2.0171000e+00  -5.7978900e-01
   1.7268400e+00   2.1056800e+00  -5.5380500e-01
   1.7834800e+00   2.1613000e+00  -5.1307300e-01
   1.7839500e+00   2.2643700e+00  -4.8779100e-01
   1.7532900e+00   2.3513200e+00  -4.4495300e-01
   1.8003400e+00   2.4548500e+00  -4.2224600e-01
   1.8015100e+00   2.5812900e+00  -4.0351900e-01
   1.7741200e+00   2.6514100e+00  -3.6840600e-01
   1.7476700e+00   2.7893000e+00  -3.4616700e-01
   1.7984600e+00   2.9042900e+00  -3.3867600e-01
   1.7783300e+00   3.0085200e+00  -3.3563300e-01
   1.7713100e+00   3.1438400e+00  -3.2533300e-01
   1.7937800e+00   3.2796300e+00  -3.2135400e-01
   1.7846500e+00   3.4278100e+00  -3.2392900e-01
   1.7717800e+00   3.5685000e+00  -3.3610100e-01
   1.7621800e+00   3.6895700e+00  -3.3750600e-01
   1.8012700e+00   3.8639200e+00  -3.2790800e-01
   1.7509500e+00   4.0614100e+00  -3.3001500e-01
   1.7767000e+00   4.1955600e+00  -3.2580100e-01
   1.8363800e+00   4.4131500e+00  -3.1807600e-01
   1.8546400e+00   4.5968500e+00  -3.1667200e-01
   1.8682100e+00   4.7742400e+00  -3.0403100e-01
   1.9190000e+00   4.9892600e+00  -2.8038800e-01
   2.0018500e+00   5.1283200e+00  -2.6681100e-01
   1.9737700e+00   5.3325900e+00  -2.3965600e-01
   2.0812000e+00   5.4952500e+00  -2.2163100e-01
   2.1652200e+00   5.6446000e+00  -2.0150000e-01
   2.1937800e+00   5.8072600e+00  -1.7083400e-01
   2.3042500e+00   5.9133700e+00  -1.4414800e-01
   2.3566800e+00   6.0949700e+00  -1.0552300e-01
   2.4278300e+00   6.2122900e+00  -8.1411800e-02
   2.4634000e+00   6.3226100e+00  -3.7168800e-02
   2.5514100e+00   6.4754600e+00   2.2992200e-02
   2.6366000e+00   6.5635700e+00   7.0044200e-02
   2.6710100e+00   6.6675700e+00   1.2833300e-01
   2.7992700e+00   6.7360500e+00   1.9996400e-01
   2.8601200e+00   6.8274300e+00   2.6995700e-01
   2.8795500e+00   6.9307300e+00   3.3105400e-01
   2.9605300e+00   6.9978100e+00   4.0174900e-01
   3.0527500e+00   7.0625500e+00   4.7572200e-01
   3.0794300e+00   7.1181700e+00   5.4431000e-01
   3.1096200e+00   7.1445800e+00   6.1008900e-01
   3.2168200e+00   7.1478500e+00   6.8406100e-01
   3.2446700e+00   7.1749600e+00   7.4164700e-01
   3.2671400e+00   7.1221500e+00   7.9829700e-01
   3.3237800e+00   7.0948000e+00   8.7835600e-01
   3.3256500e+00   7.0898900e+00   9.2166200e-01
   3.3932900e+00   7.0109000e+00   9.6426700e-01
   3.4536800e+00   6.9802800e+00   1.0195100e+00
   3.4700600e+00   6.9241900e+00   1.0560300e+00
   3.5196800e+00   6.8580500e+00   1.0766300e+00
   3.5082100e+00   6.8019600e+00   1.0778000e+00
   3.5945800e+00   6.6977200e+00   1.0754600e+00
   3.6329600e+00   6.5941800e+00   1.0653900e+00
   3.5739800e+00   6.4848000e+00   1.0550900e+00
   3.6306200e+00   6.3679500e+00   1.0368300e+00
   3.6519200e+00   6.2581000e+00   9.9867800e-01
   3.6603500e+00   6.1398400e+00   9.6450100e-01
   3.6460700e+00   6.0021800e+00   9.4296500e-01
   3.6275800e+00   5.8689600e+00   9.1417200e-01
   3.5828800e+00   5.7193900e+00   8.6524700e-01
   3.5454300e+00   5.5445700e+00   8.2240800e-01
   3.5056400e+00   5.3828400e+00   7.7278100e-01
   3.3937600e+00   5.2129300e+00   7.1332300e-01
   3.2907800e+00   5.0399800e+00   6.5831200e-01
   3.1969200e+00   4.8649200e+00   5.9581000e-01
   3.1435600e+00   4.6992200e+00   5.3190300e-01
   2.9904900e+00   4.5344500e+00   4.5956900e-01
   2.8329700e+00   4.3444400e+00   3.9777000e-01
   2.7459100e+00   4.1735900e+00   3.2613800e-01
   2.5806600e+00   3.9952700e+00   2.3531200e-01
   2.4140200e+00   3.8108700e+00   1.6321200e-01
   2.2895000e+00   3.6472700e+00   8.3621400e-02
   2.0992200e+00   3.4878700e+00  -7.9076200e-03
   1.9356200e+00   3.2950600e+00  -1.0084100e-01
   1.8527600e+00   3.0760700e+00  -1.8581600e-01
   1.6451600e+00   2.8734400e+00  -2.7359900e-01
   1.4572100e+00   2.6523400e+00  -3.7566200e-01
   1.2985300e+00   2.4216600e+00  -4.7000100e-01
   1.1435800e+00   2.2005700e+00  -5.6831800e-01
   9.9543000e-01   1.9759700e+00  -6.6148600e-01
   7.6629300e-01   1.7625900e+00  -7.4856700e-01
   6.6167100e-01   1.5363500e+00  -8.4314000e-01
   4.9994100e-01   1.3150200e+00  -9.4590500e-01
   3.1831700e-01   1.0965000e+00  -1.0465600e+00
   1.8958800e-01   8.4502000e-01  -1.1249800e+00
  -1.8484400e-02   6.2182200e-01  -1.2130000e+00
  -1.6008600e-01   4.0867400e-01  -1.3153000e+00
  -3.1034700e-01   1.8430700e-01  -1.3981700e+00
  -4.3977800e-01  -3.7722200e-02  -1.4744800e+00
  -5.9940200e-01  -2.4385900e-01  -1.5486900e+00
  -7.6698300e-01  -4.6098100e-01  -1.6144600e+00
  -8.5498700e-01  -6.8043900e-01  -1.6849300e+00
  -1.0061800e+00  -8.7442300e-01  -1.7479000e+00
  -1.1697900e+00  -1.0899100e+00  -1.8017400e+00
  -1.3055400e+00  -1.2815500e+00  -1.8511300e+00
  -1.4169500e+00  -1.4902600e+00  -1.8972500e+00
  -1.5386500e+00  -1.7066800e+00  -1.9377400e+00
  -1.6802500e+00  -1.8836100e+00  -1.9611500e+00
  -1.7881500e+00  -2.0839000e+00  -1.9803500e+00
  -1.9058800e+00  -2.2718100e+00  -2.0028200e+00
  -2.0474800e+00  -2.4520000e+00  -2.0077400e+00
  -2.1214400e+00  -2.6548700e+00  -2.0002400e+00
  -2.2480700e+00  -2.8224400e+00  -2.0004800e+00
  -2.4069900e+00  -3.0033400e+00  -1.9906500e+00
  -2.4587100e+00  -3.1891400e+00  -1.9759000e+00
  -2.5647400e+00  -3.3693300e+00  -1.9473400e+00
  -2.6848100e+00  -3.5478900e+00  -1.9098900e+00
  -2.7693000e+00  -3.7079900e+00  -1.8647100e+00
  -2.8126000e+00  -3.8842100e+00  -1.8019700e+00
  -2.8905400e+00  -4.0221000e+00  -1.7586600e+00
  -2.9965600e+00  -4.1938800e+00  -1.6856300e+00
  -2.9944600e+00  -4.3567800e+00  -1.5917600e+00
  -3.0707600e+00  -4.4876600e+00  -1.5222300e+00
  -3.1054000e+00  -4.6400400e+00  -1.4466200e+00
  -3.0845700e+00  -4.7470900e+00  -1.3614100e+00
  -3.1149900e+00  -4.8962000e+00  -1.2668400e+00
  -3.1121900e+00  -5.0390000e+00  -1.1713300e+00
  -3.1147600e+00  -5.1567900e+00  -1.0704400e+00
  -3.0391600e+00  -5.3000600e+00  -9.7867700e-01
  -3.0389300e+00  -5.4178500e+00  -8.8855300e-01
  -3.0419700e+00  -5.5323700e+00  -7.8157400e-01
  -2.9528000e+00  -5.6415100e+00  -6.8232000e-01
  -2.9153500e+00  -5.7562700e+00  -5.8938600e-01
  -2.8617500e+00  -5.8556000e+00  -5.0066600e-01
  -2.8158800e+00  -5.9285200e+00  -4.0820100e-01
  -2.7716400e+00  -5.9712900e+00  -3.3188800e-01
  -2.7498700e+00  -6.0138200e+00  -2.6985400e-01
  -2.6899600e+00  -6.0666400e+00  -1.9845700e-01
  -2.6192700e+00  -6.0858100e+00  -1.4625500e-01
  -2.6288700e+00  -6.1196900e+00  -9.7095800e-02
  -2.5736300e+00  -6.1386300e+00  -5.0277800e-02
  -2.4828200e+00  -6.1608300e+00  -1.1419000e-02
  -2.4676100e+00  -6.1748500e+00   3.7974000e-02
  -2.4708800e+00  -6.1596600e+00   8.6898700e-02
  -2.4247700e+00  -6.1643300e+00   1.3465300e-01
  -2.3962200e+00  -6.1547500e+00   1.8100300e-01
  -2.3821800e+00  -6.1538200e+00   2.4748400e-01
