**************************************************************************************
  	RED ACELEROGRÁFICA DE LA UNIVERSIDAD AUTONOMA METROPOLITANA (RA-UAM)
	   UNIDAD AZCAPOTZALCO. DIVISIÓN CBI-DEPARTAMENTO DE MATERIALES
     Av. San Pablo 420, Col. Nueva el Rosario, Azcapotzalco, C.P. 02128, Ciudad de México
		Área de Estructuras. e-mail: agb@azc.uam.mx
**************************************************************************************
ARCHIVO ESTANDAR DE ACELERACION:
VERSION DEL FORMATO                    : 2.0
NOMBRE DEL ARCHIVO                     : RUML202210.272
FECHA Y HORA DE CREACION               : 11:30 a. m. 03/11/2022
REF. CATALOGO ACELEROGRAMAS, SMIS 1999 : REGISTRO NO.      /PAG.    


================================================================================
DATOS DE LA ESTACION:
NOMBRE DE LA ESTACION                  : UAM-LERMA.
CLAVE DE LA ESTACION                   : RUML
LOCALIZACION DE LA ESTACION            : AV. DE LAS GARZAS 10, EL PANTEON, C.P.52005,
                                       : LERMA DE VILLADA, ESTADO DE MEXICO.   
                                       : 
                                       : 
                                       : 
COORDENADAS DE LA ESTACION             : 19.291278 LAT. N
                                       : 99.500578 LONG. W
ALTITUD (msnm)                         : 2570
TIPO DE SUELO                          : DEPOSITOS LACUSTRES
                                       : 
                                       : 
INSTITUCION RESPONSABLE                : UNIVERSIDAD AUTONOMA METROPOLITANA
                                       : 

================================================================================
DATOS DEL ACELEROGRAFO: 
MODELO DEL ACELEROGRAFO                : ETNA2 KINEMETRICS
NUMERO DE SERIE DEL ACELEROGRAFO       : 103733
NUMERO DE CANALES                      : 3
ORIENTACION C1-C6 (rumbo;orientacion)  : /N90E/N00E/V 
ORIENTACION C7-C12 (rumbo;orientacion) : 
VEL. DE MUESTREO, C1-C6 (muestras/s)   : /200/200/200
VEL. DE MUESTREO, C7-C12 (muestras/s)  : 
ESC. COMPLETA DE SENSORES, C1-C6, (g)  : /2/2/2
ESC. COMPLETA DE SENSORES, C7-C12 (g)  : 
FREC. NAT. DE SENSORES, C1-C6, (Hz)    : /212/206/208   
FREC. NAT. DE SENSORES, C7-C12 (Hz)    : 
AMORTIGUAMIENTO DE SENSORES, C1-C6     : /0.7/0.7/0.7      
AMORTIGUAMIENTO DE SENSORES, C7-C12    : 
INTERVALO DE MUESTREO, C1-C6 (s)       : /0.005/0.005/0.005
INTERVALO DE MUESTREO, C7-C12 (s)      : 
UMBRAL DE DISPARO, C1-C6 (Gal)         : /2/2/2
UMBRAL DE DISPARO, C7-C12 (Gal)        : 
MEMORIA DE PREEVENTO (s)               : 50
TIEMPO DE POSEVENTO (s)                : 60


================================================================================
DATOS DEL SISMO:
FECHA DEL SISMO [GMT]                  : 2022/10/27
HORA EPICENTRO (GMT)                   : 14:02:07
MAGNITUD(ES)                           : /M=4.8
COORDENADAS DEL EPICENTRO              : 16.0500 LAT. N
                                       : -99.2000 LONG. W
PROFUNDIDAD FOCAL (Km)                 : 16.0
FUENTE DE LOS DATOS EPICENTRALES       : SSN
                                       : INSTITUTO DE GEOFISICA, UNAM

================================================================================
DATOS DE ESTE REGISTRO:
HORA DE LA PRIMERA MUESTRA (GMT)       : 14:03:06.000
EXACTITUD DEL TIEMPO (s)               : 
DURACION DEL REGISTRO (s), C1-C6       : /119/119/119
DURACION DEL REGISTRO (s), C7-C12      : 
NUM. TOTAL DE MUESTRAS, C1-C6          : /23800/23800/23800
NUM. TOTAL DE MUESTRAS, C7-C12         : 
ACEL. MAX.(Gal), C1-C6                 : /-0.429/-0.501/-0.194
ACEL. MAX., C1-C6, EN LA MUESTRA       : /11313/10248/12356
ACEL. MAX.(Gal), C7-C12                : 
ACEL. MAX., C7-C12,EN LA MUESTRA       : 
UNIDADES DE LOS DATOS                  : Gal (cm/s/s)
FACTOR DE DECIMACION                   : 1
FORMATO DATOS (FORTRAN,16 campos/dato) : 3E16.7


================================================================================
CALIDAD DEL ACELEROGRAMA:
REGISTRO DIGITAL COMPLETO CON TIEMPO ABSOLUTO CORRECTO


================================================================================
COMENTARIOS:














================================================================================
DATOS DE ACELERACION:
---------+---------+---------+---------+---------+---------+---------+---------+
   CANAL-1   	     CANAL-2          CANAL-3
     N90E              N00E              V
---------+---------+---------+---------+---------+---------+---------+---------+
[...]
   9.9169300e-02  -1.7156100e-01  -3.5059400e-02
   1.0151000e-01  -1.9283000e-01  -4.5593400e-02
   1.0572300e-01  -2.3630100e-01  -4.3252500e-02
   1.0221200e-01  -2.3723500e-01  -2.0779900e-02
   9.7531000e-02  -2.1433100e-01  -1.2118600e-02
   5.4231300e-02  -1.6899100e-01  -1.7736700e-02
   4.4869200e-02  -1.4819000e-01  -2.4525300e-02
   7.9977100e-02  -1.4047700e-01  -5.2382000e-02
   4.8146000e-02  -1.3159600e-01  -9.5922700e-02
   4.4869200e-02  -1.5286400e-01  -1.2986600e-01
   8.4424100e-02  -1.7787200e-01  -1.4742200e-01
   5.5869700e-02  -2.0661900e-01  -1.4835900e-01
   2.9889900e-02  -2.0311300e-01  -1.3501600e-01
   6.1252900e-02  -2.0732000e-01  -1.1230900e-01
   5.0486500e-02  -2.1503300e-01  -8.5622800e-02
   1.3038100e-02  -1.9610200e-01  -5.6595600e-02
   2.1698100e-02  -1.8067600e-01  -3.0377600e-02
   1.0229500e-02  -1.8581800e-01  -1.3757200e-02
  -2.6516700e-02  -2.0287900e-01  -6.9686200e-03
  -3.8219300e-02  -1.9703600e-01   5.4066800e-05
  -4.0559800e-02  -1.9773800e-01   1.3631300e-02
  -4.9687800e-02  -2.0825500e-01   3.0953900e-02
  -6.1390400e-02  -2.0872200e-01   5.4831000e-02
  -6.3028800e-02  -1.8768800e-01   7.4728700e-02
  -6.1390400e-02  -1.6758800e-01   7.3792300e-02
  -9.1349100e-02  -1.7039300e-01   6.6301400e-02
  -1.1358400e-01  -1.6478400e-01   6.6769600e-02
  -9.4859900e-02  -1.7226300e-01   6.5599200e-02
  -1.2481900e-01  -1.7997500e-01   6.2556000e-02
  -1.4939400e-01  -1.5870700e-01   5.7874200e-02
  -1.1475400e-01  -1.4982600e-01   4.2892500e-02
  -1.3137200e-01  -1.4001000e-01   2.4633500e-02
  -1.5992600e-01  -1.3837400e-01   2.0419900e-02
  -1.4120200e-01  -1.5566900e-01   2.3228900e-02
  -1.4424500e-01  -1.6688700e-01   2.7442600e-02
  -1.7677800e-01  -1.6431600e-01   3.9849300e-02
  -1.7186300e-01  -1.5379900e-01   5.4362900e-02
  -1.5805400e-01  -1.5403300e-01   5.1319700e-02
  -1.8286400e-01  -1.4117900e-01   3.8444800e-02
  -1.9480000e-01  -1.4024400e-01   3.8444800e-02
  -1.8262900e-01  -1.4094500e-01   3.9381100e-02
  -1.8988500e-01  -1.3860800e-01   3.4231200e-02
  -2.0369400e-01  -1.5356500e-01   3.2358400e-02
  -1.8754500e-01  -1.4935900e-01   3.8210700e-02
  -1.7841700e-01  -1.4491800e-01   3.1656200e-02
  -2.0299200e-01  -1.4141200e-01   2.1122100e-02
  -2.0533300e-01  -1.4351600e-01   2.5803900e-02
  -1.7748000e-01  -1.3860800e-01   2.0419900e-02
  -1.9550200e-01  -1.2715600e-01   1.0588100e-02
  -2.0743900e-01  -1.3323200e-01   1.2226700e-02
  -1.6624600e-01  -1.3440100e-01   1.5035800e-02
  -1.7911900e-01  -1.3393300e-01   1.0588100e-02
  -2.0580100e-01  -1.1570400e-01   9.6517400e-03
  -1.6975700e-01  -1.1874200e-01   1.2694900e-02
  -1.6999100e-01  -1.2201400e-01   6.3744900e-03
  -2.0369400e-01  -9.8642300e-02  -2.9891000e-03
  -1.7560800e-01  -9.7941200e-02  -1.1650400e-02
  -1.5430900e-01  -9.9577200e-02  -1.4927700e-02
  -1.7911900e-01  -1.0027800e-01  -1.4459500e-02
  -1.7443800e-01  -8.5320600e-02  -1.9609500e-02
  -1.4635100e-01  -7.0129100e-02  -2.5227600e-02
  -1.4962800e-01  -7.6673100e-02  -3.1079900e-02
  -1.5852200e-01  -7.4803400e-02  -2.8036700e-02
  -1.3464900e-01  -5.1198100e-02  -1.9375400e-02
  -1.1756300e-01  -4.7692400e-02  -1.7502700e-02
  -1.3418100e-01  -5.1198100e-02  -1.4225400e-02
  -1.2715900e-01  -3.5305500e-02  -6.2663500e-03
  -8.8774600e-02  -2.2684900e-02  -2.2868300e-03
  -1.0469000e-01  -1.2635100e-02   4.7358600e-03
  -1.1428600e-01  -1.1830600e-03   2.0185800e-02
  -6.1624500e-02   1.1671300e-02   2.4867600e-02
  -7.2390900e-02   2.4759300e-02   1.7610800e-02
  -8.9944800e-02   3.9016000e-02   1.5035800e-02
  -3.8453300e-02   4.6962300e-02   1.8313100e-02
  -3.4006300e-02   7.0100100e-02   1.2929000e-02
  -5.3198600e-02   8.2954400e-02   3.3313200e-03
  -1.6920500e-02   9.3939100e-02   4.0335900e-03
   9.5273600e-03   1.1310400e-01  -1.3504700e-03
   1.3355300e-03   1.2665900e-01  -1.0948100e-02
   1.7251100e-02   1.5143300e-01  -1.4225400e-02
   4.6273500e-02   1.6054800e-01  -1.9141300e-02
   5.0018400e-02   1.6919500e-01  -2.7334400e-02
   4.9550300e-02   1.8672400e-01  -3.6932100e-02
   8.0211100e-02   2.0986200e-01  -4.2784300e-02
   1.0268000e-01   2.1313400e-01  -5.6595600e-02
   9.1211600e-02   2.2341700e-01  -7.0875100e-02
   1.1110600e-01   2.3580400e-01  -7.3450100e-02
   1.4855400e-01   2.3136400e-01  -7.3918300e-02
   1.4176700e-01   2.5239800e-01  -7.8600100e-02
   1.4223500e-01   2.6268100e-01  -8.4218200e-02
   1.6844900e-01   2.7156300e-01  -8.1409100e-02
   1.7055500e-01   2.7997600e-01  -8.6793200e-02
   1.6634200e-01   2.8465100e-01  -8.8665900e-02
   1.8904500e-01   2.9446700e-01  -7.4386400e-02
   2.1221700e-01   2.9353200e-01  -6.1277400e-02
   1.9676900e-01   3.1760500e-01  -6.3150100e-02
   2.1081200e-01   3.3256200e-01  -6.6427400e-02
   2.3960100e-01   3.3022500e-01  -6.1745600e-02
   2.1549300e-01   3.5897200e-01  -6.3150100e-02
   2.1385500e-01   4.0127500e-01  -6.9470600e-02
   2.6277200e-01   4.1623200e-01  -9.8965900e-02
   2.6183600e-01   3.9449700e-01  -1.2448200e-01
   2.2977000e-01   3.6154300e-01  -1.1699100e-01
   2.6136700e-01   3.5429800e-01  -9.1943200e-02
   2.6370800e-01   3.8514800e-01  -6.8300100e-02
   2.3679200e-01   4.1693400e-01  -7.1343300e-02
   2.6160200e-01   4.4147400e-01  -8.5856800e-02
   2.7728300e-01   4.3119000e-01  -9.4050000e-02
   2.5177100e-01   4.1085700e-01  -1.0317900e-01
   2.4545200e-01   4.1109100e-01  -1.0973400e-01
   2.5785700e-01   3.9426300e-01  -1.1020200e-01
   2.3445100e-01   3.7252800e-01  -1.1113900e-01
   2.0964200e-01   3.6294500e-01  -9.6156800e-02
   2.3094100e-01   3.7626700e-01  -6.6193300e-02
   2.2930200e-01   3.8234400e-01  -4.5827500e-02
   1.8904500e-01   3.8514800e-01  -2.6632200e-02
   1.9934400e-01   3.8771900e-01  -1.5161800e-02
   2.0121600e-01   3.7790300e-01  -2.3589000e-02
   1.5768200e-01   3.6107600e-01  -2.2886700e-02
   1.4855400e-01   3.4635200e-01  -3.2231900e-03
   1.5253300e-01   3.4775400e-01   8.4812900e-03
   1.3100000e-01   3.4214500e-01   1.6908500e-02
   1.1017000e-01   3.5055800e-01   1.5972200e-02
   1.1274400e-01   3.5242800e-01   1.5035800e-02
   1.1040400e-01   3.3653600e-01   2.2760800e-02
   8.0679200e-02   3.1643600e-01   2.9081200e-02
   7.1551200e-02   3.0031000e-01   5.2022000e-02
   6.9912800e-02   3.0568500e-01   6.2790100e-02
   4.0656300e-02   2.9797200e-01   6.1853700e-02
   1.8187300e-02   2.8511800e-01   7.7537700e-02
   2.4974800e-02   2.7810700e-01   9.3689900e-02
   1.2336000e-02   2.8909100e-01   9.2051300e-02
  -3.0729600e-02   3.0031000e-01   7.8005900e-02
  -1.6452400e-02   2.7997600e-01   6.8876400e-02
  -1.2707600e-02   2.5987700e-01   6.1619600e-02
  -5.8581800e-02   2.5800700e-01   5.6703800e-02
  -4.6411100e-02   2.5193100e-01   5.2958300e-02
  -3.6815000e-02   2.3673900e-01   4.0083400e-02
  -7.3093100e-02   2.4118000e-01   2.2760800e-02
  -7.6135700e-02   2.4515300e-01   1.6908500e-02
  -6.0454200e-02   2.2084600e-01   2.5335800e-02
  -7.1688700e-02   2.0822600e-01   2.6272100e-02
  -9.2051300e-02   2.1500400e-01   1.5504000e-02
  -8.4795700e-02   2.0448600e-01   1.5504000e-02
  -7.2156800e-02   1.8625700e-01   1.8313100e-02
  -1.0000900e-01   1.7573900e-01   1.8079000e-02
  -1.0328600e-01   1.7480500e-01   1.9717600e-02
  -8.0582700e-02   1.6452100e-01   9.6517400e-03
  -1.0773300e-01   1.3787800e-01   6.6085800e-03
  -1.1803100e-01   1.3460600e-01   1.7376700e-02
  -9.2285300e-02   1.3577400e-01   2.1122100e-02
  -1.0562600e-01   1.2478900e-01   1.5738100e-02
  -1.2037200e-01   1.2245200e-01   1.3163100e-02
  -9.0881000e-02   1.0656000e-01   2.0419900e-02
  -8.0114600e-02   8.8329900e-02   2.0185800e-02
  -1.0820100e-01   9.1835600e-02   1.7142600e-02
  -1.0281800e-01   9.1134500e-02   1.3631300e-02
  -7.1454700e-02   7.1736100e-02   1.5035800e-02
  -7.8242200e-02   5.4674900e-02   2.9783500e-02
  -7.1220600e-02   4.9766900e-02   4.1487900e-02
  -3.2836100e-02   3.0602200e-02   4.7808400e-02
  -4.4772700e-02   1.3878100e-03   3.7742500e-02
  -7.4965500e-02   5.1272500e-03   3.6103900e-02
  -5.9752100e-02   1.6813000e-02   4.1019800e-02
  -4.8283500e-02   8.8667000e-03   2.3228900e-02
  -5.8581800e-02  -1.2401400e-02   1.7376700e-02
  -3.4474400e-02  -4.6056400e-02   3.2358400e-02
  -1.9495100e-02  -5.7508400e-02   3.6572100e-02
  -4.1496000e-02  -7.1297600e-02   5.0851500e-02
  -4.9921900e-02  -6.1014200e-02   7.8240000e-02
  -4.8517600e-02  -2.4320900e-02   8.4560400e-02
  -5.0155900e-02  -3.6474100e-02   8.0346800e-02
  -5.2730500e-02  -6.4286200e-02   7.6367300e-02
  -3.2133900e-02  -6.9194200e-02   6.7940100e-02
  -2.0665400e-02  -7.9244000e-02   5.2490200e-02
  -4.4538700e-02  -8.9060000e-02   3.3997100e-02
  -3.8453300e-02  -7.4335900e-02   1.8781200e-02
  -2.1133500e-02  -8.2749700e-02  -6.7345300e-03
  -2.4176200e-02  -1.1266500e-01  -1.2820900e-02
  -6.8562900e-03  -1.5216300e-01   2.0888000e-02
   9.2933100e-03  -1.7576800e-01   4.5233400e-02
  -3.6112800e-02  -1.7670300e-01   6.0683300e-02
  -5.3432700e-02  -1.6104400e-01   6.1853700e-02
  -1.6686500e-02  -1.3907500e-01   6.7237800e-02
  -4.8049500e-02  -1.3323200e-01   7.8708200e-02
  -7.7540000e-02  -1.1991000e-01   4.4999300e-02
  -4.3602500e-02  -1.7904000e-01   2.1590300e-02
  -1.1303300e-02  -2.5873700e-01   3.9849300e-02
  -3.0261500e-02  -2.6084100e-01   5.6703800e-02
  -7.2625000e-02  -2.2414700e-01   5.0383300e-02
  -7.0518500e-02  -1.8581800e-01   1.1758600e-02
  -5.3432700e-02  -1.9002500e-01  -3.1079900e-02
  -6.6539600e-02  -2.1246200e-01  -4.4891100e-02
  -6.0688300e-02  -2.4074100e-01  -5.8936500e-02
  -4.3368400e-02  -2.8117400e-01  -8.0472800e-02
  -7.7306000e-02  -3.2768300e-01  -7.6493300e-02
  -7.4029300e-02  -3.5128900e-01  -5.7063800e-02
  -5.6007200e-02  -3.4521200e-01  -3.3420800e-02
  -9.3923700e-02  -3.5806600e-01  -4.8618200e-03
  -9.8370700e-02  -3.5806600e-01   2.4399400e-02
  -8.1987000e-02  -3.8097000e-01   4.8744700e-02
  -1.0094500e-01  -4.1859900e-01   5.6001500e-02
  -1.2505300e-01  -4.1649500e-01   5.6235600e-02
  -1.2201000e-01  -4.2327300e-01   5.7171900e-02
  -1.2060600e-01  -4.4126900e-01   4.7106100e-02
  -1.4096800e-01  -4.5225400e-01   4.4531100e-02
  -1.3207400e-01  -4.7796200e-01   6.2321900e-02
  -1.1054100e-01  -4.9759400e-01   7.5665000e-02
  -1.3160600e-01  -4.8310400e-01   8.6433200e-02
  -1.5454300e-01  -4.6347200e-01   8.9008100e-02
  -1.4377700e-01  -4.3145300e-01   6.5833300e-02
  -1.6133100e-01  -4.0925000e-01   3.1188000e-02
  -1.9128900e-01  -4.1088600e-01  -2.5209200e-03
  -1.6648000e-01  -4.2607700e-01  -2.8973100e-02
  -1.4939400e-01  -4.6464000e-01  -4.7466100e-02
  -1.7771400e-01  -4.8427300e-01  -5.7063800e-02
  -1.8567200e-01  -4.7656000e-01  -5.3084300e-02
  -1.6156500e-01  -4.8216900e-01  -4.0677500e-02
  -1.7537400e-01  -4.8847900e-01  -1.7034500e-02
  -1.8473600e-01  -4.9712700e-01   1.9951700e-02
  -1.4916000e-01  -5.0063300e-01   5.2022000e-02
  -1.6273500e-01  -4.9175100e-01   6.5365100e-02
  -1.8965100e-01  -4.9642600e-01   7.9410500e-02
  -1.6062900e-01  -4.8146800e-01   9.6264900e-02
  -1.5524500e-01  -4.5505800e-01   8.9476300e-02
  -1.9152300e-01  -4.2864800e-01   7.5899100e-02
  -1.7279900e-01  -4.0691300e-01   6.9344600e-02
  -1.4003200e-01  -4.0527700e-01   5.7640100e-02
  -1.6882000e-01  -3.8868300e-01   4.1956100e-02
  -1.5945800e-01  -3.7629600e-01   3.2358400e-02
  -1.2552100e-01  -3.5666400e-01   2.2994900e-02
  -1.4705400e-01  -3.3329200e-01   2.8815700e-04
  -1.5337300e-01  -3.0992100e-01  -1.8673100e-02
  -1.2037200e-01  -2.9005500e-01  -2.4525300e-02
  -1.1358400e-01  -2.9519700e-01  -2.8504900e-02
  -1.4237200e-01  -2.5429700e-01  -3.6229800e-02
  -1.3160600e-01  -2.4004000e-01  -4.3720700e-02
  -1.0352000e-01  -2.3910500e-01  -5.1445700e-02
  -1.2411600e-01  -2.1176100e-01  -5.7063800e-02
  -1.2294600e-01  -1.9119400e-01  -6.1745600e-02
  -8.2923200e-02  -1.6244700e-01  -7.5088700e-02
  -8.4561600e-02  -1.6735500e-01  -8.9134100e-02
  -1.0235000e-01  -1.4421700e-01  -9.0070500e-02
  -7.3561200e-02  -1.2201400e-01  -8.8431800e-02
  -6.3262900e-02  -1.0682200e-01  -8.9836400e-02
  -7.5199500e-02  -8.6255400e-02  -8.7963600e-02
  -5.8113700e-02  -7.4102200e-02  -8.7261400e-02
  -4.1027900e-02  -5.4002700e-02  -8.5388700e-02
  -3.6815000e-02  -5.7041000e-02  -7.5791000e-02
  -4.8517600e-02  -2.9930000e-02  -5.8702400e-02
  -3.5176600e-02  -9.1293800e-03  -5.4722900e-02
  -1.5516200e-02   9.1004100e-03  -5.3552500e-02
  -3.1431800e-02   3.7847400e-02  -4.5593400e-02
  -1.7154600e-02   4.7897100e-02  -3.9038900e-02
   8.1230500e-03   6.6594400e-02  -4.1379800e-02
  -7.7925000e-03   7.8747600e-02  -5.3552500e-02
  -7.7093600e-04   9.2069300e-02  -5.4254700e-02
   4.4167100e-02   9.9548200e-02  -5.8468300e-02
   3.1060200e-02   1.1754400e-01  -6.1979700e-02
   1.9591600e-02   1.2572400e-01  -5.4020600e-02
   6.3827500e-02   1.2362100e-01  -4.8168400e-02
   5.9380500e-02   1.4138300e-01  -4.2784300e-02
   3.4805000e-02   1.5166700e-01  -3.8336600e-02
   6.7104200e-02   1.6872800e-01  -2.7568500e-02
   8.4424100e-02   1.7433700e-01  -1.7736700e-02
   4.0422200e-02   1.9209900e-01  -1.8673100e-02
   5.5401600e-02   2.1079700e-01  -1.7736700e-02
   9.7765000e-02   2.0635600e-01  -1.6566300e-02
   5.1422700e-02   2.2622200e-01  -1.6566300e-02
   4.7443800e-02   2.4468500e-01  -1.7736700e-02
   1.0151000e-01   2.4795700e-01  -1.7502700e-02
   7.8338700e-02   2.5216400e-01  -1.1650400e-02
   5.3763200e-02   2.6525200e-01  -8.1390700e-03
   9.9169300e-02   2.7436700e-01   1.9267800e-03
   1.0197800e-01   2.8278100e-01   9.8858300e-03
   5.7976200e-02   2.9259700e-01   1.7610800e-02
   9.0275400e-02   2.9633600e-01   3.6103900e-02
   1.1391500e-01   3.1994200e-01   3.7508400e-02
   6.8040400e-02   3.2671900e-01   3.7274300e-02
   7.4359800e-02   3.3303000e-01   3.8913000e-02
   1.0080800e-01   3.4448200e-01   4.2658400e-02
   7.6700300e-02   3.4518300e-01   4.9681100e-02
   5.7274000e-02   3.7416400e-01   4.5935600e-02
   8.2317600e-02   3.9379600e-01   3.7040200e-02
   7.5530100e-02   3.9870400e-01   1.7142600e-02
   4.2996800e-02   3.9987200e-01   5.9063100e-03
   6.5699900e-02   4.0524800e-01   6.6085800e-03
   7.2721400e-02   4.2277600e-01   7.5633600e-04
   5.0954600e-02   4.3890300e-01  -1.5395900e-02
   5.9146400e-02   4.4287600e-01  -3.7634400e-02
   7.4827900e-02   4.2791800e-01  -4.3720700e-02
   6.3359400e-02   4.0197600e-01  -3.2952600e-02
   5.2593000e-02   3.8935500e-01  -1.3523100e-02
   6.2423100e-02   4.0478000e-01   1.1758600e-02
   6.4763700e-02   4.1506400e-01   1.7142600e-02
   5.6571800e-02   4.1833600e-01   1.1992600e-02
   5.2358900e-02   4.1997200e-01   9.8858300e-03
   7.5530100e-02   3.8608300e-01   1.1524500e-02
   6.5699900e-02   3.5032500e-01   2.8144800e-02
   4.3464900e-02   3.4518300e-01   5.3894700e-02
   8.5360300e-02   3.3980800e-01   7.6367300e-02
   7.2721400e-02   3.3887300e-01   8.1049100e-02
   4.0422200e-02   3.5686900e-01   8.1517300e-02
   8.1615400e-02   3.7603300e-01   7.0046900e-02
   8.6296500e-02   3.7603300e-01   4.8510600e-02
   6.3125300e-02   3.7393000e-01   2.6740300e-02
   9.0743500e-02   3.6084200e-01  -6.0322600e-03
   1.1321200e-01   3.3139400e-01  -3.5527600e-02
   9.7296900e-02   2.8979200e-01  -5.0509300e-02
   1.0525500e-01   2.5356700e-01  -3.3186700e-02
   1.3053200e-01   2.4772400e-01  -3.4572800e-03
   1.2538300e-01   2.6899200e-01   1.0119900e-02
   1.1625500e-01   3.1526700e-01   3.0972300e-03
   1.3942600e-01   3.0755500e-01  -2.3120800e-02
   1.5978900e-01   2.4819100e-01  -4.3720700e-02
