**************************************************************************************
  	RED ACELEROGRÁFICA DE LA UNIVERSIDAD AUTONOMA METROPOLITANA (RA-UAM)
	   UNIDAD AZCAPOTZALCO. DIVISIÓN CBI-DEPARTAMENTO DE MATERIALES
     Av. San Pablo 420, Col. Nueva el Rosario, Azcapotzalco, C.P. 02128, Ciudad de México
		Área de Estructuras. e-mail: agb@azc.uam.mx
**************************************************************************************
ARCHIVO ESTANDAR DE ACELERACION:
VERSION DEL FORMATO                    : 2.0
NOMBRE DEL ARCHIVO                     : RUML202204.181
FECHA Y HORA DE CREACION               : 11:30 a. m. 22/04/2022
REF. CATALOGO ACELEROGRAMAS, SMIS 1999 : REGISTRO NO.      /PAG.    


================================================================================
DATOS DE LA ESTACION:
NOMBRE DE LA ESTACION                  : UAM-LERMA.
CLAVE DE LA ESTACION                   : RUML
LOCALIZACION DE LA ESTACION            : AV. DE LAS GARZAS 10, EL PANTEON, C.P.52005,
                                       : LERMA DE VILLADA, ESTADO DE MEXICO.   
                                       : 
                                       : 
                                       : 
COORDENADAS DE LA ESTACION             : 19.291278 LAT. N
                                       : 99.500578 LONG. W
ALTITUD (msnm)                         : 2570
TIPO DE SUELO                          : DEPOSITOS LACUSTRES
                                       : 
                                       : 
INSTITUCION RESPONSABLE                : UNIVERSIDAD AUTONOMA METROPOLITANA
                                       : 

================================================================================
DATOS DEL ACELEROGRAFO: 
MODELO DEL ACELEROGRAFO                : ETNA2 KINEMETRICS
NUMERO DE SERIE DEL ACELEROGRAFO       : 103733
NUMERO DE CANALES                      : 3
ORIENTACION C1-C6 (rumbo;orientacion)  : /N90E/N00E/V 
ORIENTACION C7-C12 (rumbo;orientacion) : 
VEL. DE MUESTREO, C1-C6 (muestras/s)   : /200/200/200
VEL. DE MUESTREO, C7-C12 (muestras/s)  : 
ESC. COMPLETA DE SENSORES, C1-C6, (g)  : /2/2/2
ESC. COMPLETA DE SENSORES, C7-C12 (g)  : 
FREC. NAT. DE SENSORES, C1-C6, (Hz)    : /212/206/208   
FREC. NAT. DE SENSORES, C7-C12 (Hz)    : 
AMORTIGUAMIENTO DE SENSORES, C1-C6     : /0.7/0.7/0.7      
AMORTIGUAMIENTO DE SENSORES, C7-C12    : 
INTERVALO DE MUESTREO, C1-C6 (s)       : /0.005/0.005/0.005
INTERVALO DE MUESTREO, C7-C12 (s)      : 
UMBRAL DE DISPARO, C1-C6 (Gal)         : /2/2/2
UMBRAL DE DISPARO, C7-C12 (Gal)        : 
MEMORIA DE PREEVENTO (s)               : 50
TIEMPO DE POSEVENTO (s)                : 60


================================================================================
DATOS DEL SISMO:
FECHA DEL SISMO [GMT]                  : 2022/04/18
HORA EPICENTRO (GMT)                   : 12:27:28
MAGNITUD(ES)                           : /M=4.5
COORDENADAS DEL EPICENTRO              : 17.9700 LAT. N
                                       : -100.3200 LONG. W
PROFUNDIDAD FOCAL (Km)                 : 47.0
FUENTE DE LOS DATOS EPICENTRALES       : SSN
                                       : INSTITUTO DE GEOFISICA, UNAM

================================================================================
DATOS DE ESTE REGISTRO:
HORA DE LA PRIMERA MUESTRA (GMT)       : 12:27:02.000
EXACTITUD DEL TIEMPO (s)               : 
DURACION DEL REGISTRO (s), C1-C6       : /177/177/177
DURACION DEL REGISTRO (s), C7-C12      : 
NUM. TOTAL DE MUESTRAS, C1-C6          : /35400/35400/35400
NUM. TOTAL DE MUESTRAS, C7-C12         : 
ACEL. MAX.(Gal), C1-C6                 : /-0.742/-0.933/0.672
ACEL. MAX., C1-C6, EN LA MUESTRA       : /17197/16939/13667
ACEL. MAX.(Gal), C7-C12                : 
ACEL. MAX., C7-C12,EN LA MUESTRA       : 
UNIDADES DE LOS DATOS                  : Gal (cm/s/s)
FACTOR DE DECIMACION                   : 1
FORMATO DATOS (FORTRAN,16 campos/dato) : 3E16.7


================================================================================
CALIDAD DEL ACELEROGRAMA:
REGISTRO DIGITAL COMPLETO CON TIEMPO ABSOLUTO CORRECTO


================================================================================
COMENTARIOS:














================================================================================
DATOS DE ACELERACION:
---------+---------+---------+---------+---------+---------+---------+---------+
   CANAL-1   	     CANAL-2          CANAL-3
     N90E              N00E              V
---------+---------+---------+---------+---------+---------+---------+---------+
[...]
   5.9115500e-01  -3.6255800e-01  -1.3286900e-02
   5.6049400e-01  -3.7611400e-01  -9.3073700e-03
   5.6798400e-01  -3.7003700e-01   1.5740200e-02
   5.6658000e-01  -3.9224000e-01   1.9719800e-02
   5.0034300e-01  -3.8078800e-01   2.8849300e-02
   4.9051300e-01  -3.7050400e-01   4.6171900e-02
   4.9379000e-01  -3.7003700e-01   5.9983200e-02
   4.0438200e-01  -3.3521300e-01   8.2924000e-02
   3.7278500e-01  -3.3194100e-01   1.0375800e-01
   3.6482700e-01  -3.0646600e-01   1.2529400e-01
   2.7963200e-01  -2.7678500e-01   1.3395600e-01
   2.2299100e-01  -2.7257800e-01   1.4214900e-01
   1.9162800e-01  -2.2116000e-01   1.6321700e-01
   1.4317900e-01  -2.3565100e-01   1.6626000e-01
   4.4175300e-02  -2.1298000e-01   1.6438700e-01
  -1.5274000e-02  -1.8329800e-01   1.6602600e-01
  -2.8849000e-02  -2.0830600e-01   1.6321700e-01
  -1.4306600e-01  -1.6062800e-01   1.6321700e-01
  -2.1000500e-01  -1.6156300e-01   1.5689600e-01
  -2.3294200e-01  -1.4683900e-01   1.4308500e-01
  -3.2469100e-01  -1.1201500e-01   1.3114600e-01
  -3.8460800e-01  -1.1996200e-01   1.2529400e-01
  -4.1714200e-01  -8.6072900e-02   1.1967600e-01
  -4.5950500e-01  -6.9245400e-02   9.5330700e-02
  -5.2410300e-01  -5.5222500e-02   7.4028600e-02
  -5.6950900e-01  -1.6893200e-02   5.9046800e-02
  -5.7395600e-01   6.3546800e-04   3.2594700e-02
  -6.3410800e-01   3.0083600e-02   1.1526600e-02
  -6.8583300e-01   6.1868900e-02  -5.7960200e-03
  -6.7038600e-01   6.2570000e-02  -1.9139100e-02
  -7.0338700e-01   8.7343800e-02  -3.1780000e-02
  -7.2749500e-01   9.9964500e-02  -3.4355000e-02
  -7.0947300e-01   9.5757600e-02  -2.2416400e-02
  -7.0362100e-01   1.2029800e-01  -2.1480000e-02
  -6.8887600e-01   1.1749300e-01  -1.9607300e-02
  -6.7038600e-01   1.2006400e-01  -1.4691400e-02
  -6.1983100e-01   1.1468900e-01  -2.5927700e-02
  -5.8191400e-01   9.6458700e-02  -3.6695900e-02
  -5.5733900e-01   1.1422100e-01  -3.7866300e-02
  -4.7963300e-01   9.6225000e-02  -4.0675400e-02
  -4.2790800e-01   8.8512400e-02  -4.3484500e-02
  -3.9912000e-01   9.9029600e-02  -3.4823100e-02
  -3.1884000e-01   8.8045000e-02  -1.7500500e-02
  -2.5775200e-01   8.4305500e-02   8.2493600e-03
  -2.2030400e-01   8.8979800e-02   2.8147000e-02
  -1.3885400e-01   1.0300300e-01   4.6640100e-02
  -6.8637900e-02   1.0954700e-01   7.1219500e-02
  -1.1295100e-02   1.1398700e-01   7.4028600e-02
   4.3005000e-02   1.3735900e-01   8.1285300e-02
   1.1883800e-01   1.5325200e-01   8.2689900e-02
   1.8718100e-01   1.3548900e-01   7.0985400e-02
   1.9279800e-01   1.6493700e-01   7.5433100e-02
   2.6301400e-01   1.4717500e-01   7.4730800e-02
   3.0397300e-01   1.4670800e-01   8.9010300e-02
   2.8759000e-01   1.7007900e-01   1.0633300e-01
   3.3697500e-01   1.3455400e-01   1.0586500e-01
   3.4633700e-01   1.5278400e-01   1.1452600e-01
   3.2808100e-01   1.2076500e-01   1.0680100e-01
   3.2620800e-01   1.0534000e-01   1.0118300e-01
   3.1169700e-01   1.0814400e-01   9.8608000e-02
   3.0139900e-01   5.6727100e-02   6.1387700e-02
   2.5295000e-01   4.7144800e-02   4.8044600e-02
   2.4475800e-01   3.6861300e-02   3.0019700e-02
   2.4850300e-01   9.7503600e-03  -1.1180100e-02
   1.5909500e-01   1.8040400e-03  -2.6630000e-02
   1.7571300e-01  -3.0682400e-02  -4.3016300e-02
   1.7641500e-01  -3.5123000e-02  -6.1743500e-02
   8.1623600e-02  -4.9379600e-02  -7.5086600e-02
   1.0315600e-01  -7.4854600e-02  -7.9768400e-02
   9.8241300e-02  -6.0364200e-02  -6.7595700e-02
   4.3239100e-02  -9.2850600e-02  -6.6191200e-02
   2.5919200e-02  -8.6540300e-02  -7.3916100e-02
   1.4918800e-02  -7.8126600e-02  -5.6593500e-02
  -6.0569300e-05  -1.0921100e-01  -3.9504900e-02
  -5.8573600e-02  -7.4620900e-02  -3.0141300e-02
  -8.5255600e-02  -7.3686000e-02  -1.1414200e-02
  -6.7233500e-02  -9.1448400e-02   6.6107300e-03
  -1.3510900e-01  -3.4655500e-02   2.5806100e-02
  -1.7513200e-01  -3.7927600e-02   3.9149200e-02
  -1.4915200e-01  -1.5490900e-02   4.5001400e-02
  -1.8730200e-01   2.8681300e-02   4.3596900e-02
  -2.2662300e-01   2.7279000e-02   3.5169700e-02
  -2.1398400e-01   8.8045000e-02   2.2528800e-02
  -1.9081300e-01   1.0417100e-01   4.2698400e-03
  -2.2077200e-01   1.3922900e-01  -2.0309600e-02
  -2.0696300e-01   1.9789100e-01  -4.7698100e-02
  -1.5313100e-01   2.1822400e-01  -7.8597900e-02
  -1.7419500e-01   2.6029300e-01  -1.1418000e-01
  -1.5547100e-01   2.9137700e-01  -1.2588400e-01
  -1.1240600e-01   3.1428100e-01  -1.3080000e-01
  -1.2153400e-01   3.4302800e-01  -1.4882500e-01
  -1.1029900e-01   3.6967200e-01  -1.4788800e-01
  -7.7297800e-02   3.7154200e-01  -1.3220400e-01
  -7.3552900e-02   3.9140700e-01  -1.2916100e-01
  -7.5893500e-02   3.9491300e-01  -1.3782300e-01
  -6.7701600e-02   3.8533100e-01  -1.3992900e-01
  -5.6233100e-02   3.9538100e-01  -1.3992900e-01
  -6.9574100e-02   3.7504700e-01  -1.4765400e-01
  -8.0808600e-02   3.6663400e-01  -1.4976100e-01
  -4.8041300e-02   3.5798600e-01  -1.4812300e-01
  -6.6297300e-02   3.2479900e-01  -1.4695200e-01
  -8.5021500e-02   3.0282900e-01  -1.2307500e-01
  -4.2424000e-02   2.9067600e-01  -9.2877400e-02
  -5.6467100e-02   2.5632000e-01  -6.9000200e-02
  -8.8298200e-02   2.4323200e-01  -3.9739000e-02
  -4.7807200e-02   2.2406700e-01  -2.1245900e-02
  -6.1148200e-02   1.9298300e-01   1.6948500e-03
  -1.0889500e-01   1.8573800e-01   1.6910700e-02
  -1.0444800e-01   1.5278400e-01   2.5806100e-02
  -1.3089600e-01   1.4390300e-01   3.1658300e-02
  -1.6717400e-01   1.1959700e-01   2.0187900e-02
  -2.1655900e-01   1.0978100e-01   3.0487900e-02
  -2.5002800e-01   1.0604100e-01   4.4065100e-02
  -2.7788000e-01   8.9681000e-02   5.0151400e-02
  -3.6073500e-01   1.0627500e-01   7.0049000e-02
  -3.9654500e-01   9.0849600e-02   9.3223900e-02
  -4.2065200e-01   1.1211800e-01   1.2716700e-01
  -4.9227200e-01   1.0814400e-01   1.5502400e-01
  -5.3580600e-01   1.0627500e-01   1.6368500e-01
  -5.4727500e-01   1.3759300e-01   1.7304800e-01
  -5.6272200e-01   1.0557400e-01   1.7609200e-01
  -5.9361700e-01   1.1141700e-01   1.8124200e-01
  -5.7723300e-01   1.2847800e-01   1.8241200e-01
  -5.2738000e-01   9.6692400e-02   1.5502400e-01
  -5.3721000e-01   9.9263300e-02   1.3255100e-01
  -4.9133600e-01   1.1772700e-01   1.1335600e-01
  -3.9677900e-01   1.0417100e-01   7.4964900e-02
  -3.7524600e-01   1.1468900e-01   4.7342300e-02
  -3.0503100e-01   1.2847800e-01   3.3999200e-02
  -1.9268600e-01   1.3478800e-01   1.0356200e-02
  -1.5804600e-01   1.4624000e-01  -8.8013700e-04
  -8.5723700e-02   1.3712500e-01  -4.8596600e-03
   1.2110100e-02   1.5956200e-01  -6.2642000e-03
   5.7984400e-02   1.6470400e-01  -9.5414600e-03
   1.1041200e-01   1.4927800e-01  -2.4289100e-02
   1.6728700e-01   1.7171500e-01  -2.1948200e-02
   2.4920500e-01   1.4647400e-01  -2.5459600e-02
   2.6324800e-01   1.4203300e-01  -2.5459600e-02
   2.8127000e-01   1.4740900e-01  -1.8436900e-02
   3.7067800e-01   1.1959700e-01  -1.6564100e-02
   3.7208200e-01   1.2450500e-01  -1.7266400e-02
   3.7208200e-01   1.1468900e-01  -2.5927700e-02
   4.2380800e-01   1.2543900e-01  -2.5693600e-02
   4.4159600e-01   1.2357000e-01  -3.5759500e-02
   4.2989300e-01   1.1071500e-01  -5.1209400e-02
   4.4136200e-01   1.1562300e-01  -6.8532100e-02
   4.7132000e-01   1.1562300e-01  -9.2877400e-02
   4.6710800e-01   1.0323600e-01  -1.0294300e-01
   4.5587300e-01   1.0954700e-01  -1.0903000e-01
   4.8957700e-01   1.2614100e-01  -1.2073400e-01
   4.9800200e-01   1.0019800e-01  -1.3852500e-01
   4.8419300e-01   1.1772700e-01  -1.4063200e-01
   5.1602400e-01   1.2380300e-01  -1.2986400e-01
   5.2000300e-01   1.0907900e-01  -1.2330900e-01
   5.0479000e-01   1.3712500e-01  -1.1207300e-01
   5.2608900e-01   1.5278400e-01  -1.0294300e-01
   5.4153600e-01   1.5582200e-01  -9.1706900e-02
   5.1649300e-01   1.7101400e-01  -7.3916100e-02
   5.2000300e-01   2.0420100e-01  -6.2913900e-02
   5.3919600e-01   1.9532000e-01  -5.0741200e-02
   5.1204600e-01   1.8106400e-01  -3.9739000e-02
   4.9519400e-01   2.0864200e-01  -3.2950400e-02
   5.0479000e-01   1.9578800e-01  -6.0301100e-03
   4.9566200e-01   1.9181500e-01   1.6676600e-02
   4.6172400e-01   1.9321700e-01   3.2126500e-02
   4.5236200e-01   1.7896000e-01   5.1087800e-02
   4.5376700e-01   1.7031300e-01   5.7876400e-02
   4.1397800e-01   1.4156600e-01   6.8878600e-02
   3.7676300e-01   1.3432100e-01   7.7774000e-02
   3.8776400e-01   1.2403700e-01   7.2858100e-02
   3.6131600e-01   9.2719300e-02   6.2324100e-02
   3.0490900e-01   7.8228900e-02   6.3026300e-02
   3.1544200e-01   8.3370700e-02   7.2624000e-02
   3.0397300e-01   6.8412900e-02   6.2792300e-02
   2.4920500e-01   5.9765400e-02   5.1555900e-02
   2.5482200e-01   6.6075700e-02   4.4065100e-02
   2.6324800e-01   7.5891800e-02   2.0187900e-02
   2.0848000e-01   8.5240400e-02   5.2061900e-03
   1.9654300e-01   8.9213600e-02  -8.6051000e-03
   2.0824600e-01   1.0323600e-01  -2.7566400e-02
   1.7126600e-01   1.0907900e-01  -4.7464000e-02
   1.4903100e-01   1.1983000e-01  -7.0170700e-02
   1.4458400e-01   1.3338600e-01  -7.8597900e-02
   1.4083900e-01   1.2941300e-01  -9.6856900e-02
   1.0245400e-01   1.3151600e-01  -1.2167000e-01
   8.5836600e-02   1.4156600e-01  -1.4063200e-01
   9.5666800e-02   1.1562300e-01  -1.6287000e-01
   4.5111500e-02   1.0978100e-01  -1.7925600e-01
   1.8429600e-02   1.0253500e-01  -1.8815200e-01
   2.1472200e-02   6.1868900e-02  -1.9657900e-01
  -1.5976100e-02   2.7980200e-02  -1.9915400e-01
  -5.6233100e-02  -9.1805700e-03  -1.8417200e-01
  -6.3956800e-02  -4.4705300e-02  -1.5233600e-01
  -9.3681400e-02  -9.0279800e-02  -1.1886100e-01
  -1.4493900e-01  -1.2300000e-01  -9.0068300e-02
  -1.6530100e-01  -1.5151300e-01  -5.3550300e-02
  -1.8332300e-01  -1.9638700e-01  -2.2884600e-02
  -2.3317700e-01  -2.3167800e-01  -7.9028300e-03
  -2.6219900e-01  -2.5762000e-01   1.5272000e-02
  -2.5190100e-01  -3.0015600e-01   2.9317400e-02
  -2.8724300e-01  -3.3474600e-01   2.5806100e-02
  -3.1720100e-01  -3.5811700e-01   2.5572000e-02
  -2.8583800e-01  -4.0369200e-01   1.9719800e-02
  -3.0222200e-01  -4.3477600e-01   8.9516300e-03
  -3.2867000e-01  -4.7030100e-01  -6.9664700e-03
  -3.0549900e-01  -5.2265300e-01  -1.0243700e-02
  -3.0760500e-01  -5.4205100e-01  -1.1882400e-02
  -3.2750000e-01  -5.9487100e-01  -2.7098200e-02
  -3.3803200e-01  -6.4044600e-01  -1.3755100e-02
  -3.1954200e-01  -6.6031100e-01  -8.1369200e-03
  -3.2796800e-01  -7.1967500e-01  -1.1882400e-02
  -3.6658600e-01  -7.4444900e-01   1.7378900e-02
  -3.2211600e-01  -7.8511500e-01   2.2997000e-02
  -3.2586100e-01  -8.2087400e-01   2.5337900e-02
  -3.6565000e-01  -8.4447900e-01   4.2660500e-02
  -2.9964700e-01  -8.8631400e-01   4.8278700e-02
  -2.7975300e-01  -8.7977000e-01   6.2324100e-02
  -2.8420000e-01  -9.0454400e-01   4.9215100e-02
  -2.3107000e-01  -9.2160500e-01   3.6106000e-02
  -1.8940900e-01  -9.1412600e-01   4.2660500e-02
  -1.5149200e-01  -9.3329100e-01   2.5572000e-02
  -1.3534300e-01  -9.2254000e-01   2.6274300e-02
  -8.5489600e-02  -9.1436000e-01   3.3999200e-02
  -1.2933400e-02  -8.9706500e-01   1.8315200e-02
  -2.1593400e-02  -8.5336000e-01   2.3933400e-02
   1.9365800e-02  -8.2601500e-01   3.6574200e-02
   8.6538700e-02  -7.6571700e-01   3.5403800e-02
   7.6942600e-02  -7.1102800e-01   4.3831000e-02
   1.0198600e-01  -6.7480200e-01   5.0853700e-02
   1.3241300e-01  -5.8832700e-01   5.5535500e-02
   1.3686000e-01  -5.4181800e-01   6.9580900e-02
   1.4083900e-01  -4.8876400e-01   7.8008100e-02
   1.3475300e-01  -3.9247400e-01   8.0349000e-02
   1.3896600e-01  -3.6840100e-01   6.0217300e-02
   1.0502900e-01  -3.1815200e-01   4.1021900e-02
   8.2091700e-02  -2.5855500e-01   5.0619600e-02
   9.4262500e-02  -2.5949000e-01   4.3831000e-02
   3.5047300e-02  -2.0082700e-01   3.6808300e-02
   1.4450700e-02  -1.8750500e-01   3.6106000e-02
   2.4280900e-02  -1.7885800e-01   4.3128700e-02
  -3.1189500e-02  -1.2744100e-01   6.8410400e-02
  -3.4232200e-02  -1.3538700e-01   7.6135400e-02
  -4.4296400e-02  -9.1682100e-02   9.4862500e-02
  -5.7403300e-02  -8.0463700e-02   1.0984400e-01
  -5.8807700e-02  -7.1348800e-02   1.1827200e-01
  -9.0638800e-02  -2.6475500e-02   1.4753300e-01
  -4.8275300e-02  -2.3670900e-02   1.4144600e-01
  -7.0744300e-02   7.1795000e-03   1.3606200e-01
  -1.0491600e-01   2.8681300e-02   1.3372100e-01
  -4.5700700e-02   3.9198500e-02   1.0633300e-01
  -8.8064200e-02   6.3037400e-02   1.0609900e-01
  -1.0468200e-01   7.1451200e-02   1.0071500e-01
  -5.4828800e-02   8.9681000e-02   8.0349000e-02
  -1.0163900e-01   1.0276900e-01   6.4899100e-02
  -1.1685300e-01   8.3137000e-02   4.9683200e-02
  -9.1809000e-02   9.9964500e-02   4.9917300e-02
  -1.1825700e-01   9.7861000e-02   3.8446900e-02
  -1.2668300e-01   8.1501000e-02   9.4198100e-03
  -1.3253400e-01   1.0136700e-01  -4.1573900e-03
  -1.2738500e-01   9.0615800e-02  -3.8568600e-02
  -1.3698100e-01   1.0744300e-01  -9.3111500e-02
  -1.5851400e-01   1.3268500e-01  -1.3009800e-01
  -1.2387400e-01   1.2988000e-01  -1.7738400e-01
  -1.4587500e-01   1.9204800e-01  -2.0875200e-01
  -1.5500300e-01   2.2289900e-01  -2.3379900e-01
  -1.1404400e-01   2.4159600e-01  -2.6095400e-01
  -1.3721500e-01   3.3928900e-01  -2.5580400e-01
  -1.4002400e-01   3.4279500e-01  -2.5510200e-01
  -1.4096000e-01   3.9795100e-01  -2.3075600e-01
  -1.3464100e-01   4.8512700e-01  -2.0196300e-01
  -1.1778900e-01   4.8115400e-01  -1.9096100e-01
  -1.6319500e-01   5.6646000e-01  -1.5374100e-01
  -1.1615000e-01   6.0058300e-01  -1.3758900e-01
  -9.7426300e-02   6.2395400e-01  -1.2120200e-01
  -1.6202500e-01   6.7841000e-01  -8.2811500e-02
  -1.0327800e-01   6.8098100e-01  -5.2848000e-02
  -1.0374600e-01   7.3122900e-01  -1.2116400e-02
  -1.3159800e-01   7.5273100e-01   2.4401500e-02
  -9.4383600e-02   7.5880800e-01   5.6003700e-02
  -9.9766800e-02   7.9947400e-01   8.5967100e-02
  -7.9404300e-02   7.7914100e-01   9.5330700e-02
  -9.3681400e-02   7.6745500e-01   1.2506000e-01
  -9.6022000e-02   7.6535200e-01   1.7234600e-01
  -5.2254200e-02   7.2889200e-01   1.8686000e-01
  -1.0398000e-01   7.2749000e-01   2.1003500e-01
  -9.5319800e-02   6.7817600e-01   2.3789100e-01
  -5.9743900e-02   6.4685800e-01   2.4936200e-01
  -1.2925700e-01   6.2769400e-01   2.7394100e-01
  -1.1427800e-01   5.5430700e-01   2.7932500e-01
  -1.1334200e-01   5.3701200e-01   2.8119800e-01
  -1.6389700e-01   4.7507700e-01   2.6808900e-01
  -1.7302500e-01   4.1524600e-01   2.4280700e-01
  -2.1702700e-01   4.0730000e-01   2.2923000e-01
  -2.1070800e-01   3.2550000e-01   1.8053900e-01
  -2.6056100e-01   2.6823900e-01   1.3770100e-01
  -3.1158400e-01   2.1892600e-01   9.2521600e-02
  -2.8466800e-01   1.4600600e-01   2.5103800e-02
  -3.7618200e-01   9.6458700e-02  -3.4551200e-03
  -3.8648100e-01   1.9800100e-02  -3.5525400e-02
  -3.5207500e-01  -2.4605800e-02  -8.3045600e-02
  -4.2229100e-01  -7.2283700e-02  -1.1511600e-01
  -4.0497100e-01  -1.5127900e-01  -1.4320700e-01
  -3.8765100e-01  -1.6927600e-01  -1.5350700e-01
  -4.1082200e-01  -2.2373100e-01  -1.7153200e-01
  -3.8624700e-01  -2.8847000e-01  -1.9119500e-01
  -3.8133200e-01  -2.8262700e-01  -1.8651300e-01
  -3.4645800e-01  -3.3591500e-01  -1.8768400e-01
  -3.3218100e-01  -3.3731700e-01  -1.8745000e-01
  -3.3990400e-01  -3.1137400e-01  -1.7480900e-01
  -2.5892200e-01  -3.5087200e-01  -1.7387200e-01
  -2.6805000e-01  -2.9805300e-01  -1.5608200e-01
  -2.6922100e-01  -2.8917100e-01  -1.2424500e-01
  -1.8496200e-01  -2.6603400e-01  -9.7793300e-02
  -1.8636600e-01  -1.9989200e-01  -6.1275300e-02
  -1.6249300e-01  -2.0456700e-01  -4.6995800e-02
