**************************************************************************************
  	RED ACELEROGRÁFICA DE LA UNIVERSIDAD AUTONOMA METROPOLITANA (RA-UAM)
	   UNIDAD AZCAPOTZALCO. DIVISIÓN CBI-DEPARTAMENTO DE MATERIALES
     Av. San Pablo 420, Col. Nueva el Rosario, Azcapotzalco, C.P. 02128, Ciudad de México
		Área de Estructuras. e-mail: agb@azc.uam.mx
**************************************************************************************
ARCHIVO ESTANDAR DE ACELERACION:
VERSION DEL FORMATO                    : 2.0
NOMBRE DEL ARCHIVO                     : RUML202209.201
FECHA Y HORA DE CREACION               : 11:30 a. m. 27/09/2022
REF. CATALOGO ACELEROGRAMAS, SMIS 1999 : REGISTRO NO.      /PAG.    


================================================================================
DATOS DE LA ESTACION:
NOMBRE DE LA ESTACION                  : UAM-LERMA.
CLAVE DE LA ESTACION                   : RUML
LOCALIZACION DE LA ESTACION            : AV. DE LAS GARZAS 10, EL PANTEON, C.P.52005,
                                       : LERMA DE VILLADA, ESTADO DE MEXICO.   
                                       : 
                                       : 
                                       : 
COORDENADAS DE LA ESTACION             : 19.291278 LAT. N
                                       : 99.500578 LONG. W
ALTITUD (msnm)                         : 2570
TIPO DE SUELO                          : DEPOSITOS LACUSTRES
                                       : 
                                       : 
INSTITUCION RESPONSABLE                : UNIVERSIDAD AUTONOMA METROPOLITANA
                                       : 

================================================================================
DATOS DEL ACELEROGRAFO: 
MODELO DEL ACELEROGRAFO                : ETNA2 KINEMETRICS
NUMERO DE SERIE DEL ACELEROGRAFO       : 103733
NUMERO DE CANALES                      : 3
ORIENTACION C1-C6 (rumbo;orientacion)  : /N90E/N00E/V 
ORIENTACION C7-C12 (rumbo;orientacion) : 
VEL. DE MUESTREO, C1-C6 (muestras/s)   : /200/200/200
VEL. DE MUESTREO, C7-C12 (muestras/s)  : 
ESC. COMPLETA DE SENSORES, C1-C6, (g)  : /2/2/2
ESC. COMPLETA DE SENSORES, C7-C12 (g)  : 
FREC. NAT. DE SENSORES, C1-C6, (Hz)    : /212/206/208   
FREC. NAT. DE SENSORES, C7-C12 (Hz)    : 
AMORTIGUAMIENTO DE SENSORES, C1-C6     : /0.7/0.7/0.7      
AMORTIGUAMIENTO DE SENSORES, C7-C12    : 
INTERVALO DE MUESTREO, C1-C6 (s)       : /0.005/0.005/0.005
INTERVALO DE MUESTREO, C7-C12 (s)      : 
UMBRAL DE DISPARO, C1-C6 (Gal)         : /2/2/2
UMBRAL DE DISPARO, C7-C12 (Gal)        : 
MEMORIA DE PREEVENTO (s)               : 50
TIEMPO DE POSEVENTO (s)                : 60


================================================================================
DATOS DEL SISMO:
FECHA DEL SISMO [GMT]                  : 2022/09/20
HORA EPICENTRO (GMT)                   : 08:17:13
MAGNITUD(ES)                           : /M=5.8
COORDENADAS DEL EPICENTRO              : 18.2700 LAT. N
                                       : -103.7400 LONG. W
PROFUNDIDAD FOCAL (Km)                 : 13.0
FUENTE DE LOS DATOS EPICENTRALES       : SSN
                                       : INSTITUTO DE GEOFISICA, UNAM

================================================================================
DATOS DE ESTE REGISTRO:
HORA DE LA PRIMERA MUESTRA (GMT)       : 08:18:15.000
EXACTITUD DEL TIEMPO (s)               : 
DURACION DEL REGISTRO (s), C1-C6       : /239/239/239
DURACION DEL REGISTRO (s), C7-C12      : 
NUM. TOTAL DE MUESTRAS, C1-C6          : /47800/47800/47800
NUM. TOTAL DE MUESTRAS, C7-C12         : 
ACEL. MAX.(Gal), C1-C6                 : /2.531/2.160/0.826
ACEL. MAX., C1-C6, EN LA MUESTRA       : /13911/14447/14141
ACEL. MAX.(Gal), C7-C12                : 
ACEL. MAX., C7-C12,EN LA MUESTRA       : 
UNIDADES DE LOS DATOS                  : Gal (cm/s/s)
FACTOR DE DECIMACION                   : 1
FORMATO DATOS (FORTRAN,16 campos/dato) : 3E16.7


================================================================================
CALIDAD DEL ACELEROGRAMA:
REGISTRO DIGITAL COMPLETO CON TIEMPO ABSOLUTO CORRECTO


================================================================================
COMENTARIOS:














================================================================================
DATOS DE ACELERACION:
---------+---------+---------+---------+---------+---------+---------+---------+
   CANAL-1   	     CANAL-2          CANAL-3
     N90E              N00E              V
---------+---------+---------+---------+---------+---------+---------+---------+
[...]
   2.4622700e-01  -9.7687800e-01  -3.9768100e-02
   2.4833400e-01  -1.0058600e+00  -4.3747700e-02
   2.7056800e-01  -1.0238500e+00  -3.7193200e-02
   3.2065600e-01  -1.0343700e+00  -3.4384100e-02
   3.3423100e-01  -1.0668600e+00  -3.8129500e-02
   3.4523100e-01  -1.0734000e+00  -4.0938600e-02
   3.9625400e-01  -1.1005100e+00  -3.4618200e-02
   4.2644700e-01  -1.1147700e+00  -4.0938600e-02
   4.2691500e-01  -1.1196800e+00  -3.9534100e-02
   4.6553400e-01  -1.1409500e+00  -2.8063700e-02
   5.1328100e-01  -1.1727300e+00  -3.1809100e-02
   5.1070600e-01  -1.1853500e+00  -3.4384100e-02
   5.3106900e-01  -1.1834800e+00  -3.2511400e-02
   5.8700700e-01  -1.2138700e+00  -2.6659100e-02
   5.9519900e-01  -1.2306900e+00  -2.5722800e-02
   5.9519900e-01  -1.2335000e+00  -2.6893200e-02
   6.4200900e-01  -1.2395700e+00  -2.7361400e-02
   6.6541400e-01  -1.2559300e+00  -3.2511400e-02
   6.5886100e-01  -1.2734600e+00  -3.0404600e-02
   6.9186200e-01  -1.2706600e+00  -2.9234100e-02
   7.2111900e-01  -1.2704200e+00  -3.8363600e-02
   7.1854400e-01  -1.2832800e+00  -4.5620400e-02
   7.3469400e-01  -1.2786000e+00  -4.6088600e-02
   7.7050400e-01  -1.2629500e+00  -5.1004400e-02
   7.7799400e-01  -1.2631800e+00  -6.2006700e-02
   7.7214200e-01  -1.2603700e+00  -6.8327100e-02
   8.0491000e-01  -1.2526600e+00  -7.0902100e-02
   8.2480400e-01  -1.2356000e+00  -8.2840600e-02
   8.1005900e-01  -1.2187700e+00  -9.1267900e-02
   8.3252800e-01  -1.2084900e+00  -8.9161100e-02
   8.5757100e-01  -1.1881600e+00  -9.6417800e-02
   8.3908100e-01  -1.1575400e+00  -1.0882500e-01
   8.4469800e-01  -1.1297300e+00  -1.1210200e-01
   8.7535900e-01  -1.1145400e+00  -1.1210200e-01
   8.6365700e-01  -1.0813500e+00  -1.1912500e-01
   8.4703900e-01  -1.0495600e+00  -1.2263600e-01
   8.6904000e-01  -1.0210500e+00  -1.2263600e-01
   8.7138000e-01  -9.9136800e-01  -1.2567900e-01
   8.4329400e-01  -9.5794700e-01  -1.2614700e-01
   8.4867700e-01  -9.1073600e-01  -1.2193400e-01
   8.6201800e-01  -8.8596300e-01  -1.1982700e-01
   8.2667600e-01  -8.6095500e-01  -1.2497700e-01
   8.1286700e-01  -8.2356100e-01  -1.1818800e-01
   8.2995300e-01  -7.8569900e-01  -1.0999500e-01
   8.0608000e-01  -7.5905500e-01  -1.1772000e-01
   7.6933400e-01  -7.3545000e-01  -1.1116500e-01
   7.7612100e-01  -6.9805600e-01  -9.4779200e-02
   7.7027000e-01  -6.6720500e-01  -9.7588300e-02
   7.2650200e-01  -6.3892600e-01  -9.2438300e-02
   7.1948100e-01  -6.1719000e-01  -7.2774800e-02
   7.1105500e-01  -5.9568800e-01  -7.3243000e-02
   6.7103200e-01  -5.7558900e-01  -6.9263400e-02
   6.4318000e-01  -5.5712500e-01  -5.5920300e-02
   6.3428600e-01  -5.3842800e-01  -4.7961300e-02
   5.9215600e-01  -5.3235100e-01  -4.5620400e-02
   5.4183500e-01  -5.1599100e-01  -4.2811300e-02
   5.4043100e-01  -5.0570800e-01  -3.4150000e-02
   4.9923700e-01  -4.9846300e-01  -2.8531800e-02
   4.3042600e-01  -4.8934800e-01  -2.0806900e-02
   4.0444600e-01  -4.8467300e-01  -1.6359200e-02
   3.7238100e-01  -4.8490700e-01  -1.7763700e-02
   3.0216600e-01  -4.8958100e-01  -2.1509100e-02
   2.5512100e-01  -4.8140100e-01  -2.0806900e-02
   2.3054600e-01  -4.7976500e-01  -2.0338700e-02
   1.6103200e-01  -4.8841300e-01  -2.5488700e-02
   9.5263400e-02  -4.9635900e-01  -2.6425000e-02
   6.4134500e-02  -4.9378800e-01  -2.3381900e-02
   1.4983500e-02  -4.9051600e-01  -3.1340900e-02
  -6.3892100e-02  -5.0617500e-01  -2.8297700e-02
  -1.1280900e-01  -5.1295300e-01  -1.7061400e-02
  -1.4393800e-01  -5.1178400e-01  -2.0806900e-02
  -2.2000500e-01  -5.2019800e-01  -2.3850000e-02
  -2.8132700e-01  -5.2417100e-01  -1.7763700e-02
  -3.1011500e-01  -5.2487200e-01  -1.0272800e-02
  -3.7916000e-01  -5.3258500e-01  -1.3784200e-02
  -4.6037600e-01  -5.3912900e-01  -8.8683100e-03
  -4.9197300e-01  -5.3352000e-01   2.7101500e-05
  -5.3995400e-01  -5.4941300e-01  -3.9524200e-03
  -6.3053200e-01  -5.5315200e-01   4.9528100e-04
  -6.7851300e-01  -5.4403700e-01   1.2433900e-02
  -7.2064200e-01  -5.6086500e-01   1.5477000e-02
  -8.0958200e-01  -5.6109800e-01   2.0392900e-02
  -8.7254200e-01  -5.5011400e-01   2.9288300e-02
  -9.1045900e-01  -5.5689100e-01   3.2331500e-02
  -9.8933400e-01  -5.6250100e-01   4.0290500e-02
  -1.0672700e+00  -5.5175000e-01   4.7547300e-02
  -1.1082300e+00  -5.5058100e-01   5.6910900e-02
  -1.1683800e+00  -5.5151600e-01   6.2060900e-02
  -1.2552200e+00  -5.4333600e-01   6.4635800e-02
  -1.3088200e+00  -5.3983000e-01   7.5872200e-02
  -1.3563300e+00  -5.3258500e-01   8.0085800e-02
  -1.4307600e+00  -5.1903000e-01   7.7276700e-02
  -1.4916100e+00  -5.1178400e-01   8.1022100e-02
  -1.5407600e+00  -5.0290300e-01   8.5938000e-02
  -1.6088700e+00  -4.8934800e-01   7.8681200e-02
  -1.6879800e+00  -4.7742800e-01   7.9149400e-02
  -1.7230900e+00  -4.6036700e-01   8.0085800e-02
  -1.7673200e+00  -4.5522500e-01   7.0488100e-02
  -1.8595400e+00  -4.4096900e-01   6.2763100e-02
  -1.8986300e+00  -4.2367400e-01   6.2295000e-02
  -1.9241400e+00  -4.0941700e-01   5.8549500e-02
  -2.0032500e+00  -3.8814900e-01   4.8249600e-02
  -2.0526300e+00  -3.8137100e-01   4.7079100e-02
  -2.0732300e+00  -3.5542900e-01   3.9822300e-02
  -2.1273000e+00  -3.4280800e-01   3.1161000e-02
  -2.1865100e+00  -3.3159000e-01   2.7415600e-02
  -2.2028900e+00  -2.9793500e-01   2.7415600e-02
  -2.2267700e+00  -2.8437900e-01   2.0392900e-02
  -2.2883200e+00  -2.6615000e-01   1.5242900e-02
  -2.3044700e+00  -2.3576700e-01   1.9456500e-02
  -2.3068100e+00  -2.1122700e-01   9.6247800e-03
  -2.3555000e+00  -1.9510000e-01   3.7725400e-03
  -2.3777300e+00  -1.6401600e-01   4.9429800e-03
  -2.3669700e+00  -1.3807400e-01   2.6020900e-03
  -2.3962200e+00  -1.1797400e-01  -3.9524200e-03
  -2.4238400e+00  -8.0579800e-02  -1.0038800e-02
  -2.4032400e+00  -5.3468800e-02  -1.2145600e-02
  -2.4079200e+00  -3.1499500e-02  -1.7061400e-02
  -2.4355400e+00   1.6880300e-03  -2.0104600e-02
  -2.4208000e+00   3.1837300e-02  -2.0572800e-02
  -2.4083900e+00   5.8247100e-02  -2.7127300e-02
  -2.4231400e+00   8.6059200e-02  -3.6490900e-02
  -2.4149500e+00   1.1784500e-01  -3.9768100e-02
  -2.3962200e+00   1.4518900e-01  -4.1172700e-02
  -2.3934100e+00   1.6902800e-01  -5.1940800e-02
  -2.3915400e+00   1.9941100e-01  -6.0368000e-02
  -2.3693100e+00   2.2792400e-01  -6.2240700e-02
  -2.3480100e+00   2.5620400e-01  -7.3243000e-02
  -2.3522200e+00   2.7887400e-01  -8.0967900e-02
  -2.3290500e+00   3.0084400e-01  -8.3308800e-02
  -2.2925400e+00   3.3146000e-01  -9.4076900e-02
  -2.2916000e+00   3.5062500e-01  -1.0601600e-01
  -2.2698300e+00   3.6698500e-01  -1.0133400e-01
  -2.2232600e+00   3.9760200e-01  -1.0625000e-01
  -2.2040700e+00   4.1816900e-01  -1.2216800e-01
  -2.1926000e+00   4.2985400e-01  -1.2357200e-01
  -2.1474200e+00   4.4995400e-01  -1.2052900e-01
  -2.1076400e+00   4.6748300e-01  -1.2450900e-01
  -2.1013200e+00   4.7659700e-01  -1.3527700e-01
  -2.0629300e+00   4.9155500e-01  -1.2638100e-01
  -2.0046500e+00   5.0020300e-01  -1.2684900e-01
  -1.9908400e+00   5.0955100e-01  -1.3434000e-01
  -1.9611200e+00   5.2591100e-01  -1.2404000e-01
  -1.8934800e+00   5.2147100e-01  -1.2099700e-01
  -1.8642200e+00   5.1913400e-01  -1.1865600e-01
  -1.8487700e+00   5.2637900e-01  -1.1140000e-01
  -1.7846400e+00   5.2941700e-01  -1.0227000e-01
  -1.7350200e+00   5.2637900e-01  -9.8992800e-02
  -1.7163000e+00   5.1866600e-01  -8.6352000e-02
  -1.6620000e+00   5.1819900e-01  -7.0902100e-02
  -1.5999800e+00   5.2077000e-01  -6.7624800e-02
  -1.5676800e+00   5.1422600e-01  -5.8963500e-02
  -1.5271900e+00   5.0791500e-01  -4.1874900e-02
  -1.4583700e+00   5.0955100e-01  -2.9234100e-02
  -1.4162500e+00   5.0441000e-01  -2.8765900e-02
  -1.3790300e+00   4.9973500e-01  -1.5422800e-02
  -1.3097500e+00   4.9693100e-01   1.4316400e-03
  -1.2556900e+00   4.9669700e-01   7.0497900e-03
  -1.2177700e+00   4.9856700e-01   2.1563400e-02
  -1.1482600e+00   4.9833300e-01   3.8651900e-02
  -1.0768700e+00   4.9576200e-01   5.0356400e-02
  -1.0412900e+00   4.9342500e-01   5.7145000e-02
  -9.7482300e-01   5.0347500e-01   7.3765300e-02
  -8.9805400e-01   4.9856700e-01   9.4599300e-02
  -8.4703100e-01   4.9880000e-01   9.8578900e-02
  -7.9460300e-01   5.1095400e-01   1.1309200e-01
  -7.0683300e-01   5.0627900e-01   1.3439500e-01
  -6.2257500e-01   5.0955100e-01   1.4469500e-01
  -5.8840300e-01   5.1329100e-01   1.6084700e-01
  -5.1069800e-01   5.1329100e-01   1.8074400e-01
  -4.1894900e-01   5.1188800e-01   1.9268300e-01
  -3.8009700e-01   5.0183900e-01   2.0555800e-01
  -3.1034900e-01   5.0464300e-01   2.2803000e-01
  -2.0666400e-01   4.9506100e-01   2.4043700e-01
  -1.5306600e-01   4.8033700e-01   2.5003500e-01
  -9.3382600e-02   4.7309200e-01   2.6525100e-01
   1.1706800e-02   4.7052100e-01   2.7718900e-01
   8.1220300e-02   4.6818400e-01   2.8444600e-01
   1.3809500e-01   4.3920300e-01   2.9802300e-01
   2.3663100e-01   4.3195800e-01   3.1464400e-01
   3.2720900e-01   4.2424500e-01   3.2728400e-01
   3.8689200e-01   4.0321100e-01   3.4296800e-01
   4.7770500e-01   3.8778600e-01   3.5958900e-01
   5.8817700e-01   3.6184300e-01   3.7831600e-01
   6.6284000e-01   3.4828800e-01   3.8346600e-01
   7.3094900e-01   3.2772100e-01   3.9142500e-01
   8.3510200e-01   3.0715400e-01   4.0523600e-01
   9.2240400e-01   2.8541800e-01   4.0242700e-01
   9.7319300e-01   2.6625400e-01   4.0102300e-01
   1.0717300e+00   2.5667100e-01   4.0242700e-01
   1.1796300e+00   2.2769100e-01   4.0195900e-01
   1.2341600e+00   2.1296700e-01   4.0710900e-01
   1.3050800e+00   2.0992800e-01   4.2209100e-01
   1.4085300e+00   1.7861000e-01   4.2513400e-01
   1.4799200e+00   1.4916200e-01   4.0406600e-01
   1.5412400e+00   1.2976400e-01   3.9376600e-01
   1.6453900e+00   1.2041500e-01   3.8838200e-01
   1.7312900e+00   1.1550700e-01   3.7457100e-01
   1.7764600e+00   9.3538100e-02   3.6918700e-01
   1.8558000e+00   7.8346600e-02   3.6614300e-01
   1.9332800e+00   4.9599700e-02   3.4694800e-01
   1.9702600e+00   3.4641900e-02   3.2541200e-01
   2.0444500e+00   3.3707000e-02   3.1932500e-01
   2.1319900e+00   3.8848800e-02   3.0855700e-01
   2.1563300e+00   5.3105400e-02   2.8655300e-01
   2.1762200e+00   5.2638000e-02   2.6688900e-01
   2.2373100e+00   5.7312300e-02   2.5143900e-01
   2.2639900e+00   5.5910000e-02   2.3271200e-01
   2.2707800e+00   5.9415700e-02   2.1047400e-01
   2.3264800e+00   5.2170500e-02   1.9151200e-01
   2.3637000e+00   5.0300800e-02   1.7559400e-01
   2.3527000e+00   6.8296900e-02   1.5312200e-01
   2.3707200e+00   8.4423200e-02   1.2386100e-01
   2.4224400e+00   9.6810100e-02   9.5769800e-02
   2.4414000e+00   9.1902100e-02   6.7913100e-02
   2.4552100e+00   9.5641600e-02   4.0290500e-02
   2.5057700e+00   1.2649200e-01   1.0561100e-02
   2.5181700e+00   1.6061400e-01  -2.5722800e-02
   2.5027200e+00   1.9286700e-01  -6.3645300e-02
   2.5230900e+00   2.1881000e-01  -9.4311000e-02
   2.5305800e+00   2.2932700e-01  -1.2029500e-01
   2.5078700e+00   2.3890900e-01  -1.4042700e-01
   2.4954700e+00   2.7536900e-01  -1.5142900e-01
   2.4961700e+00   3.2164400e-01  -1.6360200e-01
   2.4725300e+00   3.6161000e-01  -1.8232900e-01
   2.4439800e+00   3.8988900e-01  -2.0105600e-01
   2.4580200e+00   4.1185800e-01  -2.1650600e-01
   2.4493600e+00   4.4621400e-01  -2.4202200e-01
   2.4037200e+00   4.6935200e-01  -2.6519600e-01
   2.4030200e+00   4.9856700e-01  -2.7479400e-01
   2.4100400e+00   5.1726400e-01  -2.9469200e-01
   2.3683800e+00   5.4811400e-01  -3.2091000e-01
   2.3470800e+00   5.8761200e-01  -3.3238000e-01
   2.3566800e+00   6.0350500e-01  -3.4174400e-01
   2.3129100e+00   6.3622500e-01  -3.5415100e-01
   2.2679700e+00   6.6216700e-01  -3.6491900e-01
   2.2803700e+00   6.8109800e-01  -3.7217500e-01
   2.2586100e+00   6.9699100e-01  -3.8130500e-01
   2.1998600e+00   7.1825900e-01  -3.8926400e-01
   2.1776300e+00   7.4303300e-01  -3.8785900e-01
   2.1600700e+00   7.5565400e-01  -3.8785900e-01
   2.1039000e+00   7.6547000e-01  -3.8762500e-01
   2.0687900e+00   7.7809000e-01  -3.8107100e-01
   2.0641100e+00   7.9865700e-01  -3.8130500e-01
   2.0215100e+00   8.0309800e-01  -3.8598700e-01
   1.9777400e+00   8.0940800e-01  -3.7287800e-01
   1.9704900e+00   8.2974100e-01  -3.5461900e-01
   1.9447400e+00   8.3885600e-01  -3.4455300e-01
   1.8913800e+00   8.5615100e-01  -3.3074200e-01
   1.8738300e+00   8.6923900e-01  -3.1412100e-01
   1.8625900e+00   8.8115900e-01  -3.0288500e-01
   1.8082900e+00   8.9822000e-01  -2.9445800e-01
   1.7834800e+00   9.0219300e-01  -2.7245300e-01
   1.7891000e+00   9.2135800e-01  -2.5185300e-01
   1.7521200e+00   9.4122300e-01  -2.4553300e-01
   1.7170100e+00   9.5945300e-01  -2.2774200e-01
   1.7273100e+00   9.7721600e-01  -2.0456700e-01
   1.7153700e+00   9.8586300e-01  -1.8654200e-01
   1.6652900e+00   1.0113400e+00  -1.7319900e-01
   1.6559200e+00   1.0263000e+00  -1.5587700e-01
   1.6573300e+00   1.0377500e+00  -1.3855400e-01
   1.6009200e+00   1.0508400e+00  -1.2521100e-01
   1.5669800e+00   1.0594800e+00  -9.8524600e-02
   1.5585600e+00   1.0777100e+00  -7.9329300e-02
   1.5108100e+00   1.0830900e+00  -6.5283900e-02
   1.4654000e+00   1.0873000e+00  -4.6088600e-02
   1.4513600e+00   1.1029500e+00  -2.6659100e-02
   1.4153200e+00   1.1144100e+00  -1.4018300e-02
   1.3493100e+00   1.1160400e+00  -3.0160600e-03
   1.3212300e+00   1.1237600e+00   1.7817900e-02
   1.2997000e+00   1.1153400e+00   2.9288300e-02
   1.2313500e+00   1.1155800e+00   3.9120100e-02
   1.1901600e+00   1.1148700e+00   5.9251800e-02
   1.1784600e+00   1.0950100e+00   7.9383500e-02
   1.1103500e+00   1.1167400e+00   8.9683400e-02
   1.0373200e+00   1.1148700e+00   1.0232400e-01
   1.0293700e+00   1.0919700e+00   1.2292400e-01
   9.9215100e-01   1.0774800e+00   1.3907600e-01
   9.1163700e-01   1.0863600e+00   1.5148300e-01
   8.8612600e-01   1.0957100e+00   1.7184900e-01
   8.4703900e-01   1.0945400e+00   1.8144700e-01
   7.6324800e-01   1.1186100e+00   1.7816900e-01
   7.1924600e-01   1.0908000e+00   1.9361900e-01
   7.0379900e-01   1.0672000e+00   2.0509000e-01
   6.4130700e-01   1.0690700e+00   2.1164400e-01
   5.7249600e-01   1.0749100e+00   2.1866700e-01
   5.5026100e-01   1.0711700e+00   2.2451900e-01
   4.9198200e-01   1.0674300e+00   2.2405100e-01
   4.2176600e-01   1.0786500e+00   2.1328300e-01
   3.9812700e-01   1.0538700e+00   2.1328300e-01
   3.7776400e-01   1.0405500e+00   2.0274900e-01
   3.2159200e-01   1.0057300e+00   2.0181200e-01
   2.6682400e-01   9.8002000e-01   2.0743100e-01
   2.4763100e-01   9.8282500e-01   1.9408700e-01
   2.0058700e-01   9.4987100e-01   1.7887200e-01
   1.4815900e-01   9.2720100e-01   1.6974200e-01
   1.3926500e-01   9.0242700e-01   1.7067800e-01
   1.0696600e-01   8.7554900e-01   1.6248500e-01
   4.1899500e-02   8.6292900e-01   1.4727000e-01
   1.3111100e-02   8.2576800e-01   1.3814000e-01
   3.5149500e-03   7.8253100e-01   1.2479700e-01
  -5.2189500e-02   7.5448500e-01   1.1122000e-01
  -9.3382600e-02   7.1662300e-01   1.0677200e-01
  -8.9637800e-02   6.7969600e-01   9.1088000e-02
  -1.3153300e-01   6.3669200e-01   7.2126700e-02
  -1.8957800e-01   5.9789600e-01   5.9017700e-02
  -1.9823800e-01   5.5956600e-01   4.0758700e-02
  -2.1766400e-01   4.8711500e-01   2.6245100e-02
  -2.7453900e-01   4.4013800e-01   1.1731600e-02
  -2.9583800e-01   3.9573200e-01  -2.0698800e-04
  -3.0590200e-01   3.3520000e-01  -1.7295500e-02
  -3.5950000e-01   2.8798900e-01  -4.0236300e-02
  -3.9156500e-01   2.3096300e-01  -5.1238500e-02
  -3.9624600e-01   1.8235000e-01  -6.2240700e-02
  -4.4024800e-01   1.2625800e-01  -7.7690700e-02
