**************************************************************************************
  	RED ACELEROGRÁFICA DE LA UNIVERSIDAD AUTONOMA METROPOLITANA (RA-UAM)
	   UNIDAD AZCAPOTZALCO. DIVISIÓN CBI-DEPARTAMENTO DE MATERIALES
     Av. San Pablo 420, Col. Nueva el Rosario, Azcapotzalco, C.P. 02128, Ciudad de México
		Área de Estructuras. e-mail: agb@azc.uam.mx
**************************************************************************************
ARCHIVO ESTANDAR DE ACELERACION:
VERSION DEL FORMATO                    : 2.0
NOMBRE DEL ARCHIVO                     : RUML202204.061
FECHA Y HORA DE CREACION               : 11:30 a. m. 11/04/2022
REF. CATALOGO ACELEROGRAMAS, SMIS 1999 : REGISTRO NO.      /PAG.    


================================================================================
DATOS DE LA ESTACION:
NOMBRE DE LA ESTACION                  : UAM-LERMA.
CLAVE DE LA ESTACION                   : RUML
LOCALIZACION DE LA ESTACION            : AV. DE LAS GARZAS 10, EL PANTEON, C.P.52005,
                                       : LERMA DE VILLADA, ESTADO DE MEXICO.   
                                       : 
                                       : 
                                       : 
COORDENADAS DE LA ESTACION             : 19.291278 LAT. N
                                       : 99.500578 LONG. W
ALTITUD (msnm)                         : 2570
TIPO DE SUELO                          : DEPOSITOS LACUSTRES
                                       : 
                                       : 
INSTITUCION RESPONSABLE                : UNIVERSIDAD AUTONOMA METROPOLITANA
                                       : 

================================================================================
DATOS DEL ACELEROGRAFO: 
MODELO DEL ACELEROGRAFO                : ETNA2 KINEMETRICS
NUMERO DE SERIE DEL ACELEROGRAFO       : 103733
NUMERO DE CANALES                      : 3
ORIENTACION C1-C6 (rumbo;orientacion)  : /N90E/N00E/V 
ORIENTACION C7-C12 (rumbo;orientacion) : 
VEL. DE MUESTREO, C1-C6 (muestras/s)   : /200/200/200
VEL. DE MUESTREO, C7-C12 (muestras/s)  : 
ESC. COMPLETA DE SENSORES, C1-C6, (g)  : /2/2/2
ESC. COMPLETA DE SENSORES, C7-C12 (g)  : 
FREC. NAT. DE SENSORES, C1-C6, (Hz)    : /212/206/208   
FREC. NAT. DE SENSORES, C7-C12 (Hz)    : 
AMORTIGUAMIENTO DE SENSORES, C1-C6     : /0.7/0.7/0.7      
AMORTIGUAMIENTO DE SENSORES, C7-C12    : 
INTERVALO DE MUESTREO, C1-C6 (s)       : /0.005/0.005/0.005
INTERVALO DE MUESTREO, C7-C12 (s)      : 
UMBRAL DE DISPARO, C1-C6 (Gal)         : /2/2/2
UMBRAL DE DISPARO, C7-C12 (Gal)        : 
MEMORIA DE PREEVENTO (s)               : 50
TIEMPO DE POSEVENTO (s)                : 60


================================================================================
DATOS DEL SISMO:
FECHA DEL SISMO [GMT]                  : 2022/04/06
HORA EPICENTRO (GMT)                   : 05:20:35
MAGNITUD(ES)                           : /M=4.6
COORDENADAS DEL EPICENTRO              : 16.5400 LAT. N
                                       : -99.2500 LONG. W
PROFUNDIDAD FOCAL (Km)                 : 10.0
FUENTE DE LOS DATOS EPICENTRALES       : SSN
                                       : INSTITUTO DE GEOFISICA, UNAM

================================================================================
DATOS DE ESTE REGISTRO:
HORA DE LA PRIMERA MUESTRA (GMT)       : 05:21:12.000
EXACTITUD DEL TIEMPO (s)               : 
DURACION DEL REGISTRO (s), C1-C6       : /127/127/127
DURACION DEL REGISTRO (s), C7-C12      : 
NUM. TOTAL DE MUESTRAS, C1-C6          : /25400/25400/25400
NUM. TOTAL DE MUESTRAS, C7-C12         : 
ACEL. MAX.(Gal), C1-C6                 : /0.670/0.682/-0.398
ACEL. MAX., C1-C6, EN LA MUESTRA       : /10807/10368/11820
ACEL. MAX.(Gal), C7-C12                : 
ACEL. MAX., C7-C12,EN LA MUESTRA       : 
UNIDADES DE LOS DATOS                  : Gal (cm/s/s)
FACTOR DE DECIMACION                   : 1
FORMATO DATOS (FORTRAN,16 campos/dato) : 3E16.7


================================================================================
CALIDAD DEL ACELEROGRAMA:
REGISTRO DIGITAL COMPLETO CON TIEMPO ABSOLUTO CORRECTO


================================================================================
COMENTARIOS:














================================================================================
DATOS DE ACELERACION:
---------+---------+---------+---------+---------+---------+---------+---------+
   CANAL-1   	     CANAL-2          CANAL-3
     N90E              N00E              V
---------+---------+---------+---------+---------+---------+---------+---------+
[...]
   1.4300900e-01   3.9366100e-01   2.8643800e-02
   1.1117800e-01   4.1492900e-01   3.2155100e-02
   1.3200900e-01   4.2077200e-01   4.2923300e-02
   1.4020100e-01   4.2474500e-01   4.8541400e-02
   1.0228400e-01   4.4624600e-01   4.9477800e-02
   1.0064600e-01   4.4554500e-01   5.4627700e-02
   1.1796600e-01   4.5185600e-01   5.7436800e-02
   8.9645500e-02   4.6798200e-01   5.7905000e-02
   7.5368300e-02   4.7592800e-01   5.7905000e-02
   1.0579500e-01   4.8247200e-01   5.9075400e-02
   9.3156300e-02   4.8036900e-01   5.5798200e-02
   6.9517000e-02   4.9883200e-01   5.4393600e-02
   8.8709300e-02   5.0748000e-01   5.9075400e-02
   9.8773500e-02   5.0771400e-01   6.4225400e-02
   7.1155400e-02   5.2851400e-01   6.4693600e-02
   6.6006200e-02   5.3809700e-01   6.8204900e-02
   8.2389900e-02   5.3272100e-01   6.9609500e-02
   6.0623000e-02   5.5071700e-01   5.8139100e-02
   4.4005300e-02   5.5258700e-01   5.3925500e-02
   6.4367900e-02   5.4300500e-01   5.2286800e-02
   6.4367900e-02   5.5188600e-01   4.4561900e-02
   3.7451900e-02   5.4814600e-01   3.8709600e-02
   4.8920400e-02   5.4534200e-01   3.9177800e-02
   6.2963500e-02   5.4580900e-01   3.7773300e-02
   4.3537200e-02   5.4487400e-01   3.3793800e-02
   4.2835100e-02   5.5702800e-01   3.3325600e-02
   5.7112200e-02   5.4464100e-01   3.4730100e-02
   3.8622100e-02   5.3856400e-01   3.1921000e-02
   2.2472500e-02   5.4931500e-01   2.1621100e-02
   4.1430700e-02   5.3061800e-01   1.8577900e-02
   4.1898800e-02   5.0864800e-01   1.2257500e-02
   2.7387600e-02   5.0233800e-01   3.8302800e-03
   4.7282000e-02   4.9602800e-01   6.6393500e-03
   6.6240300e-02   4.6891700e-01   8.4843700e-05
   3.8388100e-02   4.6026900e-01  -6.4696700e-03
   4.0026400e-02   4.5162200e-01  -9.7469200e-03
   6.8580800e-02   4.2754900e-01  -1.1151500e-02
   5.4303600e-02   4.0487900e-01  -1.0683300e-02
   4.6579900e-02   3.8524700e-01  -1.1853700e-02
   7.2559700e-02   3.8477900e-01  -5.0651300e-03
   8.2389900e-02   3.5579900e-01  -5.7674000e-03
   6.6708400e-02   3.2868800e-01  -3.8333600e-04
   8.3092000e-02   3.1980700e-01   1.1789300e-02
   9.0581700e-02   2.8264600e-01   1.1555200e-02
   7.1857500e-02   2.5904100e-01   9.6825200e-03
   7.8176900e-02   2.4197900e-01   1.4364300e-02
   8.9177400e-02   2.1019400e-01   1.9046100e-02
   8.0517500e-02   1.8939300e-01   1.6939300e-02
   6.8814800e-02   1.7233200e-01   1.3428000e-02
   9.1517900e-02   1.3493800e-01   1.4130200e-02
   8.5198500e-02   1.0502200e-01   5.0007300e-03
   6.5772200e-02   8.0715800e-02  -7.1719400e-03
   9.0113600e-02   4.5658500e-02  -5.7674000e-03
   9.4794600e-02   1.4574400e-02  -9.2787400e-03
   7.6538600e-02  -1.5341200e-02  -1.1853700e-02
   7.7240700e-02  -2.4456100e-02  -9.9810100e-03
   8.9177400e-02  -5.7176200e-02  -1.2087800e-02
   6.4133800e-02  -9.8076400e-02  -1.6067300e-02
   4.4239400e-02  -1.0976200e-01  -1.4662800e-02
   6.0857100e-02  -1.3827500e-01  -5.7674000e-03
   4.2835100e-02  -1.7076200e-01  -4.3628600e-03
   4.9186100e-03  -1.9576900e-01  -2.4901400e-03
   4.6845500e-03  -2.1329800e-01  -4.1287700e-03
   2.1099800e-03  -2.3853900e-01  -1.0917400e-02
  -3.0657300e-02  -2.7149300e-01  -8.5764700e-03
  -4.8445300e-02  -2.8808700e-01  -1.3196900e-03
  -4.5168600e-02  -3.0304500e-01   2.4257400e-03
  -7.5127200e-02  -3.1823600e-01  -6.9378500e-03
  -1.0789500e-01  -3.3997200e-01  -7.1719400e-03
  -1.0087300e-01  -3.6404400e-01  -4.8310400e-03
  -1.2170400e-01  -3.7479500e-01  -1.8642300e-02
  -1.4487500e-01  -3.9606300e-01  -1.6535500e-02
  -1.3270400e-01  -4.1709800e-01  -1.2790100e-02
  -1.4066200e-01  -4.3042000e-01  -1.1619600e-02
  -1.6523700e-01  -4.4140400e-01  -4.8310400e-03
  -1.7155700e-01  -4.4841600e-01   3.3621000e-03
  -1.6734400e-01  -4.6384100e-01   1.1087100e-02
  -1.9496200e-01  -4.7646100e-01   8.7461600e-03
  -2.1813300e-01  -4.7295600e-01   1.4364300e-02
  -2.1228200e-01  -4.8207100e-01   2.0450600e-02
  -2.3334600e-01  -4.9866400e-01   2.3025600e-02
  -2.6049700e-01  -5.0076800e-01   3.0048300e-02
  -2.6073100e-01  -5.0123500e-01   3.6368700e-02
  -2.7173100e-01  -4.9656100e-01   3.4496000e-02
  -3.0777500e-01  -5.0637700e-01   3.1452900e-02
  -3.1807300e-01  -4.9749600e-01   3.6602800e-02
  -3.1549900e-01  -4.8440800e-01   3.5432400e-02
  -3.4733000e-01  -4.9445800e-01   2.3727900e-02
  -3.6769200e-01  -4.8651100e-01   1.3896100e-02
  -3.5950100e-01  -4.8113600e-01   8.2779800e-03
  -3.6371400e-01  -4.8300500e-01   5.5302300e-04
  -3.8079900e-01  -4.7716300e-01  -2.4901400e-03
  -3.6979900e-01  -4.7108600e-01   1.7234700e-03
  -3.5599000e-01  -4.6921600e-01   6.4052600e-03
  -3.7096900e-01  -4.5916700e-01   1.1789300e-02
  -3.5996900e-01  -4.4584500e-01   2.2089300e-02
  -3.3562700e-01  -4.4046900e-01   2.8877900e-02
  -3.4054200e-01  -4.3532800e-01   2.6537000e-02
  -3.3586100e-01  -4.1990200e-01   2.8643800e-02
  -2.9864700e-01  -4.0120500e-01   2.8409700e-02
  -2.7898700e-01  -4.0190600e-01   2.3259700e-02
  -2.8202900e-01  -3.8998700e-01   1.9982500e-02
  -2.4083600e-01  -3.7105600e-01   1.2023400e-02
  -2.0081300e-01  -3.7035500e-01   2.1916500e-03
  -2.0174900e-01  -3.5352700e-01  -8.1082900e-03
  -1.6757800e-01  -3.3646600e-01  -1.1853700e-02
  -1.1983100e-01  -3.2080700e-01  -1.7940100e-02
  -1.1608600e-01  -3.0024000e-01  -2.7069600e-02
  -1.0180900e-01  -2.8481500e-01  -2.7537700e-02
  -5.2424200e-02  -2.6214500e-01  -3.8774000e-02
  -3.5338400e-02  -2.3900700e-01  -4.8605800e-02
  -3.5338400e-02  -2.1283100e-01  -5.1649000e-02
   8.8974900e-03  -1.9203000e-01  -5.3989900e-02
   3.3707000e-02  -1.6258200e-01  -5.4224000e-02
   2.3642800e-02  -1.2472000e-01  -5.7501200e-02
   5.1026900e-02  -9.8310100e-02  -5.8203500e-02
   8.1453700e-02  -7.4237400e-02  -6.0778500e-02
   8.2155800e-02  -5.2969400e-02  -6.6162500e-02
   8.6368800e-02  -1.7857100e-03  -6.3821600e-02
   1.1445500e-01   1.6677800e-02  -6.0778500e-02
   1.2522100e-01   2.3689300e-02  -6.8269300e-02
   1.1773200e-01   6.3888300e-02  -6.6396600e-02
   1.4652000e-01   7.6508900e-02  -6.3353500e-02
   1.6430800e-01   9.1700400e-02  -7.1312500e-02
   1.5049900e-01   1.2068100e-01  -7.5760200e-02
   1.6758500e-01   1.3096500e-01  -7.1546600e-02
   1.9262800e-01   1.3680700e-01  -6.9673900e-02
   1.7858500e-01   1.5877700e-01  -7.0844300e-02
   1.8162800e-01   1.5457000e-01  -6.1948900e-02
   2.0784200e-01   1.6602200e-01  -5.9842100e-02
   1.9824600e-01   1.7420200e-01  -6.0778500e-02
   1.9520300e-01   1.6181500e-01  -5.5160300e-02
   2.1580000e-01   1.6952800e-01  -4.1583100e-02
   2.1182100e-01   1.6578800e-01  -3.3155900e-02
   2.0128800e-01   1.6462000e-01  -2.7069600e-02
   2.0877800e-01   1.6275000e-01  -1.8876400e-02
   2.2071500e-01   1.5036300e-01  -1.7940100e-02
   2.0854400e-01   1.4545500e-01  -2.2621900e-02
   1.9848000e-01   1.4989600e-01  -2.2855900e-02
   2.1790600e-01   1.4218300e-01  -1.0449200e-02
   2.1088500e-01   1.3119800e-01  -1.5833300e-02
   1.8350000e-01   1.3260100e-01  -1.4428700e-02
   1.9099000e-01   1.2886100e-01  -1.6067300e-02
   1.9567100e-01   1.1109900e-01  -2.5899100e-02
   1.6032900e-01   9.5206100e-02  -2.5430900e-02
   1.5096700e-01   9.6608400e-02  -3.3155900e-02
   1.5541400e-01   8.0715800e-02  -3.5496800e-02
   1.2732800e-01   5.5240800e-02  -4.6264900e-02
   1.0719900e-01   4.9397900e-02  -5.1649000e-02
   1.0790200e-01   3.0467000e-02  -5.4692100e-02
   9.9475700e-02  -4.1228700e-03  -6.5460300e-02
   6.9751100e-02  -1.2069200e-02  -6.6396600e-02
   6.4601900e-02  -2.9364100e-02  -6.7567100e-02
   5.7112200e-02  -6.4421400e-02  -7.2483000e-02
   1.9429800e-02  -7.0731700e-02  -7.6930700e-02
   1.4748800e-02  -1.0111500e-01  -7.7867000e-02
   1.8259600e-02  -1.3640600e-01  -8.1378400e-02
  -1.0294800e-02  -1.5954400e-01  -8.7698800e-02
  -1.9890900e-02  -1.8735600e-01  -7.9037500e-02
  -5.6137400e-03  -2.0722100e-01  -7.1546600e-02
  -2.7146500e-02  -2.5045900e-01  -6.8737500e-02
  -4.4466400e-02  -2.7196100e-01  -5.9608000e-02
  -2.6210300e-02  -2.7710200e-01  -5.3755800e-02
  -2.6210300e-02  -3.2571500e-01  -4.1817200e-02
  -4.4232300e-02  -3.5048900e-01  -3.4560400e-02
  -4.0721600e-02  -3.6311000e-01  -2.3558200e-02
  -2.9253000e-02  -4.0237400e-01  -1.0917400e-02
  -3.7678900e-02  -4.2410900e-01  -5.0651300e-03
  -4.3062100e-02  -4.4584500e-01   1.6002900e-02
  -2.9019000e-02  -4.5589400e-01   2.5600600e-02
  -2.3167700e-02  -4.6103600e-01   2.8175600e-02
  -3.9551300e-02  -4.8020100e-01   4.6434600e-02
  -2.6678400e-02  -4.7622800e-01   6.8439000e-02
  -1.5912000e-02  -4.6430800e-01   8.2718500e-02
  -4.6104800e-02  -4.5566100e-01   9.0677500e-02
  -4.2594000e-02  -4.4584500e-01   1.0355200e-01
  -3.1827600e-02  -4.4233900e-01   1.0706400e-01
  -6.5531100e-02  -4.1078700e-01   9.7232100e-02
  -6.9275900e-02  -3.9068800e-01   9.9807000e-02
  -5.2658200e-02  -3.6848500e-01   1.0776600e-01
  -8.0276400e-02  -3.3623200e-01   1.0308400e-01
  -9.9468700e-02  -3.0257700e-01   9.6061600e-02
  -8.4021200e-02  -2.6191100e-01   9.7700200e-02
  -9.7362200e-02  -2.4321400e-01   9.9807000e-02
  -1.3808700e-01  -1.8665400e-01   9.2082100e-02
  -1.3738500e-01  -1.4598800e-01   8.8102600e-02
  -1.3715100e-01  -1.1420300e-01   8.1314000e-02
  -1.7811000e-01  -7.3302600e-02   6.7970800e-02
  -1.9098300e-01  -5.1099600e-02   6.3757200e-02
  -1.7600400e-01  -1.1368000e-02   6.3055000e-02
  -2.0011100e-01   1.9014900e-02   5.3457300e-02
  -2.2983600e-01   3.5141300e-02   4.8775500e-02
  -2.2468700e-01   6.8562600e-02   5.2052700e-02
  -2.3709100e-01   9.5439800e-02   4.3859600e-02
  -2.6143300e-01   1.1553900e-01   4.0114200e-02
  -2.6236900e-01   1.4755800e-01   3.6602800e-02
  -2.5675200e-01   1.5153200e-01   2.6771100e-02
  -2.8015700e-01   1.7817500e-01   1.1555200e-02
  -2.8905100e-01   2.0575300e-01   2.4257400e-03
  -2.6213500e-01   2.1019400e-01   5.2348200e-03
  -2.7407200e-01   2.3052700e-01  -4.5969500e-03
  -2.8460400e-01   2.6044300e-01  -1.5131000e-02
  -2.5464500e-01   2.7025900e-01  -1.3024200e-02
  -2.4973000e-01   2.8147700e-01  -1.4428700e-02
  -2.6353900e-01   3.1045800e-01  -1.5833300e-02
  -2.3919800e-01   3.3850400e-01  -9.7469200e-03
  -2.1626100e-01   3.7519700e-01  -6.9378500e-03
  -2.3545300e-01   3.8127400e-01  -3.1924100e-03
  -2.3264400e-01   4.3315800e-01  -3.1924100e-03
  -1.9940900e-01   4.5980200e-01  -6.0014900e-03
  -1.9426000e-01   4.5863300e-01  -7.4060300e-03
  -1.9566400e-01   5.0163700e-01  -2.0219600e-03
  -1.6266300e-01   5.2430700e-01   8.0438900e-03
  -1.4323600e-01   5.5609300e-01   8.7461600e-03
  -1.4417300e-01   5.6941400e-01   1.5066600e-02
  -1.1538400e-01   5.9278600e-01   2.6068800e-02
  -8.8000100e-02   6.1709200e-01   2.5834700e-02
  -9.3149300e-02   6.4397000e-01   1.9280200e-02
  -7.8872100e-02   6.5448700e-01   2.1152900e-02
  -4.3062100e-02   6.5939500e-01   2.1152900e-02
  -4.6338800e-02   6.8229900e-01   1.3193900e-02
  -4.2359900e-02   6.6851000e-01   8.5120700e-03
  -1.1933100e-02   6.7388500e-01   7.5757100e-03
  -7.9542600e-03   6.5729100e-01   2.8939200e-03
  -1.0996900e-02   6.4700800e-01  -2.9583200e-03
   1.0067800e-02   6.5168200e-01   2.8939200e-03
   2.4344900e-02   6.1709200e-01   1.1555200e-02
  -1.1667500e-03   6.1124900e-01   9.2143400e-03
  -3.0391700e-03   5.9979700e-01   8.4843700e-05
   2.6451400e-02   5.5889700e-01  -3.1924100e-03
   1.1940200e-02   5.3786300e-01  -1.0215100e-02
  -6.0818500e-03   5.0397400e-01  -1.1385500e-02
   2.1068200e-02   4.7172100e-01  -9.5128300e-03
   2.0366000e-02   4.4087100e-01  -1.9578700e-02
  -2.5710600e-03   3.8524700e-01  -2.1217300e-02
   1.8259600e-02   3.5953800e-01  -2.0281000e-02
   2.8089800e-02   3.2050800e-01  -2.4260500e-02
   6.7910200e-03   2.7656900e-01  -2.9176400e-02
   1.7791500e-02   2.5015900e-01  -3.1517300e-02
   3.4877300e-02   2.0645500e-01  -2.9176400e-02
   1.7323400e-02   1.7420200e-01  -3.4092200e-02
   1.7089300e-02   1.4148200e-01  -4.0178600e-02
   3.3707000e-02   1.0969600e-01  -4.2051300e-02
   3.7920000e-02   7.2535700e-02  -4.9074000e-02
   3.0664300e-02   5.2903700e-02  -5.5628500e-02
   3.9558300e-02   2.9064700e-02  -5.0244400e-02
   6.5538100e-02  -2.0194300e-03  -4.8137600e-02
   5.2197100e-02  -7.8623100e-03  -5.3755800e-02
   4.7984200e-02  -2.9831500e-02  -5.3053500e-02
   8.0985600e-02  -4.4088200e-02  -5.9608000e-02
   8.0985600e-02  -6.4187700e-02  -6.9908000e-02
   6.6942400e-02  -8.2651200e-02  -6.8035200e-02
   9.9475700e-02  -8.8026700e-02  -7.3653400e-02
   1.1679600e-01  -1.0882700e-01  -7.6696600e-02
   9.3390300e-02  -1.3500300e-01  -7.4355700e-02
   1.1398700e-01  -1.4481900e-01  -8.3485200e-02
   1.3809400e-01  -1.5299900e-01  -8.7698800e-02
   1.2241300e-01  -1.9226400e-01  -8.5592000e-02
   1.3177500e-01  -2.0114500e-01  -7.9973800e-02
   1.5354200e-01  -2.0815600e-01  -7.6462500e-02
   1.4488200e-01  -2.4204500e-01  -7.7164700e-02
   1.4371200e-01  -2.4788800e-01  -6.8035200e-02
   1.6758500e-01  -2.7383000e-01  -5.6798900e-02
   1.6781900e-01  -2.9322900e-01  -5.1414900e-02
   1.5401000e-01  -3.0421300e-01  -4.8371700e-02
   1.7179800e-01  -3.2688400e-01  -4.1114900e-02
   1.8467100e-01  -3.3576500e-01  -3.6199100e-02
   1.6196800e-01  -3.5119000e-01  -4.2519500e-02
   1.7320200e-01  -3.6100600e-01  -3.9242200e-02
   2.0269300e-01  -3.8110600e-01  -3.4560400e-02
   1.8373400e-01  -3.8835100e-01  -3.9008100e-02
   1.7741500e-01  -3.9676500e-01  -3.3858200e-02
   2.1088500e-01  -3.9769900e-01  -2.3558200e-02
   2.1111900e-01  -3.9512900e-01  -1.2790100e-02
   1.8607500e-01  -3.9676500e-01  -7.4060300e-03
   2.0948000e-01  -3.7713200e-01  -8.5151500e-04
   2.1977800e-01  -3.7760000e-01   3.8302800e-03
   1.9730900e-01  -3.6100600e-01  -1.4924600e-04
   2.0503300e-01  -3.5072300e-01   5.4689100e-03
   2.2469400e-01  -3.3412900e-01   6.6393500e-03
   2.2001300e-01  -3.1192600e-01  -3.1924100e-03
   2.0152200e-01  -2.9509800e-01  -6.0014900e-03
   2.2867200e-01  -2.7242800e-01  -7.4060300e-03
   2.3335400e-01  -2.4882300e-01  -2.1451400e-02
   2.0269300e-01  -2.0792300e-01  -3.1751400e-02
   2.2656600e-01  -1.8758900e-01  -3.1049100e-02
   2.4271600e-01  -1.5346700e-01  -3.9476300e-02
   2.1088500e-01  -1.1911100e-01  -4.8371700e-02
   2.1018200e-01  -9.8310100e-02  -5.1414900e-02
   2.3499200e-01  -7.5873500e-02  -5.4692100e-02
   2.1205500e-01  -5.6942500e-02  -5.9139800e-02
   1.9496900e-01  -2.5157200e-02  -6.1480700e-02
   2.1931000e-01  -3.8342200e-04  -5.0244400e-02
   2.0948000e-01   1.5041800e-02  -4.8839900e-02
   1.8022400e-01   2.9999600e-02  -4.6967200e-02
   1.8420300e-01   4.9865400e-02  -4.0646800e-02
   1.9122400e-01   5.8980300e-02  -3.9944500e-02
   1.6337200e-01   6.4823100e-02  -3.3858200e-02
   1.5541400e-01   8.1416900e-02  -2.3558200e-02
   1.7343600e-01   7.8612300e-02  -1.1385500e-02
   1.4511600e-01   8.3520400e-02  -8.8105600e-03
   1.3154100e-01   8.4922700e-02   4.2984600e-03
   1.5541400e-01   6.3888300e-02   1.3193900e-02
   1.4183900e-01   7.2068300e-02   1.8109700e-02
   1.2030600e-01   6.6459100e-02   3.2155100e-02
   1.3598800e-01   5.4072200e-02   4.4796000e-02
   1.3037100e-01   5.5708200e-02   5.8607300e-02
   9.8305400e-02   3.2103000e-02   6.0245900e-02
   1.0017800e-01   3.2570400e-02   6.9843600e-02
   1.0392300e-01   2.2988100e-02   9.0677500e-02
   7.7006700e-02  -1.3182800e-03   1.0214800e-01
   5.6410100e-02   4.9920300e-03   1.1549100e-01
   5.3133400e-02  -1.0199500e-02   1.3492000e-01
   3.3707000e-02  -2.3988700e-02   1.4475200e-01
  -4.9115800e-03  -2.8663000e-02   1.4920000e-01
