**************************************************************************************
  	RED ACELEROGRÁFICA DE LA UNIVERSIDAD AUTONOMA METROPOLITANA (RA-UAM)
	   UNIDAD AZCAPOTZALCO. DIVISIÓN CBI-DEPARTAMENTO DE MATERIALES
     Av. San Pablo 420, Col. Nueva el Rosario, Azcapotzalco, C.P. 02128, Ciudad de México
		Área de Estructuras. e-mail: agb@azc.uam.mx
**************************************************************************************
ARCHIVO ESTANDAR DE ACELERACION:
VERSION DEL FORMATO                    : 2.0
NOMBRE DEL ARCHIVO                     : RUML202203.031
FECHA Y HORA DE CREACION               : 11:30 a. m. 10/03/2022
REF. CATALOGO ACELEROGRAMAS, SMIS 1999 : REGISTRO NO.      /PAG.    


================================================================================
DATOS DE LA ESTACION:
NOMBRE DE LA ESTACION                  : UAM-LERMA.
CLAVE DE LA ESTACION                   : RUML
LOCALIZACION DE LA ESTACION            : AV. DE LAS GARZAS 10, EL PANTEON, C.P.52005,
                                       : LERMA DE VILLADA, ESTADO DE MEXICO.   
                                       : 
                                       : 
                                       : 
COORDENADAS DE LA ESTACION             : 19.291278 LAT. N
                                       : 99.500578 LONG. W
ALTITUD (msnm)                         : 2570
TIPO DE SUELO                          : DEPOSITOS LACUSTRES
                                       : 
                                       : 
INSTITUCION RESPONSABLE                : UNIVERSIDAD AUTONOMA METROPOLITANA
                                       : 

================================================================================
DATOS DEL ACELEROGRAFO: 
MODELO DEL ACELEROGRAFO                : ETNA2 KINEMETRICS
NUMERO DE SERIE DEL ACELEROGRAFO       : 103733
NUMERO DE CANALES                      : 3
ORIENTACION C1-C6 (rumbo;orientacion)  : /N90E/N00E/V 
ORIENTACION C7-C12 (rumbo;orientacion) : 
VEL. DE MUESTREO, C1-C6 (muestras/s)   : /200/200/200
VEL. DE MUESTREO, C7-C12 (muestras/s)  : 
ESC. COMPLETA DE SENSORES, C1-C6, (g)  : /2/2/2
ESC. COMPLETA DE SENSORES, C7-C12 (g)  : 
FREC. NAT. DE SENSORES, C1-C6, (Hz)    : /212/206/208   
FREC. NAT. DE SENSORES, C7-C12 (Hz)    : 
AMORTIGUAMIENTO DE SENSORES, C1-C6     : /0.7/0.7/0.7      
AMORTIGUAMIENTO DE SENSORES, C7-C12    : 
INTERVALO DE MUESTREO, C1-C6 (s)       : /0.005/0.005/0.005
INTERVALO DE MUESTREO, C7-C12 (s)      : 
UMBRAL DE DISPARO, C1-C6 (Gal)         : /2/2/2
UMBRAL DE DISPARO, C7-C12 (Gal)        : 
MEMORIA DE PREEVENTO (s)               : 50
TIEMPO DE POSEVENTO (s)                : 60


================================================================================
DATOS DEL SISMO:
FECHA DEL SISMO [GMT]                  : 2022/03/03
HORA EPICENTRO (GMT)                   : 14:40:33
MAGNITUD(ES)                           : /M=5.7
COORDENADAS DEL EPICENTRO              : 18.1500 LAT. N
                                       : -95.5100 LONG. W
PROFUNDIDAD FOCAL (Km)                 : 113.0
FUENTE DE LOS DATOS EPICENTRALES       : SSN
                                       : INSTITUTO DE GEOFISICA, UNAM

================================================================================
DATOS DE ESTE REGISTRO:
HORA DE LA PRIMERA MUESTRA (GMT)       : 14:40:43.000
EXACTITUD DEL TIEMPO (s)               : 
DURACION DEL REGISTRO (s), C1-C6       : /272/272/272
DURACION DEL REGISTRO (s), C7-C12      : 
NUM. TOTAL DE MUESTRAS, C1-C6          : /54400/54400/54400
NUM. TOTAL DE MUESTRAS, C7-C12         : 
ACEL. MAX.(Gal), C1-C6                 : /-1.991/-2.344/0.783
ACEL. MAX., C1-C6, EN LA MUESTRA       : /26826/23907/23955
ACEL. MAX.(Gal), C7-C12                : 
ACEL. MAX., C7-C12,EN LA MUESTRA       : 
UNIDADES DE LOS DATOS                  : Gal (cm/s/s)
FACTOR DE DECIMACION                   : 1
FORMATO DATOS (FORTRAN,16 campos/dato) : 3E16.7


================================================================================
CALIDAD DEL ACELEROGRAMA:
REGISTRO DIGITAL COMPLETO CON TIEMPO ABSOLUTO CORRECTO


================================================================================
COMENTARIOS:














================================================================================
DATOS DE ACELERACION:
---------+---------+---------+---------+---------+---------+---------+---------+
   CANAL-1   	     CANAL-2          CANAL-3
     N90E              N00E              V
---------+---------+---------+---------+---------+---------+---------+---------+
[...]
  -1.1819000e+00  -1.5210300e+00  -2.2426000e-01
  -1.1652900e+00  -1.5301400e+00  -2.7107800e-01
  -1.2336300e+00  -1.5233600e+00  -3.1555500e-01
  -1.2722500e+00  -1.5437000e+00  -3.5113700e-01
  -1.2619500e+00  -1.5280400e+00  -3.8063200e-01
  -1.3150800e+00  -1.5334100e+00  -4.2253400e-01
  -1.3225700e+00  -1.5292100e+00  -4.4664500e-01
  -1.2919100e+00  -1.5116800e+00  -4.5998800e-01
  -1.3010400e+00  -1.5046700e+00  -4.8292900e-01
  -1.2874600e+00  -1.4595600e+00  -5.0282700e-01
  -1.2605400e+00  -1.4287100e+00  -5.0891300e-01
  -1.1961800e+00  -1.4256700e+00  -5.1406300e-01
  -1.2055400e+00  -1.4037000e+00  -5.2085200e-01
  -1.2001600e+00  -1.3997300e+00  -5.1710600e-01
  -1.0915600e+00  -1.3815000e+00  -5.2787400e-01
  -1.0712000e+00  -1.3649100e+00  -5.2834300e-01
  -1.0337500e+00  -1.3555600e+00  -5.1944700e-01
  -9.3989300e-01  -1.3324200e+00  -5.0844500e-01
  -9.0010500e-01  -1.3193300e+00  -5.0633800e-01
  -8.5469800e-01  -1.2863800e+00  -5.0399700e-01
  -7.7441800e-01  -1.2961900e+00  -4.8058800e-01
  -7.1801200e-01  -1.2968900e+00  -4.7497000e-01
  -6.8735100e-01  -1.2884800e+00  -4.7075700e-01
  -6.2579500e-01  -1.2674500e+00  -4.6373400e-01
  -5.3264300e-01  -1.2609000e+00  -4.4290000e-01
  -4.7530000e-01  -1.2344900e+00  -4.1925700e-01
  -4.4253300e-01  -1.1952300e+00  -4.0965900e-01
  -3.6389100e-01  -1.2083200e+00  -4.0170000e-01
  -3.0116500e-01  -1.1706900e+00  -3.8999600e-01
  -2.8173900e-01  -1.1419400e+00  -3.6401200e-01
  -2.2135300e-01  -1.0800100e+00  -3.4949800e-01
  -1.6588300e-01  -1.0582700e+00  -3.3709100e-01
  -1.4083900e-01  -1.0117600e+00  -3.1181000e-01
  -8.8411600e-02  -9.2972800e-01  -2.8723000e-01
  -4.4877900e-02  -9.0121500e-01  -2.6850300e-01
  -3.5047700e-02  -8.2128400e-01  -2.4720100e-01
  -1.1876500e-02  -7.7898200e-01  -2.2566500e-01
   3.0252900e-02  -7.0092100e-01  -2.1442800e-01
   3.7742500e-02  -6.1865300e-01  -1.9827600e-01
   3.8210600e-02  -5.5835500e-01  -1.7369700e-01
   6.2318000e-02  -4.8122900e-01  -1.4490400e-01
   8.4553000e-02  -4.2840900e-01  -1.2945400e-01
   6.8871500e-02  -3.3679200e-01  -1.2243100e-01
   6.4424500e-02  -2.6808000e-01  -1.1119500e-01
   9.1574500e-02  -2.1011900e-01  -1.0581100e-01
   5.4828300e-02  -1.3275900e-01  -9.8554000e-02
   3.5636100e-02  -1.0144100e-01  -7.3506400e-02
   4.3827900e-02  -3.6234600e-02  -4.5181600e-02
   2.0188600e-02   2.7335900e-02  -3.9563400e-02
   3.5709000e-03   4.6734300e-02  -3.3008900e-02
   5.4433200e-03   1.1287600e-01  -2.5283900e-02
  -6.9614400e-03   1.2526300e-01  -2.3177100e-02
  -6.0559400e-02   1.4886800e-01  -9.3861800e-04
  -6.5474500e-02   2.0098600e-01   1.7788600e-02
  -6.6176600e-02   1.9911700e-01   2.1065800e-02
  -1.0151900e-01   2.3814700e-01   2.0831700e-02
  -1.1883800e-01   2.4305500e-01   1.9895400e-02
  -1.3030700e-01   2.5357200e-01   2.5981700e-02
  -1.5628700e-01   2.7203600e-01   2.8322600e-02
  -1.9982000e-01   2.5263700e-01   2.4577200e-02
  -2.0754400e-01   2.6081700e-01   3.6983900e-02
  -2.3422600e-01   2.5146900e-01   4.3070200e-02
  -2.6067400e-01   2.5030000e-01   4.6815700e-02
  -2.5482300e-01   2.7086700e-01   6.9756500e-02
  -2.6488700e-01   2.8185200e-01   7.4672300e-02
  -2.6512100e-01   3.0241900e-01   6.9522400e-02
  -2.9063300e-01   3.2111600e-01   6.6245100e-02
  -2.8969600e-01   3.0826200e-01   7.0926900e-02
  -2.5716300e-01   3.3537300e-01   8.4270000e-02
  -2.8244100e-01   3.5336900e-01   9.3867700e-02
  -2.7027000e-01   3.8749100e-01   9.8081300e-02
  -2.3375800e-01   4.6555200e-01   8.8717700e-02
  -2.4616300e-01   4.7186200e-01   8.2631400e-02
  -2.1199100e-01   5.1860500e-01   8.2865500e-02
  -1.7430900e-01   5.5202700e-01   8.3333700e-02
  -1.6822300e-01   5.6932200e-01   8.0056400e-02
  -1.2562600e-01   6.3125600e-01   7.1395100e-02
  -8.0219800e-02   6.4457800e-01   6.9990600e-02
  -4.1367100e-02   7.1726300e-01   6.3202000e-02
  -2.5685600e-02   7.7802900e-01   5.6647400e-02
   1.1060600e-02   7.8083400e-01   5.6647400e-02
   9.7425800e-02   8.4978000e-01   4.0495300e-02
   1.0936200e-01   8.4417100e-01   2.5045300e-02
   1.3230000e-01   8.5679100e-01   2.2704400e-02
   2.1094100e-01   9.1218200e-01   1.9895400e-02
   2.2919700e-01   9.1966100e-01   4.4454400e-03
   2.4394200e-01   9.9515100e-01  -1.4749900e-02
   3.2235000e-01   1.0257700e+00  -2.5049900e-02
   3.6728800e-01   1.0346500e+00  -4.4011100e-02
   3.5862800e-01   1.0547500e+00  -5.8056500e-02
   4.3586500e-01   1.0421300e+00  -6.8824600e-02
   4.9227200e-01   1.0601200e+00  -8.0997300e-02
   4.7565400e-01   1.0685400e+00  -8.9190400e-02
   5.2386900e-01   1.0823300e+00  -1.0300200e-01
   5.9197800e-01   1.1272000e+00  -1.1072700e-01
   5.9759500e-01   1.1316400e+00  -1.2734700e-01
   6.2404300e-01   1.1402900e+00  -1.4069000e-01
   6.8279000e-01   1.1566500e+00  -1.4373300e-01
   6.7834300e-01   1.1379500e+00  -1.5590600e-01
   6.8255600e-01   1.1744100e+00  -1.6386500e-01
   7.4879300e-01   1.2012900e+00  -1.6807900e-01
   7.8600700e-01   1.2015200e+00  -1.7814400e-01
   7.7968800e-01   1.2438200e+00  -1.8821000e-01
   8.1877500e-01   1.2531700e+00  -1.9359400e-01
   8.7096800e-01   1.2777100e+00  -1.9968100e-01
   8.7658500e-01   1.3097300e+00  -1.9968100e-01
   8.6769200e-01   1.3113700e+00  -1.9476500e-01
   9.1005500e-01   1.3751700e+00  -2.0085100e-01
   9.3650300e-01   1.3943400e+00  -2.0998100e-01
   9.3229000e-01   1.3964400e+00  -1.9710600e-01
   9.7910000e-01   1.4476200e+00  -1.8844400e-01
   9.7465300e-01   1.4368700e+00  -1.9265800e-01
   9.6271700e-01   1.4504300e+00  -1.8118800e-01
   9.8822800e-01   1.4738000e+00  -1.6433300e-01
   1.0034400e+00   1.4567400e+00  -1.4630800e-01
   1.0041400e+00   1.4885200e+00  -1.3530600e-01
   1.0057800e+00   1.4899300e+00  -1.2430400e-01
   1.0626600e+00   1.4782400e+00  -1.1423800e-01
   1.0767000e+00   1.5058200e+00  -1.1657900e-01
   1.0596100e+00   1.4817500e+00  -1.0674700e-01
   1.1050200e+00   1.4866500e+00  -9.0126800e-02
   1.1190600e+00   1.4775400e+00  -9.5042700e-02
   1.1099400e+00   1.4434200e+00  -1.0229900e-01
   1.1434000e+00   1.4450500e+00  -8.4508600e-02
   1.1684500e+00   1.4223800e+00  -6.7888300e-02
   1.1661100e+00   1.4261200e+00  -5.4545200e-02
   1.1668100e+00   1.4083600e+00  -3.3711200e-02
   1.2009800e+00   1.3884900e+00  -2.5986200e-02
   1.2150200e+00   1.3817200e+00  -1.0302200e-02
   1.1827300e+00   1.3522700e+00   2.1768100e-02
   1.1965300e+00   1.3424500e+00   5.3604300e-02
   1.2096400e+00   1.3384800e+00   7.0692800e-02
   1.1785100e+00   1.3151100e+00   7.4906400e-02
   1.1991100e+00   1.2994500e+00   9.7379000e-02
   1.2026200e+00   1.2957100e+00   1.1961800e-01
   1.1684500e+00   1.2667300e+00   1.3998300e-01
   1.1628300e+00   1.2751400e+00   1.7603300e-01
   1.1551100e+00   1.2650900e+00   2.0084700e-01
   1.1345100e+00   1.2510700e+00   2.1044400e-01
   1.0928500e+00   1.2728000e+00   2.2589400e-01
   1.0935500e+00   1.2410200e+00   2.4415300e-01
   1.1033800e+00   1.2403200e+00   2.6241200e-01
   1.0593800e+00   1.2274600e+00   2.8277800e-01
   1.0364400e+00   1.2003500e+00   2.9916400e-01
   1.0338700e+00   1.2227900e+00   2.9705800e-01
   9.9712200e-01   1.1788500e+00   2.9261000e-01
   9.6669600e-01   1.1566500e+00   3.0688900e-01
   9.7559000e-01   1.1508100e+00   3.0127100e-01
   9.3018300e-01   1.0893400e+00   2.9822800e-01
   8.8524500e-01   1.0720400e+00   3.1438000e-01
   8.9062900e-01   1.0213300e+00   3.3404400e-01
   8.5669100e-01   9.8556900e-01   3.5628200e-01
   8.1432800e-01   9.7084500e-01   3.7360500e-01
   8.0520000e-01   9.1638900e-01   3.9233200e-01
   7.9583700e-01   8.9488700e-01   3.9139600e-01
   7.5581500e-01   8.3856200e-01   3.8905500e-01
   7.2679200e-01   7.7686100e-01   4.1176100e-01
   7.2281300e-01   7.3853200e-01   4.2487000e-01
   6.9777000e-01   6.8875000e-01   4.1269800e-01
   6.4932100e-01   6.3663200e-01   4.2042300e-01
   6.2451100e-01   5.8217600e-01   4.4312900e-01
   5.9689300e-01   5.3426400e-01   4.4991800e-01
   5.3299700e-01   4.9663600e-01   4.6302700e-01
   5.0701700e-01   4.2067900e-01   4.8081800e-01
   5.0444300e-01   3.5453700e-01   4.9486300e-01
   4.4967400e-01   3.1457200e-01   5.1195200e-01
   4.1175800e-01   2.3300500e-01   5.1897500e-01
   4.0497000e-01   2.0168800e-01   5.2529500e-01
   3.6424500e-01   1.3554600e-01   5.3278600e-01
   3.3241400e-01   6.8703500e-02   5.3278600e-01
   3.1252000e-01   3.8320500e-02   5.3723400e-01
   2.8185900e-01  -4.3713500e-02   5.4027700e-01
   2.4909200e-01  -7.7134800e-02   5.4402200e-01
   2.1702600e-01  -1.4117300e-01   5.5034300e-01
   2.1211100e-01  -2.0451000e-01   5.4729900e-01
   1.8636600e-01  -2.5335600e-01   5.3419000e-01
   1.3908700e-01  -3.2931400e-01   5.2084700e-01
   1.5500300e-01  -3.6460500e-01   5.0773800e-01
   1.2270300e-01  -4.2840900e-01   4.8456300e-01
   6.5126600e-02  -5.0156200e-01   4.5881300e-01
   8.0574100e-02  -5.3498300e-01   4.2182700e-01
   4.7572700e-02  -6.1725100e-01   3.7898900e-01
  -6.4203400e-04  -6.8759900e-01   3.4200300e-01
  -1.2578700e-02  -7.2476000e-01   3.0384600e-01
  -3.7388200e-02  -8.0959800e-01   2.6171000e-01
  -7.3900400e-02  -8.6639100e-01   2.1208300e-01
  -1.1181700e-01  -9.3346800e-01   1.7111700e-01
  -1.3966900e-01  -9.9516800e-01   1.3600400e-01
  -1.7407500e-01  -1.0617800e+00   8.7313200e-02
  -2.2580000e-01  -1.1501200e+00   3.3238500e-02
  -2.2977900e-01  -1.1968600e+00  -1.2643100e-02
  -2.4171600e-01  -1.2847400e+00  -6.5313300e-02
  -3.1427200e-01  -1.3600000e+00  -1.1938800e-01
  -3.3159200e-01  -1.3922500e+00  -1.6386500e-01
  -3.3510300e-01  -1.4696100e+00  -2.2285600e-01
  -3.9759500e-01  -1.5156500e+00  -2.8418700e-01
  -4.4627700e-01  -1.5633300e+00  -3.3732500e-01
  -4.5329900e-01  -1.6626600e+00  -3.9140000e-01
  -4.7530000e-01  -1.6995900e+00  -4.4196400e-01
  -5.3030200e-01  -1.7652600e+00  -4.9861300e-01
  -5.5136700e-01  -1.8239200e+00  -5.4496300e-01
  -5.7570800e-01  -1.8377100e+00  -5.8101300e-01
  -6.5762600e-01  -1.8910000e+00  -6.2431900e-01
  -6.7681900e-01  -1.9045500e+00  -6.5756000e-01
  -6.8384000e-01  -1.9662600e+00  -6.8658700e-01
  -7.4773700e-01  -2.0239800e+00  -7.1701900e-01
  -7.6809900e-01  -2.0354400e+00  -7.2942600e-01
  -7.8658900e-01  -2.0983000e+00  -7.3574600e-01
  -8.2380400e-01  -2.1025100e+00  -7.4628000e-01
  -8.6008200e-01  -2.1106900e+00  -7.5611200e-01
  -8.8114600e-01  -2.1609400e+00  -7.6500700e-01
  -8.8652900e-01  -2.1646800e+00  -7.6617800e-01
  -9.3568000e-01  -2.2118900e+00  -7.5938900e-01
  -9.4410600e-01  -2.2476500e+00  -7.4183200e-01
  -9.3778700e-01  -2.2326900e+00  -7.3106400e-01
  -9.9817200e-01  -2.2668100e+00  -7.0906000e-01
  -9.9676800e-01  -2.2654100e+00  -6.7113700e-01
  -9.7500100e-01  -2.2810700e+00  -6.4000300e-01
  -1.0030900e+00  -2.3158900e+00  -6.0723100e-01
  -1.0150200e+00  -2.2986000e+00  -5.6767000e-01
  -1.0033200e+00  -2.3444100e+00  -5.3232200e-01
  -1.0037900e+00  -2.3376300e+00  -5.0657200e-01
  -1.0115100e+00  -2.3163600e+00  -4.6092500e-01
  -9.7944800e-01  -2.3374000e+00  -4.1551100e-01
  -9.4972400e-01  -2.2850400e+00  -3.7852500e-01
  -9.5206400e-01  -2.2838700e+00  -3.4294400e-01
  -9.4293600e-01  -2.2721900e+00  -2.9963700e-01
  -9.0431700e-01  -2.2116600e+00  -2.6007600e-01
  -9.1110500e-01  -2.2060500e+00  -2.4181700e-01
  -9.1719000e-01  -2.1515900e+00  -2.0249000e-01
  -8.6850700e-01  -2.0927000e+00  -1.6105600e-01
  -8.3644200e-01  -2.0733000e+00  -1.3039000e-01
  -8.1022800e-01  -1.9912600e+00  -8.5913200e-02
  -7.8799400e-01  -1.9199800e+00  -5.5013300e-02
  -7.5288600e-01  -1.8615500e+00  -4.6586100e-02
  -7.4305600e-01  -1.7944700e+00  -1.7090800e-02
  -7.0982000e-01  -1.7435200e+00   3.3940700e-02
  -6.3983800e-01  -1.6346100e+00   7.7481400e-02
  -6.3609400e-01  -1.5829600e+00   1.1002000e-01
  -5.9700700e-01  -1.5219600e+00   1.5426300e-01
  -5.1111000e-01  -1.4004300e+00   2.0904000e-01
  -4.8419400e-01  -1.3427000e+00   2.2776700e-01
  -4.5681000e-01  -1.2578600e+00   2.6381700e-01
  -3.9970100e-01  -1.1786300e+00   3.1742300e-01
  -3.5733800e-01  -1.0888900e+00   3.4668500e-01
  -3.2925100e-01  -9.9306500e-01   3.8671400e-01
  -2.7424900e-01  -9.4211500e-01   4.4242700e-01
  -1.6588300e-01  -8.1661000e-01   4.8924500e-01
  -1.2071100e-01  -6.9975200e-01   5.0141800e-01
  -1.0268900e-01  -6.6890200e-01   5.2787000e-01
   1.9720500e-02  -5.8079100e-01   5.6743100e-01
   6.0679600e-02  -5.0950800e-01   5.9130800e-01
   4.9211100e-02  -4.3308300e-01   6.2969900e-01
   1.5945000e-01  -3.2066600e-01   6.6294000e-01
   2.1234500e-01  -2.6317200e-01   6.6574900e-01
   2.5073000e-01  -1.6267500e-01   6.7347400e-01
   3.3124400e-01  -1.0751800e-01   6.9618000e-01
   3.8016100e-01  -7.1525600e-02   7.1022600e-01
   4.1971600e-01  -5.6179200e-03   7.1841900e-01
   4.3118400e-01   1.5650200e-02   7.2731400e-01
   4.9414400e-01   8.1324200e-02   7.4697800e-01
   5.2995400e-01   1.3110600e-01   7.5493700e-01
   5.5078500e-01   1.7013600e-01   7.5774600e-01
   6.3527800e-01   2.4539200e-01   7.7319600e-01
   6.6710900e-01   2.4399000e-01   7.7741000e-01
   6.7179000e-01   2.7717800e-01   7.6991900e-01
   7.0455700e-01   3.2859500e-01   7.7319600e-01
   7.3217500e-01   3.2438800e-01   7.8255900e-01
   7.5651700e-01   3.8679000e-01   7.8302800e-01
   7.7360300e-01   4.1156400e-01   7.7787800e-01
   8.0660400e-01   4.3423400e-01   7.7670700e-01
   8.4966900e-01   4.9944100e-01   7.6593900e-01
   8.3000900e-01   4.9266300e-01   7.4978700e-01
   8.7190400e-01   5.5015700e-01   7.3597600e-01
   9.1216100e-01   5.7680100e-01   7.0460800e-01
   8.6464900e-01   5.4454800e-01   6.8236900e-01
   9.0139500e-01   6.0952100e-01   6.6106700e-01
   9.3533300e-01   6.0578100e-01   6.2642200e-01
   9.1403400e-01   6.3219100e-01   5.9084000e-01
   9.2550200e-01   6.7449400e-01   5.6157900e-01
   9.5218400e-01   6.6491100e-01   5.1803800e-01
   9.5265200e-01   7.1305700e-01   4.7332700e-01
   9.4984400e-01   6.8267400e-01   4.4991800e-01
   9.5686500e-01   6.6584600e-01   4.1129300e-01
   9.7020600e-01   6.9739800e-01   3.5815500e-01
   9.6927000e-01   6.8127100e-01   3.0665500e-01
   9.6880200e-01   7.0534400e-01   2.7903300e-01
   1.0160800e+00   7.3736300e-01   2.4672800e-01
   1.0132700e+00   7.2357400e-01   1.9148300e-01
   1.0123400e+00   7.4040100e-01   1.4372900e-01
   1.0577400e+00   7.2450900e-01   1.0206100e-01
   1.0378500e+00   7.0791500e-01   5.8754200e-02
   1.0055500e+00   7.4390700e-01   9.8295100e-03
   1.0427600e+00   7.3432500e-01  -3.3945300e-02
   1.0778700e+00   7.5208700e-01  -6.9292800e-02
   1.0528300e+00   7.6774600e-01  -1.0627900e-01
   1.0577400e+00   7.6611000e-01  -1.4115800e-01
   1.0827900e+00   7.8994900e-01  -1.7369700e-01
   1.0547000e+00   7.6260400e-01  -2.0787400e-01
   1.0284900e+00   7.6330500e-01  -2.2870800e-01
   1.0231000e+00   7.9579200e-01  -2.5492600e-01
   1.0111700e+00   7.8574200e-01  -2.9003900e-01
   9.9712200e-01   8.0280300e-01  -3.0759600e-01
   9.9080300e-01   8.0817900e-01  -3.2585500e-01
   9.7324900e-01   8.1425500e-01  -3.4762500e-01
   9.2058700e-01   8.2711000e-01  -3.6658700e-01
   8.7611700e-01   7.9602500e-01  -3.7478000e-01
   8.6698900e-01   8.0911400e-01  -3.7829100e-01
   8.2158300e-01   8.0467300e-01  -3.9514600e-01
   7.2960100e-01   7.9859600e-01  -3.9701800e-01
   7.2140900e-01   8.4510600e-01  -3.9444300e-01
   6.9379100e-01   8.2383800e-01  -4.0240200e-01
   6.0531900e-01   8.2220200e-01  -3.9280500e-01
   5.7465800e-01   8.3505600e-01  -3.8273900e-01
   5.1427300e-01   8.0233600e-01  -3.8203700e-01
