**************************************************************************************
  	RED ACELEROGRÁFICA DE LA UNIVERSIDAD AUTONOMA METROPOLITANA (RA-UAM)
	   UNIDAD AZCAPOTZALCO. DIVISIÓN CBI-DEPARTAMENTO DE MATERIALES
     Av. San Pablo 420, Col. Nueva el Rosario, Azcapotzalco, C.P. 02128, Ciudad de México
		Área de Estructuras. e-mail: agb@azc.uam.mx
**************************************************************************************
ARCHIVO ESTANDAR DE ACELERACION:
VERSION DEL FORMATO                    : 2.0
NOMBRE DEL ARCHIVO                     : RUML202204.191
FECHA Y HORA DE CREACION               : 11:30 a. m. 25/04/2022
REF. CATALOGO ACELEROGRAMAS, SMIS 1999 : REGISTRO NO.      /PAG.    


================================================================================
DATOS DE LA ESTACION:
NOMBRE DE LA ESTACION                  : UAM-LERMA.
CLAVE DE LA ESTACION                   : RUML
LOCALIZACION DE LA ESTACION            : AV. DE LAS GARZAS 10, EL PANTEON, C.P.52005,
                                       : LERMA DE VILLADA, ESTADO DE MEXICO.   
                                       : 
                                       : 
                                       : 
COORDENADAS DE LA ESTACION             : 19.291278 LAT. N
                                       : 99.500578 LONG. W
ALTITUD (msnm)                         : 2570
TIPO DE SUELO                          : DEPOSITOS LACUSTRES
                                       : 
                                       : 
INSTITUCION RESPONSABLE                : UNIVERSIDAD AUTONOMA METROPOLITANA
                                       : 

================================================================================
DATOS DEL ACELEROGRAFO: 
MODELO DEL ACELEROGRAFO                : ETNA2 KINEMETRICS
NUMERO DE SERIE DEL ACELEROGRAFO       : 103733
NUMERO DE CANALES                      : 3
ORIENTACION C1-C6 (rumbo;orientacion)  : /N90E/N00E/V 
ORIENTACION C7-C12 (rumbo;orientacion) : 
VEL. DE MUESTREO, C1-C6 (muestras/s)   : /200/200/200
VEL. DE MUESTREO, C7-C12 (muestras/s)  : 
ESC. COMPLETA DE SENSORES, C1-C6, (g)  : /2/2/2
ESC. COMPLETA DE SENSORES, C7-C12 (g)  : 
FREC. NAT. DE SENSORES, C1-C6, (Hz)    : /212/206/208   
FREC. NAT. DE SENSORES, C7-C12 (Hz)    : 
AMORTIGUAMIENTO DE SENSORES, C1-C6     : /0.7/0.7/0.7      
AMORTIGUAMIENTO DE SENSORES, C7-C12    : 
INTERVALO DE MUESTREO, C1-C6 (s)       : /0.005/0.005/0.005
INTERVALO DE MUESTREO, C7-C12 (s)      : 
UMBRAL DE DISPARO, C1-C6 (Gal)         : /2/2/2
UMBRAL DE DISPARO, C7-C12 (Gal)        : 
MEMORIA DE PREEVENTO (s)               : 50
TIEMPO DE POSEVENTO (s)                : 60


================================================================================
DATOS DEL SISMO:
FECHA DEL SISMO [GMT]                  : 2022/04/19
HORA EPICENTRO (GMT)                   : 12:44:10
MAGNITUD(ES)                           : /M=5.0
COORDENADAS DEL EPICENTRO              : 17.7700 LAT. N
                                       : -101.9000 LONG. W
PROFUNDIDAD FOCAL (Km)                 : 15.0
FUENTE DE LOS DATOS EPICENTRALES       : SSN
                                       : INSTITUTO DE GEOFISICA, UNAM

================================================================================
DATOS DE ESTE REGISTRO:
HORA DE LA PRIMERA MUESTRA (GMT)       : 12:44:25.000
EXACTITUD DEL TIEMPO (s)               : 
DURACION DEL REGISTRO (s), C1-C6       : /197/197/197
DURACION DEL REGISTRO (s), C7-C12      : 
NUM. TOTAL DE MUESTRAS, C1-C6          : /39400/39400/39400
NUM. TOTAL DE MUESTRAS, C7-C12         : 
ACEL. MAX.(Gal), C1-C6                 : /-4.346/3.522/-1.016
ACEL. MAX., C1-C6, EN LA MUESTRA       : /16080/15700/14892
ACEL. MAX.(Gal), C7-C12                : 
ACEL. MAX., C7-C12,EN LA MUESTRA       : 
UNIDADES DE LOS DATOS                  : Gal (cm/s/s)
FACTOR DE DECIMACION                   : 1
FORMATO DATOS (FORTRAN,16 campos/dato) : 3E16.7


================================================================================
CALIDAD DEL ACELEROGRAMA:
REGISTRO DIGITAL COMPLETO CON TIEMPO ABSOLUTO CORRECTO


================================================================================
COMENTARIOS:














================================================================================
DATOS DE ACELERACION:
---------+---------+---------+---------+---------+---------+---------+---------+
   CANAL-1   	     CANAL-2          CANAL-3
     N90E              N00E              V
---------+---------+---------+---------+---------+---------+---------+---------+
[...]
  -1.1150200e+00  -1.5337600e-01  -5.8182200e-01
  -1.0567400e+00  -9.4947200e-02  -5.8931200e-01
  -1.0476100e+00  -6.9004800e-02  -5.8369400e-01
  -1.0202300e+00  -2.3897800e-02  -5.7714000e-01
  -9.7599100e-01   1.3434700e-03  -5.7316000e-01
  -9.2262700e-01   4.9255100e-02  -5.6918100e-01
  -8.9641300e-01   8.2910100e-02  -5.6122200e-01
  -8.4539000e-01   1.2030500e-01  -5.3289700e-01
  -7.4732200e-01   1.4881800e-01  -5.0972200e-01
  -7.2461900e-01   1.7055300e-01  -4.7343800e-01
  -6.7710600e-01   2.3622700e-01  -4.2849300e-01
  -5.9542200e-01   2.6497400e-01  -3.9993400e-01
  -5.6757000e-01   3.0821200e-01  -3.6926800e-01
  -5.4767600e-01   3.4584000e-01  -3.2291800e-01
  -5.0578000e-01   3.8089700e-01  -2.7773900e-01
  -4.6411900e-01   4.3114600e-01  -2.5901200e-01
  -4.7160900e-01   4.5592000e-01  -2.2975100e-01
  -4.5592700e-01   4.8303100e-01  -1.8714600e-01
  -4.2737300e-01   5.1949000e-01  -1.5905600e-01
  -4.6177800e-01   5.4216100e-01  -1.2066500e-01
  -4.8003400e-01   5.7511400e-01  -8.1572000e-02
  -4.8284300e-01   6.1695000e-01  -5.0438000e-02
  -5.3667500e-01   6.5621400e-01  -2.1176800e-02
  -5.9495400e-01   7.0669600e-01   5.9775700e-03
  -6.3919000e-01   7.3591100e-01   4.1091000e-02
  -6.9723500e-01   7.9807900e-01   6.4968200e-02
  -7.9062200e-01   8.3804400e-01   8.0652200e-02
  -8.7628500e-01   8.7637300e-01   1.0710400e-01
  -9.2754200e-01   9.1073000e-01   1.2981100e-01
  -1.0511200e+00   9.1143100e-01   1.4690000e-01
  -1.1686200e+00   9.7733800e-01   1.7522400e-01
  -1.2259600e+00   9.9930800e-01   1.9605800e-01
  -1.3233200e+00   1.0060900e+00   2.1408300e-01
  -1.4359000e+00   1.0360000e+00   2.4100400e-01
  -1.4909100e+00   1.0551700e+00   2.6136900e-01
  -1.5461400e+00   1.0755000e+00   2.7775600e-01
  -1.6385900e+00   1.0696600e+00   2.8267200e-01
  -1.6692500e+00   1.0556300e+00   2.9297200e-01
  -1.6999100e+00   1.0542300e+00   2.9952600e-01
  -1.7574900e+00   1.0367000e+00   2.9390800e-01
  -1.7591300e+00   1.0011800e+00   2.9367400e-01
  -1.7443800e+00   1.0018800e+00   2.7845800e-01
  -1.7460200e+00   9.5770600e-01   2.5879400e-01
  -1.7270600e+00   9.0745800e-01   2.4896300e-01
  -1.6774500e+00   8.8455400e-01   2.3655600e-01
  -1.6437400e+00   8.6375300e-01   2.1970100e-01
  -1.6187000e+00   8.3874500e-01   1.8856800e-01
  -1.5484800e+00   7.9200200e-01   1.6188100e-01
  -1.4668000e+00   7.6606000e-01   1.5181500e-01
  -1.4017300e+00   7.2562700e-01   1.2934300e-01
  -1.3294100e+00   6.9968500e-01   1.1014700e-01
  -1.2320400e+00   6.6462700e-01   8.5802200e-02
  -1.1522300e+00   6.3424400e-01   4.4602400e-02
  -1.0899700e+00   6.1040500e-01   1.6277500e-02
  -9.7294800e-01   5.6763600e-01  -1.2515500e-02
  -8.7137000e-01   5.3608400e-01  -4.8799400e-02
  -7.9998400e-01   4.9308000e-01  -7.9699200e-02
  -6.8646800e-01   4.8980800e-01  -9.3978700e-02
  -5.6569800e-01   4.6036000e-01  -1.1130100e-01
  -4.8892800e-01   4.1992800e-01  -1.3751900e-01
  -3.7939200e-01   4.2670500e-01  -1.4711700e-01
  -2.2374700e-01   4.0286600e-01  -1.7684600e-01
  -1.2310500e-01   3.9515400e-01  -2.2132300e-01
  -2.1760300e-02   3.7318400e-01  -2.4192300e-01
   1.3575700e-01   3.5542200e-01  -2.6861000e-01
   2.6331500e-01   3.6757500e-01  -3.0934100e-01
   3.5997900e-01   3.4513900e-01  -3.4820000e-01
   5.1070800e-01   3.6220000e-01  -3.8354800e-01
   6.5535300e-01   3.4700800e-01  -4.1163800e-01
   7.4967600e-01   3.4303500e-01  -4.4043100e-01
   8.7044700e-01   3.7505400e-01  -4.5962700e-01
   1.0160300e+00   3.6593900e-01  -4.7788600e-01
   1.1283700e+00   3.7832600e-01  -5.0363600e-01
   1.2299500e+00   3.8697400e-01  -5.1861700e-01
   1.3549300e+00   4.1244900e-01  -5.3547200e-01
   1.4682200e+00   4.1829200e-01  -5.5583800e-01
   1.5543500e+00   4.1782400e-01  -5.7456500e-01
   1.6430500e+00   4.4820700e-01  -5.9001500e-01
   1.7429900e+00   4.5568600e-01  -6.0780600e-01
   1.8054800e+00   4.5475100e-01  -6.2419200e-01
   1.8490200e+00   4.8770500e-01  -6.2442600e-01
   1.9332800e+00   5.0663600e-01  -6.2957600e-01
   1.9786800e+00   5.0079300e-01  -6.3027800e-01
   1.9929600e+00   5.2252900e-01  -6.0569900e-01
   2.0437500e+00   5.3585000e-01  -5.7456500e-01
   2.0568600e+00   5.5665100e-01  -5.4670800e-01
   2.0299400e+00   5.8049000e-01  -5.1510600e-01
   2.0423500e+00   5.9427900e-01  -4.6735200e-01
   2.0374300e+00   6.3634800e-01  -4.2123600e-01
   1.9714300e+00   6.6743200e-01  -3.9572000e-01
   1.9349200e+00   6.9501000e-01  -3.5920200e-01
   1.9143200e+00   7.3334000e-01  -3.1800300e-01
   1.8651700e+00   7.7774600e-01  -2.7867500e-01
   1.8054800e+00   8.4225100e-01  -2.3232600e-01
   1.7762300e+00   8.8408600e-01  -1.9721200e-01
   1.7238000e+00   9.7009300e-01  -1.6069400e-01
   1.6453900e+00   1.0329600e+00  -1.2230400e-01
   1.6210500e+00   1.0497900e+00  -7.7124300e-02
   1.5611300e+00   1.1622100e+00  -3.5690400e-02
   1.4960700e+00   1.2288200e+00  -9.0041600e-03
   1.4555800e+00   1.2832700e+00   2.8450200e-02
   1.4139200e+00   1.4038700e+00   5.3731900e-02
   1.3647600e+00   1.4807600e+00   7.5502200e-02
   1.3020400e+00   1.5483000e+00   1.1412700e-01
   1.2844800e+00   1.6212200e+00   1.3425900e-01
   1.2533600e+00   1.6908700e+00   1.4409000e-01
   1.1962500e+00   1.7352800e+00   1.7382000e-01
   1.1843100e+00   1.8018900e+00   2.0050600e-01
   1.2135700e+00   1.8607800e+00   2.1665800e-01
   1.1983500e+00   1.8806500e+00   2.4826000e-01
   1.1794000e+00   1.9514600e+00   2.7447800e-01
   1.2138000e+00   2.0005400e+00   2.8641700e-01
   1.2135700e+00   2.0024100e+00   3.1076200e-01
   1.2035000e+00   2.0433100e+00   3.2808500e-01
   1.2592100e+00   2.1012800e+00   3.4845100e-01
   1.3135100e+00   2.1026800e+00   3.8356400e-01
   1.3212300e+00   2.1461500e+00   4.0252500e-01
   1.3703800e+00   2.1851800e+00   4.0791000e-01
   1.4422400e+00   2.1809700e+00   4.3787300e-01
   1.4389600e+00   2.2092500e+00   4.9639500e-01
   1.4621300e+00   2.2087800e+00   5.4555400e-01
   1.5697900e+00   2.2106500e+00   5.7107000e-01
   1.5967100e+00   2.2394000e+00   5.8441300e-01
   1.6442200e+00   2.2342600e+00   6.1976100e-01
   1.7415900e+00   2.1950000e+00   6.5557600e-01
   1.7898000e+00   2.2419700e+00   6.6938800e-01
   1.8129700e+00   2.2480500e+00   6.8132600e-01
   1.8359100e+00   2.1978000e+00   7.0169200e-01
   1.9190000e+00   2.1758300e+00   7.1737600e-01
   1.9391300e+00   2.1286200e+00   7.3376200e-01
   1.9477900e+00   2.0797700e+00   7.7964400e-01
   2.0126200e+00   2.0035800e+00   8.0305300e-01
   2.0304100e+00   1.9640800e+00   8.0773500e-01
   2.0559200e+00   1.8965400e+00   8.2739800e-01
   2.1230900e+00   1.8339000e+00   8.3606000e-01
   2.1455600e+00   1.7813200e+00   8.2154600e-01
   2.1640500e+00   1.6784800e+00   7.9720100e-01
   2.2005700e+00   1.5908400e+00   7.8643300e-01
   2.2314600e+00   1.4627700e+00   7.6981200e-01
   2.2441000e+00   1.3741900e+00   7.5600100e-01
   2.2473800e+00   1.3089800e+00   7.4195500e-01
   2.3035500e+00   1.2049800e+00   7.0965100e-01
   2.3175900e+00   1.0937300e+00   6.9279700e-01
   2.2958200e+00   9.8925800e-01   6.8554000e-01
   2.3117400e+00   9.2007800e-01   6.7149400e-01
   2.3239100e+00   7.8989900e-01   6.5487400e-01
   2.2960600e+00   6.8472700e-01   6.3146500e-01
   2.2881000e+00   6.1578100e-01   6.0150200e-01
   2.3009700e+00   4.7555200e-01   5.8909500e-01
   2.2754600e+00   3.4771000e-01   6.0360800e-01
   2.2359100e+00   2.7666000e-01   5.8488100e-01
   2.2162500e+00   2.2828100e-01   5.2167700e-01
   2.1666300e+00   9.5764400e-02   4.8094600e-01
   2.1006200e+00  -3.3246400e-02   4.8328600e-01
   2.0725400e+00  -1.1084000e-01   4.7720000e-01
   2.0240900e+00  -2.1344100e-01   4.3998000e-01
   1.9562100e+00  -2.8636000e-01   4.0978200e-01
   1.9063600e+00  -3.6465500e-01   3.9643900e-01
   1.8841300e+00  -4.3640500e-01   3.5500500e-01
   1.7994000e+00  -4.9997600e-01   3.0397400e-01
   1.6851800e+00  -5.9626600e-01   2.9507800e-01
   1.6065400e+00  -6.7269100e-01   3.0631500e-01
   1.5103500e+00  -7.5799700e-01   3.0608100e-01
   1.4120400e+00  -8.2671000e-01   2.9016200e-01
   1.3504900e+00  -8.6550600e-01   2.7939400e-01
   1.2634200e+00  -9.5478600e-01   2.7518100e-01
   1.1431200e+00  -1.0104100e+00   2.7869200e-01
   1.0691600e+00  -1.0431300e+00   2.7307400e-01
   9.8583400e-01  -1.1001600e+00   2.4545100e-01
   8.7278700e-01  -1.1366200e+00   2.2649000e-01
   7.5950600e-01  -1.1964500e+00   2.2110600e-01
   6.8577900e-01  -1.2233200e+00   2.0940100e-01
   5.9871200e-01  -1.2581500e+00   1.9582400e-01
   4.7840900e-01  -1.3067600e+00   1.9278100e-01
   3.9157600e-01  -1.3247600e+00   1.8505600e-01
   2.8648600e-01  -1.3556100e+00   1.5649700e-01
   1.4605500e-01  -1.3801500e+00   1.3894100e-01
   2.9029000e-02  -1.4124000e+00   1.2864100e-01
  -7.8869000e-02  -1.4322700e+00   9.4463500e-02
  -2.2749200e-01  -1.4787800e+00   6.6138600e-02
  -3.5294400e-01  -1.5346300e+00   4.5772800e-02
  -4.3579900e-01  -1.5547300e+00   2.2597900e-02
  -5.8863500e-01  -1.5734300e+00  -1.3451900e-02
  -7.4053500e-01  -1.6040500e+00  -4.2244900e-02
  -8.2877200e-01  -1.6290500e+00  -6.0503900e-02
  -9.6475600e-01  -1.6241500e+00  -9.5617300e-02
  -1.1239100e+00  -1.6211100e+00  -1.3330600e-01
  -1.2418700e+00  -1.6363000e+00  -1.5577800e-01
  -1.3621800e+00  -1.6585000e+00  -1.7614400e-01
  -1.5218000e+00  -1.6704200e+00  -2.0681000e-01
  -1.6643400e+00  -1.6760300e+00  -2.2928300e-01
  -1.7825300e+00  -1.6839800e+00  -2.5269200e-01
  -1.9299900e+00  -1.7068800e+00  -2.7797300e-01
  -2.0835300e+00  -1.7174000e+00  -2.9716900e-01
  -2.1991500e+00  -1.7101500e+00  -3.1425700e-01
  -2.3262400e+00  -1.7087500e+00  -3.3321800e-01
  -2.4727500e+00  -1.7155300e+00  -3.5100900e-01
  -2.5944600e+00  -1.7162300e+00  -3.6411800e-01
  -2.7018900e+00  -1.6891200e+00  -3.9548600e-01
  -2.8453700e+00  -1.6947300e+00  -4.3457900e-01
  -2.9907100e+00  -1.6774300e+00  -4.5752000e-01
  -3.0841000e+00  -1.6535900e+00  -4.8046100e-01
  -3.2125900e+00  -1.6503200e+00  -5.0995600e-01
  -3.3506800e+00  -1.6005400e+00  -5.3594000e-01
  -3.4457100e+00  -1.5783400e+00  -5.6379700e-01
  -3.5465900e+00  -1.5739000e+00  -5.9188700e-01
  -3.6830400e+00  -1.5545000e+00  -6.0242100e-01
  -3.7799400e+00  -1.5327600e+00  -6.1319000e-01
  -3.8496800e+00  -1.5058900e+00  -6.3683300e-01
  -3.9547700e+00  -1.4878900e+00  -6.6398700e-01
  -4.0352900e+00  -1.4710600e+00  -6.8926900e-01
  -4.0762500e+00  -1.4619500e+00  -7.0518700e-01
  -4.1371000e+00  -1.4626500e+00  -7.2391400e-01
  -4.2171500e+00  -1.4432500e+00  -7.4123700e-01
  -4.2342300e+00  -1.4502600e+00  -7.5036600e-01
  -4.2625500e+00  -1.4476900e+00  -7.6558200e-01
  -4.3238700e+00  -1.4231500e+00  -7.7190200e-01
  -4.3283200e+00  -1.4304000e+00  -7.6253900e-01
  -4.3217700e+00  -1.4229200e+00  -7.5270700e-01
  -4.3409600e+00  -1.4074900e+00  -7.3608700e-01
  -4.3458700e+00  -1.3890300e+00  -7.1010300e-01
  -4.3159200e+00  -1.3799100e+00  -6.8177800e-01
  -4.3042100e+00  -1.3967400e+00  -6.5158000e-01
  -4.2976600e+00  -1.3951100e+00  -6.1482800e-01
  -4.2283800e+00  -1.3773400e+00  -5.7105300e-01
  -4.1787600e+00  -1.3785100e+00  -5.3500400e-01
  -4.1546500e+00  -1.3722000e+00  -5.0012400e-01
  -4.0729700e+00  -1.3691600e+00  -4.5892500e-01
  -3.9880100e+00  -1.3694000e+00  -4.3083400e-01
  -3.9304300e+00  -1.3766400e+00  -3.9572000e-01
  -3.8550700e+00  -1.3787500e+00  -3.3743200e-01
  -3.7347600e+00  -1.3789800e+00  -2.9810500e-01
  -3.6310800e+00  -1.3972100e+00  -2.6533200e-01
  -3.5559500e+00  -1.3899600e+00  -2.1734400e-01
  -3.4246400e+00  -1.3775800e+00  -1.7544200e-01
  -3.2959200e+00  -1.3803800e+00  -1.4079700e-01
  -3.2118900e+00  -1.3890300e+00  -1.0147000e-01
  -3.0824600e+00  -1.3761700e+00  -5.9099400e-02
  -2.9558400e+00  -1.3654200e+00  -3.1710900e-02
  -2.8640900e+00  -1.3866900e+00   5.9351200e-04
  -2.7517400e+00  -1.3871600e+00   3.6409200e-02
  -2.6265300e+00  -1.3845900e+00   6.3095500e-02
  -2.5214400e+00  -1.4049200e+00   8.8845300e-02
  -2.4353100e+00  -1.4135700e+00   1.1225400e-01
  -2.3164100e+00  -1.4261900e+00   1.3847200e-01
  -2.1918900e+00  -1.4413800e+00   1.5719900e-01
  -2.1165300e+00  -1.4689600e+00   1.8809900e-01
  -2.0186900e+00  -1.4970100e+00   2.2578800e-01
  -1.8838800e+00  -1.5185100e+00   2.4381300e-01
  -1.8080500e+00  -1.5432800e+00   2.5996500e-01
  -1.7139600e+00  -1.5689900e+00   2.8407600e-01
  -1.5821900e+00  -1.5968000e+00   3.0935800e-01
  -1.4937100e+00  -1.5947000e+00   3.1825300e-01
  -1.4010300e+00  -1.5986700e+00   3.2621200e-01
  -1.2727700e+00  -1.5977400e+00   3.3885300e-01
  -1.1644000e+00  -1.5846500e+00   3.4072600e-01
  -1.0955900e+00  -1.5671200e+00   3.4447100e-01
  -9.9073600e-01  -1.5437500e+00   3.4517300e-01
  -8.8049800e-01  -1.5203800e+00   3.2878700e-01
  -8.0841000e-01  -1.4790100e+00   3.0491000e-01
  -7.1900200e-01  -1.4397400e+00   2.9765300e-01
  -5.9706100e-01  -1.3827200e+00   2.9086500e-01
  -5.1256800e-01  -1.3203200e+00   2.5809200e-01
  -4.6248100e-01  -1.2464600e+00   2.2719200e-01
  -3.6932800e-01  -1.1775200e+00   2.0495400e-01
  -2.8975000e-01  -1.1254000e+00   1.7218100e-01
  -2.4902500e-01  -1.0471000e+00   1.4713400e-01
  -1.7038300e-01  -9.6530300e-01   1.2115000e-01
  -7.9571200e-02  -8.7251800e-01   8.3695300e-02
  -3.8378000e-02  -7.7225400e-01   4.5304600e-02
   8.6664800e-03  -6.6941900e-01   1.3468400e-02
   9.4563600e-02  -5.6378000e-01  -2.2347300e-02
   1.4067200e-01  -4.6211400e-01  -7.7124300e-02
   1.6384300e-01  -3.4946300e-01  -1.2441000e-01
   2.4154800e-01  -2.4078600e-01  -1.6654700e-01
   3.0263600e-01  -1.4309300e-01  -2.1266200e-01
   3.2580700e-01  -3.3480100e-02  -2.5573500e-01
   3.8174600e-01   8.2910100e-02  -2.8757100e-01
   4.4283300e-01   1.9789800e-01  -3.2245000e-01
   4.6296200e-01   3.1031500e-01  -3.5264800e-01
   4.9643100e-01   4.2577000e-01  -3.6552300e-01
   5.6407200e-01   5.5408000e-01  -3.8307900e-01
   5.9941400e-01   6.6182300e-01  -3.9010200e-01
   6.3077700e-01   7.6582600e-01  -3.9431600e-01
   7.0450400e-01   8.7497100e-01  -3.9478400e-01
   7.5576100e-01   9.8037700e-01  -3.9548600e-01
   7.8548600e-01   1.0799400e+00  -3.9759300e-01
   8.5242500e-01   1.1839400e+00  -3.8495200e-01
   9.2100200e-01   1.2935600e+00  -3.8565400e-01
   9.5400300e-01   1.3833000e+00  -3.8448400e-01
   1.0040900e+00   1.4665000e+00  -3.6973600e-01
   1.0920900e+00   1.5405900e+00  -3.4937100e-01
   1.1492000e+00   1.6160800e+00  -3.2806800e-01
   1.1976500e+00   1.6978800e+00  -3.0559600e-01
   1.2868300e+00   1.7673000e+00  -2.7282300e-01
   1.3617200e+00   1.8261900e+00  -2.4262600e-01
   1.4038500e+00   1.8960700e+00  -2.0704400e-01
   1.4736000e+00   1.9552000e+00  -1.6373700e-01
   1.5707300e+00   2.0068500e+00  -1.2581500e-01
   1.6205800e+00   2.0636500e+00  -8.8828700e-02
   1.6725400e+00   2.1113200e+00  -5.0672100e-02
   1.7680400e+00   2.1594700e+00  -1.9772300e-02
   1.8277200e+00   2.2024700e+00   4.8071300e-03
   1.8794500e+00   2.2366000e+00   3.1961500e-02
   1.9707300e+00   2.2625400e+00   6.7777200e-02
   2.0477300e+00   2.2929200e+00   9.7272500e-02
   2.0922000e+00   2.3226000e+00   1.2489500e-01
   2.1649900e+00   2.3303200e+00   1.6913800e-01
   2.2618900e+00   2.3471400e+00   2.0589000e-01
   2.3079900e+00   2.3660700e+00   2.3913100e-01
   2.3693200e+00   2.3534500e+00   2.7681900e-01
   2.4716000e+00   2.3560200e+00   3.0795300e-01
   2.5202800e+00   2.3501800e+00   3.3323500e-01
   2.5586600e+00   2.3277500e+00   3.5804800e-01
   2.6492400e+00   2.3249400e+00   3.8520300e-01
