**************************************************************************************
  	RED ACELEROGRÁFICA DE LA UNIVERSIDAD AUTONOMA METROPOLITANA (RA-UAM)
	   UNIDAD AZCAPOTZALCO. DIVISIÓN CBI-DEPARTAMENTO DE MATERIALES
     Av. San Pablo 420, Col. Nueva el Rosario, Azcapotzalco, C.P. 02128, Ciudad de México
		Área de Estructuras. e-mail: agb@azc.uam.mx
**************************************************************************************
ARCHIVO ESTANDAR DE ACELERACION:
VERSION DEL FORMATO                    : 2.0
NOMBRE DEL ARCHIVO                     : RUML202208.241
FECHA Y HORA DE CREACION               : 11:30 a. m. 29/08/2022
REF. CATALOGO ACELEROGRAMAS, SMIS 1999 : REGISTRO NO.      /PAG.    


================================================================================
DATOS DE LA ESTACION:
NOMBRE DE LA ESTACION                  : UAM-LERMA.
CLAVE DE LA ESTACION                   : RUML
LOCALIZACION DE LA ESTACION            : AV. DE LAS GARZAS 10, EL PANTEON, C.P.52005,
                                       : LERMA DE VILLADA, ESTADO DE MEXICO.   
                                       : 
                                       : 
                                       : 
COORDENADAS DE LA ESTACION             : 19.291278 LAT. N
                                       : 99.500578 LONG. W
ALTITUD (msnm)                         : 2570
TIPO DE SUELO                          : DEPOSITOS LACUSTRES
                                       : 
                                       : 
INSTITUCION RESPONSABLE                : UNIVERSIDAD AUTONOMA METROPOLITANA
                                       : 

================================================================================
DATOS DEL ACELEROGRAFO: 
MODELO DEL ACELEROGRAFO                : ETNA2 KINEMETRICS
NUMERO DE SERIE DEL ACELEROGRAFO       : 103733
NUMERO DE CANALES                      : 3
ORIENTACION C1-C6 (rumbo;orientacion)  : /N90E/N00E/V 
ORIENTACION C7-C12 (rumbo;orientacion) : 
VEL. DE MUESTREO, C1-C6 (muestras/s)   : /200/200/200
VEL. DE MUESTREO, C7-C12 (muestras/s)  : 
ESC. COMPLETA DE SENSORES, C1-C6, (g)  : /2/2/2
ESC. COMPLETA DE SENSORES, C7-C12 (g)  : 
FREC. NAT. DE SENSORES, C1-C6, (Hz)    : /212/206/208   
FREC. NAT. DE SENSORES, C7-C12 (Hz)    : 
AMORTIGUAMIENTO DE SENSORES, C1-C6     : /0.7/0.7/0.7      
AMORTIGUAMIENTO DE SENSORES, C7-C12    : 
INTERVALO DE MUESTREO, C1-C6 (s)       : /0.005/0.005/0.005
INTERVALO DE MUESTREO, C7-C12 (s)      : 
UMBRAL DE DISPARO, C1-C6 (Gal)         : /2/2/2
UMBRAL DE DISPARO, C7-C12 (Gal)        : 
MEMORIA DE PREEVENTO (s)               : 50
TIEMPO DE POSEVENTO (s)                : 60


================================================================================
DATOS DEL SISMO:
FECHA DEL SISMO [GMT]                  : 2022/08/24
HORA EPICENTRO (GMT)                   : 01:26:53
MAGNITUD(ES)                           : /M=4.7
COORDENADAS DEL EPICENTRO              : 16.7300 LAT. N
                                       : -99.7600 LONG. W
PROFUNDIDAD FOCAL (Km)                 : 10.0
FUENTE DE LOS DATOS EPICENTRALES       : SSN
                                       : INSTITUTO DE GEOFISICA, UNAM

================================================================================
DATOS DE ESTE REGISTRO:
HORA DE LA PRIMERA MUESTRA (GMT)       : 01:27:09.000
EXACTITUD DEL TIEMPO (s)               : 
DURACION DEL REGISTRO (s), C1-C6       : /161/161/161
DURACION DEL REGISTRO (s), C7-C12      : 
NUM. TOTAL DE MUESTRAS, C1-C6          : /32200/32200/32200
NUM. TOTAL DE MUESTRAS, C7-C12         : 
ACEL. MAX.(Gal), C1-C6                 : /-0.752/0.845/-0.355
ACEL. MAX., C1-C6, EN LA MUESTRA       : /16890/18198/13992
ACEL. MAX.(Gal), C7-C12                : 
ACEL. MAX., C7-C12,EN LA MUESTRA       : 
UNIDADES DE LOS DATOS                  : Gal (cm/s/s)
FACTOR DE DECIMACION                   : 1
FORMATO DATOS (FORTRAN,16 campos/dato) : 3E16.7


================================================================================
CALIDAD DEL ACELEROGRAMA:
REGISTRO DIGITAL COMPLETO CON TIEMPO ABSOLUTO CORRECTO


================================================================================
COMENTARIOS:














================================================================================
DATOS DE ACELERACION:
---------+---------+---------+---------+---------+---------+---------+---------+
   CANAL-1   	     CANAL-2          CANAL-3
     N90E              N00E              V
---------+---------+---------+---------+---------+---------+---------+---------+
[...]
  -6.3203800e-02   1.3631600e-01   2.3391600e-02
  -1.0252500e-01   1.2907000e-01   2.6902900e-02
  -1.1984400e-01   1.6646500e-01   3.3457400e-02
  -8.2396000e-02   1.6108900e-01   3.5798300e-02
  -1.1001400e-01   1.5314300e-01   3.7671000e-02
  -1.3997300e-01   1.6740000e-01   4.3757400e-02
  -1.1844000e-01   1.6693200e-01   5.0077800e-02
  -1.2827000e-01   1.6412800e-01   4.7034600e-02
  -1.4933500e-01   1.7160700e-01   5.2652800e-02
  -1.5916500e-01   1.6997100e-01   5.5930000e-02
  -1.5448400e-01   1.6179000e-01   5.7334600e-02
  -1.5705900e-01   1.7230800e-01   6.6932200e-02
  -1.8280400e-01   1.8469500e-01   7.2550400e-02
  -1.8233600e-01   1.7371000e-01   7.7700400e-02
  -1.7671900e-01   1.6973700e-01   7.2550400e-02
  -1.9684800e-01   1.8469500e-01   7.1614000e-02
  -2.0129500e-01   1.8562900e-01   8.3552600e-02
  -1.9450700e-01   1.7908500e-01   8.0509400e-02
  -2.0761400e-01   1.8165600e-01   7.2082200e-02
  -2.0176300e-01   1.8329200e-01   7.1145900e-02
  -1.9286900e-01   1.9287500e-01   7.5125400e-02
  -2.1159300e-01   1.9380900e-01   7.9807200e-02
  -2.0574200e-01   1.9030400e-01   7.9104900e-02
  -1.7788900e-01   2.0152200e-01   7.3018600e-02
  -1.9169800e-01   2.0012000e-01   6.2718600e-02
  -2.0761400e-01   2.0128800e-01   6.0377700e-02
  -1.7554900e-01   2.0713100e-01   6.9273100e-02
  -1.5261200e-01   1.9614700e-01   6.6932200e-02
  -1.8303800e-01   2.0082100e-01   5.4759600e-02
  -1.8350700e-01   2.1671400e-01   5.7568700e-02
  -1.3646200e-01   1.9684800e-01   6.3186800e-02
  -1.6080400e-01   1.8913500e-01   6.2484500e-02
  -1.6829300e-01   2.1110400e-01   5.7568700e-02
  -1.2616400e-01   2.0198900e-01   4.1650600e-02
  -1.3412200e-01   1.8773300e-01   2.9712000e-02
  -1.4231300e-01   1.9754900e-01   2.3625700e-02
  -1.3622800e-01   1.8469500e-01   2.9946100e-02
  -1.1563100e-01   1.7371000e-01   3.2052900e-02
  -1.1516300e-01   1.7861800e-01   1.0750700e-02
  -1.2124900e-01   1.6506200e-01   2.7916700e-03
  -9.8311600e-02   1.6880200e-01   5.6007500e-03
  -9.8545600e-02   1.4402800e-01   7.9416400e-03
  -1.0509900e-01   1.3654900e-01   1.0984800e-02
  -8.6609000e-02   1.5477900e-01   6.5371100e-03
  -8.0991700e-02   1.2322700e-01  -1.2658200e-02
  -1.0112000e-01   1.2089000e-01  -2.3426400e-02
  -7.3034000e-02   1.1341100e-01  -1.3360500e-02
  -5.2437400e-02   9.1442200e-02  -2.6235400e-02
  -8.2630100e-02   9.4480500e-02  -4.1451300e-02
  -6.7884800e-02   9.2143300e-02  -3.9344500e-02
  -3.3479100e-02   6.6434600e-02  -4.3558100e-02
  -5.3841700e-02   5.4982600e-02  -4.6367200e-02
  -5.6884400e-02   6.8538100e-02  -4.0514900e-02
  -1.8499800e-02   3.8856200e-02  -4.4026300e-02
  -2.3180800e-02   2.7637900e-02  -5.0346700e-02
  -3.7458000e-02   3.8388800e-02  -5.0814900e-02
  -2.0372200e-02   7.3046700e-03  -4.6367200e-02
  -7.7334000e-03  -7.6531100e-03  -4.4728500e-02
  -9.3717700e-03  -1.3028600e-02  -5.9242100e-02
  -1.3584700e-02  -2.0273700e-02  -6.4158000e-02
  -1.4139900e-03  -3.3128100e-02  -5.5496700e-02
   1.5203700e-02  -4.9020700e-02  -5.5028500e-02
  -1.8821000e-03  -4.7151000e-02  -6.4860200e-02
   6.3097300e-03  -6.4913400e-02  -7.6096500e-02
   4.3992100e-02  -8.5012900e-02  -9.2014600e-02
   9.8205100e-03  -8.3376900e-02  -9.6930500e-02
   2.6204200e-02  -9.9035800e-02  -8.3821500e-02
   6.9269800e-02  -1.2030400e-01  -7.3053400e-02
   2.3161500e-02  -1.1329200e-01  -7.8203400e-02
   5.0077500e-02  -1.2684800e-01  -9.7164600e-02
   8.5419400e-02  -1.4718100e-01  -9.4589600e-02
   5.4758500e-02  -1.4905100e-01  -7.5628400e-02
   6.9035700e-02  -1.7546100e-01  -7.6798800e-02
   9.0334500e-02  -1.7289000e-01  -8.9205600e-02
   9.0568500e-02  -1.7335700e-01  -1.0137800e-01
   8.4483100e-02  -1.9743000e-01  -1.0910300e-01
   7.9100000e-02  -1.8340700e-01  -1.0067600e-01
   1.2146300e-01  -2.0537600e-01  -9.8569200e-02
   1.0390900e-01  -2.1612700e-01  -1.1706200e-01
   7.7695600e-02  -2.1846400e-01  -1.2033900e-01
   1.3410200e-01  -2.2874800e-01  -1.1425300e-01
   1.0976100e-01  -2.3085100e-01  -1.0910300e-01
   9.7356000e-02  -2.4393900e-01  -9.8101000e-02
   1.2216600e-01  -2.3015000e-01  -9.2014600e-02
   1.1374000e-01  -2.4884700e-01  -1.0091000e-01
   1.0812200e-01  -2.5095100e-01  -1.1729600e-01
   1.0648400e-01  -2.4277100e-01  -1.0769900e-01
   1.1982500e-01  -2.5305400e-01  -9.9505500e-02
   8.4951300e-02  -2.6216900e-01  -1.0840100e-01
   1.0250500e-01  -2.6894700e-01  -1.0933700e-01
   1.0461200e-01  -2.4908100e-01  -1.1355100e-01
   7.0206000e-02  -2.7829500e-01  -1.1214600e-01
   8.8228000e-02  -2.8367100e-01  -9.9739600e-02
   7.9100000e-02  -2.6076700e-01  -8.9439700e-02
   8.7291800e-02  -2.8811100e-01  -1.0208000e-01
   5.2418000e-02  -2.9185100e-01  -1.1612600e-01
   7.4887000e-02  -2.9512300e-01  -1.1191200e-01
   9.5483600e-02  -2.9512300e-01  -1.1448700e-01
   4.6332600e-02  -3.0867800e-01  -1.0348500e-01
   6.5290900e-02  -3.1826100e-01  -9.5994200e-02
   8.3312900e-02  -3.0984700e-01  -1.0559200e-01
   5.6162800e-02  -3.2176600e-01  -1.0769900e-01
   3.7204600e-02  -3.3298500e-01  -1.0325100e-01
   7.6291300e-02  -3.4841000e-01  -1.0020800e-01
   5.5460700e-02  -3.3765900e-01  -9.8335100e-02
   3.8843000e-02  -3.5799200e-01  -8.9673700e-02
   5.5460700e-02  -3.6500400e-01  -7.4457900e-02
   5.6630900e-02  -3.4724100e-01  -6.3455700e-02
   4.2821900e-02  -3.6991200e-01  -6.6264800e-02
   1.6139900e-02  -3.8346700e-01  -5.9710300e-02
   5.7333100e-02  -3.6921100e-01  -5.0112600e-02
   4.5864500e-02  -3.8042900e-01  -4.3089900e-02
   1.1692900e-02  -3.9305000e-01  -3.3492200e-02
   3.9077000e-02  -3.7365100e-01  -3.3024000e-02
   5.4290400e-02  -3.9959400e-01  -4.1685400e-02
   1.0990800e-02  -3.9024500e-01  -4.3089900e-02
   3.6034400e-02  -3.8276600e-01  -2.6001400e-02
   6.7163300e-02  -4.0123000e-01  -2.5767300e-02
   4.4373100e-03  -3.8767400e-01  -3.3492200e-02
   4.4694300e-02  -3.9608800e-01  -3.8174000e-02
   5.5928800e-02  -3.9421800e-01  -3.2321800e-02
   2.0118800e-02  -3.9842500e-01  -1.4296900e-02
   4.8907200e-02  -3.9959400e-01  -1.7105900e-02
   5.2652100e-02  -4.0029500e-01  -1.5701400e-02
   4.0247300e-02  -4.0380100e-01  -1.9212800e-02
   4.1651600e-02  -4.0403400e-01  -1.4062800e-02
   5.7333100e-02  -4.0520300e-01   1.3559800e-02
   6.2248200e-02  -4.0286600e-01   1.6603000e-02
   4.9375300e-02  -4.2226400e-01   6.0689300e-03
   3.9545100e-02  -4.0613800e-01   1.1453000e-02
   8.3078800e-02  -4.0870900e-01   3.0414300e-02
   7.1844300e-02  -4.2436700e-01   4.3757400e-02
   3.2523600e-02  -3.9678900e-01   5.5227800e-02
   9.6887900e-02  -4.2670500e-01   5.1950500e-02
   8.8228000e-02  -4.3091100e-01   4.0480100e-02
   4.9375300e-02  -4.0473500e-01   5.6164100e-02
   9.9228400e-02  -4.2763900e-01   6.9975400e-02
   1.0695200e-01  -4.2226400e-01   6.4591300e-02
   9.1036600e-02  -4.1385000e-01   6.1314100e-02
   1.0718600e-01  -4.0660500e-01   6.5761800e-02
   1.2286800e-01  -4.1291500e-01   6.9741300e-02
   1.4486900e-01  -4.1759000e-01   7.3486800e-02
   1.2216600e-01  -3.8042900e-01   8.8936700e-02
   1.3293200e-01  -3.9538700e-01   9.4086600e-02
   1.7225300e-01  -4.0263200e-01   9.1277600e-02
   1.3410200e-01  -3.5916100e-01   1.0766400e-01
   1.5610300e-01  -3.4841000e-01   1.0836600e-01
   1.7529500e-01  -3.6079700e-01   9.8534300e-02
   1.5189000e-01  -3.3321800e-01   9.8300300e-02
   1.5376300e-01  -3.0704200e-01   9.1745700e-02
   1.7201900e-01  -3.1405400e-01   9.5725300e-02
   1.7248700e-01  -2.8413800e-01   9.8300300e-02
   1.5282600e-01  -2.6193500e-01   9.1043500e-02
   1.7084800e-01  -2.4487400e-01   9.5959400e-02
   1.7248700e-01  -2.2734500e-01   1.0930200e-01
   1.6569900e-01  -2.0911600e-01   1.2077300e-01
   1.5142200e-01  -1.7242200e-01   1.2756100e-01
   1.7787000e-01  -1.6307400e-01   1.2498600e-01
   1.6476300e-01  -1.4648000e-01   1.2147500e-01
   1.4042200e-01  -1.0768300e-01   1.3107300e-01
   1.9870100e-01  -9.4828900e-02   1.3973400e-01
   1.6710400e-01  -8.4311700e-02   1.3177500e-01
   1.6008200e-01  -4.3177800e-02   1.2779600e-01
   1.8910400e-01  -2.6817800e-02   1.3013600e-01
   1.8372100e-01  -1.2327400e-02   1.2873200e-01
   1.7389100e-01   2.0392700e-02   1.3271100e-01
   1.7974200e-01   4.7036300e-02   1.3926600e-01
   1.9636000e-01   5.9189500e-02   1.3060500e-01
   1.5516700e-01   7.6250700e-02   1.1773000e-01
   1.7716800e-01   1.0897100e-01   1.1960200e-01
   1.9050900e-01   1.1831900e-01   1.1492100e-01
   1.4533700e-01   1.3935400e-01   1.1468700e-01
   1.4650700e-01   1.6155700e-01   1.1258000e-01
   1.7084800e-01   1.7487900e-01   1.1375000e-01
   1.3597500e-01   1.9731500e-01   1.2639100e-01
   1.0999500e-01   2.1881700e-01   1.2920000e-01
   1.3550700e-01   2.3494300e-01   1.2896600e-01
   1.0812200e-01   2.3868300e-01   1.2545500e-01
   8.5185300e-02   2.7327300e-01   1.1773000e-01
   5.9673600e-02   2.9430700e-01   1.1796400e-01
   7.8631800e-02   2.8916500e-01   1.1726200e-01
   6.9503800e-02   3.2492400e-01   1.0462100e-01
   5.6075700e-03   3.6488900e-01   9.9704800e-02
   4.1417600e-02   3.4876300e-01   8.4489000e-02
   4.4694300e-02   3.5624200e-01   6.9039000e-02
  -7.4993500e-03   4.1560500e-01   7.4189000e-02
   6.9247500e-04   4.1747500e-01   7.3486800e-02
   1.2629100e-02   4.2191600e-01   7.2082200e-02
  -2.8095900e-02   4.5580400e-01   6.9273100e-02
  -2.7861900e-02   4.7637100e-01   6.6932200e-02
  -1.6393300e-02   4.8922600e-01   6.5293600e-02
  -3.2777000e-02   4.9366600e-01   6.7634500e-02
  -4.6118000e-02   5.3246300e-01   7.1614000e-02
  -4.8458500e-02   5.4601800e-01   6.3889100e-02
  -3.3479100e-02   5.5232900e-01   5.2184600e-02
  -5.9458900e-02   5.9509900e-01   4.2118700e-02
  -5.6182200e-02   5.9766900e-01   4.2586900e-02
  -4.2373100e-02   5.9790300e-01   3.8139200e-02
  -5.6416300e-02   6.3436300e-01   2.4327900e-02
  -6.1565400e-02   6.5960400e-01   2.0816600e-02
  -5.1501200e-02   6.6661500e-01   2.9243800e-02
  -4.8458500e-02   6.7923600e-01   2.2923400e-02
  -8.1693900e-02   7.0050400e-01   1.1687100e-02
  -5.9224900e-02   7.1850000e-01   1.1453000e-02
  -5.5011900e-02   7.3182200e-01   7.7075500e-03
  -8.5906800e-02   7.4093700e-01   8.4098200e-03
  -7.5140400e-02   7.6127000e-01   1.1921200e-02
  -7.0225300e-02   7.7856500e-01  -9.5376300e-04
  -9.4098700e-02   7.7272200e-01  -2.8342300e-02
  -1.0720600e-01   7.9188700e-01  -3.6535400e-02
  -7.3970200e-02   8.1198600e-01  -4.1451300e-02
  -1.1258900e-01   8.0801300e-01  -5.5028500e-02
  -1.3061100e-01   8.0964900e-01  -5.9476200e-02
  -9.4332700e-02   8.2343800e-01  -7.1648800e-02
  -1.1516300e-01   8.3582500e-01  -7.9373800e-02
  -1.3599400e-01   8.3255300e-01  -8.0778300e-02
  -1.2593000e-01   8.3115100e-01  -7.4926100e-02
  -1.1727000e-01   8.4400500e-01  -8.0544200e-02
  -1.4442000e-01   8.3582500e-01  -9.7164600e-02
  -1.3810000e-01   8.3979800e-01  -9.3185100e-02
  -1.3833500e-01   8.4494000e-01  -9.9505500e-02
  -1.3950500e-01   8.1572600e-01  -1.0699600e-01
  -1.5401600e-01   8.3886400e-01  -1.1097600e-01
  -1.5869700e-01   8.3045000e-01  -1.1963700e-01
  -1.4535600e-01   8.0520900e-01  -1.2642600e-01
  -1.7414400e-01   8.0591000e-01  -1.2151000e-01
  -1.5659100e-01   7.9282200e-01  -1.1706200e-01
  -1.7601700e-01   7.8931600e-01  -1.3204400e-01
  -1.8725100e-01   7.7576000e-01  -1.4211000e-01
  -1.8327300e-01   7.5028600e-01  -1.3602300e-01
  -1.9006000e-01   7.3789900e-01  -1.2806400e-01
  -1.8912400e-01   7.4420900e-01  -1.4257800e-01
  -2.1112500e-01   7.1055400e-01  -1.5966700e-01
  -1.8678300e-01   6.8998700e-01  -1.5311200e-01
  -2.0457100e-01   6.8648100e-01  -1.4070500e-01
  -2.1369900e-01   6.6030500e-01  -1.3930100e-01
  -2.0714600e-01   6.3880300e-01  -1.3649200e-01
  -2.0831600e-01   6.3296000e-01  -1.3298000e-01
  -2.3499800e-01   6.1566600e-01  -1.3696000e-01
  -2.4857300e-01   5.7453200e-01  -1.2736200e-01
  -1.9755000e-01   5.5793800e-01  -1.1519000e-01
  -2.4880700e-01   5.4999200e-01  -1.1565800e-01
  -2.6331800e-01   5.2521800e-01  -1.2221200e-01
  -2.1416700e-01   4.9483500e-01  -1.2338300e-01
  -2.3523200e-01   4.7777400e-01  -1.1214600e-01
  -2.6753100e-01   4.6164700e-01  -1.0371900e-01
  -2.3921100e-01   4.4037900e-01  -9.4823700e-02
  -2.2165700e-01   4.1210000e-01  -9.6930500e-02
  -2.5816900e-01   3.8265100e-01  -1.0184600e-01
  -2.4857300e-01   3.8078200e-01  -8.7098800e-02
  -2.1674200e-01   3.5811100e-01  -7.7969300e-02
  -2.2540200e-01   3.1393900e-01  -7.8905600e-02
  -2.4904100e-01   3.0856400e-01  -8.1714700e-02
  -2.1369900e-01   2.9360600e-01  -7.7267000e-02
  -1.9895400e-01   2.4733000e-01  -6.6264800e-02
  -2.1557200e-01   2.4008500e-01  -5.5496700e-02
  -2.0152900e-01   2.2442600e-01  -4.4260400e-02
  -1.7718700e-01   1.7978700e-01  -4.2387600e-02
  -1.8842200e-01   1.7277500e-01  -3.3726300e-02
  -1.8889000e-01   1.5805100e-01  -1.6637800e-02
  -1.3739800e-01   1.1387900e-01  -5.4014700e-03
  -1.6805900e-01   1.1247700e-01   4.8984800e-03
  -1.6548500e-01   1.0920500e-01  -1.1878500e-03
  -1.2078100e-01   4.7036300e-02  -9.6150800e-03
  -1.2850400e-01   4.5400300e-02   6.7712000e-03
  -1.1797200e-01   4.0492200e-02   1.6837100e-02
  -1.1399300e-01  -4.3810900e-03   1.7539300e-02
  -9.1758100e-02  -1.5365700e-02   1.9412000e-02
  -8.1459800e-02  -2.7752600e-02   2.0114300e-02
  -1.0509900e-01  -4.4813800e-02   3.2521100e-02
  -6.7650800e-02  -7.3327100e-02   4.6098300e-02
  -4.2841200e-02  -8.6415200e-02   4.2352800e-02
  -9.0119800e-02  -1.0604700e-01   4.0011900e-02
  -4.0500700e-02  -1.1703200e-01   3.7671000e-02
  -7.9674600e-03  -1.4063700e-01   3.4393800e-02
  -5.9693000e-02  -1.6681300e-01   4.6098300e-02
  -1.6861400e-02  -1.7592800e-01   3.9777800e-02
   8.6502500e-03  -1.9813100e-01   4.1884600e-02
  -1.8499800e-02  -2.1566000e-01   5.3120900e-02
  -3.0523600e-03  -2.4627600e-01   5.6866400e-02
   3.4396000e-02  -2.4978200e-01   6.3420900e-02
   1.8480400e-02  -2.7408900e-01   6.6698200e-02
   2.4331700e-02  -3.0470500e-01   6.9039000e-02
   4.6566700e-02  -3.1241800e-01   7.3252700e-02
   4.9141300e-02  -3.3742500e-01   8.4957100e-02
   5.8737400e-02  -3.4981200e-01   7.3252700e-02
   4.0481300e-02  -3.7131400e-01   6.9273100e-02
   8.9632300e-02  -3.9585400e-01   6.5761800e-02
   7.7227500e-02  -4.1385000e-01   6.2250400e-02
   6.5993000e-02  -4.3254700e-01   7.3486800e-02
   1.1420800e-01  -4.4470100e-01   6.0143600e-02
   9.5483600e-02  -4.6339800e-01   5.5930000e-02
   9.0802600e-02  -4.8396500e-01   5.5695900e-02
   1.1608000e-01  -4.9261200e-01   5.9675500e-02
   1.3340000e-01  -5.1084200e-01   6.2250400e-02
   1.0390900e-01  -5.2393000e-01   5.0546000e-02
   1.1561200e-01  -5.2930600e-01   5.0311900e-02
   1.2988900e-01  -5.6599900e-01   4.6332300e-02
   1.1584600e-01  -5.8095700e-01   4.5161900e-02
   1.1256900e-01  -5.7254300e-01   5.2418700e-02
   1.2333600e-01  -5.9801800e-01   4.0948300e-02
   1.2122900e-01  -6.1297600e-01   2.6668800e-02
   9.4781400e-02  -6.0993700e-01   3.4393800e-02
   1.3784700e-01  -6.3985300e-01   2.8541500e-02
   1.1959100e-01  -6.3401000e-01   1.1921200e-02
   1.0250500e-01  -6.3961900e-01   1.1530400e-03
   1.2965500e-01  -6.8192200e-01  -6.8060000e-03
   1.2076100e-01  -6.6743100e-01  -7.2741800e-03
   1.1912300e-01  -6.6789900e-01  -1.2424200e-02
   1.1303800e-01  -6.7561100e-01  -1.7340000e-02
   1.3340000e-01  -6.8776500e-01  -2.6235400e-02
   1.2754900e-01  -6.9524300e-01  -3.4662700e-02
   1.2801700e-01  -6.8496000e-01  -3.1151300e-02
   1.4159200e-01  -6.9991800e-01  -2.7640000e-02
   1.4323000e-01  -6.9477600e-01  -3.3726300e-02
