**************************************************************************************
  	RED ACELEROGRÁFICA DE LA UNIVERSIDAD AUTONOMA METROPOLITANA (RA-UAM)
	   UNIDAD AZCAPOTZALCO. DIVISIÓN CBI-DEPARTAMENTO DE MATERIALES
     Av. San Pablo 420, Col. Nueva el Rosario, Azcapotzalco, C.P. 02128, Ciudad de México
		Área de Estructuras. e-mail: agb@azc.uam.mx
**************************************************************************************
ARCHIVO ESTANDAR DE ACELERACION:
VERSION DEL FORMATO                    : 2.0
NOMBRE DEL ARCHIVO                     : RUML202209.141
FECHA Y HORA DE CREACION               : 11:30 a. m. 21/09/2022
REF. CATALOGO ACELEROGRAMAS, SMIS 1999 : REGISTRO NO.      /PAG.    


================================================================================
DATOS DE LA ESTACION:
NOMBRE DE LA ESTACION                  : UAM-LERMA.
CLAVE DE LA ESTACION                   : RUML
LOCALIZACION DE LA ESTACION            : AV. DE LAS GARZAS 10, EL PANTEON, C.P.52005,
                                       : LERMA DE VILLADA, ESTADO DE MEXICO.   
                                       : 
                                       : 
                                       : 
COORDENADAS DE LA ESTACION             : 19.291278 LAT. N
                                       : 99.500578 LONG. W
ALTITUD (msnm)                         : 2570
TIPO DE SUELO                          : DEPOSITOS LACUSTRES
                                       : 
                                       : 
INSTITUCION RESPONSABLE                : UNIVERSIDAD AUTONOMA METROPOLITANA
                                       : 

================================================================================
DATOS DEL ACELEROGRAFO: 
MODELO DEL ACELEROGRAFO                : ETNA2 KINEMETRICS
NUMERO DE SERIE DEL ACELEROGRAFO       : 103733
NUMERO DE CANALES                      : 3
ORIENTACION C1-C6 (rumbo;orientacion)  : /N90E/N00E/V 
ORIENTACION C7-C12 (rumbo;orientacion) : 
VEL. DE MUESTREO, C1-C6 (muestras/s)   : /200/200/200
VEL. DE MUESTREO, C7-C12 (muestras/s)  : 
ESC. COMPLETA DE SENSORES, C1-C6, (g)  : /2/2/2
ESC. COMPLETA DE SENSORES, C7-C12 (g)  : 
FREC. NAT. DE SENSORES, C1-C6, (Hz)    : /212/206/208   
FREC. NAT. DE SENSORES, C7-C12 (Hz)    : 
AMORTIGUAMIENTO DE SENSORES, C1-C6     : /0.7/0.7/0.7      
AMORTIGUAMIENTO DE SENSORES, C7-C12    : 
INTERVALO DE MUESTREO, C1-C6 (s)       : /0.005/0.005/0.005
INTERVALO DE MUESTREO, C7-C12 (s)      : 
UMBRAL DE DISPARO, C1-C6 (Gal)         : /2/2/2
UMBRAL DE DISPARO, C7-C12 (Gal)        : 
MEMORIA DE PREEVENTO (s)               : 50
TIEMPO DE POSEVENTO (s)                : 60


================================================================================
DATOS DEL SISMO:
FECHA DEL SISMO [GMT]                  : 2022/09/14
HORA EPICENTRO (GMT)                   : 02:58:18
MAGNITUD(ES)                           : /M=5.0
COORDENADAS DEL EPICENTRO              : 17.4500 LAT. N
                                       : -100.9900 LONG. W
PROFUNDIDAD FOCAL (Km)                 : 28.0
FUENTE DE LOS DATOS EPICENTRALES       : SSN
                                       : INSTITUTO DE GEOFISICA, UNAM

================================================================================
DATOS DE ESTE REGISTRO:
HORA DE LA PRIMERA MUESTRA (GMT)       : 02:58:23.000
EXACTITUD DEL TIEMPO (s)               : 
DURACION DEL REGISTRO (s), C1-C6       : /181/181/181
DURACION DEL REGISTRO (s), C7-C12      : 
NUM. TOTAL DE MUESTRAS, C1-C6          : /36200/36200/36200
NUM. TOTAL DE MUESTRAS, C7-C12         : 
ACEL. MAX.(Gal), C1-C6                 : /-1.496/-1.714/0.757
ACEL. MAX., C1-C6, EN LA MUESTRA       : /14485/15421/14877
ACEL. MAX.(Gal), C7-C12                : 
ACEL. MAX., C7-C12,EN LA MUESTRA       : 
UNIDADES DE LOS DATOS                  : Gal (cm/s/s)
FACTOR DE DECIMACION                   : 1
FORMATO DATOS (FORTRAN,16 campos/dato) : 3E16.7


================================================================================
CALIDAD DEL ACELEROGRAMA:
REGISTRO DIGITAL COMPLETO CON TIEMPO ABSOLUTO CORRECTO


================================================================================
COMENTARIOS:














================================================================================
DATOS DE ACELERACION:
---------+---------+---------+---------+---------+---------+---------+---------+
   CANAL-1   	     CANAL-2          CANAL-3
     N90E              N00E              V
---------+---------+---------+---------+---------+---------+---------+---------+
[...]
  -5.0537600e-01  -3.6563900e-01  -2.6569200e-01
  -4.6418300e-01  -3.9088000e-01  -2.5071000e-01
  -4.0379800e-01  -4.5211400e-01  -2.0717000e-01
  -3.5628500e-01  -4.9348100e-01  -1.7299300e-01
  -2.9262300e-01  -5.2737000e-01  -1.4583800e-01
  -2.6102600e-01  -5.7200900e-01  -9.9956600e-02
  -1.6249000e-01  -6.2553000e-01  -5.9927300e-02
  -1.0327500e-01  -6.4399400e-01  -2.9027400e-02
  -7.4018000e-02  -6.8092100e-01   1.3342800e-02
   4.2774000e-02  -7.2275600e-01   5.3138100e-02
   1.0643600e-01  -7.4729600e-01   7.6781100e-02
   1.4552300e-01  -7.8515800e-01   9.5742400e-02
   2.3563300e-01  -8.0736100e-01   1.1704500e-01
   3.2457300e-01  -8.4615700e-01   1.2828100e-01
   3.4844600e-01  -8.7747500e-01   1.2757900e-01
   4.1327900e-01  -9.1300000e-01   1.2804700e-01
   5.0783600e-01  -9.4759000e-01   1.1423500e-01
   5.0011200e-01  -9.7820700e-01   9.1762800e-02
   5.7079600e-01  -1.0275200e+00   6.3438000e-02
   6.2205300e-01  -1.0548700e+00   4.2369900e-02
   6.2298900e-01  -1.0817400e+00   2.2706400e-02
   6.8126800e-01  -1.1275500e+00  -1.7791100e-02
   6.8641700e-01  -1.1481200e+00  -4.6350100e-02
   7.2597200e-01  -1.1672800e+00  -7.4440800e-02
   7.4071800e-01  -1.1955600e+00  -1.0861800e-01
   7.4329200e-01  -1.1892500e+00  -1.2968600e-01
   7.8518700e-01  -1.2049100e+00  -1.5028600e-01
   7.9689000e-01  -1.2282800e+00  -1.7673800e-01
   7.9197500e-01  -1.2046800e+00  -2.0272200e-01
   8.1514600e-01  -1.2170600e+00  -2.1512900e-01
   8.5961600e-01  -1.2261800e+00  -2.2332200e-01
   8.0648600e-01  -1.2009400e+00  -2.1864000e-01
   8.3878500e-01  -1.1834100e+00  -2.0576500e-01
   8.7880800e-01  -1.1563000e+00  -2.0482900e-01
   8.1140100e-01  -1.1399400e+00  -1.8563300e-01
   8.4065800e-01  -1.1140000e+00  -1.5567000e-01
   8.5751000e-01  -1.0614100e+00  -1.2711100e-01
   8.2357200e-01  -1.0466900e+00  -1.0065900e-01
   7.9946500e-01  -1.0144300e+00  -7.4909000e-02
   8.1514600e-01  -9.6605300e-01  -4.3775100e-02
   7.8074000e-01  -9.4244800e-01  -2.1770600e-02
   7.3252600e-01  -8.9383500e-01  -1.6389300e-03
   7.4563300e-01  -8.7630700e-01   1.8961000e-02
   6.9180100e-01  -8.3493900e-01   4.1667700e-02
   6.5786300e-01  -7.8585900e-01   5.0094900e-02
   6.3796900e-01  -7.6599300e-01   5.3138100e-02
   6.0028600e-01  -7.2485900e-01   6.2969800e-02
   5.7664700e-01  -6.9190500e-01   5.3606200e-02
   5.2726200e-01  -6.3371000e-01   5.0563100e-02
   5.0713300e-01  -6.0192500e-01   5.9926700e-02
   5.0338900e-01  -5.7738500e-01   5.7117600e-02
   4.4651400e-01  -5.1638500e-01   4.6817600e-02
   4.2779000e-01  -4.7829000e-01   4.0497200e-02
   4.5891900e-01  -4.3925900e-01   2.9026800e-02
   4.1093800e-01  -3.9859300e-01   2.3876800e-02
   3.9642700e-01  -3.4787700e-01   2.5281400e-02
   4.5283300e-01  -2.9645900e-01   6.0860300e-03
   4.2310900e-01  -2.7636000e-01  -6.7889000e-03
   4.1515100e-01  -2.3405700e-01  -1.1704800e-02
   4.8958000e-01  -1.9198800e-01  -2.3175200e-02
   4.7647300e-01  -1.7025300e-01  -3.0197900e-02
   4.8489900e-01  -1.4220700e-01  -4.0497800e-02
   5.4060300e-01  -1.1229200e-01  -4.6116000e-02
   5.4153900e-01  -7.7234200e-02  -4.5647800e-02
   5.7009400e-01  -6.1575300e-02  -4.8456900e-02
   5.8109400e-01  -3.0023700e-02  -4.7286400e-02
   6.0543500e-01  -1.2495100e-02  -5.3138700e-02
   6.2158500e-01   1.1110100e-02  -5.6181800e-02
   5.9139200e-01   6.1358900e-02  -3.9795500e-02
   6.0262700e-01   7.0006400e-02  -2.4111500e-02
   6.0801000e-01   9.6883600e-02  -1.0768400e-02
   5.5043300e-01   1.5881800e-01   6.7883000e-03
   5.1907000e-01   1.9434300e-01   3.4410900e-02
   5.1790000e-01   2.2449200e-01   6.5310700e-02
   4.4019500e-01   2.8666000e-01   9.9721900e-02
   3.8542600e-01   3.4859500e-01   1.3858100e-01
   3.6483000e-01   4.0819200e-01   1.6339400e-01
   2.9952900e-01   4.5119600e-01   1.9148500e-01
   2.2697300e-01   5.2411500e-01   2.2378900e-01
   1.9280100e-01   5.9516500e-01   2.4766700e-01
   1.5137400e-01   6.3279300e-01   2.7154400e-01
   6.1030100e-02   7.1599500e-01   2.8769600e-01
   3.6220500e-02   7.7162000e-01   2.9869800e-01
   1.4687700e-02   8.2794500e-01   3.0150700e-01
  -6.8868900e-02   8.8286800e-01   3.0033700e-01
  -8.0571500e-02   9.1371900e-01   3.1040300e-01
  -9.5550800e-02   9.7448500e-01   3.1461600e-01
  -1.5031900e-01   1.0039300e+00   3.0970000e-01
  -1.5453200e-01   1.0266000e+00   3.0759400e-01
  -1.7840500e-01   1.0593200e+00   3.0829600e-01
  -1.8823600e-01   1.0672700e+00   3.0174100e-01
  -2.0485300e-01   1.0929800e+00   2.9542100e-01
  -2.4113100e-01   1.1182200e+00   2.9846400e-01
  -2.0625800e-01   1.1065300e+00   2.8863200e-01
  -2.3808900e-01   1.1313100e+00   2.7599100e-01
  -2.7296200e-01   1.1469700e+00   2.7271400e-01
  -2.2568400e-01   1.1308400e+00   2.5328500e-01
  -2.5915300e-01   1.1385500e+00   2.3596200e-01
  -3.0221900e-01   1.1588900e+00   2.3408900e-01
  -2.7179200e-01   1.1546800e+00   2.3081200e-01
  -2.9004800e-01   1.1455600e+00   2.2496000e-01
  -3.4107200e-01   1.1796900e+00   2.1793700e-01
  -3.1790000e-01   1.1607600e+00   2.1278700e-01
  -3.2258100e-01   1.1619200e+00   2.0810500e-01
  -3.7383900e-01   1.1747800e+00   1.9897600e-01
  -3.6049800e-01   1.1595900e+00   1.7884400e-01
  -3.6962600e-01   1.1778200e+00   1.5005100e-01
  -4.0239300e-01   1.1616900e+00   1.1306500e-01
  -4.0450000e-01   1.1560800e+00   7.1865200e-02
  -4.2860700e-01   1.1586500e+00   2.9963200e-02
  -4.2977700e-01   1.1350500e+00  -2.3175200e-02
  -4.5575700e-01   1.1415900e+00  -8.3570300e-02
  -4.9835500e-01   1.1355100e+00  -1.2851600e-01
  -4.8243900e-01   1.1072300e+00  -1.7135400e-01
  -5.1544000e-01   1.1154100e+00  -2.1957600e-01
  -5.7629400e-01   1.1065300e+00  -2.5141300e-01
  -5.5733600e-01   1.0845600e+00  -2.9120800e-01
  -5.7442200e-01   1.0754500e+00  -3.2936400e-01
  -6.5282900e-01   1.0749800e+00  -3.5043300e-01
  -6.1725300e-01   1.0551200e+00  -3.7992800e-01
  -6.2825400e-01   1.0345500e+00  -3.9982500e-01
  -7.0689500e-01   1.0359500e+00  -4.0895500e-01
  -6.6242500e-01   1.0102400e+00  -4.2768200e-01
  -6.7389400e-01   1.0011300e+00  -4.3845000e-01
  -7.2351300e-01   9.8196300e-01  -4.4079100e-01
  -6.9144800e-01   9.6677200e-01  -4.5179300e-01
  -6.8325600e-01   9.4550400e-01  -4.5109100e-01
  -7.0572500e-01   9.1862700e-01  -4.4149300e-01
  -6.9051100e-01   9.0483700e-01  -4.3423700e-01
  -6.6851100e-01   8.6720900e-01  -4.1129600e-01
  -6.6312700e-01   8.4804500e-01  -3.8999400e-01
  -6.4533900e-01   8.2116700e-01  -3.7805500e-01
  -6.4229700e-01   7.9569200e-01  -3.5417800e-01
  -6.1538100e-01   7.4988400e-01  -3.2538500e-01
  -5.8916700e-01   7.3773100e-01  -3.1321200e-01
  -6.1350800e-01   7.3983400e-01  -2.9542100e-01
  -5.6810200e-01   6.9098800e-01  -2.8278100e-01
  -5.3720700e-01   6.6878500e-01  -2.8161000e-01
  -5.8331600e-01   6.7042100e-01  -2.6686300e-01
  -5.3135600e-01   6.4564700e-01  -2.5913800e-01
  -5.0116300e-01   6.1923700e-01  -2.5632800e-01
  -5.4259000e-01   6.3139000e-01  -2.4790100e-01
  -5.0046100e-01   6.1316100e-01  -2.3713300e-01
  -4.6441700e-01   5.9633300e-01  -2.3455800e-01
  -4.8688600e-01   5.9539800e-01  -2.3596300e-01
  -4.4897000e-01   5.8418000e-01  -2.3338800e-01
  -4.0660600e-01   5.7249400e-01  -2.3268500e-01
  -4.1198900e-01   5.5239500e-01  -2.3151500e-01
  -3.7383900e-01   5.4351400e-01  -2.3572900e-01
  -3.4154000e-01   5.3907300e-01  -2.3409000e-01
  -3.0830400e-01   5.1920700e-01  -2.3666500e-01
  -2.9098400e-01   4.9583600e-01  -2.4158100e-01
  -2.6500500e-01   4.9490100e-01  -2.2823800e-01
  -1.9244800e-01   4.6638700e-01  -2.2800400e-01
  -1.9361900e-01   4.4208100e-01  -2.2425800e-01
  -1.7138400e-01   4.3062900e-01  -2.1419200e-01
  -9.0167600e-02   3.9861000e-01  -2.2098100e-01
  -7.2847800e-02   3.6892800e-01  -2.1700100e-01
  -7.1677500e-02   3.4064900e-01  -2.0670100e-01
  -1.2930400e-02   3.1236900e-01  -2.0787200e-01
   2.9901100e-02   2.7520800e-01  -2.0717000e-01
   1.8198500e-02   2.3711300e-01  -1.8657000e-01
   4.8625300e-02   2.0743100e-01  -1.6526800e-01
   9.2861100e-02   1.8078700e-01  -1.4794500e-01
   8.3733100e-02   1.2516300e-01  -1.2547200e-01
   1.0011700e-01   1.0132400e-01  -9.5508900e-02
   1.2726700e-01   8.3561900e-02  -6.0161300e-02
   1.1018100e-01   3.1209700e-02  -3.0197900e-02
   1.0105300e-01   7.6044100e-03   3.7451300e-03
   1.0713800e-01  -1.7636800e-02   3.5113100e-02
   9.7542200e-02  -5.8069600e-02   5.3606200e-02
   6.0561900e-02  -7.6065700e-02   7.4440200e-02
   4.1369700e-02  -9.8034900e-02   1.0697900e-01
   2.6156300e-02  -1.3800000e-01   1.3343100e-01
  -2.7207600e-02  -1.5015300e-01   1.5239200e-01
  -6.8868900e-02  -1.6067100e-01   1.8633500e-01
  -8.9933600e-02  -1.9876600e-01   2.2659800e-01
  -1.3697800e-01  -2.1278900e-01   2.6498900e-01
  -1.9666100e-01  -2.1372400e-01   3.0923200e-01
  -2.1585400e-01  -2.4317200e-01   3.5183600e-01
  -2.4487600e-01  -2.6373900e-01   3.8554500e-01
  -2.9660200e-01  -2.7075000e-01   4.2042500e-01
  -3.1275100e-01  -2.9692700e-01   4.5413400e-01
  -3.1204900e-01  -3.3619100e-01   4.7567000e-01
  -3.4645500e-01  -3.5231700e-01   4.9603600e-01
  -3.6471100e-01  -3.7592200e-01   5.1897600e-01
  -3.2094300e-01  -4.1284900e-01   5.3583100e-01
  -3.3475200e-01  -4.3738900e-01   5.4332200e-01
  -3.4388000e-01  -5.0025900e-01   5.5385600e-01
  -2.6945200e-01  -5.2620100e-01   5.5526000e-01
  -2.5213200e-01  -5.4746900e-01   5.4425800e-01
  -2.3528000e-01  -6.3698200e-01   5.4987600e-01
  -1.5827700e-01  -6.6783300e-01   5.4004500e-01
  -1.0257200e-01  -7.0031900e-01   5.1757200e-01
  -5.7166300e-02  -7.6505800e-01   4.9275800e-01
   1.2815300e-02  -8.0619200e-01   4.6677400e-01
   9.9648700e-02  -8.6672400e-01   4.4453600e-01
   1.6307700e-01  -9.2562100e-01   4.1550900e-01
   2.2042000e-01  -9.6488500e-01   3.8531100e-01
   3.0842300e-01  -1.0228500e+00   3.5324100e-01
   3.9993800e-01  -1.0726300e+00   3.2959800e-01
   4.4628000e-01  -1.1200700e+00   3.0150700e-01
   5.2398500e-01  -1.1401700e+00   2.7856600e-01
   6.2018100e-01  -1.2093500e+00   2.3104600e-01
   6.4265000e-01  -1.2797000e+00   1.9686900e-01
   7.3744100e-01  -1.2511900e+00   2.1325500e-01
   8.2450800e-01  -1.2953600e+00   2.0857400e-01
   8.1655000e-01  -1.3364900e+00   1.9991200e-01
   8.4487100e-01  -1.3902500e+00   1.7392800e-01
   9.0666100e-01  -1.4281100e+00   1.3904900e-01
   9.5183300e-01  -1.4507800e+00   1.2968500e-01
   9.4879000e-01  -1.5150500e+00   1.2172600e-01
   9.6915200e-01  -1.5276700e+00   1.1891700e-01
   9.9162100e-01  -1.5442700e+00   1.1166000e-01
   9.7664200e-01  -1.5699700e+00   1.0885100e-01
   9.5300300e-01  -1.6139100e+00   1.2055600e-01
   9.4621500e-01  -1.6323800e+00   1.4232600e-01
   9.4247100e-01  -1.6513100e+00   1.4771000e-01
   8.7951000e-01  -1.6760800e+00   1.4888100e-01
   8.5165800e-01  -1.6784200e+00   1.7509900e-01
   8.3691300e-01  -1.7137100e+00   1.7346000e-01
   7.5780300e-01  -1.6975800e+00   1.7884400e-01
   7.2269600e-01  -1.6763100e+00   1.9499600e-01
   6.9320500e-01  -1.6992200e+00   1.9476200e-01
   6.1596800e-01  -1.6674300e+00   1.8820800e-01
   5.6237000e-01  -1.6396200e+00   1.7369400e-01
   5.3732600e-01  -1.6274700e+00   1.6667200e-01
   4.8255800e-01  -1.5942800e+00   1.4396500e-01
   4.0555500e-01  -1.5592200e+00   1.2289700e-01
   3.9104400e-01  -1.5148200e+00   8.9890100e-02
   3.4470100e-01  -1.4692400e+00   5.2435800e-02
   2.7331500e-01  -1.4206300e+00   1.6151900e-02
   2.5482500e-01  -1.3703800e+00  -3.3475100e-02
   2.1573900e-01  -1.3180300e+00  -7.2568100e-02
   1.6401300e-01  -1.2811000e+00  -1.2430200e-01
   1.1486200e-01  -1.2168300e+00  -1.6339500e-01
   9.0286600e-02  -1.1523200e+00  -1.9991300e-01
   4.3476100e-02  -1.1277800e+00  -2.4415600e-01
  -2.1590400e-02  -1.0646800e+00  -2.7107600e-01
  -4.6165800e-02  -1.0081200e+00  -2.8980300e-01
  -8.4316300e-02  -9.7166300e-01  -3.0736000e-01
  -1.4587200e-01  -9.1674000e-01  -3.2866200e-01
  -1.8893800e-01  -8.7280100e-01  -3.3240800e-01
  -1.9947000e-01  -8.5200000e-01  -3.3615300e-01
  -2.5330200e-01  -7.9964800e-01  -3.3849400e-01
  -2.9753800e-01  -7.5126900e-01  -3.2257600e-01
  -2.6968600e-01  -7.4566000e-01  -3.1766000e-01
  -3.0479300e-01  -6.9190500e-01  -3.0665800e-01
  -3.4645500e-01  -6.6269100e-01  -2.7411900e-01
  -3.0994300e-01  -6.4843400e-01  -2.3853800e-01
  -3.2187900e-01  -6.0659900e-01  -2.0084900e-01
  -3.3732700e-01  -5.9023900e-01  -1.5660600e-01
  -3.0455900e-01  -5.4583300e-01  -1.1189500e-01
  -2.8092000e-01  -5.1428200e-01  -6.5311300e-02
  -2.8068600e-01  -4.8530100e-01  -2.0132000e-02
  -2.6406800e-01  -4.4673800e-01   1.6620100e-02
  -2.1538600e-01  -4.2289900e-01   4.7988100e-02
  -2.1772600e-01  -3.7989600e-01   7.2333400e-02
  -1.9408700e-01  -3.5886100e-01   9.8083300e-02
  -1.5874500e-01  -3.2029800e-01   1.2219500e-01
  -1.4072300e-01  -2.7378900e-01   1.3670800e-01
  -1.2621200e-01  -2.4621000e-01   1.4092200e-01
  -1.2925400e-01  -1.9385800e-01   1.5496700e-01
  -7.7060700e-02  -1.6557900e-01   1.6175600e-01
  -7.7762900e-02  -1.1205800e-01   1.5684000e-01
  -9.5316800e-02  -5.3161600e-02   1.6362800e-01
  -3.3527000e-02  -2.7686600e-02   1.4981700e-01
  -4.4527500e-02   4.8972000e-02   1.3553800e-01
  -7.2379700e-02   1.0038900e-01   1.2547200e-01
  -1.7845500e-02   1.3801800e-01   1.0814900e-01
  -2.4633000e-02   2.1467600e-01   9.3869700e-02
  -6.5358100e-02   2.6773000e-01   8.2633300e-02
  -4.1952900e-02   3.3574100e-01   7.8185600e-02
  -3.6335600e-02   4.0351800e-01   7.4674300e-02
  -8.8529300e-02   4.6171300e-01   6.4608400e-02
  -9.3678400e-02   5.4818800e-01   5.2669900e-02
  -9.3912500e-02   6.0077400e-01   5.9458500e-02
  -1.4142500e-01   6.5242500e-01   6.0160700e-02
  -1.8098000e-01   7.4287300e-01   5.1733500e-02
  -2.1398100e-01   7.9873100e-01   5.6181200e-02
  -2.2287500e-01   8.4617500e-01   5.8756200e-02
  -2.7881400e-01   9.0810900e-01   5.9692600e-02
  -3.2468800e-01   9.6466800e-01   6.6013000e-02
  -3.1298500e-01   9.9388300e-01   6.3906200e-02
  -3.5534900e-01   1.0387600e+00   5.3138100e-02
  -4.0871300e-01   1.0953200e+00   4.9392600e-02
  -3.7969000e-01   1.0976500e+00   3.5815400e-02
  -3.8952000e-01   1.1226600e+00   1.5449600e-02
  -4.4639500e-01   1.1528100e+00   3.9792200e-03
  -3.8905200e-01   1.1539800e+00  -2.2707000e-02
  -3.7875400e-01   1.1626300e+00  -5.1265900e-02
  -4.1690400e-01   1.1654300e+00  -6.9993100e-02
  -3.5254000e-01   1.1645000e+00  -9.8786100e-02
  -3.2234700e-01   1.1673000e+00  -1.2125900e-01
  -3.2749700e-01   1.1591200e+00  -1.4490200e-01
  -2.6757900e-01   1.1448600e+00  -1.7486500e-01
  -2.2357700e-01   1.1474300e+00  -1.8399500e-01
  -1.9455500e-01   1.1401900e+00  -1.9452900e-01
  -1.5406400e-01   1.1140100e+00  -2.0482900e-01
  -1.0725300e-01   1.1200900e+00  -2.0670100e-01
  -5.3655500e-02   1.1210200e+00  -2.2379000e-01
  -3.9144300e-02   1.0920400e+00  -2.3572900e-01
  -1.9299800e-03   1.0955500e+00  -2.3806900e-01
   4.9093400e-02   1.0859700e+00  -2.4064400e-01
   6.2200300e-02   1.0677400e+00  -2.5515800e-01
   7.0158100e-02   1.0672700e+00  -2.6264900e-01
   1.2282000e-01   1.0406300e+00  -2.6147800e-01
   1.3054400e-01   1.0315100e+00  -2.7224700e-01
   1.0550000e-01   1.0195900e+00  -2.7271500e-01
   1.5909800e-01   9.8663800e-01  -2.8044000e-01
   1.4833200e-01   9.7331600e-01  -2.8676000e-01
   1.1041500e-01   9.5578700e-01  -2.9144200e-01
   1.4271400e-01   9.2610500e-01  -3.0010300e-01
   1.3943800e-01   8.9478800e-01  -2.9308100e-01
   1.0105300e-01   8.8076500e-01  -3.0197600e-01
