**************************************************************************************
  	RED ACELEROGRÁFICA DE LA UNIVERSIDAD AUTONOMA METROPOLITANA (RA-UAM)
	   UNIDAD AZCAPOTZALCO. DIVISIÓN CBI-DEPARTAMENTO DE MATERIALES
     Av. San Pablo 420, Col. Nueva el Rosario, Azcapotzalco, C.P. 02128, Ciudad de México
		Área de Estructuras. e-mail: agb@azc.uam.mx
**************************************************************************************
ARCHIVO ESTANDAR DE ACELERACION:
VERSION DEL FORMATO                    : 2.0
NOMBRE DEL ARCHIVO                     : RUML202212.301
FECHA Y HORA DE CREACION               : 11:30 a. m. 06/01/2023
REF. CATALOGO ACELEROGRAMAS, SMIS 1999 : REGISTRO NO.      /PAG.    


================================================================================
DATOS DE LA ESTACION:
NOMBRE DE LA ESTACION                  : UAM-LERMA.
CLAVE DE LA ESTACION                   : RUML
LOCALIZACION DE LA ESTACION            : AV. DE LAS GARZAS 10, EL PANTEON, C.P.52005,
                                       : LERMA DE VILLADA, ESTADO DE MEXICO.   
                                       : 
                                       : 
                                       : 
COORDENADAS DE LA ESTACION             : 19.291278 LAT. N
                                       : 99.500578 LONG. W
ALTITUD (msnm)                         : 2570
TIPO DE SUELO                          : DEPOSITOS LACUSTRES
                                       : 
                                       : 
INSTITUCION RESPONSABLE                : UNIVERSIDAD AUTONOMA METROPOLITANA
                                       : 

================================================================================
DATOS DEL ACELEROGRAFO: 
MODELO DEL ACELEROGRAFO                : ETNA2 KINEMETRICS
NUMERO DE SERIE DEL ACELEROGRAFO       : 103733
NUMERO DE CANALES                      : 3
ORIENTACION C1-C6 (rumbo;orientacion)  : /N90E/N00E/V 
ORIENTACION C7-C12 (rumbo;orientacion) : 
VEL. DE MUESTREO, C1-C6 (muestras/s)   : /200/200/200
VEL. DE MUESTREO, C7-C12 (muestras/s)  : 
ESC. COMPLETA DE SENSORES, C1-C6, (g)  : /2/2/2
ESC. COMPLETA DE SENSORES, C7-C12 (g)  : 
FREC. NAT. DE SENSORES, C1-C6, (Hz)    : /212/206/208   
FREC. NAT. DE SENSORES, C7-C12 (Hz)    : 
AMORTIGUAMIENTO DE SENSORES, C1-C6     : /0.7/0.7/0.7      
AMORTIGUAMIENTO DE SENSORES, C7-C12    : 
INTERVALO DE MUESTREO, C1-C6 (s)       : /0.005/0.005/0.005
INTERVALO DE MUESTREO, C7-C12 (s)      : 
UMBRAL DE DISPARO, C1-C6 (Gal)         : /2/2/2
UMBRAL DE DISPARO, C7-C12 (Gal)        : 
MEMORIA DE PREEVENTO (s)               : 50
TIEMPO DE POSEVENTO (s)                : 60


================================================================================
DATOS DEL SISMO:
FECHA DEL SISMO [GMT]                  : 2022/12/30
HORA EPICENTRO (GMT)                   : 15:35:51
MAGNITUD(ES)                           : /M=4.8
COORDENADAS DEL EPICENTRO              : 18.2600 LAT. N
                                       : -103.2000 LONG. W
PROFUNDIDAD FOCAL (Km)                 : 10.0
FUENTE DE LOS DATOS EPICENTRALES       : SSN
                                       : INSTITUTO DE GEOFISICA, UNAM

================================================================================
DATOS DE ESTE REGISTRO:
HORA DE LA PRIMERA MUESTRA (GMT)       : 15:36:54.000
EXACTITUD DEL TIEMPO (s)               : 
DURACION DEL REGISTRO (s), C1-C6       : /148/148/148
DURACION DEL REGISTRO (s), C7-C12      : 
NUM. TOTAL DE MUESTRAS, C1-C6          : /29600/29600/29600
NUM. TOTAL DE MUESTRAS, C7-C12         : 
ACEL. MAX.(Gal), C1-C6                 : /-0.917/0.738/0.233
ACEL. MAX., C1-C6, EN LA MUESTRA       : /14089/12130/12628
ACEL. MAX.(Gal), C7-C12                : 
ACEL. MAX., C7-C12,EN LA MUESTRA       : 
UNIDADES DE LOS DATOS                  : Gal (cm/s/s)
FACTOR DE DECIMACION                   : 1
FORMATO DATOS (FORTRAN,16 campos/dato) : 3E16.7


================================================================================
CALIDAD DEL ACELEROGRAMA:
REGISTRO DIGITAL COMPLETO CON TIEMPO ABSOLUTO CORRECTO


================================================================================
COMENTARIOS:














================================================================================
DATOS DE ACELERACION:
---------+---------+---------+---------+---------+---------+---------+---------+
   CANAL-1   	     CANAL-2          CANAL-3
     N90E              N00E              V
---------+---------+---------+---------+---------+---------+---------+---------+
[...]
  -3.6820000e-01  -9.5615600e-02  -5.7623000e-03
  -3.6375300e-01  -8.8604200e-02  -1.4414700e-04
  -3.5790100e-01  -7.1543000e-02   7.9221200e-04
  -3.7054000e-01  -7.7619600e-02  -2.4850400e-03
  -3.8434900e-01  -6.3830400e-02   2.6649300e-03
  -3.6702900e-01  -5.0742300e-02   5.9421800e-03
  -3.7873200e-01  -4.3964600e-02   3.1331100e-03
  -4.0798800e-01  -3.6953100e-02   1.2603900e-03
  -3.8973200e-01  -2.4098800e-02   7.8149000e-03
  -3.7920000e-01  -1.0075900e-02   1.0858100e-02
  -4.1898900e-01  -1.3815300e-02   1.0389900e-02
  -4.1735100e-01   2.0762000e-04   1.1326200e-02
  -3.8786000e-01   5.1156400e-03   7.3467200e-03
  -4.2530800e-01   1.8904800e-02   7.1126300e-03
  -4.4192600e-01   3.4563800e-02   1.7412600e-02
  -4.1220100e-01   4.2042700e-02   1.3199000e-02
  -4.2788300e-01   5.5130700e-02   3.3672000e-03
  -4.4848000e-01   5.1625000e-02   8.0489900e-03
  -4.2437200e-01   7.6632500e-02   1.4369400e-02
  -4.2671300e-01   8.0372000e-02   1.2964900e-02
  -4.5269200e-01   8.3410300e-02   1.0389900e-02
  -4.4286200e-01   1.0561300e-01   1.3199000e-02
  -4.3233000e-01   1.1075500e-01   9.9217100e-03
  -4.4496900e-01   1.2851700e-01   6.8785400e-03
  -4.4684100e-01   1.2220700e-01   6.1762700e-03
  -4.2928700e-01   1.3763200e-01   7.5808100e-03
  -4.2881900e-01   1.5001900e-01   2.4308400e-03
  -4.4262800e-01   1.4370900e-01  -2.4850400e-03
  -4.2413800e-01   1.6287300e-01   9.2194400e-03
  -4.0401000e-01   1.6965100e-01   5.2399200e-03
  -4.3186200e-01   1.8718000e-01  -8.3372900e-03
  -4.2039300e-01   1.8647900e-01  -1.0912300e-02
  -3.7803000e-01   1.8554400e-01   7.9221200e-04
  -3.9558400e-01   1.9676200e-01   6.4103600e-03
  -4.0003100e-01   2.0564300e-01  -1.4414700e-04
  -3.6609300e-01   2.2317200e-01  -7.8691100e-03
  -3.5345400e-01   2.1405700e-01  -1.4657700e-02
  -3.5954000e-01   2.2621000e-01  -5.5282100e-03
  -3.3964500e-01   2.4327200e-01  -1.5486900e-03
  -3.1600600e-01   2.3579300e-01  -3.8895800e-03
  -3.1553800e-01   2.3626000e-01  -9.9759100e-03
  -3.0172900e-01   2.4070100e-01  -1.1146400e-02
  -2.7645100e-01   2.4420600e-01  -5.7623000e-03
  -2.6591900e-01   2.4186900e-01  -3.6554900e-03
  -2.6802500e-01   2.4444000e-01   5.0058300e-03
  -2.3315200e-01   2.5893000e-01   1.9626600e-03
  -2.0623600e-01   2.5963200e-01  -7.4009300e-03
  -2.1910800e-01   2.4116800e-01  -2.0168600e-03
  -1.8634100e-01   2.4444000e-01   1.5539900e-02
  -1.5380800e-01   2.5706100e-01   1.5305800e-02
  -1.6504200e-01   2.4747800e-01   5.0058300e-03
  -1.3531800e-01   2.4911400e-01   9.2194400e-03
  -8.9209400e-02   2.4934800e-01   8.5171700e-03
  -9.9975800e-02   2.4093400e-01   1.0624000e-02
  -8.6400800e-02   2.4841300e-01   1.6476200e-02
  -2.8355900e-02   2.4280400e-01   1.1560300e-02
  -2.7887800e-02   2.3065100e-01   7.5808100e-03
  -2.6015300e-02   2.2737900e-01   1.0624000e-02
   2.7348600e-02   2.2574300e-01   1.5774000e-02
   3.9051200e-02   2.1826400e-01   1.8114800e-02
   4.1859800e-02   2.1405700e-01   1.4135300e-02
   8.4691300e-02   2.1616100e-01   1.2964900e-02
   1.0926700e-01   2.0213800e-01   1.4135300e-02
   1.2143800e-01   1.9021800e-01   1.3199000e-02
   1.4226800e-01   1.9419100e-01   1.3901200e-02
   1.6731200e-01   1.9162000e-01   1.0624000e-02
   1.9984500e-01   1.7596200e-01   2.4308400e-03
   2.0429200e-01   1.6871600e-01  -4.8259400e-03
   2.2418600e-01   1.7058600e-01   4.3035600e-03
   2.7918900e-01   1.6170500e-01   6.1762700e-03
   2.8012500e-01   1.5516100e-01  -9.5077300e-03
   2.7895500e-01   1.5165500e-01  -1.3253200e-02
   3.4285100e-01   1.4347500e-01  -1.4657700e-02
   3.5455300e-01   1.4698100e-01  -1.5360000e-02
   3.3770200e-01   1.3249000e-01  -1.4657700e-02
   3.9972600e-01   1.1356000e-01  -2.0275900e-02
   4.2289700e-01   1.1215700e-01  -3.2682600e-02
   4.0276800e-01   9.8835500e-02  -3.2916700e-02
   4.4911100e-01   8.2942800e-02  -1.6764500e-02
   4.8258000e-01   8.7617100e-02  -1.9105400e-02
   4.5777000e-01   8.4578800e-02  -2.9171300e-02
   4.8819700e-01   6.6582800e-02  -2.8000800e-02
   5.4390200e-01   6.2142200e-02  -3.1746300e-02
   5.2096500e-01   4.2510100e-02  -3.5023500e-02
   5.2096500e-01   3.8069500e-02  -2.7298500e-02
   5.7924400e-01   3.1291800e-02  -2.7766700e-02
   5.7245600e-01   1.0958500e-02  -4.1343900e-02
   5.5794500e-01   1.3763100e-02  -3.7130300e-02
   6.1201100e-01  -4.7004000e-03  -2.8234900e-02
   6.1060700e-01  -7.7387000e-03  -3.0107600e-02
   5.8860600e-01  -1.4283900e-03  -3.1746300e-02
   6.3682000e-01  -2.5734800e-02  -3.5959900e-02
   6.4173500e-01  -3.8822800e-02  -3.2682600e-02
   6.1903200e-01  -3.5784500e-02  -3.2448500e-02
   6.4384200e-01  -4.7704000e-02  -3.2448500e-02
   6.5437400e-01  -5.3780600e-02  -2.7766700e-02
   6.4805500e-01  -6.1726900e-02  -3.5725800e-02
   6.5390600e-01  -7.2477800e-02  -4.1343900e-02
   6.6537500e-01  -6.1726900e-02  -3.2916700e-02
   6.7473700e-01  -8.7435600e-02  -3.2916700e-02
   6.6865100e-01  -8.2995000e-02  -3.9705300e-02
   6.6865100e-01  -7.9489300e-02  -3.9471200e-02
   6.9463100e-01  -1.0589900e-01  -3.9939400e-02
   6.8878000e-01  -9.7017900e-02  -3.6194000e-02
   6.7263000e-01  -1.0730100e-01  -3.0341700e-02
   7.0422700e-01  -9.4447100e-02  -2.7532600e-02
   7.0703600e-01  -1.0496400e-01  -3.1746300e-02
   6.7731100e-01  -1.2085700e-01  -2.9171300e-02
   6.9884400e-01  -1.0216000e-01  -1.7935000e-02
   7.1476000e-01  -1.0613300e-01  -2.1680400e-02
   6.8035400e-01  -1.1805200e-01  -1.6062200e-02
   6.9299300e-01  -1.1992200e-01  -8.1032000e-03
   7.1569600e-01  -1.0917100e-01  -1.1614500e-02
   6.8526900e-01  -1.1922100e-01  -5.5282100e-03
   6.7778000e-01  -1.1197600e-01   2.8990200e-03
   7.0493000e-01  -1.0847000e-01   7.3467200e-03
   6.8948200e-01  -1.1244300e-01   9.9217100e-03
   6.6350200e-01  -1.0566500e-01   1.5305800e-02
   6.8058800e-01  -1.1057300e-01   2.3967100e-02
   6.8058800e-01  -1.0379600e-01   2.5371600e-02
   6.5858700e-01  -9.8887700e-02   2.4435300e-02
   6.4922500e-01  -1.0753500e-01   3.4501100e-02
   6.6654500e-01  -1.0800300e-01   4.0587500e-02
   6.5203400e-01  -9.3044800e-02   4.0821500e-02
   6.1856400e-01  -9.6316800e-02   4.9482900e-02
   6.4126700e-01  -9.5615600e-02   6.0953300e-02
   6.3822500e-01  -9.6316800e-02   6.3060100e-02
   5.9820200e-01  -9.5849400e-02   6.2591900e-02
   6.1201100e-01  -8.6267000e-02   7.2189600e-02
   6.2324500e-01  -9.1876200e-02   7.5232700e-02
   5.8064800e-01  -8.7201900e-02   7.4764500e-02
   5.8135000e-01  -8.8370500e-02   8.2021300e-02
   6.0358500e-01  -8.6734500e-02   8.2723600e-02
   5.6777500e-01  -8.6500700e-02   7.9446300e-02
   5.5162500e-01  -8.3929900e-02   8.6469000e-02
   5.7386000e-01  -7.1075500e-02   9.1619000e-02
   5.5537000e-01  -8.2293900e-02   8.7639500e-02
   5.3243300e-01  -8.1125300e-02   9.1853100e-02
   5.4366800e-01  -6.1726900e-02   9.5598500e-02
   5.3430600e-01  -6.7569800e-02   9.9109900e-02
   5.0879400e-01  -7.5983600e-02   9.9344000e-02
   5.1417700e-01  -6.3129200e-02   1.0355800e-01
   5.1441100e-01  -5.4248000e-02   1.0894200e-01
   4.8843100e-01  -5.7520100e-02   1.0566400e-01
   4.8515500e-01  -5.0508600e-02   1.0941000e-01
   4.8913300e-01  -4.1393700e-02   1.0543000e-01
   4.7836700e-01  -4.0692600e-02   9.8173500e-02
   4.5964300e-01  -4.5366900e-02   9.5832600e-02
   4.5332300e-01  -4.2796000e-02   1.0332300e-01
   4.6057900e-01  -2.1761600e-02   1.0426000e-01
   4.3647200e-01  -2.5968500e-02   8.8809900e-02
   4.1915200e-01  -3.0409100e-02   8.8575800e-02
   4.3694000e-01  -1.1010700e-02   9.2321300e-02
   4.1330100e-01  -1.0777000e-02   8.5766800e-02
   3.7749100e-01  -1.6152400e-02   8.5532700e-02
   3.9949100e-01  -4.9341200e-03   8.9044000e-02
   3.9410800e-01  -2.5969600e-03   7.8275900e-02
   3.4402100e-01  -2.5969600e-03   7.3360000e-02
   3.5666000e-01   5.1156400e-03   7.7573600e-02
   3.6438400e-01   9.0888000e-03   7.5466800e-02
   3.0750900e-01   1.6567700e-02   7.0550900e-02
   3.0844500e-01   1.1659700e-02   6.0953300e-02
   3.1827500e-01   2.1475700e-02   5.6973700e-02
   2.7521000e-01   2.1709400e-02   5.4632800e-02
   2.6186900e-01   2.2644300e-02   5.6037400e-02
   2.6046500e-01   4.4379800e-02   5.2526000e-02
   2.3659100e-01   2.4046600e-02   3.7310200e-02
   2.0616400e-01   3.4330100e-02   3.8714700e-02
   1.9469600e-01   4.7885500e-02   4.0119300e-02
   1.8580200e-01   4.4146100e-02   3.4032900e-02
   1.5046000e-01   5.0456400e-02   2.8414800e-02
   1.2728900e-01   4.7651800e-02   1.9051200e-02
   1.2260800e-01   5.6766700e-02   1.3199000e-02
   9.5223700e-02   5.6299300e-02   1.0389900e-02
   6.1052100e-02   5.9337600e-02   1.3901200e-02
   4.6306800e-02   6.6582800e-02   5.4740000e-03
   2.0092900e-02   6.8686200e-02  -6.6986600e-03
  -1.3610600e-02   6.4245600e-02  -1.2785000e-02
  -3.8888200e-02   7.3827900e-02  -9.2736400e-03
  -5.8314500e-02   8.3176500e-02  -5.0600300e-03
  -9.2018100e-02   7.4061600e-02  -2.1212200e-02
  -1.3812600e-01   8.3176500e-02  -2.8469000e-02
  -1.4116900e-01   9.2525200e-02  -3.1278100e-02
  -1.6457400e-01   9.2525200e-02  -3.3853100e-02
  -2.3479000e-01   1.0351000e-01  -3.0809900e-02
  -2.4017300e-01   1.0584700e-01  -3.7598500e-02
  -2.4064100e-01   9.9302900e-02  -5.1409800e-02
  -3.1483600e-01   1.1075500e-01  -5.8900700e-02
  -3.3800700e-01   1.2057100e-01  -5.6325700e-02
  -3.3145300e-01   1.1636400e-01  -5.8198400e-02
  -3.9300900e-01   1.1449400e-01  -6.2646100e-02
  -4.1828700e-01   1.2571300e-01  -7.1073300e-02
  -4.2039300e-01   1.2010400e-01  -7.8096000e-02
  -4.7258700e-01   1.1239100e-01  -7.5052800e-02
  -5.0395000e-01   1.2851700e-01  -7.1541500e-02
  -5.1284400e-01   1.1659800e-01  -7.7627800e-02
  -5.4748400e-01   1.1706500e-01  -8.9332300e-02
  -5.8095300e-01   1.2501200e-01  -9.6823200e-02
  -6.0178400e-01   1.1496200e-01  -9.5886800e-02
  -6.1863500e-01   1.1005400e-01  -9.0034600e-02
  -6.4391300e-01   9.9302900e-02  -9.6355000e-02
  -6.8323400e-01   1.0257500e-01  -1.0150500e-01
  -6.8112700e-01   9.7666900e-02  -1.0478200e-01
  -7.0102200e-01   9.6030900e-02  -1.0829400e-01
  -7.5742800e-01   9.0889100e-02  -1.0384600e-01
  -7.4970500e-01   8.0839400e-02  -1.0010000e-01
  -7.4970500e-01   8.3644000e-02  -1.1203900e-01
  -8.1032400e-01   6.9621100e-02  -1.2233900e-01
  -8.2132500e-01   6.0506200e-02  -1.1180500e-01
  -7.8738700e-01   5.9805000e-02  -1.1227300e-01
  -8.4613400e-01   4.7651800e-02  -1.1578400e-01
  -8.7351800e-01   4.1107800e-02  -1.1601900e-01
  -8.2951600e-01   4.4847200e-02  -1.1976400e-01
  -8.7141200e-01   2.9655700e-02  -1.1742300e-01
  -9.0090200e-01   2.2410600e-02  -1.0876200e-01
  -8.7071000e-01   2.0073400e-02  -1.0665500e-01
  -8.8498700e-01  -4.9341200e-03  -1.1953000e-01
  -9.1541400e-01   3.2459200e-03  -1.1344400e-01
  -8.9786000e-01   6.7516500e-03  -1.0337800e-01
  -8.9762600e-01  -1.9658200e-02  -1.0642100e-01
  -9.1658400e-01  -2.3163900e-02  -1.0829400e-01
  -9.0886000e-01  -2.6202200e-02  -1.1157100e-01
  -9.0652000e-01  -4.0225100e-02  -1.0197300e-01
  -9.0675400e-01  -5.2144600e-02  -9.7525400e-02
  -9.1377500e-01  -5.5182900e-02  -9.6355000e-02
  -9.1541400e-01  -5.3546900e-02  -8.8161900e-02
  -8.9364700e-01  -6.8972100e-02  -9.3077700e-02
  -9.0909400e-01  -8.0190400e-02  -9.6823200e-02
  -9.1377500e-01  -8.0190400e-02  -8.8630000e-02
  -8.7492300e-01  -9.6550500e-02  -7.9500500e-02
  -9.0183900e-01  -1.0589900e-01  -7.9734600e-02
  -9.0722200e-01  -1.1034000e-01  -8.1607400e-02
  -8.5666600e-01  -1.2389500e-01  -8.1373300e-02
  -8.7749700e-01  -1.2529700e-01  -7.6223300e-02
  -8.9341300e-01  -1.2903700e-01  -6.7796100e-02
  -8.4496400e-01  -1.4586400e-01  -6.6859700e-02
  -8.4356000e-01  -1.6082200e-01  -7.1775600e-02
  -8.6626300e-01  -1.6035500e-01  -6.6157400e-02
  -8.2881400e-01  -1.7040500e-01  -5.4452900e-02
  -8.1781400e-01  -1.7811700e-01  -5.7730200e-02
  -8.3396300e-01  -1.8489500e-01  -5.6325700e-02
  -8.0681300e-01  -1.9751600e-01  -5.4687000e-02
  -7.8598300e-01  -1.9354200e-01  -5.5389300e-02
  -7.8457800e-01  -2.0896800e-01  -5.4452900e-02
  -7.8153600e-01  -2.1621300e-01  -4.5557500e-02
  -7.5906700e-01  -2.2766500e-01  -3.6896200e-02
  -7.2840600e-01  -2.2673000e-01  -4.0407600e-02
  -7.3589600e-01  -2.1761500e-01  -4.0407600e-02
  -7.2934200e-01  -2.3444300e-01  -3.6428000e-02
  -6.8323400e-01  -2.3374100e-01  -3.0341700e-02
  -6.7925500e-01  -2.3818200e-01  -3.5725800e-02
  -6.8580800e-01  -2.4122000e-01  -2.9639400e-02
  -6.3665700e-01  -2.5477600e-01  -2.1212200e-02
  -6.2752900e-01  -2.5150400e-01  -2.5425800e-02
  -6.4110400e-01  -2.4402500e-01  -1.9339500e-02
  -5.8282500e-01  -2.6225500e-01  -1.6998600e-02
  -5.6574000e-01  -2.6248800e-01  -1.9573600e-02
  -5.8493200e-01  -2.6108600e-01  -8.8054600e-03
  -5.3601500e-01  -2.5384100e-01   8.9942600e-05
  -5.1331200e-01  -2.5267200e-01  -3.8895800e-03
  -5.1799300e-01  -2.7347300e-01  -2.2509500e-03
  -4.7680000e-01  -2.6763000e-01  -3.7823700e-04
  -4.6228900e-01  -2.4753100e-01   3.2403200e-04
  -4.5713900e-01  -2.6529300e-01   1.0624000e-02
  -4.1664800e-01  -2.6342300e-01   1.7880800e-02
  -3.9839200e-01  -2.4799800e-01   1.4603500e-02
  -3.8903000e-01  -2.4729700e-01   1.3433100e-02
  -3.5977400e-01  -2.5127000e-01   1.6944400e-02
  -3.4151800e-01  -2.4659600e-01   2.8180700e-02
  -3.1811200e-01  -2.2158800e-01   3.2628400e-02
  -2.9587700e-01  -2.2719700e-01   2.3733000e-02
  -2.9353700e-01  -2.2649600e-01   2.4201200e-02
  -2.5117400e-01  -2.2486000e-01   3.0521600e-02
  -2.2753400e-01  -2.1060400e-01   3.1223900e-02
  -2.4087500e-01  -2.0125500e-01   3.1926100e-02
  -1.9781000e-01  -2.0756500e-01   3.7076100e-02
  -1.6176600e-01  -1.8138900e-01   3.4032900e-02
  -1.8189400e-01  -1.7648100e-01   2.7946600e-02
  -1.4491400e-01  -1.6713300e-01   3.3330700e-02
  -9.3656400e-02  -1.6526300e-01   2.5371600e-02
  -1.2221100e-01  -1.5591400e-01   2.5371600e-02
  -9.6699100e-02  -1.4072300e-01   4.0821500e-02
  -3.8186100e-02  -1.3861900e-01   3.6607900e-02
  -5.9718900e-02  -1.1992200e-01   3.1926100e-02
  -4.6611900e-02  -1.1665000e-01   3.4267000e-02
   6.7519600e-03  -1.0262700e-01   3.7544300e-02
  -9.7175900e-04  -8.6968200e-02   3.8012500e-02
   9.3265400e-03  -7.5983600e-02   4.1992000e-02
   5.3796400e-02  -7.0608100e-02   4.5269200e-02
   5.7073200e-02  -6.1025800e-02   4.0821500e-02
   6.2690400e-02  -4.3964600e-02   3.8012500e-02
   8.9372400e-02  -4.4432000e-02   3.7310200e-02
   1.0645800e-01  -1.6152400e-02   4.7844200e-02
   1.1722500e-01  -1.4283900e-03   4.8312400e-02
   1.2635300e-01  -7.0375500e-03   4.3630600e-02
   1.5631100e-01   1.3996800e-02   4.2928400e-02
   1.8790800e-01   2.8019700e-02   3.7310200e-02
   1.7480100e-01   3.3862600e-02   4.2226100e-02
   1.9844100e-01   4.5782100e-02   5.0887400e-02
   2.4618700e-01   6.0973600e-02   5.1589700e-02
   2.3214400e-01   6.5414200e-02   4.9014700e-02
   2.5274100e-01   7.6632500e-02   5.0185100e-02
   3.0236000e-01   1.0187400e-01   5.1355600e-02
   2.9206200e-01   1.0187400e-01   5.6271500e-02
   3.0423200e-01   1.0397700e-01   6.4698700e-02
   3.5900000e-01   1.2758200e-01   6.6337300e-02
   3.5853200e-01   1.3903400e-01   6.2591900e-02
   3.6063900e-01   1.3716500e-01   6.8444100e-02
   4.0674700e-01   1.4955200e-01   7.7807700e-02
   4.1493900e-01   1.6567800e-01   8.0850900e-02
   4.2757800e-01   1.6310700e-01   8.1787200e-02
   4.5706800e-01   1.7642900e-01   8.2723600e-02
   4.6502600e-01   1.8414200e-01   9.4428100e-02
   4.9100600e-01   1.7923400e-01   1.0121700e-01
   5.0224000e-01   2.0354000e-01   9.9344000e-02
