**************************************************************************************
  	RED ACELEROGRÁFICA DE LA UNIVERSIDAD AUTONOMA METROPOLITANA (RA-UAM)
	   UNIDAD AZCAPOTZALCO. DIVISIÓN CBI-DEPARTAMENTO DE MATERIALES
     Av. San Pablo 420, Col. Nueva el Rosario, Azcapotzalco, C.P. 02128, Ciudad de México
		Área de Estructuras. e-mail: agb@azc.uam.mx
**************************************************************************************
ARCHIVO ESTANDAR DE ACELERACION:
VERSION DEL FORMATO                    : 2.0
NOMBRE DEL ARCHIVO                     : RUML202209.011
FECHA Y HORA DE CREACION               : 11:30 a. m. 08/09/2022
REF. CATALOGO ACELEROGRAMAS, SMIS 1999 : REGISTRO NO.      /PAG.    


================================================================================
DATOS DE LA ESTACION:
NOMBRE DE LA ESTACION                  : UAM-LERMA.
CLAVE DE LA ESTACION                   : RUML
LOCALIZACION DE LA ESTACION            : AV. DE LAS GARZAS 10, EL PANTEON, C.P.52005,
                                       : LERMA DE VILLADA, ESTADO DE MEXICO.   
                                       : 
                                       : 
                                       : 
COORDENADAS DE LA ESTACION             : 19.291278 LAT. N
                                       : 99.500578 LONG. W
ALTITUD (msnm)                         : 2570
TIPO DE SUELO                          : DEPOSITOS LACUSTRES
                                       : 
                                       : 
INSTITUCION RESPONSABLE                : UNIVERSIDAD AUTONOMA METROPOLITANA
                                       : 

================================================================================
DATOS DEL ACELEROGRAFO: 
MODELO DEL ACELEROGRAFO                : ETNA2 KINEMETRICS
NUMERO DE SERIE DEL ACELEROGRAFO       : 103733
NUMERO DE CANALES                      : 3
ORIENTACION C1-C6 (rumbo;orientacion)  : /N90E/N00E/V 
ORIENTACION C7-C12 (rumbo;orientacion) : 
VEL. DE MUESTREO, C1-C6 (muestras/s)   : /200/200/200
VEL. DE MUESTREO, C7-C12 (muestras/s)  : 
ESC. COMPLETA DE SENSORES, C1-C6, (g)  : /2/2/2
ESC. COMPLETA DE SENSORES, C7-C12 (g)  : 
FREC. NAT. DE SENSORES, C1-C6, (Hz)    : /212/206/208   
FREC. NAT. DE SENSORES, C7-C12 (Hz)    : 
AMORTIGUAMIENTO DE SENSORES, C1-C6     : /0.7/0.7/0.7      
AMORTIGUAMIENTO DE SENSORES, C7-C12    : 
INTERVALO DE MUESTREO, C1-C6 (s)       : /0.005/0.005/0.005
INTERVALO DE MUESTREO, C7-C12 (s)      : 
UMBRAL DE DISPARO, C1-C6 (Gal)         : /2/2/2
UMBRAL DE DISPARO, C7-C12 (Gal)        : 
MEMORIA DE PREEVENTO (s)               : 50
TIEMPO DE POSEVENTO (s)                : 60


================================================================================
DATOS DEL SISMO:
FECHA DEL SISMO [GMT]                  : 2022/09/01
HORA EPICENTRO (GMT)                   : 07:23:20
MAGNITUD(ES)                           : /M=4.4
COORDENADAS DEL EPICENTRO              : 16.8500 LAT. N
                                       : -100.0600 LONG. W
PROFUNDIDAD FOCAL (Km)                 : 5.0
FUENTE DE LOS DATOS EPICENTRALES       : SSN
                                       : INSTITUTO DE GEOFISICA, UNAM

================================================================================
DATOS DE ESTE REGISTRO:
HORA DE LA PRIMERA MUESTRA (GMT)       : 07:24:01.000
EXACTITUD DEL TIEMPO (s)               : 
DURACION DEL REGISTRO (s), C1-C6       : /120/120/120
DURACION DEL REGISTRO (s), C7-C12      : 
NUM. TOTAL DE MUESTRAS, C1-C6          : /24000/24000/24000
NUM. TOTAL DE MUESTRAS, C7-C12         : 
ACEL. MAX.(Gal), C1-C6                 : /-0.403/0.417/-0.171
ACEL. MAX., C1-C6, EN LA MUESTRA       : /11270/11850/9557
ACEL. MAX.(Gal), C7-C12                : 
ACEL. MAX., C7-C12,EN LA MUESTRA       : 
UNIDADES DE LOS DATOS                  : Gal (cm/s/s)
FACTOR DE DECIMACION                   : 1
FORMATO DATOS (FORTRAN,16 campos/dato) : 3E16.7


================================================================================
CALIDAD DEL ACELEROGRAMA:
REGISTRO DIGITAL COMPLETO CON TIEMPO ABSOLUTO CORRECTO


================================================================================
COMENTARIOS:














================================================================================
DATOS DE ACELERACION:
---------+---------+---------+---------+---------+---------+---------+---------+
   CANAL-1   	     CANAL-2          CANAL-3
     N90E              N00E              V
---------+---------+---------+---------+---------+---------+---------+---------+
[...]
   3.2663400e-02   1.2885500e-01   4.9914400e-02
   1.3705200e-02   1.2838700e-01   3.8209900e-02
   2.9388200e-03   1.3820300e-01   3.7273500e-02
   4.2259600e-02   1.4451400e-01   3.6103100e-02
   4.3429800e-02   1.4264400e-01   3.1187200e-02
   1.6747900e-02   1.5316100e-01   2.8846300e-02
   5.1153600e-02   1.6064000e-01   2.6739500e-02
   6.8473400e-02   1.6180900e-01   2.2291800e-02
   3.9216900e-02   1.6671700e-01   1.5971400e-02
   5.8643200e-02   1.8167500e-01   1.4800900e-02
   8.1112200e-02   1.7700000e-01   7.5441500e-03
   6.7303200e-02   1.8518000e-01  -1.5853400e-03
   5.8877300e-02   1.8962100e-01  -4.8626000e-03
   8.7197600e-02   1.9289300e-01  -7.6716700e-03
   9.7495900e-02   1.9710000e-01  -1.4694400e-02
   6.4728600e-02   1.9055600e-01  -1.7503400e-02
   9.4453200e-02   2.1205800e-01  -1.5630700e-02
   1.1224100e-01   2.0551300e-01  -2.1483000e-02
   7.7133400e-02   2.0691600e-01  -2.6632900e-02
   9.3985100e-02   2.1299200e-01  -2.9207900e-02
   1.1645400e-01   2.1416100e-01  -3.3187400e-02
   9.6325600e-02   2.1299200e-01  -4.0444200e-02
   9.4453200e-02   2.0644800e-01  -4.2082900e-02
   1.1762400e-01   2.2280800e-01  -3.8103300e-02
   1.1434800e-01   2.1065500e-01  -4.3955600e-02
   9.4687300e-02   2.1299200e-01  -5.2148700e-02
   1.0990100e-01   2.1392700e-01  -5.3085100e-02
   1.2066700e-01   2.0060500e-01  -5.1680500e-02
   9.3048900e-02   2.0878600e-01  -5.8235000e-02
   1.0170900e-01   2.0691600e-01  -6.0575900e-02
   1.1856100e-01   1.9593100e-01  -5.9639600e-02
   1.0100700e-01   1.9336000e-01  -6.7130400e-02
   8.6027300e-02   2.0224100e-01  -6.7598600e-02
   1.0428300e-01   1.9219200e-01  -6.7832700e-02
   1.0709200e-01   1.8074000e-01  -7.6962200e-02
   7.3856600e-02   1.8564800e-01  -8.1409900e-02
   8.8836000e-02   1.8260900e-01  -8.0707600e-02
   9.7729900e-02   1.7700000e-01  -8.2814500e-02
   6.4260500e-02   1.7232600e-01  -8.4687200e-02
   6.6132900e-02   1.6858600e-01  -8.2814500e-02
   7.4792800e-02   1.6811900e-01  -8.7964400e-02
   5.7707000e-02   1.5947200e-01  -9.5455300e-02
   4.0153100e-02   1.5316100e-01  -9.0539400e-02
   4.8110900e-02   1.5362900e-01  -8.6794000e-02
   4.6940600e-02   1.4381300e-01  -9.2646200e-02
   1.4641400e-02   1.4241000e-01  -9.5689400e-02
   2.0492700e-02   1.3282800e-01  -8.8900800e-02
   2.7280200e-02   1.2745300e-01  -8.4219000e-02
  -4.5508500e-03   1.3049100e-01  -8.7496300e-02
  -8.9978400e-03   1.1343000e-01  -8.3516700e-02
   6.6836500e-03   1.0945700e-01  -7.6259900e-02
  -1.4147000e-02   1.0665200e-01  -8.0005400e-02
  -3.8488400e-02   1.0291200e-01  -7.2748600e-02
  -1.5551300e-02   9.1927900e-02  -6.0810000e-02
  -1.4147000e-02   7.5567800e-02  -6.3385000e-02
  -5.6978500e-02   8.2813000e-02  -5.7766900e-02
  -4.3637600e-02   7.3698100e-02  -4.9807800e-02
  -2.7488000e-02   5.1495100e-02  -4.1380600e-02
  -6.7042800e-02   5.1962600e-02  -3.8571500e-02
  -6.5872500e-02   4.7288200e-02  -3.4357900e-02
  -4.3871600e-02   3.3499000e-02  -2.8037500e-02
  -6.5872500e-02   2.2047000e-02  -2.4994300e-02
  -8.8809600e-02   1.6204100e-02  -1.0948900e-02
  -6.9383300e-02   1.8307600e-02  -5.7989600e-03
  -6.4936300e-02  -2.2593900e-03  -1.0012600e-02
  -1.0519300e-01  -5.7651200e-03  -8.1398500e-03
  -9.4895000e-02  -8.3359900e-03   3.5646300e-03
  -7.5936800e-02  -2.4462300e-02   7.0759700e-03
  -1.1432100e-01  -2.5397200e-02   7.5441500e-03
  -1.1502300e-01  -4.1289800e-02   1.5503200e-02
  -9.4192800e-02  -4.1289800e-02   1.6439600e-02
  -1.1923600e-01  -5.4611600e-02   1.7844100e-02
  -1.4381200e-01  -6.0688200e-02   2.2994100e-02
  -1.1830000e-01  -6.4427700e-02   2.7675900e-02
  -1.2555600e-01  -7.8450600e-02   2.5335000e-02
  -1.5879100e-01  -8.1722600e-02   3.0016800e-02
  -1.3749200e-01  -9.2239800e-02   3.7975800e-02
  -1.3608800e-01  -9.0136300e-02   4.0316700e-02
  -1.6534500e-01  -1.0766500e-01   4.1955300e-02
  -1.6206800e-01  -1.0556200e-01   4.0784900e-02
  -1.4779100e-01  -1.1491000e-01   4.6871200e-02
  -1.6417400e-01  -1.3080300e-01   4.5700800e-02
  -1.7962200e-01  -1.1724700e-01   4.3828100e-02
  -1.5949300e-01  -1.3687900e-01   4.8041700e-02
  -1.5785500e-01  -1.4903300e-01   4.9914400e-02
  -1.8617500e-01  -1.4412500e-01   4.9680300e-02
  -1.7072800e-01  -1.5253800e-01   5.2021200e-02
  -1.5996100e-01  -1.5978300e-01   5.1787100e-02
  -1.8196200e-01  -1.6118600e-01   4.4296200e-02
  -1.8009000e-01  -1.6726200e-01   4.5700800e-02
  -1.6604700e-01  -1.6399000e-01   4.7807600e-02
  -1.7470700e-01  -1.7193700e-01   4.3359900e-02
  -1.9226100e-01  -1.7848100e-01   4.1721200e-02
  -1.7166400e-01  -1.7053400e-01   4.3828100e-02
  -1.6651500e-01  -1.8035000e-01   3.9146300e-02
  -1.9506900e-01  -1.7544200e-01   3.1655400e-02
  -1.7868600e-01  -1.7193700e-01   3.5166700e-02
  -1.6464300e-01  -1.8035000e-01   3.1655400e-02
  -1.8804800e-01  -1.7474100e-01   2.4632700e-02
  -1.8711200e-01  -1.7146900e-01   2.4398600e-02
  -1.6511100e-01  -1.7053400e-01   1.9950900e-02
  -1.6955800e-01  -1.7006700e-01   1.1991900e-02
  -1.9436700e-01  -1.6796400e-01   6.8418800e-03
  -1.7096200e-01  -1.6375700e-01   8.9486900e-03
  -1.5574900e-01  -1.6515900e-01   2.8623600e-03
  -1.8477100e-01  -1.5884900e-01  -8.8307400e-04
  -1.7330200e-01  -1.5417400e-01   3.7987200e-03
  -1.4966300e-01  -1.5464200e-01   2.8737400e-04
  -1.6979200e-01  -1.5160300e-01  -3.6921500e-03
  -1.7821800e-01  -1.4482600e-01  -6.9694100e-03
  -1.3983300e-01  -1.4459200e-01  -9.7784800e-03
  -1.5177000e-01  -1.4716300e-01  -1.8908000e-02
  -1.7704700e-01  -1.3687900e-01  -2.3823900e-02
  -1.3913100e-01  -1.3851500e-01  -2.1483000e-02
  -1.4076900e-01  -1.4225500e-01  -2.9207900e-02
  -1.6464300e-01  -1.3454200e-01  -3.3421500e-02
  -1.4919500e-01  -1.3173800e-01  -3.5762400e-02
  -1.3351400e-01  -1.3290600e-01  -4.1380600e-02
  -1.5340800e-01  -1.3384100e-01  -4.6998700e-02
  -1.6206800e-01  -1.2753100e-01  -4.6998700e-02
  -1.2976900e-01  -1.3220500e-01  -4.5360100e-02
  -1.4240800e-01  -1.3828200e-01  -5.3787300e-02
  -1.6581300e-01  -1.3010200e-01  -5.4489600e-02
  -1.3585400e-01  -1.3734700e-01  -5.3787300e-02
  -1.3491800e-01  -1.4132000e-01  -5.7064600e-02
  -1.6604700e-01  -1.4155400e-01  -5.3787300e-02
  -1.5059900e-01  -1.3687900e-01  -5.2148700e-02
  -1.3140700e-01  -1.4879900e-01  -5.1680500e-02
  -1.5411000e-01  -1.6095200e-01  -5.4021400e-02
  -1.6113200e-01  -1.5090200e-01  -5.1680500e-02
  -1.3000300e-01  -1.6656100e-01  -4.3955600e-02
  -1.4825900e-01  -1.7310500e-01  -4.4189700e-02
  -1.6464300e-01  -1.7918200e-01  -4.2082900e-02
  -1.3398200e-01  -1.8058400e-01  -3.6932900e-02
  -1.4404600e-01  -1.8502500e-01  -3.8103300e-02
  -1.5691900e-01  -1.9928100e-01  -3.5060200e-02
  -1.4287600e-01  -1.9624300e-01  -2.4526100e-02
  -1.3234300e-01  -2.0629300e-01  -2.1248900e-02
  -1.4662100e-01  -2.0746100e-01  -2.2887500e-02
  -1.4919500e-01  -2.1213600e-01  -1.6801200e-02
  -1.2110900e-01  -2.2125100e-01  -5.3307800e-03
  -1.3819500e-01  -2.1844600e-01  -1.8080500e-04
  -1.5294000e-01  -2.2241900e-01   4.9691700e-03
  -1.2298100e-01  -2.2966400e-01   1.1523700e-02
  -1.2579000e-01  -2.2989800e-01   1.4332800e-02
  -1.4357800e-01  -2.2849600e-01   1.8546400e-02
  -1.3491800e-01  -2.3293600e-01   2.7675900e-02
  -1.1408700e-01  -2.3667600e-01   3.4464500e-02
  -1.3281100e-01  -2.4064900e-01   3.0016800e-02
  -1.4311000e-01  -2.3504000e-01   3.4698600e-02
  -1.0636400e-01  -2.4322000e-01   3.9848500e-02
  -1.2251300e-01  -2.4509000e-01   3.8912200e-02
  -1.4123700e-01  -2.4158400e-01   4.5934900e-02
  -1.0823600e-01  -2.4672600e-01   4.5934900e-02
  -1.0847000e-01  -2.4532300e-01   4.1721200e-02
  -1.2579000e-01  -2.5467200e-01   4.1955300e-02
  -1.1244900e-01  -2.4509000e-01   4.9212100e-02
  -9.4660900e-02  -2.4602400e-01   5.0382600e-02
  -1.0519300e-01  -2.5163400e-01   4.6168900e-02
  -1.1572600e-01  -2.4322000e-01   5.2723500e-02
  -8.0383800e-02  -2.4649200e-01   5.6234800e-02
  -8.7171300e-02  -2.4064900e-01   5.3191600e-02
  -1.0776800e-01  -2.3317000e-01   5.5064400e-02
  -7.3362200e-02  -2.2896300e-01   5.9043900e-02
  -6.9149200e-02  -2.2265300e-01   5.5064400e-02
  -8.9277700e-02  -2.1657600e-01   5.8341600e-02
  -7.9213500e-02  -1.9764500e-01   6.5130200e-02
  -5.0425100e-02  -1.9367200e-01   6.1853000e-02
  -6.7276800e-02  -1.8479100e-01   6.0214300e-02
  -7.3596200e-02  -1.6492500e-01   6.3257500e-02
  -3.2637100e-02  -1.5768000e-01   6.9109700e-02
  -4.9957000e-02  -1.3594500e-01   6.5832500e-02
  -5.6042300e-02  -1.2309000e-01   6.5130200e-02
  -2.3977200e-02  -1.1210600e-01   7.0982500e-02
  -2.0934500e-02  -9.4109500e-02   6.7002900e-02
  -2.5147400e-02  -8.2423700e-02   6.5364300e-02
  -1.3210800e-02  -6.3025400e-02   7.1918800e-02
   1.8152200e-02  -4.9703600e-02   7.0280200e-02
   7.1517600e-03  -3.9420100e-02   6.5130200e-02
   8.7901200e-03  -2.0956600e-02   6.5598400e-02
   6.0047500e-02  -7.6348500e-03   6.3023400e-02
   4.7642800e-02   9.8938000e-03   6.1384800e-02
   4.1791500e-02   1.9943600e-02   6.1618900e-02
   9.4219200e-02   3.4433900e-02   6.2087000e-02
   9.1644600e-02   5.1962600e-02   6.0214300e-02
   7.8537700e-02   6.1311200e-02   5.5064400e-02
   1.1505000e-01   8.5617600e-02   5.5532500e-02
   1.3822100e-01   9.2862700e-02   5.6000700e-02
   1.2534800e-01   1.0314600e-01   5.0850700e-02
   1.3845500e-01   1.2768600e-01   4.9914400e-02
   1.7566900e-01   1.3726900e-01   4.6168900e-02
   1.6771200e-01   1.4778600e-01   3.8444000e-02
   1.6396700e-01   1.6508100e-01   3.7975800e-02
   1.9252100e-01   1.8214200e-01   3.7975800e-02
   2.0235100e-01   1.8845200e-01   3.0250900e-02
   1.9298900e-01   1.9826800e-01   2.1589500e-02
   2.0609600e-01   2.1790000e-01   2.1355400e-02
   2.2996900e-01   2.2748300e-01   1.8078200e-02
   2.1499000e-01   2.3753200e-01   6.3737100e-03
   2.1967100e-01   2.5132200e-01   4.0328100e-03
   2.5150200e-01   2.5926800e-01   3.7987200e-03
   2.3605500e-01   2.7212200e-01  -5.5648700e-03
   2.3184200e-01   2.8357400e-01  -9.0762100e-03
   2.5524700e-01   2.9432500e-01  -8.3739400e-03
   2.6156600e-01   2.9900000e-01  -1.3992100e-02
   2.5033200e-01   3.1395700e-01  -2.0312500e-02
   2.5337500e-01   3.3499200e-01  -2.0780700e-02
   2.7888600e-01   3.2681200e-01  -2.3589800e-02
   2.6624800e-01   3.3896500e-01  -2.4994300e-02
   2.5267200e-01   3.5789600e-01  -1.9610200e-02
   2.8356700e-01   3.5929800e-01  -1.6333000e-02
   2.8824800e-01   3.7285400e-01  -2.2887500e-02
   2.6507700e-01   3.8383800e-01  -2.4994300e-02
   2.7958800e-01   3.8991500e-01  -1.8439800e-02
   2.9246100e-01   3.9131700e-01  -2.1014800e-02
   2.7678000e-01   3.9926300e-01  -2.1014800e-02
   2.7701400e-01   4.0721000e-01  -1.7035300e-02
   2.9644000e-01   4.0323700e-01  -1.7269400e-02
   2.8403500e-01   4.0230200e-01  -1.7035300e-02
   2.7537600e-01   4.0861200e-01  -1.0012600e-02
   3.0439800e-01   4.1702600e-01  -3.4580600e-03
   2.9175900e-01   4.1468900e-01  -8.1398500e-03
   2.7607800e-01   3.9622500e-01  -5.3307800e-03
   3.0393000e-01   4.0697600e-01   9.8964300e-04
   2.9667400e-01   4.1235200e-01  -1.3512500e-03
   2.7748200e-01   3.8804500e-01   4.0328100e-03
   2.9784500e-01   3.9669300e-01   6.8418800e-03
   3.0907900e-01   3.9692600e-01   3.5646300e-03
   2.9199300e-01   3.8664300e-01   3.3305400e-03
   2.8380100e-01   3.7799500e-01   5.9055300e-03
   3.1212200e-01   3.7145100e-01   8.2464200e-03
   3.0205700e-01   3.6607600e-01   2.3941800e-03
   2.7256700e-01   3.5205300e-01   8.0123300e-03
   3.0603600e-01   3.5813000e-01   1.5971400e-02
   3.0697300e-01   3.5205300e-01   6.3737100e-03
   2.7209900e-01   3.4527500e-01   5.2032600e-03
   2.8520600e-01   3.4200300e-01   9.6509600e-03
   3.0767500e-01   3.2377300e-01   6.6078000e-03
   2.8707800e-01   3.0834800e-01   7.5441500e-03
   2.6999200e-01   3.1232100e-01   1.4332800e-02
   2.9152500e-01   3.1863200e-01   1.1991900e-02
   2.7818400e-01   3.0718000e-01   2.1600900e-03
   2.5477900e-01   3.0227200e-01  -1.8194300e-03
   2.7256700e-01   2.8871600e-01   1.2237300e-03
   2.7326900e-01   2.8614500e-01   2.8737400e-04
   2.4588500e-01   2.8334100e-01  -6.2671400e-03
   2.5267200e-01   2.7165500e-01  -9.7784800e-03
   2.6741800e-01   2.6417600e-01  -1.5864800e-02
   2.3418200e-01   2.6137100e-01  -1.7737500e-02
   2.2833100e-01   2.5880100e-01  -1.2119400e-02
   2.4214000e-01   2.3379300e-01  -1.3289800e-02
   2.2037300e-01   2.3426000e-01  -1.2119400e-02
   2.1194700e-01   2.3472800e-01  -1.4694400e-02
   2.2037300e-01   2.2795000e-01  -1.9142100e-02
   2.1662800e-01   2.1416100e-01  -2.3823900e-02
   1.8947800e-01   2.0200800e-01  -2.9910200e-02
   1.8011600e-01   2.0457900e-01  -2.7101100e-02
   1.9790400e-01   1.9312700e-01  -3.2719300e-02
   1.6911600e-01   1.7910400e-01  -3.9273800e-02
   1.5156200e-01   1.6928800e-01  -3.4357900e-02
   1.6607300e-01   1.7209200e-01  -3.3187400e-02
   1.4711500e-01   1.5596600e-01  -4.0678300e-02
   1.2722100e-01   1.4030700e-01  -4.4891900e-02
   1.2768900e-01   1.4054100e-01  -3.9273800e-02
   1.2441200e-01   1.2838700e-01  -4.3019200e-02
   9.1878600e-02   1.1272900e-01  -4.8871500e-02
   9.1410500e-02   1.0267900e-01  -4.8169200e-02
   1.0756000e-01   9.1694100e-02  -5.2148700e-02
   7.0111800e-02   8.7721000e-02  -5.5426000e-02
   5.8175100e-02   7.6268900e-02  -5.0744200e-02
   7.2218300e-02   6.1077400e-02  -4.6998700e-02
   5.1855700e-02   5.9207700e-02  -5.3085100e-02
   2.6110000e-02   5.1728800e-02  -5.5426000e-02
   3.3599700e-02   4.4951100e-02  -5.3553200e-02
   4.4366100e-02   2.3449300e-02  -5.8703200e-02
   3.6424400e-04   2.4384100e-02  -6.3619100e-02
  -2.6784300e-03   2.4384100e-02  -6.0810000e-02
   2.0492700e-02  -1.5582500e-03  -6.0575900e-02
  -2.2806900e-02  -3.4279700e-03  -6.4087300e-02
  -3.1466900e-02  -9.5045700e-03  -6.1980500e-02
  -1.4615100e-02  -1.3010300e-02  -6.1746400e-02
  -3.8722500e-02  -3.0305200e-02  -6.5023600e-02
  -6.5404400e-02  -3.4745800e-02  -6.5023600e-02
  -5.1829400e-02  -3.3577200e-02  -6.3385000e-02
  -5.3467800e-02  -5.6481300e-02  -6.6662300e-02
  -1.0004400e-01  -5.2975600e-02  -7.0641800e-02
  -9.0916100e-02  -6.5829900e-02  -6.9237300e-02
  -7.9681600e-02  -7.5879700e-02  -6.7364500e-02
  -1.2579000e-01  -6.6531100e-02  -7.0407700e-02
  -1.3234300e-01  -8.3592300e-02  -7.0173600e-02
  -1.1783200e-01  -9.2707200e-02  -6.2448700e-02
  -1.4334400e-01  -9.7615200e-02  -6.4555500e-02
  -1.7283400e-01  -9.7147800e-02  -6.2916800e-02
  -1.6113200e-01  -9.7615200e-02  -6.0107800e-02
  -1.5621700e-01  -1.2449200e-01  -6.2448700e-02
  -1.9904800e-01  -1.1561100e-01  -6.0341800e-02
  -1.9741000e-01  -1.0883400e-01  -5.9171400e-02
  -1.7962200e-01  -1.3314000e-01  -5.6596400e-02
  -2.1168700e-01  -1.4038500e-01  -5.7766900e-02
  -2.2034700e-01  -1.3687900e-01  -5.2148700e-02
  -2.1075100e-01  -1.3851500e-01  -4.4189700e-02
  -2.2339000e-01  -1.5510900e-01  -4.3253300e-02
  -2.4117800e-01  -1.5861500e-01  -3.9976000e-02
  -2.3766700e-01  -1.5160300e-01  -3.5528300e-02
  -2.3064500e-01  -1.6562600e-01  -3.4592000e-02
  -2.5498700e-01  -1.8222000e-01  -3.5762400e-02
  -2.5522100e-01  -1.7801300e-01  -2.8037500e-02
  -2.3602800e-01  -1.8596000e-01  -2.3121600e-02
  -2.6130600e-01  -1.9974900e-01  -2.6398800e-02
  -2.6551900e-01  -2.0208600e-01  -2.0312500e-02
  -2.4539100e-01  -2.0909700e-01  -1.1885300e-02
  -2.6177400e-01  -2.1447300e-01  -1.2587600e-02
  -2.7347700e-01  -2.2428900e-01  -1.0480800e-02
  -2.6060400e-01  -2.3854600e-01  -4.1489500e-04
  -2.5522100e-01  -2.4555700e-01   7.5555400e-04
