**************************************************************************************
  	RED ACELEROGRÁFICA DE LA UNIVERSIDAD AUTONOMA METROPOLITANA (RA-UAM)
	   UNIDAD AZCAPOTZALCO. DIVISIÓN CBI-DEPARTAMENTO DE MATERIALES
     Av. San Pablo 420, Col. Nueva el Rosario, Azcapotzalco, C.P. 02128, Ciudad de México
		Área de Estructuras. e-mail: agb@azc.uam.mx
**************************************************************************************
ARCHIVO ESTANDAR DE ACELERACION:
VERSION DEL FORMATO                    : 2.0
NOMBRE DEL ARCHIVO                     : RUML202210.141
FECHA Y HORA DE CREACION               : 11:30 a. m. 21/10/2022
REF. CATALOGO ACELEROGRAMAS, SMIS 1999 : REGISTRO NO.      /PAG.    


================================================================================
DATOS DE LA ESTACION:
NOMBRE DE LA ESTACION                  : UAM-LERMA.
CLAVE DE LA ESTACION                   : RUML
LOCALIZACION DE LA ESTACION            : AV. DE LAS GARZAS 10, EL PANTEON, C.P.52005,
                                       : LERMA DE VILLADA, ESTADO DE MEXICO.   
                                       : 
                                       : 
                                       : 
COORDENADAS DE LA ESTACION             : 19.291278 LAT. N
                                       : 99.500578 LONG. W
ALTITUD (msnm)                         : 2570
TIPO DE SUELO                          : DEPOSITOS LACUSTRES
                                       : 
                                       : 
INSTITUCION RESPONSABLE                : UNIVERSIDAD AUTONOMA METROPOLITANA
                                       : 

================================================================================
DATOS DEL ACELEROGRAFO: 
MODELO DEL ACELEROGRAFO                : ETNA2 KINEMETRICS
NUMERO DE SERIE DEL ACELEROGRAFO       : 103733
NUMERO DE CANALES                      : 3
ORIENTACION C1-C6 (rumbo;orientacion)  : /N90E/N00E/V 
ORIENTACION C7-C12 (rumbo;orientacion) : 
VEL. DE MUESTREO, C1-C6 (muestras/s)   : /200/200/200
VEL. DE MUESTREO, C7-C12 (muestras/s)  : 
ESC. COMPLETA DE SENSORES, C1-C6, (g)  : /2/2/2
ESC. COMPLETA DE SENSORES, C7-C12 (g)  : 
FREC. NAT. DE SENSORES, C1-C6, (Hz)    : /212/206/208   
FREC. NAT. DE SENSORES, C7-C12 (Hz)    : 
AMORTIGUAMIENTO DE SENSORES, C1-C6     : /0.7/0.7/0.7      
AMORTIGUAMIENTO DE SENSORES, C7-C12    : 
INTERVALO DE MUESTREO, C1-C6 (s)       : /0.005/0.005/0.005
INTERVALO DE MUESTREO, C7-C12 (s)      : 
UMBRAL DE DISPARO, C1-C6 (Gal)         : /2/2/2
UMBRAL DE DISPARO, C7-C12 (Gal)        : 
MEMORIA DE PREEVENTO (s)               : 50
TIEMPO DE POSEVENTO (s)                : 60


================================================================================
DATOS DEL SISMO:
FECHA DEL SISMO [GMT]                  : 2022/10/14
HORA EPICENTRO (GMT)                   : 23:28:02
MAGNITUD(ES)                           : /M=5.0
COORDENADAS DEL EPICENTRO              : 16.5100 LAT. N
                                       : -98.5300 LONG. W
PROFUNDIDAD FOCAL (Km)                 : 16.0
FUENTE DE LOS DATOS EPICENTRALES       : SSN
                                       : INSTITUTO DE GEOFISICA, UNAM

================================================================================
DATOS DE ESTE REGISTRO:
HORA DE LA PRIMERA MUESTRA (GMT)       : 23:28:43.000
EXACTITUD DEL TIEMPO (s)               : 
DURACION DEL REGISTRO (s), C1-C6       : /150/150/150
DURACION DEL REGISTRO (s), C7-C12      : 
NUM. TOTAL DE MUESTRAS, C1-C6          : /30000/30000/30000
NUM. TOTAL DE MUESTRAS, C7-C12         : 
ACEL. MAX.(Gal), C1-C6                 : /-0.781/0.691/0.284
ACEL. MAX., C1-C6, EN LA MUESTRA       : /11725/1293/11312
ACEL. MAX.(Gal), C7-C12                : 
ACEL. MAX., C7-C12,EN LA MUESTRA       : 
UNIDADES DE LOS DATOS                  : Gal (cm/s/s)
FACTOR DE DECIMACION                   : 1
FORMATO DATOS (FORTRAN,16 campos/dato) : 3E16.7


================================================================================
CALIDAD DEL ACELEROGRAMA:
REGISTRO DIGITAL COMPLETO CON TIEMPO ABSOLUTO CORRECTO


================================================================================
COMENTARIOS:














================================================================================
DATOS DE ACELERACION:
---------+---------+---------+---------+---------+---------+---------+---------+
   CANAL-1   	     CANAL-2          CANAL-3
     N90E              N00E              V
---------+---------+---------+---------+---------+---------+---------+---------+
[...]
   5.1438700e-02  -2.6081600e-01   4.0677000e-02
   1.0293000e-01  -2.3884700e-01   4.4422400e-02
   6.8056400e-02  -2.5777800e-01   3.8336100e-02
   2.3118400e-02  -2.4048300e-01   3.1079300e-02
   7.5546100e-02  -2.4001600e-01   2.0545300e-02
   6.1502900e-02  -2.4585800e-01   1.5395300e-02
   2.9898900e-03  -2.5590800e-01   2.1013400e-02
   3.4118800e-02  -2.4492400e-01   1.7502100e-02
   3.9033900e-02  -2.3464000e-01   3.4567100e-03
  -9.8829800e-03  -2.5146800e-01  -7.3114200e-03
   7.6709300e-03  -2.5310400e-01   4.1354300e-04
   3.3416700e-02  -2.5567400e-01   4.3930700e-03
  -1.4095900e-02  -2.5754400e-01  -2.6296200e-03
  -2.5798500e-02  -2.6852900e-01  -5.4387000e-03
   1.2820100e-02  -2.7367100e-01  -1.4100000e-02
  -1.2691600e-02  -2.8114900e-01  -1.7143200e-02
  -5.2012400e-02  -2.8792700e-01  -8.9500400e-03
  -1.2691600e-02  -3.1387000e-01   1.7945300e-04
  -2.1117500e-02  -3.0569000e-01  -8.0136900e-03
  -6.3480900e-02  -3.1457100e-01  -2.2527200e-02
  -4.2884300e-02  -3.4425300e-01  -2.2527200e-02
  -3.8437300e-02  -3.2532200e-01  -1.6675000e-02
  -6.7225800e-02  -3.5804200e-01  -1.6675000e-02
  -8.1502900e-02  -3.6154700e-01  -2.6038600e-02
  -5.8565800e-02  -3.5336700e-01  -2.8145400e-02
  -6.9332200e-02  -3.8258200e-01  -3.1890800e-02
  -1.0022700e-01  -3.9870800e-01  -3.6572600e-02
  -9.5312000e-02  -3.9824100e-01  -3.4699900e-02
  -8.2205100e-02  -3.9824100e-01  -4.2659000e-02
  -1.1614300e-01  -4.1623700e-01  -4.4531700e-02
  -1.2901600e-01  -4.1810700e-01  -3.9147600e-02
  -8.7588300e-02  -4.2815600e-01  -4.5702100e-02
  -1.3627100e-01  -4.2652000e-01  -5.7172500e-02
  -1.4422900e-01  -4.4241300e-01  -6.0215700e-02
  -1.0467400e-01  -4.3960800e-01  -5.6002100e-02
  -1.4188800e-01  -4.3727100e-01  -5.3895300e-02
  -1.5757000e-01  -4.5550100e-01  -5.7406600e-02
  -1.3837800e-01  -4.3212900e-01  -5.6470200e-02
  -1.3346300e-01  -4.5316400e-01  -5.6236200e-02
  -1.6295300e-01  -4.4311400e-01  -5.9513400e-02
  -1.5920800e-01  -4.2675400e-01  -6.6067900e-02
  -1.3510100e-01  -4.4358200e-01  -7.5431500e-02
  -1.6950700e-01  -4.2371600e-01  -7.4963300e-02
  -1.8191100e-01  -4.2862400e-01  -7.7070100e-02
  -1.5335700e-01  -4.3353200e-01  -8.0815600e-02
  -1.7676200e-01  -4.2278100e-01  -8.0815600e-02
  -1.9595400e-01  -4.1670400e-01  -8.5029200e-02
  -1.8448600e-01  -4.0805700e-01  -8.5497400e-02
  -1.9618900e-01  -3.9426800e-01  -8.5029200e-02
  -2.0344400e-01  -3.9239800e-01  -9.3222300e-02
  -2.1538100e-01  -3.9683800e-01  -9.7201800e-02
  -2.2216800e-01  -3.7650500e-01  -9.7201800e-02
  -2.2287000e-01  -3.7089600e-01  -1.0422500e-01
  -2.4814800e-01  -3.7113000e-01  -1.0960900e-01
  -2.5048900e-01  -3.7159700e-01  -1.1546100e-01
  -2.3574300e-01  -3.5921000e-01  -1.2388800e-01
  -2.7834100e-01  -3.2789200e-01  -1.2529300e-01
  -2.7436200e-01  -3.3069700e-01  -1.2833600e-01
  -2.4182900e-01  -3.2251700e-01  -1.2997400e-01
  -2.8934100e-01  -3.0592300e-01  -1.3067700e-01
  -2.9098000e-01  -2.8746000e-01  -1.3723100e-01
  -2.6500000e-01  -2.6736000e-01  -1.3489000e-01
  -2.8068100e-01  -2.7554000e-01  -1.2903800e-01
  -3.0034200e-01  -2.4375500e-01  -1.1827000e-01
  -2.8372400e-01  -2.2412300e-01  -1.1054500e-01
  -2.6383000e-01  -2.1173600e-01  -1.0797000e-01
  -2.9683100e-01  -1.8345600e-01  -1.0211800e-01
  -2.8466000e-01  -1.7434200e-01  -9.1115500e-02
  -2.4580800e-01  -1.4629600e-01  -7.6367900e-02
  -2.7342600e-01  -1.3811600e-01  -7.3792900e-02
  -2.8044700e-01  -1.1614600e-01  -6.6770200e-02
  -2.2170000e-01  -1.0469400e-01  -6.3024800e-02
  -2.3199800e-01  -1.0025400e-01  -6.3961100e-02
  -2.5797800e-01  -8.0154300e-02  -4.3127100e-02
  -1.8050700e-01  -7.8985700e-02  -2.9315800e-02
  -1.7910300e-01  -5.8418800e-02  -2.6038600e-02
  -2.1046600e-01  -5.5146700e-02  -1.5270500e-02
  -1.3205800e-01  -5.4211900e-02  -7.3114200e-03
  -1.2176000e-01  -4.0656400e-02   4.8612500e-03
  -1.3205800e-01  -4.5798100e-02   1.2820300e-02
  -6.9098200e-02  -3.8786700e-02   1.2118000e-02
  -5.5757200e-02  -3.6215800e-02   9.3089500e-03
  -3.5160600e-02  -4.5330700e-02   1.1649800e-02
   4.8623100e-03  -1.1675700e-02   3.0377000e-02
   1.6564900e-02  -1.2610600e-02   4.3486000e-02
   5.7055900e-02  -2.7100900e-02   3.3420200e-02
   7.9056800e-02   9.4491900e-04   2.9206600e-02
   9.2865900e-02   5.3855100e-03   4.9572400e-02
   1.4248500e-01   2.1979300e-02   6.3383700e-02
   1.4365500e-01   2.6653600e-02   6.6426800e-02
   1.5278300e-01   3.8339400e-02   7.0640400e-02
   2.1199800e-01   6.0542300e-02   7.6258600e-02
   2.0357300e-01   6.0074900e-02   8.7260800e-02
   2.0474300e-01   9.0457900e-02   1.0083800e-01
   2.6232000e-01   9.3262500e-02   1.1090400e-01
   2.5997900e-01   9.5833300e-02   1.1254200e-01
   2.5178700e-01   1.3322800e-01   1.2190600e-01
   2.9906600e-01   1.3463000e-01   1.2612000e-01
   3.1615200e-01   1.4351100e-01   1.2331100e-01
   3.0304500e-01   1.5028900e-01   1.3009900e-01
   3.2621600e-01   1.5893600e-01   1.3478100e-01
   3.5500400e-01   1.8371000e-01   1.4227200e-01
   3.5570700e-01   1.7459500e-01   1.3829200e-01
   3.5617500e-01   1.8254200e-01   1.4016500e-01
   3.8777200e-01   1.9399400e-01   1.5304000e-01
   4.0064500e-01   1.8885200e-01   1.4391100e-01
   3.7770700e-01   2.0310900e-01   1.4812400e-01
   4.1141100e-01   2.0521200e-01   1.5163500e-01
   4.3013500e-01   2.0684800e-01   1.4274000e-01
   3.9596300e-01   2.1339200e-01   1.4063300e-01
   4.2428400e-01   1.9539600e-01   1.3665400e-01
   4.4464600e-01   2.1128900e-01   1.3056700e-01
   4.1749600e-01   2.0895200e-01   1.1722400e-01
   4.2896500e-01   1.8254200e-01   1.1628800e-01
   4.4090100e-01   2.1409300e-01   1.2026700e-01
   4.3271000e-01   2.1572900e-01   1.0996800e-01
   4.2943300e-01   2.0614700e-01   9.9667600e-02
   4.2802900e-01   2.0825000e-01   1.0434900e-01
   4.5166800e-01   2.0754900e-01   9.5453900e-02
   4.3575200e-01   2.2390900e-01   7.4854100e-02
   4.1445400e-01   2.1736500e-01   6.9001800e-02
   4.5798700e-01   2.1456100e-01   6.1510900e-02
   4.3715700e-01   2.1012000e-01   5.3786000e-02
   4.1375100e-01   2.2227300e-01   3.9740600e-02
   4.5822100e-01   2.3466000e-01   2.6865700e-02
   4.4581700e-01   2.0521200e-01   2.1013400e-02
   4.2498600e-01   2.1970200e-01   1.8438400e-02
   4.4464600e-01   2.3045300e-01   1.6097600e-02
   4.5705100e-01   2.2087100e-01  -5.2281600e-04
   4.4768900e-01   2.2554500e-01  -6.3750600e-03
   4.3926300e-01   2.2390900e-01  -5.4636500e-05
   4.6547700e-01   2.3255700e-01   2.0521700e-03
   4.6664700e-01   2.3699700e-01  -1.4591700e-03
   4.5494500e-01   2.3676400e-01  -8.9500400e-03
   4.7694600e-01   2.4471000e-01  -1.3631800e-02
   4.8209500e-01   2.5242300e-01  -1.9952300e-02
   4.7741400e-01   2.4377500e-01  -1.8313600e-02
   4.9028700e-01   2.7088600e-01  -1.3163700e-02
   5.0573400e-01   2.7322300e-01  -1.9015900e-02
   4.9028700e-01   2.6667900e-01  -2.8847700e-02
   4.8420100e-01   2.9566000e-01  -2.6974900e-02
   5.1509600e-01   2.9519200e-01  -2.5804500e-02
   5.0152100e-01   3.0711200e-01  -3.0954500e-02
   4.7694600e-01   3.1295500e-01  -3.7274900e-02
   5.0269100e-01   3.1833000e-01  -4.2659000e-02
   5.0573400e-01   3.3235300e-01  -4.4063500e-02
   4.6664700e-01   3.3328800e-01  -5.7172500e-02
   4.7718000e-01   3.5151800e-01  -5.4129300e-02
   4.8747800e-01   3.6437200e-01  -5.9279300e-02
   4.4885900e-01   3.5175200e-01  -7.4729200e-02
   4.5705100e-01   3.7278600e-01  -6.4897500e-02
   4.6992400e-01   3.9078200e-01  -7.2622400e-02
   4.2802900e-01   3.7185100e-01  -8.8774600e-02
   4.1726200e-01   3.7979700e-01  -8.9945100e-02
   4.4885900e-01   3.9522300e-01  -8.5263300e-02
   4.0438900e-01   3.9031500e-01  -8.3858700e-02
   3.6530300e-01   3.8026500e-01  -8.9476900e-02
   4.0345300e-01   3.9709200e-01  -8.9711000e-02
   3.8075000e-01   4.0129900e-01  -9.1817800e-02
   3.2364100e-01   3.8283600e-01  -9.4861000e-02
   3.3651400e-01   3.9358700e-01  -9.3924600e-02
   3.3745000e-01   3.8377100e-01  -9.9074600e-02
   2.6770300e-01   3.7559100e-01  -1.0141500e-01
   2.5225500e-01   3.7325300e-01  -9.7904100e-02
   2.6840500e-01   3.5455600e-01  -9.4861000e-02
   2.0919000e-01   3.6694300e-01  -9.9776800e-02
   1.5418800e-01   3.5338800e-01  -9.6967800e-02
   1.6635800e-01   3.3211900e-01  -8.9242800e-02
   1.3991000e-01   3.3375500e-01  -8.9945100e-02
   6.6418000e-02   3.0664500e-01  -9.1115500e-02
   6.1502900e-02   3.0056800e-01  -9.5797300e-02
   4.7693900e-02   2.9939900e-01  -1.0047900e-01
  -2.2287700e-02   2.7205500e-01  -1.0469300e-01
  -3.4926600e-02   2.7158700e-01  -1.0235200e-01
  -3.7267100e-02   2.6130400e-01  -1.0797000e-01
  -1.0467400e-01   2.2858400e-01  -1.1780200e-01
  -1.2901600e-01   2.1035400e-01  -1.2622900e-01
  -1.2246200e-01   2.0754900e-01  -1.2997400e-01
  -1.6342100e-01   1.8160700e-01  -1.2084500e-01
  -2.0601900e-01   1.7038800e-01  -1.1288600e-01
  -2.1304000e-01   1.5659900e-01  -1.1686500e-01
  -2.2287000e-01   1.4140800e-01  -1.2903800e-01
  -2.6757400e-01   1.4795200e-01  -1.2037700e-01
  -2.8349000e-01   1.0074100e-01  -1.0352200e-01
  -2.9191600e-01   9.9105300e-02  -8.9008700e-02
  -3.2117200e-01   9.9339100e-02  -8.6901900e-02
  -3.3427900e-01   7.5733800e-02  -9.9776800e-02
  -3.4855600e-01   7.7837200e-02  -8.2454200e-02
  -3.7055700e-01   6.6618900e-02  -5.9981600e-02
  -3.9747300e-01   5.9607500e-02  -5.1554400e-02
  -4.1315500e-01   5.1894800e-02  -4.3595300e-02
  -4.0051600e-01   4.9090300e-02  -4.5936200e-02
  -4.3843200e-01   3.0393000e-02  -3.3763500e-02
  -4.9249900e-01   1.3098100e-02  -8.9500400e-03
  -4.4779500e-01   1.0059800e-02   3.4567100e-03
  -4.8126400e-01   2.4082700e-02   1.0479400e-02
  -5.5335200e-01  -1.5181400e-02   1.7970300e-02
  -5.0654200e-01  -1.9855700e-02   2.5227000e-02
  -5.3181900e-01  -1.7752300e-02   3.8570200e-02
  -5.9431100e-01  -6.1924500e-02   4.2783800e-02
  -5.7348100e-01  -4.3227300e-02   4.4422400e-02
  -5.7207600e-01  -8.3426300e-02   4.6295100e-02
  -6.2356800e-01  -9.7449200e-02   4.4890600e-02
  -6.4837700e-01  -9.7916600e-02   5.6126900e-02
  -6.2099300e-01  -1.4442600e-01   5.7063200e-02
  -6.4744100e-01  -1.5003500e-01   5.6829200e-02
  -6.9518800e-01  -1.7083600e-01   6.0106400e-02
  -6.7014400e-01  -1.9093500e-01   6.1042800e-02
  -6.8418700e-01  -2.1734500e-01   6.7597300e-02
  -7.2467800e-01  -2.4913000e-01   7.7195000e-02
  -7.1835900e-01  -2.3978200e-01   8.0706300e-02
  -7.1859300e-01  -2.7156700e-01   7.9301800e-02
  -7.4129600e-01  -3.0849400e-01   8.0706300e-02
  -7.5440300e-01  -3.0849400e-01   8.0472200e-02
  -7.5019000e-01  -3.4051300e-01   8.3047200e-02
  -7.5557300e-01  -3.3887700e-01   9.1942600e-02
  -7.6727600e-01  -3.5126400e-01   8.4919900e-02
  -7.7289300e-01  -3.7814100e-01   7.4151800e-02
  -7.5346700e-01  -3.7440200e-01   7.6960900e-02
  -7.5674300e-01  -3.8725600e-01   6.8065500e-02
  -7.8085100e-01  -3.8188100e-01   6.6660900e-02
  -7.3848700e-01  -4.0104500e-01   7.0640400e-02
  -7.2584900e-01  -3.9590400e-01   7.2045000e-02
  -7.5955200e-01  -3.7673900e-01   7.1342700e-02
  -7.1040100e-01  -3.8538600e-01   6.0808700e-02
  -6.8231500e-01  -3.8001100e-01   5.6361000e-02
  -7.1999700e-01  -3.8351700e-01   5.9638200e-02
  -6.7997400e-01  -3.4892700e-01   5.9872300e-02
  -6.2544000e-01  -3.4752500e-01   4.9572400e-02
  -6.5329200e-01  -3.4191500e-01   3.6697400e-02
  -6.3222800e-01  -3.1153200e-01   2.6163400e-02
  -5.6950200e-01  -3.2088100e-01   1.9843000e-02
  -5.7277800e-01  -2.8956300e-01   4.3930700e-03
  -5.6294800e-01  -2.7343700e-01  -3.8000700e-03
  -5.1543600e-01  -2.7203500e-01  -5.6727900e-03
  -4.8079600e-01  -2.6549000e-01  -2.5570400e-02
  -4.8992400e-01  -2.3978200e-01  -3.5402200e-02
  -4.5153900e-01  -2.1921500e-01  -3.8679400e-02
  -3.9302600e-01  -2.3744500e-01  -4.9447600e-02
  -4.1268700e-01  -2.1126900e-01  -5.1086200e-02
  -3.7570700e-01  -2.1197000e-01  -4.7574800e-02
  -3.2257700e-01  -2.1126900e-01  -5.1788500e-02
  -3.2679000e-01  -1.8836400e-01  -6.0449800e-02
  -3.0829900e-01  -2.0776300e-01  -6.1386100e-02
  -2.6523400e-01  -1.9420700e-01  -4.4765800e-02
  -2.5774400e-01  -1.7878200e-01  -3.5402200e-02
  -2.5282900e-01  -1.8532600e-01  -4.3829400e-02
  -2.1467900e-01  -1.7410800e-01  -4.5936200e-02
  -1.9057100e-01  -1.7504300e-01  -5.1086200e-02
  -1.9806100e-01  -1.7036800e-01  -4.5936200e-02
  -1.9291200e-01  -1.6055200e-01  -3.1890800e-02
  -1.3556900e-01  -1.6920000e-01  -3.2359000e-02
  -1.5382500e-01  -1.5774800e-01  -3.4465800e-02
  -1.7418800e-01  -1.5354100e-01  -3.1188600e-02
  -9.6716300e-02  -1.5868300e-01  -2.2995400e-02
  -1.1661100e-01  -1.4886700e-01  -1.1525000e-02
  -1.4305900e-01  -1.6031900e-01  -3.3318900e-03
  -7.1906800e-02  -1.5424200e-01  -7.7796000e-03
  -7.0970600e-02  -1.4349100e-01  -8.2477700e-03
  -8.4779700e-02  -1.4629600e-01   8.6066800e-03
  -4.5224900e-02  -1.4068700e-01   2.7802000e-02
  -2.4394200e-02  -1.5167100e-01   2.4758900e-02
  -1.3393800e-02  -1.3811600e-01   1.3990700e-02
   1.5855800e-03  -1.4419200e-01   2.7333900e-02
   3.7395600e-02  -1.4910000e-01   3.9272400e-02
   5.3545200e-02  -1.3461000e-01   4.2549700e-02
   5.8226200e-02  -1.3951800e-01   4.1847400e-02
   1.0222800e-01  -1.1357600e-01   3.5292900e-02
   1.3710200e-01  -1.2035300e-01   3.4590600e-02
   1.3640000e-01  -1.2362500e-01   3.5995200e-02
   1.6097500e-01  -9.5345800e-02   3.6229300e-02
   2.1925400e-01  -1.0843400e-01   2.9908800e-02
   2.2510500e-01  -9.9786400e-02   1.2820300e-02
   2.4897900e-01  -7.9686900e-02   4.8612500e-03
   2.9649100e-01  -7.3844000e-02   5.0953400e-03
   3.0842800e-01  -7.0104500e-02   4.8612500e-03
   3.3183300e-01  -5.7483900e-02   7.9044100e-03
   3.6834500e-01  -2.7568300e-02   1.8180800e-03
   3.9385700e-01  -2.3127800e-02  -7.7796000e-03
   3.9502700e-01  -9.8059800e-03  -4.7364300e-03
   4.2802900e-01   9.5923800e-03   9.5430400e-03
   4.5330600e-01   3.6703400e-02   1.3054400e-02
   4.5026400e-01   5.2128600e-02  -3.3318900e-03
   4.6032800e-01   6.5216600e-02  -4.7364300e-03
   4.7273300e-01   1.0004000e-01   1.3990700e-02
   4.8022200e-01   1.1032400e-01   2.0077100e-02
   4.6992400e-01   1.3042300e-01   2.3354300e-02
   4.8022200e-01   1.6571400e-01   2.1247500e-02
   4.8630800e-01   1.7085600e-01   1.0947600e-02
   4.6805200e-01   1.8604700e-01   2.3354300e-02
   4.7039200e-01   2.1619700e-01   4.6763300e-02
   4.7811600e-01   2.2297400e-01   5.6126900e-02
   4.5424200e-01   2.3956800e-01   5.4488300e-02
   4.5517900e-01   2.4961800e-01   5.5658700e-02
   4.7226400e-01   2.6036900e-01   7.2279100e-02
   4.4511400e-01   2.6971700e-01   9.4517600e-02
   4.4347600e-01   2.8070200e-01   1.0434900e-01
   4.5962600e-01   2.8584400e-01   1.0434900e-01
   4.4464600e-01   2.8631100e-01   1.0645600e-01
   4.4909300e-01   2.9402400e-01   1.1979900e-01
   4.5681700e-01   2.9425800e-01   1.3993100e-01
   4.4441200e-01   3.1505800e-01   1.5444500e-01
   4.6383900e-01   2.8584400e-01   1.4414500e-01
   4.5775300e-01   2.9355600e-01   1.3922900e-01
   4.6079600e-01   3.2183600e-01   1.5233800e-01
   4.9286100e-01   2.9332300e-01   1.4882600e-01
   4.5588100e-01   2.9963300e-01   1.4157000e-01
   4.6594500e-01   2.8981700e-01   1.3688800e-01
   4.9777600e-01   3.0687800e-01   1.2986500e-01
   4.5120000e-01   3.1178600e-01   1.1582000e-01
   4.5213600e-01   2.9075200e-01   1.1207400e-01
   4.8958400e-01   3.1552600e-01   1.0388100e-01
   4.4207200e-01   3.1342200e-01   7.7195000e-02
   4.1164500e-01   3.1552600e-01   6.8767700e-02
   4.4745500e-01   3.2767900e-01   7.0874500e-02
