**************************************************************************************
  	RED ACELEROGRÁFICA DE LA UNIVERSIDAD AUTONOMA METROPOLITANA (RA-UAM)
	   UNIDAD AZCAPOTZALCO. DIVISIÓN CBI-DEPARTAMENTO DE MATERIALES
     Av. San Pablo 420, Col. Nueva el Rosario, Azcapotzalco, C.P. 02128, Ciudad de México
		Área de Estructuras. e-mail: agb@azc.uam.mx
**************************************************************************************
ARCHIVO ESTANDAR DE ACELERACION:
VERSION DEL FORMATO                    : 2.0
NOMBRE DEL ARCHIVO                     : RUML202210.271
FECHA Y HORA DE CREACION               : 11:30 a. m. 03/11/2022
REF. CATALOGO ACELEROGRAMAS, SMIS 1999 : REGISTRO NO.      /PAG.    


================================================================================
DATOS DE LA ESTACION:
NOMBRE DE LA ESTACION                  : UAM-LERMA.
CLAVE DE LA ESTACION                   : RUML
LOCALIZACION DE LA ESTACION            : AV. DE LAS GARZAS 10, EL PANTEON, C.P.52005,
                                       : LERMA DE VILLADA, ESTADO DE MEXICO.   
                                       : 
                                       : 
                                       : 
COORDENADAS DE LA ESTACION             : 19.291278 LAT. N
                                       : 99.500578 LONG. W
ALTITUD (msnm)                         : 2570
TIPO DE SUELO                          : DEPOSITOS LACUSTRES
                                       : 
                                       : 
INSTITUCION RESPONSABLE                : UNIVERSIDAD AUTONOMA METROPOLITANA
                                       : 

================================================================================
DATOS DEL ACELEROGRAFO: 
MODELO DEL ACELEROGRAFO                : ETNA2 KINEMETRICS
NUMERO DE SERIE DEL ACELEROGRAFO       : 103733
NUMERO DE CANALES                      : 3
ORIENTACION C1-C6 (rumbo;orientacion)  : /N90E/N00E/V 
ORIENTACION C7-C12 (rumbo;orientacion) : 
VEL. DE MUESTREO, C1-C6 (muestras/s)   : /200/200/200
VEL. DE MUESTREO, C7-C12 (muestras/s)  : 
ESC. COMPLETA DE SENSORES, C1-C6, (g)  : /2/2/2
ESC. COMPLETA DE SENSORES, C7-C12 (g)  : 
FREC. NAT. DE SENSORES, C1-C6, (Hz)    : /212/206/208   
FREC. NAT. DE SENSORES, C7-C12 (Hz)    : 
AMORTIGUAMIENTO DE SENSORES, C1-C6     : /0.7/0.7/0.7      
AMORTIGUAMIENTO DE SENSORES, C7-C12    : 
INTERVALO DE MUESTREO, C1-C6 (s)       : /0.005/0.005/0.005
INTERVALO DE MUESTREO, C7-C12 (s)      : 
UMBRAL DE DISPARO, C1-C6 (Gal)         : /2/2/2
UMBRAL DE DISPARO, C7-C12 (Gal)        : 
MEMORIA DE PREEVENTO (s)               : 50
TIEMPO DE POSEVENTO (s)                : 60


================================================================================
DATOS DEL SISMO:
FECHA DEL SISMO [GMT]                  : 2022/10/27
HORA EPICENTRO (GMT)                   : 08:45:22
MAGNITUD(ES)                           : /M=4.9
COORDENADAS DEL EPICENTRO              : 15.9300 LAT. N
                                       : -99.2200 LONG. W
PROFUNDIDAD FOCAL (Km)                 : 9.0
FUENTE DE LOS DATOS EPICENTRALES       : SSN
                                       : INSTITUTO DE GEOFISICA, UNAM

================================================================================
DATOS DE ESTE REGISTRO:
HORA DE LA PRIMERA MUESTRA (GMT)       : 08:46:25.000
EXACTITUD DEL TIEMPO (s)               : 
DURACION DEL REGISTRO (s), C1-C6       : /130/130/130
DURACION DEL REGISTRO (s), C7-C12      : 
NUM. TOTAL DE MUESTRAS, C1-C6          : /26000/26000/26000
NUM. TOTAL DE MUESTRAS, C7-C12         : 
ACEL. MAX.(Gal), C1-C6                 : /-0.504/-0.424/-0.206
ACEL. MAX., C1-C6, EN LA MUESTRA       : /12648/13825/15612
ACEL. MAX.(Gal), C7-C12                : 
ACEL. MAX., C7-C12,EN LA MUESTRA       : 
UNIDADES DE LOS DATOS                  : Gal (cm/s/s)
FACTOR DE DECIMACION                   : 1
FORMATO DATOS (FORTRAN,16 campos/dato) : 3E16.7


================================================================================
CALIDAD DEL ACELEROGRAMA:
REGISTRO DIGITAL COMPLETO CON TIEMPO ABSOLUTO CORRECTO


================================================================================
COMENTARIOS:














================================================================================
DATOS DE ACELERACION:
---------+---------+---------+---------+---------+---------+---------+---------+
   CANAL-1   	     CANAL-2          CANAL-3
     N90E              N00E              V
---------+---------+---------+---------+---------+---------+---------+---------+
[...]
  -1.0534900e-01   1.7992800e-01  -9.6518100e-03
  -1.1283900e-01   1.9324900e-01  -6.3745600e-03
  -6.4858100e-02   1.8483600e-01  -1.2460900e-02
  -8.4752500e-02   1.8203100e-01  -1.9717700e-02
  -1.1190300e-01   1.9395100e-01  -1.3163200e-02
  -6.2985700e-02   1.8810800e-01  -3.0973000e-03
  -7.3049900e-02   1.7829200e-01  -2.3950300e-03
  -1.0745600e-01   1.8647200e-01  -4.0336600e-03
  -7.2347800e-02   2.0049500e-01  -7.3109200e-03
  -6.6730500e-02   1.7712300e-01  -1.1758600e-02
  -9.9029700e-02   1.7478600e-01  -6.1404700e-03
  -7.9603400e-02   1.7735700e-01  -6.1404700e-03
  -6.0879200e-02   1.7735700e-01  -1.7376800e-02
  -9.2008100e-02   1.7548700e-01  -2.1356300e-02
  -8.6156800e-02   1.6356800e-01  -1.5738100e-02
  -6.1815400e-02   1.7525300e-01  -7.0768300e-03
  -8.3582300e-02   1.6310000e-01  -1.0354100e-02
  -8.6624900e-02   1.6310000e-01  -1.9483600e-02
  -6.0177000e-02   1.5328400e-01  -1.5738100e-02
  -7.0943400e-02   1.4697400e-01  -1.1524500e-02
  -8.1943900e-02   1.5211600e-01  -9.1836300e-03
  -7.5156400e-02   1.4440300e-01  -1.3163200e-02
  -6.4624000e-02   1.4183200e-01  -1.8547200e-02
  -6.7666700e-02   1.3832600e-01  -2.7676700e-02
  -8.4284400e-02   1.3271700e-01  -2.9081300e-02
  -6.0879200e-02   1.1799300e-01  -1.9483600e-02
  -5.2219300e-02   1.1472100e-01  -3.0017600e-02
  -8.1007700e-02   1.1074800e-01  -3.6572100e-02
  -6.7666700e-02   1.1121500e-01  -3.7508500e-02
  -4.2389100e-02   1.0373700e-01  -3.5869900e-02
  -7.0475300e-02   8.9713600e-02  -3.8210800e-02
  -6.9539100e-02   9.4387900e-02  -4.3594800e-02
  -3.4899400e-02   8.6207900e-02  -4.7808400e-02
  -5.5027900e-02   6.5874700e-02  -5.5065200e-02
  -6.7900800e-02   6.4939800e-02  -4.5233400e-02
  -3.7005900e-02   6.1434100e-02  -3.7742600e-02
  -3.5601600e-02   4.7411200e-02  -4.3594800e-02
  -6.2049500e-02   5.2552900e-02  -4.8510700e-02
  -3.7474000e-02   4.2503100e-02  -4.3126600e-02
  -1.4068800e-02   2.0767600e-02  -3.5401700e-02
  -5.2687400e-02   2.9181400e-02  -3.2358500e-02
  -3.4431300e-02   1.8430500e-02  -3.5167600e-02
   3.9532500e-03   7.2121300e-03  -4.0785700e-02
  -3.4431300e-02   1.3288700e-02  -3.6103900e-02
  -2.9516200e-02   2.5378200e-03  -3.2124400e-02
   1.0740800e-02  -5.1747800e-03  -3.3294900e-02
  -8.4515200e-03  -1.5224500e-02  -3.6572100e-02
  -1.5239000e-02  -1.6860500e-02  -4.1722100e-02
   9.1024000e-03  -2.4339400e-02  -3.4231200e-02
   1.0974800e-02  -3.1117200e-02  -3.3529000e-02
   8.8683400e-03  -3.6960100e-02  -4.0083500e-02
   1.5889900e-02  -4.8412100e-02  -3.7976700e-02
   3.1571400e-02  -3.8128600e-02  -4.1019800e-02
   3.6252400e-02  -5.7293300e-02  -4.2658500e-02
   2.5954200e-02  -7.3653400e-02  -3.0719900e-02
   4.7252900e-02  -5.6592100e-02  -2.2292700e-02
   6.2700300e-02  -6.8044200e-02  -3.3997100e-02
   4.0699400e-02  -8.6040300e-02  -3.2358500e-02
   6.2466300e-02  -8.6274000e-02  -1.5972200e-02
   9.0318500e-02  -8.1132200e-02  -1.6206300e-02
   6.4572800e-02  -9.3051700e-02  -1.7610900e-02
   7.9552100e-02  -1.0403600e-01  -1.1056400e-02
   1.1653200e-01  -1.0380300e-01  -9.4177200e-03
   9.7574100e-02  -1.0450400e-01  -1.1056400e-02
   9.2893100e-02  -1.0450400e-01  -4.5018400e-03
   1.3572500e-01  -1.1525500e-01  -2.1609400e-03
   1.3455400e-01  -1.2179900e-01  -5.9063800e-03
   1.1091500e-01  -1.1291800e-01  -2.3950300e-03
   1.5000200e-01  -1.1619000e-01   5.3299200e-03
   1.7317300e-01  -1.3348400e-01   1.3991200e-02
   1.4321400e-01  -1.2016300e-01   1.2586700e-02
   1.6662000e-01  -1.2016300e-01   1.2118500e-02
   2.0008900e-01  -1.3301700e-01   2.2418500e-02
   1.7200300e-01  -1.2483700e-01   2.6632100e-02
   1.8698200e-01  -1.1922800e-01   3.0845700e-02
   2.1717500e-01  -1.1338500e-01   3.1548000e-02
   2.0921700e-01  -1.2250000e-01   2.7334400e-02
   2.1904700e-01  -1.2460300e-01   2.9675200e-02
   2.3192000e-01  -1.0754200e-01   3.3186600e-02
   2.4713300e-01  -1.1642300e-01   3.3888900e-02
   2.4830400e-01  -1.2109800e-01   2.8738900e-02
   2.4455900e-01  -1.1595600e-01   3.4357000e-02
   2.7639000e-01  -1.1011300e-01   3.6697900e-02
   2.8036900e-01  -1.1198300e-01   3.5527500e-02
   2.6024000e-01  -1.1946200e-01   4.2316100e-02
   3.0002900e-01  -1.0660700e-01   4.3486500e-02
   3.1571100e-01  -1.0567200e-01   4.6529700e-02
   2.7966700e-01  -1.0684100e-01   5.0743300e-02
   3.1313600e-01  -1.0614000e-01   5.8000100e-02
   3.4309500e-01  -9.9829500e-02   5.3084200e-02
   3.1664700e-01  -9.5155200e-02   4.9104700e-02
   3.3443500e-01  -9.7726000e-02   5.8702400e-02
   3.6813800e-01  -8.8143700e-02   6.7129600e-02
   3.5409500e-01  -9.6090000e-02   7.1109100e-02
   3.4871200e-01  -8.7910000e-02   6.9704600e-02
   3.8288400e-01  -7.4821900e-02   7.2513700e-02
   3.8428800e-01  -9.1883100e-02   7.1109100e-02
   3.6556400e-01  -8.1366000e-02   7.6493200e-02
   3.9528800e-01  -7.5523100e-02   8.3515900e-02
   4.1050200e-01  -7.7392800e-02   7.6259100e-02
   3.8428800e-01  -6.6408200e-02   6.8534100e-02
   4.0184200e-01  -7.3653400e-02   7.5556800e-02
   4.2852400e-01  -7.4821900e-02   8.5154500e-02
   3.9833100e-01  -5.5423600e-02   7.6727300e-02
   4.0933200e-01  -6.4071000e-02   7.6025000e-02
   4.3952400e-01  -6.4538500e-02   8.0940900e-02
   4.1705500e-01  -4.7944700e-02   7.8365900e-02
   4.1963000e-01  -5.7760700e-02   7.6727300e-02
   4.3858800e-01  -5.1684100e-02   7.9302300e-02
   4.3835400e-01  -5.0983000e-02   7.5322700e-02
   4.3133300e-01  -4.9580700e-02   6.5725100e-02
   4.3156700e-01  -4.1634400e-02   7.5322700e-02
   4.4467300e-01  -4.1634400e-02   8.3515900e-02
   4.4397100e-01  -4.4906400e-02   7.5322700e-02
   4.2782200e-01  -3.7894900e-02   7.1811400e-02
   4.3929000e-01  -3.2986900e-02   7.2981800e-02
   4.4912000e-01  -4.2802900e-02   6.9002300e-02
   4.2009800e-01  -3.8829800e-02   7.0406900e-02
   4.2641700e-01  -2.9481200e-02   7.5322700e-02
   4.4701400e-01  -2.9714900e-02   6.5959100e-02
   4.2126800e-01  -4.0465800e-02   6.4554600e-02
   4.1354500e-01  -2.3638300e-02   7.2279600e-02
   4.3577900e-01  -2.1768600e-02   6.9002300e-02
   4.1822600e-01  -4.2569200e-02   6.6193200e-02
   3.9411800e-01  -2.1067400e-02   6.5256900e-02
   4.1728900e-01  -1.3822200e-02   6.7597800e-02
   4.1354500e-01  -3.7661200e-02   6.8768200e-02
   3.7352200e-01  -2.1301100e-02   6.6427300e-02
   3.9271400e-01  -1.7328000e-02   6.2916000e-02
   4.0231000e-01  -3.9998400e-02   5.3084200e-02
   3.5877600e-01  -2.5040600e-02   5.4956900e-02
   3.6603200e-01  -1.8964000e-02   6.0106900e-02
   3.8241600e-01  -3.2986900e-02   5.6361500e-02
   3.4871200e-01  -2.8312600e-02   4.9104700e-02
   3.3911600e-01  -2.8312600e-02   4.3486500e-02
   3.5362700e-01  -3.5557800e-02   4.6295600e-02
   3.3326500e-01  -3.5557800e-02   4.8870600e-02
   3.1664700e-01  -4.9580700e-02   4.9104700e-02
   3.2062600e-01  -3.9297200e-02   4.8168300e-02
   3.1500900e-01  -3.3921800e-02   4.4891100e-02
   2.9628400e-01  -5.0048100e-02   4.6061500e-02
   2.8294300e-01  -4.6542400e-02   5.4956900e-02
   2.9066700e-01  -3.6025200e-02   5.1679700e-02
   2.7732600e-01  -4.7009800e-02   4.4188800e-02
   2.4947400e-01  -5.4255000e-02   4.6295600e-02
   2.6211300e-01  -4.6075000e-02   4.9572900e-02
   2.6000600e-01  -5.1450400e-02   4.6529700e-02
   2.1904700e-01  -4.2802900e-02   4.2082000e-02
   2.2162200e-01  -4.9814400e-02   4.3252500e-02
   2.3613300e-01  -4.8178400e-02   3.5761600e-02
   1.9236500e-01  -4.2101800e-02   2.4057100e-02
   1.8019500e-01  -5.2151600e-02   2.3823000e-02
   2.1272800e-01  -5.4021300e-02   2.1482100e-02
   1.7387500e-01  -5.0983000e-02   7.2026400e-03
   1.3946900e-01  -4.2335500e-02   3.6913000e-03
   1.7902400e-01  -6.1500200e-02   9.3094500e-03
   1.5070400e-01  -5.9864200e-02   8.3730900e-03
   9.9914600e-02  -5.1450400e-02   4.1594800e-03
   1.3923500e-01  -6.9446500e-02   1.5844900e-03
   1.2097900e-01  -6.2668700e-02   4.1594800e-03
   6.7849500e-02  -5.8228100e-02   3.9253900e-03
   9.3127100e-02  -6.7109300e-02   6.2662800e-03
   7.9552100e-02  -6.7109300e-02   1.6098000e-02
   4.4210200e-02  -6.4772200e-02   9.0753600e-03
   5.0529600e-02  -6.5005900e-02   1.5844900e-03
   3.4380000e-02  -6.5239600e-02   1.0714000e-02
   2.0336900e-02  -6.7576800e-02   9.3094500e-03
   9.3364500e-03  -7.3419600e-02   4.3935700e-03
  -1.2898500e-02  -6.4538500e-02   7.6708200e-03
  -6.3450500e-03  -5.7760700e-02   1.3504000e-03
  -2.8345900e-02  -6.9680200e-02  -2.3950300e-03
  -6.1815400e-02  -6.4772200e-02   4.1594800e-03
  -4.1921000e-02  -5.6592100e-02  -4.5018400e-03
  -5.8772700e-02  -7.2484800e-02  -1.1524500e-02
  -1.0394500e-01  -6.5239600e-02  -5.9063800e-03
  -8.7795200e-02  -5.5423600e-02  -5.9063800e-03
  -9.1306000e-02  -7.0848800e-02  -1.0120000e-02
  -1.4069100e-01  -6.6408200e-02  -1.1992700e-02
  -1.4139300e-01  -5.7059600e-02  -1.5035900e-02
  -1.2875400e-01  -6.8044200e-02  -2.4165400e-02
  -1.7065000e-01  -8.1599700e-02  -2.2292700e-02
  -1.9405500e-01  -6.6408200e-02  -2.0888100e-02
  -1.6830900e-01  -6.5005900e-02  -2.9783500e-02
  -2.0037400e-01  -7.9496200e-02  -3.5869900e-02
  -2.3805700e-01  -7.5289400e-02  -3.3529000e-02
  -2.0903400e-01  -7.8093900e-02  -2.6272200e-02
  -2.3290800e-01  -7.8327700e-02  -3.1422200e-02
  -2.7620700e-01  -7.6925400e-02  -3.5401700e-02
  -2.5490800e-01  -8.2534500e-02  -3.2124400e-02
  -2.6239800e-01  -8.7208800e-02  -3.3060800e-02
  -3.0546400e-01  -7.1549900e-02  -3.3763000e-02
  -3.0054900e-01  -7.8561400e-02  -3.4231200e-02
  -2.9493100e-01  -9.1182000e-02  -3.3060800e-02
  -3.2512400e-01  -7.1082500e-02  -3.6572100e-02
  -3.3776300e-01  -8.0431100e-02  -4.0083500e-02
  -3.3893300e-01  -8.4871700e-02  -2.9783500e-02
  -3.4572100e-01  -7.6457900e-02  -3.6338000e-02
  -3.6678500e-01  -8.0431100e-02  -4.7574300e-02
  -3.8176500e-01  -7.3419600e-02  -4.1253900e-02
  -3.6210400e-01  -7.7860200e-02  -4.6403900e-02
  -3.8668000e-01  -8.0898500e-02  -4.9447100e-02
  -4.2038300e-01  -6.6408200e-02  -5.0617500e-02
  -3.8363700e-01  -7.5523100e-02  -5.9278800e-02
  -4.0259500e-01  -8.0898500e-02  -6.9110600e-02
  -4.5151200e-01  -6.3837300e-02  -7.1919700e-02
  -4.1546800e-01  -7.2251100e-02  -6.8642400e-02
  -4.1593600e-01  -7.9496200e-02  -7.4728700e-02
  -4.6859800e-01  -6.8044200e-02  -7.8240100e-02
  -4.4659700e-01  -7.1783600e-02  -7.7771900e-02
  -4.2951100e-01  -7.4821900e-02  -7.5196900e-02
  -4.7585400e-01  -6.8044200e-02  -7.4728700e-02
  -4.7117300e-01  -6.5473300e-02  -7.3558300e-02
  -4.4753300e-01  -6.6875600e-02  -7.1217400e-02
  -4.7538600e-01  -6.6875600e-02  -7.6367400e-02
  -4.9130100e-01  -6.0097900e-02  -7.5196900e-02
  -4.6391700e-01  -6.3837300e-02  -7.0281000e-02
  -4.6930000e-01  -6.3603600e-02  -7.0749200e-02
  -5.0089700e-01  -5.0515500e-02  -7.2387800e-02
  -4.7866200e-01  -5.5891000e-02  -7.1217400e-02
  -4.7327900e-01  -6.0097900e-02  -6.7003800e-02
  -5.0440800e-01  -4.8178400e-02  -6.9110600e-02
  -4.9317400e-01  -5.3320100e-02  -6.8408300e-02
  -4.7866200e-01  -4.7944700e-02  -6.7706100e-02
  -4.9902500e-01  -4.1634400e-02  -7.6133300e-02
  -5.0066300e-01  -4.9814400e-02  -7.0281000e-02
  -4.8942900e-01  -3.8128600e-02  -6.6769700e-02
  -4.9036500e-01  -3.3220600e-02  -7.6133300e-02
  -4.9645000e-01  -4.4205200e-02  -7.6601500e-02
  -5.0042900e-01  -3.2052000e-02  -7.2153800e-02
  -4.7749200e-01  -1.9197700e-02  -7.6133300e-02
  -4.8428000e-01  -4.3971500e-02  -7.7771900e-02
  -5.0417400e-01  -2.0833700e-02  -7.2387800e-02
  -4.6415100e-01  -1.1251400e-02  -7.4728700e-02
  -4.6298100e-01  -2.8312600e-02  -7.8942400e-02
  -4.9317400e-01  -1.1251400e-02  -7.1685600e-02
  -4.5806600e-01  -2.1364800e-03  -6.5365200e-02
  -4.4589500e-01  -4.9410600e-03  -7.2153800e-02
  -4.7702400e-01  -1.1952500e-02  -7.1451500e-02
  -4.5525700e-01   1.6560700e-02  -6.8642400e-02
  -4.2717100e-01  -4.4736300e-03  -6.8642400e-02
  -4.5759800e-01  -1.4353400e-03  -6.7003800e-02
  -4.4987400e-01   2.2403600e-02  -6.6769700e-02
  -4.1195700e-01   6.6810200e-04  -6.4194700e-02
  -4.2997900e-01   2.2169900e-02  -6.5599200e-02
  -4.3068200e-01   1.9832800e-02  -6.2790200e-02
  -3.9604200e-01   1.6327000e-02  -6.0449300e-02
  -3.9299900e-01   1.7261900e-02  -6.3726500e-02
  -4.0423400e-01   2.4740800e-02  -6.1619700e-02
  -3.7919000e-01   3.0817400e-02  -5.7406100e-02
  -3.5882800e-01   2.0767600e-02  -5.1085700e-02
  -3.7099800e-01   3.8296300e-02  -4.6403900e-02
  -3.5297600e-01   3.0116200e-02  -4.1019800e-02
  -3.2933700e-01   3.2219700e-02  -3.1422200e-02
  -3.3308200e-01   3.8296300e-02  -2.9549400e-02
  -3.2395400e-01   3.2219700e-02  -2.2526700e-02
  -3.0874000e-01   4.3204300e-02  -1.3397200e-02
  -2.8931400e-01   4.2503100e-02  -1.6440400e-02
  -2.8744200e-01   3.9698600e-02  -1.8313100e-02
  -2.8556900e-01   4.2035700e-02  -1.7845000e-02
  -2.4133300e-01   4.3204300e-02  -1.5035900e-02
  -2.4250400e-01   3.1985900e-02  -1.4801800e-02
  -2.5514200e-01   4.3204300e-02  -1.2460900e-02
  -2.0107600e-01   4.2970600e-02  -9.1836300e-03
  -1.9709800e-01   2.7311600e-02  -8.2472800e-03
  -2.2331100e-01   5.1150600e-02  -1.2245900e-03
  -1.6760700e-01   4.6476300e-02  -2.1609400e-03
  -1.4888300e-01   2.9882500e-02   3.9253900e-03
  -1.8328800e-01   4.5775200e-02   1.4459400e-02
  -1.3694600e-01   4.5775200e-02   8.8412700e-03
  -1.0698700e-01   3.9932300e-02   1.6098000e-02
  -1.3460600e-01   4.9514600e-02   1.5864000e-02
  -1.0277500e-01   4.7644900e-02   1.4459400e-02
  -6.4390000e-02   5.2552900e-02   1.4459400e-02
  -7.6560700e-02   5.1150600e-02   3.6913000e-03
  -6.7432700e-02   4.1334600e-02   6.5003700e-03
  -3.0686500e-02   5.0215700e-02   8.1390000e-03
  -2.6005400e-02   4.8346000e-02   4.3935700e-03
  -2.7409700e-02   3.9464800e-02   3.2231200e-03
   5.8256700e-03   4.8579700e-02   1.0011700e-02
   2.1741200e-02   5.5591200e-02   5.3299200e-03
   1.7996400e-02   4.0166000e-02   6.4813100e-04
   3.7890800e-02   3.9932300e-02   7.6708200e-03
   6.0593900e-02   4.2736900e-02   6.9685500e-03
   5.8487400e-02   5.2786600e-02   1.8185800e-03
   6.9721900e-02   3.3855700e-02   2.9890300e-03
   9.1020700e-02   2.9415100e-02   1.2586700e-02
   9.9914600e-02   6.1901500e-02   8.1390000e-03
   1.0740400e-01   2.3805900e-02   5.0958300e-03
   1.1653200e-01   3.2687100e-02   1.5395800e-02
   1.4836300e-01   4.5775200e-02   1.7736700e-02
   1.4883200e-01   1.7261900e-02   1.7034400e-02
   1.4040600e-01   3.7595100e-02   2.3588900e-02
   1.8674800e-01   4.1568300e-02   2.7334400e-02
   1.8698200e-01   3.0583700e-02   1.8438900e-02
   1.6474700e-01   4.2736900e-02   1.8673000e-02
   2.1132300e-01   4.1334600e-02   2.3354800e-02
   2.2372800e-01   2.6376800e-02   1.1182200e-02
   1.9681200e-01   3.6894000e-02   2.9890300e-03
   2.3379200e-01   4.3204300e-02   1.3504000e-03
   2.5860200e-01   2.6143100e-02   1.8185800e-03
   2.3004800e-01   3.3388200e-02   6.4813100e-04
   2.4877200e-01   4.6008900e-02  -2.1609400e-03
   2.8036900e-01   3.3855700e-02  -1.9268600e-03
   2.6421900e-01   2.7545400e-02  -3.7995700e-03
   2.6632600e-01   3.3622000e-02  -3.7995700e-03
   2.9675300e-01   3.8763700e-02  -2.3950300e-03
   3.0096500e-01   1.9599000e-02   1.8185800e-03
   2.8949700e-01   2.5675600e-02   3.2231200e-03
   3.1337000e-01   4.0399700e-02   3.6913000e-03
   3.2788100e-01   2.3805900e-02   3.9253900e-03
   3.1805100e-01   2.8713900e-02   8.8412700e-03
   3.3022200e-01   2.9415100e-02   9.5435400e-03
   3.4613800e-01   3.1985900e-02   8.8222100e-04
   3.5175500e-01   3.2453400e-02  -2.8632100e-03
   3.4496700e-01   2.0533900e-02  -7.5640700e-04
