**************************************************************************************
  	RED ACELEROGRÁFICA DE LA UNIVERSIDAD AUTONOMA METROPOLITANA (RA-UAM)
	   UNIDAD AZCAPOTZALCO. DIVISIÓN CBI-DEPARTAMENTO DE MATERIALES
     Av. San Pablo 420, Col. Nueva el Rosario, Azcapotzalco, C.P. 02128, Ciudad de México
		Área de Estructuras. e-mail: agb@azc.uam.mx
**************************************************************************************
ARCHIVO ESTANDAR DE ACELERACION:
VERSION DEL FORMATO                    : 2.0
NOMBRE DEL ARCHIVO                     : RUML202209.241
FECHA Y HORA DE CREACION               : 11:30 a. m. 30/09/2022
REF. CATALOGO ACELEROGRAMAS, SMIS 1999 : REGISTRO NO.      /PAG.    


================================================================================
DATOS DE LA ESTACION:
NOMBRE DE LA ESTACION                  : UAM-LERMA.
CLAVE DE LA ESTACION                   : RUML
LOCALIZACION DE LA ESTACION            : AV. DE LAS GARZAS 10, EL PANTEON, C.P.52005,
                                       : LERMA DE VILLADA, ESTADO DE MEXICO.   
                                       : 
                                       : 
                                       : 
COORDENADAS DE LA ESTACION             : 19.291278 LAT. N
                                       : 99.500578 LONG. W
ALTITUD (msnm)                         : 2570
TIPO DE SUELO                          : DEPOSITOS LACUSTRES
                                       : 
                                       : 
INSTITUCION RESPONSABLE                : UNIVERSIDAD AUTONOMA METROPOLITANA
                                       : 

================================================================================
DATOS DEL ACELEROGRAFO: 
MODELO DEL ACELEROGRAFO                : ETNA2 KINEMETRICS
NUMERO DE SERIE DEL ACELEROGRAFO       : 103733
NUMERO DE CANALES                      : 3
ORIENTACION C1-C6 (rumbo;orientacion)  : /N90E/N00E/V 
ORIENTACION C7-C12 (rumbo;orientacion) : 
VEL. DE MUESTREO, C1-C6 (muestras/s)   : /200/200/200
VEL. DE MUESTREO, C7-C12 (muestras/s)  : 
ESC. COMPLETA DE SENSORES, C1-C6, (g)  : /2/2/2
ESC. COMPLETA DE SENSORES, C7-C12 (g)  : 
FREC. NAT. DE SENSORES, C1-C6, (Hz)    : /212/206/208   
FREC. NAT. DE SENSORES, C7-C12 (Hz)    : 
AMORTIGUAMIENTO DE SENSORES, C1-C6     : /0.7/0.7/0.7      
AMORTIGUAMIENTO DE SENSORES, C7-C12    : 
INTERVALO DE MUESTREO, C1-C6 (s)       : /0.005/0.005/0.005
INTERVALO DE MUESTREO, C7-C12 (s)      : 
UMBRAL DE DISPARO, C1-C6 (Gal)         : /2/2/2
UMBRAL DE DISPARO, C7-C12 (Gal)        : 
MEMORIA DE PREEVENTO (s)               : 50
TIEMPO DE POSEVENTO (s)                : 60


================================================================================
DATOS DEL SISMO:
FECHA DEL SISMO [GMT]                  : 2022/09/24
HORA EPICENTRO (GMT)                   : 15:2:18
MAGNITUD(ES)                           : /M=4.9
COORDENADAS DEL EPICENTRO              : 16.8700 LAT. N
                                       : -99.3500 LONG. W
PROFUNDIDAD FOCAL (Km)                 : 27.0
FUENTE DE LOS DATOS EPICENTRALES       : SSN
                                       : INSTITUTO DE GEOFISICA, UNAM

================================================================================
DATOS DE ESTE REGISTRO:
HORA DE LA PRIMERA MUESTRA (GMT)       : 15:27:47.000
EXACTITUD DEL TIEMPO (s)               : 
DURACION DEL REGISTRO (s), C1-C6       : /120/120/120
DURACION DEL REGISTRO (s), C7-C12      : 
NUM. TOTAL DE MUESTRAS, C1-C6          : /24000/24000/24000
NUM. TOTAL DE MUESTRAS, C7-C12         : 
ACEL. MAX.(Gal), C1-C6                 : /0.468/-0.466/-0.255
ACEL. MAX., C1-C6, EN LA MUESTRA       : /11129/11990/11210
ACEL. MAX.(Gal), C7-C12                : 
ACEL. MAX., C7-C12,EN LA MUESTRA       : 
UNIDADES DE LOS DATOS                  : Gal (cm/s/s)
FACTOR DE DECIMACION                   : 1
FORMATO DATOS (FORTRAN,16 campos/dato) : 3E16.7


================================================================================
CALIDAD DEL ACELEROGRAMA:
REGISTRO DIGITAL COMPLETO CON TIEMPO ABSOLUTO CORRECTO


================================================================================
COMENTARIOS:














================================================================================
DATOS DE ACELERACION:
---------+---------+---------+---------+---------+---------+---------+---------+
   CANAL-1   	     CANAL-2          CANAL-3
     N90E              N00E              V
---------+---------+---------+---------+---------+---------+---------+---------+   
[...]
  -1.3100700e-01  -2.0853200e-01   3.0093500e-02
  -9.1919800e-02  -1.9310700e-01   3.4775300e-02
  -7.8578900e-02  -1.9754800e-01   3.2200300e-02
  -8.4196100e-02  -1.8352500e-01   2.9859400e-02
  -5.7514200e-02  -1.6973600e-01   3.4307100e-02
  -3.0364100e-02  -1.6389300e-01   2.9157100e-02
  -4.5109400e-02  -1.5828400e-01   3.4307100e-02
  -2.3576600e-02  -1.4636400e-01   3.8754800e-02
   1.8084700e-02  -1.3444500e-01   3.4541200e-02
  -3.6821600e-03  -1.3374300e-01   3.0561700e-02
   9.6588200e-03  -1.2322600e-01   3.1732100e-02
   4.2660200e-02  -1.1551400e-01   3.3136700e-02
   4.1255900e-02  -1.1598100e-01   2.8220800e-02
   4.2660200e-02  -1.1644800e-01   3.1966200e-02
   5.8809800e-02  -1.1574700e-01   3.6413900e-02
   8.0108500e-02  -1.0336000e-01   3.5477600e-02
   7.1916700e-02  -1.1878600e-01   3.8754800e-02
   7.4257200e-02  -1.1504600e-01   4.4607100e-02
   1.0515200e-01  -1.0920300e-01   4.9288800e-02
   9.9534800e-02  -1.2579700e-01   5.1629700e-02
   8.6193900e-02  -1.1551400e-01   5.4204700e-02
   1.2130200e-01  -1.2790100e-01   6.8952400e-02
   1.1779100e-01  -1.2743300e-01   7.3400100e-02
   9.1577100e-02  -1.2369400e-01   8.2061400e-02
   1.2808900e-01  -1.2416100e-01   9.4234100e-02
   1.3440900e-01  -1.2813400e-01   9.8681800e-02
   1.1076900e-01  -1.3117300e-01   1.1062000e-01
   1.1545000e-01  -1.1715000e-01   1.1436600e-01
   1.3885600e-01  -1.1551400e-01   1.2021800e-01
   1.2902500e-01  -1.2112300e-01   1.2255900e-01
   1.0725900e-01  -1.1200800e-01   1.2864500e-01
   1.4026000e-01  -9.7985000e-02   1.3192200e-01
   1.3745100e-01  -1.0920300e-01   1.2045200e-01
   1.1428000e-01  -8.6299200e-02   1.1600400e-01
   1.2691900e-01  -7.8586600e-02   1.1764300e-01
   1.3440900e-01  -8.5598100e-02   1.1062000e-01
   1.2106800e-01  -6.9471700e-02   9.5638600e-02
   1.1428000e-01  -6.4330000e-02   8.2997800e-02
   1.3019600e-01  -5.3345400e-02   7.4570500e-02
   1.1100300e-01  -4.3529300e-02   6.6845600e-02
   8.9002500e-02  -3.5583000e-02   5.9354700e-02
   1.0866300e-01  -3.3012100e-02   5.4907000e-02
   9.9066700e-02  -2.4832100e-02   4.1095700e-02
   7.0278300e-02  -1.5249800e-02   3.3370700e-02
   7.6597700e-02  -9.9314400e-04   3.8520700e-02
   8.1980900e-02  -7.5371700e-03   4.0861600e-02
   5.0617900e-02  -8.7057500e-03   3.9925300e-02
   4.5234700e-02   7.1868900e-03   3.7818500e-02
   7.0512400e-02   7.4206100e-03   3.6648000e-02
   4.4532600e-02   7.8880400e-03   3.0327600e-02
   2.6744600e-02   7.4206100e-03   3.4541200e-02
   5.1554200e-02   2.9857300e-02   3.7818500e-02
   4.9447700e-02   1.9340100e-02   2.9625300e-02
   2.4872200e-02   8.8229000e-03   2.9859400e-02
   4.5234700e-02   3.5933900e-02   3.0327600e-02
   6.3724900e-02   2.3079500e-02   2.6816200e-02
   3.1425700e-02   2.0508700e-02   3.5477600e-02
   5.0383900e-02   3.1025800e-02   5.2566100e-02
   7.7533900e-02   3.7803600e-02   5.9822900e-02
   5.3192500e-02   5.4163700e-02   5.7013800e-02
   6.7937800e-02   4.3412800e-02   6.0525200e-02
   9.1343000e-02   5.1592800e-02   6.8250100e-02
   8.6896000e-02   6.9121400e-02   6.8484200e-02
   8.4321500e-02   6.9588900e-02   6.7547800e-02
   9.8364600e-02   7.7768900e-02   6.7781900e-02
   1.1919500e-01   8.7584900e-02   6.2397900e-02
   1.0257800e-01   9.9037000e-02   5.6311500e-02
   1.0725900e-01   1.1609800e-01   5.7247900e-02
   1.4283400e-01   1.3432800e-01   5.5843400e-02
   1.3160000e-01   1.3876900e-01   5.0459300e-02
   1.1147200e-01   1.6915200e-01   5.1161600e-02
   1.4564300e-01   1.7873400e-01   5.3502500e-02
   1.4915400e-01   1.8668000e-01   5.0459300e-02
   1.1896100e-01   2.1612800e-01   4.7884300e-02
   1.4704700e-01   2.2150400e-01   4.9054800e-02
   1.5102600e-01   2.4697900e-01   4.7182000e-02
   1.2177000e-01   2.3809800e-01   4.4373000e-02
   1.2574900e-01   2.5749600e-01   4.4841100e-02
   1.3745100e-01   2.8040000e-01   4.3670700e-02
   1.1474800e-01   2.5889800e-01   3.7350300e-02
   9.4385700e-02   2.6918200e-01   4.2500200e-02
   1.0796100e-01   2.6731200e-01   4.7884300e-02
   9.4853800e-02   2.6824700e-01   4.1563900e-02
   6.7001600e-02   2.5118600e-01   4.5309300e-02
   6.7235600e-02   2.3692900e-01   5.5375200e-02
   6.3256800e-02   2.3996700e-01   6.3334200e-02
   2.2297600e-02   2.2898300e-01   6.7313800e-02
   1.6680400e-02   2.2010200e-01   7.4102400e-02
   3.3532100e-02   2.0631200e-01   7.7847800e-02
  -9.2994100e-03   1.9906700e-01   7.0122800e-02
  -3.2704600e-02   1.9930100e-01   6.9654600e-02
  -1.6321000e-02   1.8270700e-01   7.2931900e-02
  -3.5981400e-02   1.6728200e-01   6.3568300e-02
  -7.2259400e-02   1.8364200e-01   4.4373000e-02
  -6.6174100e-02   1.8013600e-01   3.1498000e-02
  -5.9854700e-02   1.6167300e-01   2.3304900e-02
  -9.9877600e-02   1.6120500e-01   1.4877700e-02
  -1.0924000e-01   1.8083700e-01   5.7481700e-03
  -8.9111200e-02   1.7943500e-01  -4.3176900e-03
  -1.1204800e-01   1.6938500e-01  -1.3915400e-02
  -1.3592200e-01   1.8971900e-01  -1.6022200e-02
  -1.2094200e-01   1.8597900e-01  -1.7426700e-02
  -1.2024000e-01   1.9275700e-01  -2.1640300e-02
  -1.4200700e-01   1.9836600e-01  -2.1172100e-02
  -1.2749600e-01   2.0864900e-01  -1.9533500e-02
  -1.1017600e-01   2.3529300e-01  -2.2576700e-02
  -1.2796400e-01   2.2127000e-01  -3.0301600e-02
  -1.2281500e-01   2.2874900e-01  -2.2342600e-02
  -8.7472800e-02   2.4697900e-01  -1.8363100e-02
  -9.3324100e-02   2.3786400e-01  -2.1874400e-02
  -1.0526100e-01   2.3996700e-01  -1.3681300e-02
  -6.1024900e-02   2.5212100e-01  -2.2108800e-03
  -5.3535300e-02   2.4464200e-01  -3.3816200e-04
  -7.3195700e-02   2.4721200e-01   3.1731800e-03
  -3.0364100e-02   2.5889800e-01   1.0664100e-02
  -3.2140500e-03   2.4744600e-01   9.4936000e-03
  -2.5215000e-02   2.4534300e-01   1.2068600e-02
   7.7864000e-03   2.4791400e-01   1.0664100e-02
   5.0383900e-02   2.5071800e-01   5.7481700e-03
   3.0021400e-02   2.4557600e-01  -2.2108800e-03
   5.1554200e-02   2.3692900e-01  -1.3213100e-02
   9.2513300e-02   2.3996700e-01  -1.5085800e-02
   9.6726200e-02   2.4066800e-01  -1.7894900e-02
   9.9768900e-02   2.3529300e-01  -2.8428900e-02
   1.1381200e-01   2.4417400e-01  -3.4047100e-02
   1.4377100e-01   2.5025100e-01  -4.6922000e-02
   1.3464300e-01   2.4113600e-01  -5.9796900e-02
   1.2645100e-01   2.4884800e-01  -5.9094700e-02
   1.7021900e-01   2.4137000e-01  -6.7521900e-02
   1.5945200e-01   2.3178700e-01  -8.0865000e-02
   1.3440900e-01   2.4394000e-01  -8.5312700e-02
   1.7817600e-01   2.3178700e-01  -8.7653600e-02
   1.7536800e-01   2.2781400e-01  -1.0029400e-01
   1.3909000e-01   2.3786400e-01  -1.1082800e-01
   1.6694200e-01   2.2781400e-01  -1.1293500e-01
   1.7443200e-01   2.1519300e-01  -1.1738300e-01
   1.4260000e-01   2.1496000e-01  -1.2042600e-01
   1.4868600e-01   2.1215500e-01  -1.1972400e-01
   1.5992000e-01   2.0350800e-01  -1.1761700e-01
   1.4681300e-01   1.9579500e-01  -1.2300100e-01
   1.3394100e-01   1.8948500e-01  -1.1925600e-01
   1.3955800e-01   1.9205600e-01  -1.1106300e-01
   1.4049400e-01   1.7242400e-01  -1.0919000e-01
   1.1287600e-01   1.7055400e-01  -9.9826300e-02
   1.1334400e-01   1.8060400e-01  -9.2569500e-02
   1.2879100e-01   1.5746600e-01  -8.8121800e-02
   9.8832700e-02   1.5723200e-01  -8.8590000e-02
   8.7130100e-02   1.5863400e-01  -8.0630900e-02
   1.0421600e-01   1.4694900e-01  -7.4076400e-02
   7.8704200e-02   1.4858500e-01  -7.8055900e-02
   5.3894700e-02   1.4133900e-01  -7.1501400e-02
   6.7469700e-02   1.4040500e-01  -7.4310500e-02
   5.3660600e-02   1.4063800e-01  -8.1567300e-02
   2.2765700e-02   1.2871900e-01  -8.0630900e-02
   2.7446800e-02   1.3432800e-01  -7.9928600e-02
   2.2063600e-02   1.3526300e-01  -8.3440000e-02
  -6.0226800e-03   1.2801800e-01  -9.0462700e-02
  -1.7725300e-02   1.3456200e-01  -8.6015000e-02
  -8.3632000e-03   1.3643100e-01  -8.3674100e-02
  -2.8725700e-02   1.3035500e-01  -8.2035500e-02
  -5.8918500e-02   1.3736600e-01  -7.4544600e-02
  -4.9088300e-02   1.4180700e-01  -7.1033200e-02
  -6.2897400e-02   1.3386100e-01  -6.6819600e-02
  -8.9579300e-02   1.2614800e-01  -6.6819600e-02
  -9.4026300e-02   1.2684900e-01  -6.0031000e-02
  -9.6366800e-02   1.2100600e-01  -5.7690100e-02
  -1.2117600e-01   1.0908700e-01  -6.7287800e-02
  -1.3475100e-01   1.0768400e-01  -5.9562800e-02
  -1.2328300e-01   9.2493000e-02  -5.8158300e-02
  -1.4692200e-01   8.6416400e-02  -6.8224200e-02
  -1.6471000e-01   6.5615700e-02  -7.2437800e-02
  -1.4692200e-01   5.0424200e-02  -7.0565100e-02
  -1.4926300e-01   3.4531600e-02  -6.8224200e-02
  -1.8273200e-01   1.5600600e-02  -7.5480900e-02
  -1.6588000e-01   6.0183100e-03  -7.7353700e-02
  -1.4294300e-01  -3.8621300e-02  -7.6417300e-02
  -1.8554100e-01  -3.6284200e-02  -7.2437800e-02
  -1.7711500e-01  -6.3161400e-02  -5.7924200e-02
  -1.4341100e-01  -1.0265900e-01  -5.1837900e-02
  -1.6400800e-01  -1.0195800e-01  -4.9497000e-02
  -1.6705100e-01  -1.2930300e-01  -4.0133400e-02
  -1.3966600e-01  -1.4426100e-01  -2.7258500e-02
  -1.3849600e-01  -1.6599600e-01  -1.8597200e-02
  -1.5253900e-01  -1.8936800e-01  -9.4676600e-03
  -1.3615600e-01  -1.9147100e-01   2.9390900e-03
  -1.2609100e-01  -1.9918400e-01   5.7481700e-03
  -1.4013500e-01  -2.2278900e-01   9.7276900e-03
  -1.3896400e-01  -2.3564300e-01   2.2134400e-02
  -1.2070800e-01  -2.3307200e-01   2.8923000e-02
  -1.2656000e-01  -2.4242100e-01   3.0093500e-02
  -1.4083700e-01  -2.4826400e-01   3.4307100e-02
  -1.1392100e-01  -2.5504200e-01   3.4775300e-02
  -1.1649500e-01  -2.6135200e-01   3.0327600e-02
  -1.4739000e-01  -2.5340600e-01   2.8220800e-02
  -1.1743200e-01  -2.7537500e-01   2.6114000e-02
  -1.1228200e-01  -2.7981500e-01   1.8623100e-02
  -1.4598600e-01  -2.7514100e-01   1.0430000e-02
  -1.3124100e-01  -2.8682700e-01   7.3868000e-03
  -1.1368700e-01  -2.9687700e-01   9.7276900e-03
  -1.3100700e-01  -3.0903000e-01   1.3004900e-02
  -1.4832600e-01  -3.0201800e-01   1.9325400e-02
  -1.2773000e-01  -3.1440500e-01   2.1432200e-02
  -1.2562300e-01  -3.3403700e-01   1.8389000e-02
  -1.5441200e-01  -3.5226700e-01   3.0093500e-02
  -1.5019900e-01  -3.4315200e-01   4.3436600e-02
  -1.4130500e-01  -3.5413700e-01   4.2968400e-02
  -1.6096500e-01  -3.8872700e-01   4.3436600e-02
  -1.7898700e-01  -3.7984600e-01   5.2566100e-02
  -1.5675200e-01  -3.9270000e-01   5.4672900e-02
  -1.7173200e-01  -4.0555400e-01   5.3268400e-02
  -2.0192400e-01  -4.2471900e-01   6.3802400e-02
  -1.6751900e-01  -4.4131300e-01   6.8250100e-02
  -1.8320000e-01  -4.2962700e-01   6.2163800e-02
  -2.1409500e-01  -4.4037800e-01   6.1929700e-02
  -1.8647700e-01  -4.5814000e-01   6.1929700e-02
  -1.8577500e-01  -4.6024400e-01   5.2097900e-02
  -2.0449900e-01  -4.5580300e-01   3.9691200e-02
  -1.9981800e-01  -4.5416700e-01   3.6882100e-02
  -1.7313600e-01  -4.5860800e-01   3.2200300e-02
  -1.7828500e-01  -4.6632000e-01   2.0027600e-02
  -1.9443500e-01  -4.4645400e-01   7.1527100e-03
  -1.5768800e-01  -4.4178000e-01  -1.0407200e-04
  -1.4949700e-01  -4.4972600e-01  -3.1472400e-03
  -1.6939100e-01  -4.2542000e-01  -7.3608500e-03
  -1.4692200e-01  -4.0929400e-01  -8.5313000e-03
  -1.2585700e-01  -3.9854300e-01  -2.1640300e-02
  -1.4083700e-01  -3.8241600e-01  -3.0769800e-02
  -1.2983600e-01  -3.6208300e-01  -3.1472100e-02
  -1.0292000e-01  -3.3988000e-01  -4.1537900e-02
  -1.1579300e-01  -3.2702600e-01  -5.1603800e-02
  -1.0572900e-01  -3.1487300e-01  -5.8158300e-02
  -8.7004700e-02  -2.8565800e-01  -5.9328800e-02
  -8.8643100e-02  -2.6649400e-01  -6.1903700e-02
  -9.2387900e-02  -2.5200300e-01  -6.1435600e-02
  -7.2727500e-02  -2.3237100e-01  -5.7690100e-02
  -4.9556400e-02  -2.1951700e-01  -6.0499200e-02
  -7.2961600e-02  -1.8142100e-01  -6.0499200e-02
  -5.4003400e-02  -1.7394200e-01  -5.2072000e-02
  -2.0533900e-02  -1.7137200e-01  -4.9262900e-02
  -3.3172700e-02  -1.3841800e-01  -5.4647000e-02
  -2.6853300e-02  -1.3304200e-01  -5.0901500e-02
   1.3403700e-02  -1.1434500e-01  -4.2942500e-02
   2.7914900e-02  -1.1083900e-01  -3.8728900e-02
   1.6446300e-02  -8.7234100e-02  -2.9365300e-02
   5.4128700e-02  -6.8770600e-02  -2.3513000e-02
   8.8534400e-02  -7.3912300e-02  -2.0704000e-02
   8.0576600e-02  -5.3111700e-02  -7.5949400e-03
   1.0398200e-01  -4.9138500e-02   5.7481700e-03
   1.4938800e-01  -3.6751600e-02   1.3004900e-02
   1.5266500e-01  -4.8203600e-02   1.5111800e-02
   1.4821800e-01  -3.3245900e-02   2.4241300e-02
   1.8894300e-01  -2.5533200e-02   3.4775300e-02
   1.9526200e-01  -3.7920200e-02   3.4541200e-02
   1.7911300e-01  -2.1793800e-02   4.3202500e-02
   2.1024200e-01  -4.1192200e-02   5.0459300e-02
   2.2007200e-01  -2.9039000e-02   4.8586600e-02
   2.0251800e-01  -2.6468100e-02   4.6948000e-02
   1.9830500e-01  -4.2828200e-02   5.0459300e-02
   2.1960400e-01  -3.5349300e-02   5.1629700e-02
   2.0158200e-01  -4.4230500e-02   4.6713900e-02
   1.6694200e-01  -2.4598400e-02   5.1161600e-02
   1.9034700e-01  -2.9973800e-02   5.5609300e-02
   1.7349500e-01  -4.1659600e-02   5.6779700e-02
   1.3768500e-01  -1.1977800e-02   6.1461500e-02
   1.3791900e-01  -6.8360300e-03   7.2697800e-02
   1.3721700e-01  -1.4605700e-03   7.6443200e-02
   1.0749300e-01   1.0926300e-02   7.3166000e-02
   8.7598200e-02   2.7753800e-02   7.7145500e-02
   1.0608800e-01   4.9956800e-02   7.4336400e-02
   8.2449000e-02   4.9956800e-02   6.9888700e-02
   6.3490800e-02   6.0941400e-02   6.7781900e-02
   7.5427500e-02   9.4830100e-02   6.0993300e-02
   7.4491300e-02   9.6933600e-02   4.9288800e-02
   6.0682200e-02   9.4830100e-02   4.6713900e-02
   5.8809800e-02   1.2497900e-01   5.9354700e-02
   7.9640400e-02   1.3830100e-01   5.3268400e-02
   5.6001100e-02   1.4998700e-01   4.0393400e-02
   6.0214100e-02   1.6120500e-01   3.6648000e-02
   8.3385200e-02   1.8013600e-01   2.5177600e-02
   6.2788700e-02   1.9953500e-01   1.6516300e-02
   5.7639500e-02   2.0864900e-01   1.1834500e-02
   7.4725300e-02   2.2267200e-01   9.2595100e-03
   8.1746900e-02   2.2010200e-01   4.5777200e-03
   5.0149800e-02   2.4814700e-01   2.7050000e-03
   6.7469700e-02   2.6637700e-01   1.0898100e-02
   8.3385200e-02   2.6030100e-01   1.2302700e-02
   5.7171400e-02   2.7829700e-01   1.2536800e-02
   5.7405500e-02   3.0400500e-01   1.3004900e-02
   7.2852900e-02   3.1452200e-01   5.7481700e-03
   6.7703800e-02   3.1475600e-01  -5.0199600e-03
   4.1021800e-02   3.3158400e-01  -8.2972100e-03
   6.8874000e-02   3.4560700e-01  -7.8290300e-03
   5.7873600e-02   3.5168300e-01  -1.6724400e-02
   3.4000200e-02   3.4841100e-01  -2.1406200e-02
   5.2256300e-02   3.5472200e-01  -1.8597200e-02
   4.5936900e-02   3.7108200e-01  -1.7660800e-02
   3.3064000e-02   3.5659100e-01  -1.7192600e-02
   2.0659300e-02   3.6033100e-01  -8.2972100e-03
   3.8447200e-02   3.6126600e-01  -1.1808600e-02
   1.9489000e-02   3.4023100e-01  -2.3044900e-02
  -2.2778400e-03   3.5028100e-01  -2.1172100e-02
   2.7680800e-02   3.2340400e-01  -1.9299400e-02
   1.1297200e-02   3.0564100e-01  -2.0469900e-02
  -1.7491200e-02   3.0470600e-01  -2.3044900e-02
   4.9777700e-03   2.8811300e-01  -2.3747100e-02
   1.1765300e-02   2.7151900e-01  -3.1003900e-02
  -1.9363700e-02   2.5025100e-01  -3.1238000e-02
  -9.7675100e-03   2.4814700e-01  -2.6322100e-02
   1.5042000e-02   2.2033500e-01  -3.0769800e-02
   2.1691500e-03   2.0911700e-01  -3.1472100e-02
  -6.9588900e-03   1.9556100e-01  -3.2408400e-02
   1.9020900e-02   1.8691400e-01  -3.2408400e-02
   3.1425700e-02   1.7546200e-01  -3.4515300e-02
   1.7382500e-02   1.4694900e-01  -2.9599400e-02
