**************************************************************************************
  RED ACELEROGRÁFICA DE LA UNIVERSIDAD AUTONOMA METROPOLITANA (RAUAM)
				UNIDAD AZCAPOTZALCO
                        DIVISIÓN CBI-DEPARTAMENTO DE MATERIALES
     Av. San Pablo 180, Col. Reynosa, Azcapotzalco, C.P. 02200, Ciudad de México
**************************************************************************************
ARCHIVO ESTANDAR DE ACELERACION:
VERSION DEL FORMATO                    : 2.0
NOMBRE DEL ARCHIVO                     : RIDA202007021
FECHA Y HORA DE CREACION               : 07:58 p. m. 30/01/2021
REF. CATALOGO ACELEROGRAMAS, SMIS 1995 : REGISTRO NO.      /PAG.    


================================================================================
DATOS DE LA ESTACION:
NOMBRE DE LA ESTACION                  : UAM-AZCAPOTZALCO.
CLAVE DE LA ESTACION                   : RIDA
LOCALIZACION DE LA ESTACION            : AV. SAN PABLO 180, COL.REYNOSA, AZCAPOTZALCO,
                                       : C.P.02200 CIUDAD DE MEXICO.
                                       :
                                       : 
                                       : 
COORDENADAS DE LA ESTACION             : 19.498596 LAT. N
                                       : 99.195595 LONG. W
ALTITUD (msnm)                         : 2246
TIPO DE SUELO                          : ZONA DE TRANSICION 
                                       : 
                                       : 
INSTITUCION RESPONSABLE                : UAM-AZCAPOTZALCO
                                       : 

================================================================================
DATOS DEL ACELEROGRAFO: 
MODELO DEL ACELEROGRAFO                : BASALT KINEMETRICS
NUMERO DE SERIE DEL ACELEROGRAFO       : 1730
NUMERO DE CANALES                      : 3
ORIENTACION C1-C6 (rumbo;orientacion)  : /V/N00E/N90E
ORIENTACION C7-C12 (rumbo;orientacion) : 
VEL. DE MUESTREO, C1-C6 (muestras/s)   : /200/200/200
VEL. DE MUESTREO, C7-C12 (muestras/s)  : 
ESC. COMPLETA DE SENSORES, C1-C6, (g)  : /2/2/2
ESC. COMPLETA DE SENSORES, C7-C12 (g)  : 
FREC. NAT. DE SENSORES, C1-C6, (Hz)    : /210/206/212
FREC. NAT. DE SENSORES, C7-C12 (Hz)    : 
AMORTIGUAMIENTO DE SENSORES, C1-C6     : /0.70/0.70/0.70   
AMORTIGUAMIENTO DE SENSORES, C7-C12    : 
INTERVALO DE MUESTREO, C1-C6 (s)       : /0.005/0.005/0.005
INTERVALO DE MUESTREO, C7-C12 (s)      : 
UMBRAL DE DISPARO, C1-C6 (Gal)         : /2/2/2
UMBRAL DE DISPARO, C7-C12 (Gal)        : 
MEMORIA DE PREEVENTO (s)               : 60
TIEMPO DE POSEVENTO (s)                : 90


================================================================================
DATOS DEL SISMO:
FECHA DEL SISMO [GMT]                  : 2020/07/02
HORA EPICENTRO (GMT)                   : 16:17:56
MAGNITUD(ES)                           : /M=5.2
COORDENADAS DEL EPICENTRO              : 16.1683 LAT. N
                                       : 98.0412 LONG. W
PROFUNDIDAD FOCAL (Km)                 : 16.1
FUENTE DE LOS DATOS EPICENTRALES       : SSN
                                       : INSTITUTO DE GEOFISICA, UNAM

================================================================================
DATOS DE ESTE REGISTRO:
HORA DE LA PRIMERA MUESTRA (GMT)       : 16:18:43.00
EXACTITUD DEL TIEMPO (s)               : 
DURACION DEL REGISTRO (s), C1-C6       : /158.00/158.00/158.00
DURACION DEL REGISTRO (s), C7-C12      : 
NUM. TOTAL DE MUESTRAS, C1-C6          : /31600/31600/31600
NUM. TOTAL DE MUESTRAS, C7-C12         : 
ACEL. MAX.(Gal), C1-C6                 : /0.449/0.857/-1.096
ACEL. MAX., C1-C6, EN LA MUESTRA       : /2751/12972/12462
ACEL. MAX.(Gal), C7-C12                : 
ACEL. MAX., C7-C12,EN LA MUESTRA       : 
UNIDADES DE LOS DATOS                  : Gal (cm/s/s)
FACTOR DE DECIMACION                   : 1
FORMATO DATOS (FORTRAN,16 campos/dato) : 3E16.7


================================================================================
CALIDAD DEL ACELEROGRAMA:
REGISTRO DIGITAL COMPLETO CON TIEMPO ABSOLUTO CORRECTO


================================================================================
COMENTARIOS:














================================================================================
DATOS DE ACELERACION:
---------+---------+---------+---------+---------+---------+---------+---------+
   CANAL-1  	    CANAL-2 	     CANAL-3
       V     	     N00E              N90E
---------+---------+---------+---------+---------+---------+---------+---------+ 
[...]
  -1.6974624e-02  -1.0520167e-01  -4.1642277e-01
  -2.2801193e-02  -1.1760652e-01  -4.0298196e-01
  -3.2588906e-02  -1.2111749e-01  -3.8369688e-01
  -3.5735222e-02  -1.3176705e-01  -3.8416436e-01
  -4.4940748e-02  -1.4335276e-01  -3.6873638e-01
  -5.3330664e-02  -1.4382084e-01  -3.5985349e-01
  -5.8923810e-02  -1.3761841e-01  -3.5377587e-01
  -7.3722483e-02  -1.2872415e-01  -3.3519201e-01
  -7.7101439e-02  -1.2849011e-01  -3.3121844e-01
  -7.7334471e-02  -1.2755396e-01  -3.0760879e-01
  -7.7334471e-02  -1.2416000e-01  -2.8563532e-01
  -8.1645944e-02  -1.1713844e-01  -2.5326004e-01
  -8.1529428e-02  -1.1128707e-01  -2.0720983e-01
  -7.1508293e-02  -1.0859523e-01  -1.8605484e-01
  -6.0904578e-02  -1.0309493e-01  -1.4841964e-01
  -3.9930180e-02  -1.0882927e-01  -1.2095329e-01
  -2.8860403e-02  -1.1667036e-01  -1.0400560e-01
  -1.9771393e-02  -1.2217067e-01  -6.8708192e-02
  -5.3222674e-03  -1.2029836e-01  -4.9657246e-02
   4.1162898e-03  -1.1093602e-01  -2.8268120e-02
   1.5652130e-02  -1.1035092e-01  -8.5155634e-03
   2.5207203e-02  -1.2240471e-01   1.2055082e-02
   2.7187971e-02  -1.2404298e-01   5.4481940e-02
   2.3692499e-02  -1.1397852e-01   8.0312116e-02
   2.4158562e-02  -1.1269131e-01   1.0859695e-01
   3.0101256e-02  -1.1152111e-01   1.3466087e-01
   4.1054517e-02  -1.1620228e-01   1.3501147e-01
   3.9656328e-02  -1.1456362e-01   1.5721869e-01
   3.8957234e-02  -1.1936181e-01   1.6528309e-01
   4.6647664e-02  -1.3527803e-01   1.7147758e-01
   5.0376559e-02  -1.4206555e-01   1.9730776e-01
   6.1562852e-02  -1.5014028e-01   2.0607377e-01
   6.8205032e-02  -1.4054429e-01   2.3073525e-01
   7.7060619e-02  -1.2942627e-01   2.4663072e-01
   8.1139061e-02  -1.1690440e-01   2.6778571e-01
   8.3702798e-02  -1.0110560e-01   2.9513559e-01
   8.9295945e-02  -9.5371250e-02   3.0378473e-01
   8.3120220e-02  -8.3200049e-02   3.3031613e-01
   8.6732208e-02  -8.3083029e-02   3.3054987e-01
   8.7431302e-02  -6.9507595e-02   3.3031613e-01
   8.2071187e-02  -4.9730129e-02   3.4539350e-01
   7.4730304e-02  -5.5932553e-02   3.4457541e-01
   6.4359621e-02  -5.8741020e-02   3.6795093e-01
   5.8416927e-02  -6.2603054e-02   3.7940534e-01
   4.8046244e-02  -5.7804864e-02   3.7402894e-01
   3.8724203e-02  -4.7155308e-02   3.7776878e-01
   2.5906298e-02  -3.8378064e-02   3.6923689e-01
   1.9497541e-02  -2.7728508e-02   3.5567882e-01
   1.5768646e-02  -1.8366167e-02   3.4995181e-01
   8.3112476e-03  -9.3552759e-03   3.4854938e-01
   1.1690204e-02  -2.9367173e-02   3.3791305e-01
   7.4952464e-03  -3.9899709e-02   3.3230291e-01
   4.3493213e-03  -2.9015722e-02   3.2517347e-01
   3.9997741e-03  -2.7026391e-02   3.0553778e-01
   2.4846784e-03  -2.2930318e-02   2.9607054e-01
   3.4171953e-03  -2.9952271e-02   2.9326567e-01
  -8.0025205e-03  -3.5686616e-02   2.8438278e-01
  -1.3479151e-02  -3.2175640e-02   2.8321409e-01
  -1.0798898e-02  -3.2058621e-02   2.8765514e-01
  -6.2543933e-03  -3.5335558e-02   2.7164280e-01
  -2.4089828e-03  -2.0472909e-02   2.6299405e-01
   1.4360367e-03  -2.0992844e-03   2.5773413e-01
   6.0970574e-03   3.0499643e-03   2.5259147e-01
   3.5337111e-03   1.5103753e-02   2.5492925e-01
   9.1268578e-03   1.4869714e-02   2.3354052e-01
   1.1107625e-02   2.0253002e-02   2.3318991e-01
   1.0058984e-02   2.4466095e-02   2.2021619e-01
   3.6502268e-03   2.1072138e-02   1.8339947e-01
  -1.2313603e-02   2.8445149e-02   1.7206193e-01
  -9.4007094e-03   2.8328130e-02   1.4108909e-01
  -7.4195508e-03   2.8211110e-02   1.1747983e-01
  -1.5226888e-02   1.1827209e-02   1.0509046e-01
  -2.4548929e-02   5.9754506e-03   7.7156633e-02
  -3.1656780e-02   1.8965788e-02   4.7352492e-02
  -2.9909044e-02   2.7743032e-02   1.0535383e-02
  -3.0724654e-02   3.8977685e-02  -2.7800641e-02
  -3.4570065e-02   3.2775262e-02  -6.3331792e-02
  -4.0862306e-02   2.7860052e-02  -8.7408922e-02
  -4.6105905e-02   1.2412306e-02  -1.0914826e-01
  -5.1582536e-02  -1.5089622e-02  -1.3754997e-01
  -4.7970548e-02  -4.0133748e-02  -1.7401608e-01
  -4.2143979e-02  -6.2954113e-02  -2.0159969e-01
  -4.5989390e-02  -7.1263279e-02  -2.1854698e-01
  -4.0862306e-02  -8.6242947e-02  -2.5197448e-01
  -3.9930180e-02  -9.3147488e-02  -2.8271357e-01
  -3.3055360e-02  -1.0473320e-01  -3.1251771e-01
  -2.2568161e-02  -1.2053240e-01  -3.4921756e-01
  -2.3733319e-02  -1.2310682e-01  -3.8171010e-01
  -1.8373204e-02  -1.3293724e-01  -4.0730653e-01
  -1.9072298e-02  -1.3153301e-01  -4.3325358e-01
  -1.5925982e-02  -1.2673482e-01  -4.6621320e-01
  -9.5172251e-03  -1.2661780e-01  -4.8643324e-01
  -1.4061730e-02  -1.2884117e-01  -5.0244597e-01
  -1.7091139e-02  -1.3375638e-01  -5.2219813e-01
  -2.1752160e-02  -1.3469254e-01  -5.4347039e-01
  -1.7207655e-02  -1.3246917e-01  -5.7350827e-01
  -4.7396887e-03  -1.2345788e-01  -6.1114307e-01
  -2.1759513e-03  -1.0707398e-01  -6.3522020e-01
  -4.6231729e-03  -8.3785146e-02  -6.4784292e-01
  -5.6718146e-03  -6.6114031e-02  -6.7741332e-01
   5.0391077e-04  -5.3825810e-02  -7.0230854e-01
   6.4466047e-03  -5.0432246e-02  -7.2533384e-01
   9.0103420e-03  -4.7623386e-02  -7.5513798e-01
   4.8153843e-03  -2.9835251e-02  -7.7196840e-01
  -1.0099804e-02  -1.2865860e-02  -7.7921511e-01
  -1.4644309e-02   4.3371783e-03  -7.9043539e-01
  -2.3383772e-02   2.1774648e-02  -8.0212315e-01
  -2.5830602e-02   3.2073145e-02  -8.0773329e-01
  -2.3966350e-02   4.7754930e-02  -8.1042169e-01
  -3.2006328e-02   6.6245182e-02  -8.0831764e-01
  -1.8023656e-02   8.3799670e-02  -8.1159038e-01
  -1.3362636e-02   1.1130121e-01  -8.0504529e-01
  -1.4294762e-02   1.3459004e-01  -7.9101974e-01
  -1.1731024e-02   1.4828249e-01  -7.7699419e-01
  -1.1264961e-02   1.6103840e-01  -7.5957942e-01
  -1.0798898e-02   1.7566701e-01  -7.4006061e-01
  -2.0587003e-02   1.8854033e-01  -7.0803555e-01
  -1.8023656e-02   1.9591295e-01  -6.7986798e-01
  -3.1773296e-02   2.1826563e-01  -6.4071347e-01
  -3.8998054e-02   2.3617078e-01  -6.0354615e-01
  -3.7016896e-02   2.4132003e-01  -5.7292392e-01
  -5.0999958e-02   2.4342677e-01  -5.2921110e-01
  -4.7970548e-02   2.3710694e-01  -4.8269341e-01
  -4.0978822e-02   2.3523462e-01  -4.4049990e-01
  -2.8860403e-02   2.3031941e-01  -4.0625431e-01
  -1.7674109e-02   2.2329785e-01  -3.6897012e-01
  -1.2313603e-02   2.0983944e-01  -3.3647797e-01
  -3.6910470e-03   2.0082816e-01  -2.9101211e-01
   1.0408531e-02   2.0012604e-01  -2.5664966e-01
   2.9984740e-02   1.9287044e-01  -2.2731300e-01
   4.4783412e-02   1.9626400e-01  -1.8126278e-01
   5.8183896e-02   2.0597740e-01  -1.4093958e-01
   6.4709168e-02   2.2610632e-01  -7.3967723e-02
   6.7039483e-02   2.4190513e-01  -2.9437210e-02
   7.2283083e-02   2.4658630e-01   1.0301643e-02
   8.6732208e-02   2.4412889e-01   6.1260777e-02
   9.7918892e-02   2.3593674e-01   9.2234007e-02
   9.4772576e-02   2.4120301e-01   1.5207563e-01
   9.0344587e-02   2.3312827e-01   2.0245081e-01
   8.7314786e-02   2.2575526e-01   2.5037094e-01
   9.0228071e-02   2.1136069e-01   2.9957703e-01
   9.0344587e-02   1.8760417e-01   3.4270510e-01
   8.3120220e-02   1.7484787e-01   3.9810568e-01
   7.6245009e-02   1.5132500e-01   4.3597462e-01
   6.9253673e-02   1.4547363e-01   4.8962215e-01
   6.3660527e-02   1.3997333e-01   5.3672419e-01
   5.5620158e-02   1.2674895e-01   5.7774861e-01
   4.5249475e-02   1.1668449e-01   6.2870774e-01
   3.3946666e-02   1.0697149e-01   6.5734319e-01
   2.1361793e-02   1.0779062e-01   6.9077068e-01
   1.3321816e-02   9.3864129e-02   7.1402933e-01
   7.9617003e-03   7.9001480e-02   7.4301538e-01
   1.9020997e-03   7.1160391e-02   7.8275424e-01
  -2.0594356e-03   5.6414762e-02   8.0928563e-01
  -5.9048461e-03   3.5232670e-02   8.4680396e-01
  -1.3828699e-02   1.0188544e-02   8.6842643e-01
  -1.6392045e-02  -1.6610875e-02   8.8362068e-01
  -1.4644309e-02  -3.2643718e-02   9.0699620e-01
  -1.3013088e-02  -3.5686616e-02   9.2008678e-01
   2.8346166e-03  -4.8091464e-02   9.3493042e-01
   1.0758078e-02  -6.3188152e-02   9.4720253e-01
   1.0175499e-02  -6.6465089e-02   9.5713724e-01
   1.9847088e-02  -5.6751689e-02   9.5982564e-01
   2.4974172e-02  -5.6166592e-02   9.6169555e-01
   3.4412729e-02  -6.2720074e-02   9.6683822e-01
   4.3035676e-02  -6.0379685e-02   9.5491672e-01
   4.1753612e-02  -5.4528319e-02   9.6415021e-01
   3.6276981e-02  -4.3410293e-02   9.7560423e-01
   3.4063182e-02  -3.5218539e-02   9.5444924e-01
   3.8025108e-02  -2.7611489e-02   9.5807259e-01
   4.2452706e-02  -2.4217925e-02   9.5316367e-01
   5.7484410e-02  -1.2748840e-02   9.2768410e-01
   7.1583988e-02  -6.7804552e-03   9.1868435e-01
   6.2961432e-02  -6.0783385e-03   9.0337323e-01
   5.4921064e-02   9.0183491e-03   8.7660771e-01
   6.1446336e-02   1.6274341e-02   8.3710299e-01
   5.5037580e-02   3.0083422e-02   8.1594760e-01
   4.1404065e-02   3.2658242e-02   7.8649446e-01
   2.3109920e-02   4.1435487e-02   7.4009325e-01
   3.7667426e-03   6.2032481e-02   7.2373030e-01
   3.7667426e-03   6.0042758e-02   6.8399145e-01
  -3.8075627e-03   7.6192621e-02   6.3116240e-01
  -2.1985192e-02   9.3396051e-02   6.0650092e-01
  -3.3171876e-02   9.7960202e-02   5.7155412e-01
  -3.8998054e-02   1.0977995e-01   5.1323141e-01
  -4.3542559e-02   1.1235477e-01   4.5724648e-01
  -5.5777494e-02   1.0743956e-01   4.1645580e-01
  -6.3118768e-02   1.0860976e-01   3.6315888e-01
  -6.4983020e-02   1.1808912e-01   3.0086260e-01
  -8.0014724e-02   1.2195115e-01   2.5866948e-01
  -9.4813396e-02   1.1516324e-01   2.0513882e-01
  -1.0215428e-01   1.2089759e-01   1.3875170e-01
  -1.0483453e-01   1.3388792e-01   8.9896220e-02
  -1.0646575e-01   1.3657937e-01   3.8703346e-02
  -1.0541711e-01   1.4523960e-01  -2.2541110e-02
  -9.2832628e-02   1.5155904e-01  -8.1331302e-02
  -8.7239091e-02   1.5530405e-01  -1.3334226e-01
  -8.4209681e-02   1.7414576e-01  -1.9026254e-01
  -7.4654609e-02   1.9064668e-01  -2.4846799e-01
  -6.2419283e-02   1.9216793e-01  -2.9007676e-01
  -4.7620610e-02   1.9193389e-01  -3.4173751e-01
  -4.5406811e-02   1.9041264e-01  -4.0111165e-01
  -4.8786159e-02   1.8222049e-01  -4.3956494e-01
  -5.0999958e-02   1.7344364e-01  -4.8608263e-01
  -5.1582536e-02   1.5893205e-01  -5.3844459e-01
  -4.5406811e-02   1.4348430e-01  -5.7619627e-01
  -4.1910948e-02   1.3892015e-01  -6.2411679e-01
  -3.3870970e-02   1.4161160e-01  -6.8045233e-01
  -2.5597571e-02   1.4898461e-01  -7.3059337e-01
  -2.6762728e-02   1.5460194e-01  -7.6787757e-01
  -1.8839267e-02   1.5951715e-01  -8.1287595e-01
  -3.6910470e-03   1.5389982e-01  -8.6617287e-01
   9.7094365e-03   1.3880313e-01  -8.9387297e-01
   1.2855753e-02   1.3306879e-01  -9.2192406e-01
   1.4370457e-02   1.2277029e-01  -9.5640338e-01
   1.8448899e-02   1.1270583e-01  -9.7416876e-01
   1.3787878e-02   1.0088569e-01  -9.9684345e-01
   3.0683834e-02   7.4788387e-02  -1.0316734e+00
   4.0122391e-02   5.6297743e-02  -1.0572698e+00
   2.7537518e-02   3.8509608e-02  -1.0691913e+00
   3.8258140e-02   2.1306570e-02  -1.0846193e+00
   4.6880696e-02   1.8029632e-02  -1.0957227e+00
   5.2007779e-02   1.1827209e-02  -1.0852037e+00
   6.0980273e-02  -2.6843817e-03  -1.0797104e+00
   6.1562852e-02  -1.9419734e-02  -1.0790092e+00
   6.7272515e-02  -4.0952885e-02  -1.0597241e+00
   6.2611494e-02  -5.9560548e-02  -1.0508416e+00
   5.3289843e-02  -7.0444143e-02  -1.0375173e+00
   5.0609590e-02  -8.2848991e-02  -1.0035054e+00
   4.9444433e-02  -9.7945678e-02  -9.8620752e-01
   4.1637096e-02  -1.0543571e-01  -9.5511781e-01
   2.1245277e-02  -1.0473320e-01  -9.1830070e-01
   1.8099352e-02  -1.1655334e-01  -9.0334020e-01
   1.4720004e-02  -1.2509655e-01  -8.6874401e-01
   5.9805417e-03  -1.3598014e-01  -8.3566751e-01
   5.6309945e-03  -1.5060875e-01  -7.9429248e-01
  -9.7502566e-03  -1.5365126e-01  -7.3830717e-01
  -1.3828699e-02  -1.8080213e-01  -6.9833457e-01
  -2.3150740e-02  -2.0210124e-01  -6.4363561e-01
  -3.8648507e-02  -2.1684687e-01  -6.0003966e-01
  -3.2122843e-02  -2.4493350e-01  -5.6193698e-01
  -4.0046696e-02  -2.5804086e-01  -5.0887419e-01
  -4.6338937e-02  -2.6810532e-01  -4.6387581e-01
  -4.8436611e-02  -2.6553049e-01  -4.0496875e-01
  -4.9718285e-02  -2.6459434e-01  -3.5050313e-01
  -3.9930180e-02  -2.6857339e-01  -2.8949241e-01
  -4.6105905e-02  -2.6576453e-01  -2.1492363e-01
  -4.4707717e-02  -2.6529646e-01  -1.5461413e-01
  -3.3870970e-02  -2.5359373e-01  -9.0915406e-02
  -2.8743887e-02  -2.5160439e-01  -3.2592693e-02
  -2.4082866e-02  -2.4668918e-01   3.6482821e-02
  -2.2334739e-02  -2.2866662e-01   1.0567481e-01
  -1.6858108e-02  -2.1719793e-01   1.6341318e-01
  -1.8373204e-02  -2.1204868e-01   2.2863160e-01
  -1.5110372e-02  -2.1579369e-01   2.7748668e-01
  -3.4580155e-03  -2.0771857e-01   3.3499131e-01
  -3.1169944e-04  -1.9976046e-01   3.9471646e-01
   8.0782161e-03  -1.9589881e-01   4.3854575e-01
   1.9847088e-02  -1.8630243e-01   4.8798558e-01
   2.4391593e-02  -1.8150424e-01   5.3941219e-01
   2.8470035e-02  -1.7670605e-01   5.8791706e-01
   3.5344855e-02  -1.8045107e-01   6.2134456e-01
   4.1171033e-02  -1.8279146e-01   6.5781067e-01
   3.0450803e-02  -1.7787625e-01   7.0327653e-01
   1.9497541e-02  -1.8115319e-01   7.2571709e-01
   2.2293919e-02  -1.8641945e-01   7.4324912e-01
   1.4603489e-02  -2.0163316e-01   7.7188456e-01
   5.2814472e-03  -2.1626177e-01   7.9070177e-01
   3.4171953e-03  -2.1356993e-01   8.0168871e-01
   4.6988685e-03  -2.1345291e-01   8.2132400e-01
  -5.0892359e-03  -2.0350547e-01   8.4423243e-01
  -9.1676779e-03  -1.9882430e-01   8.4388182e-01
  -2.6424053e-03  -2.0806962e-01   8.5253097e-01
  -1.4993856e-02  -2.0771857e-01   8.7859489e-01
  -1.0332835e-02  -2.1965533e-01   8.7450405e-01
  -1.0915414e-02  -2.2433651e-01   8.7649084e-01
  -2.9909044e-02  -2.2351737e-01   8.8513998e-01
  -3.2355875e-02  -2.2421949e-01   8.6585491e-01
  -3.7249927e-02  -2.1064405e-01   8.4177817e-01
  -4.3659075e-02  -2.0877174e-01   8.4247939e-01
  -4.6222421e-02  -2.1427205e-01   8.4142717e-01
  -3.9114570e-02  -2.1567628e-01   8.0811693e-01
  -4.7504094e-02  -2.0502672e-01   7.9607817e-01
  -5.6010526e-02  -1.9215380e-01   7.7574127e-01
  -3.8648507e-02  -1.7436527e-01   7.2817175e-01
  -3.5036128e-02  -1.5692820e-01   7.0900354e-01
  -3.6434317e-02  -1.5903455e-01   6.8738107e-01
  -4.6688484e-02  -1.4019324e-01   6.5056435e-01
  -4.2493526e-02  -1.1795758e-01   6.1094237e-01
  -3.5152644e-02  -1.0391406e-01   5.8452745e-01
  -5.0184348e-02  -8.7647181e-02   5.4408738e-01
  -4.9019190e-02  -8.3434088e-02   4.9581664e-01
  -5.1349505e-02  -7.6997625e-02   4.8190796e-01
  -3.9464117e-02  -8.9051414e-02   4.3562401e-01
  -3.7249927e-02  -8.3551107e-02   3.8688540e-01
  -5.0067832e-02  -6.1666899e-02   3.7110681e-01
  -3.4453549e-02  -6.4943836e-02   3.3464070e-01
  -3.2705813e-02  -4.3176254e-02   2.8531774e-01
  -3.6434317e-02  -2.0238870e-02   2.4557889e-01
  -3.6201285e-02  -2.1994162e-02   2.1764506e-01
  -3.4220518e-02  -1.2514801e-02   1.7556842e-01
  -3.1307233e-02   5.7414117e-03   1.3711552e-01
  -4.1561401e-02   1.1944228e-02   1.1724610e-01
  -4.5756358e-02   1.7912613e-02   8.0078376e-02
  -4.2959980e-02   3.1371028e-02   3.4028164e-02
  -4.2027463e-02   2.9966402e-02   6.4449415e-03
  -4.1794432e-02   2.5168212e-02  -2.1956762e-02
  -3.3171876e-02   2.5636290e-02  -6.4968360e-02
  -2.2684677e-02   2.0604060e-02  -8.4019307e-02
  -1.5925982e-02   1.3582501e-02  -1.0096699e-01
  -8.8181307e-03   2.6221780e-02  -1.4958834e-01
  -1.1273096e-03   3.8743647e-02  -1.9131437e-01
   5.0484158e-03   3.0902558e-02  -2.2158599e-01
   3.8832583e-03   3.7222394e-02  -2.6845429e-01
   1.7399867e-02   4.4946070e-02  -3.1871220e-01
   3.3247572e-02   4.7169833e-02  -3.3425706e-01
