**************************************************************************************
  RED ACELEROGRÁFICA DE LA UNIVERSIDAD AUTONOMA METROPOLITANA (RAUAM)
				UNIDAD AZCAPOTZALCO
                        DIVISIÓN CBI-DEPARTAMENTO DE MATERIALES
     Av. San Pablo 180, Col. Reynosa, Azcapotzalco, C.P. 02200, Ciudad de México
**************************************************************************************
ARCHIVO ESTANDAR DE ACELERACION:
VERSION DEL FORMATO                    : 2.0
NOMBRE DEL ARCHIVO                     : RIDR202006.231
FECHA Y HORA DE CREACION               : 11:49 p. m. 24/06/2020
REF. CATALOGO ACELEROGRAMAS, SMIS 1995 : REGISTRO NO.      /PAG.    


================================================================================
DATOS DE LA ESTACION:
NOMBRE DE LA ESTACION                  : UAM-RECTORIA.
CLAVE DE LA ESTACION                   : RIDR
LOCALIZACION DE LA ESTACION            : PROL. CANAL DE MIRAMONTES 3855, COL. EX
                                       : DE SAN JUAN DE DIOS, C.P.14387 CIUDAD DE MEXICO. 
                                       :
                                       : 
                                       : 
COORDENADAS DE LA ESTACION             : 19.287271 LAT. N
                                       : 99.137132 LONG. W
ALTITUD (msnm)                         : 2240
TIPO DE SUELO                          : TRANSICION 
                                       : 
                                       : 
INSTITUCION RESPONSABLE                : UNIVERSIDAD AUTONOMA METROPOLITANA
                                       : 

================================================================================
DATOS DEL ACELEROGRAFO: 
MODELO DEL ACELEROGRAFO                : BASALT KINEMETRICS
NUMERO DE SERIE DEL ACELEROGRAFO       : 985
NUMERO DE CANALES                      : 3
ORIENTACION C1-C6 (rumbo;orientacion)  : /V/N00E/N90E
ORIENTACION C7-C12 (rumbo;orientacion) : 
VEL. DE MUESTREO, C1-C6 (muestras/s)   : /200/200/200
VEL. DE MUESTREO, C7-C12 (muestras/s)  : 
ESC. COMPLETA DE SENSORES, C1-C6, (g)  : /2/2/2
ESC. COMPLETA DE SENSORES, C7-C12 (g)  : 
FREC. NAT. DE SENSORES, C1-C6, (Hz)    : /208/204/204
FREC. NAT. DE SENSORES, C7-C12 (Hz)    : 
AMORTIGUAMIENTO DE SENSORES, C1-C6     : /0.7/0.7/0.7   
AMORTIGUAMIENTO DE SENSORES, C7-C12    : 
INTERVALO DE MUESTREO, C1-C6 (s)       : /0.005/0.005/0.005
INTERVALO DE MUESTREO, C7-C12 (s)      : 
UMBRAL DE DISPARO, C1-C6 (Gal)         : /2/2/2
UMBRAL DE DISPARO, C7-C12 (Gal)        : 
MEMORIA DE PREEVENTO (s)               : 60
TIEMPO DE POSEVENTO (s)                : 90


================================================================================
DATOS DEL SISMO:
FECHA DEL SISMO [GMT]                  : 2020/06/23
HORA EPICENTRO (GMT)                   : 15:29:03
MAGNITUD(ES)                           : /M=7.4
COORDENADAS DEL EPICENTRO              : 15.8033 LAT. N
                                       : 96.1337 LONG. W
PROFUNDIDAD FOCAL (Km)                 : 22.8
FUENTE DE LOS DATOS EPICENTRALES       : SSN
                                       : INSTITUTO DE GEOFISICA, UNAM

================================================================================
DATOS DE ESTE REGISTRO:
HORA DE LA PRIMERA MUESTRA (GMT)       : 15:29:53.00
EXACTITUD DEL TIEMPO (s)               : 
DURACION DEL REGISTRO (s), C1-C6       : /293.00/293.00/293.00
DURACION DEL REGISTRO (s), C7-C12      : 
NUM. TOTAL DE MUESTRAS, C1-C6          : /58600/58600/58600
NUM. TOTAL DE MUESTRAS, C7-C12         : 
ACEL. MAX.(Gal), C1-C6                 : /-6.658/-22.796/25.661
ACEL. MAX., C1-C6, EN LA MUESTRA       : /21651/20356/22965
ACEL. MAX.(Gal), C7-C12                : 
ACEL. MAX., C7-C12,EN LA MUESTRA       : 
UNIDADES DE LOS DATOS                  : Gal (cm/s/s)
FACTOR DE DECIMACION                   : 1
FORMATO DATOS (FORTRAN,16 campos/dato) : 3E16.7


================================================================================
CALIDAD DEL ACELEROGRAMA:
REGISTRO DIGITAL COMPLETO CON TIEMPO ABSOLUTO CORRECTO


================================================================================
COMENTARIOS:














================================================================================
DATOS DE ACELERACION:
---------+---------+---------+---------+---------+---------+---------+---------+
   CANAL-1   CANAL-2   CANAL-3
         V      N00E      N90E
---------+---------+---------+---------+---------+---------+---------+---------+
[...]
   1.4200278e+00   3.0725268e-01   1.3837311e+01
   1.1782028e+00   5.0915472e-01   1.3799181e+01
   9.7232481e-01  -1.7800510e-02   1.3679177e+01
   1.5927597e+00   5.1149137e-01   1.3723389e+01
   1.1499586e+00  -9.1878124e-02   1.3647129e+01
   1.1074761e+00   1.8083023e-01   1.3449461e+01
   1.4076562e+00  -6.3368669e-02   1.3432852e+01
   1.2750728e+00  -3.5757536e-01   1.3279163e+01
   1.2715713e+00   7.8009497e-02   1.3104654e+01
   1.2223196e+00  -6.6159715e-01   1.3000791e+01
   1.4688130e+00  -2.1549620e-01   1.2874471e+01
   1.0512215e+00  -6.2303932e-01   1.2735753e+01
   1.1975769e+00  -5.0409494e-01   1.2480306e+01
   1.4211948e+00  -3.8959018e-01   1.2446386e+01
   1.0736298e+00  -7.7025950e-01   1.2236555e+01
   1.3369294e+00  -2.0988785e-01   1.2013623e+01
   1.3941180e+00  -7.8708493e-01   1.1842155e+01
   1.4104574e+00  -4.9895392e-01   1.1554426e+01
   1.3371628e+00  -6.3752772e-01   1.1322839e+01
   1.4772159e+00  -8.8569892e-01   1.0932417e+01
   1.5803886e+00  -5.4966310e-01   1.0716503e+01
   1.2274549e+00  -9.8150892e-01   1.0309004e+01
   1.5696512e+00  -6.4617410e-01   9.9663023e+00
   1.5684838e+00  -9.2706111e-01   9.6451218e+00
   1.2951470e+00  -9.6374923e-01   9.2268620e+00
   1.5000915e+00  -7.4829344e-01   8.9019389e+00
   1.5094284e+00  -1.1591083e+00   8.4787667e+00
   1.5449085e+00  -7.1464297e-01   8.2141961e+00
   1.4650782e+00  -9.8431329e-01   7.7751170e+00
   1.7484521e+00  -9.5627117e-01   7.4204849e+00
   1.7241761e+00  -8.6560218e-01   7.0455016e+00
   1.5831894e+00  -1.2060784e+00   6.5715674e+00
   1.9746378e+00  -8.5017913e-01   6.1860571e+00
   1.8329508e+00  -1.2885684e+00   5.7317728e+00
   1.9449932e+00  -1.0621295e+00   5.2487155e+00
   2.0215558e+00  -1.0798896e+00   4.7518568e+00
   2.0201550e+00  -1.2780527e+00   4.3958212e+00
   2.0584363e+00  -9.8875332e-01   3.8411826e+00
   2.0549349e+00  -1.3568040e+00   3.2926260e+00
   2.2883569e+00  -1.0574562e+00   2.9286371e+00
   2.0894813e+00  -1.2780527e+00   2.4362227e+00
   2.2489085e+00  -1.2458046e+00   2.0224076e+00
   2.3700544e+00  -1.1352725e+00   1.5639125e+00
   2.2715502e+00  -1.4607930e+00   1.1019084e+00
   2.4435824e+00  -1.1542009e+00   7.0376633e-01
   2.3964310e+00  -1.4425656e+00   1.2760622e-01
   2.5056725e+00  -1.3694230e+00  -3.4936873e-01
   2.4692588e+00  -1.3965301e+00  -9.0377344e-01
   2.4982028e+00  -1.6225016e+00  -1.3767720e+00
   2.6669669e+00  -1.4544833e+00  -1.8497705e+00
   2.4102029e+00  -1.7526631e+00  -2.3480330e+00
   2.5096407e+00  -1.5297292e+00  -2.6785707e+00
   2.7622030e+00  -1.7680861e+00  -3.2446715e+00
   2.7927812e+00  -1.8809548e+00  -3.6011749e+00
   2.5432532e+00  -1.7019539e+00  -4.0985018e+00
   2.7626698e+00  -2.1772649e+00  -4.4840118e+00
   3.2486540e+00  -1.8643634e+00  -4.8868324e+00
   2.6496938e+00  -2.1994650e+00  -5.3946860e+00
   2.8203252e+00  -2.2345175e+00  -5.6828828e+00
   3.2663939e+00  -2.2674665e+00  -6.2999799e+00
   2.9265320e+00  -2.6701023e+00  -6.6431493e+00
   2.7211208e+00  -2.4060407e+00  -7.1074925e+00
   2.9136937e+00  -2.8710697e+00  -7.5140561e+00
   3.2099059e+00  -2.6866937e+00  -7.9019055e+00
   2.6473594e+00  -2.8974758e+00  -8.3458971e+00
   2.7638368e+00  -2.9075242e+00  -8.6565510e+00
   3.1226063e+00  -2.8778464e+00  -9.2030020e+00
   2.7769086e+00  -3.2391203e+00  -9.4876902e+00
   2.7080490e+00  -2.8416256e+00  -9.9330853e+00
   2.8707443e+00  -3.3643745e+00  -1.0313449e+01
   2.9230306e+00  -3.1486850e+00  -1.0685626e+01
   2.4050677e+00  -3.2839875e+00  -1.1110201e+01
   2.5084737e+00  -3.5134644e+00  -1.1454072e+01
   2.7678051e+00  -3.2477667e+00  -1.1913035e+01
   2.2073596e+00  -3.7092907e+00  -1.2206613e+01
   2.1690782e+00  -3.3683472e+00  -1.2677506e+01
   2.3555822e+00  -3.7712166e+00  -1.3028395e+01
   2.0535344e+00  -3.8261321e+00  -1.3315188e+01
   1.7069031e+00  -3.6361478e+00  -1.3767601e+01
   1.8082081e+00  -4.0282678e+00  -1.4059775e+01
   1.9216512e+00  -3.7141981e+00  -1.4352884e+01
   1.2655024e+00  -4.1430063e+00  -1.4689738e+01
   1.3009825e+00  -3.9097904e+00  -1.5021445e+01
   1.5274016e+00  -3.9707820e+00  -1.5266833e+01
   9.9543333e-01  -4.1993238e+00  -1.5591523e+01
   1.0192425e+00  -3.8209911e+00  -1.6010016e+01
   1.0360491e+00  -4.3935145e+00  -1.6228737e+01
   9.0066442e-01  -3.9331588e+00  -1.6617054e+01
   5.6757126e-01  -4.3028455e+00  -1.6956247e+01
   7.1486067e-01  -4.3086875e+00  -1.7245146e+01
   7.1672790e-01  -4.1666084e+00  -1.7561414e+01
   1.5884984e-01  -4.6996389e+00  -1.7863413e+01
   3.9577290e-01  -4.1135622e+00  -1.8274889e+01
   2.9586833e-01  -4.8709289e+00  -1.8403548e+01
   1.4601147e-01  -4.4907265e+00  -1.8831866e+01
  -5.3330469e-02  -4.6047639e+00  -1.9119595e+01
   8.9990302e-02  -4.8136763e+00  -1.9382060e+01
   1.8405939e-01  -4.4087039e+00  -1.9675170e+01
  -2.8651906e-01  -5.0417508e+00  -1.9832134e+01
   1.2383656e-01  -4.4512340e+00  -2.0220452e+01
   1.1076479e-01  -5.0179154e+00  -2.0216709e+01
  -9.5580044e-02  -4.7120243e+00  -2.0621167e+01
  -8.1574653e-02  -4.6916939e+00  -2.0916148e+01
   8.2520996e-02  -4.9389304e+00  -2.1144225e+01
   1.6025027e-01  -4.4189859e+00  -2.1420492e+01
  -3.1126180e-01  -5.0894223e+00  -2.1532075e+01
   1.2406997e-01  -4.5206379e+00  -2.1754772e+01
   9.5592380e-02  -5.0513318e+00  -2.1592662e+01
  -3.8992469e-01  -4.7865692e+00  -2.1971622e+01
  -2.2933048e-01  -4.4753035e+00  -2.2155254e+01
  -1.2802549e-01  -4.7454411e+00  -2.2422397e+01
   6.1921467e-03  -3.8333761e+00  -2.2758081e+01
  -1.4599914e-01  -4.5610651e+00  -2.2596439e+01
   1.8989487e-01  -4.0378489e+00  -2.2744046e+01
  -2.3919266e-02  -4.2607823e+00  -2.2628720e+01
  -3.5444460e-01  -4.2600813e+00  -2.2884168e+01
  -8.6943328e-02  -3.5370661e+00  -2.3094701e+01
  -4.4431203e-01  -3.9759230e+00  -2.3193885e+01
   4.2139041e-02  -2.9785637e+00  -2.3387109e+01
   1.4834590e-01  -3.5017799e+00  -2.3117158e+01
  -7.9240226e-02  -3.1199423e+00  -2.3203710e+01
  -2.6504398e-01  -2.9813681e+00  -2.3182423e+01
  -3.1079460e-01  -3.1094262e+00  -2.3333305e+01
  -4.8428602e-02  -2.2008670e+00  -2.3407694e+01
  -5.8810000e-01  -2.7168388e+00  -2.3241373e+01
  -1.1308649e-01  -1.7982312e+00  -2.3259619e+01
  -1.4926679e-01  -2.2426961e+00  -2.2928379e+01
  -5.9300187e-01  -1.8669338e+00  -2.3103356e+01
  -5.8483196e-01  -1.5047251e+00  -2.3044641e+01
  -4.7932531e-01  -1.7776671e+00  -2.3071776e+01
  -2.0715558e-01  -7.6839018e-01  -2.3079964e+01
  -7.5919815e-01  -1.4577550e+00  -2.2706852e+01
  -3.1219542e-01  -6.8449786e-01  -2.2787556e+01
  -4.0182945e-01  -1.0777867e+00  -2.2354559e+01
  -8.9715025e-01  -8.1746371e-01  -2.2428012e+01
  -6.2568072e-01  -3.0803490e-01  -2.2181453e+01
  -6.2638093e-01  -7.4268510e-01  -2.1917351e+01
  -5.0266763e-01   3.6497219e-01  -2.1852086e+01
  -8.6353739e-01  -3.1668089e-01  -2.1278733e+01
  -3.7545249e-01   4.1825207e-01  -2.1367859e+01
  -3.3437033e-01   1.7615654e-01  -2.0860239e+01
  -9.2189299e-01   2.4392443e-01  -2.0760821e+01
  -4.1373381e-01   9.7021100e-01  -2.0467711e+01
  -4.1093258e-01   2.5233714e-01  -1.9978338e+01
  -6.4762223e-01   1.4544024e+00  -1.9810613e+01
  -8.4883218e-01   7.8863936e-01  -1.9149070e+01
  -3.2433319e-01   1.2723635e+00  -1.9090588e+01
  -5.7035976e-01   1.5639995e+00  -1.8451269e+01
  -1.3114741e+00   1.2059972e+00  -1.8179213e+01
  -4.5761721e-01   2.2585057e+00  -1.7854757e+01
  -8.0098053e-01   1.5273113e+00  -1.7134265e+01
  -1.2482167e+00   2.4232519e+00  -1.6974259e+01
  -1.1132988e+00   2.1577883e+00  -1.6270844e+01
  -9.7021145e-01   2.2664507e+00  -1.5967910e+01
  -1.1009276e+00   2.7894332e+00  -1.5369761e+01
  -1.6277607e+00   2.2398109e+00  -1.4834304e+01
  -1.1062963e+00   3.2680159e+00  -1.4456747e+01
  -1.4195482e+00   2.5115842e+00  -1.3598239e+01
  -1.4386889e+00   3.2163721e+00  -1.3265830e+01
  -1.3343492e+00   3.1780479e+00  -1.2499020e+01
  -1.5180524e+00   2.9885313e+00  -1.1954674e+01
  -1.2293094e+00   3.7709017e+00  -1.1281201e+01
  -1.6331293e+00   2.9420281e+00  -1.0494040e+01
  -1.5019460e+00   3.8980251e+00  -1.0065019e+01
  -1.5404607e+00   3.3470009e+00  -9.1405439e+00
  -1.4081107e+00   3.7178559e+00  -8.7255589e+00
  -1.4926094e+00   3.9199916e+00  -7.8590968e+00
  -1.6791134e+00   3.4084594e+00  -7.1297157e+00
  -1.2946675e+00   4.1873249e+00  -6.4709798e+00
  -1.6539038e+00   3.4259858e+00  -5.5401880e+00
  -1.4244501e+00   4.0807655e+00  -5.0089417e+00
  -1.4312192e+00   3.8033839e+00  -4.0018904e+00
  -1.4267845e+00   4.0066879e+00  -3.4888905e+00
  -1.1415430e+00   4.2812656e+00  -2.4970441e+00
  -1.4566621e+00   3.8585331e+00  -1.7576037e+00
  -1.2253412e+00   4.6352951e+00  -1.0824932e+00
  -1.2367791e+00   4.0690811e+00   5.5791022e-02
  -1.1933625e+00   4.8348605e+00   4.9978261e-01
  -1.2012990e+00   4.6030470e+00   1.5870710e+00
  -1.2234739e+00   4.6231438e+00   2.1716521e+00
  -9.7954837e-01   5.2255782e+00   3.0156575e+00
  -1.2582538e+00   4.5200894e+00   3.9438760e+00
  -1.0049913e+00   5.3896238e+00   4.4669347e+00
  -1.0617127e+00   4.9643206e+00   5.6136403e+00
  -1.0929911e+00   5.3531694e+00   6.1654717e+00
  -9.6577639e-01   5.6198017e+00   7.0476067e+00
  -1.2258084e+00   5.3466260e+00   7.7945329e+00
  -9.8491705e-01   6.1243231e+00   8.5332711e+00
  -1.1907951e+00   5.5997049e+00   9.4432436e+00
  -1.0460735e+00   6.2757497e+00   9.9983500e+00
  -1.0409382e+00   6.0981507e+00   1.1160963e+01
  -1.2405136e+00   6.2678043e+00   1.1687296e+01
  -1.0416384e+00   6.6991832e+00   1.2465334e+01
  -1.2069011e+00   6.2586910e+00   1.3338347e+01
  -1.1674528e+00   6.9875479e+00   1.3846434e+01
  -1.3170762e+00   6.5255569e+00   1.4762722e+01
  -1.0740839e+00   7.0541478e+00   1.5211392e+01
  -1.1083969e+00   6.9877819e+00   1.6159495e+01
  -1.3611926e+00   6.9592725e+00   1.6508512e+01
  -9.6764362e-01   7.4366868e+00   1.7268070e+01
  -1.1165669e+00   6.9370723e+00   1.8155118e+01
  -1.2297762e+00   7.6061067e+00   1.8370330e+01
  -1.2598876e+00   7.2282414e+00   1.9414108e+01
  -9.9168614e-01   7.6047047e+00   1.9512123e+01
  -8.3155875e-01   7.5404418e+00   2.0545842e+01
  -1.4232831e+00   7.4172911e+00   2.0912170e+01
  -9.8351624e-01   7.8729727e+00   2.1046678e+01
  -5.2087429e-01   7.2502078e+00   2.2245783e+01
  -1.1172671e+00   7.7605713e+00   2.2155253e+01
  -1.1511133e+00   7.3065254e+00   2.2916682e+01
  -5.9300187e-01   7.5025854e+00   2.3165814e+01
  -7.1904960e-01   7.4736086e+00   2.3619397e+01
  -1.1242696e+00   7.1382734e+00   2.4052861e+01
  -5.6919275e-01   7.6404582e+00   2.4081634e+01
  -4.5855083e-01   7.0277413e+00   2.4851017e+01
  -7.6783448e-01   7.5511916e+00   2.4728908e+01
  -4.6438631e-01   7.1882816e+00   2.5109973e+01
  -2.1789293e-01   7.1721575e+00   2.5161203e+01
  -2.5103898e-01   7.3593375e+00   2.5301559e+01
  -3.3437033e-01   6.7118023e+00   2.5453611e+01
   3.4202536e-02   7.1997323e+00   2.5233486e+01
  -1.1612113e-01   6.5194809e+00   2.5660635e+01
  -2.3049750e-01   6.7015202e+00   2.5238165e+01
   2.9767476e-02   6.4832601e+00   2.5402615e+01
  -2.9113767e-03   6.0196331e+00   2.5375246e+01
  -4.0492488e-02   6.2451372e+00   2.5003069e+01
  -1.3035992e-01   5.5267957e+00   2.5203076e+01
   7.9019550e-02   5.6882706e+00   2.4812887e+01
  -8.5542906e-02   5.1293009e+00   2.4844233e+01
  -1.4413152e-01   5.0601306e+00   2.4587850e+01
  -1.4506513e-01   4.7247958e+00   2.4398604e+01
  -2.5220599e-01   4.2997263e+00   2.4210761e+01
  -2.5990870e-01   4.2763582e+00   2.3855194e+01
  -5.1480540e-01   3.5016991e+00   2.3616121e+01
  -4.2167032e-01   3.6914494e+00   2.3078794e+01
  -4.9193028e-01   2.9137527e+00   2.3066161e+01
  -6.1914503e-01   2.8240183e+00   2.2446959e+01
  -8.5396745e-01   2.5417293e+00   2.2203208e+01
  -8.5116622e-01   1.9563532e+00   2.1857933e+01
  -7.6783448e-01   1.9124211e+00   2.1254170e+01
  -1.2862646e+00   1.2130079e+00   2.1032408e+01
  -1.3499885e+00   1.1637007e+00   2.0319168e+01
  -1.1914953e+00   4.1801840e-01   2.0089920e+01
  -1.4858399e+00   2.9206329e-01   1.9295741e+01
  -1.8712194e+00  -1.8254711e-01   1.8825550e+01
  -1.5673044e+00  -6.2841401e-01   1.8325650e+01
  -1.4888746e+00  -9.3804414e-01   1.7593461e+01
  -2.1991769e+00  -1.6764825e+00   1.7229472e+01
  -2.1522593e+00  -1.4619613e+00   1.6462429e+01
  -1.8219673e+00  -2.2957423e+00   1.6082299e+01
  -2.1833043e+00  -2.1999323e+00   1.5359234e+01
  -2.7024342e+00  -2.4317458e+00   1.4904715e+01
  -2.3838136e+00  -2.8855581e+00   1.4300016e+01
  -2.0411505e+00  -2.7369355e+00   1.3669352e+01
  -3.0369278e+00  -3.4629888e+00   1.3239630e+01
  -3.0731081e+00  -3.2358490e+00   1.2398899e+01
  -2.4349330e+00  -3.9829334e+00   1.2030466e+01
  -3.1930870e+00  -4.1252462e+00   1.1305529e+01
  -3.8314955e+00  -4.1731514e+00   1.0725159e+01
  -3.3630181e+00  -4.9704775e+00   1.0114845e+01
  -3.2596121e+00  -4.6940305e+00   9.4743557e+00
  -4.3543603e+00  -5.5226705e+00   9.1199579e+00
  -4.2054371e+00  -5.3887700e+00   8.3094041e+00
  -3.8240262e+00  -5.6208176e+00   8.0263536e+00
  -4.4820418e+00  -6.0863139e+00   7.5776835e+00
  -4.5926842e+00  -5.8673531e+00   6.9580134e+00
  -4.5840474e+00  -6.6321975e+00   6.6047851e+00
  -4.5385302e+00  -6.4375395e+00   6.0028932e+00
  -4.7997292e+00  -6.9701031e+00   5.6124704e+00
  -4.8706894e+00  -7.0310943e+00   4.9404010e+00
  -4.8135008e+00  -7.2932865e+00   4.5317323e+00
  -4.6722807e+00  -7.7749073e+00   4.1015420e+00
  -4.6484719e+00  -7.5582832e+00   3.4743865e+00
  -4.9099043e+00  -8.3415883e+00   3.1667737e+00
  -4.3667319e+00  -8.0240131e+00   2.5279216e+00
  -4.3097767e+00  -8.4577287e+00   2.1344580e+00
  -4.3793364e+00  -8.6376647e+00   1.6118671e+00
  -4.1445140e+00  -8.5481640e+00   1.1536060e+00
  -3.8989542e+00  -8.8926129e+00   6.5113275e-01
  -3.4673577e+00  -8.7402517e+00   6.6785475e-02
  -3.5086733e+00  -9.1667229e+00  -2.7919089e-01
  -3.2836546e+00  -8.8152640e+00  -9.8611567e-01
  -2.8252143e+00  -9.1424202e+00  -1.3234371e+00
  -2.5945935e+00  -8.9094380e+00  -1.8252082e+00
  -2.6709224e+00  -8.7965692e+00  -2.2925925e+00
  -2.5000576e+00  -9.0898413e+00  -2.6774011e+00
  -2.0196758e+00  -8.4642721e+00  -3.2453733e+00
  -2.2930126e+00  -9.0468438e+00  -3.5333362e+00
  -2.2509968e+00  -8.5841515e+00  -4.1230641e+00
  -1.9701904e+00  -8.5974712e+00  -4.4919654e+00
  -2.0528215e+00  -8.7883902e+00  -4.8608667e+00
  -1.9848960e+00  -8.2675110e+00  -5.3259116e+00
  -2.0336808e+00  -8.7937649e+00  -5.6024122e+00
  -1.8852248e+00  -8.2654077e+00  -6.0618433e+00
  -1.9834952e+00  -8.5430230e+00  -6.3689882e+00
  -1.8796227e+00  -8.5647558e+00  -6.7849085e+00
  -1.8119302e+00  -8.3843524e+00  -7.1065569e+00
  -2.0469860e+00  -8.8416701e+00  -7.4197838e+00
  -1.6805138e+00  -8.4514193e+00  -7.8558221e+00
  -1.6973200e+00  -9.0307194e+00  -8.0099791e+00
  -1.7582431e+00  -8.7893249e+00  -8.4537368e+00
  -1.7678134e+00  -8.9802439e+00  -8.6916399e+00
  -1.4732354e+00  -9.1688262e+00  -8.9674384e+00
  -1.3282804e+00  -8.9344421e+00  -9.2975083e+00
  -1.7519408e+00  -9.3623156e+00  -9.5213753e+00
  -1.1935959e+00  -8.8542888e+00  -9.9637296e+00
  -8.8081082e-01  -9.4123238e+00  -1.0073207e+01
  -1.1805245e+00  -9.0977867e+00  -1.0499420e+01
  -1.1567154e+00  -9.0674079e+00  -1.0685392e+01
  -6.0630666e-01  -9.2683753e+00  -1.0973589e+01
  -3.1663048e-01  -8.7757715e+00  -1.1262487e+01
  -7.1904960e-01  -9.3127747e+00  -1.1323776e+01
  -2.4123524e-01  -8.7056666e+00  -1.1841454e+01
   2.4054737e-01  -9.0723152e+00  -1.1863677e+01
   8.9929898e-03  -9.0092207e+00  -1.2136201e+01
  -4.2359717e-02  -8.6759888e+00  -1.2381355e+01
