**************************************************************************************
  RED ACELEROGRÁFICA DE LA UNIVERSIDAD AUTONOMA METROPOLITANA (RAUAM)
				UNIDAD AZCAPOTZALCO
                        DIVISIÓN CBI-DEPARTAMENTO DE MATERIALES
     Av. San Pablo 180, Col. Reynosa, Azcapotzalco, C.P. 02200, Ciudad de México
**************************************************************************************
ARCHIVO ESTANDAR DE ACELERACION:
VERSION DEL FORMATO                    : 2.0
NOMBRE DEL ARCHIVO                     : RIDX202007021
FECHA Y HORA DE CREACION               : 08:23 p. m. 03/07/2020
REF. CATALOGO ACELEROGRAMAS, SMIS 1995 : REGISTRO NO.      /PAG.    


================================================================================
DATOS DE LA ESTACION:
NOMBRE DE LA ESTACION                  : UAM-XOCHIMILCO.
CLAVE DE LA ESTACION                   : RIDX
LOCALIZACION DE LA ESTACION            : CALZADA DEL HUESO 1100, COL. VILLA
                                       : QUIETUD, DEL. COYOACAN, C.P.04960, 
                                       : CIUDAD DE MEXICO.
                                       : 
                                       : 
COORDENADAS DE LA ESTACION             : 19.301345 LAT. N
                                       : 99.10268 LONG. W
ALTITUD (msnm)                         : 2232
TIPO DE SUELO                          : LAGO
                                       : 
                                       : 
INSTITUCION RESPONSABLE                : UNIVERSIDAD AUTONOMA METROPOLITANA
                                       : 

================================================================================
DATOS DEL ACELEROGRAFO: 
MODELO DEL ACELEROGRAFO                : BASALT KINEMETRICS
NUMERO DE SERIE DEL ACELEROGRAFO       : 1729
NUMERO DE CANALES                      : 3
ORIENTACION C1-C6 (rumbo;orientacion)  : /V/N00E/N90E
ORIENTACION C7-C12 (rumbo;orientacion) : 
VEL. DE MUESTREO, C1-C6 (muestras/s)   : /200/200/200
VEL. DE MUESTREO, C7-C12 (muestras/s)  : 
ESC. COMPLETA DE SENSORES, C1-C6, (g)  : /2/2/2
ESC. COMPLETA DE SENSORES, C7-C12 (g)  : 
FREC. NAT. DE SENSORES, C1-C6, (Hz)    : /208/210/200   
FREC. NAT. DE SENSORES, C7-C12 (Hz)    : 
AMORTIGUAMIENTO DE SENSORES, C1-C6     : /0.7/0.7/0.7      
AMORTIGUAMIENTO DE SENSORES, C7-C12    : 
INTERVALO DE MUESTREO, C1-C6 (s)       : /0.005/0.005/0.005
INTERVALO DE MUESTREO, C7-C12 (s)      : 
UMBRAL DE DISPARO, C1-C6 (Gal)         : /2/2/2
UMBRAL DE DISPARO, C7-C12 (Gal)        : 
MEMORIA DE PREEVENTO (s)               : 60
TIEMPO DE POSEVENTO (s)                : 80


================================================================================
DATOS DEL SISMO:
FECHA DEL SISMO [GMT]                  : 2020/07/02
HORA EPICENTRO (GMT)                   : 16:17:56
MAGNITUD(ES)                           : /M=5.2
COORDENADAS DEL EPICENTRO              : 16.1683 LAT. N
                                       : 98.0412 LONG. W
PROFUNDIDAD FOCAL (Km)                 : 16.1
FUENTE DE LOS DATOS EPICENTRALES       : SSN
                                       : INSTITUTO DE GEOFISICA, UNAM

================================================================================
DATOS DE ESTE REGISTRO:
HORA DE LA PRIMERA MUESTRA (GMT)       : 16:18:42.00
EXACTITUD DEL TIEMPO (s)               : 
DURACION DEL REGISTRO (s), C1-C6       : /145.00/145.00/145.00
DURACION DEL REGISTRO (s), C7-C12      : 
NUM. TOTAL DE MUESTRAS, C1-C6          : /29000/29000/29000
NUM. TOTAL DE MUESTRAS, C7-C12         : 
ACEL. MAX.(Gal), C1-C6                 : /0.439/0.965/1.179
ACEL. MAX., C1-C6, EN LA MUESTRA       : /12207/12788/12972
ACEL. MAX.(Gal), C7-C12                : 
ACEL. MAX., C7-C12,EN LA MUESTRA       : 
UNIDADES DE LOS DATOS                  : Gal (cm/s/s)
FACTOR DE DECIMACION                   : 1
FORMATO DATOS (FORTRAN,16 campos/dato) : 3E16.7


================================================================================
CALIDAD DEL ACELEROGRAMA:
REGISTRO DIGITAL COMPLETO CON TIEMPO ABSOLUTO CORRECTO


================================================================================
COMENTARIOS:














================================================================================
DATOS DE ACELERACION:
---------+---------+---------+---------+---------+---------+---------+---------+
   CANAL-1   	     CANAL-2       CANAL-3
         V             N00E           N90E
---------+---------+---------+---------+---------+---------+---------+---------+ 
[...]
  -7.2442742e-04   9.5961920e-02  -4.6130458e-01
  -2.8227144e-03   1.2354955e-01  -4.8892755e-01
  -1.4480646e-02   1.5978772e-01  -5.0882562e-01
  -8.4185374e-03   1.8690819e-01  -5.2614845e-01
  -1.3781217e-02   2.2478279e-01  -5.4183314e-01
  -2.2641434e-02   2.5868319e-01  -5.6430604e-01
  -2.0543147e-02   2.9585646e-01  -5.8092664e-01
  -3.3133651e-02   3.3139329e-01  -5.9918617e-01
  -3.4766043e-02   3.6131909e-01  -6.1697716e-01
  -3.9662046e-02   3.9942786e-01  -6.2025462e-01
  -3.4299366e-02   4.2958743e-01  -6.3359815e-01
  -3.3833080e-02   4.6909886e-01  -6.4272791e-01
  -4.5724546e-02   5.0323303e-01  -6.5115506e-01
  -4.1294438e-02   5.3760059e-01  -6.6028482e-01
  -4.2693296e-02   5.7477425e-01  -6.6707343e-01
  -4.1294438e-02   6.0212811e-01  -6.7620319e-01
  -5.2952370e-02   6.4280843e-01  -6.7222350e-01
  -5.2252941e-02   6.7273422e-01  -6.7854435e-01
  -4.9454834e-02   7.0569951e-01  -6.7690542e-01
  -6.3211444e-02   7.3983368e-01  -6.7058497e-01
  -5.8781336e-02   7.6204405e-01  -6.7503281e-01
  -5.7382478e-02   7.8589126e-01  -6.6871236e-01
  -6.3211444e-02   8.0669897e-01  -6.6332821e-01
  -6.9739839e-02   8.3054617e-01  -6.5934852e-01
  -6.4377159e-02   8.4200203e-01  -6.5513475e-01
  -6.6942123e-02   8.6421240e-01  -6.4670721e-01
  -6.4377159e-02   8.8502011e-01  -6.4600498e-01
  -5.9480765e-02   9.0045056e-01  -6.3570484e-01
  -5.9014479e-02   9.2079111e-01  -6.2212723e-01
  -4.1760724e-02   9.2570043e-01  -6.2306393e-01
  -5.3651799e-02   9.4136505e-01  -6.0269771e-01
  -4.7589690e-02   9.4253393e-01  -5.9356795e-01
  -3.6164901e-02   9.4814497e-01  -5.9099271e-01
  -4.2227010e-02   9.6217276e-01  -5.7086057e-01
  -3.1734793e-02   9.5819816e-01  -5.6149673e-01
  -3.5465472e-02   9.6404298e-01  -5.4815359e-01
  -3.0802221e-02   9.6474431e-01  -5.3106444e-01
  -3.0569078e-02   9.6357542e-01  -5.1889169e-01
  -3.5698615e-02   9.5632795e-01  -5.0718708e-01
  -3.3366794e-02   9.4276771e-01  -4.9314132e-01
  -3.9195760e-02   9.3902689e-01  -4.7979779e-01
  -3.1268507e-02   9.2897370e-01  -4.7230695e-01
  -3.3599937e-02   9.1892051e-01  -4.5802711e-01
  -4.3159582e-02   9.0863354e-01  -4.4866327e-01
  -4.6890261e-02   8.9951546e-01  -4.4187466e-01
  -5.4118085e-02   8.9016360e-01  -4.2736075e-01
  -5.2719227e-02   8.7824019e-01  -4.2080622e-01
  -5.6216763e-02   8.7309671e-01  -4.1495352e-01
  -5.9480765e-02   8.5696492e-01  -4.0699453e-01
  -6.3677730e-02   8.4036559e-01  -3.9926923e-01
  -6.8807267e-02   8.2703913e-01  -3.9435323e-01
  -6.1113157e-02   8.0623142e-01  -3.8967131e-01
  -6.3444587e-02   7.9196985e-01  -3.8288270e-01
  -5.9480765e-02   7.7981267e-01  -3.7960524e-01
  -5.4351228e-02   7.7233102e-01  -3.7024140e-01
  -5.9480765e-02   7.6251161e-01  -3.6719841e-01
  -5.1320369e-02   7.5105576e-01  -3.6860286e-01
  -4.7123404e-02   7.4544472e-01  -3.6040980e-01
  -3.4532509e-02   7.3165070e-01  -3.5783456e-01
  -2.0543147e-02   7.2112996e-01  -3.5643011e-01
  -1.5879896e-02   7.0897239e-01  -3.4074581e-01
  -3.0558574e-03   6.9050283e-01  -3.2880674e-01
   8.6020747e-03   6.7437105e-01  -3.1359059e-01
   2.5623078e-02   6.5636866e-01  -2.9650184e-01
   4.0545012e-02   6.3672984e-01  -3.1382467e-01
   5.1970192e-02   6.1522079e-01  -3.2506151e-01
   6.9457090e-02   6.0189433e-01  -3.1827251e-01
   8.2514271e-02   5.8576255e-01  -3.2763635e-01
   9.0441524e-02   5.6963077e-01  -3.2693413e-01
   9.8136026e-02   5.6214912e-01  -3.1710213e-01
   1.1165949e-01   5.4929061e-01  -3.1312244e-01
   1.1935360e-01   5.4508223e-01  -3.0282229e-01
   1.2751439e-01   5.3198955e-01  -2.8198792e-01
   1.4080432e-01   5.0790857e-01  -2.6255801e-01
   1.5129693e-01   4.9505006e-01  -2.4944895e-01
   1.6178915e-01   4.7915205e-01  -2.3516911e-01
   1.6505315e-01   4.6629315e-01  -2.2182558e-01
   1.7461280e-01   4.5998078e-01  -2.0754574e-01
   1.8370615e-01   4.5811056e-01  -1.8413653e-01
   1.8510501e-01   4.5717506e-01  -1.6587700e-01
   1.8813626e-01   4.5343463e-01  -1.5815170e-01
   1.8603758e-01   4.5062892e-01  -1.3380618e-01
   1.8347301e-01   4.4384900e-01  -9.4712283e-02
   1.8254044e-01   4.3075631e-01  -6.8727840e-02
   1.8300673e-01   4.1135126e-01  -6.4279996e-02
   1.7671147e-01   3.9779142e-01  -6.0534381e-02
   1.8370615e-01   3.8563384e-01  -4.7893471e-02
   1.9419837e-01   3.7090472e-01  -3.4081786e-02
   1.8230730e-01   3.5453916e-01  -2.0972330e-02
   1.8044176e-01   3.3934249e-01  -3.6494988e-03
   1.7647833e-01   3.4588863e-01   2.0930486e-02
   1.6458686e-01   3.4355087e-01   3.4742171e-02
   1.5992361e-01   3.3583544e-01   5.6980998e-02
   1.5992361e-01   3.3747227e-01   8.4604369e-02
   1.5945733e-01   3.2157388e-01   9.3265588e-02
   1.4873197e-01   3.1268996e-01   1.0169312e-01
   1.4803254e-01   2.9445380e-01   1.1152512e-01
   1.4826568e-01   2.7458119e-01   1.2369827e-01
   1.4500129e-01   2.7154209e-01   1.3376434e-01
   1.4546757e-01   2.5611125e-01   1.4710748e-01
   1.4150414e-01   2.5564370e-01   1.5576909e-01
   1.4220357e-01   2.5985207e-01   1.5342793e-01
   1.3870604e-01   2.5634542e-01   1.6770777e-01
   1.3567479e-01   2.5915074e-01   1.8362614e-01
   1.3264393e-01   2.5611125e-01   1.7707161e-01
   1.2728125e-01   2.5540992e-01   1.5998286e-01
   1.3404278e-01   2.4161630e-01   1.4523487e-01
   1.3427593e-01   2.3016005e-01   1.2416642e-01
   1.3427593e-01   2.2595168e-01   1.0824765e-01
   1.3754032e-01   2.0678080e-01   1.0075682e-01
   1.3754032e-01   2.0748213e-01   9.4202286e-02
   1.4756625e-01   2.1169050e-01   8.5306598e-02
   1.4756625e-01   2.1379449e-01   6.8920072e-02
   1.4803254e-01   2.2688718e-01   6.2599224e-02
   1.4500129e-01   2.2454902e-01   5.5576540e-02
   1.3823975e-01   2.1823665e-01   2.9826174e-02
   1.4779940e-01   2.0537774e-01  -9.9699540e-03
   1.4803254e-01   1.9602627e-01  -3.5954397e-02
   1.6015676e-01   1.9181790e-01  -5.2340922e-02
   1.6761811e-01   1.8714197e-01  -7.8559834e-02
   1.5875790e-01   1.8901218e-01  -9.8457898e-02
   1.5852476e-01   1.8340115e-01  -1.1999450e-01
   1.5153007e-01   1.9322056e-01  -1.4597894e-01
   1.5129693e-01   2.0350753e-01  -1.7734753e-01
   1.4989768e-01   2.0233864e-01  -2.0309790e-01
   1.4779940e-01   2.0911856e-01  -2.2276189e-01
   1.4406872e-01   2.0865101e-01  -2.5108748e-01
   1.3614146e-01   2.0678080e-01  -2.6887847e-01
   1.4406872e-01   2.0888479e-01  -2.8315831e-01
   1.4266986e-01   2.1122295e-01  -3.0750421e-01
   1.3544164e-01   2.0888479e-01  -3.3348866e-01
   1.3450907e-01   2.0888479e-01  -3.4893888e-01
   1.3450907e-01   2.1309316e-01  -3.6790064e-01
   1.3147821e-01   2.1075500e-01  -3.9997146e-01
   1.2168542e-01   2.1496338e-01  -4.2408329e-01
   1.2051932e-01   2.2595168e-01  -4.4702474e-01
   1.0769567e-01   2.3390088e-01  -4.7090210e-01
   9.8602312e-02   2.3249821e-01  -4.8869348e-01
   1.0443128e-01   2.3249821e-01  -4.9173686e-01
   9.7669740e-02   2.3366710e-01  -4.9829139e-01
   9.3939061e-02   2.2735473e-01  -5.1327346e-01
   8.2980557e-02   2.2665340e-01  -5.2076430e-01
   7.9249878e-02   2.2758851e-01  -5.3785345e-01
   7.6219019e-02   2.3740792e-01  -5.4300352e-01
   6.6659374e-02   2.4114835e-01  -5.4698321e-01
   7.2255197e-02   2.4231763e-01  -5.6056043e-01
   6.1529837e-02   2.5330593e-01  -5.6454012e-01
   5.6633443e-02   2.4325274e-01  -5.8116072e-01
   4.5674940e-02   2.4372029e-01  -5.8373595e-01
   3.2151473e-02   2.4769489e-01  -5.7601065e-01
   4.0311869e-02   2.3016005e-01  -5.7952218e-01
   3.0285938e-02   2.2969250e-01  -5.6500827e-01
   2.8887080e-02   2.3226444e-01  -5.5494220e-01
   2.1892399e-02   2.3062761e-01  -5.5541035e-01
   6.0375018e-03   2.3203066e-01  -5.4838767e-01
   7.9026457e-03   2.3156311e-01  -5.3761937e-01
  -2.3564284e-03   2.3857681e-01  -5.1561422e-01
  -2.8227144e-03   2.3787548e-01  -4.9150279e-01
   9.0796472e-04   2.3904436e-01  -4.6130458e-01
  -3.2890003e-03   2.4231763e-01  -4.3438343e-01
  -9.5757041e-04   2.4161630e-01  -4.1776283e-01
  -7.7191084e-03   2.4722734e-01  -3.8967131e-01
  -1.2149216e-02   2.4348651e-01  -3.6298464e-01
  -1.3548074e-02   2.4418784e-01  -3.3559574e-01
  -1.7978183e-02   2.4792867e-01  -3.0212006e-01
  -1.7278754e-02   2.4488917e-01  -2.6700586e-01
  -1.8677611e-02   2.5237082e-01  -2.3329611e-01
  -2.1942005e-02   2.5564370e-01  -1.9701152e-01
  -2.4506578e-02   2.4979888e-01  -1.5417240e-01
  -2.5905827e-02   2.5657920e-01  -1.1226919e-01
  -2.7770971e-02   2.5704675e-01  -7.5750525e-02
  -3.4532509e-02   2.5400726e-01  -4.2743397e-02
  -3.7330616e-02   2.6055340e-01  -1.1842565e-02
  -3.8496331e-02   2.5774808e-01   1.7887493e-02
  -4.3859011e-02   2.5330593e-01   5.9790308e-02
  -4.3859011e-02   2.4372029e-01   9.6074897e-02
  -4.3159582e-02   2.3647281e-01   1.3563695e-01
  -4.4325297e-02   2.3109516e-01   1.7871015e-01
  -4.1760724e-02   2.2267880e-01   2.0820613e-01
  -4.6190832e-02   2.2454902e-01   2.4449072e-01
  -5.3418656e-02   2.1496338e-01   2.8030755e-01
  -4.9454834e-02   2.0537774e-01   3.1823067e-01
  -4.7356547e-02   1.9929915e-01   3.6130426e-01
  -4.9221691e-02   1.8129715e-01   4.0671861e-01
  -5.5284191e-02   1.7498439e-01   4.4885550e-01
  -6.4144016e-02   1.6656803e-01   4.8350156e-01
  -6.5310122e-02   1.4879942e-01   5.1978615e-01
  -7.6268625e-02   1.4622787e-01   5.5396405e-01
  -8.2330734e-02   1.3430408e-01   5.9001456e-01
  -8.1631305e-02   1.1513280e-01   6.2653323e-01
  -9.4221809e-02   1.0110540e-01   6.6234967e-01
  -1.0518070e-01   8.3336792e-02   6.9793203e-01
  -1.1823749e-01   6.7906340e-02   7.3702592e-01
  -1.3036210e-01   5.5515381e-02   7.7331051e-01
  -1.3036210e-01   4.4059136e-02   8.0233834e-01
  -1.3992136e-01   2.9330016e-02   8.3534586e-01
  -1.5391111e-01   1.9744771e-02   8.6484184e-01
  -1.5227911e-01   5.7349700e-04   8.8614436e-01
  -1.6556943e-01  -2.4208814e-02   9.1329919e-01
  -1.7256411e-01  -4.6419580e-02   9.3858140e-01
  -1.6486961e-01  -7.7981814e-02   9.5005193e-01
  -1.7582851e-01  -1.0533567e-01   9.6807738e-01
  -1.8095804e-01  -1.4321066e-01   9.8516614e-01
  -1.8095804e-01  -1.7781239e-01   9.9218922e-01
  -1.8538815e-01  -1.9885388e-01   1.0097461e+00
  -1.8865215e-01  -2.2714324e-01   1.0308150e+00
  -1.8119119e-01  -2.4724962e-01   1.0469674e+00
  -1.7396297e-01  -2.5987435e-01   1.0624176e+00
  -1.7629479e-01  -2.7109643e-01   1.0750585e+00
  -1.7023229e-01  -2.8348778e-01   1.0926158e+00
  -1.6113932e-01  -2.9611252e-01   1.1132161e+00
  -1.5181282e-01  -3.0873765e-01   1.1235163e+00
  -1.4505089e-01  -3.3609150e-01   1.1314753e+00
  -1.3339296e-01  -3.5760055e-01   1.1434143e+00
  -1.2616514e-01  -3.7139456e-01   1.1502030e+00
  -1.2336703e-01  -3.9430666e-01   1.1487985e+00
  -1.0891099e-01  -4.0833445e-01   1.1593327e+00
  -1.0378145e-01  -4.1745214e-01   1.1705692e+00
  -9.2822951e-02  -4.2750533e-01   1.1605031e+00
  -7.7201197e-02  -4.3825985e-01   1.1647169e+00
  -7.1838517e-02  -4.3592208e-01   1.1794649e+00
  -6.4843445e-02  -4.3358431e-01   1.1693988e+00
  -5.7615621e-02  -4.4807926e-01   1.1518419e+00
  -4.5025117e-02  -4.4433883e-01   1.1595668e+00
  -3.8030045e-02  -4.4878099e-01   1.1555871e+00
  -3.6164901e-02  -4.6584788e-01   1.1260911e+00
  -2.5672684e-02  -4.6327594e-01   1.1214092e+00
  -1.1216644e-02  -4.6748431e-01   1.1181321e+00
  -1.6569994e-03  -4.7449841e-01   1.1001067e+00
  -2.1232854e-03  -4.7590107e-01   1.0884021e+00
   5.5712158e-03  -4.8548670e-01   1.0757608e+00
   1.3964755e-02  -4.8829203e-01   1.0525856e+00
   1.0467610e-02  -4.9133152e-01   1.0155984e+00
   1.6762862e-02  -5.0091715e-01   9.9874375e-01
   3.0052795e-02  -5.0372248e-01   1.0008508e+00
   3.5882152e-02  -5.1260678e-01   9.7907976e-01
   3.1918330e-02  -5.2032221e-01   9.5824539e-01
   2.7021936e-02  -5.2499814e-01   9.4279517e-01
   3.2850902e-02  -5.2920651e-01   9.1376734e-01
   3.1685187e-02  -5.3458377e-01   8.9925343e-01
   2.7954508e-02  -5.5141689e-01   8.7935536e-01
   3.9146154e-02  -5.6076875e-01   8.4470970e-01
   4.3576262e-02  -5.6825000e-01   8.1334072e-01
   3.0285938e-02  -5.6988683e-01   7.8641997e-01
   2.5389544e-02  -5.6754867e-01   7.5622176e-01
   1.9793721e-02  -5.7386104e-01   7.2672578e-01
   2.7731087e-03  -5.7573164e-01   7.0167764e-01
   9.0796472e-04  -5.8531728e-01   6.5930667e-01
  -1.0284073e-02  -5.8765505e-01   6.3425854e-01
  -1.9843718e-02  -5.9747446e-01   6.0757186e-01
  -2.4273435e-02  -6.0542366e-01   5.7152096e-01
  -4.0595009e-02  -5.9700691e-01   5.4998436e-01
  -3.8962617e-02  -6.1150225e-01   5.1065638e-01
  -4.1527581e-02  -6.1196981e-01   4.8490602e-01
  -3.5931758e-02  -6.0776143e-01   4.6009196e-01
  -3.4766043e-02  -6.1594441e-01   4.2942559e-01
  -4.3159582e-02  -6.1711329e-01   3.9758885e-01
  -2.9869649e-02  -6.1968523e-01   3.6177241e-01
  -3.0569078e-02  -6.1384002e-01   3.4491734e-01
  -2.8703543e-02  -6.1103470e-01   3.1191021e-01
  -2.2408291e-02  -6.0191662e-01   2.8569170e-01
  -2.1708862e-02  -5.9794202e-01   2.5760017e-01
  -1.6346182e-02  -6.0238417e-01   2.1874035e-01
  -1.6346182e-02  -5.9303231e-01   1.9673560e-01
  -2.1232854e-03  -5.9139587e-01   1.7168746e-01
   9.3015037e-03  -5.8251156e-01   1.5904655e-01
   1.5597147e-02  -5.7012061e-01   1.3844587e-01
   2.2824971e-02  -5.6147008e-01   1.2065488e-01
   2.5156401e-02  -5.4533829e-01   9.5606744e-02
   3.1918330e-02  -5.3201183e-01   5.6044693e-02
   3.2151473e-02  -5.1284056e-01   3.9658168e-02
   4.4741977e-02  -4.9717633e-01   4.7780366e-03
   5.1037620e-02  -4.7543351e-01  -1.9567871e-02
   5.2203335e-02  -4.5906795e-01  -4.1338546e-02
   5.8032301e-02  -4.4457261e-01  -7.1302680e-02
   5.8032301e-02  -4.1511437e-01  -8.6518824e-02
   7.3654055e-02  -4.0132036e-01  -1.1531258e-01
   6.8990804e-02  -3.7630427e-01  -1.3333764e-01
   7.1788911e-02  -3.4965174e-01  -1.5721539e-01
   7.8783592e-02  -3.2627209e-01  -1.7992276e-01
   6.9223947e-02  -2.9611252e-01  -2.0216159e-01
   7.4819770e-02  -2.7296704e-01  -2.2463489e-01
   6.7125660e-02  -2.4865228e-01  -2.4195772e-01
   6.9923376e-02  -2.3836531e-01  -2.7566747e-01
   6.8524518e-02  -2.1498566e-01  -2.8105162e-01
   6.2695552e-02  -1.9207396e-01  -3.0188599e-01
   6.5726802e-02  -1.7617556e-01  -3.3840465e-01
   5.5467337e-02  -1.4928926e-01  -3.4917295e-01
   5.4301622e-02  -1.3198859e-01  -3.7632817e-01
   4.5674940e-02  -1.1141465e-01  -3.9809885e-01
   4.0078726e-02  -1.0019219e-01  -4.1191053e-01
   3.4949189e-02  -8.7567451e-02  -4.3321305e-01
   2.5623078e-02  -6.8396177e-02  -4.5311112e-01
   2.3291257e-02  -5.5069717e-02  -4.6504980e-01
   1.2565897e-02  -3.6366389e-02  -4.8307525e-01
   1.4197898e-02  -1.7662669e-02  -5.0437777e-01
   1.0933896e-02  -2.2322179e-03  -5.0648485e-01
  -2.5895714e-03   9.6915802e-03  -5.2544622e-01
  -1.5646753e-02   2.6290916e-02  -5.4183314e-01
  -3.1967936e-02   3.5642776e-02  -5.4393982e-01
  -3.5931758e-02   3.6577884e-02  -5.6758350e-01
  -4.7356547e-02   4.4994636e-02  -5.8022441e-01
  -6.4610302e-02   5.1774558e-02  -5.8186295e-01
  -7.1605374e-02   4.9670174e-02  -6.0059063e-01
  -9.0491521e-02   5.4346104e-02  -6.0925224e-01
  -1.1077653e-01   5.4346104e-02  -6.1393416e-01
  -1.2429960e-01   4.6864851e-02  -6.3008661e-01
  -1.4062118e-01   5.3644773e-02  -6.3172515e-01
  -1.5018043e-01   5.2943443e-02  -6.3617299e-01
  -1.6253818e-01   5.0839451e-02  -6.5138913e-01
  -1.8235690e-01   4.9903951e-02  -6.5021875e-01
  -1.9727923e-01   3.9149429e-02  -6.5466660e-01
  -2.0870402e-01   2.8394908e-02  -6.6801013e-01
  -2.1942938e-01   1.2730680e-02  -6.6777605e-01
  -2.2805645e-01  -1.9984410e-03  -6.7152127e-01
