**************************************************************************************
  RED ACELEROGRÁFICA DE LA UNIVERSIDAD AUTONOMA METROPOLITANA (RAUAM)
				UNIDAD AZCAPOTZALCO
                        DIVISIÓN CBI-DEPARTAMENTO DE MATERIALES
     Av. San Pablo 180, Col. Reynosa, Azcapotzalco, C.P. 02200, Ciudad de México
**************************************************************************************
ARCHIVO ESTANDAR DE ACELERACION:
VERSION DEL FORMATO                    : 2.0
NOMBRE DEL ARCHIVO                     : RIDX202012081
FECHA Y HORA DE CREACION               : 08:54 p. m. 13/12/2020
REF. CATALOGO ACELEROGRAMAS, SMIS 1995 : REGISTRO NO.      /PAG.    


================================================================================
DATOS DE LA ESTACION:
NOMBRE DE LA ESTACION                  : UAM-XOCHIMILCO.
CLAVE DE LA ESTACION                   : RIDX
LOCALIZACION DE LA ESTACION            : CALZADA DEL HUESO 1100, COL. VILLA
                                       : QUIETUD, DEL. COYOACAN, C.P.04960, 
                                       : CIUDAD DE MEXICO.
                                       : 
                                       : 
COORDENADAS DE LA ESTACION             : 19.301345 LAT. N
                                       : 99.10268 LONG. W
ALTITUD (msnm)                         : 2232
TIPO DE SUELO                          : LAGO
                                       : 
                                       : 
INSTITUCION RESPONSABLE                : UNIVERSIDAD AUTONOMA METROPOLITANA
                                       : 

================================================================================
DATOS DEL ACELEROGRAFO: 
MODELO DEL ACELEROGRAFO                : BASALT KINEMETRICS
NUMERO DE SERIE DEL ACELEROGRAFO       : 1729
NUMERO DE CANALES                      : 3
ORIENTACION C1-C6 (rumbo;orientacion)  : /V/N00E/N90E
ORIENTACION C7-C12 (rumbo;orientacion) : 
VEL. DE MUESTREO, C1-C6 (muestras/s)   : /200/200/200
VEL. DE MUESTREO, C7-C12 (muestras/s)  : 
ESC. COMPLETA DE SENSORES, C1-C6, (g)  : /2/2/2
ESC. COMPLETA DE SENSORES, C7-C12 (g)  : 
FREC. NAT. DE SENSORES, C1-C6, (Hz)    : /208/210/200   
FREC. NAT. DE SENSORES, C7-C12 (Hz)    : 
AMORTIGUAMIENTO DE SENSORES, C1-C6     : /0.7/0.7/0.7      
AMORTIGUAMIENTO DE SENSORES, C7-C12    : 
INTERVALO DE MUESTREO, C1-C6 (s)       : /0.005/0.005/0.005
INTERVALO DE MUESTREO, C7-C12 (s)      : 
UMBRAL DE DISPARO, C1-C6 (Gal)         : /2/2/2
UMBRAL DE DISPARO, C7-C12 (Gal)        : 
MEMORIA DE PREEVENTO (s)               : 60
TIEMPO DE POSEVENTO (s)                : 80


================================================================================
DATOS DEL SISMO:
FECHA DEL SISMO [GMT]                  : 2020/12/08
HORA EPICENTRO (GMT)                   : 17:56:41
MAGNITUD(ES)                           : /M=4.6
COORDENADAS DEL EPICENTRO              : 15.6500 LAT. N
                                       : 95.4100 LONG. W
PROFUNDIDAD FOCAL (Km)                 : 53.3
FUENTE DE LOS DATOS EPICENTRALES       : SSN
                                       : INSTITUTO DE GEOFISICA, UNAM

================================================================================
DATOS DE ESTE REGISTRO:
HORA DE LA PRIMERA MUESTRA (GMT)       : 17:58:30.00
EXACTITUD DEL TIEMPO (s)               : 
DURACION DEL REGISTRO (s), C1-C6       : /149.00/149.00/149.00
DURACION DEL REGISTRO (s), C7-C12      : 
NUM. TOTAL DE MUESTRAS, C1-C6          : /29800/29800/29800
NUM. TOTAL DE MUESTRAS, C7-C12         : 
ACEL. MAX.(Gal), C1-C6                 : /0.196/-0.485/0.737
ACEL. MAX., C1-C6, EN LA MUESTRA       : /10382/13246/12520
ACEL. MAX.(Gal), C7-C12                : 
ACEL. MAX., C7-C12,EN LA MUESTRA       : 
UNIDADES DE LOS DATOS                  : Gal (cm/s/s)
FACTOR DE DECIMACION                   : 1
FORMATO DATOS (FORTRAN,16 campos/dato) : 3E16.7


================================================================================
CALIDAD DEL ACELEROGRAMA:
REGISTRO DIGITAL COMPLETO CON TIEMPO ABSOLUTO CORRECTO


================================================================================
COMENTARIOS:














================================================================================
DATOS DE ACELERACION:
---------+---------+---------+---------+---------+---------+---------+---------+
   CANAL-1   	     CANAL-2       CANAL-3
         V             N00E           N90E
---------+---------+---------+---------+---------+---------+---------+---------+ 
[...]
   4.4698170e-02  -2.2836313e-01  -2.4353795e-01
   5.6589636e-02  -2.1877750e-01  -2.4026049e-01
   5.7289065e-02  -2.1971300e-01  -2.4751725e-01
   6.3351174e-02  -2.2041433e-01  -2.5454033e-01
   6.6615567e-02  -2.2134943e-01  -2.5781740e-01
   6.8946997e-02  -2.2158321e-01  -2.6273339e-01
   7.5941678e-02  -2.1924544e-01  -2.7584285e-01
   7.3377105e-02  -2.2345343e-01  -2.8590892e-01
   7.8506642e-02  -2.2181699e-01  -2.8754745e-01
   8.7133715e-02  -2.2088188e-01  -2.9808168e-01
   8.2237321e-02  -2.1924544e-01  -3.0346583e-01
   8.5035037e-02  -2.1877750e-01  -3.1119113e-01
   9.0630860e-02  -2.2228454e-01  -3.2078905e-01
   8.5967609e-02  -2.2041433e-01  -3.2570505e-01
   8.6900572e-02  -2.2696047e-01  -3.3951673e-01
   8.5734466e-02  -2.2205076e-01  -3.4302788e-01
   8.3636179e-02  -2.1456951e-01  -3.4911465e-01
   8.1771035e-02  -2.2275209e-01  -3.6245779e-01
   7.7340927e-02  -2.2018055e-01  -3.6713971e-01
   7.4076534e-02  -2.1620595e-01  -3.6948087e-01
   6.9646426e-02  -2.2251832e-01  -3.7416279e-01
   6.3118031e-02  -2.2555781e-01  -3.8352624e-01
   5.4724101e-02  -2.2368720e-01  -3.8563332e-01
   5.4724101e-02  -2.2859691e-01  -3.8961301e-01
   4.6563705e-02  -2.2883069e-01  -3.9523123e-01
   3.9102347e-02  -2.2906446e-01  -3.9850830e-01
   3.3040238e-02  -2.3654611e-01  -4.0225392e-01
   2.5812022e-02  -2.4098826e-01  -4.0763807e-01
   2.4180021e-02  -2.4285848e-01  -4.1091553e-01
   1.1122840e-02  -2.4426114e-01  -4.1068145e-01
   1.1122840e-02  -2.5104145e-01  -4.2238606e-01
   8.0919814e-03  -2.4262470e-01  -4.2425867e-01
  -5.3509177e-04  -2.4262470e-01  -4.2730205e-01
  -3.5659507e-03  -2.5174278e-01  -4.3572959e-01
  -1.0094737e-02  -2.4753441e-01  -4.3736812e-01
  -8.9290219e-03  -2.5034012e-01  -4.4392266e-01
  -1.6156846e-02  -2.5057390e-01  -4.4954088e-01
  -2.1519526e-02  -2.4987257e-01  -4.5913880e-01
  -2.4084490e-02  -2.4566419e-01  -4.5960695e-01
  -2.4317633e-02  -2.4496286e-01  -4.6545965e-01
  -2.7581635e-02  -2.4355981e-01  -4.7014157e-01
  -3.1778600e-02  -2.3818255e-01  -4.6686411e-01
  -2.9913456e-02  -2.4379358e-01  -4.7224826e-01
  -3.4110421e-02  -2.3958560e-01  -4.7412087e-01
  -3.0146599e-02  -2.3514345e-01  -4.8067579e-01
  -3.7141280e-02  -2.3233773e-01  -4.7739833e-01
  -4.0405673e-02  -2.2953241e-01  -4.7997356e-01
  -3.6208708e-02  -2.2392098e-01  -4.8652809e-01
  -4.2970246e-02  -2.1550462e-01  -4.8067579e-01
  -4.0638816e-02  -2.1807616e-01  -4.8090987e-01
  -4.2270817e-02  -2.1246513e-01  -4.7786648e-01
  -4.4602638e-02  -2.0825675e-01  -4.8137802e-01
  -5.1131033e-02  -2.0334704e-01  -4.7880279e-01
  -5.4162283e-02  -1.9843734e-01  -4.7622795e-01
  -5.4628569e-02  -2.0147683e-01  -4.8067579e-01
  -6.7685359e-02  -1.9376141e-01  -4.7178010e-01
  -6.2788965e-02  -1.9446313e-01  -4.7060972e-01
  -6.6053358e-02  -1.9890489e-01  -4.6943895e-01
  -8.3540256e-02  -1.9469691e-01  -4.5656396e-01
  -7.7011861e-02  -1.9586579e-01  -4.5469096e-01
  -7.9809969e-02  -1.9072231e-01  -4.5117981e-01
  -9.2633616e-02  -1.8698148e-01  -4.3853851e-01
  -8.5172649e-02  -1.9235875e-01  -4.3455921e-01
  -8.3073970e-02  -1.9282630e-01  -4.2730205e-01
  -8.8902936e-02  -1.9703468e-01  -4.2027937e-01
  -9.0535329e-02  -1.9796978e-01  -4.0974515e-01
  -9.0069043e-02  -1.9680090e-01  -3.9944500e-01
  -8.8669794e-02  -1.9960661e-01  -3.9640161e-01
  -8.9136079e-02  -1.9118986e-01  -3.8024917e-01
  -8.3073970e-02  -1.8838415e-01  -3.7346017e-01
  -8.4240077e-02  -1.8277311e-01  -3.5941480e-01
  -8.5638935e-02  -1.7786340e-01  -3.4185750e-01
  -7.7478147e-02  -1.7786340e-01  -3.4021896e-01
  -7.9343683e-02  -1.6781021e-01  -3.2430059e-01
  -7.7011861e-02  -1.6617377e-01  -3.1353190e-01
  -7.1649181e-02  -1.5565303e-01  -3.0838182e-01
  -7.2814896e-02  -1.4606739e-01  -2.9995468e-01
  -6.5587072e-02  -1.4536606e-01  -2.9363423e-01
  -6.3255251e-02  -1.3016939e-01  -2.8005662e-01
  -6.8851074e-02  -1.2128508e-01  -2.7092685e-01
  -6.7918502e-02  -1.1473893e-01  -2.6343602e-01
  -6.5120786e-02  -1.0234758e-01  -2.5126287e-01
  -6.0690678e-02  -9.5567661e-02  -2.4236718e-01
  -6.0457535e-02  -8.4345586e-02  -2.2855588e-01
  -5.5794284e-02  -7.1954234e-02  -2.1451012e-01
  -4.9965318e-02  -6.6109419e-02  -2.0397590e-01
  -5.0431604e-02  -5.9563274e-02  -1.8665268e-01
  -4.2270817e-02  -5.3718460e-02  -1.7635253e-01
  -3.9939387e-02  -4.3899046e-02  -1.6066823e-01
  -3.1079171e-02  -3.8521785e-02  -1.4287725e-01
  -2.1752669e-02  -2.7065541e-02  -1.3210856e-01
  -2.1053240e-02  -1.3038143e-02  -1.2040395e-01
  -1.1493595e-02  -1.3271920e-02  -1.1197642e-01
  -1.4991131e-02   2.1585314e-03  -9.3717281e-02
  -9.8615939e-03   8.0037381e-03  -8.5523822e-02
   2.2630153e-03   8.0037381e-03  -7.4755523e-02
   5.2938743e-03   2.1563582e-02  -5.1814466e-02
   1.0889697e-02   2.7408397e-02  -4.0811698e-02
   1.4154090e-02   3.2786050e-02  -3.0979704e-02
   2.1148771e-02   3.1616773e-02  -1.9041023e-02
   3.0475273e-02   3.5591372e-02  -4.5271085e-03
   4.0501205e-02   4.0734856e-02   7.4115727e-03
   4.3066169e-02   3.7929533e-02   2.0755105e-02
   5.1926385e-02   3.3954934e-02   3.0118946e-02
   6.3118031e-02   3.3954934e-02   4.1121322e-02
   6.5915747e-02   3.8630864e-02   5.8912305e-02
   7.7107784e-02   3.4890042e-02   6.9680997e-02
   8.0604929e-02   4.2371294e-02   8.6769752e-02
   8.8066287e-02   4.8684055e-02   1.0058144e-01
   9.8325361e-02   5.0320493e-02   1.1228604e-01
   1.0368804e-01   5.8269692e-02   1.2328842e-01
   1.1697837e-01   6.0841238e-02   1.3452487e-01
   1.2234105e-01   6.6919829e-02   1.5020956e-01
   1.2677115e-01   6.9959321e-02   1.6144601e-01
   1.2980201e-01   6.9491767e-02   1.7689623e-01
   1.3493155e-01   7.2998813e-02   1.8743045e-01
   1.4122680e-01   7.7440573e-02   1.9890098e-01
   1.4122680e-01   7.9077404e-02   2.1224451e-01
   1.5218570e-01   7.6739243e-02   2.2043758e-01
   1.5684895e-01   8.3519557e-02   2.3565372e-01
   1.6081238e-01   8.9598148e-02   2.4782687e-01
   1.6127866e-01   9.2871025e-02   2.5765887e-01
   1.5125273e-01   1.0175533e-01   2.6983163e-01
   1.5801466e-01   1.0572993e-01   2.7685470e-01
   1.6034609e-01   1.1321158e-01   2.8106808e-01
   1.5987981e-01   1.1929017e-01   2.8972969e-01
   1.5824780e-01   1.2490120e-01   3.0096614e-01
   1.5451713e-01   1.3588950e-01   3.1173483e-01
   1.6594191e-01   1.3963033e-01   3.1945975e-01
   1.6221163e-01   1.4711158e-01   3.2671690e-01
   1.5544970e-01   1.5202128e-01   3.3420774e-01
   1.6221163e-01   1.5599588e-01   3.3490997e-01
   1.6500934e-01   1.6791929e-01   3.4123042e-01
   1.6174495e-01   1.7282900e-01   3.4497604e-01
   1.5591598e-01   1.7937553e-01   3.4989203e-01
   1.5708209e-01   1.8849323e-01   3.5925587e-01
   1.5381770e-01   1.9620865e-01   3.6323557e-01
   1.4449119e-01   2.0205346e-01   3.7025825e-01
   1.4379177e-01   2.0041702e-01   3.6815156e-01
   1.4262605e-01   2.0322235e-01   3.7119456e-01
   1.3936166e-01   2.0462540e-01   3.7611055e-01
   1.3236698e-01   2.0672939e-01   3.7728133e-01
   1.2397305e-01   2.1234043e-01   3.8406994e-01
   1.1977608e-01   2.0976888e-01   3.8196325e-01
   1.1301454e-01   2.1187288e-01   3.8875186e-01
   1.0928386e-01   2.1654881e-01   3.9202932e-01
   1.0345490e-01   2.1467859e-01   3.9390193e-01
   9.7625932e-02   2.1631503e-01   4.0396800e-01
   9.6693360e-02   2.1608125e-01   4.0467023e-01
   8.9698288e-02   2.1047021e-01   4.1099068e-01
   7.6407964e-02   2.1234043e-01   4.1895007e-01
   7.5941678e-02   2.1350931e-01   4.2386606e-01
   7.8273499e-02   2.0649561e-01   4.2339791e-01
   6.8247568e-02   1.9854642e-01   4.2129083e-01
   6.2185459e-02   1.9878058e-01   4.3393213e-01
   6.3118031e-02   1.9620865e-01   4.4001851e-01
   6.2884888e-02   1.8592168e-01   4.4118889e-01
   4.7962563e-02   1.8755812e-01   4.5312797e-01
   4.4931313e-02   1.7797248e-01   4.4938235e-01
   4.7263134e-02   1.7563471e-01   4.5359612e-01
   3.7004060e-02   1.7820626e-01   4.6085288e-01
   3.1408237e-02   1.6511397e-01   4.5968250e-01
   2.1148771e-02   1.6581530e-01   4.7326011e-01
   2.4646307e-02   1.5950293e-01   4.7349418e-01
   2.1848592e-02   1.5856782e-01   4.8426248e-01
   1.3221518e-02   1.5552833e-01   4.9339225e-01
   1.0190268e-02   1.4828046e-01   4.9479671e-01
  -5.3509177e-04   1.5833365e-01   5.0860839e-01
   2.7293013e-03   1.4944974e-01   5.0931062e-01
  -7.6823477e-04   1.4196809e-01   5.2124930e-01
  -6.5972008e-03   1.4290320e-01   5.2569715e-01
  -6.8303438e-03   1.3986410e-01   5.2733568e-01
  -1.7322561e-02   1.4150054e-01   5.3716768e-01
  -2.0586954e-02   1.4150054e-01   5.4208367e-01
  -1.7322561e-02   1.4196809e-01   5.5097936e-01
  -2.4317633e-02   1.3939655e-01   5.4934083e-01
  -3.6441851e-02   1.3892899e-01   5.5893874e-01
  -3.8073852e-02   1.3963033e-01   5.7275004e-01
  -2.8514207e-02   1.4033166e-01   5.8492319e-01
  -1.8021990e-02   1.4430626e-01   5.9686187e-01
  -2.1519526e-02   1.4313698e-01   5.9522333e-01
  -3.4809850e-02   1.4266942e-01   5.9358440e-01
  -3.6674994e-02   1.4594269e-01   6.0084156e-01
  -2.5483348e-02   1.4570892e-01   6.1816439e-01
  -1.9188096e-02   1.4617647e-01   6.2214408e-01
  -1.9188096e-02   1.4757913e-01   6.1769624e-01
  -1.0561023e-02   1.5365812e-01   6.3057162e-01
   6.3062320e-04   1.7282900e-01   6.6638805e-01
   1.2522089e-02   1.7820626e-01   6.8324273e-01
   1.4387233e-02   1.7212767e-01   6.5889682e-01
  -5.8977718e-03   1.7563471e-01   6.3221015e-01
  -2.0820097e-02   1.7399827e-01   6.1207801e-01
  -2.4084490e-02   1.7353072e-01   6.1793031e-01
  -2.1286383e-02   1.7797248e-01   6.4836260e-01
  -9.6284509e-03   1.9293538e-01   6.8581796e-01
   1.2755232e-02   2.1140532e-01   7.0782271e-01
   1.8584198e-02   2.2075718e-01   6.9845887e-01
   5.2938743e-03   2.2473178e-01   6.8324273e-01
   2.7293013e-03   2.1187288e-01   6.6030167e-01
  -5.6646288e-03   1.9901436e-01   6.5304452e-01
  -1.3358739e-02   1.9948192e-01   6.6755843e-01
  -1.3591882e-02   2.0252102e-01   6.8839280e-01
  -1.0794166e-02   2.1537992e-01   7.1367502e-01
  -5.1983428e-03   2.1912074e-01   7.0899310e-01
  -1.6156846e-02   2.1421104e-01   6.9120211e-01
  -2.3850956e-02   2.2730333e-01   6.9354288e-01
  -1.1027309e-02   2.3338192e-01   7.0875902e-01
  -2.1670927e-03   2.3361569e-01   7.2374109e-01
  -1.2659310e-02   2.3548630e-01   7.2748670e-01
  -1.5923703e-02   2.2777088e-01   7.1180241e-01
  -1.5224274e-02   2.3104415e-01   6.9073396e-01
  -2.3384670e-02   2.3548630e-01   6.9611811e-01
  -1.5457417e-02   2.3291436e-01   7.1437725e-01
  -1.7008067e-03   2.3221303e-01   7.2865708e-01
  -4.0326279e-03   2.2777088e-01   7.3287085e-01
  -1.5923703e-02   2.2028963e-01   7.0969572e-01
  -2.7115349e-02   2.1280798e-01   6.8230642e-01
  -4.1338245e-02   2.0813205e-01   6.7341074e-01
  -4.2970246e-02   2.0439162e-01   6.9026581e-01
  -3.4110421e-02   2.0485918e-01   7.2233663e-01
  -3.0612885e-02   2.0509295e-01   7.3661647e-01
  -2.2218955e-02   1.9690998e-01   7.2420924e-01
  -3.0379742e-02   1.9106516e-01   6.9424511e-01
  -4.7633497e-02   1.8989628e-01   6.7106997e-01
  -5.9291820e-02   1.8311596e-01   6.6334467e-01
  -6.3255251e-02   1.8405146e-01   6.7153813e-01
  -5.0664747e-02   1.8709056e-01   6.8792465e-01
  -4.2503960e-02   1.8381769e-01   6.8769057e-01
  -3.2711172e-02   1.8779189e-01   6.8160420e-01
  -2.4550776e-02   1.7914176e-01   6.6872882e-01
  -2.3850956e-02   1.7049123e-01   6.6428136e-01
  -1.5224274e-02   1.5786610e-01   6.5749236e-01
  -1.1493595e-02   1.3518817e-01   6.3103977e-01
  -1.5923703e-02   1.3495440e-01   6.1863254e-01
  -1.5224274e-02   1.3565573e-01   6.0458717e-01
  -8.2292017e-03   1.4173432e-01   6.0880094e-01
   1.2055803e-02   1.4968352e-01   6.2120777e-01
   3.5371668e-02   1.4500759e-01   6.2073962e-01
   3.8636061e-02   1.3729216e-01   6.1722808e-01
   3.1641380e-02   1.1999150e-01   5.8375280e-01
   2.4879450e-02   1.1040586e-01   5.5940690e-01
   2.5112593e-02   1.0479482e-01   5.4021106e-01
   2.4879450e-02   1.0783392e-01   5.3412468e-01
   2.0216199e-02   1.2186171e-01   5.5004305e-01
   3.6770917e-02   1.2677142e-01   5.4208367e-01
   4.8895135e-02   1.3542195e-01   5.3974291e-01
   4.7029991e-02   1.3963033e-01   5.2522899e-01
   5.1926385e-02   1.3401929e-01   4.9409448e-01
   4.9594564e-02   1.2560254e-01   4.7630310e-01
   5.2858957e-02   1.1905639e-01   4.6740741e-01
   6.3817460e-02   1.1905639e-01   4.7302603e-01
   7.7107784e-02   1.2045905e-01   4.7326011e-01
   9.5760397e-02   1.2770653e-01   4.6459850e-01
   1.0415433e-01   1.3495440e-01   4.4844605e-01
   1.0205604e-01   1.3986410e-01   4.1848191e-01
   8.4801894e-02   1.3963033e-01   3.8453809e-01
   6.5682604e-02   1.4009788e-01   3.6300149e-01
   6.0553067e-02   1.4524136e-01   3.5106242e-01
   5.6822779e-02   1.4594269e-01   3.4591234e-01
   5.3558386e-02   1.5061862e-01   3.4567827e-01
   5.4257815e-02   1.5108618e-01   3.4193304e-01
   5.8921066e-02   1.5131995e-01   3.4286935e-01
   6.2185459e-02   1.5155373e-01   3.3256920e-01
   6.1019353e-02   1.4570892e-01   3.1665083e-01
   5.3092100e-02   1.5506078e-01   3.0400953e-01
   4.5164456e-02   1.6371131e-01   2.7100201e-01
   3.4439096e-02   1.6908857e-01   2.4852910e-01
   1.6719054e-02   1.8218086e-01   2.4501756e-01
   4.3613023e-03   1.8872739e-01   2.3307888e-01
  -1.1260452e-02   1.9270160e-01   2.2371504e-01
  -2.3617813e-02   1.8755812e-01   2.1622421e-01
  -3.2478029e-02   1.7844003e-01   2.0849890e-01
  -3.7374423e-02   1.7095878e-01   2.0030544e-01
  -3.7607566e-02   1.6347753e-01   1.9679429e-01
  -4.2037674e-02   1.6090559e-01   2.0241252e-01
  -3.0846028e-02   1.5880160e-01   1.9913506e-01
  -2.8514207e-02   1.6651663e-01   1.8789861e-01
  -3.9706244e-02   1.7049123e-01   1.6612793e-01
  -5.0431604e-02   1.6768551e-01   1.4248425e-01
  -6.5353929e-02   1.6277581e-01   1.2492734e-01
  -7.3281182e-02   1.5482700e-01   1.1088158e-01
  -8.9835900e-02   1.5365812e-01   1.0807227e-01
  -9.7063724e-02   1.5061862e-01   9.7303975e-02
  -9.5431723e-02   1.5108618e-01   9.2622054e-02
  -1.0102755e-01   1.4617647e-01   9.5665440e-02
  -1.0382526e-01   1.4126676e-01   8.9344592e-02
  -1.1198605e-01   1.4407248e-01   8.4194519e-02
  -1.1268548e-01   1.3822727e-01   6.6637612e-02
  -1.1898073e-01   1.3799349e-01   4.8144006e-02
  -1.3436934e-01   1.3401929e-01   4.0419093e-02
  -1.3693431e-01   1.2513498e-01   3.5034943e-02
  -1.4206384e-01   1.2279682e-01   3.5503096e-02
  -1.4719338e-01   1.1438046e-01   3.3396015e-02
  -1.5139034e-01   1.0409349e-01   2.3564022e-02
  -1.6211570e-01   9.7546955e-02   1.0220882e-02
  -1.6351456e-01   9.1234587e-02  -1.0155700e-03
  -1.5885131e-01   8.1882727e-02  -9.9112582e-03
  -1.6584638e-01   7.6505466e-02  -6.4001124e-03
  -1.7004335e-01   6.9959321e-02  -1.0847564e-02
  -1.6771153e-01   6.3179399e-02  -3.0979704e-02
  -1.7797060e-01   6.5049614e-02  -4.1279851e-02
  -1.8100185e-01   5.9672353e-02  -6.6093911e-02
  -1.8310014e-01   5.8035915e-02  -8.1778600e-02
  -1.9405864e-01   6.3880729e-02  -7.5691829e-02
  -1.8683082e-01   5.7802138e-02  -8.2480829e-02
  -1.7703803e-01   4.5410786e-02  -8.9737590e-02
  -1.8146814e-01   3.7461587e-02  -1.0237889e-01
  -1.8892910e-01   3.9098418e-02  -1.1853134e-01
  -1.8566510e-01   3.8630864e-02  -1.2906557e-01
  -1.7470660e-01   4.0033525e-02  -1.3234303e-01
  -1.7377364e-01   4.3306794e-02  -1.3210856e-01
  -1.7703803e-01   3.7929533e-02  -1.4217463e-01
  -1.7074278e-01   3.4656265e-02  -1.6020008e-01
  -1.6234885e-01   3.2786050e-02  -1.7190469e-01
  -1.6188256e-01   3.8397087e-02  -1.7284138e-01
