**************************************************************************************
  RED ACELEROGRÁFICA DE LA UNIVERSIDAD AUTONOMA METROPOLITANA (RAUAM)
				UNIDAD AZCAPOTZALCO
                        DIVISIÓN CBI-DEPARTAMENTO DE MATERIALES
     Av. San Pablo 180, Col. Reynosa, Azcapotzalco, C.P. 02200, Ciudad de México
**************************************************************************************
ARCHIVO ESTANDAR DE ACELERACION:
VERSION DEL FORMATO                    : 2.0
NOMBRE DEL ARCHIVO                     : RIDA201907171
FECHA Y HORA DE CREACION               : 11:15 a. m. 09/07/2019
REF. CATALOGO ACELEROGRAMAS, SMIS 1995 : REGISTRO NO.      /PAG.    


================================================================================
DATOS DE LA ESTACION:
NOMBRE DE LA ESTACION                  : UAM-AZCAPOTZALCO.
CLAVE DE LA ESTACION                   : RIDA
LOCALIZACION DE LA ESTACION            : AV. SAN PABLO 180, COL.REYNOSA, AZCAPOTZALCO,
                                       : C.P.02200 CIUDAD DE MEXICO.
                                       :
                                       : 
                                       : 
COORDENADAS DE LA ESTACION             : 19.498596 LAT. N
                                       : 99.195595 LONG. W
ALTITUD (msnm)                         : 2246
TIPO DE SUELO                          : ZONA DE TRANSICION 
                                       : 
                                       : 
INSTITUCION RESPONSABLE                : UAM-AZCAPOTZALCO
                                       : 

================================================================================
DATOS DEL ACELEROGRAFO: 
MODELO DEL ACELEROGRAFO                : BASALT KINEMETRICS
NUMERO DE SERIE DEL ACELEROGRAFO       : 1730
NUMERO DE CANALES                      : 3
ORIENTACION C1-C6 (rumbo;orientacion)  : /V/N00E/N90E
ORIENTACION C7-C12 (rumbo;orientacion) : 
VEL. DE MUESTREO, C1-C6 (muestras/s)   : /250/250/250
VEL. DE MUESTREO, C7-C12 (muestras/s)  : 
ESC. COMPLETA DE SENSORES, C1-C6, (g)  : /2/2/2
ESC. COMPLETA DE SENSORES, C7-C12 (g)  : 
FREC. NAT. DE SENSORES, C1-C6, (Hz)    : /210/206/212
FREC. NAT. DE SENSORES, C7-C12 (Hz)    : 
AMORTIGUAMIENTO DE SENSORES, C1-C6     : /0.70/0.70/0.70   
AMORTIGUAMIENTO DE SENSORES, C7-C12    : 
INTERVALO DE MUESTREO, C1-C6 (s)       : /0.004/0.004/0.004
INTERVALO DE MUESTREO, C7-C12 (s)      : 
UMBRAL DE DISPARO, C1-C6 (Gal)         : /2/2/2
UMBRAL DE DISPARO, C7-C12 (Gal)        : 
MEMORIA DE PREEVENTO (s)               : 30
TIEMPO DE POSEVENTO (s)                : 60


================================================================================
DATOS DEL SISMO:
FECHA DEL SISMO [GMT]                  : 2019/07/17
HORA EPICENTRO (GMT)                   : 06:25:46
MAGNITUD(ES)                           : /M=5.2
COORDENADAS DEL EPICENTRO              : 15.5213 LAT. N
                                       : 95.0502 LONG. W
PROFUNDIDAD FOCAL (Km)                 : 16.1
FUENTE DE LOS DATOS EPICENTRALES       : SSN
                                       : INSTITUTO DE GEOFISICA, UNAM

================================================================================
DATOS DE ESTE REGISTRO:
HORA DE LA PRIMERA MUESTRA (GMT)       : 03:59:33.00
EXACTITUD DEL TIEMPO (s)               : 
DURACION DEL REGISTRO (s), C1-C6       : /100.00/100.00/100.00
DURACION DEL REGISTRO (s), C7-C12      : 
NUM. TOTAL DE MUESTRAS, C1-C6          : /25000/25000/25000
NUM. TOTAL DE MUESTRAS, C7-C12         : 
ACEL. MAX.(Gal), C1-C6                 : /-0.934/-3.642/-2.629
ACEL. MAX., C1-C6, EN LA MUESTRA       : /7710/7720/8143
ACEL. MAX.(Gal), C7-C12                : 
ACEL. MAX., C7-C12,EN LA MUESTRA       : 
UNIDADES DE LOS DATOS                  : Gal (cm/s/s)
FACTOR DE DECIMACION                   : 1
FORMATO DATOS (FORTRAN,16 campos/dato) : 3E16.7


================================================================================
CALIDAD DEL ACELEROGRAMA:
REGISTRO DIGITAL COMPLETO CON TIEMPO ABSOLUTO CORRECTO


================================================================================
COMENTARIOS:














================================================================================
DATOS DE ACELERACION:
---------+---------+---------+---------+---------+---------+---------+---------+
   CANAL-1  	    CANAL-2 	     CANAL-3
       V     	     N00E              N90E
---------+---------+---------+---------+---------+---------+---------+---------+
[...]
  -1.4151633e-01  -7.8236457e-01   5.5602743e-01
  -1.2625159e-01  -8.0530195e-01   5.2669116e-01
  -1.0422816e-01  -8.0143992e-01   4.9092588e-01
  -7.8942289e-02  -7.9055632e-01   4.5539473e-01
  -4.1537998e-02  -7.8950315e-01   4.1063008e-01
   3.3240818e-03  -7.7101250e-01   3.7019001e-01
   4.6787973e-02  -7.8131100e-01   3.4143809e-01
   8.8037674e-02  -7.8657727e-01   3.0380289e-01
   1.3231718e-01  -7.7230011e-01   2.6570061e-01
   2.0631015e-01  -8.0764273e-01   2.1357238e-01
   2.7238005e-01  -8.2905887e-01   1.7021057e-01
   3.1933941e-01  -8.5972032e-01   1.3783490e-01
   3.7154237e-01  -9.0828732e-01   8.8395072e-02
   4.1442369e-01  -9.2408612e-01   5.3097661e-02
   4.6289814e-01  -9.5860961e-01   3.5682891e-02
   5.1649930e-01  -9.9547349e-01   1.5813465e-02
   5.5402049e-01  -1.0373696e+00  -1.1338260e-03
   5.7487838e-01  -1.0707229e+00  -4.4065713e-03
   5.9189085e-01  -1.0979904e+00  -7.0949678e-03
   5.9643535e-01  -1.1250242e+00  -4.4065713e-03
   5.8594815e-01  -1.1302905e+00  -3.9390923e-03
   5.8524906e-01  -1.1625902e+00  -2.0185164e-02
   5.6392511e-01  -1.1669203e+00  -1.7029681e-02
   5.3537641e-01  -1.1755806e+00  -2.5561565e-02
   4.9913728e-01  -1.1899747e+00  -3.3275753e-02
   4.3318428e-01  -1.1718355e+00  -3.4444451e-02
   3.7631991e-01  -1.1930176e+00  -5.8989060e-02
   2.9568476e-01  -1.1801447e+00  -5.5950054e-02
   2.2192482e-01  -1.1589622e+00  -7.4767653e-02
   1.7881048e-01  -1.1648136e+00  -1.2268817e-01
   1.0912859e-01  -1.1415252e+00  -1.5740084e-01
   2.6745701e-02  -1.1182363e+00  -2.1011342e-01
  -6.3910585e-02  -1.0888621e+00  -2.8105885e-01
  -1.4186587e-01  -1.0502429e+00  -3.6135464e-01
  -2.1329550e-01  -9.9605859e-01  -4.3849456e-01
  -2.9929076e-01  -9.3169278e-01  -5.1341396e-01
  -3.5580559e-01  -8.6990180e-01  -6.0107333e-01
  -4.1033887e-01  -8.0647215e-01  -6.8429087e-01
  -4.6685370e-01  -7.4245779e-01  -7.5909339e-01
  -4.9050796e-01  -6.6837859e-01  -8.4640177e-01
  -5.1800802e-01  -6.0822588e-01  -9.2961970e-01
  -5.3898241e-01  -5.4900932e-01  -1.0038379e+00
  -5.2884476e-01  -4.8686728e-01  -1.0822634e+00
  -5.1497822e-01  -4.2460822e-01  -1.1409367e+00
  -4.7687483e-01  -3.4877372e-01  -1.1871038e+00
  -4.1336867e-01  -2.9494045e-01  -1.2318684e+00
  -3.6629279e-01  -2.2846830e-01  -1.2472964e+00
  -3.0593294e-01  -1.5263380e-01  -1.2529065e+00
  -2.2786114e-01  -8.9555211e-02  -1.2472964e+00
  -1.3708834e-01  -1.2901579e-02  -1.2263751e+00
  -3.1749894e-02   6.0007431e-02  -1.2111809e+00
   5.7624719e-02   1.3268201e-01  -1.1906102e+00
   1.5422370e-01   2.0231408e-01  -1.1777534e+00
   2.3532491e-01   2.9254315e-01  -1.1364952e+00
   3.1968896e-01   3.9236860e-01  -1.0976913e+00
   4.2386224e-01   4.7697995e-01  -1.0830814e+00
   4.9680657e-01   5.7844367e-01  -1.0355119e+00
   5.7010084e-01   6.6516215e-01  -9.9939643e-01
   6.3651990e-01   7.4532676e-01  -9.6655328e-01
   6.9792838e-01   8.3005513e-01  -9.3219083e-01
   7.4943264e-01   8.9875104e-01  -9.0449074e-01
   7.7168872e-01   9.7961777e-01  -8.5528465e-01
   7.9930529e-01   1.0497179e+00  -8.1893541e-01
   8.1398745e-01   1.1112749e+00  -7.8083274e-01
   8.1422048e-01   1.1720127e+00  -7.3186078e-01
   7.9173099e-01   1.2209307e+00  -6.8581018e-01
   7.4826749e-01   1.2810834e+00  -6.3496791e-01
   6.9210221e-01   1.3170112e+00  -5.8342443e-01
   6.1752627e-01   1.3487258e+00  -5.1703731e-01
   5.5670036e-01   1.3783341e+00  -4.6981801e-01
   4.7664778e-01   1.3790362e+00  -4.2645619e-01
   3.8074790e-01   1.3895687e+00  -3.6345830e-01
   2.8263421e-01   1.3735359e+00  -3.1121360e-01
   1.6797373e-01   1.3479067e+00  -2.6411156e-01
   6.7412824e-02   1.3400660e+00  -2.2320361e-01
  -3.0468221e-02   1.3049574e+00  -1.5331040e-01
  -1.1937638e-01   1.2615396e+00  -8.0144054e-02
  -2.1108170e-01   1.2284204e+00  -2.5912175e-02
  -2.9229943e-01   1.1633528e+00   3.5332282e-02
  -3.5801939e-01   1.0925502e+00   1.1726425e-01
  -4.3830499e-01   1.0293550e+00   2.0866346e-01
  -4.9761620e-01   9.3280645e-01   2.6266160e-01
  -5.6741460e-01   8.5205675e-01   3.4155496e-01
  -6.1367487e-01   7.5071005e-01   4.2886333e-01
  -6.2474465e-01   6.2338267e-01   5.0436707e-01
  -6.5084613e-01   5.1875943e-01   5.8641591e-01
  -6.6599435e-01   3.9997525e-01   6.5572517e-01
  -6.8883339e-01   2.8119108e-01   7.6851350e-01
  -6.8696914e-01   1.6626934e-01   8.7686000e-01
  -6.7217047e-01   5.6028377e-02   9.7305126e-01
  -6.5189516e-01  -6.8022061e-02   1.0833849e+00
  -6.1344184e-01  -1.8645478e-01   1.1835502e+00
  -5.9479776e-01  -2.9435536e-01   1.2789233e+00
  -5.5506276e-01  -4.1243702e-01   1.3411027e+00
  -5.0763733e-01  -5.0547494e-01   1.4050356e+00
  -4.5613347e-01  -6.0693866e-01   1.4767991e+00
  -3.8750022e-01  -6.9166742e-01   1.5161874e+00
  -3.2655779e-01  -7.6633133e-01   1.5374592e+00
  -2.6946039e-01  -8.4438959e-01   1.5600170e+00
  -2.0443952e-01  -8.9354169e-01   1.5745101e+00
  -1.3464112e-01  -9.5252381e-01   1.5659778e+00
  -7.5563332e-02  -9.9757984e-01   1.5408488e+00
  -1.2989295e-02  -1.0254328e+00   1.5043827e+00
   4.8186162e-02  -1.0592542e+00   1.4722408e+00
   1.0796343e-01  -1.0944798e+00   1.4105289e+00
   1.5841866e-01  -1.1187044e+00   1.3215839e+00
   1.9127844e-01  -1.1368440e+00   1.2464312e+00
   2.1947760e-01  -1.1616541e+00   1.1623952e+00
   2.3882078e-01  -1.1882195e+00   1.0651521e+00
   2.4930797e-01  -1.2149018e+00   9.5797388e-01
   2.5245429e-01  -1.2287113e+00   8.6236697e-01
   2.5536718e-01  -1.2615965e+00   7.7435738e-01
   2.2588636e-01  -1.2850020e+00   6.7688016e-01
   1.9640592e-01  -1.3022054e+00   5.5965078e-01
   1.8230634e-01  -1.3435164e+00   4.4966772e-01
   1.4571727e-01  -1.3553362e+00   3.7404710e-01
   1.2940389e-01  -1.3737098e+00   2.6441465e-01
   9.1183990e-02  -1.3856466e+00   1.4858770e-01
   4.5039846e-02  -1.3732417e+00   5.8591324e-02
   2.6745701e-02  -1.3666883e+00  -1.7964639e-02
  -5.9979596e-03  -1.3411757e+00  -9.2884034e-02
  -2.3243463e-02  -1.3030246e+00  -1.8182858e-01
  -4.6432050e-02  -1.2658096e+00  -2.3851512e-01
  -6.5309165e-02  -1.2344457e+00  -2.8398098e-01
  -6.9154184e-02  -1.1939538e+00  -3.2827776e-01
  -8.6982657e-02  -1.1355568e+00  -3.7269179e-01
  -9.0362005e-02  -1.0608925e+00  -4.2668993e-01
  -9.7120309e-02  -9.7873853e-01  -4.4270226e-01
  -9.7702887e-02  -8.9845690e-01  -4.5964956e-01
  -8.2554668e-02  -8.1021716e-01  -5.0757008e-01
  -8.4069373e-02  -7.1858386e-01  -5.3141347e-01
  -8.3370278e-02  -6.1922649e-01  -5.4578962e-01
  -8.0340869e-02  -5.1401776e-01  -5.7360658e-01
  -7.3815205e-02  -4.0424526e-01  -5.9032014e-01
  -4.3052703e-02  -2.9025928e-01  -6.0843652e-01
  -1.7417284e-02  -1.7241166e-01  -6.1299483e-01
  -7.0466013e-03  -3.5370885e-02  -6.0703408e-01
   4.7222708e-03   1.2589449e-01  -6.2409824e-01
   2.1269070e-02   2.9031939e-01  -6.2865655e-01
   4.8768741e-02   4.5064861e-01  -6.2409824e-01
   8.3609685e-02   6.2221248e-01  -6.4361706e-01
   1.1973230e-01   7.7984985e-01  -6.7295372e-01
   1.4828101e-01   9.3935994e-01  -6.9165445e-01
   1.7391642e-01   1.1047214e+00  -7.0275786e-01
   1.9617249e-01   1.2439855e+00  -7.2286102e-01
   2.2204134e-01   1.3896857e+00  -7.5710661e-01
   2.5163868e-01   1.5278967e+00  -7.9415706e-01
   2.6643696e-01   1.6464465e+00  -8.2302625e-01
   2.8647923e-01   1.7662838e+00  -8.7421912e-01
   3.0535635e-01   1.8623642e+00  -9.4808669e-01
   3.1875683e-01   1.9487313e+00  -1.0180968e+00
   3.2166973e-01   2.0384923e+00  -1.0834321e+00
   3.0838615e-01   2.1105821e+00  -1.1460793e+00
   3.0838615e-01   2.1820865e+00  -1.2172585e+00
   3.1339672e-01   2.2489097e+00  -1.2745290e+00
   3.2551514e-01   2.2987639e+00  -1.3154369e+00
   3.2446649e-01   2.3549376e+00  -1.3599675e+00
   2.9696682e-01   2.4238676e+00  -1.4030959e+00
   2.7913835e-01   2.4855415e+00  -1.4448216e+00
   2.6282497e-01   2.5472155e+00  -1.4677300e+00
   2.4476347e-01   2.6259759e+00  -1.4768466e+00
   2.2646932e-01   2.6890541e+00  -1.4840929e+00
   2.0747569e-01   2.7377381e+00  -1.4683144e+00
   1.8824903e-01   2.7843153e+00  -1.4311466e+00
   1.5480628e-01   2.8138066e+00  -1.3839277e+00
   1.1309051e-01   2.8386167e+00  -1.3326180e+00
   6.9277075e-02   2.8689271e+00  -1.2821263e+00
   2.9192532e-02   2.8945563e+00  -1.2183103e+00
  -6.6970541e-03   2.9143342e+00  -1.1464300e+00
  -3.1167315e-02   2.9338780e+00  -1.0865879e+00
  -5.7385312e-02   2.9411336e+00  -1.0192659e+00
  -9.6421214e-02   2.9448786e+00  -9.3920380e-01
  -1.2683417e-01   2.9286117e+00  -8.6463502e-01
  -1.4885721e-01   2.8950244e+00  -7.9029997e-01
  -1.4850766e-01   2.8455212e+00  -7.2508155e-01
  -1.4664341e-01   2.7693357e+00  -6.5355177e-01
  -1.5713061e-01   2.6927991e+00  -5.7699620e-01
  -1.5526636e-01   2.5844308e+00  -5.2732263e-01
  -1.5491681e-01   2.4794561e+00  -4.7671411e-01
  -1.4419619e-01   2.3729602e+00  -4.2026170e-01
  -1.2182360e-01   2.2250358e+00  -3.7269179e-01
  -1.0784054e-01   2.0923255e+00  -3.2594036e-01
  -9.0478520e-02   1.9335176e+00  -2.9321409e-01
  -7.1251859e-02   1.7425269e+00  -2.6025446e-01
  -5.0627008e-02   1.5417062e+00  -2.2250239e-01
  -2.8720094e-02   1.3125640e+00  -2.0637319e-01
  -2.4292104e-02   1.0960612e+00  -1.7855623e-01
  -1.8116379e-02   8.8154801e-01  -1.4197286e-01
  -3.9002852e-03   6.6434301e-01  -1.2186969e-01
   1.5763457e-03   4.4912735e-01  -9.8377304e-02
  -3.5507380e-03   2.2969860e-01  -8.2832450e-02
  -2.5341137e-02   2.5249905e-02  -5.9222799e-02
  -5.2258229e-02  -1.8809345e-01  -2.5210956e-02
  -9.5838636e-02  -3.9968111e-01   7.7486674e-03
  -1.4279800e-01  -6.0307663e-01   5.5318579e-02
  -1.7554166e-01  -8.1255794e-01   1.0978420e-01
  -2.1644181e-01  -1.0156024e+00   1.6939248e-01
  -2.6806220e-01  -1.2051884e+00   2.2981885e-01
  -3.3238397e-01  -1.3768697e+00   2.8849178e-01
  -4.0183283e-01  -1.5518272e+00   3.4996997e-01
  -4.7885560e-01  -1.6960065e+00   4.1998044e-01
  -5.4958613e-01  -1.8233335e+00   4.7982246e-01
  -6.0982946e-01  -1.9679809e+00   5.3428808e-01
  -6.6692687e-01  -2.0969462e+00   6.1037618e-01
  -7.0479722e-01  -2.2555201e+00   6.8143848e-01
  -7.6422494e-01  -2.4074232e+00   7.5624100e-01
  -8.2784762e-01  -2.5288988e+00   8.3384879e-01
  -8.6898081e-01  -2.6716739e+00   9.0245643e-01
  -9.0428781e-01  -2.7956069e+00   9.8053170e-01
  -9.1943603e-01  -2.9030390e+00   1.0400231e+00
  -9.2770943e-01  -3.0158548e+00   1.0871252e+00
  -9.3388516e-01  -3.1138076e+00   1.1406558e+00
  -9.3283652e-01  -3.1974831e+00   1.1875241e+00
  -9.1943603e-01  -3.2782328e+00   1.2186138e+00
  -8.9881118e-01  -3.3462263e+00   1.2400026e+00
  -8.5662896e-01  -3.4270930e+00   1.2508722e+00
  -8.0407645e-01  -3.4960229e+00   1.2451452e+00
  -7.5466987e-01  -3.5353446e+00   1.2277304e+00
  -6.9244577e-01  -3.5855499e+00   1.1904459e+00
  -6.4152409e-01  -3.6144560e+00   1.1468503e+00
  -5.7242517e-01  -3.6413725e+00   1.0868914e+00
  -5.0285980e-01  -3.6420746e+00   1.0162966e+00
  -4.3492565e-01  -3.6261588e+00   9.3752011e-01
  -3.4007440e-01  -3.6301378e+00   8.4156259e-01
  -2.6095435e-01  -3.6119982e+00   7.4876094e-01
  -1.9418535e-01  -3.6013487e+00   6.4029718e-01
  -1.3534060e-01  -3.5633142e+00   5.2680803e-01
  -7.9874806e-02  -3.5070235e+00   4.1962984e-01
  -2.5923716e-02  -3.4526052e+00   3.1280265e-01
   3.8048510e-02  -3.3800476e+00   1.9311861e-01
   1.0539969e-01  -3.3212991e+00   6.8291906e-02
   1.4361998e-01  -3.2274425e+00  -4.4496034e-02
   1.7682971e-01  -3.1154462e+00  -1.6710182e-01
   2.0887388e-01  -3.0107056e+00  -2.8573403e-01
   2.2821706e-01  -2.8729627e+00  -3.9630144e-01
   2.5490112e-01  -2.7580409e+00  -5.0464794e-01
   2.7983745e-01  -2.6341075e+00  -6.0563125e-01
   2.8659575e-01  -2.4627777e+00  -7.0836800e-01
   3.0640499e-01  -2.3197689e+00  -8.0748139e-01
   3.1782471e-01  -2.1390767e+00  -8.8368635e-01
   3.1724213e-01  -1.9432879e+00  -9.6702076e-01
   3.2528210e-01  -1.7535844e+00  -1.0483684e+00
   3.2563165e-01  -1.5064201e+00  -1.1022497e+00
   3.4637302e-01  -1.3026735e+00  -1.1568321e+00
   3.4765508e-01  -1.0762232e+00  -1.1868700e+00
   3.4765508e-01  -8.3502725e-01  -1.2270764e+00
   3.5091752e-01  -6.2262045e-01  -1.2578155e+00
   3.3110828e-01  -3.7112601e-01  -1.2573480e+00
   3.5045146e-01  -1.5544227e-01  -1.2986061e+00
   3.4637302e-01   8.3529912e-02  -1.3222158e+00
   3.4579044e-01   3.0518204e-01  -1.3356570e+00
   3.6035608e-01   5.0331168e-01  -1.3533055e+00
   3.3576930e-01   7.4064559e-01  -1.3468773e+00
   3.2120366e-01   9.4930737e-01  -1.3597337e+00
   3.0780357e-01   1.1710765e+00  -1.3528380e+00
   3.0151094e-01   1.3631204e+00  -1.3192937e+00
   2.9044116e-01   1.5631223e+00  -1.2975543e+00
   2.8053654e-01   1.7609005e+00  -1.2863340e+00
   2.6760251e-01   1.9193574e+00  -1.2651790e+00
   2.4278270e-01   2.1030921e+00  -1.2338552e+00
   2.2716842e-01   2.2244507e+00  -1.2096612e+00
   2.0444589e-01   2.3451072e+00  -1.1825455e+00
   1.9325960e-01   2.4622527e+00  -1.1357940e+00
   1.8976374e-01   2.5243951e+00  -1.0685884e+00
   1.9209444e-01   2.6104111e+00  -1.0152919e+00
   1.6937192e-01   2.6715000e+00  -9.4715134e-01
   1.4327044e-01   2.7170241e+00  -8.6276510e-01
   1.3324930e-01   2.7777619e+00  -7.7557320e-01
   1.0936162e-01   2.8229349e+00  -6.7879760e-01
   1.0924510e-01   2.8558197e+00  -5.9733311e-01
   1.0528318e-01   2.8636608e+00  -4.9109026e-01
   1.0143816e-01   2.8442340e+00  -3.8882099e-01
   8.9785410e-02   2.8382656e+00  -2.8094198e-01
   7.3239002e-02   2.8205941e+00  -1.4664804e-01
   7.9880790e-02   2.7799852e+00  -2.2289212e-02
   8.0113822e-02   2.7628992e+00   1.2158883e-01
   9.8058810e-02   2.7284928e+00   2.4945414e-01
   1.0528318e-01   2.6988845e+00   3.8024159e-01
   1.1041026e-01   2.6840218e+00   5.3019725e-01
   1.3208414e-01   2.6484452e+00   6.4707602e-01
   1.3965806e-01   2.6274971e+00   7.6979907e-01
   1.4734888e-01   2.5848989e+00   9.0467735e-01
   1.4560075e-01   2.5312997e+00   1.0281012e+00
   1.4583378e-01   2.4727852e+00   1.1539798e+00
   1.5002874e-01   2.4028025e+00   1.2729626e+00
   1.5317506e-01   2.3300105e+00   1.3739459e+00
   1.4863055e-01   2.2200036e+00   1.4689684e+00
   1.2008185e-01   2.1291894e+00   1.5590821e+00
   9.7126684e-02   2.0245658e+00   1.6225471e+00
   7.9997306e-02   1.9104632e+00   1.6822722e+00
   6.1120582e-02   1.8040842e+00   1.7457376e+00
   3.9213668e-02   1.6512446e+00   1.7767104e+00
   1.9258929e-03   1.5080018e+00   1.8106054e+00
  -3.0118673e-02   1.3404170e+00   1.8370199e+00
  -5.2025197e-02   1.1682681e+00   1.8374874e+00
  -7.8243194e-02   1.0048959e+00   1.8462534e+00
  -1.0049966e-01   8.1156487e-01   1.8204232e+00
  -1.2054193e-01   6.3180886e-01   1.7608150e+00
  -1.3592318e-01   4.4631849e-01   1.7079855e+00
  -1.4314755e-01   2.7697838e-01   1.6531693e+00
  -1.4943979e-01   1.1302117e-01   1.5667959e+00
  -1.5351823e-01  -4.8595261e-02   1.4764485e+00
  -1.6610310e-01  -1.8973172e-01   1.4140353e+00
  -1.6482104e-01  -3.3437915e-01   1.3382979e+00
  -1.5095488e-01  -4.5983382e-01   1.2774040e+00
  -1.3638924e-01  -5.7779846e-01   1.2000300e+00
  -1.2089148e-01  -6.8874155e-01   1.0977611e+00
  -1.2951403e-01  -7.9160950e-01   1.0525290e+00
  -1.2182360e-01  -8.6416745e-01   9.8076544e-01
  -1.0201436e-01  -9.2724565e-01   8.8270388e-01
  -8.8846909e-02  -9.8330229e-01   8.3466688e-01
  -7.1717922e-02  -1.0139641e+00   7.7494173e-01
  -6.8338574e-02  -1.0798512e+00   7.0387943e-01
  -6.2978459e-02  -1.1073527e+00   6.5338777e-01
  -5.6453186e-02  -1.1378972e+00   5.9728598e-01
  -4.2936187e-02  -1.1864642e+00   5.4702806e-01
