**************************************************************************************
  RED ACELEROGRÁFICA DE LA UNIVERSIDAD AUTONOMA METROPOLITANA (RAUAM)
				UNIDAD AZCAPOTZALCO
                        DIVISIÓN CBI-DEPARTAMENTO DE MATERIALES
     Av. San Pablo 180, Col. Reynosa, Azcapotzalco, C.P. 02200, Ciudad de México
**************************************************************************************
ARCHIVO ESTANDAR DE ACELERACION:
VERSION DEL FORMATO                    : 2.0
NOMBRE DEL ARCHIVO                     : RIDA201904221
FECHA Y HORA DE CREACION               : 08:38 p. m. 23/04/2019
REF. CATALOGO ACELEROGRAMAS, SMIS 1995 : REGISTRO NO.      /PAG.    


================================================================================
DATOS DE LA ESTACION:
NOMBRE DE LA ESTACION                  : UAM-AZCAPOTZALCO.
CLAVE DE LA ESTACION                   : RIDA
LOCALIZACION DE LA ESTACION            : AV. SAN PABLO 180, COL.REYNOSA, AZCAPOTZALCO,
                                       : C.P.02200 CIUDAD DE MEXICO.
                                       :
                                       : 
                                       : 
COORDENADAS DE LA ESTACION             : 19.498596 LAT. N
                                       : 99.195595 LONG. W
ALTITUD (msnm)                         : 2246
TIPO DE SUELO                          : ZONA DE TRANSICION 
                                       : 
                                       : 
INSTITUCION RESPONSABLE                : UAM-AZCAPOTZALCO
                                       : 

================================================================================
DATOS DEL ACELEROGRAFO: 
MODELO DEL ACELEROGRAFO                : BASALT KINEMETRICS
NUMERO DE SERIE DEL ACELEROGRAFO       : 1730
NUMERO DE CANALES                      : 3
ORIENTACION C1-C6 (rumbo;orientacion)  : /V/N00E/N90E
ORIENTACION C7-C12 (rumbo;orientacion) : 
VEL. DE MUESTREO, C1-C6 (muestras/s)   : /250/250/250
VEL. DE MUESTREO, C7-C12 (muestras/s)  : 
ESC. COMPLETA DE SENSORES, C1-C6, (g)  : /2/2/2
ESC. COMPLETA DE SENSORES, C7-C12 (g)  : 
FREC. NAT. DE SENSORES, C1-C6, (Hz)    : /210/206/212
FREC. NAT. DE SENSORES, C7-C12 (Hz)    : 
AMORTIGUAMIENTO DE SENSORES, C1-C6     : /0.70/0.70/0.70   
AMORTIGUAMIENTO DE SENSORES, C7-C12    : 
INTERVALO DE MUESTREO, C1-C6 (s)       : /0.004/0.004/0.004
INTERVALO DE MUESTREO, C7-C12 (s)      : 
UMBRAL DE DISPARO, C1-C6 (Gal)         : /2/2/2
UMBRAL DE DISPARO, C7-C12 (Gal)        : 
MEMORIA DE PREEVENTO (s)               : 30
TIEMPO DE POSEVENTO (s)                : 60


================================================================================
DATOS DEL SISMO:
FECHA DEL SISMO [GMT]                  : 2019/04/22
HORA EPICENTRO (GMT)                   : 20:15:23
MAGNITUD(ES)                           : /M=5.5
COORDENADAS DEL EPICENTRO              : 15.958 LAT. N
                                       : 98.6733 LONG. W
PROFUNDIDAD FOCAL (Km)                 : 15.8
FUENTE DE LOS DATOS EPICENTRALES       : SSN
                                       : INSTITUTO DE GEOFISICA, UNAM

================================================================================
DATOS DE ESTE REGISTRO:
HORA DE LA PRIMERA MUESTRA (GMT)       : 20:16:22.00
EXACTITUD DEL TIEMPO (s)               : 
DURACION DEL REGISTRO (s), C1-C6       : /107.00/107.00/107.00
DURACION DEL REGISTRO (s), C7-C12      : 
NUM. TOTAL DE MUESTRAS, C1-C6          : /26750/26750/26750
NUM. TOTAL DE MUESTRAS, C7-C12         : 
ACEL. MAX.(Gal), C1-C6                 : /-0.374/1.636/1.657
ACEL. MAX., C1-C6, EN LA MUESTRA       : /12283/7613/9578
ACEL. MAX.(Gal), C7-C12                : 
ACEL. MAX., C7-C12,EN LA MUESTRA       : 
UNIDADES DE LOS DATOS                  : Gal (cm/s/s)
FACTOR DE DECIMACION                   : 1
FORMATO DATOS (FORTRAN,16 campos/dato) : 3E16.7


================================================================================
CALIDAD DEL ACELEROGRAMA:
REGISTRO DIGITAL COMPLETO CON TIEMPO ABSOLUTO CORRECTO


================================================================================
COMENTARIOS:














================================================================================
DATOS DE ACELERACION:
---------+---------+---------+---------+---------+---------+---------+---------+
   CANAL-1  	    CANAL-2 	     CANAL-3
       V     	     N00E              N90E
---------+---------+---------+---------+---------+---------+---------+---------+
[...]
  -1.7059436e-02  -8.4416753e-01  -9.9331264e-01
  -2.8362245e-02  -8.5212524e-01  -1.0032474e+00
  -3.4771393e-02  -8.5107207e-01  -9.9588417e-01
  -4.3976528e-02  -8.4053953e-01  -1.0048839e+00
  -4.9686581e-02  -8.4159271e-01  -1.0251040e+00
  -5.8658684e-02  -8.3562432e-01  -1.0287269e+00
  -6.4018799e-02  -8.4428455e-01  -1.0359736e+00
  -7.5438515e-02  -8.4931678e-01  -1.0495317e+00
  -8.3361977e-02  -8.4182675e-01  -1.0691674e+00
  -9.9092775e-02  -8.3773107e-01  -1.0694011e+00
  -1.0456980e-01  -8.3562432e-01  -1.0789848e+00
  -1.0188954e-01  -8.3983742e-01  -1.1010752e+00
  -1.1016294e-01  -8.4369945e-01  -1.1076203e+00
  -1.1027946e-01  -8.4077357e-01  -1.1215290e+00
  -1.1144462e-01  -8.4346541e-01  -1.1293596e+00
  -1.1657170e-01  -8.3480519e-01  -1.1412815e+00
  -1.1598912e-01  -8.2427265e-01  -1.1620859e+00
  -1.0585147e-01  -8.2825170e-01  -1.1680467e+00
  -1.0701663e-01  -8.0051574e-01  -1.1793838e+00
  -1.0491934e-01  -7.8506799e-01  -1.1998376e+00
  -1.0188954e-01  -7.7617373e-01  -1.1953965e+00
  -9.5480787e-02  -7.5545971e-01  -1.1990195e+00
  -9.2334471e-02  -7.4750200e-01  -1.2128113e+00
  -9.8626712e-02  -7.3053261e-01  -1.2229797e+00
  -9.0004156e-02  -7.1028667e-01  -1.2287068e+00
  -9.5480787e-02  -6.9378575e-01  -1.2200576e+00
  -9.3499628e-02  -6.9062583e-01  -1.2282393e+00
  -9.5247755e-02  -6.7353981e-01  -1.2218111e+00
  -9.5830334e-02  -6.6429449e-01  -1.2149150e+00
  -8.9304671e-02  -6.5071945e-01  -1.2100064e+00
  -9.7811102e-02  -6.2017462e-01  -1.1997207e+00
  -9.1402345e-02  -6.1011016e-01  -1.1987857e+00
  -9.8160649e-02  -5.8541749e-01  -1.1634883e+00
  -9.6063366e-02  -5.7277821e-01  -1.1444370e+00
  -9.0703250e-02  -5.6692684e-01  -1.1397622e+00
  -1.0375380e-01  -5.4785110e-01  -1.1011921e+00
  -1.0328773e-01  -5.2620093e-01  -1.0686995e+00
  -1.0084090e-01  -5.0642307e-01  -1.0516354e+00
  -1.0317122e-01  -4.8301722e-01  -1.0172729e+00
  -1.1831944e-01  -4.4065304e-01  -9.7285887e-01
  -1.2193182e-01  -4.2415212e-01  -9.4305473e-01
  -1.2461207e-01  -3.9068180e-01  -9.0857580e-01
  -1.3801216e-01  -3.4422155e-01  -8.7818731e-01
  -1.4034287e-01  -3.2701811e-01  -8.4452607e-01
  -1.4616905e-01  -2.8055786e-01  -7.9613808e-01
  -1.4966491e-01  -2.3994897e-01  -7.6142501e-01
  -1.5269432e-01  -2.1677715e-01  -7.1946563e-01
  -1.5024749e-01  -1.7897712e-01  -6.6348071e-01
  -1.5549109e-01  -1.4925182e-01  -6.0235312e-01
  -1.6423016e-01  -1.1929248e-01  -5.4660194e-01
  -1.6178333e-01  -7.8332534e-02  -4.9190258e-01
  -1.6842512e-01  -4.6266847e-02  -4.2703477e-01
  -1.6621132e-01  -1.9467036e-02  -3.8227012e-01
  -1.6714344e-01   2.3131187e-02  -3.3399899e-01
  -1.7320265e-01   5.9175927e-02  -2.8362421e-01
  -1.7798019e-01   8.9135264e-02  -2.4224918e-01
  -1.8264121e-01   1.3407427e-01  -1.8100472e-01
  -1.7588291e-01   1.7175767e-01  -1.3448703e-01
  -1.7518381e-01   2.0511057e-01  -9.7436179e-02
  -1.6795905e-01   2.4349610e-01  -4.7412003e-02
  -1.5409251e-01   2.7205120e-01  -5.1020152e-03
  -1.4943149e-01   3.1441538e-01   3.4286229e-02
  -1.3824519e-01   3.5795015e-01   7.0752337e-02
  -1.2752496e-01   3.8767545e-01   1.2171147e-01
  -1.2356304e-01   4.3975304e-01   1.8482624e-01
  -1.0398683e-01   4.7392546e-01   2.1544846e-01
  -9.1751892e-02   4.9826708e-01   2.5425197e-01
  -8.4294103e-02   5.4028060e-01   3.1432773e-01
  -7.3340841e-02   5.6719704e-01   3.5406658e-01
  -7.4739421e-02   6.0476342e-01   3.8609164e-01
  -5.9008231e-02   6.4022307e-01   4.1706448e-01
  -5.0385675e-02   6.7240577e-01   4.6919231e-01
  -4.9919612e-02   7.1278063e-01   5.1886587e-01
  -3.4188423e-02   7.3396272e-01   5.4960497e-01
  -2.4866773e-02   7.5713453e-01   6.0021350e-01
  -1.6476857e-02   7.8522117e-01   6.5725064e-01
  -6.3392055e-03   8.1085078e-01   7.0411894e-01
   2.7498045e-03   8.3566048e-01   7.4572771e-01
   1.9179697e-02   8.5204477e-01   7.9014175e-01
   3.8639390e-02   8.7041800e-01   8.3069869e-01
   5.2972000e-02   8.8645124e-01   8.6389245e-01
   7.3130787e-02   9.0459043e-01   8.9767016e-01
   9.2007902e-02   9.3103879e-01   9.3168200e-01
   1.0459238e-01   9.4695501e-01   9.7025216e-01
   1.1706074e-01   9.6919028e-01   1.0119778e+00
   1.2521723e-01   9.9446844e-01   1.0423663e+00
   1.3488882e-01   1.0087460e+00   1.0660928e+00
   1.3861772e-01   1.0337901e+00   1.0994030e+00
   1.4223010e-01   1.0495889e+00   1.1221946e+00
   1.4840582e-01   1.0556743e+00   1.1392588e+00
   1.4514299e-01   1.0748671e+00   1.1754911e+00
   1.3791862e-01   1.0816546e+00   1.2123082e+00
   1.3046083e-01   1.0906659e+00   1.2396577e+00
   1.2929568e-01   1.0987410e+00   1.2563717e+00
   1.2649930e-01   1.0839954e+00   1.2747214e+00
   1.1403094e-01   1.0917191e+00   1.2970455e+00
   1.0599057e-01   1.0862188e+00   1.2907337e+00
   9.7717564e-02   1.0618768e+00   1.2938896e+00
   8.7346881e-02   1.0645686e+00   1.3229925e+00
   7.6393619e-02   1.0497059e+00   1.3358490e+00
   6.3226167e-02   1.0300451e+00   1.3386542e+00
   6.0312883e-02   1.0158846e+00   1.3449656e+00
   5.5418830e-02   9.9809644e-01   1.3530304e+00
   4.7145822e-02   9.8030791e-01   1.3475371e+00
   4.9709168e-02   9.5397657e-01   1.3352646e+00
   4.1785706e-02   9.4613548e-01   1.3374855e+00
   3.1648055e-02   9.2764523e-01   1.3381868e+00
   4.0736674e-02   8.9698378e-01   1.3255637e+00
   4.2601317e-02   8.8808951e-01   1.3239275e+00
   3.5027011e-02   8.7755698e-01   1.3363165e+00
   3.6425591e-02   8.5614085e-01   1.3347972e+00
   3.4793980e-02   8.3741616e-01   1.3399398e+00
   2.9317349e-02   8.2547900e-01   1.3468359e+00
   3.4560948e-02   7.9786045e-01   1.3290701e+00
   3.5143527e-02   7.7199718e-01   1.3247456e+00
   2.9433865e-02   7.5912386e-01   1.3210053e+00
   2.7569613e-02   7.3407974e-01   1.3038243e+00
   2.5005875e-02   7.0072684e-01   1.3002010e+00
   2.1626919e-02   6.7451212e-01   1.2965780e+00
   9.7411401e-03   6.5883034e-01   1.2959933e+00
   1.3586551e-02   6.1915760e-01   1.2844224e+00
   1.2887456e-02   5.8545364e-01   1.2831368e+00
  -1.3286375e-03   5.6216481e-01   1.2971623e+00
   8.2264354e-03   5.2377968e-01   1.2733190e+00
   1.1489267e-02   5.0341672e-01   1.2703968e+00
   1.9296213e-02   4.6128619e-01   1.2714490e+00
   3.1065476e-02   4.1658122e-01   1.2518134e+00
   3.7008170e-02   3.7971734e-01   1.2480731e+00
   5.8099083e-02   3.2728870e-01   1.2367360e+00
   7.0100987e-02   2.9545666e-01   1.2401252e+00
   8.0821217e-02   2.5777365e-01   1.2310090e+00
   9.6319375e-02   2.2886749e-01   1.2114902e+00
   1.1158411e-01   2.1189849e-01   1.1978152e+00
   1.2160525e-01   1.8860965e-01   1.1722188e+00
   1.3232548e-01   1.6883179e-01   1.1508300e+00
   1.4863885e-01   1.4437277e-01   1.1254673e+00
   1.4980401e-01   1.1886056e-01   1.1079353e+00
   1.5772786e-01   7.4506654e-02   1.0849104e+00
   1.6448617e-01   3.6589602e-02   1.0657422e+00
   1.6192282e-01   6.1621877e-03   1.0464571e+00
   1.6308798e-01  -3.2925451e-02   1.0179385e+00
   1.4980401e-01  -6.4289021e-02   1.0090557e+00
   1.3826817e-01  -9.2376046e-02   9.9795225e-01
   1.3337412e-01  -1.1402622e-01   9.7188833e-01
   1.2451814e-01  -1.4410257e-01   9.4769433e-01
   1.1344836e-01  -1.7429595e-01   9.4301915e-01
   9.9581816e-02  -2.0554250e-01   9.2350033e-01
   8.5831785e-02  -2.4299186e-01   8.9393032e-01
   7.6043681e-02  -2.7400438e-01   8.8200843e-01
   6.6372483e-02  -2.9881446e-01   8.6272336e-01
   5.0874325e-02  -3.1484731e-01   8.3993218e-01
   4.4931632e-02  -3.4387049e-01   8.0592034e-01
   3.7707264e-02  -3.6891461e-01   7.8394726e-01
   2.2559045e-02  -3.8810698e-01   7.7611620e-01
   2.2559045e-02  -4.1970498e-01   7.4385780e-01
   2.3724202e-02  -4.3690802e-01   7.1381992e-01
   1.7315445e-02  -4.4966432e-01   6.8997653e-01
   1.8597119e-02  -4.7166555e-01   6.5164011e-01
   1.9878792e-02  -4.8243212e-01   6.1797927e-01
   2.8035676e-02  -4.9553948e-01   5.8081155e-01
   4.0503642e-02  -5.1871090e-01   5.3593003e-01
   3.4677464e-02  -5.3123316e-01   5.1232078e-01
   3.7707264e-02  -5.5428757e-01   4.7012727e-01
   3.7008170e-02  -5.7277821e-01   4.2419392e-01
   3.1415023e-02  -5.8342777e-01   3.9801314e-01
   3.8988938e-02  -5.9864147e-01   3.6037833e-01
   2.5471938e-02  -5.8752384e-01   3.3840486e-01
   2.5938001e-02  -5.9208799e-01   2.9925035e-01
   3.1764571e-02  -6.0238649e-01   2.6664134e-01
   2.2675561e-02  -6.0168437e-01   2.5168083e-01
   3.3512307e-02  -6.2333454e-01   1.9815017e-01
   3.2696696e-02  -6.3503727e-01   1.5724262e-01
   3.2230634e-02  -6.4556981e-01   1.1914034e-01
   4.1203128e-02  -6.6511363e-01   6.7830201e-02
   4.2251769e-02  -6.7225260e-01   1.4767411e-02
   5.4836252e-02  -6.7318875e-01  -5.3490015e-02
   6.4507840e-02  -6.7552914e-01  -1.0982555e-01
   6.9751440e-02  -6.8184898e-01  -1.6662856e-01
   7.4645492e-02  -6.8009330e-01  -2.2869150e-01
   8.0937733e-02  -6.8407235e-01  -2.8315673e-01
   9.4920795e-02  -6.9834990e-01  -3.3797296e-01
   9.3056543e-02  -6.9940308e-01  -3.8378943e-01
   8.8628554e-02  -7.0712715e-01  -4.3054125e-01
   8.8861586e-02  -7.0408425e-01  -4.7285124e-01
   8.6531271e-02  -6.8688121e-01  -5.1282383e-01
   8.6880818e-02  -6.8173196e-01  -5.6635449e-01
   7.4878524e-02  -6.5399599e-01  -6.0679457e-01
   6.2876620e-02  -6.3445217e-01  -6.5237730e-01
   5.4020641e-02  -6.2906889e-01  -7.0392078e-01
   3.4910496e-02  -6.0601448e-01  -7.3080279e-01
   2.0927433e-02  -5.9793936e-01  -7.6247723e-01
   8.9255299e-03  -5.9255607e-01  -8.0408600e-01
  -1.3214025e-02  -5.8448094e-01  -8.3190297e-01
  -2.9177855e-02  -5.8389584e-01  -8.6369428e-01
  -4.1646213e-02  -5.8120440e-01  -9.1196502e-01
  -6.2620610e-02  -5.6680982e-01  -9.5719714e-01
  -7.3806904e-02  -5.4843620e-01  -1.0159873e+00
  -8.7556934e-02  -5.3006297e-01  -1.0729072e+00
  -1.1121159e-01  -4.9542246e-01  -1.1110099e+00
  -1.1692125e-01  -4.8851753e-01  -1.1602160e+00
  -1.2251439e-01  -4.8863455e-01  -1.1945780e+00
  -1.3323462e-01  -4.7096343e-01  -1.2269537e+00
  -1.3043825e-01  -4.8161299e-01  -1.2672769e+00
  -1.2845709e-01  -4.8348530e-01  -1.2960292e+00
  -1.2647632e-01  -4.7342084e-01  -1.3350665e+00
  -1.2088317e-01  -4.7377190e-01  -1.3720004e+00
  -1.2088317e-01  -4.5352596e-01  -1.3985318e+00
  -1.2006756e-01  -4.2895031e-01  -1.4237777e+00
  -1.1214371e-01  -4.2298153e-01  -1.4506597e+00
  -1.0340425e-01  -3.9992713e-01  -1.4739187e+00
  -1.0025832e-01  -3.8284071e-01  -1.4941388e+00
  -9.6296397e-02  -3.8951161e-01  -1.5190340e+00
  -9.1169313e-02  -3.6949971e-01  -1.5428774e+00
  -8.3944555e-02  -3.6552066e-01  -1.5696425e+00
  -8.1497725e-02  -3.6072247e-01  -1.5826162e+00
  -7.6603673e-02  -3.3052909e-01  -1.5883432e+00
  -6.8097241e-02  -3.1367711e-01  -1.6050568e+00
  -7.4855936e-02  -2.7271716e-01  -1.6103163e+00
  -6.0406811e-02  -2.5235381e-01  -1.6263286e+00
  -5.1550833e-02  -2.4111916e-01  -1.6418735e+00
  -5.9474685e-02  -2.1244743e-01  -1.6402373e+00
  -4.2112276e-02  -2.1548994e-01  -1.6566003e+00
  -4.5957686e-02  -2.0706375e-01  -1.6499383e+00
  -4.6656781e-02  -1.9185004e-01  -1.6394192e+00
  -4.0597571e-02  -1.7359383e-01  -1.6433932e+00
  -4.5608139e-02  -1.5287982e-01  -1.6265624e+00
  -3.2790234e-02  -1.3930438e-01  -1.6123031e+00
  -3.3955392e-02  -1.1414324e-01  -1.5841355e+00
  -2.8129213e-02  -1.0021674e-01  -1.5662529e+00
  -2.1370909e-02  -7.7396378e-02  -1.5508249e+00
  -2.3817740e-02  -6.0661025e-02  -1.5212545e+00
  -1.5894278e-02  -5.8554675e-02  -1.5015019e+00
  -1.6709889e-02  -3.2691412e-02  -1.4701785e+00
  -1.5428215e-02  -1.5605001e-02  -1.4525300e+00
  -1.8224593e-02  -6.3600719e-03  -1.4290372e+00
  -2.0089236e-02   2.5940046e-02  -1.4042589e+00
  -2.9760825e-02   5.2271387e-02  -1.3856750e+00
  -4.3860012e-02   6.7368074e-02  -1.3461703e+00
  -4.7938454e-02   9.7444430e-02  -1.3043274e+00
  -6.6932084e-02   1.1769037e-01  -1.2491605e+00
  -6.8912852e-02   1.2904204e-01  -1.2195901e+00
  -7.3457357e-02   1.5104366e-01  -1.1842927e+00
  -9.8976259e-02   1.6777862e-01  -1.1186068e+00
  -1.1121159e-01   1.8416252e-01  -1.0751281e+00
  -1.3591488e-01   2.0862155e-01  -1.0189095e+00
  -1.5653973e-01   2.2453737e-01  -9.6888530e-01
  -1.6597829e-01   2.3670858e-01  -9.3534093e-01
  -1.9033203e-01   2.4782621e-01  -8.9408277e-01
  -2.0303303e-01   2.4595351e-01  -8.6603168e-01
  -2.0816011e-01   2.4887938e-01  -8.3879906e-01
  -2.1130643e-01   2.4443225e-01  -7.9929395e-01
  -2.1095688e-01   2.3846387e-01  -7.5791892e-01
  -2.0979133e-01   2.3893195e-01  -7.2063433e-01
  -2.0023665e-01   2.3038874e-01  -6.8522005e-01
  -2.0151832e-01   2.3694261e-01  -6.3858549e-01
  -1.9825549e-01   2.4337908e-01  -5.8926253e-01
  -1.8310727e-01   2.5040064e-01  -5.6530227e-01
  -1.7063931e-01   2.6034808e-01  -5.3678409e-01
  -1.6749299e-01   2.8129613e-01  -4.7834451e-01
  -1.7017324e-01   3.1219201e-01  -4.2317767e-01
  -1.5164568e-01   3.1546856e-01  -3.8776339e-01
  -1.3882777e-01   3.3442728e-01  -3.4089509e-01
  -1.3043825e-01   3.5408812e-01  -2.7497545e-01
  -1.1517351e-01   3.5572639e-01  -2.2506815e-01
  -1.0235561e-01   3.6228027e-01  -1.9187439e-01
  -8.3012429e-02   3.6064160e-01  -1.6171964e-01
  -8.0332567e-02   3.7971734e-01  -1.1905904e-01
  -7.1127042e-02   3.9340980e-01  -7.2540961e-02
  -5.4930180e-02   3.9575019e-01  -3.0581582e-02
  -4.8054970e-02   4.1681526e-01   1.6286718e-02
  -3.2790234e-02   4.2477337e-01   6.0583884e-02
  -2.2070004e-02   4.3846582e-01   1.0604975e-01
  -1.6709889e-02   4.6210532e-01   1.4333394e-01
  -1.4962152e-02   4.6315889e-01   1.7582648e-01
  -1.1932352e-02   4.6854218e-01   2.1591594e-01
  -7.9704259e-03   4.7146766e-01   2.5810906e-01
  -3.8919839e-03   4.5999897e-01   2.8767946e-01
  -2.3772792e-03   4.7076555e-01   3.2426244e-01
  -5.0575323e-03   4.8469204e-01   3.7031304e-01
  -3.4259209e-03   4.9592669e-01   3.9298735e-01
  -9.7185530e-03   5.1535349e-01   4.2057057e-01
  -1.4845637e-02   5.2881191e-01   4.4429709e-01
  -1.9623173e-02   5.4648302e-01   4.6054316e-01
  -2.9177855e-02   5.5923932e-01   4.7503619e-01
  -3.2207655e-02   5.6239885e-01   4.6872483e-01
  -4.1995760e-02   5.5853681e-01   4.6393278e-01
  -5.3415085e-02   5.5338756e-01   4.6089416e-01
  -6.5766926e-02   5.6906974e-01   4.5469928e-01
  -7.5788062e-02   5.7351648e-01   4.3459612e-01
  -7.9983020e-02   5.7152715e-01   4.2664858e-01
  -9.1751892e-02   5.8217671e-01   4.2933658e-01
  -8.9071639e-02   5.6520771e-01   4.0561046e-01
  -8.7789966e-02   5.5537729e-01   3.9310422e-01
  -9.3499628e-02   5.5678152e-01   3.9696131e-01
  -8.7673450e-02   5.4554687e-01   4.0432450e-01
  -8.8139513e-02   5.4402562e-01   4.0409076e-01
  -9.3849176e-02   5.3770578e-01   4.0479197e-01
  -9.9559229e-02   5.3337567e-01   4.1659700e-01
  -1.0421986e-01   5.2904595e-01   4.2150592e-01
  -1.1389145e-01   5.1956659e-01   4.2840163e-01
  -1.1890202e-01   5.1336377e-01   4.3120689e-01
  -1.2321349e-01   4.9697987e-01   4.3424551e-01
  -1.3032173e-01   4.8387290e-01   4.2010309e-01
  -1.3043825e-01   4.9241572e-01   3.8994834e-01
  -1.3498275e-01   5.0400182e-01   3.7183235e-01
  -1.3276856e-01   5.0610817e-01   3.6143016e-01
  -1.2193182e-01   5.0224614e-01   3.5663811e-01
  -1.0946346e-01   4.9346928e-01   3.3700242e-01
  -9.9675745e-02   4.9861853e-01   3.2566527e-01
  -8.0565599e-02   5.0107594e-01   3.2437931e-01
  -6.6699052e-02   5.0318229e-01   3.1584743e-01
  -6.9495821e-02   5.0856597e-01   3.1561369e-01
  -4.7588907e-02   4.7942577e-01   3.1280842e-01
  -3.3256297e-02   4.6222234e-01   3.2671710e-01
  -2.7313603e-02   4.5133875e-01   3.3676868e-01
  -8.4364888e-03   4.2465635e-01   3.2847014e-01
