**************************************************************************************
  RED ACELEROGRÁFICA DE LA UNIVERSIDAD AUTONOMA METROPOLITANA (RAUAM)
				UNIDAD AZCAPOTZALCO
                        DIVISIÓN CBI-DEPARTAMENTO DE MATERIALES
     Av. San Pablo 180, Col. Reynosa, Azcapotzalco, C.P. 02200, Ciudad de México
**************************************************************************************
ARCHIVO ESTANDAR DE ACELERACION:
VERSION DEL FORMATO                    : 2.0
NOMBRE DEL ARCHIVO                     : RIDR201904221
FECHA Y HORA DE CREACION               : 10:47 a. m. 23/04/2019
REF. CATALOGO ACELEROGRAMAS, SMIS 1995 : REGISTRO NO.      /PAG.    


================================================================================
DATOS DE LA ESTACION:
NOMBRE DE LA ESTACION                  : UAM-RECTORIA.
CLAVE DE LA ESTACION                   : RIDR
LOCALIZACION DE LA ESTACION            : PROL. CANAL DE MIRAMONTES 3855, COL. EX
                                       : DE SAN JUAN DE DIOS, C.P.14387 CIUDAD DE MEXICO. 
                                       :
                                       : 
                                       : 
COORDENADAS DE LA ESTACION             : 19.287271 LAT. N
                                       : 99.137132 LONG. W
ALTITUD (msnm)                         : 2240
TIPO DE SUELO                          : TRANSICION 
                                       : 
                                       : 
INSTITUCION RESPONSABLE                : UNIVERSIDAD AUTONOMA METROPOLITANA
                                       : 

================================================================================
DATOS DEL ACELEROGRAFO: 
MODELO DEL ACELEROGRAFO                : BASALT KINEMETRICS
NUMERO DE SERIE DEL ACELEROGRAFO       : 985
NUMERO DE CANALES                      : 3
ORIENTACION C1-C6 (rumbo;orientacion)  : /V/N00E/N90E
ORIENTACION C7-C12 (rumbo;orientacion) : 
VEL. DE MUESTREO, C1-C6 (muestras/s)   : /200/200/200
VEL. DE MUESTREO, C7-C12 (muestras/s)  : 
ESC. COMPLETA DE SENSORES, C1-C6, (g)  : /2/2/2
ESC. COMPLETA DE SENSORES, C7-C12 (g)  : 
FREC. NAT. DE SENSORES, C1-C6, (Hz)    : /208/204/204
FREC. NAT. DE SENSORES, C7-C12 (Hz)    : 
AMORTIGUAMIENTO DE SENSORES, C1-C6     : /0.7/0.7/0.7   
AMORTIGUAMIENTO DE SENSORES, C7-C12    : 
INTERVALO DE MUESTREO, C1-C6 (s)       : /0.005/0.005/0.005
INTERVALO DE MUESTREO, C7-C12 (s)      : 
UMBRAL DE DISPARO, C1-C6 (Gal)         : /2/2/2
UMBRAL DE DISPARO, C7-C12 (Gal)        : 
MEMORIA DE PREEVENTO (s)               : 60
TIEMPO DE POSEVENTO (s)                : 90


================================================================================
DATOS DEL SISMO:
FECHA DEL SISMO [GMT]                  : 2019/04/22
HORA EPICENTRO (GMT)                   : 20:15:23
MAGNITUD(ES)                           : /M=5.5
COORDENADAS DEL EPICENTRO              : 15.958 LAT. N
                                       : 98.6733 LONG. W
PROFUNDIDAD FOCAL (Km)                 : 15.8
FUENTE DE LOS DATOS EPICENTRALES       : SSN
                                       : INSTITUTO DE GEOFISICA, UNAM

================================================================================
DATOS DE ESTE REGISTRO:
HORA DE LA PRIMERA MUESTRA (GMT)       : 20:15:37.00
EXACTITUD DEL TIEMPO (s)               : 
DURACION DEL REGISTRO (s), C1-C6       : /151.00/151.00/151.00
DURACION DEL REGISTRO (s), C7-C12      : 
NUM. TOTAL DE MUESTRAS, C1-C6          : /30200/30200/30200
NUM. TOTAL DE MUESTRAS, C7-C12         : 
ACEL. MAX.(Gal), C1-C6                 : /-4.216/4.174/-3.798
ACEL. MAX., C1-C6, EN LA MUESTRA       : /12038/7089/13397
ACEL. MAX.(Gal), C7-C12                : 
ACEL. MAX., C7-C12,EN LA MUESTRA       : 
UNIDADES DE LOS DATOS                  : Gal (cm/s/s)
FACTOR DE DECIMACION                   : 1
FORMATO DATOS (FORTRAN,16 campos/dato) : 3E16.7


================================================================================
CALIDAD DEL ACELEROGRAMA:
REGISTRO DIGITAL COMPLETO CON TIEMPO ABSOLUTO CORRECTO


================================================================================
COMENTARIOS:














================================================================================
DATOS DE ACELERACION:
---------+---------+---------+---------+---------+---------+---------+---------+
   CANAL-1   CANAL-2   CANAL-3
         V      N00E      N90E
---------+---------+---------+---------+---------+---------+---------+---------+
[...]
   1.1618523e+00  -3.0230605e-01  -5.8737322e-01
   1.0971948e+00  -6.6965569e-01  -3.1063868e-01
  -5.3489040e-01  -6.1614215e-01  -5.6608604e-01
  -7.1649249e-01  -5.1121882e-01  -3.4783277e-01
  -2.0179763e-01  -5.3225022e-01   5.4052273e-02
  -1.2615326e+00  -3.2146813e-01   1.9815048e-01
  -1.4800152e+00   4.0740503e-02   5.0552931e-01
  -4.7093273e-01   4.4290895e-01   9.2706417e-01
  -9.9823256e-01   7.9693852e-01   5.5067705e-01
  -1.4008855e+00   3.7046738e-01  -2.6876604e-01
  -5.1761736e-01   3.0994350e-01  -6.2503513e-01
  -1.1028056e+00   8.4554472e-01  -1.0280897e+00
  -1.3215220e+00   7.1187827e-01  -1.1614278e+00
  -1.0002583e-01   5.6185373e-01  -1.1066890e+00
  -1.6795137e-01   7.7684178e-01  -1.3600308e+00
   2.2987655e-02   7.2659994e-01  -1.2477464e+00
   1.2062025e+00   6.4294168e-01  -5.8199295e-01
   1.1506481e+00   8.3035533e-01  -4.4664678e-02
   1.0388392e+00   5.1698656e-01   3.9301101e-01
   1.2857994e+00  -9.8534680e-02   7.9021750e-01
  -1.3223787e-01  -2.3453816e-01   5.1722548e-01
  -1.2304875e+00   1.1201375e-01   1.7826675e-01
  -3.8643436e-01   6.5509303e-01   3.3078642e-01
  -2.9283208e-01   6.2167661e-01   2.8329960e-01
  -1.1280151e+00  -2.3547282e-01  -1.9461137e-01
  -1.2865087e+00  -8.8277443e-01  -7.4246627e-01
  -1.3322593e+00   1.4659888e-01  -1.3237724e+00
  -5.1014766e-01   1.6293175e+00  -1.4816723e+00
   1.7771523e+00   1.3276328e+00  -8.6270431e-01
   2.5474441e+00  -1.2143540e-01  -4.6807081e-01
   9.9682342e-01  -1.5630259e+00  -4.8187255e-01
   4.8897412e-02  -1.6261201e+00  -2.1379338e-01
   2.2443062e-01   2.2979020e-01   3.0856361e-01
   5.6849415e-01   1.8347249e+00   7.6401747e-01
   1.1590514e+00   1.2984223e+00   1.0910461e+00
   3.5794766e-01  -7.7247643e-01   9.7525272e-01
  -1.9718349e+00  -1.7887637e+00   2.6879614e-01
  -2.4417132e+00  -7.3064690e-01  -1.4665634e-01
  -1.1326836e+00   1.0579625e+00  -2.0092727e-01
  -3.6285864e-01   1.8344913e+00  -1.5905463e-01
   4.4524765e-01   9.5560945e-01  -8.1157046e-02
   8.9948629e-01  -6.2313503e-02  -2.8209957e-01
   2.0528996e-01  -4.8831771e-01  -5.9111614e-01
   5.7573044e-01  -5.3365221e-01  -5.4830747e-01
   1.4571309e+00   2.5083787e-02  -6.3612782e-02
   7.7133792e-01   4.2211121e-01   1.5136539e-01
   7.8581012e-01  -1.3732578e-01   5.3126113e-01
   1.0976616e+00  -1.0330326e+00   9.5536898e-01
  -4.7093273e-01  -1.4144034e+00   8.2858113e-01
  -1.0878666e+00  -9.3815730e-01   1.0393486e+00
  -3.6542608e-01   1.0897611e-01   1.1609901e+00
  -6.5907090e-01   6.7916246e-01   8.2741159e-01
  -5.0711342e-01   3.7958069e-01   5.8997670e-01
   2.1159225e-01  -2.4482020e-01   5.2377569e-01
  -3.2877897e-01  -5.8646476e-01   2.6224633e-01
  -7.4380306e-01  -5.6987299e-01  -1.1835153e-01
  -2.9773394e-01  -1.8406265e-01  -1.1975498e-01
  -1.7355344e-01   2.2231215e-01   1.6399719e-01
  -5.0306947e-02   1.8024935e-01   4.4728194e-01
   1.2382584e-01  -5.7873481e-02   5.0435977e-01
   6.5236838e-02  -1.5134684e-01   5.3804524e-01
   2.4870655e-01   1.2813819e-01   6.4120644e-01
   5.0313605e-01   4.4991928e-01   9.6285482e-01
   7.1695058e-01   3.9804178e-01   1.4061447e+00
   8.2899292e-01  -2.6701992e-01   1.5876713e+00
   3.0379411e-01  -9.8372546e-01   1.4204142e+00
  -3.3064659e-01  -1.3052733e+00   1.0080026e+00
  -4.1141050e-01  -1.0982302e+00   6.2155661e-01
  -4.4012110e-01  -7.8065509e-01   3.3546497e-01
  -3.3741569e-01  -9.2553862e-01   2.9593180e-01
  -3.7126195e-01  -7.2527222e-01   1.0153909e-01
  -5.8134124e-01  -7.8696443e-01   6.3408979e-02
  -1.7145281e-01  -6.3974425e-01   5.0506149e-01
  -4.4525637e-01   5.1723532e-02   7.6425177e-01
  -7.9702300e-01   3.4452863e-01   1.0159558e+00
   5.4966297e-02   5.5858203e-01   1.2578357e+00
  -2.1595956e-02   3.6929866e-01   1.1261350e+00
  -5.5052962e-01  -5.6004162e-02   9.3969598e-01
   1.1799036e-01  -3.3969515e-01   1.0973624e+00
   4.3591072e-01  -2.4949389e-01   1.0749053e+00
   4.7263587e-02  -5.0677880e-01   8.2483860e-01
   4.2400636e-01  -8.2341927e-01   8.4635969e-01
   6.7003293e-01  -8.5566736e-01   8.2296695e-01
   2.2373041e-01  -1.1222996e+00   5.8295907e-01
   1.5393725e-01  -9.6970479e-01   4.9874559e-01
  -2.0895745e-02  -8.7997046e-01   5.5769507e-01
  -1.5417938e-01  -3.3852683e-01   6.0003552e-01
  -7.5049686e-02   8.3037356e-02   9.4952089e-01
  -1.1986670e-01   1.7138401e-02   1.3315222e+00
  -1.0702833e-01  -6.6753526e-02   1.3591257e+00
  -3.5889039e-01  -2.7963899e-01   1.0697589e+00
  -3.3064659e-01   2.9218340e-01   9.2238562e-01
   3.2270097e-01   3.3004023e-01   9.8718319e-01
   7.0574642e-01  -1.7892164e-01   8.8355379e-01
   3.5981528e-01  -5.5842263e-01   7.2752510e-01
   4.0486570e-01  -6.6217803e-01   4.7605456e-01
   8.9435102e-01  -3.0067039e-01   4.0540891e-01
   9.1862695e-01  -3.5044491e-01   4.7114211e-01
   8.8828213e-01  -7.2200052e-01   5.8319298e-01
   3.9903021e-01  -1.2634441e+00   6.2974417e-01
  -3.0426964e-01  -1.3922036e+00   6.4073862e-01
  -7.0738936e-01  -8.5005901e-01   8.4519016e-01
  -7.8138378e-01  -1.1652804e-01   9.5724064e-01
  -3.1664120e-01   1.1879081e-01   1.0501091e+00
  -1.6211588e-01  -2.3288742e-02   8.2577424e-01
  -1.6561733e-01  -4.0325707e-01   6.1711197e-01
  -1.9502853e-01  -7.2807659e-01   5.2354178e-01
  -4.4852441e-01  -2.6141157e-01   3.1183871e-01
   8.0486504e-03   1.4402857e-01   3.9839128e-01
   7.6993711e-01   5.3614864e-01   4.5710685e-01
   6.5906179e-01   1.5571259e-01   4.0260201e-01
   4.5038292e-01  -8.2038123e-01   3.5768818e-01
   3.7708832e-01  -8.0308886e-01   2.2505184e-01
  -7.1314837e-02  -4.3457050e-01   6.2005532e-02
   1.0188434e-01   1.5502747e-02   2.2762522e-01
   4.1606985e-01  -1.6303086e-01   4.9757605e-01
  -2.9221017e-03  -7.6476470e-01   4.0143208e-01
  -4.8400450e-01  -7.7995409e-01   1.1697819e-01
  -5.0898064e-01  -5.0911545e-01  -2.3242220e-03
  -4.4012110e-01  -9.2224947e-02   1.2259237e-01
  -4.6416363e-01   1.6061994e-01   1.6750620e-01
  -5.3808001e-02   1.1458445e-01   1.9791657e-01
  -2.1362552e-02  -6.3248555e-02   3.5571985e-02
  -2.7999371e-01  -3.0674607e-01  -1.6560444e-01
   3.3024793e-02  -2.4482020e-01  -1.2607088e-01
   1.9315219e-01   1.1224741e-01  -1.6349927e-01
   1.5557108e-01  -1.5111317e-01  -2.0911483e-01
   2.3236673e-01  -5.1963115e-01  -2.8631030e-01
   4.5472049e-03  -4.6705265e-01  -3.6233623e-01
  -2.7672606e-01  -3.0978410e-01  -3.7052379e-01
  -1.5371257e-01   7.5325634e-02  -2.9379614e-01
  -2.1790365e-01   3.8028208e-01  -1.4665634e-01
  -3.7639722e-01   1.0121606e+00   3.7677156e-02
  -5.6609236e-02   1.1691955e+00   2.0563632e-01
   2.5500884e-01   4.4384360e-01   1.2399582e-01
  -1.6655094e-01  -2.5158060e-02  -2.6876604e-01
  -5.9301260e-01  -4.6423123e-02  -5.3707911e-01
  -2.4404681e-01   4.0879114e-01  -4.2947327e-01
  -6.4078934e-02   7.1187827e-01  -5.1883273e-01
   2.0645698e-01   6.3078993e-01  -4.9871509e-01
   6.1051032e-01   5.2610027e-01  -3.6795041e-01
   4.7232443e-01   3.3471392e-01  -5.0432927e-01
   4.8492939e-01   1.1061176e-01  -5.4807356e-01
   5.3324746e-01  -4.3852810e-02  -5.7848394e-01
   2.0388954e-01  -3.8245934e-01  -3.5344695e-01
  -2.3867814e-01  -1.8826862e-01  -2.1847193e-01
  -3.2527753e-01   5.2656760e-01  -2.4584111e-01
  -3.2099901e-02   9.1331299e-01  -2.8794765e-01
  -6.4078934e-02   8.8760751e-01  -5.3941819e-01
  -2.9143166e-01   1.9917777e-01  -5.5953583e-01
  -1.9852959e-01   3.7584206e-01  -5.2280956e-01
  -2.0739971e-01   8.9531923e-01  -3.9064143e-01
  -7.4349475e-02   7.5253908e-01  -3.0759748e-01
   2.7835116e-01   7.8875986e-01  -4.2923897e-01
   4.5785223e-01   1.0180027e+00  -6.6877942e-01
   1.0260008e+00   1.0787602e+00  -8.4492575e-01
   1.1658205e+00  -2.3500549e-01  -7.1650015e-01
   2.7461631e-01  -1.5088114e+00  -6.6644034e-01
  -9.2773919e-01  -1.3482711e+00  -6.5404205e-01
  -1.2813734e+00   3.6345665e-01  -5.9766595e-01
   8.9279367e-02   2.3511641e+00  -3.2865076e-01
   1.8562824e+00   2.4028083e+00  -9.8935611e-02
   2.4024891e+00   2.4007224e-01   4.9139817e-02
   1.0794546e+00  -2.7403208e+00   4.3759152e-02
  -1.1513575e+00  -3.2151645e+00  -5.2561684e-01
  -2.4802275e+00  -1.5139524e+00  -1.1422458e+00
  -2.0488640e+00   6.1933957e-01  -1.2643551e+00
  -1.0017340e+00   1.8559900e+00  -8.3977939e-01
  -7.0132009e-01   1.5171498e+00  -5.2000227e-01
  -6.6350596e-01   1.1037643e+00  -9.7766072e-02
  -8.1102839e-01   1.1152150e+00   3.1979197e-01
  -4.9871010e-01   1.9964335e+00   4.1429819e-01
   6.3268523e-01   2.4997866e+00   3.5371135e-01
   9.8118381e-01   1.5877221e+00  -2.1271933e-02
   1.9641984e-01  -8.0540924e-02  -3.3496705e-01
  -7.3182066e-02  -9.0263751e-01  -7.4924999e-01
   3.5771425e-01   2.0244907e-01  -1.2783907e+00
   9.3123192e-01   1.1885913e+00  -1.6795740e+00
   2.1620646e+00   7.2029060e-01  -1.4316121e+00
   2.3485690e+00  -5.2500583e-01  -9.3919806e-01
   1.2535873e+00  -1.9210282e+00  -6.3205315e-01
   5.5378854e-01  -2.3182893e+00  -1.1484252e-01
  -4.2494869e-01  -1.0832745e+00   1.0036955e-01
  -1.1060736e+00  -8.5496298e-04   1.9978784e-01
  -1.0843655e+00   9.3553055e-02   2.6411759e-01
  -1.5915907e+00  -4.4952622e-01   1.9464147e-01
  -2.0439621e+00  -8.7880213e-01   7.6275087e-02
  -1.9515272e+00   4.0201447e-01   1.3171556e-01
  -1.6938297e+00   2.7154761e+00   1.9557750e-01
  -2.0809992e-01   4.1276221e+00  -1.8338301e-01
   1.6758473e+00   3.2106502e+00  -5.5789848e-01
   1.6293961e+00   8.3526268e-01  -8.3065620e-01
   7.0808046e-01  -6.1964751e-01  -8.0024582e-01
   3.3577275e-01  -4.1073513e-01  -4.3953209e-01
   5.9557131e-01   1.1374148e+00  -2.9777257e-01
   1.8560490e+00   1.7003571e+00  -3.2256876e-01
   2.9078474e+00  -1.0671334e-01  -2.6244974e-01
   1.8208023e+00  -2.6419401e+00  -3.7122551e-01
   5.0764641e-02  -3.8919106e+00  -4.6315835e-01
  -4.0814246e-01  -2.8838019e+00  -5.2935937e-01
  -4.5646092e-01  -1.5415268e+00  -7.4106243e-01
  -5.2998853e-01  -1.3342501e+00  -6.6784379e-01
  -1.1259145e+00  -1.5284408e+00  -5.3427183e-01
  -2.4095007e+00  -5.7034032e-01  -4.6222272e-01
  -2.3952619e+00   1.7992052e+00  -7.8350152e-02
  -7.9328854e-01   3.1454526e+00   7.0132546e-01
  -7.5983301e-02   2.9423822e+00   1.1259011e+00
  -1.0458508e+00   2.1733315e+00   7.5278911e-01
  -1.5089596e+00   1.7031615e+00   1.7265257e-01
  -8.0939457e-01   2.0324206e+00  -2.8677812e-01
   2.7088146e-01   2.1639841e+00  -5.9532648e-01
   1.6368658e+00   1.3610496e+00  -8.1638664e-01
   2.1721018e+00   2.6297295e-01  -1.1974523e+00
   2.1275185e+00  -6.0445812e-01  -1.5976996e+00
   2.8891736e+00  -1.4884810e+00  -1.3427205e+00
   3.1011205e+00  -1.8560643e+00  -8.3346348e-01
   2.3824148e+00  -1.9278049e+00  -4.4467846e-01
   1.9909665e+00  -2.0488526e+00   1.3288510e-01
   5.5122111e-01  -2.6508201e+00   2.5008194e-01
  -2.0122169e+00  -3.6818295e+00  -1.0548542e-01
  -3.4797396e+00  -3.0494832e+00   2.4343625e-02
  -4.2159521e+00  -5.0794712e-01   3.6236673e-01
  -4.1582967e+00   2.5397465e+00   4.2108191e-01
  -2.2953574e+00   3.4856952e+00   5.5909851e-01
  -8.6728296e-01   1.9667557e+00   2.3745014e-01
  -1.4835166e+00   9.3200735e-01  -6.6550432e-01
  -1.4524716e+00   1.6248775e+00  -1.0968641e+00
   8.8221325e-01   2.9017214e+00  -6.6199570e-01
   2.5866590e+00   2.2726468e+00  -2.7929267e-01
   2.4522080e+00   4.3379524e-01  -4.7555664e-01
   2.0322824e+00  -6.8928510e-01  -6.1333895e-01
   1.5661390e+00  -7.5845536e-01  -4.3976600e-01
   1.0953272e+00  -5.5959096e-01   1.4458127e-01
   7.2208585e-01  -1.1159903e+00   3.3172245e-01
   2.5851029e-01  -1.0250877e+00  -4.2091692e-02
  -5.3605742e-01   6.5510930e-02  -4.5029264e-01
  -2.7065717e-01   7.3150729e-01  -6.0398185e-01
   1.0955606e+00   5.5929890e-02  -8.4666056e-02
   7.7343856e-01  -9.8933420e-01  -1.0735708e-01
  -4.8283748e-01  -1.8364349e+00  -3.9204488e-01
  -7.9375535e-01  -1.8654117e+00  -1.9040063e-01
  -1.3985511e+00  -8.5496636e-01  -4.4293924e-03
  -1.9041428e+00  -3.0651240e-01   2.6622315e-01
  -9.7138919e-01   6.7378778e-01   3.7008608e-01
  -7.6434415e-01   1.3764726e+00   1.1791382e-01
  -1.3392618e+00   1.3346431e+00  -1.9507918e-01
  -8.3203628e-01   1.5248611e+00  -8.9110697e-02
   7.4573765e-02   1.9172149e+00   1.5627784e-01
   1.2325795e+00   2.0583594e+00   2.7618334e-02
   2.0220119e+00   5.7704311e-01  -4.5941543e-01
   1.7773857e+00  -9.8606250e-01  -6.9287389e-01
   1.0871577e+00  -1.5356848e+00  -4.5801199e-01
   5.3955014e-01  -1.5247018e+00  -7.6010681e-02
   3.1359784e-01  -1.3204627e+00  -1.2850859e-02
   1.4086548e-01  -1.4936220e+00  -4.1613935e-01
  -3.1547418e-01  -1.3365871e+00  -3.2490823e-01
  -1.1042060e+00  -5.1706083e-01   1.8027329e-02
  -1.0864662e+00   4.3029026e-01   2.4095915e-01
  -4.5155905e-01   7.3921901e-01   2.4516949e-01
  -1.4811049e-01   7.0697092e-01   1.6657057e-01
  -1.4600986e-01   8.3035533e-01   3.3078642e-01
  -2.5198332e-01   1.0137967e+00   4.3698921e-01
  -6.6879777e-02   1.0705815e+00   5.3804524e-01
   2.6924763e-01   8.9625389e-01   3.5605043e-01
   4.7465885e-01   1.0523708e-01   5.1946711e-02
   1.6957647e-01  -9.3885868e-01  -3.2069750e-01
   2.1353438e-02  -7.3204889e-01  -1.8572209e-01
   5.4165077e-01  -9.6197640e-02   2.1312176e-01
   1.0593803e+00  -1.0274065e-01   5.1244987e-02
   1.2692266e+00  -5.7735105e-01   7.1128722e-02
   9.9005393e-01  -1.0659821e+00   1.4154047e-01
   2.6948104e-01  -9.3722264e-01   1.6680448e-01
  -4.6953230e-01  -4.7289466e-01   1.0775794e-02
  -3.4441819e-01  -2.5229786e-01   5.7326983e-02
  -3.7079514e-01  -7.1756089e-01   2.3978922e-01
  -1.5306677e+00  -1.3711722e+00  -1.3552583e-02
  -2.0021797e+00  -1.1980129e+00   1.8177576e-01
  -1.2349222e+00  -1.1769637e-01   5.5839679e-01
  -6.4319828e-01   3.3588225e-01   6.7863483e-01
  -4.6066218e-01  -1.7775292e-01   4.7511893e-01
  -2.6668892e-01  -5.2851119e-01   2.1148441e-01
  -4.7933604e-01  -1.8008996e-01   2.9593180e-01
  -3.7102855e-01   4.8053211e-01   5.1161130e-01
   4.3194247e-01   2.2628484e-01   7.0787527e-01
   3.1686549e-01  -5.6075928e-01   4.4587810e-01
  -6.2008937e-01  -1.1178596e+00   2.0470029e-01
  -4.8167047e-01  -3.6189527e-01   4.3043901e-01
   2.5781008e-01   5.2236124e-01   6.8588637e-01
   4.7792650e-01  -5.3667515e-02   7.1746628e-01
   8.7124249e-01  -5.9254044e-01   6.5173308e-01
   7.0504621e-01  -1.7067407e+00   5.5067705e-01
  -5.5216383e-01  -2.3257669e+00   3.8342000e-01
  -1.2666678e+00  -9.6479743e-01   4.7231204e-01
  -2.3214244e-01   8.1563327e-01   7.9419393e-01
   6.7843585e-01   1.4211058e+00   1.0080026e+00
  -3.1555053e-03   5.3661597e-01   8.3466313e-01
   9.8616293e-02  -3.7942130e-01   9.2519252e-01
   4.0766654e-01  -6.7152501e-01   9.6987245e-01
  -4.3895408e-01  -4.7967133e-01   4.1921065e-01
  -2.0296465e-01  -7.5541733e-01   4.5219440e-01
   5.2134310e-01  -9.7788345e-01   7.6401747e-01
  -1.0212646e-01  -3.7848664e-01   6.7161681e-01
  -1.6468371e-01  -2.5159687e-01   4.0306983e-01
   9.6297716e-01  -5.0514275e-01   2.6107679e-01
   8.0541759e-01  -7.9934984e-01   2.8096052e-01
   8.5544517e-02  -1.0781335e+00   3.8973591e-01
   2.3221059e-02  -1.2592378e+00   5.6611614e-01
  -4.0767565e-01  -7.6055835e-01   5.2167012e-01
  -4.2728312e-01   3.0340010e-01   7.1231991e-01
   9.4181234e-02   8.2895334e-01   8.9525035e-01
   9.6982468e-02   6.5275638e-01   6.2763861e-01
  -1.0858607e-02  -3.4436884e-01   4.5827639e-01
  -4.5638484e-02  -4.9953441e-01   4.3581928e-01
  -3.8013168e-01   2.4616458e-02   2.6294805e-01
   2.1135884e-01  -1.0905038e-01   2.1148441e-01
   1.0021921e+00  -1.9784966e-01   2.2809304e-01
