**************************************************************************************
  RED ACELEROGRÁFICA DE LA UNIVERSIDAD AUTONOMA METROPOLITANA (RAUAM)
				UNIDAD AZCAPOTZALCO
                        DIVISIÓN CBI-DEPARTAMENTO DE MATERIALES
     Av. San Pablo 180, Col. Reynosa, Azcapotzalco, C.P. 02200, Ciudad de México
**************************************************************************************
ARCHIVO ESTANDAR DE ACELERACION:
VERSION DEL FORMATO                    : 2.0
NOMBRE DEL ARCHIVO                     : RIDX201902011
FECHA Y HORA DE CREACION               : 09:27 p. m. 27/01/2021
REF. CATALOGO ACELEROGRAMAS, SMIS 1995 : REGISTRO NO.      /PAG.    


================================================================================
DATOS DE LA ESTACION:
NOMBRE DE LA ESTACION                  : UAM-XOCHIMILCO.
CLAVE DE LA ESTACION                   : RIDX
LOCALIZACION DE LA ESTACION            : CALZADA DEL HUESO 1100, COL. VILLA
                                       : QUIETUD, DEL. COYOACAN, C.P.04960, 
                                       : CIUDAD DE MEXICO.
                                       : 
                                       : 
COORDENADAS DE LA ESTACION             : 19.301345 LAT. N
                                       : 99.10268 LONG. W
ALTITUD (msnm)                         : 2232
TIPO DE SUELO                          : LAGO
                                       : 
                                       : 
INSTITUCION RESPONSABLE                : UNIVERSIDAD AUTONOMA METROPOLITANA
                                       : 

================================================================================
DATOS DEL ACELEROGRAFO: 
MODELO DEL ACELEROGRAFO                : BASALT KINEMETRICS
NUMERO DE SERIE DEL ACELEROGRAFO       : 1729
NUMERO DE CANALES                      : 3
ORIENTACION C1-C6 (rumbo;orientacion)  : /V/N00E/N90E
ORIENTACION C7-C12 (rumbo;orientacion) : 
VEL. DE MUESTREO, C1-C6 (muestras/s)   : /200/200/200
VEL. DE MUESTREO, C7-C12 (muestras/s)  : 
ESC. COMPLETA DE SENSORES, C1-C6, (g)  : /2/2/2
ESC. COMPLETA DE SENSORES, C7-C12 (g)  : 
FREC. NAT. DE SENSORES, C1-C6, (Hz)    : /208/210/200   
FREC. NAT. DE SENSORES, C7-C12 (Hz)    : 
AMORTIGUAMIENTO DE SENSORES, C1-C6     : /0.7/0.7/0.7      
AMORTIGUAMIENTO DE SENSORES, C7-C12    : 
INTERVALO DE MUESTREO, C1-C6 (s)       : /0.005/0.005/0.005
INTERVALO DE MUESTREO, C7-C12 (s)      : 
UMBRAL DE DISPARO, C1-C6 (Gal)         : /2/2/2
UMBRAL DE DISPARO, C7-C12 (Gal)        : 
MEMORIA DE PREEVENTO (s)               : 60
TIEMPO DE POSEVENTO (s)                : 80


================================================================================
DATOS DEL SISMO:
FECHA DEL SISMO [GMT]                  : 2019/02/01
HORA EPICENTRO (GMT)                   : 16:14:12
MAGNITUD(ES)                           : /M=6.5
COORDENADAS DEL EPICENTRO              : 14.5818 LAT. N
                                       : 92.4807 LONG. W
PROFUNDIDAD FOCAL (Km)                 : 76.2
FUENTE DE LOS DATOS EPICENTRALES       : SSN
                                       : INSTITUTO DE GEOFISICA, UNAM

================================================================================
DATOS DE ESTE REGISTRO:
HORA DE LA PRIMERA MUESTRA (GMT)       : 16:17:12.00
EXACTITUD DEL TIEMPO (s)               : 
DURACION DEL REGISTRO (s), C1-C6       : /218.00/218.00/218.00
DURACION DEL REGISTRO (s), C7-C12      : 
NUM. TOTAL DE MUESTRAS, C1-C6          : /43600/43600/43600
NUM. TOTAL DE MUESTRAS, C7-C12         : 
ACEL. MAX.(Gal), C1-C6                 : /-1.178/4.185/-3.465
ACEL. MAX., C1-C6, EN LA MUESTRA       : /23947/17072/14420
ACEL. MAX.(Gal), C7-C12                : 
ACEL. MAX., C7-C12,EN LA MUESTRA       : 
UNIDADES DE LOS DATOS                  : Gal (cm/s/s)
FACTOR DE DECIMACION                   : 1
FORMATO DATOS (FORTRAN,16 campos/dato) : 3E16.7


================================================================================
CALIDAD DEL ACELEROGRAMA:
REGISTRO DIGITAL COMPLETO CON TIEMPO ABSOLUTO CORRECTO


================================================================================
COMENTARIOS:














================================================================================
DATOS DE ACELERACION:
---------+---------+---------+---------+---------+---------+---------+---------+
   CANAL-1   	     CANAL-2       CANAL-3
         V             N00E           N90E
---------+---------+---------+---------+---------+---------+---------+---------+  
[...]
  -2.9936501e-01  -3.2826693e+00  -2.2473731e-01
  -3.0519398e-01  -3.3231158e+00  -2.3082408e-01
  -2.9446862e-01  -3.3754862e+00  -2.3714454e-01
  -2.6812151e-01  -3.4147634e+00  -2.5306291e-01
  -2.3571189e-01  -3.4486638e+00  -2.7225874e-01
  -2.0330267e-01  -3.4704067e+00  -3.0971371e-01
  -1.8558224e-01  -3.4729786e+00  -3.6566229e-01
  -1.8395024e-01  -3.4704067e+00  -4.2746356e-01
  -1.9374302e-01  -3.4729786e+00  -4.9441452e-01
  -2.1962385e-01  -3.5031382e+00  -5.5668355e-01
  -2.6275883e-01  -3.5391426e+00  -6.0935505e-01
  -2.8887280e-01  -3.5894085e+00  -6.4821448e-01
  -2.9889873e-01  -3.6380380e+00  -6.6764440e-01
  -3.0612655e-01  -3.6614173e+00  -6.7115593e-01
  -2.9190405e-01  -3.6873689e+00  -6.8192423e-01
  -2.8304383e-01  -3.6964866e+00  -6.9386291e-01
  -2.6788836e-01  -3.7156578e+00  -7.1984775e-01
  -2.3617857e-01  -3.7423108e+00  -7.7134848e-01
  -2.2312139e-01  -3.7472201e+00  -8.1723099e-01
  -2.2195567e-01  -3.7509609e+00  -8.7950002e-01
  -2.3734428e-01  -3.7486231e+00  -9.3896014e-01
  -2.5692986e-01  -3.7474542e+00  -9.7992665e-01
  -2.6788836e-01  -3.7451161e+00  -1.0183183e+00
  -2.7884687e-01  -3.7579750e+00  -1.0386845e+00
  -2.8304383e-01  -3.7986553e+00  -1.0611574e+00
  -2.8630783e-01  -3.8344259e+00  -1.0691168e+00
  -2.7838058e-01  -3.8641179e+00  -1.0780125e+00
  -2.7418362e-01  -3.8933424e+00  -1.0979106e+00
  -2.8654137e-01  -3.9155528e+00  -1.1140630e+00
  -2.8724080e-01  -3.9237357e+00  -1.1606478e+00
  -2.8374326e-01  -3.9118119e+00  -1.2058280e+00
  -2.8607469e-01  -3.8940437e+00  -1.2489016e+00
  -2.9306976e-01  -3.8851594e+00  -1.2886974e+00
  -3.0262941e-01  -3.8753400e+00  -1.3156185e+00
  -3.1078980e-01  -3.8669233e+00  -1.3455826e+00
  -3.1848430e-01  -3.8732360e+00  -1.3713330e+00
  -3.1405420e-01  -3.8867959e+00  -1.4120654e+00
  -3.0146369e-01  -3.9083049e+00  -1.4497545e+00
  -2.9050480e-01  -3.9386986e+00  -1.4918918e+00
  -2.9773301e-01  -3.9609090e+00  -1.5335605e+00
  -3.0029759e-01  -3.9733000e+00  -1.5698451e+00
  -2.8630783e-01  -3.9768070e+00  -1.6138550e+00
  -2.9120423e-01  -3.9639485e+00  -1.6358597e+00
  -2.9306976e-01  -3.9527260e+00  -1.6700376e+00
  -2.9680044e-01  -3.9309832e+00  -1.6911061e+00
  -3.1125609e-01  -3.8998885e+00  -1.7039815e+00
  -3.1801802e-01  -3.8839905e+00  -1.7330093e+00
  -3.2920966e-01  -3.8687939e+00  -1.7477569e+00
  -3.2967595e-01  -3.8610784e+00  -1.7760825e+00
  -3.2408013e-01  -3.8580389e+00  -1.7943420e+00
  -3.2361384e-01  -3.8617798e+00  -1.8086219e+00
  -3.1941688e-01  -3.8797822e+00  -1.8301585e+00
  -3.1685230e-01  -3.8842243e+00  -1.8479494e+00
  -3.2034945e-01  -3.8753400e+00  -1.8767432e+00
  -3.2827709e-01  -3.8528955e+00  -1.9055369e+00
  -3.4110074e-01  -3.8143195e+00  -1.9450990e+00
  -3.5485735e-01  -3.7738730e+00  -1.9797451e+00
  -3.6068632e-01  -3.7376348e+00  -2.0129863e+00
  -3.6115260e-01  -3.7121512e+00  -2.0424822e+00
  -3.5905432e-01  -3.6943826e+00  -2.0598051e+00
  -3.5672289e-01  -3.6784846e+00  -2.0832147e+00
  -3.4762953e-01  -3.6717043e+00  -2.1045172e+00
  -3.3620435e-01  -3.6597808e+00  -2.1260542e+00
  -3.2827709e-01  -3.6457531e+00  -2.1527409e+00
  -3.2804395e-01  -3.6244778e+00  -2.1829391e+00
  -3.3853617e-01  -3.5798229e+00  -2.1995597e+00
  -3.3993503e-01  -3.5396101e+00  -2.2143077e+00
  -3.5369164e-01  -3.4928512e+00  -2.2264804e+00
  -3.6161889e-01  -3.4535735e+00  -2.2250760e+00
  -3.5532364e-01  -3.4252846e+00  -2.2227352e+00
  -3.6045317e-01  -3.4016712e+00  -2.2206281e+00
  -3.5089353e-01  -3.4075160e+00  -2.2388876e+00
  -3.4110074e-01  -3.3909166e+00  -2.2470811e+00
  -3.2291441e-01  -3.3691734e+00  -2.2578494e+00
  -3.1358791e-01  -3.3457942e+00  -2.2920269e+00
  -3.2711138e-01  -3.2934238e+00  -2.3205866e+00
  -3.2944281e-01  -3.2415214e+00  -2.3545304e+00
  -3.4133388e-01  -3.1737210e+00  -2.3784082e+00
  -3.4180056e-01  -3.1150383e+00  -2.3954969e+00
  -3.4786267e-01  -3.0622004e+00  -2.4069674e+00
  -3.6651528e-01  -3.0175459e+00  -2.4123516e+00
  -3.7281093e-01  -2.9876201e+00  -2.4205451e+00
  -3.7747418e-01  -2.9460043e+00  -2.4242907e+00
  -3.7374350e-01  -2.9149096e+00  -2.4282704e+00
  -3.7747418e-01  -2.8753982e+00  -2.4308452e+00
  -3.6395071e-01  -2.8398614e+00  -2.4418476e+00
  -3.4669695e-01  -2.7975446e+00  -2.4498070e+00
  -3.5089353e-01  -2.7365241e+00  -2.4596390e+00
  -3.5718917e-01  -2.6848551e+00  -2.4795370e+00
  -3.7397664e-01  -2.6212631e+00  -2.4914757e+00
  -3.8237057e-01  -2.5616453e+00  -2.4970939e+00
  -3.8516829e-01  -2.5024950e+00  -2.5020099e+00
  -3.8307000e-01  -2.4519953e+00  -2.5057555e+00
  -3.8307000e-01  -2.4054702e+00  -2.4842189e+00
  -3.7444293e-01  -2.3624517e+00  -2.4673639e+00
  -3.4110074e-01  -2.3425791e+00  -2.4598730e+00
  -3.1638563e-01  -2.2890403e+00  -2.4289726e+00
  -2.8094515e-01  -2.2282536e+00  -2.4006470e+00
  -2.5063422e-01  -2.1660638e+00  -2.3781741e+00
  -2.3804371e-01  -2.0861058e+00  -2.3753648e+00
  -2.3151532e-01  -2.0157335e+00  -2.3978377e+00
  -2.4667079e-01  -1.9301645e+00  -2.4303771e+00
  -2.6555654e-01  -1.8525447e+00  -2.4542548e+00
  -2.9073794e-01  -1.7947975e+00  -2.4568296e+00
  -3.0402827e-01  -1.7634686e+00  -2.4523818e+00
  -2.8840651e-01  -1.7578576e+00  -2.4233544e+00
  -2.5716300e-01  -1.7312051e+00  -2.3767692e+00
  -2.1169660e-01  -1.6877190e+00  -2.3252685e+00
  -1.7135973e-01  -1.6231915e+00  -2.2667447e+00
  -1.4664462e-01  -1.5427664e+00  -2.2290556e+00
  -1.3335429e-01  -1.4562619e+00  -2.2182873e+00
  -1.2262893e-01  -1.3522233e+00  -2.2285875e+00
  -1.0584146e-01  -1.2477168e+00  -2.2433355e+00
  -9.2084855e-02  -1.1520946e+00  -2.2578494e+00
  -8.9053605e-02  -1.0842938e+00  -2.2835998e+00
  -9.6048677e-02  -1.0356647e+00  -2.3070090e+00
  -1.0724032e-01  -9.9030844e-01  -2.3369731e+00
  -1.0747347e-01  -9.4191270e-01  -2.3657669e+00
  -1.0257707e-01  -8.8463304e-01  -2.3660009e+00
  -8.9286748e-02  -8.4465406e-01  -2.3439962e+00
  -5.2447416e-02  -8.1145499e-01  -2.2931977e+00
  -1.4208836e-02  -7.6913824e-01  -2.2243737e+00
   1.6801529e-02  -7.0274050e-01  -2.1511023e+00
   5.5506396e-02  -6.1576844e-01  -2.0942170e+00
   9.1413155e-02  -5.1102855e-01  -2.0654237e+00
   1.1845970e-01  -3.9646885e-01  -2.0396729e+00
   1.4480681e-01  -3.1183495e-01  -2.0326502e+00
   1.4317481e-01  -2.3561780e-01  -2.0228182e+00
   1.2382238e-01  -1.7670132e-01  -2.0057295e+00
   1.1239759e-01  -1.2737047e-01  -1.9996427e+00
   9.8174693e-02  -5.5829252e-02  -1.9722538e+00
   1.0423680e-01   8.6982688e-03  -1.9394808e+00
   1.2452181e-01   6.9017413e-02  -1.8933638e+00
   1.5576571e-01   1.1413988e-01  -1.8371811e+00
   1.9563629e-01   1.5622286e-01  -1.7903623e+00
   2.2454798e-01   2.2308815e-01  -1.7454161e+00
   2.6092141e-01   3.0047458e-01  -1.7194317e+00
   2.8563613e-01   3.9048574e-01  -1.6873609e+00
   3.0755353e-01   4.6950821e-01  -1.6597375e+00
   3.2900425e-01   5.3473706e-01  -1.6318800e+00
   3.3879704e-01   5.9482243e-01  -1.5967662e+00
   3.4952240e-01   6.5069942e-01  -1.5838909e+00
   3.4206143e-01   7.2153931e-01  -1.5536926e+00
   3.4509229e-01   7.9004143e-01  -1.5288786e+00
   3.5255365e-01   8.6041377e-01  -1.5014897e+00
   3.5954833e-01   9.2727905e-01  -1.4621617e+00
   3.7400437e-01   9.7964939e-01  -1.4345383e+00
   3.7097312e-01   1.0350588e+00  -1.3928696e+00
   3.7493694e-01   1.0804151e+00  -1.3689918e+00
   3.8309773e-01   1.1337201e+00  -1.3427733e+00
   4.0548102e-01   1.2075995e+00  -1.3029772e+00
   4.4232074e-01   1.2845180e+00  -1.2739494e+00
   4.5631011e-01   1.3745292e+00  -1.2381329e+00
   4.6517032e-01   1.4575266e+00  -1.2069984e+00
   4.7099929e-01   1.5250932e+00  -1.1833551e+00
   4.6983357e-01   1.5940629e+00  -1.1566681e+00
   4.7682864e-01   1.6438613e+00  -1.1306836e+00
   4.7846065e-01   1.6955299e+00  -1.0962716e+00
   4.7892693e-01   1.7528096e+00  -1.0555392e+00
   4.7962636e-01   1.8021404e+00  -1.0213613e+00
   4.7053300e-01   1.8547441e+00  -9.7664918e-01
   4.6656918e-01   1.9071145e+00  -9.2655330e-01
   4.7636197e-01   1.9786557e+00  -8.7388180e-01
   4.9454869e-01   2.0487943e+00  -8.2191291e-01
   4.9781308e-01   2.1215044e+00  -7.8141455e-01
   4.9594754e-01   2.1960851e+00  -7.3951134e-01
   5.0084394e-01   2.2554691e+00  -7.0720645e-01
   4.9454869e-01   2.3092421e+00  -6.7654008e-01
   4.8568847e-01   2.3403368e+00  -6.4353256e-01
   4.7519625e-01   2.3875633e+00  -6.1216397e-01
   4.7822750e-01   2.4350239e+00  -5.7470900e-01
   4.8032579e-01   2.4838868e+00  -5.3818994e-01
   4.6960043e-01   2.5603381e+00  -4.9535082e-01
   4.6330518e-01   2.6274372e+00  -4.5578877e-01
   4.4978171e-01   2.6973420e+00  -4.1763157e-01
   4.3182853e-01   2.7597651e+00  -3.7923990e-01
   4.1643992e-01   2.8177465e+00  -3.4763723e-01
   4.1387495e-01   2.8818064e+00  -3.0549995e-01
   4.2903042e-01   2.9339426e+00  -2.7342913e-01
   4.3229481e-01   2.9881832e+00  -2.4112423e-01
   4.1783877e-01   3.0379816e+00  -2.0437109e-01
   4.1200981e-01   3.0753886e+00  -1.6785243e-01
   4.0827913e-01   3.1092890e+00  -1.2290623e-01
   4.0548102e-01   3.1441245e+00  -8.8026095e-02
   4.0081777e-01   3.1852724e+00  -4.2377665e-02
   3.8915984e-01   3.2367072e+00  -9.8386904e-03
   3.8519602e-01   3.2951561e+00   2.2466600e-02
   3.7097312e-01   3.3447204e+00   4.0725737e-02
   3.5581765e-01   3.3998960e+00   6.6944649e-02
   3.4089533e-01   3.4611507e+00   1.1610422e-01
   3.3436693e-01   3.4973888e+00   8.7544942e-02
   3.3273493e-01   3.5380692e+00   1.3272522e-01
   2.9403006e-01   3.5941799e+00   2.5351806e-01
   2.7980717e-01   3.6386011e+00   3.0946664e-01
   2.9099920e-01   3.6710984e+00   3.4200561e-01
   2.7910774e-01   3.6883995e+00   3.7220382e-01
   2.8890053e-01   3.7047650e+00   4.0450911e-01
   2.9962589e-01   3.7244038e+00   4.3002540e-01
   2.9426321e-01   3.7449778e+00   4.8199429e-01
   2.9472949e-01   3.7795795e+00   5.1242658e-01
   2.8610281e-01   3.8104404e+00   5.3607025e-01
   2.7770888e-01   3.8436395e+00   5.7399338e-01
   2.7397820e-01   3.8735653e+00   5.9693483e-01
   2.6418541e-01   3.8934375e+00   6.5499009e-01
   2.5462577e-01   3.9200904e+00   7.0415006e-01
   2.4226841e-01   3.9408981e+00   7.6290795e-01
   2.2548055e-01   3.9729279e+00   8.1066306e-01
   2.1265690e-01   4.0040226e+00   8.4249981e-01
   1.9423704e-01   4.0346501e+00   8.9189385e-01
   1.6369296e-01   4.0767331e+00   9.2302837e-01
   1.3268259e-01   4.0982421e+00   9.6095189e-01
   1.1029930e-01   4.1115686e+00   9.8061587e-01
   9.8174693e-02   4.1136726e+00   1.0157301e+00
   9.4677157e-02   4.1059575e+00   1.0611444e+00
   9.7708407e-02   4.0928649e+00   1.1079632e+00
   1.0610234e-01   4.0907609e+00   1.1866192e+00
   1.1589513e-01   4.1111010e+00   1.2329699e+00
   1.1449588e-01   4.1262977e+00   1.2641044e+00
   9.5143443e-02   4.1552884e+00   1.2587202e+00
   6.8796329e-02   4.1786676e+00   1.2465475e+00
   4.4780644e-02   4.1845125e+00   1.2636362e+00
   2.7060603e-02   4.1826422e+00   1.2903229e+00
   1.9132959e-02   4.1606656e+00   1.3603172e+00
   2.1231637e-02   4.1433646e+00   1.4143932e+00
   3.4988248e-02   4.1267653e+00   1.4773645e+00
   4.7345609e-02   4.1162445e+00   1.5321427e+00
   5.5273253e-02   4.1192836e+00   1.5623409e+00
   5.9936113e-02   4.1274666e+00   1.6058826e+00
   5.3640861e-02   4.1347141e+00   1.6072871e+00
   3.8718535e-02   4.1347141e+00   1.6292922e+00
   2.8925747e-02   4.1377535e+00   1.6501266e+00
   2.7993175e-02   4.1295706e+00   1.6740039e+00
   2.7526889e-02   4.1129712e+00   1.7231639e+00
   2.7993175e-02   4.0940337e+00   1.7418916e+00
   1.3770279e-02   4.0613026e+00   1.7823899e+00
  -1.6183319e-03   4.0203885e+00   1.8088425e+00
   7.0087412e-03   3.9719928e+00   1.8509798e+00
   1.9132959e-02   3.9259352e+00   1.9139511e+00
   4.0817214e-02   3.8833843e+00   1.9605358e+00
   5.3174575e-02   3.8497181e+00   2.0066524e+00
   4.6179894e-02   3.8319495e+00   2.0190596e+00
   5.2475146e-02   3.8134799e+00   2.0422348e+00
   6.3666792e-02   3.8001534e+00   2.0621328e+00
   7.9987975e-02   3.7893989e+00   2.0864787e+00
   8.5584189e-02   3.7709290e+00   2.1094202e+00
   7.1361293e-02   3.7510564e+00   2.1119950e+00
   5.9936113e-02   3.7290798e+00   2.1365750e+00
   4.8278181e-02   3.7035961e+00   2.1454707e+00
   4.1050357e-02   3.6643185e+00   2.1618572e+00
   2.9625176e-02   3.6187285e+00   2.1770734e+00
   2.0299065e-02   3.5705665e+00   2.1878417e+00
   1.4936385e-02   3.5200668e+00   2.2004830e+00
  -4.6491908e-03   3.4812571e+00   2.2046967e+00
  -1.3742550e-02   3.4532015e+00   2.2351290e+00
  -1.6773800e-02   3.4389399e+00   2.2599431e+00
  -2.5400873e-02   3.4190673e+00   2.2966958e+00
  -3.7291948e-02   3.3903108e+00   2.3393009e+00
  -4.4286629e-02   3.3388756e+00   2.3683287e+00
  -4.5685878e-02   3.2619571e+00   2.3992291e+00
  -4.5685878e-02   3.1922861e+00   2.4090611e+00
  -3.3561269e-02   3.1272910e+00   2.4109341e+00
  -2.6100302e-02   3.0828699e+00   2.4153820e+00
  -1.6773800e-02   3.0267591e+00   2.4266184e+00
  -1.6307514e-02   2.9484379e+00   2.4341093e+00
  -1.8405801e-02   2.8696489e+00   2.4444094e+00
  -4.4160478e-03   2.7997441e+00   2.4565826e+00
   7.2418842e-03   2.7632721e+00   2.4593915e+00
   1.3070850e-02   2.7398925e+00   2.4799918e+00
   3.0449191e-03   2.7218905e+00   2.4893556e+00
  -6.7478690e-03   2.6835479e+00   2.4961446e+00
  -2.1903337e-02   2.6304767e+00   2.5022310e+00
  -3.7058805e-02   2.5734304e+00   2.4863126e+00
  -5.1747987e-02   2.5131113e+00   2.4835033e+00
  -6.6903456e-02   2.4581694e+00   2.4830352e+00
  -5.2680559e-02   2.3840566e+00   2.4977832e+00
  -4.4053486e-02   2.3150869e+00   2.5118289e+00
  -3.9856521e-02   2.2384022e+00   2.5132334e+00
  -3.6359376e-02   2.1638215e+00   2.5230654e+00
  -3.7291948e-02   2.1147244e+00   2.5106581e+00
  -3.7058805e-02   2.0745117e+00   2.5083174e+00
  -5.1747987e-02   2.0501969e+00   2.5034014e+00
  -6.2007061e-02   2.0099842e+00   2.4919309e+00
  -7.1100421e-02   1.9480286e+00   2.4954420e+00
  -7.3898137e-02   1.8669017e+00   2.4799918e+00
  -8.0660066e-02   1.7810989e+00   2.4797577e+00
  -8.8121033e-02   1.7069858e+00   2.4762466e+00
  -7.9260817e-02   1.6382499e+00   2.4661805e+00
  -9.4416285e-02   1.5928936e+00   2.4748417e+00
  -1.1167043e-01   1.5386535e+00   2.4823329e+00
  -1.1470129e-01   1.4687487e+00   2.4860786e+00
  -1.2029711e-01   1.4028185e+00   2.4748417e+00
  -1.1866511e-01   1.3179508e+00   2.4638393e+00
  -1.2309522e-01   1.2461758e+00   2.4462824e+00
  -1.3568572e-01   1.2073657e+00   2.4266184e+00
  -1.3545258e-01   1.1578011e+00   2.4153820e+00
  -1.2869104e-01   1.0930398e+00   2.4048474e+00
  -1.2216265e-01   1.0140169e+00   2.4011021e+00
  -9.9778965e-02   9.0904328e-01   2.3807359e+00
  -7.6229958e-02   8.0570566e-01   2.3643490e+00
  -5.7576953e-02   7.1920154e-01   2.3446854e+00
  -4.1955199e-02   6.6659743e-01   2.3112097e+00
  -4.6851593e-02   6.6379210e-01   2.2908435e+00
  -6.2939633e-02   6.8296338e-01   2.2632202e+00
  -8.6955318e-02   6.8436604e-01   2.2330219e+00
  -1.1843197e-01   6.5654424e-01   2.2107831e+00
  -1.4827662e-01   5.9996591e-01   2.1878417e+00
  -1.6459780e-01   5.0785076e-01   2.1625595e+00
  -1.7042677e-01   4.1783960e-01   2.1382139e+00
  -1.7159287e-01   3.4279133e-01   2.1152725e+00
  -1.6529723e-01   2.7545849e-01   2.0944381e+00
  -1.6856162e-01   2.2566009e-01   2.0796901e+00
  -1.7882070e-01   1.7679680e-01   2.0539398e+00
  -1.8371709e-01   1.2419307e-01   2.0103980e+00
  -1.8721463e-01   7.4394674e-02   1.9652177e+00
  -1.9211102e-01   4.3299994e-02   1.9261238e+00
