**************************************************************************************
  RED ACELEROGRÁFICA DE LA UNIVERSIDAD AUTONOMA METROPOLITANA (RAUAM)
				UNIDAD AZCAPOTZALCO
                        DIVISIÓN CBI-DEPARTAMENTO DE MATERIALES
     Av. San Pablo 180, Col. Reynosa, Azcapotzalco, C.P. 02200, Ciudad de México
**************************************************************************************
ARCHIVO ESTANDAR DE ACELERACION:
VERSION DEL FORMATO                    : 2.0
NOMBRE DEL ARCHIVO                     : RIML201902011
FECHA Y HORA DE CREACION               : 08:01 p. m. 02/02/2019
REF. CATALOGO ACELEROGRAMAS, SMIS 1995 : REGISTRO NO.      /PAG.    


================================================================================
DATOS DE LA ESTACION:
NOMBRE DE LA ESTACION                  : UAM-LERMA.
CLAVE DE LA ESTACION                   : RIML
LOCALIZACION DE LA ESTACION            : AV. DE LAS GARZAS 10, EL PANTEON, C.P.52005,
                                       : LERMA DE VILLADA, ESTADO DE MEXICO. 
                                       :
                                       : 
                                       : 
COORDENADAS DE LA ESTACION             : 19.291481 LAT. N
                                       : 99.502060 LONG. W
ALTITUD (msnm)                         : 2570
TIPO DE SUELO                          : DEPOSITOS LACUSTRES
                                       : 
                                       : 
INSTITUCION RESPONSABLE                : UNIVERSIDAD AUTONOMA METROPOLITANA
                                       : 

================================================================================
DATOS DEL ACELEROGRAFO: 
MODELO DEL ACELEROGRAFO                : BASALT KINEMETRICS
NUMERO DE SERIE DEL ACELEROGRAFO       : 978
NUMERO DE CANALES                      : 3
ORIENTACION C1-C6 (rumbo;orientacion)  : /V/N00E/N90E
ORIENTACION C7-C12 (rumbo;orientacion) : 
VEL. DE MUESTREO, C1-C6 (muestras/s)   : /250/250/250
VEL. DE MUESTREO, C7-C12 (muestras/s)  : 
ESC. COMPLETA DE SENSORES, C1-C6, (g)  : /2/2/2
ESC. COMPLETA DE SENSORES, C7-C12 (g)  : 
FREC. NAT. DE SENSORES, C1-C6, (Hz)    : /210/212/212
FREC. NAT. DE SENSORES, C7-C12 (Hz)    : 
AMORTIGUAMIENTO DE SENSORES, C1-C6     : /0.7/0.7/0.7
AMORTIGUAMIENTO DE SENSORES, C7-C12    : 
INTERVALO DE MUESTREO, C1-C6 (s)       : /0.004/0.004/0.004
INTERVALO DE MUESTREO, C7-C12 (s)      : 
UMBRAL DE DISPARO, C1-C6 (Gal)         : /2/2/2
UMBRAL DE DISPARO, C7-C12 (Gal)        : 
MEMORIA DE PREEVENTO (s)               : 90
TIEMPO DE POSEVENTO (s)                : 120


================================================================================
DATOS DEL SISMO:
FECHA DEL SISMO [GMT]                  : 2019/02/01
HORA EPICENTRO (GMT)                   : 16:14:12
MAGNITUD(ES)                           : /M=6.5
COORDENADAS DEL EPICENTRO              : 14.5818 LAT. N
                                       : 92.4807 LONG. W
PROFUNDIDAD FOCAL (Km)                 : 76.2
FUENTE DE LOS DATOS EPICENTRALES       : SSN
                                       : INSTITUTO DE GEOFISICA, UNAM

================================================================================
DATOS DE ESTE REGISTRO:
HORA DE LA PRIMERA MUESTRA (GMT)       : 16:17:12.000
EXACTITUD DEL TIEMPO (s)               : 
DURACION DEL REGISTRO (s), C1-C6       : /211.00/211.00/211.00
DURACION DEL REGISTRO (s), C7-C12      : 
NUM. TOTAL DE MUESTRAS, C1-C6          : /52750/52750/52750
NUM. TOTAL DE MUESTRAS, C7-C12         : 
ACEL. MAX.(Gal), C1-C6                 : /-1.873/-3.148/3.866
ACEL. MAX., C1-C6, EN LA MUESTRA       : /25061/24402/20257
ACEL. MAX.(Gal), C7-C12                : 
ACEL. MAX., C7-C12,EN LA MUESTRA       : 
UNIDADES DE LOS DATOS                  : Gal (cm/s/s)
FACTOR DE DECIMACION                   : 1
FORMATO DATOS (FORTRAN,16 campos/dato) : 3E16.7


================================================================================
CALIDAD DEL ACELEROGRAMA:
REGISTRO DIGITAL COMPLETO CON TIEMPO ABSOLUTO CORRECTO


================================================================================
COMENTARIOS:














================================================================================
DATOS DE ACELERACION:
---------+---------+---------+---------+---------+---------+---------+---------+
   CANAL-1   	   CANAL-2   	      CANAL-3
         V           N00E              N90E
---------+---------+---------+---------+---------+---------+---------+---------+
[...]
   7.7200449e-02   1.4461686e+00  -9.7070162e-01
   1.4723819e-01   1.5396789e+00  -1.0069456e+00
   2.0093351e-01   1.6200980e+00  -9.5550251e-01
   1.1758885e-01   1.5719403e+00  -1.0291599e+00
   1.4303587e-01   1.4985343e+00  -1.1788128e+00
   2.6209972e-01   1.4910537e+00  -1.2171611e+00
   2.5813122e-01   1.6072405e+00  -1.1813848e+00
   2.2497988e-01   1.6081755e+00  -1.2209025e+00
   1.7081729e-01   1.4938588e+00  -1.3593312e+00
   2.8544576e-01   1.4774945e+00  -1.4285457e+00
   3.4754573e-01   1.5885383e+00  -1.4002522e+00
   2.4505736e-01   1.6488526e+00  -1.4091375e+00
   2.4085503e-01   1.4894170e+00  -1.5309642e+00
   3.3423882e-01   1.3984780e+00  -1.6247312e+00
   4.3042390e-01   1.4990018e+00  -1.6226268e+00
   3.3026993e-01   1.5789534e+00  -1.6109350e+00
   2.2101099e-01   1.4940925e+00  -1.6897366e+00
   2.6023219e-01   1.3916986e+00  -1.8171752e+00
   3.6435504e-01   1.4284014e+00  -1.8022099e+00
   4.0427656e-01   1.4896507e+00  -1.7589512e+00
   2.9781930e-01   1.4625328e+00  -1.8202152e+00
   2.7797526e-01   1.3075390e+00  -1.9432109e+00
   3.4030867e-01   1.2998246e+00  -1.9801567e+00
   3.7812923e-01   1.4183490e+00  -1.9343256e+00
   2.9595138e-01   1.4038548e+00  -1.9736092e+00
   2.2824844e-01   1.2921098e+00  -2.0227141e+00
   3.2420008e-01   1.2156649e+00  -2.1015158e+00
   3.4614509e-01   1.3182926e+00  -2.1108691e+00
   3.1112622e-01   1.3465797e+00  -2.0552170e+00
   1.9136165e-01   1.2201067e+00  -2.1284064e+00
   1.7455273e-01   1.1422590e+00  -2.2287205e+00
   3.3517258e-01   1.1836377e+00  -2.2352677e+00
   2.5229481e-01   1.2738751e+00  -2.1599737e+00
   1.3182992e-01   1.1759229e+00  -2.2142229e+00
   1.5984478e-01   1.0501512e+00  -2.3266966e+00
   2.0186727e-01   1.0595023e+00  -2.3313729e+00
   1.8459147e-01   1.1343108e+00  -2.2834374e+00
   6.9029235e-02   1.1298690e+00  -2.2829698e+00
   3.5877890e-02   9.5687462e-01  -2.3963783e+00
   9.9145457e-02   9.2134024e-01  -2.4211646e+00
   1.1968982e-01   1.0431381e+00  -2.3603682e+00
   4.1481254e-02   1.0305139e+00  -2.3603682e+00
  -2.2953518e-02   8.7201373e-01  -2.4391699e+00
   1.1365032e-02   8.2502441e-01  -2.5132949e+00
   4.3815663e-02   9.1152161e-01  -2.4597471e+00
   1.8135209e-02   8.9632615e-01  -2.4097069e+00
  -6.6610485e-02   7.7967179e-01  -2.4793891e+00
  -8.4586999e-02   7.0462952e-01  -2.5446284e+00
   1.7668327e-02   7.5909950e-01  -2.5205435e+00
  -1.6416782e-02   8.0679009e-01  -2.4541352e+00
  -1.8964322e-01   7.4577450e-01  -2.4894439e+00
  -1.9664723e-01   6.1789856e-01  -2.5981758e+00
  -1.1376907e-01   5.9615748e-01  -2.5663747e+00
  -8.0384672e-02   7.1561733e-01  -2.5219464e+00
  -1.5976044e-01   6.4875700e-01  -2.5249864e+00
  -2.8559525e-01   5.0264675e-01  -2.5768971e+00
  -1.9407899e-01   4.6711276e-01  -2.6568678e+00
  -1.5509162e-01   5.4916816e-01  -2.5708175e+00
  -2.3656875e-01   5.8236457e-01  -2.5427575e+00
  -2.4637405e-01   3.9253801e-01  -2.6124396e+00
  -2.6481706e-01   3.6986190e-01  -2.6545297e+00
  -1.9664723e-01   4.4864469e-01  -2.6463454e+00
  -2.3423395e-01   4.4490416e-01  -2.5530461e+00
  -3.5703364e-01   3.6962814e-01  -2.6147781e+00
  -2.9796840e-01   2.3403780e-01  -2.6938133e+00
  -2.4427270e-01   3.1515817e-01  -2.6292758e+00
  -2.3306675e-01   3.8458984e-01  -2.5885890e+00
  -2.6855250e-01   2.8383222e-01  -2.5911609e+00
  -3.8014586e-01   1.6343733e-01  -2.6664550e+00
  -3.2995215e-01   1.5829426e-01  -2.6718331e+00
  -2.5361111e-01   2.4409019e-01  -2.6012157e+00
  -3.5469884e-01   2.0645198e-01  -2.6070615e+00
  -3.7197503e-01   7.8576440e-02  -2.6400320e+00
  -3.2504950e-01   3.2288787e-02  -2.6769774e+00
  -2.6621810e-01   1.3351393e-01  -2.6166487e+00
  -2.6668498e-01   1.2813710e-01  -2.5539817e+00
  -3.5446540e-01  -3.4789625e-03  -2.6437735e+00
  -2.6971971e-01  -6.6832532e-02  -2.6669226e+00
  -2.2372833e-01  -2.0764133e-03  -2.5834447e+00
  -2.3423395e-01   4.0704474e-02  -2.5609965e+00
  -2.9189855e-01  -1.0727584e-01  -2.5839123e+00
  -3.1944653e-01  -1.7881134e-01  -2.6297434e+00
  -1.8544129e-01  -1.2060123e-01  -2.6002805e+00
  -2.1065486e-01  -4.9766615e-02  -2.4929515e+00
  -2.7345515e-01  -1.1078260e-01  -2.5153992e+00
  -3.1150915e-01  -2.5782788e-01  -2.5766633e+00
  -2.4310549e-01  -2.2790448e-01  -2.5380812e+00
  -1.7493527e-01  -1.6057702e-01  -2.4506276e+00
  -2.5104326e-01  -1.8278562e-01  -2.4340256e+00
  -2.8652902e-01  -2.9406315e-01  -2.5023044e+00
  -3.4045778e-01  -3.2912962e-01  -2.4868715e+00
  -2.4614061e-01  -2.4730798e-01  -2.4052641e+00
  -2.5151015e-01  -2.4286618e-01  -2.3552239e+00
  -3.0380482e-01  -3.6139061e-01  -2.3886621e+00
  -2.1228895e-01  -4.6425245e-01  -2.4057317e+00
  -1.8590817e-01  -3.8149538e-01  -2.3201490e+00
  -1.7960448e-01  -3.0575184e-01  -2.2626264e+00
  -3.0660650e-01  -3.9949633e-01  -2.2658998e+00
  -2.9026407e-01  -5.1708572e-01  -2.2888155e+00
  -1.9711411e-01  -4.6004441e-01  -2.2305911e+00
  -2.3166611e-01  -3.7167675e-01  -2.1356554e+00
  -2.6761874e-01  -4.6518748e-01  -2.1305111e+00
  -2.9236543e-01  -5.9844024e-01  -2.1641827e+00
  -2.5407800e-01  -5.6898436e-01  -2.1267697e+00
  -2.8419422e-01  -4.3783581e-01  -2.0093859e+00
  -3.1617836e-01  -4.9300706e-01  -1.9923159e+00
  -4.2800515e-01  -6.0264789e-01  -2.0330027e+00
  -4.2380282e-01  -6.1433698e-01  -1.9988631e+00
  -3.1314324e-01  -5.5449017e-01  -1.9107084e+00
  -4.3454189e-01  -4.8435722e-01  -1.8255933e+00
  -4.2847203e-01  -6.4145489e-01  -1.8501458e+00
  -4.2076770e-01  -7.4618680e-01  -1.8538872e+00
  -4.3874421e-01  -6.2789574e-01  -1.7591850e+00
  -4.0069022e-01  -5.5495769e-01  -1.6675227e+00
  -4.8636968e-01  -6.5501404e-01  -1.6406317e+00
  -4.4644855e-01  -8.0276060e-01  -1.6876323e+00
  -3.6707238e-01  -7.2491323e-01  -1.6121044e+00
  -3.6893991e-01  -6.1550577e-01  -1.4718049e+00
  -4.2380282e-01  -6.8400241e-01  -1.4559043e+00
  -4.4924984e-01  -8.3455406e-01  -1.4750783e+00
  -4.1469785e-01  -8.2520334e-01  -1.4416405e+00
  -3.8971772e-01  -6.7488506e-01  -1.3083557e+00
  -4.2333594e-01  -7.0340552e-01  -1.2267483e+00
  -5.1461837e-01  -8.3011266e-01  -1.2686042e+00
  -4.9057200e-01  -8.7616655e-01  -1.2304897e+00
  -4.3897766e-01  -7.5016108e-01  -1.1142750e+00
  -3.9928957e-01  -7.3075758e-01  -1.0336028e+00
  -4.6629220e-01  -8.7195851e-01  -1.0275228e+00
  -4.6442467e-01  -9.2011623e-01  -1.0373438e+00
  -3.4185881e-01  -8.8037459e-01  -9.3188531e-01
  -4.2426971e-01  -7.5694046e-01  -7.9673045e-01
  -4.4924984e-01  -8.5232126e-01  -7.7287943e-01
  -4.3290780e-01  -1.0012370e+00  -7.9135233e-01
  -3.9508725e-01  -9.2923359e-01  -7.1722732e-01
  -3.2061373e-01  -8.4226887e-01  -5.6383299e-01
  -4.2170186e-01  -8.5372381e-01  -5.2034039e-01
  -4.3547565e-01  -1.0005353e+00  -5.3881290e-01
  -3.5423196e-01  -1.0136270e+00  -4.5112587e-01
  -3.4162537e-01  -8.8458224e-01  -3.4940881e-01
  -3.2738430e-01  -8.6985430e-01  -2.3459697e-01
  -3.2901839e-01  -9.8276853e-01  -2.4488559e-01
  -3.2878495e-01  -1.0587458e+00  -2.6616426e-01
  -2.7088730e-01  -9.6359879e-01  -9.7571211e-02
  -2.0038268e-01  -8.9627133e-01  -4.4958682e-02
  -2.6761874e-01  -9.4606574e-01   2.7061610e-02
  -1.3291278e-01  -1.0954486e+00   2.4255446e-02
  -1.2214454e-02  -1.0952148e+00   1.0329095e-01
  -1.7773696e-01  -8.8902404e-01   2.7936684e-01
  -4.2330677e-02  -9.6243000e-01   2.3143138e-01
  -1.4505288e-01  -1.0996566e+00   3.3572040e-01
  -1.7797040e-01  -1.0706683e+00   3.2169075e-01
  -2.0852550e-02  -9.9562601e-01   4.9262194e-01
  -1.2730981e-01  -9.4372777e-01   6.0626471e-01
   9.8445134e-02  -1.0977866e+00   4.6877132e-01
   1.0428155e-01  -1.1849851e+00   6.5536963e-01
   6.6928267e-02  -1.0687982e+00   7.0283746e-01
   1.0124642e-01  -9.3811718e-01   8.3261459e-01
  -1.0113487e-02  -1.0356018e+00   8.5225656e-01
   1.9302413e-02  -1.2099991e+00   8.2209216e-01
   6.0157698e-02  -1.1073715e+00   9.8063041e-01
   2.1377393e-01  -1.0320954e+00   1.0615364e+00
   1.2809447e-01  -1.1076052e+00   1.1590448e+00
   1.2786103e-01  -1.2315065e+00   1.0893627e+00
   3.7672819e-01  -1.2551180e+00   1.1906121e+00
   3.7089178e-01  -1.0991891e+00   1.3568670e+00
   3.5268182e-01  -1.0982541e+00   1.3905390e+00
   4.2412061e-01  -1.2747553e+00   1.4146239e+00
   3.6552225e-01  -1.3093542e+00   1.4153253e+00
   3.8956862e-01  -1.1849851e+00   1.5607692e+00
   5.1330168e-01  -1.1739976e+00   1.6608495e+00
   4.1875107e-01  -1.2969639e+00   1.6536005e+00
   4.1875107e-01  -1.3584474e+00   1.6839987e+00
   4.8762122e-01  -1.2932237e+00   1.8058254e+00
   4.3182455e-01  -1.2006480e+00   1.9187667e+00
   3.9026894e-01  -1.2247271e+00   1.9204034e+00
   3.9844015e-01  -1.3493300e+00   1.9220401e+00
   4.5306923e-01  -1.3565769e+00   2.0099613e+00
   4.7968384e-01  -1.2191165e+00   2.1359970e+00
   5.0723182e-01  -1.2509100e+00   2.1909477e+00
   5.1190103e-01  -1.4040337e+00   2.1776191e+00
   5.7073283e-01  -1.4208655e+00   2.2358436e+00
   6.0691891e-01  -1.3123931e+00   2.3761431e+00
   5.5485768e-01  -1.2679759e+00   2.4215066e+00
   5.3267883e-01  -1.3942151e+00   2.4079442e+00
   5.4995503e-01  -1.4414378e+00   2.4362381e+00
   6.0598514e-01  -1.3682656e+00   2.5452038e+00
   5.7750301e-01  -1.3238484e+00   2.6759162e+00
   5.1867121e-01  -1.3738766e+00   2.6637571e+00
   4.7501463e-01  -1.4638802e+00   2.6593142e+00
   5.5929344e-01  -1.4232031e+00   2.7486383e+00
   5.5976033e-01  -1.3154323e+00   2.8716340e+00
   4.1034642e-01  -1.3105230e+00   2.9055399e+00
   5.3337916e-01  -1.4545294e+00   2.8625145e+00
   5.6396265e-01  -1.4526590e+00   2.9490324e+00
   5.8310598e-01  -1.3441869e+00   3.0568295e+00
   5.4948814e-01  -1.3292252e+00   3.1108449e+00
   4.6824406e-01  -1.3872016e+00   3.0727300e+00
   5.4691990e-01  -1.4599063e+00   3.1297850e+00
   4.1338154e-01  -1.2913533e+00   3.2457659e+00
   5.1913848e-01  -1.2724173e+00   3.2506764e+00
   4.1291427e-01  -1.3888383e+00   3.3203586e+00
   3.8419908e-01  -1.3752791e+00   3.2635374e+00
   5.7423483e-01  -1.3764479e+00   3.3680606e+00
   2.2568020e-01  -1.2457669e+00   3.5020464e+00
   3.9447127e-01  -1.3025744e+00   3.3762445e+00
   4.5703812e-01  -1.4143199e+00   3.4807677e+00
   2.4785904e-01  -1.3247834e+00   3.5322108e+00
   4.5820532e-01  -1.2441306e+00   3.5551265e+00
   3.4124244e-01  -1.2088304e+00   3.6416445e+00
   2.5673019e-01  -1.3007044e+00   3.5541913e+00
   3.9657223e-01  -1.3156661e+00   3.6070372e+00
   3.1439478e-01  -1.1721272e+00   3.7157695e+00
   2.4482392e-01  -1.1393987e+00   3.7092219e+00
   3.2139840e-01  -1.2569881e+00   3.6837342e+00
   2.2894876e-01  -1.2214541e+00   3.7005704e+00
   2.4342327e-01  -1.1211640e+00   3.7702526e+00
   2.7027093e-01  -1.0907731e+00   3.8050932e+00
   1.0171370e-01  -1.0739413e+00   3.7723569e+00
   1.8832692e-01  -1.1581009e+00   3.7391525e+00
   2.7167158e-01  -1.0954486e+00   3.8041580e+00
   1.9859910e-01  -9.8066431e-01   3.8663577e+00
   1.2505935e-01  -1.0206401e+00   3.8233323e+00
   7.5332530e-02  -1.0524340e+00   3.7714216e+00
   2.9107713e-02  -9.6359879e-01   3.7798393e+00
  -1.7117104e-02  -8.2660589e-01   3.8280090e+00
  -5.9139594e-02  -8.4039880e-01   3.8212280e+00
  -3.8361790e-02  -9.1731113e-01   3.7613668e+00
   9.9145457e-02  -9.3297411e-01   3.7819441e+00
   1.0918420e-01  -8.3361903e-01   3.8291781e+00
   7.2531239e-02  -7.7236968e-01   3.8228647e+00
   4.5944631e-03  -8.2029403e-01   3.7796055e+00
  -3.4393295e-02  -7.8943520e-01   3.7253567e+00
  -4.2770733e-03  -7.2654954e-01   3.7775012e+00
  -6.3575362e-02  -6.5968960e-01   3.7950384e+00
   1.2999118e-02  -7.1369166e-01   3.7232520e+00
   1.3299712e-01  -7.7961697e-01   3.7087543e+00
   2.0350175e-01  -6.8563872e-01   3.7169386e+00
   1.4210210e-01  -5.7716629e-01   3.7515458e+00
   2.9603770e-03  -5.7108818e-01   3.6956599e+00
   9.8912016e-02  -6.6787153e-01   3.6107787e+00
   1.0965108e-01  -5.6430880e-01   3.6308883e+00
   4.8718312e-02  -4.3409529e-01   3.6271468e+00
   8.8172953e-02  -4.8739608e-01   3.5831862e+00
   6.8095471e-02  -5.1615069e-01   3.5046187e+00
   1.1315308e-01  -4.6916176e-01   3.4926930e+00
   6.3659703e-02  -3.2655789e-01   3.5254298e+00
  -6.7777690e-02  -3.2047979e-01   3.4538771e+00
  -1.0813809e-02  -3.9552205e-01   3.4024337e+00
   1.0825043e-01  -3.6162437e-01   3.3645530e+00
   2.1027193e-01  -2.8307573e-01   3.3481848e+00
   1.5120669e-01  -1.8862997e-01   3.3827921e+00
   4.2648458e-02  -2.3141125e-01   3.2633036e+00
   1.4140139e-01  -2.9990750e-01   3.1662632e+00
   1.5634278e-01  -1.9494183e-01   3.1896462e+00
   1.2832792e-01  -8.3664299e-02   3.1512979e+00
   1.5494213e-01  -1.3509502e-01   3.1136507e+00
   1.2015670e-01  -2.0031866e-01   3.0156750e+00
   1.4537027e-01  -1.1756198e-01   2.9473957e+00
   8.8639834e-02   1.7560844e-02   2.9770925e+00
   6.5060348e-02  -2.7776879e-03   2.8800521e+00
   1.5073981e-01  -1.0493786e-01   2.7631356e+00
   1.7595338e-01  -2.3116220e-02   2.7301654e+00
   1.9299613e-01   8.6758761e-02   2.6971948e+00
   8.0702062e-02   1.1107118e-01   2.6583789e+00
   4.2648458e-02   9.1200559e-02   2.5660148e+00
   1.5424181e-01   5.0289345e-02   2.4755216e+00
   1.8669244e-01   1.4169625e-01   2.4661687e+00
   1.8342427e-01   2.1837482e-01   2.4151929e+00
   1.6031166e-01   1.4263128e-01   2.3015505e+00
   1.9182853e-01   9.0031376e-02   2.2183059e+00
   2.3665270e-01   2.0738740e-01   2.1813605e+00
   1.8295739e-01   3.3409415e-01   2.1687334e+00
   7.6032852e-02   2.9692346e-01   2.0817478e+00
   9.3075603e-02   2.0551695e-01   1.9479958e+00
   1.7081729e-01   2.3707666e-01   1.8977218e+00
   1.0381467e-01   3.9277177e-01   1.8921095e+00
   4.9185194e-02   3.8786246e-01   1.8123729e+00
   6.5293789e-02   2.7588365e-01   1.6896106e+00
   1.3673257e-01   3.1492441e-01   1.6290480e+00
   2.1844314e-01   4.1918880e-01   1.6035603e+00
   1.4443651e-01   4.5144979e-01   1.5502467e+00
   6.7628590e-02   3.7687504e-01   1.4480616e+00
   1.1572093e-01   3.5326389e-01   1.3486831e+00
   1.5681005e-01   4.4841054e-01   1.3117373e+00
   1.0054610e-01   5.3934993e-01   1.2820406e+00
   7.2998121e-02   4.8277574e-01   1.1889754e+00
   1.6871632e-01   3.6097830e-01   1.1005866e+00
   1.6754911e-01   4.6150217e-01   1.0718254e+00
   1.6171231e-01   5.7979323e-01   1.0236558e+00
   1.3953386e-01   5.0334803e-01   9.4345119e-01
   3.5411008e-02   4.3204629e-01   8.3892797e-01
   1.6287991e-01   4.7202208e-01   7.7251961e-01
   1.8085603e-01   5.8329961e-01   7.5965904e-01
   4.4749426e-02   5.9452118e-01   6.8015591e-01
   8.0235180e-02   4.7856770e-01   5.7633413e-01
   8.2569980e-02   4.6617773e-01   5.1483626e-01
   1.2902824e-01   5.9054689e-01   4.6152229e-01
   1.1688853e-01   6.2678216e-01   4.1522353e-01
  -2.6222082e-02   5.5594794e-01   3.2987465e-01
   6.1792176e-02   5.0124420e-01   2.1693372e-01
   1.2202462e-01   5.7067588e-01   1.9121218e-01
   3.6111330e-02   6.7704409e-01   1.5496783e-01
   2.0936499e-02   5.6740287e-01   6.4708456e-02
  -3.0818680e-04   4.8300950e-01  -1.8769520e-02
   9.7511371e-02   5.8072827e-01  -9.8038840e-02
   1.2225806e-01   6.5670556e-01  -9.1491647e-02
   2.6306422e-02   6.1930111e-01  -1.5836763e-01
   7.2764680e-02   4.9960790e-01  -2.9375670e-01
   1.4396963e-01   5.3140136e-01  -3.3187117e-01
   1.5891102e-01   6.5015994e-01  -3.6881697e-01
   3.0741799e-02   6.6067984e-01  -4.0365804e-01
  -3.9996268e-02   5.6693536e-01  -5.1659897e-01
   6.4593467e-02   5.2041394e-01  -6.1036595e-01
   1.2319182e-01   6.3309402e-01  -6.0007734e-01
   9.3542484e-02   6.7938168e-01  -6.5339092e-01
