********************************************************************************
           RED INTERUNIVERSITARIA DE INSTRUMENTACION SISIMICA (RIIS)
 AREA DE ESTRUCTURAS, UNIVERSIDAD AUTONOMA METROPOLITANA - UNIDAD AZCAPOTZALCO
         AV. SAN PABLO 180; COL. REYNOSA TAMAULIPAS; MEXICO D.F. 02200.
       TELS: 53189455; FAX: 53189085; e-mail: tperea@correo.azc.uam.mx
********************************************************************************
ARCHIVO ESTANDAR DE ACELERACION:
VERSION DEL FORMATO                    : 2.0
NOMBRE DEL ARCHIVO                     : RIDA0209.271
FECHA Y HORA DE CREACION               : ENERO, 2003
REF. CATALOGO ACELEROGRAMAS, SMIS 1996 : 


================================================================================
DATOS DE LA ESTACION:
NOMBRE DE LA ESTACION                  : UAM AZCAPOTZALCO
CLAVE DE LA ESTACION                   : RIDA
LOCALIZACION DE LA ESTACION            : AVENIDA SAN PABLO Y EJE 5, COLONIA
                                       : REYNOSA, PLANTEL AZCAPOTZALCO, JARDIN
                                       : ENTRE EDIFICIO "H" Y "E", MEXICO, D.F.
                                       :
                                       :
COORDENADAS DE LA ESTACION             : 19.520 LAT. N 
                                       : 99.190 LONG. W 
ALTITUD (msnm)                         : 2240
TIPO DE SUELO                          : LIMO ARENOSO
                                       : 
                                       : 
INSTITUCION RESPONSABLE                : RED INTERUNIVERSITARIA DE
                                       : INSTRUMENTACION SISMICA (RIIS)

================================================================================
DATOS DEL ACELEROGRAFO:
MODELO DEL ACELEROGRAFO                : SSA-2                  
NUMERO DE SERIE DEL ACELEROGRAFO       : 1561                   
NUMERO DE CANALES                      : 3                      
ORIENTACION C1-C6 (rumbo;orientacion)  : /N-S/VERT/E-O          
ORIENTACION C7-C12 (rumbo;orientacion) :                        
VEL. DE MUESTREO, C1-C6 (muestras/s)   : /200/200/200           
VEL. DE MUESTREO, C7-C12 (muestras/s)  :                        
ESC. COMPLETA DE SENSORES, C1-C6, (g)  : /1.0/1.0/1.0           
ESC. COMPLETA DE SENSORES, C7-C12, (g) :                        
FREC. NAT. DE SENSORES, C1-C6, (Hz)    : /52.4/52.5/53.7        
FREC. NAT. DE SENSORES, C7-C12, (Hz)   :                        
AMORTIGUAMIENTO DE SENSORES, C1-C6     : /0.64/0.64/0.64        
AMORTIGUAMIENTO DE SENSORES, C7-C12    :                        
INTERVALO DE MUESTREO, C1-C6, (s)      : /0.005/0.005/0.005     
INTERVALO DE MUESTREO, C7-C12, (s)     :                        
UMBRAL DE DISPARO, C1-C6, (Gal)        : /1/1/1                 
UMBRAL DE DISPARO, C7-C12, (Gal)       :                        
MEMORIA DE PREEVENTO (s)               : 15                     
TIEMPO DE POSEVENTO (s)                : 30                     


================================================================================
DATOS DEL SISMO:
FECHA DEL SISMO (GMT)                  : 27/SEP/02                       
HORA EPICENTRO (GMT)                   : 07:05:00                        
MAGNITUD(ES)                           : /Mc=4.90                        
COORDENADAS DEL EPICENTRO              : 17.16 LAT. N                    
                                       : 100.59 LONG. W                  
PROFUNDIDAD FOCAL (km)                 : 36                              
FUENTES DE LOS DATOS EPICENTRALES      : SSN                             
                                       : INSTITUTO DE GEOFISICA, UNAM    

================================================================================
DATOS DE ESTE REGISTRO:
HORA DE LA PRIMERA MUESTRA (GMT)       : 07:05:00.00
EXACTITUD DEL TIEMPO (s)               : 
DURACION DEL REGISTRO (s), C1-C6       : /93.44/93.44/93.44          
DURACION DEL REGISTRO (s), C7-C12      :                             
NUM. TOTAL DE MUESTRAS, C1-C6          : /18688/18688/18688          
NUM. TOTAL DE MUESTRAS, C7-C12         :                             
ACEL. MAX.(Gal), C1-C6                 : /-2.46/-.75/2.58            
ACEL. MAX., C1-C6, EN LA MUESTRA       : /4420/6578/4091             
ACEL. MAX.(Gal), C7-C12                :
ACEL. MAX., C7-C12, EN LA MUESTRA      : 
UNIDADES DE LOS DATOS                  : Gal 
FACTOR DE DECIMACION                   : 1
FORMATO DATOS (FORTRAN,10 campos/dato) : 3F10.4


===============================================================================
CALIDAD DEL ACELEROGRAMA:
REGISTRO DIGITAL COMPLETO, CARECE DE TIEMPO ABSOLUTO.


===============================================================================
COMENTARIOS:
CADA UNO DE LOS CANALES SE ENCUENTRA AJUSTADO POR LINEA BASE MEDIANTE LA
SUSTRACCION DEL PROMEDIO DE LAS ACELERACIONES EN EL TIEMPO.











MODELO DEL ACELEROGRAFO : SSA-2 (KINEMETRICS)
===============================================================================
DATOS DE ACELERACION:
---------+---------+---------+---------+---------+---------+---------+---------+
   CANAL-1   CANAL-2   CANAL-3   CANAL-4   CANAL-5   CANAL-6   CANAL-7   CANAL-8
      N00E        +V      N90E
---------+---------+---------+---------+---------+---------+---------+---------+
[...]
     .4679     .2229    1.6072
     .4679     .2229    1.1192
     .4679     .2229    1.1192
     .4679     .2229    1.1192
     .4679     .2229    1.1192
     .4679     .2229    1.1192
     .4679     .2229    1.1192
     .4679     .2229    1.1192
     .4679     .2229    1.1192
     .4679     .2229    1.1192
     .9559     .2229     .6311
     .4679     .2229     .6311
     .4679     .2229     .6311
     .4679     .2229     .6311
     .4679     .2229     .6311
     .4679     .2229     .1431
     .4679     .2229     .1431
    -.0204     .2229     .1431
    -.0204     .2229     .1431
    -.0204     .2229     .1431
    -.0204     .2229    -.3450
    -.0204     .2229    -.3450
    -.0204     .2229    -.3450
    -.0204     .2229    -.3450
    -.0204     .2229    -.3450
    -.0204     .2229    -.3450
    -.0204    -.2662    -.3450
    -.0204    -.2662    -.8330
    -.0204     .2229    -.8330
    -.0204     .2229    -.8330
    -.0204    -.2662    -.8330
    -.0204    -.2662    -.8330
    -.0204    -.2662    -.8330
    -.0204    -.2662    -.8330
    -.0204    -.2662   -1.3211
    -.0204    -.2662   -1.3211
    -.5085    -.2662   -1.3211
    -.5085    -.2662   -1.3211
    -.5085    -.2662   -1.3211
    -.5085    -.2662   -1.3211
    -.5085    -.2662   -1.8092
    -.5085    -.2662   -1.8092
    -.5085    -.2662   -1.8092
    -.5085    -.2662   -1.8092
    -.5085    -.2662   -1.8092
    -.5085    -.2662   -1.8092
    -.5085    -.2662   -1.8092
    -.5085    -.2662   -1.8092
    -.5085    -.2662   -1.8092
    -.5085    -.2662   -1.8092
    -.5085    -.2662   -1.8092
    -.5085    -.2662   -1.8092
    -.5085    -.2662   -1.8092
    -.5085    -.2662   -1.8092
    -.0204    -.2662   -1.8092
    -.0204    -.2662   -1.8092
    -.0204    -.2662   -1.8092
    -.0204    -.2662   -1.8092
    -.0204    -.2662   -1.8092
    -.0204    -.2662   -1.8092
    -.0204    -.2662   -1.8092
    -.0204    -.2662   -1.3211
    -.0204    -.2662   -1.3211
    -.0204    -.2662   -1.3211
    -.0204    -.2662   -1.3211
    -.0204    -.2662   -1.3211
    -.0204    -.2662   -1.3211
    -.0204    -.2662   -1.3211
     .4679    -.2662   -1.3211
     .4679    -.2662    -.8330
     .4679    -.2662    -.8330
     .4679    -.2662    -.8330
     .4679    -.2662    -.8330
     .4679     .2229    -.8330
     .4679     .2229    -.3450
     .4679     .2229    -.3450
     .4679     .2229    -.3450
     .4679     .2229    -.3450
     .9559     .2229     .1431
     .9559     .2229     .1431
     .9559     .2229     .1431
     .9559     .2229     .6311
     .9559     .2229     .6311
     .9559     .2229     .6311
     .9559     .2229     .6311
     .9559     .2229     .6311
     .9559     .2229     .6311
     .4679     .2229     .6311
     .4679     .2229    1.1192
     .4679     .2229    1.1192
     .4679     .2229    1.1192
     .4679     .2229    1.1192
     .4679     .2229    1.6072
     .4679     .2229    1.6072
     .4679     .2229    1.6072
     .4679     .2229    1.6072
     .4679     .2229    1.6072
    -.0204     .2229    2.0953
     .4679     .2229    2.0953
     .4679     .2229    2.0953
    -.0204     .2229    2.0953
    -.0204     .2229    2.0953
    -.0204     .2229    2.0953
    -.0204     .2229    2.0953
    -.0204     .2229    2.0953
    -.0204     .2229    2.0953
    -.0204     .2229    2.0953
    -.0204     .2229    2.0953
    -.5085     .2229    2.0953
    -.5085     .2229    2.0953
    -.5085     .2229    2.0953
    -.5085    -.2662    2.0953
    -.5085     .2229    2.0953
    -.5085    -.2662    2.0953
    -.5085    -.2662    2.0953
    -.5085    -.2662    1.6072
    -.5085     .2229    2.0953
    -.5085    -.2662    2.0953
    -.5085    -.2662    2.0953
    -.5085     .2229    2.0953
    -.9966     .2229    2.0953
    -.5085     .2229    2.0953
    -.9966    -.2662    2.0953
    -.9966    -.2662    1.6072
    -.5085     .2229    1.6072
    -.9966    -.2662    1.6072
    -.5085    -.2662    1.6072
    -.9966    -.2662    1.6072
    -.9966    -.2662    1.6072
    -.9966    -.2662    1.6072
    -.9966    -.2662    1.1192
    -.9966    -.2662    1.1192
    -.9966    -.2662     .6311
    -.9966    -.2662     .6311
    -.9966    -.2662     .6311
    -.9966    -.2662     .1431
    -.9966    -.2662     .1431
    -.9966    -.2662     .1431
    -.9966    -.2662    -.3450
    -.9966    -.2662    -.3450
   -1.4849    -.2662    -.3450
   -1.4849    -.2662    -.3450
   -1.4849    -.2662    -.3450
   -1.4849    -.2662    -.3450
   -1.4849    -.2662    -.3450
   -1.4849    -.2662    -.8330
   -1.4849    -.2662    -.8330
   -1.4849    -.2662    -.8330
   -1.4849    -.2662    -.8330
   -1.4849    -.2662    -.8330
   -1.4849    -.2662    -.8330
    -.9966    -.2662    -.8330
    -.9966    -.2662   -1.3211
    -.9966    -.2662   -1.3211
    -.9966    -.2662   -1.3211
   -1.4849    -.2662   -1.3211
    -.9966    -.2662   -1.3211
    -.9966    -.2662   -1.8092
    -.9966    -.2662   -1.8092
    -.9966    -.2662   -1.8092
    -.9966    -.2662   -1.8092
    -.9966    -.2662   -1.8092
    -.9966    -.2662   -1.8092
    -.9966    -.2662   -1.8092
    -.9966    -.2662   -1.8092
    -.9966    -.2662   -1.8092
    -.9966    -.2662   -1.8092
    -.9966    -.2662   -1.8092
    -.5085    -.2662   -1.8092
    -.5085    -.2662   -1.8092
    -.5085    -.2662   -1.8092
    -.5085    -.2662   -1.8092
    -.5085    -.2662   -1.3211
    -.5085    -.2662   -1.8092
    -.0204    -.2662   -1.8092
    -.5085    -.2662   -1.8092
    -.0204    -.2662   -1.3211
    -.0204     .2229   -1.3211
    -.0204     .2229   -1.3211
    -.0204     .2229   -1.3211
    -.0204    -.2662   -1.3211
    -.5085     .2229   -1.3211
    -.0204     .2229   -1.3211
    -.0204    -.2662   -1.3211
    -.0204     .2229   -1.3211
    -.0204    -.2662   -1.3211
    -.0204     .2229   -1.3211
    -.0204     .2229    -.8330
    -.0204     .2229    -.8330
    -.0204     .2229    -.8330
    -.0204     .2229    -.8330
     .4679     .2229    -.8330
     .4679     .2229    -.8330
     .4679     .2229    -.3450
     .4679     .2229    -.3450
     .4679     .2229    -.3450
     .9559     .2229    -.3450
     .9559     .2229    -.3450
     .9559     .2229    -.3450
     .9559     .2229    -.3450
     .9559     .2229     .1431
     .9559     .7120     .1431
     .9559     .7120     .1431
     .9559     .7120     .1431
     .9559     .7120     .6311
     .9559     .7120     .6311
     .9559     .7120     .6311
     .9559     .7120     .6311
     .9559     .7120     .6311
     .9559     .7120    1.1192
     .4679     .2229    1.1192
     .4679     .7120    1.1192
     .4679     .2229    1.1192
     .4679     .7120    1.1192
     .4679     .7120    1.1192
     .4679     .2229    1.1192
     .4679     .7120    1.1192
     .4679     .7120    1.6072
     .4679     .7120    1.6072
     .4679     .7120    1.6072
     .4679     .2229    1.6072
     .4679     .7120    1.6072
     .4679     .7120    1.6072
     .4679     .7120    1.6072
     .4679     .2229    1.6072
     .4679     .2229    1.6072
     .4679     .2229    1.6072
     .4679     .2229    1.6072
     .4679     .2229    1.6072
     .4679     .2229    1.6072
     .4679     .2229    1.6072
     .4679     .2229    1.6072
     .4679     .2229    1.6072
     .4679     .2229    1.6072
     .4679    -.2662    1.6072
     .4679    -.2662    1.1192
     .4679    -.2662    1.1192
     .4679    -.2662    1.1192
     .4679    -.2662    1.1192
     .4679    -.2662    1.1192
     .4679    -.2662    1.1192
     .4679    -.2662     .6311
     .4679    -.2662     .6311
    -.0204    -.2662     .6311
    -.0204    -.2662     .6311
    -.0204    -.2662     .6311
    -.0204    -.2662     .6311
    -.0204    -.2662     .6311
    -.0204    -.2662     .6311
    -.0204    -.2662     .1431
    -.0204    -.2662     .1431
    -.0204    -.2662     .1431
    -.0204    -.2662     .1431
    -.0204    -.2662     .1431
    -.0204    -.2662     .1431
    -.0204    -.2662    -.3450
    -.0204    -.2662    -.3450
    -.0204    -.2662    -.3450
    -.0204    -.2662    -.3450
    -.0204    -.2662    -.3450
    -.0204    -.2662    -.8330
    -.0204    -.2662    -.8330
    -.0204    -.2662    -.8330
    -.0204    -.2662    -.8330
    -.0204    -.2662    -.8330
    -.5085    -.2662    -.8330
    -.0204    -.2662   -1.3211
    -.5085    -.2662   -1.3211
    -.5085    -.2662   -1.3211
    -.5085    -.2662   -1.3211
    -.5085    -.2662   -1.3211
    -.5085    -.2662   -1.3211
    -.5085    -.2662   -1.3211
    -.9966    -.2662   -1.8092
    -.9966    -.2662   -1.8092
    -.9966    -.2662   -1.8092
    -.9966    -.2662   -1.8092
    -.9966    -.2662   -1.8092
    -.9966    -.2662   -1.8092
    -.9966    -.2662   -1.8092
    -.9966    -.2662   -1.8092
    -.9966    -.2662   -1.8092
    -.9966    -.2662   -2.2972
    -.9966    -.2662   -2.2972
    -.9966    -.2662   -2.2972
    -.9966    -.2662   -1.8092
    -.9966    -.2662   -2.2972
    -.9966    -.2662   -1.8092
    -.9966    -.2662   -2.2972
    -.9966    -.2662   -1.8092
    -.9966    -.2662   -2.2972
    -.9966    -.2662   -2.2972
    -.9966    -.2662   -1.8092
    -.9966    -.2662   -1.8092
    -.9966    -.2662   -1.8092
    -.9966    -.2662   -1.8092
    -.9966    -.2662   -1.8092
    -.9966    -.2662   -1.8092
    -.9966    -.2662   -1.8092
    -.9966    -.2662   -1.8092
    -.9966    -.2662   -1.3211
    -.9966    -.2662   -1.3211
    -.9966    -.2662   -1.3211
    -.9966    -.2662   -1.3211
    -.9966    -.2662   -1.3211
    -.9966     .2229    -.8330
    -.9966     .2229    -.8330
    -.9966     .2229    -.8330
    -.9966     .2229    -.3450
    -.9966     .2229    -.3450
    -.9966     .2229    -.3450
    -.9966     .2229    -.3450
    -.5085     .2229    -.3450
    -.5085     .2229     .1431
    -.5085     .2229     .1431
    -.5085     .7120     .1431
    -.5085     .2229     .6311
    -.5085     .2229     .6311
    -.5085     .2229     .6311
    -.5085     .2229    1.1192
    -.5085     .2229    1.1192
    -.5085     .2229    1.1192
    -.5085     .2229    1.6072
    -.5085     .2229    1.6072
    -.5085     .2229    1.6072
    -.5085     .2229    1.6072
    -.5085     .2229    2.0953
    -.0204     .2229    2.0953
    -.0204    -.2662    2.0953
    -.0204    -.2662    2.0953
    -.0204     .2229    2.5833
    -.0204    -.2662    2.0953
    -.0204    -.2662    2.5833
    -.0204    -.2662    2.0953
    -.0204     .2229    2.5833
    -.0204     .2229    2.5833
    -.0204     .2229    2.5833
    -.0204     .2229    2.5833
    -.0204     .2229    2.0953
    -.0204     .2229    2.0953
    -.0204     .2229    2.0953
    -.0204     .2229    2.0953
    -.0204     .2229    2.0953
    -.0204     .2229    2.0953
    -.0204     .2229    2.0953
    -.0204     .2229    2.0953
    -.0204     .2229    2.0953
    -.0204     .2229    2.0953
    -.0204     .2229    2.0953
    -.0204    -.2662    2.0953
     .4679     .2229    2.0953
     .4679    -.2662    2.0953
     .4679     .2229    2.0953
     .4679    -.2662    1.6072
     .4679    -.2662    1.6072
     .4679    -.2662    1.6072
     .9559    -.2662    1.6072
     .9559    -.2662    1.6072
     .9559    -.2662    1.1192
     .9559    -.2662    1.1192
     .9559     .2229    1.1192
     .9559    -.2662     .6311
     .9559    -.2662     .6311
     .9559    -.2662     .6311
     .9559    -.2662     .1431
     .9559    -.2662     .1431
     .9559    -.2662    -.3450
     .9559    -.2662    -.3450
     .9559    -.2662    -.3450
     .9559    -.2662    -.3450
     .9559    -.2662    -.3450
     .9559    -.2662    -.3450
     .9559    -.2662    -.8330
     .9559    -.2662    -.8330
     .9559    -.2662    -.8330
     .9559     .2229    -.8330
     .9559    -.2662    -.8330
     .9559     .2229    -.8330
     .9559     .2229    -.8330
     .9559     .2229    -.8330
     .9559     .2229    -.8330
     .9559     .2229    -.8330
     .9559     .2229    -.8330
     .9559     .2229    -.8330
     .9559     .2229    -.8330
     .9559     .2229   -1.3211
     .9559     .2229   -1.3211
     .9559     .2229   -1.3211
     .9559     .2229   -1.3211
     .4679     .2229   -1.3211
     .4679     .2229   -1.3211
     .4679     .2229   -1.8092
     .4679     .2229   -1.8092
     .4679     .2229   -1.8092
     .4679     .2229   -1.8092
     .4679     .2229   -1.8092
     .4679     .2229   -1.8092
     .4679     .2229   -1.8092
     .4679     .2229   -1.8092
     .4679     .2229   -1.8092
     .4679     .2229   -1.8092
    -.0204     .2229   -1.8092
    -.0204     .2229   -1.8092
    -.0204     .2229   -1.8092
    -.0204     .2229   -1.3211
    -.0204     .2229   -1.3211
    -.0204     .2229   -1.3211
    -.5085     .2229   -1.3211
    -.5085     .2229   -1.3211
    -.5085     .2229   -1.3211
    -.5085     .2229   -1.3211
    -.9966     .2229   -1.3211
    -.9966     .2229   -1.3211
    -.9966     .2229   -1.3211
    -.9966     .2229   -1.3211
   -1.4849     .2229    -.8330
   -1.4849     .2229   -1.3211
   -1.4849     .2229    -.8330
   -1.4849     .2229    -.8330
   -1.4849     .2229    -.8330
   -1.4849     .2229    -.8330
   -1.4849     .2229    -.8330
   -1.4849     .2229    -.8330
   -1.4849     .2229    -.8330
   -1.4849     .2229    -.8330
   -1.4849     .2229    -.3450
   -1.4849     .2229    -.3450
   -1.4849     .2229    -.3450
   -1.4849     .2229    -.3450
   -1.4849    -.2662    -.3450
   -1.4849    -.2662     .1431
   -1.4849    -.2662    -.3450
   -1.4849    -.2662     .1431
   -1.4849    -.2662     .1431
   -1.9730    -.2662     .1431
   -1.4849    -.2662     .6311
   -1.9730    -.2662     .6311
   -1.9730    -.2662     .6311
   -1.9730    -.2662     .6311
   -1.9730    -.2662     .6311
   -1.9730    -.2662     .6311
   -1.9730    -.2662     .6311
   -1.4849    -.2662    1.1192
   -1.4849    -.2662    1.1192
   -1.4849    -.2662    1.1192
   -1.4849    -.2662    1.1192
   -1.4849    -.2662    1.1192
   -1.4849    -.2662    1.1192
    -.9966    -.2662    1.1192
    -.9966    -.2662    1.1192
    -.9966    -.2662    1.1192
    -.9966    -.2662    1.1192
    -.9966    -.2662    1.1192
    -.9966    -.2662    1.1192
    -.5085    -.2662    1.1192
    -.5085    -.2662    1.1192
    -.5085    -.2662    1.1192
    -.5085    -.2662    1.1192
    -.0204    -.2662    1.1192
    -.0204    -.2662    1.1192
    -.0204    -.2662    1.1192
    -.0204    -.2662    1.1192
    -.0204    -.2662    1.1192
    -.0204    -.2662    1.1192
     .4679    -.2662    1.1192
     .4679    -.2662    1.1192
     .4679    -.2662    1.1192
     .4679    -.2662     .6311
     .4679    -.2662    1.1192
     .4679    -.2662     .6311
     .4679    -.2662     .6311
     .4679    -.2662    1.1192
