********************************************************************************
           RED INTERUNIVERSITARIA DE INSTRUMENTACION SISIMICA (RIIS)
 AREA DE ESTRUCTURAS, UNIVERSIDAD AUTONOMA METROPOLITANA - UNIDAD AZCAPOTZALCO
         AV. SAN PABLO 180; COL. REYNOSA TAMAULIPAS; MEXICO D.F. 02200.
       TELS: 53189455; FAX: 53189085; e-mail: tperea@correo.azc.uam.mx
********************************************************************************
ARCHIVO ESTANDAR DE ACELERACION:
VERSION DEL FORMATO                    : 2.0
NOMBRE DEL ARCHIVO                     : RIDI0204.181
FECHA Y HORA DE CREACION               : ENERO, 2003
REF. CATALOGO ACELEROGRAMAS, SMIS 1996 : 


================================================================================
DATOS DE LA ESTACION:
NOMBRE DE LA ESTACION                  : UAM IZTAPALAPA
CLAVE DE LA ESTACION                   : RIDI
LOCALIZACION DE LA ESTACION            : AVENIDA MICHOACAN ESQUINA LA PURISIMA,
                                       : COLONIA VICENTINA, PLANTEL IZTAPALAPA
                                       : FRENTE AL EDIFICIO "O", MEXICO, D.F.
                                       :
                                       :
COORDENADAS DE LA ESTACION             : 19.360 LAT. N 
                                       : 99.060 LONG. W 
ALTITUD (msnm)                         : 2235
TIPO DE SUELO                          : LIMOS Y ARENAS ARCILLOSAS
                                       : 
                                       : 
INSTITUCION RESPONSABLE                : RED INTERUNIVERSITARIA DE 
                                       : INSTRUMENTACION SISMICA (RIIS)

================================================================================
DATOS DEL ACELEROGRAFO:
MODELO DEL ACELEROGRAFO                : SSA-2                 
NUMERO DE SERIE DEL ACELEROGRAFO       : 1009                  
NUMERO DE CANALES                      : 3                     
ORIENTACION C1-C6 (rumbo;orientacion)  : /N-S/VERT/E-O         
ORIENTACION C7-C12 (rumbo;orientacion) :                       
VEL. DE MUESTREO, C1-C6 (muestras/s)   : /200/200/200          
VEL. DE MUESTREO, C7-C12 (muestras/s)  :                       
ESC. COMPLETA DE SENSORES, C1-C6, (g)  : /1.0/1.0/1.0          
ESC. COMPLETA DE SENSORES, C7-C12, (g) :                       
FREC. NAT. DE SENSORES, C1-C6, (Hz)    : /50.0/50.3/50.7       
FREC. NAT. DE SENSORES, C7-C12, (Hz)   :                       
AMORTIGUAMIENTO DE SENSORES, C1-C6     : /0.66/0.67/0.66       
AMORTIGUAMIENTO DE SENSORES, C7-C12    :                       
INTERVALO DE MUESTREO, C1-C6, (s)      : /0.005/0.005/0.005    
INTERVALO DE MUESTREO, C7-C12, (s)     :                       
UMBRAL DE DISPARO, C1-C6, (Gal)        : /1/1/1                
UMBRAL DE DISPARO, C7-C12, (Gal)       :                       
MEMORIA DE PREEVENTO (s)               : 15                    
TIEMPO DE POSEVENTO (s)                : 30                    


================================================================================
DATOS DEL SISMO:
FECHA DEL SISMO (GMT)                  : 18/ABR/02                          
HORA EPICENTRO (GMT)                   : 05:02:00                           
MAGNITUD(ES)                           : /Mw=6.30                           
COORDENADAS DEL EPICENTRO              : 16.42 LAT. N                       
                                       : 101.10 LONG. W                     
PROFUNDIDAD FOCAL (km)                 : 15                                 
FUENTES DE LOS DATOS EPICENTRALES      : SSN                                
                                       : INSTITUTO DE GEOFISICA, UNAM       

================================================================================
DATOS DE ESTE REGISTRO:
HORA DE LA PRIMERA MUESTRA (GMT)       : 05:02:00.00
EXACTITUD DEL TIEMPO (s)               :     
DURACION DEL REGISTRO (s), C1-C6       : /78.08/78.08/78.08       
DURACION DEL REGISTRO (s), C7-C12      :                          
NUM. TOTAL DE MUESTRAS, C1-C6          : /15616/15616/15616       
NUM. TOTAL DE MUESTRAS, C7-C12         :                          
ACEL. MAX.(Gal), C1-C6                 : /-2.20/-.69/-2.87        
ACEL. MAX., C1-C6, EN LA MUESTRA       : /3256/12087/3096         
ACEL. MAX.(Gal), C7-C12                : 
ACEL. MAX., C7-C12, EN LA MUESTRA      :
UNIDADES DE LOS DATOS                  : Gal
FACTOR DE DECIMACION                   : 1
FORMATO DATOS (FORTRAN,10 campos/dato) : 3F10.4


===============================================================================
CALIDAD DEL ACELEROGRAMA:
REGISTRO DIGITAL COMPLETO, CARECE DE TIEMPO ABSOLUTO.


===============================================================================
COMENTARIOS:
CADA UNO DE LOS CANALES SE ENCUENTRA AJUSTADO POR LINEA BASE MEDIANTE LA
SUSTRACCION DEL PROMEDIO DE LAS ACELERACIONES EN EL TIEMPO.











MODELO DEL ACELEROGRAFO : SSA-2 (KINEMETRICS)
===============================================================================
DATOS DE ACELERACION:
---------+---------+---------+---------+---------+---------+---------+---------+
   CANAL-1   CANAL-2   CANAL-3   CANAL-4   CANAL-5   CANAL-6   CANAL-7   CANAL-8
      N00E        +V      N90E
---------+---------+---------+---------+---------+---------+---------+---------+
[...]
    1.6956     .2758   -1.4081
    1.6956     .2758   -1.4081
    1.6956     .2758   -1.4081
    1.6956     .2758   -1.4081
    1.6956     .2758   -1.4081
    1.6956     .2758   -1.4081
    1.6956     .2758   -1.4081
    1.6956     .2758   -1.4081
    1.6956     .2758    -.9203
    1.6956     .2758    -.9203
    1.6956     .2758    -.9203
    1.6956    -.2090   -1.4081
    1.6956    -.2090   -1.4081
    1.6956     .2758    -.9203
    1.6956     .2758    -.9203
    1.6956     .2758    -.9203
    1.6956    -.2090   -1.4081
    1.6956    -.2090    -.9203
    1.6956     .2758    -.9203
    1.6956    -.2090    -.9203
    1.6956     .2758    -.9203
    1.6956    -.2090    -.9203
    1.6956    -.2090    -.9203
    1.6956    -.2090    -.9203
    1.6956     .2758    -.9203
    1.6956     .2758    -.9203
    1.6956     .2758    -.9203
    1.6956     .2758    -.9203
    1.6956     .2758    -.9203
    1.6956     .2758    -.9203
    1.6956     .2758    -.9203
    1.6956    -.2090    -.9203
    1.6956    -.2090    -.9203
    1.6956    -.2090    -.9203
    1.6956     .2758    -.9203
    1.6956     .2758    -.9203
    1.6956     .2758    -.9203
    1.6956     .2758    -.9203
    1.6956     .2758    -.9203
    1.6956    -.2090    -.9203
    1.6956    -.2090    -.9203
    1.2076    -.2090    -.9203
    1.2076     .2758    -.9203
    1.6956    -.2090    -.9203
    1.6956     .2758    -.9203
    1.6956    -.2090    -.9203
    1.2076    -.2090    -.9203
    1.2076     .2758    -.9203
    1.2076     .2758    -.4325
    1.2076     .2758    -.4325
    1.2076    -.2090    -.4325
    1.2076    -.2090    -.4325
    1.2076    -.2090    -.4325
    1.2076    -.2090    -.4325
    1.2076    -.2090    -.4325
    1.2076     .2758    -.4325
    1.2076    -.2090    -.4325
    1.2076    -.2090    -.4325
    1.2076    -.2090    -.4325
    1.2076    -.2090    -.4325
    1.2076    -.2090    -.4325
    1.2076    -.2090    -.4325
    1.2076    -.2090    -.4325
    1.2076    -.2090    -.4325
    1.2076    -.2090    -.4325
    1.2076    -.2090    -.4325
    1.2076    -.2090    -.4325
    1.2076    -.2090    -.4325
     .7196    -.2090    -.4325
     .7196    -.2090    -.4325
     .7196    -.2090    -.4325
    1.2076    -.2090    -.4325
     .7196    -.2090     .0552
     .7196    -.2090     .0552
     .7196    -.2090     .0552
     .7196    -.2090     .0552
     .7196    -.2090     .0552
     .7196    -.2090     .0552
     .7196    -.2090     .0552
     .7196    -.2090     .0552
     .7196    -.2090     .0552
     .7196    -.2090     .0552
     .7196    -.2090     .0552
     .7196    -.2090     .0552
     .7196    -.2090     .0552
     .7196    -.2090     .0552
     .7196    -.2090     .0552
     .7196    -.2090     .0552
     .7196    -.2090     .0552
     .7196    -.2090     .0552
     .7196    -.2090     .0552
     .7196    -.2090     .0552
     .7196    -.2090     .0552
     .2316    -.2090     .0552
     .2316    -.2090     .0552
     .2316    -.2090     .5430
     .2316    -.2090     .0552
     .2316    -.2090     .0552
     .2316    -.2090     .0552
     .2316    -.2090     .5430
     .2316    -.2090     .5430
     .2316    -.2090     .5430
     .2316    -.2090     .5430
     .2316    -.2090     .5430
     .2316    -.2090     .5430
     .2316    -.2090     .5430
     .2316    -.2090     .5430
     .2316    -.2090     .5430
     .2316    -.2090     .5430
     .2316    -.2090     .5430
     .2316    -.2090     .5430
     .2316    -.2090     .5430
     .2316    -.2090     .5430
    -.2562    -.2090     .5430
    -.2562    -.2090     .5430
    -.2562    -.2090     .5430
    -.2562    -.2090     .5430
    -.2562    -.2090     .5430
    -.2562    -.2090     .5430
    -.2562    -.2090     .5430
    -.2562    -.2090     .5430
    -.2562    -.2090     .5430
    -.2562    -.2090    1.0307
    -.7439    -.2090    1.0307
    -.2562    -.2090    1.0307
    -.2562    -.2090    1.0307
    -.2562    -.2090    1.0307
    -.2562    -.2090    1.0307
    -.7439    -.2090    1.0307
    -.7439    -.2090    1.0307
    -.2562    -.2090    1.0307
    -.2562    -.2090    1.0307
    -.2562    -.2090    1.0307
    -.7439    -.2090    1.0307
    -.7439    -.2090    1.0307
    -.7439    -.2090    1.0307
    -.7439    -.2090    1.0307
    -.7439    -.2090    1.0307
    -.7439    -.2090    1.0307
    -.7439    -.2090    1.0307
    -.7439    -.2090    1.0307
    -.7439    -.2090    1.0307
    -.7439    -.2090    1.0307
   -1.2317    -.2090    1.0307
   -1.2317    -.2090    1.0307
    -.7439    -.2090    1.0307
    -.7439    -.2090    1.0307
    -.7439    -.2090    1.0307
   -1.2317    -.2090    1.0307
   -1.2317    -.2090    1.0307
   -1.2317    -.2090    1.0307
    -.7439    -.2090    1.0307
    -.7439    -.2090    1.0307
    -.7439    -.2090    1.0307
   -1.2317    -.2090    1.0307
   -1.2317    -.2090    1.0307
   -1.2317    -.2090    1.0307
   -1.2317    -.2090    1.0307
   -1.2317    -.2090    1.0307
   -1.2317    -.2090    1.0307
   -1.2317    -.2090    1.5185
   -1.2317    -.2090    1.5185
   -1.2317    -.2090    1.5185
   -1.2317    -.2090    1.5185
   -1.2317    -.2090    1.5185
   -1.2317    -.2090    1.0307
   -1.2317    -.2090    1.0307
   -1.2317    -.6937    1.5185
   -1.2317    -.2090    1.5185
   -1.2317    -.2090    1.5185
   -1.2317    -.2090    1.5185
   -1.2317    -.2090    1.5185
   -1.2317    -.6937    1.5185
   -1.2317    -.6937    1.5185
   -1.2317    -.6937    1.5185
   -1.2317    -.2090    1.5185
   -1.2317    -.2090    1.5185
   -1.2317    -.2090    1.5185
   -1.2317    -.6937    1.5185
   -1.2317    -.6937    1.5185
   -1.2317    -.6937    1.5185
   -1.7194    -.6937    1.5185
   -1.7194    -.6937    1.5185
   -1.7194    -.6937    1.5185
   -1.7194    -.6937    1.5185
   -1.7194    -.6937    1.5185
   -1.2317    -.6937    1.0307
   -1.7194    -.6937    1.5185
   -1.7194    -.6937    1.5185
   -1.7194    -.6937    1.5185
   -1.7194    -.6937    1.5185
   -1.7194    -.6937    1.5185
   -1.2317    -.6937    1.0307
   -1.2317    -.6937    1.0307
   -1.2317    -.6937    1.0307
   -1.7194    -.6937    1.5185
   -1.7194    -.6937    1.5185
   -1.7194    -.6937    1.5185
   -1.7194    -.6937    1.0307
   -1.2317    -.6937    1.0307
   -1.2317    -.6937    1.0307
   -1.7194    -.6937    1.0307
   -1.7194    -.6937    1.0307
   -1.7194    -.6937    1.0307
   -1.7194    -.6937    1.0307
   -1.7194    -.6937    1.0307
   -1.7194    -.6937    1.0307
   -1.7194    -.6937    1.0307
   -1.7194    -.6937    1.0307
   -1.7194    -.6937    1.0307
   -1.7194    -.6937    1.0307
   -1.7194    -.6937    1.0307
   -1.2317    -.6937    1.0307
   -1.2317    -.6937    1.0307
   -1.2317    -.6937    1.0307
   -1.7194    -.6937    1.0307
   -1.2317    -.6937    1.0307
   -1.2317    -.6937    1.0307
   -1.2317    -.6937    1.0307
   -1.2317    -.6937    1.0307
   -1.2317    -.6937    1.0307
   -1.2317    -.6937    1.0307
   -1.2317    -.6937    1.0307
   -1.2317    -.6937     .5430
   -1.2317    -.6937    1.0307
   -1.7194    -.6937     .5430
   -1.2317    -.6937     .5430
   -1.2317    -.6937     .5430
   -1.2317    -.6937     .5430
   -1.2317    -.6937     .5430
   -1.2317    -.6937     .5430
   -1.2317    -.6937     .5430
   -1.2317    -.6937     .5430
   -1.2317    -.6937     .5430
   -1.2317    -.6937     .5430
   -1.2317    -.6937     .5430
   -1.2317    -.6937     .5430
   -1.2317    -.6937     .5430
   -1.2317    -.6937     .0552
   -1.2317    -.6937     .0552
   -1.2317    -.6937     .0552
   -1.2317    -.2090     .0552
   -1.2317    -.6937     .0552
   -1.2317    -.2090     .0552
   -1.2317    -.6937     .0552
   -1.2317    -.6937     .0552
   -1.2317    -.6937     .0552
   -1.2317    -.6937     .0552
   -1.2317    -.6937     .0552
   -1.2317    -.6937     .0552
   -1.2317    -.6937     .0552
    -.7439    -.6937     .0552
    -.7439    -.6937     .0552
    -.7439    -.6937    -.4325
    -.7439    -.6937    -.4325
    -.7439    -.6937    -.4325
    -.7439    -.6937    -.4325
    -.7439    -.6937    -.4325
    -.7439    -.6937    -.4325
    -.7439    -.6937    -.4325
    -.2562    -.6937    -.4325
    -.7439    -.2090    -.4325
    -.2562    -.6937    -.4325
    -.7439    -.6937    -.9203
    -.2562    -.2090    -.4325
    -.2562    -.2090    -.9203
    -.2562    -.2090    -.9203
    -.2562    -.6937    -.9203
    -.2562    -.6937    -.9203
    -.2562    -.6937    -.9203
    -.2562    -.6937    -.9203
    -.2562    -.6937    -.9203
    -.2562    -.2090    -.9203
    -.2562    -.6937    -.9203
    -.2562    -.2090    -.9203
    -.2562    -.6937    -.9203
    -.2562    -.6937    -.9203
    -.2562    -.2090    -.9203
    -.2562    -.6937   -1.4081
     .2316    -.6937   -1.4081
     .2316    -.6937   -1.4081
     .2316    -.2090   -1.4081
     .2316    -.6937   -1.4081
     .2316    -.6937   -1.4081
     .2316    -.6937   -1.4081
     .2316    -.6937   -1.4081
     .2316    -.2090   -1.4081
     .2316    -.2090   -1.4081
     .2316    -.2090   -1.4081
     .2316    -.2090   -1.4081
     .2316    -.2090   -1.8958
     .2316    -.2090   -1.8958
     .2316    -.2090   -1.8958
     .2316    -.2090   -1.8958
     .2316    -.6937   -1.8958
     .2316    -.6937   -1.8958
     .2316    -.2090   -1.8958
     .2316    -.6937   -1.8958
     .7196    -.2090   -1.8958
     .7196    -.6937   -1.8958
     .7196    -.6937   -1.8958
     .7196    -.2090   -1.8958
     .7196    -.2090   -1.8958
     .7196    -.2090   -1.8958
     .7196    -.2090   -1.8958
     .7196    -.6937   -1.8958
     .7196    -.2090   -1.8958
     .7196    -.2090   -2.3836
     .7196    -.2090   -2.3836
     .7196    -.2090   -2.3836
     .7196    -.2090   -2.3836
     .7196    -.2090   -1.8958
    1.2076    -.2090   -1.8958
    1.2076    -.2090   -1.8958
    1.2076    -.2090   -1.8958
    1.2076    -.2090   -1.8958
    1.2076    -.2090   -2.3836
    1.2076    -.2090   -1.8958
    1.2076    -.2090   -2.3836
    1.2076    -.2090   -2.3836
    1.2076    -.2090   -2.3836
    1.2076    -.2090   -2.3836
    1.2076    -.2090   -2.3836
    1.2076    -.2090   -2.3836
    1.2076    -.2090   -2.3836
    1.2076    -.2090   -2.3836
    1.2076    -.2090   -2.3836
    1.6956    -.2090   -2.3836
    1.6956    -.2090   -2.3836
    1.2076    -.2090   -2.3836
    1.2076    -.2090   -2.8713
    1.2076    -.2090   -2.3836
    1.2076    -.2090   -2.3836
    1.2076    -.2090   -2.3836
    1.2076    -.2090   -2.3836
    1.2076    -.2090   -2.3836
    1.2076    -.2090   -2.3836
    1.2076    -.2090   -2.3836
    1.2076    -.2090   -2.3836
    1.2076    -.2090   -2.3836
    1.2076    -.2090   -2.3836
    1.2076    -.2090   -2.3836
    1.2076    -.2090   -2.3836
    1.2076    -.2090   -2.3836
    1.2076    -.2090   -2.3836
    1.2076    -.2090   -2.3836
    1.2076    -.2090   -2.3836
    1.2076    -.2090   -2.3836
    1.2076    -.2090   -2.3836
    1.2076    -.2090   -2.3836
    1.2076    -.2090   -2.3836
    1.2076    -.2090   -2.3836
    1.2076    -.2090   -2.3836
    1.2076    -.2090   -2.3836
    1.2076    -.2090   -2.3836
    1.2076    -.2090   -2.3836
    1.2076    -.2090   -2.3836
    1.2076    -.2090   -2.3836
    1.2076    -.2090   -2.3836
    1.2076    -.2090   -2.3836
    1.2076    -.2090   -2.3836
    1.2076    -.2090   -2.3836
    1.2076    -.2090   -1.8958
    1.2076    -.2090   -1.8958
    1.2076    -.2090   -2.3836
    1.2076    -.2090   -2.3836
    1.2076    -.2090   -1.8958
    1.2076    -.2090   -1.8958
    1.2076    -.2090   -1.8958
    1.2076    -.2090   -1.8958
    1.2076    -.2090   -1.8958
    1.2076    -.2090   -1.8958
    1.2076    -.2090   -1.8958
    1.2076    -.2090   -1.8958
    1.2076    -.2090   -1.8958
     .7196    -.2090   -1.8958
     .7196    -.2090   -1.8958
     .7196    -.2090   -1.4081
     .7196    -.2090   -1.8958
     .7196    -.2090   -1.4081
     .7196    -.2090   -1.4081
     .7196    -.2090   -1.4081
     .7196    -.2090   -1.4081
     .7196    -.2090   -1.4081
     .7196    -.2090   -1.4081
     .7196    -.2090   -1.4081
     .7196    -.2090   -1.4081
     .7196    -.2090   -1.4081
     .7196    -.2090   -1.4081
     .7196    -.2090   -1.4081
     .7196    -.2090   -1.4081
     .7196    -.2090   -1.4081
     .7196    -.2090    -.9203
     .7196    -.2090    -.9203
     .7196    -.2090    -.9203
     .2316    -.2090    -.9203
     .2316    -.2090    -.9203
     .2316    -.2090    -.9203
     .2316    -.2090    -.9203
     .2316    -.2090    -.9203
     .2316    -.2090    -.9203
     .2316    -.2090    -.9203
     .2316    -.2090    -.9203
     .2316    -.2090    -.9203
     .2316    -.2090    -.4325
     .2316    -.2090    -.9203
     .2316    -.2090    -.4325
     .2316    -.2090    -.4325
     .2316    -.2090    -.4325
    -.2562    -.2090    -.4325
    -.2562    -.2090    -.4325
    -.2562    -.2090    -.4325
    -.2562    -.2090    -.4325
    -.2562    -.2090    -.4325
    -.2562    -.2090    -.4325
    -.2562    -.2090    -.4325
    -.2562    -.2090     .0552
    -.2562    -.2090     .0552
    -.2562    -.2090     .0552
    -.2562    -.2090     .0552
    -.2562    -.2090     .0552
    -.2562    -.2090     .0552
    -.7439    -.2090     .0552
    -.7439    -.2090     .0552
    -.7439    -.2090     .0552
    -.7439    -.2090     .0552
    -.7439    -.2090     .0552
    -.7439    -.2090     .0552
    -.7439    -.2090     .0552
    -.7439     .2758     .5430
    -.7439    -.2090     .5430
    -.7439    -.2090     .5430
    -.7439    -.2090     .5430
    -.7439    -.2090     .5430
    -.7439    -.2090     .5430
    -.7439    -.2090     .5430
    -.7439    -.2090     .5430
   -1.2317     .2758     .5430
   -1.2317    -.2090     .5430
    -.7439     .2758     .5430
   -1.2317    -.2090     .5430
   -1.2317     .2758     .5430
   -1.2317    -.2090     .5430
   -1.2317     .2758    1.0307
   -1.2317     .2758    1.0307
   -1.2317     .2758    1.0307
   -1.2317    -.2090    1.0307
   -1.2317    -.2090    1.0307
   -1.2317     .2758    1.0307
   -1.2317     .2758    1.0307
   -1.2317     .2758    1.0307
   -1.2317     .2758    1.0307
   -1.2317     .2758    1.0307
   -1.2317     .2758    1.0307
   -1.2317     .2758    1.0307
   -1.2317     .2758    1.0307
   -1.2317     .2758    1.0307
   -1.2317     .2758    1.0307
   -1.7194     .2758    1.0307
   -1.2317     .2758    1.0307
   -1.7194     .2758    1.0307
   -1.7194     .2758    1.5185
   -1.7194     .2758    1.5185
   -1.7194    -.2090    1.5185
   -1.7194     .2758    1.5185
   -1.7194     .2758    1.5185
   -1.7194     .2758    1.5185
   -1.7194     .2758    1.5185
   -1.7194     .2758    1.5185
   -1.7194     .2758    1.5185
   -1.7194     .2758    1.5185
   -1.7194     .2758    1.5185
