********************************************************************************
           RED INTERUNIVERSITARIA DE INSTRUMENTACION SISIMICA (RIIS)
 AREA DE ESTRUCTURAS, UNIVERSIDAD AUTONOMA METROPOLITANA - UNIDAD AZCAPOTZALCO
         AV. SAN PABLO 180; COL. REYNOSA TAMAULIPAS; MEXICO D.F. 02200.
       TELS: 53189455; FAX: 53189085; e-mail: tperea@correo.azc.uam.mx
********************************************************************************
ARCHIVO ESTANDAR DE ACELERACION:
VERSION DEL FORMATO                    : 2.0
NOMBRE DEL ARCHIVO                     : RIDI0209.271
FECHA Y HORA DE CREACION               : ENERO, 2003
REF. CATALOGO ACELEROGRAMAS, SMIS 1996 : 


================================================================================
DATOS DE LA ESTACION:
NOMBRE DE LA ESTACION                  : UAM IZTAPALAPA
CLAVE DE LA ESTACION                   : RIDI
LOCALIZACION DE LA ESTACION            : AVENIDA MICHOACAN ESQUINA LA PURISIMA,
                                       : COLONIA VICENTINA, PLANTEL IZTAPALAPA
                                       : FRENTE AL EDIFICIO "O", MEXICO, D.F.
                                       :
                                       :
COORDENADAS DE LA ESTACION             : 19.360 LAT. N 
                                       : 99.060 LONG. W 
ALTITUD (msnm)                         : 2235
TIPO DE SUELO                          : LIMOS Y ARENAS ARCILLOSAS
                                       : 
                                       : 
INSTITUCION RESPONSABLE                : RED INTERUNIVERSITARIA DE 
                                       : INSTRUMENTACION SISMICA (RIIS)

================================================================================
DATOS DEL ACELEROGRAFO:
MODELO DEL ACELEROGRAFO                : SSA-2                 
NUMERO DE SERIE DEL ACELEROGRAFO       : 1009                  
NUMERO DE CANALES                      : 3                     
ORIENTACION C1-C6 (rumbo;orientacion)  : /N-S/VERT/E-O         
ORIENTACION C7-C12 (rumbo;orientacion) :                       
VEL. DE MUESTREO, C1-C6 (muestras/s)   : /200/200/200          
VEL. DE MUESTREO, C7-C12 (muestras/s)  :                       
ESC. COMPLETA DE SENSORES, C1-C6, (g)  : /1.0/1.0/1.0          
ESC. COMPLETA DE SENSORES, C7-C12, (g) :                       
FREC. NAT. DE SENSORES, C1-C6, (Hz)    : /50.0/50.3/50.7       
FREC. NAT. DE SENSORES, C7-C12, (Hz)   :                       
AMORTIGUAMIENTO DE SENSORES, C1-C6     : /0.66/0.67/0.66       
AMORTIGUAMIENTO DE SENSORES, C7-C12    :                       
INTERVALO DE MUESTREO, C1-C6, (s)      : /0.005/0.005/0.005    
INTERVALO DE MUESTREO, C7-C12, (s)     :                       
UMBRAL DE DISPARO, C1-C6, (Gal)        : /1/1/1                
UMBRAL DE DISPARO, C7-C12, (Gal)       :                       
MEMORIA DE PREEVENTO (s)               : 15                    
TIEMPO DE POSEVENTO (s)                : 30                    


================================================================================
DATOS DEL SISMO:
FECHA DEL SISMO (GMT)                  : 27/SEP/02
HORA EPICENTRO (GMT)                   : 07:05:00
MAGNITUD(ES)                           : /Mc=4.90
COORDENADAS DEL EPICENTRO              : 17.16 LAT. N 
                                       : 100.59 LONG. W
PROFUNDIDAD FOCAL (km)                 : 36 
FUENTES DE LOS DATOS EPICENTRALES      : SSN
                                       : INSTITUTO DE GEOFISICA, UNAM

================================================================================
DATOS DE ESTE REGISTRO:
HORA DE LA PRIMERA MUESTRA (GMT)       : 07:05:00.00
EXACTITUD DEL TIEMPO (s)               :     
DURACION DEL REGISTRO (s), C1-C6       : /78.08/78.08/78.08        
DURACION DEL REGISTRO (s), C7-C12      :                           
NUM. TOTAL DE MUESTRAS, C1-C6          : /15616/15616/15616        
NUM. TOTAL DE MUESTRAS, C7-C12         :                           
ACEL. MAX.(Gal), C1-C6                 : /-1.47/-.97/-2.23         
ACEL. MAX., C1-C6, EN LA MUESTRA       : /5984/1487/5172           
ACEL. MAX.(Gal), C7-C12                : 
ACEL. MAX., C7-C12, EN LA MUESTRA      :
UNIDADES DE LOS DATOS                  : Gal
FACTOR DE DECIMACION                   : 1
FORMATO DATOS (FORTRAN,10 campos/dato) : 3F10.4


===============================================================================
CALIDAD DEL ACELEROGRAMA:
REGISTRO DIGITAL COMPLETO, CARECE DE TIEMPO ABSOLUTO.


===============================================================================
COMENTARIOS:
CADA UNO DE LOS CANALES SE ENCUENTRA AJUSTADO POR LINEA BASE MEDIANTE LA
SUSTRACCION DEL PROMEDIO DE LAS ACELERACIONES EN EL TIEMPO.











MODELO DEL ACELEROGRAFO : SSA-2 (KINEMETRICS)
===============================================================================
DATOS DE ACELERACION:
---------+---------+---------+---------+---------+---------+---------+---------+
   CANAL-1   CANAL-2   CANAL-3   CANAL-4   CANAL-5   CANAL-6   CANAL-7   CANAL-8
      N00E        +V      N90E
---------+---------+---------+---------+---------+---------+---------+---------+
[...]
    -.5028     .4754    1.1787
    -.5028     .4754    1.1787
    -.5028     .4754    1.1787
    -.5028     .4754    1.1787
    -.5028     .4754    1.1787
    -.5028     .4754    1.1787
    -.5028     .4754    1.1787
    -.5028     .4754    1.1787
    -.5028     .4754    1.1787
    -.5028     .4754    1.1787
    -.5028     .4754    1.1787
    -.5028     .4754    1.1787
    -.5028    -.0094    1.1787
    -.5028    -.0094    1.1787
    -.5028    -.0094     .6909
    -.0150    -.0094     .6909
    -.0150    -.0094     .6909
    -.0150    -.0094     .6909
    -.0150    -.0094     .6909
    -.0150    -.0094     .6909
    -.0150    -.0094     .6909
    -.0150    -.0094     .6909
    -.0150    -.0094     .6909
    -.0150    -.0094     .6909
    -.0150    -.0094     .6909
    -.0150    -.0094     .6909
    -.0150    -.4941     .6909
    -.0150    -.4941     .6909
    -.0150    -.4941     .6909
    -.0150    -.4941     .6909
    -.0150    -.4941     .6909
    -.0150    -.4941     .6909
    -.0150    -.4941     .6909
     .4727    -.4941     .6909
     .4727    -.4941     .6909
     .4727    -.4941     .6909
     .4727    -.4941     .6909
     .4727    -.4941     .2032
     .4727    -.4941     .6909
     .4727    -.4941     .6909
     .4727    -.4941     .2032
     .4727    -.4941     .2032
     .4727    -.4941     .2032
     .4727    -.4941     .2032
     .4727    -.4941     .2032
     .4727    -.4941     .2032
     .4727    -.4941     .2032
     .4727    -.4941     .2032
     .4727    -.4941     .2032
     .4727    -.4941     .2032
     .4727    -.4941     .2032
     .4727    -.4941     .2032
     .4727    -.4941     .2032
     .4727    -.4941     .2032
     .4727    -.4941     .2032
     .4727    -.4941     .2032
     .4727    -.0094     .2032
     .4727    -.4941     .2032
     .4727    -.4941     .2032
     .4727    -.0094     .2032
     .4727    -.0094     .2032
     .4727    -.0094     .2032
     .4727    -.0094     .2032
     .4727    -.0094     .2032
     .4727    -.0094     .2032
     .4727    -.0094     .2032
     .4727    -.0094     .2032
     .4727    -.0094     .2032
     .4727    -.0094     .6909
     .4727    -.0094     .2032
     .4727    -.0094     .6909
     .4727    -.0094     .2032
     .4727    -.4941     .2032
     .4727    -.4941     .2032
     .4727    -.4941     .2032
     .4727    -.4941     .2032
     .4727    -.4941     .2032
     .4727    -.4941     .2032
     .4727    -.4941     .2032
     .4727    -.4941     .2032
     .4727    -.4941     .2032
     .4727    -.4941     .2032
     .4727    -.4941     .2032
     .4727    -.4941     .2032
     .4727    -.4941     .2032
     .4727    -.4941     .2032
     .4727    -.4941     .2032
     .4727    -.4941    -.2846
     .4727    -.4941    -.2846
    -.0150    -.4941    -.2846
     .4727    -.4941    -.2846
    -.0150    -.4941    -.2846
    -.0150    -.4941    -.2846
    -.0150    -.4941    -.2846
    -.0150    -.4941    -.2846
    -.0150    -.4941    -.2846
    -.0150    -.4941    -.2846
    -.0150    -.4941    -.2846
    -.0150    -.4941    -.2846
    -.0150    -.4941    -.2846
    -.0150    -.4941    -.2846
    -.0150    -.4941    -.2846
    -.0150    -.4941    -.2846
    -.0150    -.4941    -.2846
    -.0150    -.4941    -.2846
    -.0150    -.0094    -.2846
    -.0150    -.0094    -.2846
    -.0150    -.0094    -.2846
    -.0150    -.0094    -.2846
    -.0150     .4754    -.2846
    -.0150    -.0094    -.2846
    -.0150     .4754    -.2846
    -.0150     .4754    -.2846
    -.0150     .4754    -.2846
    -.0150     .4754    -.2846
    -.0150     .4754    -.2846
    -.0150     .4754    -.2846
    -.0150    -.0094    -.2846
    -.0150     .4754    -.2846
    -.0150     .4754    -.2846
    -.0150    -.0094    -.2846
    -.0150    -.0094    -.2846
    -.0150    -.0094    -.2846
    -.0150    -.0094    -.2846
    -.0150    -.0094    -.2846
    -.0150    -.0094    -.2846
    -.0150    -.0094    -.2846
    -.0150    -.0094    -.2846
    -.0150    -.0094    -.2846
    -.0150    -.0094    -.2846
    -.0150    -.0094    -.2846
    -.0150    -.0094    -.2846
    -.0150    -.0094    -.2846
    -.0150    -.0094    -.2846
    -.0150    -.0094    -.2846
    -.0150    -.0094    -.2846
    -.0150    -.0094    -.2846
    -.0150    -.0094    -.2846
    -.0150    -.0094    -.2846
     .4727    -.0094    -.2846
    -.0150    -.0094    -.2846
    -.0150    -.0094    -.2846
    -.0150    -.0094    -.2846
    -.0150    -.0094    -.2846
    -.0150    -.0094    -.7723
    -.0150    -.0094    -.7723
    -.0150    -.0094    -.7723
     .4727    -.0094    -.7723
     .4727    -.0094    -.7723
    -.0150    -.0094    -.7723
    -.0150    -.0094    -.7723
    -.0150    -.0094    -.7723
    -.0150    -.0094    -.7723
     .4727    -.0094    -.7723
     .4727    -.0094    -.7723
     .4727    -.0094    -.7723
     .4727    -.0094    -.7723
     .4727    -.0094    -.7723
     .4727    -.0094    -.7723
     .4727    -.0094    -.7723
     .4727    -.0094    -.7723
    -.0150    -.0094    -.7723
     .4727    -.0094   -1.2601
     .4727    -.0094   -1.2601
     .4727    -.0094   -1.2601
     .4727    -.0094   -1.2601
     .4727    -.0094   -1.2601
    -.0150    -.0094   -1.2601
     .4727    -.0094   -1.2601
     .4727    -.0094   -1.2601
     .4727    -.0094   -1.2601
     .4727    -.0094   -1.2601
     .4727    -.0094   -1.2601
     .4727    -.0094   -1.2601
     .4727    -.0094   -1.2601
     .4727    -.0094   -1.2601
     .4727    -.0094   -1.2601
     .4727    -.0094   -1.7479
     .4727    -.0094   -1.2601
    -.0150    -.0094   -1.2601
     .4727    -.0094   -1.2601
     .4727    -.0094   -1.2601
    -.0150    -.0094   -1.2601
     .4727    -.0094   -1.2601
     .4727     .4754   -1.2601
     .4727    -.0094   -1.2601
    -.0150     .4754   -1.2601
    -.0150     .4754   -1.2601
    -.0150     .4754   -1.2601
    -.0150     .4754   -1.2601
    -.0150     .4754   -1.2601
    -.0150     .4754   -1.2601
    -.0150     .4754   -1.2601
    -.0150     .4754   -1.2601
    -.0150     .4754   -1.2601
    -.0150     .4754    -.7723
    -.0150     .4754    -.7723
    -.0150     .4754    -.7723
    -.0150     .4754    -.7723
    -.0150     .4754    -.7723
    -.0150     .4754    -.7723
    -.0150     .4754    -.7723
    -.0150     .4754    -.7723
    -.0150     .4754    -.7723
    -.0150     .4754    -.7723
    -.0150     .4754    -.7723
    -.0150     .4754    -.7723
    -.5028     .4754    -.7723
    -.5028     .4754    -.7723
    -.5028     .4754    -.7723
    -.5028     .4754    -.7723
    -.0150     .4754    -.2846
    -.0150     .4754    -.2846
    -.5028    -.0094    -.2846
    -.5028    -.0094    -.2846
    -.5028    -.0094    -.2846
    -.5028    -.0094    -.2846
    -.0150    -.0094    -.2846
    -.0150    -.0094    -.2846
    -.0150    -.0094    -.2846
    -.0150    -.0094    -.2846
    -.0150    -.0094    -.2846
    -.0150    -.0094    -.2846
    -.5028    -.4941    -.2846
    -.5028    -.4941    -.2846
    -.5028    -.4941    -.2846
    -.5028    -.4941    -.2846
    -.5028    -.4941     .2032
    -.5028    -.4941     .2032
    -.5028    -.4941     .2032
    -.5028    -.4941     .2032
    -.5028    -.4941     .2032
    -.5028    -.4941     .2032
    -.5028    -.4941     .2032
    -.5028    -.4941     .2032
    -.5028    -.4941     .2032
    -.5028    -.4941     .6909
    -.5028    -.4941     .6909
    -.5028    -.4941     .6909
    -.5028    -.0094     .6909
    -.5028    -.4941     .6909
    -.5028    -.4941     .6909
    -.5028    -.4941     .6909
    -.5028    -.4941     .6909
    -.5028    -.0094     .6909
    -.5028    -.4941     .6909
    -.5028    -.4941     .6909
    -.5028    -.4941     .6909
    -.5028    -.4941     .6909
    -.5028    -.0094     .6909
    -.5028    -.4941     .6909
    -.5028    -.4941     .6909
    -.5028    -.4941     .6909
    -.5028    -.4941     .6909
    -.5028    -.4941     .6909
    -.5028    -.4941     .6909
    -.5028    -.4941     .6909
    -.5028    -.4941     .6909
    -.5028    -.4941     .2032
    -.5028    -.4941     .6909
    -.9906    -.4941     .2032
    -.9906    -.4941     .2032
    -.9906    -.4941     .2032
    -.9906    -.4941     .2032
    -.9906    -.4941     .2032
    -.9906    -.4941     .2032
    -.9906    -.4941     .2032
    -.5028    -.4941     .2032
    -.5028    -.4941     .2032
    -.5028    -.4941     .2032
    -.5028    -.4941     .2032
    -.5028    -.4941     .2032
    -.5028    -.4941     .2032
    -.5028    -.4941     .2032
    -.5028    -.4941     .2032
    -.5028    -.4941     .2032
    -.5028    -.4941     .2032
    -.5028    -.4941     .2032
    -.5028    -.4941     .2032
    -.5028    -.0094     .2032
    -.5028    -.0094     .2032
    -.0150    -.0094     .2032
    -.5028    -.0094     .2032
    -.0150    -.0094     .2032
    -.0150    -.0094     .2032
    -.0150    -.0094     .2032
    -.0150    -.0094     .2032
    -.0150    -.0094     .2032
    -.0150    -.0094     .2032
    -.0150    -.0094     .2032
    -.0150    -.0094    -.2846
    -.0150    -.0094     .2032
    -.0150    -.0094     .2032
    -.0150    -.0094     .2032
    -.0150    -.0094    -.2846
    -.0150    -.0094     .2032
    -.0150    -.0094     .2032
    -.0150    -.0094     .2032
    -.0150    -.0094     .2032
    -.0150    -.0094     .2032
    -.0150    -.0094     .2032
    -.0150    -.0094     .2032
    -.0150    -.0094     .2032
    -.0150    -.0094     .2032
    -.0150    -.0094     .2032
    -.0150    -.0094     .2032
    -.0150    -.0094     .6909
    -.0150    -.0094     .6909
    -.0150    -.0094     .2032
    -.0150    -.0094     .2032
    -.0150    -.0094     .2032
    -.0150    -.0094     .6909
    -.0150    -.0094     .6909
    -.0150    -.0094     .6909
    -.0150    -.0094     .6909
    -.0150    -.0094     .6909
    -.0150    -.0094     .6909
    -.0150    -.0094     .6909
    -.0150    -.0094     .6909
    -.0150    -.0094     .6909
    -.0150    -.0094     .6909
    -.0150    -.0094     .6909
    -.0150    -.0094     .6909
    -.0150    -.0094     .6909
    -.0150    -.0094     .6909
    -.0150    -.0094    1.1787
    -.0150    -.0094    1.1787
    -.0150    -.0094    1.1787
    -.0150    -.0094    1.1787
    -.0150    -.0094    1.1787
    -.0150    -.0094    1.1787
    -.0150    -.0094    1.1787
    -.0150    -.0094    1.1787
    -.0150    -.0094    1.1787
    -.0150    -.0094    1.6665
    -.0150    -.0094    1.6665
     .4727    -.0094    1.6665
     .4727    -.0094    1.6665
    -.0150    -.0094    1.6665
     .4727    -.0094    1.6665
     .4727    -.4941    1.6665
     .4727    -.4941    1.6665
     .4727    -.0094    1.6665
     .4727    -.4941    1.6665
     .4727    -.4941    1.6665
     .4727    -.4941    1.6665
     .4727    -.4941    1.6665
     .4727    -.4941    1.6665
     .4727    -.4941    1.6665
     .4727    -.4941    1.6665
     .4727    -.4941    1.6665
     .4727    -.4941    1.6665
     .4727    -.4941    1.6665
     .4727    -.4941    1.6665
     .4727    -.4941    1.6665
     .4727    -.4941    1.6665
     .4727    -.4941    1.6665
     .4727    -.0094    1.6665
     .4727    -.4941    1.6665
     .4727    -.0094    1.6665
     .4727    -.0094    1.6665
     .4727    -.0094    1.6665
     .4727    -.0094    1.6665
     .4727    -.0094    1.6665
     .4727    -.0094    1.6665
     .4727    -.0094    1.1787
     .4727    -.0094    1.6665
     .4727    -.0094    1.6665
     .4727    -.0094    1.1787
     .4727    -.0094    1.1787
    -.0150    -.0094    1.1787
    -.0150    -.0094    1.1787
     .4727    -.0094    1.1787
    -.0150    -.0094    1.1787
    -.0150    -.0094    1.1787
    -.0150    -.0094     .6909
    -.0150    -.0094     .6909
    -.0150    -.0094     .6909
    -.0150    -.0094     .6909
    -.0150    -.0094     .6909
    -.0150    -.0094     .6909
    -.0150    -.0094     .6909
     .4727    -.0094     .6909
    -.0150    -.0094     .6909
    -.0150    -.0094     .6909
    -.0150    -.0094     .6909
    -.0150    -.0094     .6909
     .4727    -.0094     .6909
    -.0150    -.0094     .2032
     .4727    -.0094     .2032
    -.0150    -.0094     .2032
     .4727    -.0094     .2032
     .4727    -.0094     .2032
     .4727    -.0094     .2032
    -.0150    -.0094     .2032
    -.0150    -.0094     .2032
     .4727    -.0094     .2032
    -.0150    -.0094     .2032
    -.0150    -.0094     .2032
    -.0150    -.0094    -.2846
    -.0150    -.0094    -.2846
    -.0150    -.0094    -.2846
    -.0150    -.0094    -.2846
    -.0150    -.0094    -.2846
    -.0150    -.0094    -.2846
    -.0150    -.0094    -.2846
    -.0150    -.0094    -.2846
    -.0150    -.0094    -.2846
    -.0150    -.0094    -.7723
    -.0150    -.0094    -.7723
    -.0150    -.0094    -.7723
    -.0150    -.4941    -.7723
    -.0150    -.0094    -.7723
    -.0150    -.0094    -.7723
    -.0150    -.4941    -.7723
    -.0150    -.4941    -.7723
    -.0150    -.4941   -1.2601
    -.0150    -.4941   -1.2601
    -.0150    -.4941   -1.2601
    -.0150    -.4941   -1.2601
    -.0150    -.4941   -1.2601
    -.0150    -.4941   -1.2601
    -.0150    -.4941   -1.2601
     .4727    -.4941   -1.2601
    -.0150    -.4941   -1.2601
     .4727    -.4941   -1.2601
     .4727    -.4941   -1.2601
     .4727    -.4941   -1.2601
     .4727    -.4941   -1.2601
     .4727    -.4941   -1.2601
     .4727    -.4941   -1.2601
     .4727    -.4941   -1.2601
     .4727    -.4941   -1.2601
     .4727    -.4941   -1.2601
     .4727    -.4941   -1.2601
     .4727    -.4941   -1.2601
     .4727    -.4941   -1.2601
     .4727    -.4941    -.7723
     .4727    -.4941    -.7723
     .4727    -.4941    -.7723
     .4727    -.4941    -.7723
     .4727    -.4941    -.7723
     .4727    -.0094    -.7723
     .4727    -.4941    -.7723
     .4727    -.0094    -.7723
     .4727    -.0094    -.7723
     .4727    -.0094    -.7723
     .4727    -.0094    -.7723
     .4727    -.0094    -.7723
     .4727    -.0094    -.7723
     .4727    -.0094    -.7723
     .4727    -.0094    -.7723
     .4727    -.0094    -.7723
     .4727    -.0094    -.7723
     .4727    -.4941    -.7723
     .4727    -.0094    -.2846
     .4727    -.0094    -.2846
     .4727    -.0094    -.2846
    -.0150    -.0094    -.2846
    -.0150    -.0094    -.2846
    -.0150    -.0094    -.2846
    -.0150    -.0094    -.2846
    -.0150    -.0094    -.2846
    -.0150    -.4941    -.7723
    -.0150    -.0094    -.2846
    -.0150    -.0094    -.2846
    -.0150    -.0094    -.7723
    -.0150    -.0094    -.7723
    -.0150    -.0094    -.7723
    -.0150    -.0094    -.7723
    -.5028    -.0094    -.7723
    -.5028    -.0094    -.7723
    -.5028    -.0094    -.7723
    -.5028    -.0094    -.7723
    -.5028    -.0094    -.7723
    -.5028    -.0094    -.7723
    -.5028    -.0094    -.7723
    -.5028    -.0094    -.7723
