********************************************************************************
           RED INTERUNIVERSITARIA DE INSTRUMENTACION SISIMICA (RIIS)
 AREA DE ESTRUCTURAS, UNIVERSIDAD AUTONOMA METROPOLITANA - UNIDAD AZCAPOTZALCO
         AV. SAN PABLO 180; COL. REYNOSA TAMAULIPAS; MEXICO D.F. 02200.
       TELS: 53189455; FAX: 53189085; e-mail: agb@azc.uam.mx
********************************************************************************
ARCHIVO ESTANDAR DE ACELERACION:
VERSION DEL FORMATO                    : 2.0
NOMBRE DEL ARCHIVO                     : RIDX0201.161
FECHA Y HORA DE CREACION               : ENERO, 2003
REF. CATALOGO ACELEROGRAMAS, SMIS 1996 : 


================================================================================
DATOS DE LA ESTACION:
NOMBRE DE LA ESTACION                  : UAM XOCHIMILCO
CLAVE DE LA ESTACION                   : RIDX
LOCALIZACION DE LA ESTACION            : CALZADA DEL HUESO 1100, COLONIA VILLA
                                       : QUIETUD, PLANTEL XOCHIMILCO, FRENTE A
                                       : LA BIBLIOTECA, MEXICO, D.F.
                                       :
                                       :
COORDENADAS DE LA ESTACION             : 19.310 LAT. N 
                                       : 99.100 LONG. W 
ALTITUD (msnm)                         : 2235
TIPO DE SUELO                          : LIMOS Y ARENAS ARCILLOSAS
                                       : 
                                       : 
INSTITUCION RESPONSABLE                : RED INTERUNIVERSITARIA DE
                                       : INSTRUMENTACION SISMICA (RIIS)

================================================================================
DATOS DEL ACELEROGRAFO:
MODELO DEL ACELEROGRAFO                : SSA-2
NUMERO DE SERIE DEL ACELEROGRAFO       : 1320
NUMERO DE CANALES                      : 3
ORIENTACION C1-C6 (rumbo;orientacion)  : /N-S/VERT/E-O
ORIENTACION C7-C12 (rumbo;orientacion) :
VEL. DE MUESTREO, C1-C6 (muestras/s)   : /200/200/200
VEL. DE MUESTREO, C7-C12 (muestras/s)  :
ESC. COMPLETA DE SENSORES, C1-C6, (g)  : /1.0/1.0/1.0
ESC. COMPLETA DE SENSORES, C7-C12, (g) :
FREC. NAT. DE SENSORES, C1-C6, (Hz)    : /51.7/54.4/51.5
FREC. NAT. DE SENSORES, C7-C12, (Hz)   :
AMORTIGUAMIENTO DE SENSORES, C1-C6     : /0.64/0.65/0.64
AMORTIGUAMIENTO DE SENSORES, C7-C12    :
INTERVALO DE MUESTREO, C1-C6, (s)      : /0.005/0.005/0.005
INTERVALO DE MUESTREO, C7-C12, (s)     :
UMBRAL DE DISPARO, C1-C6, (Gal)        : /1/1/1
UMBRAL DE DISPARO, C7-C12, (Gal)       :
MEMORIA DE PREEVENTO (s)               : 15
TIEMPO DE POSEVENTO (s)                : 30 


================================================================================
DATOS DEL SISMO:
FECHA DEL SISMO (GMT)                  : 16/ENE/02                        
HORA EPICENTRO (GMT)                   : 23:14:00                       
MAGNITUD(ES)                           : /Mc=5.80                         
COORDENADAS DEL EPICENTRO              : 15.55 LAT. N                    
                                       : 93.61 LONG. W                  
PROFUNDIDAD FOCAL (km)                 : 35                               
FUENTES DE LOS DATOS EPICENTRALES      : SSN                              
                                       : INSTITUTO DE GEOFISICA, UNAM     

================================================================================
DATOS DE ESTE REGISTRO:
HORA DE LA PRIMERA MUESTRA (GMT)       : 23:14:00.00             
EXACTITUD DEL TIEMPO (s)               :                         
DURACION DEL REGISTRO (s), C1-C6       : /47.36/47.36/47.36          
DURACION DEL REGISTRO (s), C7-C12      :                             
NUM. TOTAL DE MUESTRAS, C1-C6          : /9472/9472/9472             
NUM. TOTAL DE MUESTRAS, C7-C12         :                             
ACEL. MAX.(Gal), C1-C6                 : /-4.48/-1.26/3.74           
ACEL. MAX., C1-C6, EN LA MUESTRA       : /6770/2155/3088             
ACEL. MAX.(Gal), C7-C12                :                         
ACEL. MAX., C7-C12, EN LA MUESTRA      :                         
UNIDADES DE LOS DATOS                  : Gal                     
FACTOR DE DECIMACION                   : 1                       
FORMATO DATOS (FORTRAN,10 campos/dato) : 3F10.4                  


================================================================================
CALIDAD DEL ACELEROGRAMA:
REGISTRO DIGITAL COMPLETO, CARECE DE TIEMPO ABSOLUTO.


================================================================================
COMENTARIOS:
CADA UNO DE LOS CANALES SE ENCUENTRA AJUSTADO POR LINEA BASE MEDIANTE LA
SUSTRACCION DEL PROMEDIO DE LAS ACELERACIONES EN EL TIEMPO.











MODELO DEL ACELEROGRAFO : SSA-2 (KINEMETRICS)
================================================================================
DATOS DE ACELERACION:
---------+---------+---------+---------+---------+---------+---------+---------+
   CANAL-1   CANAL-2   CANAL-3   CANAL-4   CANAL-5   CANAL-6   CANAL-7   CANAL-8
      N00E        +V      N90E
---------+---------+---------+---------+---------+---------+---------+---------+
[...]
    -.0719    -.7730   -2.1333
     .4186    -.7730   -2.1333
     .4186    -.7730   -2.1333
     .4186    -.7730   -2.1333
     .4186    -.7730   -2.1333
     .4186    -.7730   -2.1333
     .4186    -.7730   -2.1333
     .4186    -.7730   -2.1333
     .4186    -.7730   -2.1333
     .4186    -.7730   -2.1333
     .4186    -.7730   -2.6233
     .4186    -.7730   -2.1333
     .4186    -.7730   -2.1333
     .4186    -.7730   -2.1333
     .4186    -.7730   -2.1333
     .4186    -.7730   -2.1333
     .4186    -.7730   -2.1333
    -.0719    -.7730   -2.1333
     .4186    -.7730   -2.1333
     .4186    -.7730   -2.1333
    -.0719    -.7730   -2.1333
     .4186    -.7730   -2.1333
    -.0719    -.7730   -2.1333
     .4186    -.7730   -2.1333
     .4186    -.7730   -2.1333
     .4186    -.7730   -2.1333
     .4186    -.7730   -2.1333
     .4186    -.7730   -2.1333
     .4186    -.7730   -2.1333
     .4186    -.7730   -2.1333
     .4186    -.7730   -2.1333
     .4186    -.7730   -2.1333
     .4186    -.2833   -2.1333
     .4186    -.7730   -2.1333
     .4186    -.2833   -2.1333
     .4186    -.2833   -2.1333
    -.0719    -.2833   -2.1333
     .4186    -.2833   -2.1333
    -.0719    -.2833   -2.1333
    -.0719    -.2833   -1.6430
    -.0719    -.2833   -1.6430
    -.0719    -.2833   -1.6430
    -.0719    -.2833   -1.6430
    -.0719    -.2833   -1.6430
    -.0719    -.2833   -1.6430
    -.0719    -.2833   -1.6430
    -.0719    -.2833   -1.6430
    -.0719    -.2833   -1.6430
    -.0719    -.2833   -1.6430
    -.0719    -.2833   -1.6430
    -.0719    -.2833   -1.6430
    -.0719    -.2833   -1.6430
    -.0719    -.2833   -1.6430
    -.0719     .2063   -1.1528
    -.0719     .2063   -1.1528
    -.0719     .2063   -1.1528
    -.0719     .2063   -1.1528
    -.0719     .2063   -1.1528
    -.0719     .2063   -1.1528
    -.0719     .2063   -1.1528
    -.0719     .2063   -1.1528
    -.0719     .2063   -1.1528
    -.0719     .2063   -1.1528
    -.0719     .2063   -1.1528
    -.0719     .2063   -1.1528
    -.0719     .2063   -1.1528
    -.0719     .2063   -1.1528
    -.0719     .2063    -.6625
    -.5624     .2063   -1.1528
    -.5624     .2063   -1.1528
    -.5624     .2063    -.6625
    -.5624     .2063    -.6625
    -.5624     .2063    -.6625
    -.5624     .6959    -.6625
    -.5624     .6959    -.6625
    -.5624     .6959    -.6625
    -.5624     .6959    -.6625
   -1.0530     .6959    -.6625
   -1.0530     .6959    -.6625
   -1.0530     .6959    -.6625
   -1.0530     .6959    -.6625
   -1.0530     .6959    -.6625
   -1.0530     .6959    -.6625
   -1.0530     .6959    -.6625
   -1.0530     .6959    -.6625
   -1.0530     .6959    -.6625
   -1.0530     .6959    -.6625
   -1.0530     .6959    -.6625
   -1.0530     .6959    -.6625
   -1.0530     .6959    -.6625
   -1.5435     .6959    -.6625
   -1.5435     .6959    -.6625
   -1.5435     .6959    -.6625
   -1.5435     .6959    -.6625
   -1.5435     .6959    -.6625
   -1.5435     .6959    -.6625
   -1.5435     .6959    -.6625
   -1.5435     .6959    -.6625
   -1.5435     .6959    -.6625
   -1.5435     .6959    -.6625
   -1.5435     .6959    -.6625
   -1.5435     .6959    -.6625
   -1.5435     .6959    -.6625
   -2.0340     .6959    -.6625
   -2.0340    1.1855    -.6625
   -2.0340     .6959    -.6625
   -2.0340    1.1855    -.6625
   -2.0340    1.1855    -.6625
   -2.0340    1.1855    -.6625
   -2.0340    1.1855    -.6625
   -2.0340    1.1855    -.6625
   -2.0340    1.1855    -.6625
   -2.0340    1.1855    -.6625
   -2.0340    1.1855    -.6625
   -2.0340    1.1855    -.6625
   -2.0340    1.1855    -.6625
   -2.0340    1.1855    -.1723
   -2.0340    1.1855    -.6625
   -2.0340    1.1855    -.6625
   -2.0340    1.1855    -.1723
   -2.0340    1.1855    -.6625
   -2.5245    1.1855    -.1723
   -2.5245    1.1855    -.1723
   -2.5245    1.1855    -.1723
   -2.5245    1.1855    -.1723
   -2.5245    1.1855    -.1723
   -2.5245    1.1855    -.1723
   -2.5245    1.1855    -.1723
   -2.5245    1.1855    -.1723
   -2.5245    1.1855    -.1723
   -2.5245    1.1855    -.1723
   -2.5245    1.1855    -.1723
   -2.5245    1.1855    -.1723
   -2.5245    1.1855    -.1723
   -2.5245    1.1855    -.1723
   -2.5245    1.1855    -.1723
   -2.5245    1.1855    -.1723
   -2.5245    1.1855    -.1723
   -2.5245    1.1855    -.1723
   -2.5245    1.1855    -.1723
   -2.5245    1.1855    -.1723
   -2.5245    1.1855    -.1723
   -2.5245     .6959    -.1723
   -2.5245    1.1855    -.1723
   -2.5245    1.1855    -.1723
   -2.5245    1.1855    -.1723
   -2.5245    1.1855    -.1723
   -2.5245    1.1855     .3180
   -2.5245     .6959     .3180
   -2.5245    1.1855     .3180
   -2.5245     .6959     .3180
   -2.5245     .6959     .3180
   -2.5245     .6959     .3180
   -2.5245     .6959     .3180
   -2.5245     .6959     .3180
   -2.5245     .6959     .3180
   -2.5245     .6959     .3180
   -2.5245     .6959     .3180
   -2.5245     .6959     .3180
   -2.5245     .6959     .3180
   -2.5245     .6959     .3180
   -2.5245     .6959     .3180
   -2.5245     .6959     .3180
   -2.5245     .6959     .3180
   -2.5245     .6959     .3180
   -2.5245     .6959     .3180
   -2.5245     .6959     .8082
   -2.5245     .6959     .3180
   -2.5245     .2063     .3180
   -2.5245     .2063     .3180
   -2.5245     .2063     .3180
   -2.5245     .2063     .3180
   -2.5245     .2063     .3180
   -2.5245     .2063     .3180
   -2.5245     .2063     .3180
   -2.5245     .2063     .3180
   -2.5245     .2063     .8082
   -2.5245     .2063     .8082
   -2.5245     .2063     .8082
   -2.5245     .2063     .8082
   -2.5245     .2063     .8082
   -2.5245    -.2833     .8082
   -2.5245    -.2833     .8082
   -2.5245    -.2833     .8082
   -2.5245    -.2833     .8082
   -2.5245    -.2833     .8082
   -2.5245    -.2833     .8082
   -2.5245    -.2833     .8082
   -2.5245    -.2833     .8082
   -2.5245     .2063     .8082
   -2.5245    -.2833     .8082
   -2.5245    -.2833     .8082
   -2.5245    -.2833    1.2985
   -2.5245    -.2833    1.2985
   -2.5245    -.2833    1.2985
   -2.5245    -.2833    1.2985
   -2.5245    -.2833    1.2985
   -2.5245    -.2833    1.2985
   -2.5245    -.2833    1.2985
   -2.5245    -.2833    1.2985
   -2.0340    -.2833    1.2985
   -2.0340    -.2833    1.2985
   -2.0340    -.2833    1.2985
   -2.0340    -.2833    1.2985
   -2.0340    -.2833    1.2985
   -2.0340    -.2833    1.2985
   -2.0340    -.2833    1.2985
   -2.0340    -.2833    1.2985
   -2.0340    -.2833    1.2985
   -2.0340    -.2833    1.2985
   -2.0340    -.2833    1.2985
   -2.0340    -.2833    1.2985
   -2.0340    -.2833    1.2985
   -2.0340    -.2833    1.2985
   -2.0340    -.2833    1.2985
   -2.0340    -.2833    1.2985
   -2.0340    -.7730    1.2985
   -2.0340    -.2833    1.7887
   -2.0340    -.2833    1.7887
   -2.0340    -.2833    1.7887
   -2.0340    -.7730    1.7887
   -2.0340    -.7730    1.7887
   -2.0340    -.7730    1.7887
   -2.0340    -.7730    1.7887
   -2.0340    -.7730    1.7887
   -2.0340    -.7730    1.7887
   -2.0340    -.7730    1.7887
   -2.0340    -.7730    1.7887
   -1.5435    -.7730    1.7887
   -1.5435    -.7730    1.7887
   -1.5435    -.7730    1.7887
   -1.5435    -.7730    1.7887
   -1.5435    -.7730    1.7887
   -1.5435    -.7730    1.7887
   -1.5435    -.7730    1.7887
   -1.5435    -.7730    1.7887
   -1.5435    -.7730    1.7887
   -1.5435    -.7730    1.7887
   -1.5435    -.7730    1.7887
   -1.5435    -.7730    1.7887
   -1.5435    -.7730    1.7887
   -1.5435    -.7730    1.7887
   -1.5435    -.7730    1.7887
   -1.5435    -.7730    1.7887
   -1.0530    -.7730    1.7887
   -1.0530    -.7730    1.7887
   -1.0530    -.7730    1.7887
   -1.0530    -.2833    1.7887
   -1.0530    -.2833    2.2790
   -1.0530    -.2833    2.2790
   -1.0530    -.2833    2.2790
    -.5624    -.2833    2.2790
    -.5624    -.2833    2.2790
    -.5624    -.2833    2.2790
    -.5624    -.2833    2.2790
    -.5624    -.2833    2.2790
    -.5624    -.2833    2.2790
    -.5624    -.2833    2.2790
    -.5624    -.2833    2.2790
    -.0719    -.2833    2.2790
    -.0719    -.2833    2.2790
    -.0719    -.2833    2.2790
    -.0719    -.2833    1.7887
    -.0719    -.2833    1.7887
    -.0719    -.2833    1.7887
    -.0719    -.2833    1.7887
    -.0719    -.2833    1.7887
    -.0719    -.2833    1.7887
    -.0719    -.2833    1.7887
     .4186    -.2833    1.7887
     .4186    -.2833    1.7887
     .4186    -.2833    1.7887
     .4186    -.2833    1.7887
     .4186    -.2833    1.7887
     .9091    -.2833    1.7887
     .4186    -.2833    1.7887
     .9091    -.2833    1.7887
     .9091    -.2833    1.7887
     .9091    -.2833    1.7887
     .9091    -.2833    1.2985
     .9091    -.2833    1.2985
     .9091    -.2833    1.2985
     .9091    -.2833    1.2985
    1.3996    -.2833    1.2985
    1.3996    -.2833    1.2985
    1.3996    -.2833    1.2985
    1.3996    -.2833    1.2985
    1.3996    -.2833    1.2985
    1.3996    -.2833    1.2985
    1.8901    -.2833    1.2985
    1.8901    -.2833    1.2985
    1.8901    -.2833    1.2985
    1.8901    -.2833    1.2985
    1.8901    -.7730    1.2985
    1.8901    -.2833    1.2985
    1.8901    -.2833    1.2985
    2.3806    -.2833    1.2985
    2.3806    -.2833     .8082
    2.3806    -.2833    1.2985
    2.3806    -.2833     .8082
    2.3806    -.2833     .8082
    2.3806    -.2833     .8082
    2.3806    -.2833     .8082
    2.8711    -.2833     .8082
    2.8711    -.2833     .8082
    2.8711    -.2833     .8082
    2.8711    -.2833     .8082
    2.8711    -.2833     .8082
    2.8711    -.2833     .8082
    2.8711    -.2833     .8082
    3.3616    -.2833     .8082
    2.8711    -.2833     .3180
    3.3616    -.2833     .3180
    3.3616    -.2833     .3180
    3.3616    -.2833     .3180
    3.3616    -.2833     .3180
    3.3616    -.2833     .3180
    3.3616    -.2833     .3180
    3.3616    -.2833     .3180
    3.3616    -.2833     .3180
    3.3616    -.2833     .3180
    3.8521    -.2833     .3180
    3.8521    -.2833     .3180
    3.8521    -.2833     .3180
    3.8521    -.2833     .3180
    3.8521    -.2833     .3180
    3.8521    -.2833     .3180
    3.8521    -.2833    -.1723
    3.8521    -.2833    -.1723
    3.8521    -.2833    -.1723
    3.8521    -.2833    -.1723
    3.8521    -.2833    -.1723
    3.8521    -.2833    -.1723
    3.8521    -.2833    -.1723
    4.3426    -.2833    -.1723
    4.3426    -.2833    -.1723
    4.3426    -.2833    -.1723
    4.3426    -.2833    -.1723
    4.3426    -.2833    -.1723
    4.3426    -.2833    -.6625
    4.3426    -.2833    -.6625
    4.3426    -.2833    -.6625
    4.3426    -.2833    -.6625
    4.3426    -.2833    -.6625
    4.3426    -.2833    -.6625
    4.3426    -.2833    -.6625
    4.3426    -.2833    -.6625
    4.3426    -.2833    -.6625
    4.3426    -.2833    -.6625
    4.3426    -.2833    -.6625
    4.3426    -.2833    -.6625
    4.3426    -.2833    -.6625
    4.3426    -.2833    -.6625
    4.3426    -.7730    -.6625
    4.3426    -.7730    -.6625
    4.3426    -.7730   -1.1528
    4.3426    -.2833    -.6625
    4.3426    -.2833   -1.1528
    4.3426    -.2833    -.6625
    4.3426    -.2833   -1.1528
    4.3426    -.2833   -1.1528
    4.3426    -.7730   -1.1528
    4.3426    -.7730   -1.1528
    4.3426    -.7730   -1.1528
    4.3426    -.7730   -1.1528
    4.3426    -.7730   -1.6430
    4.3426    -.7730   -1.6430
    4.3426    -.7730   -1.6430
    4.3426    -.7730   -1.6430
    4.3426    -.7730   -1.1528
    3.8521    -.7730   -1.6430
    4.3426    -.7730   -1.6430
    3.8521    -.7730   -1.6430
    3.8521    -.7730   -1.6430
    4.3426    -.7730   -1.6430
    3.8521    -.7730   -1.6430
    3.8521    -.7730   -1.6430
    3.8521    -.7730   -1.6430
    3.8521    -.7730   -1.6430
    3.8521    -.7730   -1.6430
    3.8521    -.7730   -1.6430
    3.8521    -.7730   -1.6430
    3.8521    -.7730   -1.6430
    3.8521    -.7730   -1.6430
    3.8521    -.7730   -1.6430
    3.8521    -.7730   -1.1528
    3.8521    -.7730   -1.6430
    3.8521    -.7730   -1.6430
    3.8521    -.7730   -1.6430
    3.8521    -.7730   -1.1528
    3.3616    -.7730   -1.1528
    3.3616    -.7730   -1.1528
    3.3616    -.7730   -1.1528
    3.3616    -.7730   -1.1528
    3.3616    -.7730   -1.1528
    3.3616    -.7730   -1.1528
    3.3616    -.7730   -1.1528
    3.3616    -.7730   -1.1528
    3.3616    -.2833   -1.1528
    3.3616    -.2833   -1.1528
    2.8711    -.2833   -1.1528
    2.8711    -.2833   -1.1528
    2.8711    -.2833   -1.1528
    2.8711    -.2833   -1.1528
    2.8711    -.2833   -1.1528
    2.8711    -.2833   -1.1528
    2.8711    -.2833   -1.1528
    2.8711    -.2833   -1.1528
    2.8711    -.2833   -1.1528
    2.8711    -.2833   -1.1528
    2.8711    -.2833   -1.1528
    2.8711    -.2833   -1.1528
    2.3806    -.2833   -1.1528
    2.3806    -.2833   -1.1528
    2.3806    -.2833   -1.1528
    2.3806    -.2833   -1.1528
    2.3806    -.2833   -1.1528
    2.3806    -.2833   -1.1528
    2.3806    -.2833    -.6625
    2.3806    -.2833    -.6625
    1.8901    -.2833   -1.1528
    1.8901    -.2833    -.6625
    1.8901    -.2833    -.6625
    1.8901    -.2833    -.6625
    1.8901    -.2833    -.6625
    1.8901    -.2833    -.6625
    1.3996    -.2833    -.6625
    1.3996    -.2833    -.6625
    1.3996    -.2833    -.6625
    1.3996    -.2833    -.6625
    1.3996    -.2833    -.6625
    1.3996    -.2833    -.6625
    1.3996    -.2833    -.6625
     .9091    -.2833    -.6625
    1.3996    -.2833    -.6625
     .9091     .2063    -.6625
     .9091     .2063    -.6625
     .9091     .2063    -.6625
     .4186    -.2833    -.6625
     .9091     .2063    -.1723
     .9091     .2063    -.1723
     .9091     .2063    -.1723
     .9091     .2063    -.1723
     .9091     .2063    -.1723
     .9091     .2063     .3180
     .9091     .2063     .3180
     .4186     .2063     .3180
     .4186     .2063     .3180
     .4186     .2063     .3180
     .4186     .2063     .3180
     .4186     .2063     .3180
     .4186     .2063     .3180
    -.0719     .2063     .3180
    -.0719     .6959     .3180
    -.0719     .6959     .3180
    -.0719     .2063     .3180
    -.0719     .6959     .3180
    -.0719     .2063     .3180
    -.5624     .6959     .3180
    -.5624     .6959     .3180
    -.5624     .6959     .3180
    -.5624     .6959     .3180
    -.5624     .6959     .3180
    -.5624     .6959     .3180
    -.5624     .6959     .3180
   -1.0530     .6959     .3180
   -1.0530     .6959     .3180
   -1.0530     .6959     .3180
   -1.0530     .6959     .3180
   -1.0530     .6959     .3180
   -1.0530     .6959     .3180
   -1.0530     .6959     .8082
   -1.0530     .6959     .3180
   -1.0530     .6959     .8082
   -1.0530     .6959     .8082
   -1.5435     .6959     .8082
   -1.5435     .6959     .8082
   -1.5435     .6959     .8082
