********************************************************************************
           RED INTERUNIVERSITARIA DE INSTRUMENTACION SISIMICA (RIIS)
 AREA DE ESTRUCTURAS, UNIVERSIDAD AUTONOMA METROPOLITANA - UNIDAD AZCAPOTZALCO
         AV. SAN PABLO 180; COL. REYNOSA TAMAULIPAS; MEXICO D.F. 02200.
       TELS: 53189455; FAX: 53189085; e-mail: agb@azc.uam.mx
********************************************************************************
ARCHIVO ESTANDAR DE ACELERACION:
VERSION DEL FORMATO                    : 2.0
NOMBRE DEL ARCHIVO                     : RIDX0204.181
FECHA Y HORA DE CREACION               : ENERO, 2003
REF. CATALOGO ACELEROGRAMAS, SMIS 1996 : 


================================================================================
DATOS DE LA ESTACION:
NOMBRE DE LA ESTACION                  : UAM XOCHIMILCO
CLAVE DE LA ESTACION                   : RIDX
LOCALIZACION DE LA ESTACION            : CALZADA DEL HUESO 1100, COLONIA VILLA
                                       : QUIETUD, PLANTEL XOCHIMILCO, FRENTE A
                                       : LA BIBLIOTECA, MEXICO, D.F.
                                       :
                                       :
COORDENADAS DE LA ESTACION             : 19.310 LAT. N 
                                       : 99.100 LONG. W 
ALTITUD (msnm)                         : 2235
TIPO DE SUELO                          : LIMOS Y ARENAS ARCILLOSAS
                                       : 
                                       : 
INSTITUCION RESPONSABLE                : RED INTERUNIVERSITARIA DE
                                       : INSTRUMENTACION SISMICA (RIIS)

================================================================================
DATOS DEL ACELEROGRAFO:
MODELO DEL ACELEROGRAFO                : SSA-2
NUMERO DE SERIE DEL ACELEROGRAFO       : 1320
NUMERO DE CANALES                      : 3
ORIENTACION C1-C6 (rumbo;orientacion)  : /N-S/VERT/E-O
ORIENTACION C7-C12 (rumbo;orientacion) :
VEL. DE MUESTREO, C1-C6 (muestras/s)   : /200/200/200
VEL. DE MUESTREO, C7-C12 (muestras/s)  :
ESC. COMPLETA DE SENSORES, C1-C6, (g)  : /1.0/1.0/1.0
ESC. COMPLETA DE SENSORES, C7-C12, (g) :
FREC. NAT. DE SENSORES, C1-C6, (Hz)    : /51.7/54.4/51.5
FREC. NAT. DE SENSORES, C7-C12, (Hz)   :
AMORTIGUAMIENTO DE SENSORES, C1-C6     : /0.64/0.65/0.64
AMORTIGUAMIENTO DE SENSORES, C7-C12    :
INTERVALO DE MUESTREO, C1-C6, (s)      : /0.005/0.005/0.005
INTERVALO DE MUESTREO, C7-C12, (s)     :
UMBRAL DE DISPARO, C1-C6, (Gal)        : /1/1/1
UMBRAL DE DISPARO, C7-C12, (Gal)       :
MEMORIA DE PREEVENTO (s)               : 15
TIEMPO DE POSEVENTO (s)                : 30 


================================================================================
DATOS DEL SISMO:
FECHA DEL SISMO (GMT)                  : 18/ABR/02                        
HORA EPICENTRO (GMT)                   : 05:02:00                       
MAGNITUD(ES)                           : /Mw=6.30                         
COORDENADAS DEL EPICENTRO              : 16.42 LAT. N                    
                                       : 101.10 LONG. W                  
PROFUNDIDAD FOCAL (km)                 : 15                               
FUENTES DE LOS DATOS EPICENTRALES      : SSN                              
                                       : INSTITUTO DE GEOFISICA, UNAM     

================================================================================
DATOS DE ESTE REGISTRO:
HORA DE LA PRIMERA MUESTRA (GMT)       : 05:02:00.00             
EXACTITUD DEL TIEMPO (s)               :                         
DURACION DEL REGISTRO (s), C1-C6       : /151.04/151.04/151.04           
DURACION DEL REGISTRO (s), C7-C12      :                                 
NUM. TOTAL DE MUESTRAS, C1-C6          : /30208/30208/30208              
NUM. TOTAL DE MUESTRAS, C7-C12         :                                 
ACEL. MAX.(Gal), C1-C6                 : /-7.00/-1.49/3.74               
ACEL. MAX., C1-C6, EN LA MUESTRA       : /20161/16558/20857              
ACEL. MAX.(Gal), C7-C12                :                         
ACEL. MAX., C7-C12, EN LA MUESTRA      :                         
UNIDADES DE LOS DATOS                  : Gal                     
FACTOR DE DECIMACION                   : 1                       
FORMATO DATOS (FORTRAN,10 campos/dato) : 3F10.4                  


================================================================================
CALIDAD DEL ACELEROGRAMA:
REGISTRO DIGITAL COMPLETO, CARECE DE TIEMPO ABSOLUTO.


================================================================================
COMENTARIOS:
CADA UNO DE LOS CANALES SE ENCUENTRA AJUSTADO POR LINEA BASE MEDIANTE LA
SUSTRACCION DEL PROMEDIO DE LAS ACELERACIONES EN EL TIEMPO.











MODELO DEL ACELEROGRAFO : SSA-2 (KINEMETRICS)
================================================================================
DATOS DE ACELERACION:
---------+---------+---------+---------+---------+---------+---------+---------+
   CANAL-1   CANAL-2   CANAL-3   CANAL-4   CANAL-5   CANAL-6   CANAL-7   CANAL-8
      N00E        +V      N90E
---------+---------+---------+---------+---------+---------+---------+---------+
[...]
    3.7826    -.0272    2.2778
    3.7826    -.0272    1.7875
    3.7826    -.0272    1.7875
    4.2731    -.0272    1.7875
    4.2731    -.0272    1.7875
    4.2731    -.0272    1.7875
    4.2731    -.0272    1.7875
    4.2731    -.0272    1.7875
    4.2731    -.0272    1.7875
    4.2731    -.0272    1.7875
    4.2731    -.0272    1.7875
    4.2731    -.0272    1.7875
    4.2731    -.0272    1.2973
    4.2731    -.0272    1.2973
    4.2731    -.0272    1.2973
    4.2731    -.0272    1.2973
    4.2731    -.0272    1.2973
    4.2731    -.0272    1.2973
    4.2731    -.0272    1.2973
    4.2731    -.0272    1.2973
    4.2731    -.0272    1.2973
    4.7636    -.0272    1.2973
    4.7636    -.0272     .8070
    4.7636    -.0272    1.2973
    4.7636    -.0272    1.2973
    4.7636    -.0272    1.2973
    5.2541    -.0272    1.2973
    4.7636    -.0272    1.2973
    4.7636    -.0272    1.2973
    5.2541    -.0272    1.2973
    4.7636    -.0272     .8070
    4.7636    -.0272     .8070
    4.7636    -.0272     .8070
    5.2541    -.0272     .8070
    5.2541    -.0272     .8070
    5.2541    -.0272     .8070
    4.7636    -.0272     .3167
    4.7636    -.0272     .8070
    5.2541    -.0272     .3167
    5.2541    -.0272     .3167
    4.7636    -.0272     .3167
    4.7636    -.0272     .3167
    4.7636    -.0272     .3167
    4.7636    -.0272     .3167
    4.7636    -.0272     .3167
    4.7636    -.0272     .3167
    4.7636    -.0272     .3167
    4.7636    -.0272     .3167
    4.7636    -.0272    -.1735
    4.7636    -.0272    -.1735
    4.7636    -.0272    -.1735
    4.7636    -.0272    -.1735
    4.7636    -.0272    -.1735
    4.7636    -.0272    -.1735
    4.7636    -.0272    -.1735
    4.7636    -.0272    -.1735
    4.7636    -.0272    -.1735
    4.7636    -.0272    -.6637
    4.7636    -.5167    -.6637
    4.7636    -.5167    -.6637
    4.7636    -.5167    -.6637
    4.7636    -.5167    -.6637
    4.7636    -.5167    -.6637
    4.7636    -.5167    -.6637
    4.7636    -.5167    -.6637
    4.7636    -.5167    -.6637
    4.7636    -.5167    -.6637
    4.2731    -.5167    -.6637
    4.2731    -.5167   -1.1540
    4.2731    -.5167    -.6637
    4.2731    -.5167   -1.1540
    4.2731    -.5167   -1.1540
    4.2731    -.5167   -1.1540
    4.2731    -.5167   -1.1540
    4.2731    -.5167   -1.1540
    4.2731    -.5167   -1.1540
    4.2731    -.5167   -1.1540
    4.2731    -.5167   -1.1540
    4.2731    -.5167   -1.1540
    4.2731    -.5167   -1.1540
    4.2731    -.5167   -1.1540
    4.2731    -.5167   -1.1540
    4.2731    -.5167   -1.6443
    4.2731    -.5167   -1.6443
    4.2731    -.5167   -1.1540
    4.2731    -.5167   -1.6443
    4.2731    -.5167   -1.6443
    3.7826    -.5167   -1.6443
    4.2731    -.5167   -1.6443
    3.7826    -.5167   -1.6443
    3.7826    -.5167   -1.6443
    3.7826    -.5167   -1.6443
    3.7826    -.5167   -1.6443
    3.7826    -.5167   -1.6443
    3.7826    -.5167   -1.6443
    3.7826    -.5167   -1.6443
    3.7826    -.5167   -1.6443
    3.7826    -.5167   -1.6443
    3.7826    -.5167   -1.6443
    3.7826    -.5167   -1.6443
    3.7826    -.5167   -1.6443
    3.7826    -.5167   -1.6443
    3.2921    -.5167   -1.6443
    3.2921    -.5167   -1.6443
    3.2921    -.5167   -1.6443
    3.2921    -.5167   -1.6443
    3.2921    -.5167   -1.6443
    3.2921    -.5167   -1.6443
    3.2921    -.5167   -1.6443
    3.2921    -.5167   -1.6443
    3.2921    -.5167   -1.6443
    3.2921    -.5167   -1.6443
    3.2921    -.5167   -1.6443
    3.2921    -.5167   -1.6443
    3.2921    -.5167   -1.6443
    3.2921    -.5167   -1.6443
    3.2921    -.5167   -1.6443
    3.2921    -.5167   -1.6443
    3.2921    -.5167   -1.6443
    3.2921    -.5167   -1.6443
    3.2921    -.5167   -1.6443
    2.8016    -.5167   -1.6443
    2.8016    -.5167   -1.6443
    3.2921    -.5167   -1.6443
    2.8016    -.5167   -1.6443
    2.8016    -.5167   -1.6443
    2.8016    -.5167   -1.6443
    2.8016    -.5167   -1.6443
    2.8016    -.0272   -1.6443
    2.8016    -.0272   -1.1540
    2.8016    -.5167   -1.6443
    2.8016    -.5167   -1.6443
    2.8016    -.5167   -1.6443
    2.8016    -.5167   -1.6443
    2.8016    -.5167   -1.6443
    2.8016    -.5167   -1.6443
    2.8016    -.0272   -1.6443
    2.8016    -.5167   -1.6443
    2.3111    -.5167   -1.6443
    2.3111    -.5167   -1.6443
    2.3111    -.5167   -2.1345
    2.3111    -.5167   -2.1345
    2.3111    -.5167   -2.1345
    2.3111    -.5167   -2.1345
    1.8206    -.5167   -2.1345
    1.8206    -.5167   -2.1345
    2.3111    -.5167   -2.1345
    1.8206    -.5167   -2.1345
    1.8206    -.5167   -2.1345
    1.8206    -.5167   -2.1345
    1.8206    -.5167   -2.1345
    1.8206    -.5167   -2.1345
    1.8206    -.5167   -2.1345
    1.8206    -.5167   -2.1345
    1.8206    -.5167   -2.1345
    1.8206    -.0272   -2.1345
    1.8206    -.0272   -2.1345
    1.8206    -.0272   -2.1345
    1.8206    -.0272   -2.6245
    1.8206    -.0272   -2.1345
    1.3301    -.0272   -2.6245
    1.3301    -.0272   -2.6245
    1.3301    -.0272   -2.6245
    1.3301    -.0272   -2.6245
    1.3301    -.0272   -2.6245
    1.3301    -.0272   -2.6245
    1.3301    -.0272   -2.6245
    1.3301    -.0272   -2.6245
    1.3301    -.0272   -2.6245
    1.3301    -.0272   -2.6245
    1.3301    -.0272   -2.6245
    1.3301    -.0272   -2.6245
     .8396    -.0272   -2.6245
    1.3301    -.0272   -2.6245
     .8396    -.0272   -2.6245
     .8396    -.0272   -2.6245
     .8396    -.0272   -2.6245
     .8396    -.0272   -3.1145
     .8396    -.0272   -3.1145
     .8396    -.0272   -3.1145
     .8396    -.0272   -3.1145
     .8396    -.0272   -3.1145
     .8396    -.0272   -3.1145
     .8396    -.0272   -3.1145
     .3491    -.0272   -3.1145
     .3491    -.0272   -3.1145
     .3491    -.0272   -3.1145
     .3491    -.0272   -3.1145
     .3491    -.0272   -3.1145
     .3491    -.0272   -3.1145
     .3491    -.0272   -3.1145
     .3491    -.0272   -3.1145
     .3491    -.0272   -3.1145
     .3491    -.0272   -3.1145
    -.1414    -.0272   -3.1145
    -.1414    -.0272   -3.1145
    -.1414    -.0272   -3.1145
    -.1414    -.0272   -3.1145
    -.1414    -.0272   -3.1145
    -.1414    -.0272   -3.1145
    -.6319    -.0272   -3.6045
    -.6319    -.0272   -3.1145
    -.6319    -.0272   -3.6045
    -.6319    -.0272   -3.1145
    -.6319    -.0272   -3.6045
    -.6319    -.0272   -3.1145
    -.6319    -.0272   -3.1145
   -1.1224    -.0272   -3.1145
   -1.1224    -.0272   -3.1145
   -1.1224    -.0272   -3.1145
   -1.1224    -.0272   -3.6045
   -1.1224    -.0272   -3.1145
   -1.1224    -.0272   -3.1145
   -1.6129    -.0272   -3.1145
   -1.6129    -.0272   -3.1145
   -1.6129    -.0272   -3.1145
   -1.6129     .4624   -3.1145
   -1.6129     .4624   -3.1145
   -1.6129     .4624   -3.1145
   -1.6129     .4624   -3.1145
   -1.6129     .4624   -2.6245
   -1.6129     .4624   -2.6245
   -1.6129     .4624   -2.6245
   -2.1034     .4624   -2.6245
   -2.1034     .4624   -2.6245
   -2.1034     .4624   -2.6245
   -2.1034     .4624   -2.6245
   -2.5940     .4624   -2.6245
   -2.5940     .4624   -2.6245
   -2.5940     .4624   -2.6245
   -2.5940     .4624   -2.6245
   -2.5940     .4624   -2.1345
   -2.5940     .4624   -2.1345
   -3.0845     .4624   -2.1345
   -3.0845     .4624   -2.1345
   -3.0845     .4624   -2.1345
   -3.0845     .4624   -2.1345
   -3.0845     .4624   -2.1345
   -3.5750     .4624   -2.1345
   -3.5750     .4624   -2.1345
   -3.5750     .4624   -2.1345
   -3.5750     .4624   -1.6443
   -3.5750     .4624   -1.6443
   -4.0654     .4624   -1.6443
   -4.0654     .4624   -1.6443
   -4.0654    -.0272   -1.6443
   -4.0654     .4624   -1.6443
   -4.0654    -.0272   -1.6443
   -4.0654    -.0272   -1.6443
   -4.5560    -.0272   -1.1540
   -4.5560    -.0272   -1.1540
   -4.5560     .4624   -1.1540
   -4.5560    -.0272   -1.1540
   -4.5560    -.0272   -1.1540
   -4.5560    -.0272   -1.1540
   -4.5560    -.0272   -1.1540
   -4.5560    -.0272    -.6637
   -5.0465    -.0272    -.6637
   -5.0465    -.0272    -.6637
   -5.0465    -.0272    -.6637
   -5.0465    -.0272    -.6637
   -5.0465    -.0272    -.6637
   -5.0465    -.0272    -.6637
   -5.0465    -.0272    -.6637
   -5.5370    -.0272    -.1735
   -5.5370    -.0272    -.1735
   -5.5370    -.0272    -.1735
   -5.5370    -.0272    -.1735
   -5.5370    -.0272    -.1735
   -5.5370    -.0272    -.1735
   -5.5370    -.0272     .3167
   -5.5370    -.0272     .3167
   -5.5370    -.0272     .3167
   -5.5370    -.0272     .3167
   -6.0275    -.0272     .3167
   -6.0275    -.0272     .3167
   -5.5370    -.0272     .3167
   -6.0275    -.0272     .3167
   -6.0275    -.0272     .3167
   -6.0275    -.0272     .8070
   -6.0275    -.0272     .8070
   -6.0275    -.0272     .8070
   -6.0275    -.0272     .8070
   -6.0275    -.0272     .8070
   -6.0275    -.0272     .8070
   -6.0275    -.0272     .8070
   -6.0275    -.0272     .8070
   -6.0275    -.0272    1.2973
   -6.0275    -.0272    1.2973
   -6.0275    -.0272    1.2973
   -6.5180    -.0272    1.2973
   -6.5180    -.0272    1.2973
   -6.5180    -.0272    1.2973
   -6.5180    -.0272    1.2973
   -6.5180    -.0272    1.2973
   -6.5180    -.0272    1.2973
   -6.5180    -.0272    1.7875
   -6.5180    -.0272    1.7875
   -6.5180     .4624    1.7875
   -6.5180    -.0272    1.7875
   -6.5180    -.0272    1.7875
   -6.5180     .4624    1.7875
   -6.5180     .4624    1.7875
   -6.5180    -.0272    1.7875
   -6.5180     .4624    1.7875
   -6.5180    -.0272    1.7875
   -6.5180    -.0272    1.7875
   -6.5180     .4624    1.7875
   -6.5180     .4624    2.2778
   -6.5180     .4624    1.7875
   -6.5180     .4624    2.2778
   -6.5180     .4624    2.2778
   -6.5180     .4624    2.2778
   -6.5180     .4624    2.2778
   -6.5180     .4624    2.2778
   -6.5180     .4624    2.2778
   -6.5180     .4624    2.2778
   -6.5180     .4624    2.2778
   -6.5180     .4624    2.2778
   -6.5180     .4624    2.2778
   -6.5180     .4624    2.2778
   -6.5180     .4624    2.2778
   -6.5180     .4624    2.2778
   -6.5180     .4624    2.2778
   -6.5180     .4624    2.2778
   -6.5180     .4624    2.2778
   -6.5180     .4624    2.2778
   -6.5180     .4624    2.2778
   -6.5180     .4624    2.2778
   -6.5180     .4624    2.2778
   -6.5180     .4624    2.2778
   -6.5180     .4624    2.2778
   -6.5180     .4624    2.2778
   -6.5180     .4624    2.2778
   -7.0085    -.0272    1.7875
   -6.5180     .4624    2.2778
   -6.5180    -.0272    1.7875
   -6.5180     .4624    2.2778
   -6.5180     .4624    2.2778
   -6.5180     .4624    1.7875
   -6.5180     .4624    1.7875
   -6.5180     .4624    2.2778
   -6.5180     .4624    1.7875
   -6.5180     .4624    2.2778
   -6.5180     .4624    1.7875
   -6.5180     .4624    1.7875
   -6.5180     .4624    1.7875
   -6.5180     .4624    1.7875
   -6.5180     .4624    1.7875
   -6.5180     .4624    1.7875
   -6.5180     .4624    1.7875
   -6.5180     .4624    1.7875
   -6.5180     .4624    1.7875
   -6.5180     .4624    1.7875
   -6.5180     .4624    1.7875
   -6.5180     .4624    1.7875
   -6.5180     .4624    1.7875
   -6.5180     .4624    1.7875
   -6.0275     .4624    1.7875
   -6.0275     .4624    1.7875
   -6.0275     .4624    1.7875
   -6.0275     .4624    1.7875
   -6.0275     .4624    1.7875
   -6.0275     .4624    1.7875
   -6.0275     .4624    1.7875
   -6.0275     .4624    1.7875
   -6.0275     .4624    1.7875
   -6.0275     .4624    1.7875
   -6.0275     .4624    1.7875
   -6.0275     .4624    1.7875
   -5.5370     .4624    1.7875
   -5.5370     .4624    1.7875
   -5.5370     .4624    1.7875
   -5.5370     .4624    1.7875
   -5.5370     .4624    1.7875
   -5.5370     .4624    1.7875
   -5.5370     .4624    1.7875
   -5.5370     .4624    1.7875
   -5.5370     .4624    1.7875
   -5.5370     .4624    1.7875
   -5.0465     .4624    1.7875
   -5.0465     .4624    1.7875
   -5.0465     .4624    1.7875
   -5.0465     .4624    1.7875
   -5.0465     .4624    1.7875
   -5.0465     .4624    1.7875
   -5.0465     .4624    1.7875
   -5.0465     .4624    1.7875
   -4.5560     .4624    1.7875
   -4.5560     .4624    2.2778
   -4.5560     .4624    1.7875
   -4.5560     .4624    1.7875
   -4.5560     .4624    1.7875
   -4.5560     .4624    2.2778
   -4.5560     .4624    1.7875
   -4.0654     .4624    1.7875
   -4.0654     .4624    2.2778
   -4.0654     .4624    2.2778
   -4.0654     .4624    1.7875
   -3.5750     .4624    1.7875
   -3.5750     .4624    2.2778
   -3.5750     .4624    2.2778
   -3.5750     .4624    2.2778
   -3.5750     .4624    2.2778
   -3.5750     .4624    2.2778
   -3.5750     .4624    2.2778
   -3.0845     .4624    2.2778
   -3.0845     .4624    2.2778
   -3.0845     .4624    2.2778
   -3.0845     .4624    2.2778
   -3.0845     .4624    2.2778
   -2.5940    -.0272    2.2778
   -2.5940     .4624    2.2778
   -2.5940     .4624    2.2778
   -2.1034     .4624    2.2778
   -2.1034     .4624    2.2778
   -2.1034     .4624    2.2778
   -1.6129     .4624    2.2778
   -1.6129     .4624    2.2778
   -1.6129     .4624    2.2778
   -1.6129     .4624    2.2778
   -1.1224     .4624    2.2778
   -1.1224     .4624    2.2778
   -1.1224     .4624    2.2778
   -1.1224     .4624    2.2778
   -1.1224    -.0272    2.2778
    -.6319     .4624    2.2778
    -.6319    -.0272    2.2778
    -.6319    -.0272    2.2778
    -.6319    -.0272    2.2778
    -.1414    -.0272    2.2778
    -.1414    -.0272    2.2778
    -.1414    -.0272    2.2778
    -.1414    -.0272    2.2778
    -.1414    -.0272    2.2778
     .3491    -.0272    2.2778
     .3491    -.0272    2.2778
     .3491    -.0272    2.2778
     .3491    -.0272    2.2778
     .8396    -.0272    2.2778
     .8396    -.0272    2.2778
     .8396    -.5167    2.2778
     .8396    -.5167    2.2778
    1.3301    -.0272    2.2778
    1.3301    -.5167    1.7875
    1.3301    -.5167    1.7875
    1.3301    -.5167    1.7875
    1.3301    -.5167    1.7875
    1.8206    -.5167    1.7875
    1.8206    -.5167    1.7875
    1.8206    -.5167    1.7875
    1.8206    -.5167    1.7875
    2.3111    -.5167    1.7875
    2.3111    -.5167    1.7875
    2.3111    -.5167    1.7875
    2.3111    -.5167    1.2973
    2.3111    -.5167    1.2973
    2.8016    -.5167    1.2973
    2.8016    -.5167    1.2973
    2.8016   -1.0064    1.2973
    2.8016    -.5167    1.2973
    2.8016   -1.0064    1.2973
    3.2921   -1.0064    1.2973
    3.2921   -1.0064    1.2973
    3.2921   -1.0064    1.2973
    3.2921   -1.0064    1.2973
    3.2921   -1.0064     .8070
    3.7826   -1.0064     .8070
    3.7826   -1.0064     .8070
    3.7826   -1.0064     .8070
    3.7826   -1.0064     .8070
    3.7826   -1.0064     .8070
    4.2731   -1.0064     .8070
    4.2731   -1.0064     .8070
    4.2731   -1.0064     .8070
    4.2731   -1.0064     .8070
    4.2731   -1.0064     .8070
    4.2731   -1.0064     .8070
