********************************************************************************
           RED INTERUNIVERSITARIA DE INSTRUMENTACION SISMICA (RIIS)             
 AREA DE ESTRUCTURAS, UNIVERSIDAD AUTONOMA METROPOLITANA - UNIDAD AZCAPOTZALCO  
         AV. SAN PABLO 180; COL. REYNOSA TAMAULIPAS; MEXICO D.F. 02200.         
         		e-mail: agb@azc.azc.uam.mx          
********************************************************************************
ARCHIVO ESTANDAR DE ACELERACION:                                                
VERSION DEL FORMATO                    : 2.0                                      
NOMBRE DEL ARCHIVO                     : RIDA0111.151                             
FECHA Y HORA DE CREACION               : NOVIEMBRE, 2001                      
REF. CATALOGO ACELEROGRAMAS, SMIS 1996 :                                        
                                                                                
                                                                                
================================================================================
DATOS DE LA ESTACION:                                                           
NOMBRE DE LA ESTACION                  : UAM AZCAPOTZALCO                       
CLAVE DE LA ESTACION                   : RIDA                                   
LOCALIZACION DE LA ESTACION            : AVENIDA SAN PABLO Y EJE 5, COLONIA     
                                       : REYNOSA, PLANTEL AZCAPOTZALCO, JARDIN  
                                       : ENTRE EDIFICIO "H" Y "E", MEXICO, D.F. 
                                       :                                        
                                       :                                        
COORDENADAS DE LA ESTACION             : 19.520 LAT. N                          
                                       : 99.190 LONG. W                         
ALTITUD (msnm)                         : 2240                                   
TIPO DE SUELO                          : LIMO ARENOSO                           
                                       :                                        
                                       :                                        
INSTITUCION RESPONSABLE                : RED INTERUNIVERSITARIA DE              
                                       : INSTRUMENTACION SISMICA (RIIS)         
                                                                                
================================================================================
DATOS DEL ACELEROGRAFO:                                                         
MODELO DEL ACELEROGRAFO                : SSA-2                                   
NUMERO DE SERIE DEL ACELEROGRAFO       : 1561                                    
NUMERO DE CANALES                      : 3                                       
ORIENTACION C1-C6 (rumbo;orientacion)  : /N00E/+V/N90E                           
ORIENTACION C7-C12 (rumbo;orientacion) :                                         
VEL. DE MUESTREO, C1-C6 (muestras/s)   : /200/200/200                            
VEL. DE MUESTREO, C7-C12 (muestras/s)  :                                         
ESC. COMPLETA DE SENSORES, C1-C6, (g)  : /1.0/1.0/1.0                            
ESC. COMPLETA DE SENSORES, C7-C12, (g) :                                         
FREC. NAT. DE SENSORES, C1-C6, (Hz)    : /52.4/52.5/53.7                         
FREC. NAT. DE SENSORES, C7-C12, (Hz)   :                                         
AMORTIGUAMIENTO DE SENSORES, C1-C6     : /0.64/0.64/0.64                         
AMORTIGUAMIENTO DE SENSORES, C7-C12    :                                         
INTERVALO DE MUESTREO, C1-C6, (s)      : /0.005/0.005/0.005                      
INTERVALO DE MUESTREO, C7-C12, (s)     :                                         
UMBRAL DE DISPARO, C1-C6, (Gal)        : /1/2/1                                  
UMBRAL DE DISPARO, C7-C12, (Gal)       :                                         
MEMORIA DE PREEVENTO (s)               : 15.4                                    
TIEMPO DE POSEVENTO (s)                : 60.0                                    
                                                                                
                                                                                
================================================================================
DATOS DEL SISMO:                                                                
FECHA DEL SISMO (GMT)                  : 15/NOV/2001                            
HORA EPICENTRO (GMT)                   : 22:18:22                                  
MAGNITUD(ES)                           : /M=3.5                                
COORDENADAS DEL EPICENTRO              : 19.56 LAT. N                           
                                       : 99.16 LONG. W                          
PROFUNDIDAD FOCAL (km)                 : 4 KM                                   
FUENTES DE LOS DATOS EPICENTRALES      : SSN                                    
                                       : SERVICIO SISMOLÓGICO NACIONAL          
                                                                                
================================================================================
DATOS DE ESTE REGISTRO:                                                         
HORA DE LA PRIMERA MUESTRA (GMT)       : 22:18:22.00                                  
EXACTITUD DEL TIEMPO (s)               :                                        
DURACION DEL REGISTRO (s), C1-C6       : /80.64/80.64/80.64                               
DURACION DEL REGISTRO (s), C7-C12      :                                                  
NUM. TOTAL DE MUESTRAS, C1-C6          : /16128/16128/16128                               
NUM. TOTAL DE MUESTRAS, C7-C12         :                                                  
ACEL. MAX.(Gal), C1-C6                 : /-17.51/-17.79/21.72                             
ACEL. MAX., C1-C6, EN LA MUESTRA       : /3395/2997/3209                                                      
ACEL. MAX.(Gal), C7-C12                :                                        
ACEL. MAX., C7-C12, EN LA MUESTRA      :                                        
UNIDADES DE LOS DATOS                  : Gal                                   
FACTOR DE DECIMACION                   : 1                                     
FORMATO DATOS (FORTRAN,10 campos/dato) : 3F10.4                                
                                                                                
                                                                                
================================================================================
CALIDAD DEL ACELEROGRAMA:                                                       
REGISTRO DIGITAL COMPLETO, CARECE DE TIEMPO ABSOLUTO.                           
                                                                                
                                                                                
================================================================================
COMENTARIOS:                                                                    
CADA UNO DE LOS CANALES SE ENCUENTRA AJUSTADO POR LINEA BASE MEDIANTE LA        
SUSTRACCION DEL PROMEDIO DE LAS ACELERACIONES EN EL TIEMPO.                     
MODELO DEL ACELEROGRAFO : SSA-2 (KINEMETRICS)                                   
                                                                                
                                                                                
                                                                                
                                                                                
                                                                                
                                                                                
                                                                                
                                                                                
                                                                                
                                                                                
                                                                                
=============================================================================== 
DATOS DE ACELERACION:                                                           
---------+---------+---------+---------+---------+---------+---------+---------+
   CANAL-1   CANAL-2   CANAL-3   CANAL-4   CANAL-5   CANAL-6   CANAL-7   CANAL-8
      N00E        +V      N90E                                                  
---------+---------+---------+---------+---------+---------+---------+---------+
[...]
    -.4216    -.7110    -.2593
    -.4216    -.2227    -.2593
    -.4216    -.2227    -.2593
    -.4216    -.2227    -.2593
    -.4216    -.2227     .2290
    -.4216    -.2227    -.2593
    -.4216    -.2227    -.2593
    -.4216    -.2227    -.2593
    -.4216    -.2227    -.2593
    -.4216    -.2227     .2290
    -.4216    -.2227    -.2593
    -.4216    -.2227    -.2593
    -.4216    -.2227    -.2593
    -.4216    -.2227     .2290
     .0667    -.2227     .2290
    -.4216    -.2227    -.2593
    -.4216    -.2227    -.2593
    -.4216    -.2227    -.2593
    -.4216    -.2227     .2290
     .0667    -.2227    -.2593
    -.4216    -.2227    -.2593
    -.4216    -.2227    -.2593
    -.4216    -.2227    -.2593
    -.4216     .2655    -.2593
    -.4216     .2655    -.2593
    -.4216     .2655    -.2593
    -.4216     .7538    -.2593
    -.4216    1.7303    -.2593
    -.9098    3.6837    -.2593
    -.9098    6.1262    -.2593
    -.9098    9.0571    -.7475
    -.9098   11.4996    -.7475
    -.9098   11.0111    -.7475
     .0667    7.1032    -.2593
    1.5314     .2655     .2290
    2.9962   -8.0347     .2290
    2.9962  -14.3819     .7172
    1.5314  -17.7996     .7172
    -.4216  -17.7996     .7172
   -2.8628  -15.3584     .7172
   -3.8393  -12.4289    -.2593
   -3.3511   -8.5230    -.7475
   -1.8864   -4.1287   -1.7240
     .0667    1.2420   -1.7240
    1.0432    5.6377   -1.2358
    1.0432    8.0801    -.7475
     .0667    8.5686     .2290
   -1.3981    7.1032     .2290
   -1.8864    4.6607     .2290
    -.9098    2.7068     .2290
     .0667    1.7303    -.2593
    1.0432    2.2185    -.2593
    1.0432    2.7068   -1.2358
    1.0432    2.2185   -1.7240
    1.0432    1.2420   -1.7240
     .0667    -.7110   -1.7240
    -.9098   -1.6875    -.2593
   -2.3745   -1.6875    1.2055
   -2.8628    -.2227    2.1820
   -3.3511     .7538    2.1820
   -1.8864     .2655    1.6937
     .0667   -1.1992     .7172
    2.0197   -2.1757    -.2593
    3.4844   -2.1757    -.7475
    3.4844    -.7110   -1.2358
    2.9962     .7538   -1.2358
    2.0197     .7538   -1.7240
     .5548    -.7110   -2.2123
    -.4216   -2.6640   -1.7240
   -1.3981   -5.1052    -.7475
   -2.8628   -5.5934     .7172
   -4.3276   -3.6405    1.2055
   -4.8158     .2655    1.2055
   -4.3276    5.6377     .2290
   -3.3511    9.5456    -.2593
   -2.3745   10.5226     .2290
    -.9098    8.0801     .7172
     .0667    3.6837    1.2055
    1.5314    -.2227     .2290
    2.9962   -3.6405   -1.7240
    3.9727   -5.5934   -3.1888
    4.4609   -6.0817   -3.1888
    3.9727   -5.5934   -1.2358
    2.5079   -4.1287    1.6937
    1.0432   -2.6640    3.6467
    -.4216    -.7110    3.1585
    -.9098     .2655    1.2055
   -1.3981    1.7303   -1.2358
   -2.8628    3.1953   -2.2123
   -4.3276    3.6837   -1.7240
   -5.3041    2.7068     .2290
   -4.3276     .2655    1.2055
   -1.3981   -1.6875     .2290
    2.0197   -2.6640   -1.7240
    3.9727   -2.6640   -2.7005
    3.9727   -3.1522   -2.2123
    1.5314   -3.1522     .2290
   -1.8864   -3.6405    3.1585
   -4.3276   -2.6640    4.6234
   -4.8158   -1.1992    3.6467
   -2.3745    -.2227     .7172
     .0667     .7538   -2.7005
    2.0197    1.7303   -5.6300
    1.5314    2.2185   -6.1183
    -.4216    2.2185   -4.1653
   -2.3745    2.2185   -1.7240
   -2.3745    1.2420     .2290
    -.9098     .7538    1.6937
    2.5079     .2655    2.6702
    5.4374    -.7110    3.1585
    6.9022   -1.6875    3.6467
    5.9257   -3.1522    3.6467
    2.9962   -4.1287    2.6702
    -.4216   -3.6405     .7172
   -3.8393   -1.6875   -1.2358
   -6.2805    2.2185   -1.7240
   -6.7689    6.1262   -1.2358
   -6.2805    9.5456     .2290
   -4.8158   11.0111    1.6937
   -2.3745   10.0341    1.2055
     .5548    7.5917    -.2593
    3.4844    4.1722   -2.2123
    4.9492     .2655   -3.1888
    4.4609   -2.6640   -2.7005
    2.9962   -4.6170    -.2593
    1.0432   -5.1052    1.6937
    -.4216   -5.1052    2.1820
   -1.3981   -4.6170     .2290
   -1.3981   -3.6405   -3.6770
   -1.3981   -2.6640   -7.0948
   -2.3745   -2.6640   -8.5595
   -3.8393   -4.6170   -6.1183
   -5.3041   -6.5700   -1.2358
   -5.3041   -6.5700    4.1350
   -4.3276   -5.5934    8.5313
   -1.3981   -4.6170   10.4853
    2.9962   -4.6170    8.5313
    6.4139   -4.1287    4.6234
    8.3669   -2.6640     .7172
    7.3904    1.2420   -1.2358
    4.4609    5.6377     .7172
     .5548    9.0571    4.1350
   -1.8864   10.0341    6.0889
   -1.3981    8.0801    5.6004
     .0667    6.1262    1.6937
    2.0197    4.1722   -3.6770
    2.0197    4.1722   -8.5595
    -.4216    4.1722  -11.0007
   -3.3511    3.6837  -10.5124
   -5.3041    3.1953   -8.5595
   -4.3276    1.7303   -5.6300
    -.9098    -.7110   -3.1888
    2.5079   -4.6170    -.2593
    3.9727   -9.4994    2.6702
    2.5079  -12.9172    5.1119
   -1.3981  -13.4055    7.0659
   -4.8158   -9.9877    7.5544
   -6.7689   -5.1052    6.0889
   -7.2571   -1.1992    4.1350
   -6.7689     .7538    2.6702
   -5.3041     .7538    1.2055
   -3.3511     .2655    1.6937
    -.9098     .2655    1.2055
    2.5079    1.2420     .2290
    5.4374    2.2185   -2.2123
    7.3904    3.6837   -5.1418
    7.8787    6.1262   -7.0948
    5.9257    8.5686   -6.6065
    3.4844   10.5226   -3.1888
     .0667   11.0111    1.2055
   -2.3745    9.0571    4.6234
   -2.8628    5.1492    5.6004
   -2.3745     .2655    2.1820
    -.9098   -2.6640   -4.1653
     .5548   -5.1052  -10.0243
    1.0432   -7.0582  -11.4890
    1.0432   -9.0113   -7.5831
    1.0432  -10.4759     .2290
    1.0432   -9.4994    8.5313
    2.0197   -6.5700   12.9277
    2.5079   -3.1522   10.4853
    2.5079   -1.6875    4.1350
    1.5314   -2.1757   -3.6770
    -.9098   -2.6640   -7.5831
   -3.3511   -2.1757   -6.6065
   -5.7923     .7538   -1.2358
   -7.7453    3.6837    4.6234
   -8.2335    4.6607    8.0429
   -7.2571    3.1953    6.5774
   -5.7923    1.2420     .2290
   -4.8158    1.2420   -7.0948
   -3.8393    2.7068  -11.4890
   -3.3511    5.1492  -10.0243
   -1.8864    7.1032   -4.6535
     .0667    7.5917     .7172
    2.9962    6.1262    1.6937
    6.4139    4.1722    -.7475
    8.3669    1.2420   -5.6300
    7.8787   -1.1992   -9.5361
    4.9492   -3.1522  -10.0243
    1.0432   -3.1522   -7.0948
   -1.8864   -1.6875   -2.2123
   -2.8628    -.7110    4.1350
   -1.3981    -.7110    9.0198
     .0667   -1.6875   11.4623
     .0667   -2.1757   10.9738
   -1.3981   -2.6640    9.0198
   -3.8393   -3.1522    6.0889
   -5.7923   -2.6640    2.6702
   -7.2571   -1.1992     .2290
   -8.2335    -.2227   -2.2123
   -7.2571     .7538   -3.1888
   -5.7923     .2655   -4.1653
   -3.3511    -.2227   -4.6535
   -1.8864     .2655   -5.6300
   -1.8864    1.7303   -7.5831
   -2.8628    4.1722   -9.0477
   -4.3276    5.1492   -9.5361
   -3.8393    4.1722   -9.0477
   -1.3981    1.7303   -7.5831
    2.5079    -.7110   -4.1653
    6.4139   -2.6640     .7172
    8.8552   -5.1052    5.6004
    8.8552   -6.5700   10.9738
    7.3904   -6.5700   14.3932
    5.9257   -4.6170   16.3472
    6.4139   -2.6640   14.8816
    8.8552    -.2227   11.9508
   11.7846    1.7303    9.0198
   11.7846    3.6837    6.5774
    8.3669    4.1722    5.6004
    2.9962    3.6837    6.0889
   -3.8393    2.2185    6.0889
   -9.6983     .2655    4.1350
  -12.6278   -2.1757    -.2593
  -12.1396   -4.1287   -6.1183
   -8.7218   -5.1052  -10.5124
   -4.8158   -6.5700  -12.4655
   -2.3745   -7.5465  -11.0007
   -2.8628   -7.5465   -8.0712
   -6.7689   -5.5934   -5.1418
  -10.6748   -1.6875   -4.6535
  -12.1396    2.2185   -7.5831
   -9.6983    5.6377  -11.4890
   -3.8393    8.0801  -14.9068
    3.4844    8.0801  -13.4420
    9.3434    5.6377   -6.6065
   11.7846    2.2185    4.6234
   10.8082     .7538   15.3702
    8.3669    1.2420   21.7205
    6.4139    3.6837   21.2320
    6.9022    6.1262   15.3702
    9.8316    6.6147    8.5313
   12.7614    5.6377    3.1585
   14.2268    3.1953    2.6702
   13.2499    -.7110    6.0889
    9.3434   -4.6170    9.9968
    3.9727   -8.0347   10.9738
    -.9098  -10.4759    7.5544
   -3.3511   -9.9877     .7172
   -4.3276   -7.0582   -6.6065
   -4.8158   -3.6405  -11.4890
   -6.2805   -1.1992  -13.4420
   -8.7218    -.2227  -12.9538
  -11.6513    -.2227  -12.4655
  -13.6042     .2655  -12.9538
  -14.0926     .7538  -14.4185
  -12.6278     .7538  -15.8832
   -9.2101     .2655  -14.9068
   -5.3041    -.2227  -10.5124
     .0667    -.2227   -3.6770
    4.9492    1.2420    3.6467
    7.8787    4.1722    9.0198
    8.8552    6.6147   12.4393
    6.4139    8.0801   12.4393
    2.9962    7.5917    9.9968
    -.4216    5.1492    6.5774
   -1.3981    2.7068    3.1585
    1.5314     .7538    1.2055
    6.4139    -.2227    1.2055
   10.3199    -.2227    2.1820
   10.8082    -.2227    3.1585
    6.9022    -.7110    3.1585
    1.0432   -2.1757    2.1820
   -5.3041   -3.1522     .2290
  -10.1866   -3.6405   -2.7005
  -12.1396   -3.1522   -5.6300
  -10.6748   -2.6640   -8.5595
   -6.2805   -2.1757  -11.0007
    -.4216   -3.6405  -12.4655
    4.4609   -5.5934  -11.4890
    6.9022   -6.5700   -6.6065
    5.4374   -5.5934    -.2593
    2.0197   -3.6405    6.5774
   -1.3981   -1.1992   10.4853
   -3.3511     .7538   10.4853
   -3.3511    1.2420    7.5544
   -2.3745    1.2420    3.1585
    -.4216    1.2420    -.7475
     .5548    1.2420   -3.1888
    1.0432    1.2420   -4.1653
     .5548    1.2420   -4.1653
   -1.8864     .2655   -3.1888
   -4.8158     .2655   -1.2358
   -7.7453     .7538     .7172
   -7.7453    1.7303    2.6702
   -5.7923    3.1953    3.6467
   -2.8628    3.6837    3.1585
     .0667    3.6837    1.2055
     .5548    2.2185    -.7475
    -.4216    1.2420   -2.2123
   -1.8864    1.7303   -3.1888
   -2.3745    3.6837   -4.6535
   -1.3981    5.6377   -6.1183
    1.5314    6.1262   -6.6065
    4.9492    3.1953   -6.1183
    6.9022   -1.6875   -4.6535
    5.9257   -6.5700   -1.7240
    3.4844   -9.9877    2.6702
     .5548  -11.4525    7.0659
   -1.8864  -10.4759    9.0198
   -2.8628   -8.5230    8.0429
   -2.8628   -5.5934    3.1585
   -1.8864   -2.6640   -3.6770
   -1.8864     .2655   -9.0477
   -2.8628    2.2185  -10.5124
   -4.8158    3.1953   -7.0948
   -7.2571    2.7068    -.7475
   -8.7218    1.7303    6.5774
   -8.7218    1.2420   10.4853
   -8.2335    1.7303    9.0198
   -7.7453    2.7068    2.6702
   -7.2571    3.1953   -4.6535
   -6.2805    3.6837   -9.0477
   -3.8393    3.6837   -8.5595
     .0667    4.1722   -3.1888
    4.4609    3.6837    3.6467
    7.8787    2.7068    9.5083
    9.8316     .7538   11.4623
    9.8316   -1.6875    9.0198
    7.8787   -3.1522    4.6234
    5.9257   -4.1287    1.2055
    3.9727   -4.1287    -.2593
    2.9962   -3.6405     .7172
    2.5079   -3.6405    1.2055
    2.0197   -3.1522     .2290
    1.0432   -1.6875   -3.6770
   -1.8864     .7538   -9.0477
   -6.7689    3.1953  -12.4655
  -10.1866    3.6837  -12.4655
  -11.1630    3.1953   -8.0712
   -7.2571    2.2185    -.2593
     .0667    1.2420    6.5774
    7.8787     .2655    9.9968
   12.7614     .2655    9.0198
   12.7614     .2655    4.1350
    8.3669     .2655   -2.2123
