********************************************************************************
           RED INTERUNIVERSITARIA DE INSTRUMENTACION SISIMICA (RIIS)
 AREA DE ESTRUCTURAS, UNIVERSIDAD AUTONOMA METROPOLITANA - UNIDAD AZCAPOTZALCO
         AV. SAN PABLO 180; COL. REYNOSA TAMAULIPAS; MEXICO D.F. 02200.                                                                               
       				agb@azc.uam.mx
********************************************************************************
ARCHIVO ESTANDAR DE ACELERACION:
VERSION DEL FORMATO                    : 2.0
NOMBRE DEL ARCHIVO                     : RIDA0110.081
FECHA Y HORA DE CREACION               : JUNIO, 2002
REF. CATALOGO ACELEROGRAMAS, SMIS 1996 : 


================================================================================
DATOS DE LA ESTACION:
NOMBRE DE LA ESTACION                  : UAM AZCAPOTZALCO
CLAVE DE LA ESTACION                   : RIDA
LOCALIZACION DE LA ESTACION            : AVENIDA SAN PABLO Y EJE 5, COLONIA
                                       : REYNOSA, PLANTEL AZCAPOTZALCO, JARDIN
                                       : ENTRE EDIFICIO "H" Y "E", MEXICO, D.F.
                                       :
                                       :
COORDENADAS DE LA ESTACION             : 19.520 LAT. N 
                                       : 99.190 LONG. W 
ALTITUD (msnm)                         : 2240
TIPO DE SUELO                          : LIMO ARENOSO
                                       : 
                                       : 
INSTITUCION RESPONSABLE                : RED INTERUNIVERSITARIA DE
                                       : INSTRUMENTACION SISMICA (RIIS)

================================================================================
DATOS DEL ACELEROGRAFO:
MODELO DEL ACELEROGRAFO                : SSA-2
NUMERO DE SERIE DEL ACELEROGRAFO       : 1561
NUMERO DE CANALES                      : 3
ORIENTACION C1-C6 (rumbo;orientacion)  : /N00E/+V/N90E
ORIENTACION C7-C12 (rumbo;orientacion) :
VEL. DE MUESTREO, C1-C6 (muestras/s)   : /200/200/200
VEL. DE MUESTREO, C7-C12 (muestras/s)  :
ESC. COMPLETA DE SENSORES, C1-C6, (g)  : /1.0/1.0/1.0
ESC. COMPLETA DE SENSORES, C7-C12, (g) :
FREC. NAT. DE SENSORES, C1-C6, (Hz)    : /50.0/50.0/50.0
FREC. NAT. DE SENSORES, C7-C12, (Hz)   :
AMORTIGUAMIENTO DE SENSORES, C1-C6     : /0.7/0.7/0.7
AMORTIGUAMIENTO DE SENSORES, C7-C12    :
INTERVALO DE MUESTREO, C1-C6, (s)      : /0.005/0.005/0.005
INTERVALO DE MUESTREO, C7-C12, (s)     :
UMBRAL DE DISPARO, C1-C6, (Gal)        : /3/3/3
UMBRAL DE DISPARO, C7-C12, (Gal)       :
MEMORIA DE PREEVENTO (s)               : 15
TIEMPO DE POSEVENTO (s)                : 60


================================================================================
DATOS DEL SISMO:
FECHA DEL SISMO (GMT)                  : 08/OCT/2001                    
HORA EPICENTRO (GMT)                   : 03:39                          
MAGNITUD(ES)                           : /Ms=6.1                        
COORDENADAS DEL EPICENTRO              : 16.98 LAT. N                   
                                       : 100.16 LONG. W                 
PROFUNDIDAD FOCAL (km)                 : 10                             
FUENTES DE LOS DATOS EPICENTRALES      : SSN                            
                                       : SISTEMA SISMOLOGICO NACIONAL   

================================================================================
DATOS DE ESTE REGISTRO:
HORA DE LA PRIMERA MUESTRA (GMT)       : 03:39:00.00
EXACTITUD DEL TIEMPO (s)               : 
DURACION DEL REGISTRO (s), C1-C6       : /108.80/108.80/108.80                
DURACION DEL REGISTRO (s), C7-C12      :                                      
NUM. TOTAL DE MUESTRAS, C1-C6          : /21760/21760/21760                   
NUM. TOTAL DE MUESTRAS, C7-C12         :                                      
ACEL. MAX.(Gal), C1-C6                 : /-5.91/2.00/5.49                     
ACEL. MAX., C1-C6, EN LA MUESTRA       : /5174/3300/5169                      
ACEL. MAX.(Gal), C7-C12                :
ACEL. MAX., C7-C12, EN LA MUESTRA      : 
UNIDADES DE LOS DATOS                  : Gal 
FACTOR DE DECIMACION                   : 1
FORMATO DATOS (FORTRAN,10 campos/dato) : 3E16.7


===============================================================================
CALIDAD DEL ACELEROGRAMA:
REGISTRO DIGITAL COMPLETO, CARECE DE TIEMPO ABSOLUTO.


===============================================================================
COMENTARIOS:
CADA UNO DE LOS CANALES SE ENCUENTRA AJUSTADO POR LINEA BASE MEDIANTE LA
SUSTRACCION DEL PROMEDIO DE LAS ACELERACIONES EN EL TIEMPO.











MODELO DEL ACELEROGRAFO : SSA-2 (KINEMETRICS)
===============================================================================
DATOS DE ACELERACION:
---------+---------+---------+---------+---------+---------+---------+---------+
   CANAL-1   CANAL-2   CANAL-3   CANAL-4   CANAL-5   CANAL-6   CANAL-7   CANAL-8
      N00E        +V      N90E
---------+---------+---------+---------+---------+---------+---------+---------+
[...]
   2.3968780e+00   5.3696400e-01   1.1681714e-01
   1.9086767e+00   5.3696003e-01   1.1681439e-01
   1.9086754e+00   5.3695607e-01   1.1681165e-01
   1.4203741e+00   5.3695210e-01   1.1680891e-01
   1.4203728e+00   5.3694814e-01  -3.7139383e-01
   1.4203715e+00   5.3694417e-01  -3.7139658e-01
   9.3207024e-01   5.3694021e-01  -3.7139932e-01
   9.3206895e-01   5.3693624e-01  -3.7140206e-01
   9.3206765e-01   5.3693228e-01  -3.7140481e-01
   4.4376635e-01   5.3692832e-01  -3.7140755e-01
   4.4376505e-01   5.3692435e-01  -3.7141029e-01
   4.4376375e-01   5.3692039e-01  -3.7141304e-01
   4.4376246e-01   5.3691642e-01  -8.5971578e-01
  -4.4538843e-02   5.3691246e-01  -8.5971852e-01
  -4.4540141e-02   1.0252085e+00  -8.5972126e-01
  -4.4541439e-02   1.0252045e+00  -8.5972401e-01
  -4.4542738e-02   1.0252006e+00  -8.5972675e-01
  -4.4544036e-02   1.0251966e+00  -8.5972949e-01
  -4.4545334e-02   1.0251926e+00  -8.5973224e-01
  -4.4546632e-02   1.0251887e+00  -8.5973498e-01
  -4.4547931e-02   1.0251847e+00  -8.5973772e-01
  -4.4549229e-02   1.0251807e+00  -8.5974046e-01
  -4.4550527e-02   1.0251768e+00  -8.5974321e-01
  -4.4551825e-02   5.3687281e-01  -8.5974595e-01
  -4.4553123e-02   5.3686885e-01  -8.5974869e-01
  -5.3285442e-01   5.3686489e-01  -8.5975144e-01
  -5.3285572e-01   5.3686092e-01  -8.5975418e-01
  -5.3285702e-01   5.3685696e-01  -8.5975692e-01
  -1.0210583e+00   5.3685299e-01  -8.5975967e-01
  -1.0210596e+00   4.8549027e-02  -8.5976241e-01
  -1.0210609e+00   4.8545063e-02  -8.5976515e-01
  -1.5093622e+00   4.8541099e-02  -8.5976789e-01
  -1.5093635e+00   4.8537134e-02  -8.5977064e-01
  -1.5093648e+00   4.8533170e-02  -8.5977338e-01
  -1.5093661e+00   4.8529205e-02  -3.7147612e-01
  -1.5093674e+00   4.8525241e-02  -3.7147887e-01
  -1.5093687e+00   4.8521277e-02  -3.7148161e-01
  -1.0210700e+00  -4.3978269e-01  -3.7148435e-01
  -1.0210713e+00  -4.3978665e-01  -3.7148709e-01
  -1.0210726e+00  -4.3979062e-01  -3.7148984e-01
  -1.0210739e+00  -4.3979458e-01   1.1670742e-01
  -5.3287519e-01  -4.3979855e-01  -3.7149532e-01
  -1.0210765e+00  -4.3980251e-01   1.1670193e-01
  -5.3287779e-01  -4.3980647e-01  -3.7150081e-01
  -5.3287909e-01   4.8489561e-02  -3.7150355e-01
  -5.3288039e-01   4.8485597e-02  -3.7150630e-01
  -4.4581684e-02   4.8481633e-02  -3.7150904e-01
  -4.4582982e-02   4.8477668e-02  -3.7151178e-01
  -4.4584280e-02   4.8473704e-02  -8.5981452e-01
  -4.4585578e-02   4.8469739e-02  -8.5981727e-01
   4.4371312e-01   4.8465775e-02  -8.5982001e-01
   4.4371183e-01   4.8461811e-02  -8.5982275e-01
   4.4371053e-01   4.8457846e-02  -8.5982550e-01
   9.3200923e-01   4.8453882e-02  -1.3481282e+00
   9.3200793e-01   4.8449917e-02  -1.3481310e+00
   9.3200663e-01   4.8445953e-02  -1.3481337e+00
   9.3200533e-01   4.8441988e-02  -1.3481365e+00
   9.3200404e-01   4.8438024e-02  -1.3481392e+00
   9.3200274e-01  -4.3986594e-01  -1.3481420e+00
   9.3200144e-01  -4.3986990e-01  -1.3481447e+00
   9.3200014e-01  -4.3987387e-01  -1.3481474e+00
   9.3199884e-01  -4.3987783e-01  -1.3481502e+00
   9.3199754e-01  -4.3988180e-01  -1.3481529e+00
   9.3199625e-01  -4.3988576e-01  -1.3481557e+00
   9.3199495e-01  -4.3988973e-01  -1.3481584e+00
   4.4369365e-01  -4.3989369e-01  -1.3481612e+00
   4.4369235e-01  -4.3989766e-01  -1.3481639e+00
   4.4369105e-01  -4.3990162e-01  -1.3481666e+00
  -4.4610244e-02   4.8394416e-02  -1.3481694e+00
  -4.4611542e-02   4.8390451e-02  -8.5987213e-01
  -4.4612841e-02   4.8386487e-02  -8.5987487e-01
  -4.4614139e-02  -4.3991748e-01  -8.5987761e-01
  -4.4615437e-02  -4.3992144e-01  -8.5988035e-01
  -5.3291674e-01  -4.3992541e-01  -8.5988310e-01
  -5.3291803e-01  -4.3992937e-01  -8.5988584e-01
  -5.3291933e-01  -4.3993334e-01  -3.7158858e-01
  -1.0211206e+00  -4.3993730e-01  -3.7159133e-01
  -1.0211219e+00  -4.3994126e-01  -3.7159407e-01
  -1.0211232e+00  -4.3994523e-01  -3.7159681e-01
  -1.0211245e+00  -9.2824919e-01   1.1660045e-01
  -1.0211258e+00  -9.2825316e-01   1.1659770e-01
  -1.0211271e+00  -9.2825712e-01   1.1659496e-01
  -1.0211284e+00  -9.2826109e-01   6.0489222e-01
  -1.0211297e+00  -9.2826505e-01   6.0488947e-01
  -1.0211310e+00  -9.2826901e-01   1.0931867e+00
  -1.0211323e+00  -9.2827298e-01   1.0931840e+00
  -1.5094336e+00  -9.2827694e-01   1.0931812e+00
  -1.5094349e+00  -9.2828091e-01   1.5814785e+00
  -1.5094362e+00  -9.2828487e-01   1.5814758e+00
  -1.5094375e+00  -9.2828884e-01   1.5814730e+00
  -1.5094388e+00  -9.2829280e-01   2.0697703e+00
  -1.9977401e+00  -9.2829677e-01   2.0697675e+00
  -1.9977414e+00  -4.4000073e-01   2.0697648e+00
  -1.9977427e+00  -4.4000469e-01   2.0697620e+00
  -1.9977440e+00  -4.4000866e-01   2.0697593e+00
  -1.9977453e+00   4.8287377e-02   2.0697566e+00
  -2.4860466e+00   4.8283412e-02   1.5814538e+00
  -2.4860479e+00   4.8279448e-02   1.5814511e+00
  -2.4860492e+00   4.8275483e-02   1.5814483e+00
  -2.4860505e+00   4.8271519e-02   1.5814456e+00
  -2.4860518e+00   5.3656755e-01   1.5814428e+00
  -1.9977531e+00   4.8263590e-02   1.5814401e+00
  -1.9977544e+00   5.3655963e-01   1.5814374e+00
  -1.9977557e+00   5.3655566e-01   1.5814346e+00
  -1.9977570e+00   5.3655170e-01   1.5814319e+00
  -1.5094583e+00   5.3654773e-01   1.5814291e+00
  -1.5094596e+00   5.3654377e-01   1.5814264e+00
  -1.5094609e+00   5.3653980e-01   1.5814236e+00
  -1.0211622e+00   5.3653584e-01   1.5814209e+00
  -1.0211635e+00   5.3653188e-01   1.5814182e+00
  -1.0211648e+00   5.3652791e-01   1.5814154e+00
  -1.0211661e+00   5.3652395e-01   1.0931127e+00
  -1.0211674e+00   5.3651998e-01   1.5814099e+00
  -5.3296866e-01   5.3651602e-01   1.5814072e+00
  -5.3296996e-01   4.8212053e-02   1.0931044e+00
  -5.3297126e-01   5.3650809e-01   1.0931017e+00
  -5.3297256e-01   5.3650412e-01   1.0930990e+00
  -5.3297386e-01   5.3650016e-01   1.0930962e+00
  -4.4675154e-02   5.3649620e-01   1.0930935e+00
  -5.3297645e-01   5.3649223e-01   1.0930907e+00
  -4.4677751e-02   5.3648827e-01   1.0930880e+00
  -4.4679049e-02   5.3648430e-01   6.0478524e-01
  -4.4680347e-02   5.3648034e-01   6.0478250e-01
  -4.4681645e-02   5.3647637e-01   6.0477976e-01
  -4.4682944e-02   5.3647241e-01   6.0477701e-01
  -4.4684242e-02   5.3646844e-01   1.1647427e-01
  -4.4685540e-02   5.3646448e-01   1.1647153e-01
  -4.4686838e-02   4.8160516e-02   1.1646878e-01
   4.4361186e-01   4.8156551e-02   1.1646604e-01
   4.4361057e-01   4.8152587e-02   1.1646330e-01
   4.4360927e-01  -4.4015138e-01   1.1646056e-01
   4.4360797e-01  -4.4015534e-01   1.1645781e-01
   4.4360667e-01  -4.4015931e-01   1.1645507e-01
   4.4360537e-01  -4.4016327e-01   1.1645233e-01
   9.3190407e-01  -9.2846724e-01   1.1644958e-01
   9.3190278e-01  -9.2847120e-01   6.0474684e-01
   9.3190148e-01  -9.2847516e-01   6.0474410e-01
   1.4202002e+00  -9.2847913e-01   6.0474136e-01
   1.4201989e+00  -9.2848309e-01   6.0473861e-01
   1.4201976e+00  -9.2848706e-01   6.0473587e-01
   1.9084963e+00  -9.2849102e-01   6.0473313e-01
   1.9084950e+00  -9.2849499e-01   1.0930304e+00
   2.3966937e+00  -9.2849895e-01   1.0930276e+00
   2.8849924e+00  -9.2850291e-01   1.0930249e+00
   2.8849911e+00  -9.2850688e-01   1.5813222e+00
   2.8849898e+00  -9.2851084e-01   1.5813194e+00
   3.3732885e+00  -9.2851481e-01   1.5813167e+00
   3.3732872e+00  -4.4021877e-01   2.0696139e+00
   3.3732859e+00  -4.4022274e-01   2.0696112e+00
   3.3732846e+00  -4.4022670e-01   2.0696084e+00
   3.3732833e+00  -4.4023067e-01   2.5579057e+00
   3.3732820e+00  -4.4023463e-01   2.5579030e+00
   3.8615807e+00  -4.4023859e-01   2.5579002e+00
   3.8615794e+00   4.8057441e-02   2.5578975e+00
   3.8615781e+00  -4.4024652e-01   2.5578947e+00
   3.8615768e+00   4.8049512e-02   2.5578920e+00
   3.3732755e+00   4.8045548e-02   2.5578892e+00
   3.3732742e+00   4.8041584e-02   2.5578865e+00
   3.3732729e+00   4.8037619e-02   2.5578838e+00
   3.3732716e+00   4.8033655e-02   2.0695810e+00
   3.3732703e+00   4.8029690e-02   2.0695783e+00
   3.3732690e+00   4.8025726e-02   2.0695755e+00
   3.3732677e+00   4.8021762e-02   1.5812728e+00
   3.3732664e+00   4.8017797e-02   1.5812700e+00
   3.3732651e+00   4.8013833e-02   1.5812673e+00
   3.8615638e+00   4.8009868e-02   1.0929646e+00
   3.8615625e+00   4.8005904e-02   1.0929618e+00
   3.8615612e+00   4.8001940e-02   1.0929591e+00
   3.8615599e+00   4.7997975e-02   1.0929563e+00
   3.3732586e+00   4.7994011e-02   6.0465358e-01
   3.8615573e+00   4.7990046e-02   6.0465084e-01
   3.3732560e+00   5.3628608e-01   6.0464810e-01
   3.3732547e+00   5.3628212e-01   6.0464535e-01
   3.3732534e+00   5.3627815e-01   1.1634261e-01
   2.8849521e+00   4.7974189e-02   1.1633987e-01
   2.8849508e+00   4.7970224e-02  -3.7186288e-01
   2.3966495e+00   4.7966260e-02  -3.7186562e-01
   2.3966483e+00   4.7962296e-02  -3.7186836e-01
   1.9084470e+00   4.7958331e-02  -8.6017110e-01
   1.4201457e+00   4.7954367e-02  -8.6017385e-01
   1.4201444e+00   4.7950402e-02  -1.3484766e+00
   9.3184306e-01   4.7946438e-02  -1.3484793e+00
   4.4354176e-01   4.7942474e-02  -1.3484821e+00
   4.4354046e-01   4.7938509e-02  -1.8367848e+00
  -4.4760836e-02   4.7934545e-02  -1.8367876e+00
  -4.4762134e-02   4.7930580e-02  -2.3250903e+00
  -5.3306343e-01   5.3622662e-01  -2.3250930e+00
  -5.3306473e-01   5.3622265e-01  -2.8132958e+00
  -1.0212660e+00   5.3621869e-01  -2.8132985e+00
  -1.0212673e+00   5.3621472e-01  -3.3016013e+00
  -1.5095686e+00   5.3621076e-01  -3.3016040e+00
  -1.5095699e+00   5.3620679e-01  -3.3016068e+00
  -1.9978712e+00   5.3620283e-01  -3.7899095e+00
  -1.9978725e+00   1.0244989e+00  -3.7899122e+00
  -2.4861738e+00   5.3619490e-01  -3.7899150e+00
  -2.9744751e+00   5.3619094e-01  -4.2782177e+00
  -2.9744764e+00   5.3618697e-01  -4.2782205e+00
  -3.4626777e+00   5.3618301e-01  -4.2782232e+00
  -3.9509790e+00   5.3617904e-01  -4.2782260e+00
  -3.9509803e+00   5.3617508e-01  -4.2782287e+00
  -4.4392816e+00   4.7871114e-02  -4.2782314e+00
  -4.4392829e+00   4.7867150e-02  -4.2782342e+00
  -4.9275842e+00   4.7863185e-02  -4.2782369e+00
  -4.9275855e+00   4.7859221e-02  -4.2782397e+00
  -5.4158868e+00  -4.4044474e-01  -4.2782424e+00
  -5.4158881e+00  -4.4044871e-01  -4.2782452e+00
  -5.4158894e+00  -4.4045267e-01  -4.2782479e+00
  -5.4158907e+00  -4.4045664e-01  -4.2782506e+00
  -5.4158920e+00  -4.4046060e-01  -3.7899534e+00
  -5.4158933e+00  -4.4046457e-01  -3.7899561e+00
  -5.9040946e+00  -4.4046853e-01  -3.7899589e+00
  -5.4158959e+00  -4.4047249e-01  -3.3016616e+00
  -5.9040972e+00  -4.4047646e-01  -3.3016644e+00
  -5.4158985e+00  -4.4048042e-01  -3.3016671e+00
  -5.4158998e+00  -4.4048439e-01  -2.8133698e+00
  -5.4159011e+00   4.7811648e-02  -2.8133726e+00
  -5.4159024e+00   4.7807684e-02  -2.3251753e+00
  -5.4159037e+00   4.7803719e-02  -2.3251781e+00
  -4.9276050e+00   4.7799755e-02  -2.3251808e+00
  -4.9276063e+00   4.7795791e-02  -1.8368836e+00
  -4.4393076e+00   4.7791826e-02  -1.8368863e+00
  -4.4393089e+00   4.7787862e-02  -1.3485891e+00
  -4.4393102e+00   4.7783897e-02  -1.3485918e+00
  -3.9510115e+00   4.7779933e-02  -1.3485945e+00
  -3.9510128e+00   4.7775969e-02  -1.3485973e+00
  -3.4627141e+00   4.7772004e-02  -8.6030002e-01
  -3.4627154e+00   4.7768040e-02  -8.6030277e-01
  -2.9745167e+00   4.7764075e-02  -8.6030551e-01
  -2.9745180e+00   5.3606011e-01  -3.7200825e-01
  -2.4862193e+00   4.7756146e-02  -3.7201099e-01
  -2.4862206e+00   5.3605218e-01   1.1618626e-01
  -1.9979219e+00   5.3604822e-01   1.1618352e-01
  -1.9979231e+00   5.3604425e-01   6.0448078e-01
  -1.5096244e+00   5.3604029e-01   6.0447803e-01
  -1.5096257e+00   1.0243363e+00   1.0927753e+00
  -1.0213270e+00   1.0243324e+00   1.0927725e+00
  -5.3312834e-01   1.0243284e+00   1.5810698e+00
  -5.3312964e-01   1.0243244e+00   1.5810671e+00
  -4.4830939e-02   1.0243205e+00   2.0693643e+00
  -4.4832237e-02   5.3601650e-01   2.0693616e+00
  -4.4833535e-02   5.3601254e-01   2.5576588e+00
   4.4346517e-01   5.3600857e-01   2.5576561e+00
   4.4346387e-01   5.3600461e-01   3.0458533e+00
   4.4346257e-01   5.3600064e-01   3.0458506e+00
   9.3176127e-01   5.3599668e-01   3.0458479e+00
   9.3175997e-01   5.3599272e-01   3.5341451e+00
   9.3175868e-01   5.3598875e-01   3.5341424e+00
   9.3175738e-01   5.3598479e-01   3.5341396e+00
   1.4200561e+00   5.3598082e-01   3.5341369e+00
   1.4200548e+00   5.3597686e-01   3.5341341e+00
   1.4200535e+00   5.3597289e-01   3.5341314e+00
   1.9083522e+00   1.0242689e+00   3.5341287e+00
   1.9083509e+00   5.3596497e-01   3.5341259e+00
   1.9083496e+00   1.0242610e+00   3.5341232e+00
   2.3965483e+00   1.0242570e+00   3.0458204e+00
   2.3965470e+00   5.3595307e-01   3.0458177e+00
   2.8848457e+00   5.3594911e-01   3.5341149e+00
   2.8848444e+00   5.3594514e-01   3.0458122e+00
   2.8848431e+00   5.3594118e-01   3.0458095e+00
   2.8848418e+00   5.3593721e-01   3.0458067e+00
   2.8848405e+00   5.3593325e-01   3.0458040e+00
   3.3731392e+00   4.7629286e-02   3.0458012e+00
   3.3731379e+00   4.7625321e-02   3.0457985e+00
   3.3731366e+00   4.7621357e-02   3.0457957e+00
   3.3731353e+00  -4.4068261e-01   3.0457930e+00
   3.3731340e+00  -4.4068657e-01   3.0457903e+00
   3.8614327e+00  -4.4069054e-01   3.0457875e+00
   3.8614314e+00  -9.2899450e-01   3.0457848e+00
   3.8614301e+00  -9.2899847e-01   3.0457820e+00
   3.8614288e+00  -9.2900243e-01   2.5575793e+00
   3.8614275e+00  -9.2900639e-01   2.5575765e+00
   3.8614262e+00  -9.2901036e-01   2.5575738e+00
   3.8614249e+00  -9.2901432e-01   2.0692711e+00
   3.8614236e+00  -9.2901829e-01   2.0692683e+00
   3.8614223e+00  -9.2902225e-01   2.0692656e+00
   3.8614210e+00  -9.2902622e-01   2.0692628e+00
   3.8614197e+00  -9.2903018e-01   1.5809601e+00
   3.3731184e+00  -9.2903414e-01   1.5809573e+00
   2.8848171e+00  -9.2903811e-01   1.5809546e+00
   2.8848158e+00  -4.4074207e-01   1.0926519e+00
   2.8848145e+00  -4.4074604e-01   1.0926491e+00
   2.3965132e+00  -4.4075000e-01   1.0926464e+00
   2.3965119e+00  -4.4075397e-01   6.0434363e-01
   1.9083106e+00   4.7542069e-02   6.0434089e-01
   1.9083093e+00   4.7538104e-02   6.0433815e-01
   1.9083080e+00   4.7534140e-02   6.0433540e-01
   1.4200067e+00   4.7530175e-02   6.0433266e-01
   1.4200054e+00   4.7526211e-02   1.1602992e-01
   1.4200042e+00   4.7522247e-02   1.1602717e-01
   1.4200029e+00   4.7518282e-02  -3.7217557e-01
   1.4200016e+00   4.7514318e-02  -3.7217831e-01
   1.4200003e+00   4.7510353e-02  -3.7218106e-01
   1.4199990e+00   4.7506389e-02  -8.6048380e-01
   1.4199977e+00   4.7502425e-02  -8.6048654e-01
   1.4199964e+00   4.7498460e-02  -1.3487893e+00
   1.4199951e+00   4.7494496e-02  -1.3487920e+00
   1.4199938e+00   4.7490531e-02  -1.3487948e+00
   1.4199925e+00   4.7486567e-02  -1.8370975e+00
   1.4199912e+00   4.7482603e-02  -1.8371003e+00
   1.4199899e+00   4.7478638e-02  -1.8371030e+00
   1.4199886e+00   4.7474674e-02  -2.3254057e+00
   1.4199873e+00   4.7470709e-02  -2.3254085e+00
   9.3168598e-01   4.7466745e-02  -2.3254112e+00
   9.3168468e-01   4.7462781e-02  -2.3254140e+00
