********************************************************************************
           RED INTERUNIVERSITARIA DE INSTRUMENTACION SISIMICA (RIIS)
 AREA DE ESTRUCTURAS, UNIVERSIDAD AUTONOMA METROPOLITANA - UNIDAD AZCAPOTZALCO
         AV. SAN PABLO 180; COL. REYNOSA TAMAULIPAS; MEXICO D.F. 02200.                                                                               
       TELS: 7235859, 7235856; FAX: 7244285; e-mail: esz@hp9000a1.uam.mx
********************************************************************************
ARCHIVO ESTANDAR DE ACELERACION:
VERSION DEL FORMATO                    : 2.0
NOMBRE DEL ARCHIVO                     : RIDA0110.081
FECHA Y HORA DE CREACION               : JUNIO, 2002
REF. CATALOGO ACELEROGRAMAS, SMIS 1996 : 


================================================================================
DATOS DE LA ESTACION:
NOMBRE DE LA ESTACION                  : UAM AZCAPOTZALCO
CLAVE DE LA ESTACION                   : RIDA
LOCALIZACION DE LA ESTACION            : AVENIDA SAN PABLO Y EJE 5, COLONIA
                                       : REYNOSA, PLANTEL AZCAPOTZALCO, JARDIN
                                       : ENTRE EDIFICIO "H" Y "E", MEXICO, D.F.
                                       :
                                       :
COORDENADAS DE LA ESTACION             : 19.520 LAT. N 
                                       : 99.190 LONG. W 
ALTITUD (msnm)                         : 2240
TIPO DE SUELO                          : LIMO ARENOSO
                                       : 
                                       : 
INSTITUCION RESPONSABLE                : RED INTERUNIVERSITARIA DE
                                       : INSTRUMENTACION SISMICA (RIIS)

================================================================================
DATOS DEL ACELEROGRAFO:
MODELO DEL ACELEROGRAFO                : SSA-2
NUMERO DE SERIE DEL ACELEROGRAFO       : 1561
NUMERO DE CANALES                      : 3
ORIENTACION C1-C6 (rumbo;orientacion)  : /N00E/+V/N90E
ORIENTACION C7-C12 (rumbo;orientacion) :
VEL. DE MUESTREO, C1-C6 (muestras/s)   : /200/200/200
VEL. DE MUESTREO, C7-C12 (muestras/s)  :
ESC. COMPLETA DE SENSORES, C1-C6, (g)  : /1.0/1.0/1.0
ESC. COMPLETA DE SENSORES, C7-C12, (g) :
FREC. NAT. DE SENSORES, C1-C6, (Hz)    : /50.0/50.0/50.0
FREC. NAT. DE SENSORES, C7-C12, (Hz)   :
AMORTIGUAMIENTO DE SENSORES, C1-C6     : /0.7/0.7/0.7
AMORTIGUAMIENTO DE SENSORES, C7-C12    :
INTERVALO DE MUESTREO, C1-C6, (s)      : /0.005/0.005/0.005
INTERVALO DE MUESTREO, C7-C12, (s)     :
UMBRAL DE DISPARO, C1-C6, (Gal)        : /3/3/3
UMBRAL DE DISPARO, C7-C12, (Gal)       :
MEMORIA DE PREEVENTO (s)               : 15
TIEMPO DE POSEVENTO (s)                : 60


================================================================================
DATOS DEL SISMO:
FECHA DEL SISMO (GMT)                  : 08/OCT/2001                    
HORA EPICENTRO (GMT)                   : 03:39                          
MAGNITUD(ES)                           : /Ms=6.1                        
COORDENADAS DEL EPICENTRO              : 16.98 LAT. N                   
                                       : 100.16 LONG. W                 
PROFUNDIDAD FOCAL (km)                 : 10                             
FUENTES DE LOS DATOS EPICENTRALES      : SSN                            
                                       : SISTEMA SISMOLOGICO NACIONAL   

================================================================================
DATOS DE ESTE REGISTRO:
HORA DE LA PRIMERA MUESTRA (GMT)       : 03:39:00.00
EXACTITUD DEL TIEMPO (s)               : 
DURACION DEL REGISTRO (s), C1-C6       : /108.80/108.80/108.80                
DURACION DEL REGISTRO (s), C7-C12      :                                      
NUM. TOTAL DE MUESTRAS, C1-C6          : /21760/21760/21760                   
NUM. TOTAL DE MUESTRAS, C7-C12         :                                      
ACEL. MAX.(Gal), C1-C6                 : /17.08/3.90/8.30                     
ACEL. MAX., C1-C6, EN LA MUESTRA       : /5174/3300/5169                      
ACEL. MAX.(Gal), C7-C12                :
ACEL. MAX., C7-C12, EN LA MUESTRA      : 
UNIDADES DE LOS DATOS                  : Gal 
FACTOR DE DECIMACION                   : 1
FORMATO DATOS (FORTRAN,10 campos/dato) : 3F10.4


===============================================================================
CALIDAD DEL ACELEROGRAMA:
REGISTRO DIGITAL COMPLETO, CARECE DE TIEMPO ABSOLUTO.


===============================================================================
COMENTARIOS:
CADA UNO DE LOS CANALES SE ENCUENTRA AJUSTADO POR LINEA BASE MEDIANTE LA
SUSTRACCION DEL PROMEDIO DE LAS ACELERACIONES EN EL TIEMPO.











MODELO DEL ACELEROGRAFO : SSA-2 (KINEMETRICS)
===============================================================================
DATOS DE ACELERACION:
---------+---------+---------+---------+---------+---------+---------+---------+
   CANAL-1   CANAL-2   CANAL-3   CANAL-4   CANAL-5   CANAL-6   CANAL-7   CANAL-8
      N00E        +V      N90E
---------+---------+---------+---------+---------+---------+---------+---------+
[...]
  -10.7422   -2.9297   -5.8594
  -10.2539   -2.4414   -5.8594
  -10.7422   -2.4414   -5.8594
  -10.7422   -2.4414   -5.8594
  -10.7422   -2.4414   -5.8594
  -10.7422   -2.4414   -5.3711
  -10.7422   -1.9531   -5.3711
  -10.7422   -1.9531   -5.3711
  -10.7422   -1.9531   -5.3711
  -10.7422   -1.9531   -4.8828
  -10.7422   -2.4414   -4.8828
  -10.7422   -2.4414   -4.8828
  -10.2539   -1.9531   -4.3945
  -10.2539   -2.4414   -4.3945
  -10.2539   -2.4414   -3.9063
  -10.2539   -2.4414   -3.9063
   -9.7656   -2.4414   -3.9063
   -9.7656   -2.4414   -3.4180
   -9.7656   -2.4414   -3.4180
   -9.2773   -1.9531   -3.4180
   -9.2773   -1.9531   -3.4180
   -9.2773   -1.9531   -3.4180
   -9.2773   -1.9531   -2.9297
   -9.2773   -1.9531   -2.9297
   -9.2773   -1.9531   -2.9297
   -9.7656   -1.9531   -2.9297
   -9.7656   -1.9531   -2.4414
   -9.7656   -1.9531   -2.4414
   -9.7656   -1.9531   -2.4414
   -9.7656   -1.9531   -2.4414
  -10.2539   -1.9531   -2.4414
  -10.2539   -2.4414   -2.4414
  -10.2539   -1.9531   -2.4414
  -10.2539   -2.4414   -2.4414
  -10.2539   -2.4414   -2.4414
  -10.2539   -2.4414   -2.9297
  -10.2539   -2.4414   -2.9297
  -10.2539   -2.4414   -2.9297
  -10.7422   -2.4414   -3.4180
  -10.7422   -2.4414   -3.4180
  -10.7422   -2.4414   -3.4180
  -11.2305   -2.4414   -3.4180
  -11.2305   -2.4414   -3.4180
  -11.7188   -2.4414   -3.4180
  -11.7188   -2.4414   -3.4180
  -12.2070   -2.9297   -3.4180
  -12.2070   -2.9297   -3.4180
  -12.2070   -2.9297   -3.4180
  -12.6953   -2.9297   -3.4180
  -12.6953   -2.9297   -3.4180
  -12.6953   -2.9297   -3.4180
  -12.6953   -2.9297   -3.4180
  -12.6953   -2.9297   -3.4180
  -12.6953   -2.9297   -3.4180
  -12.6953   -2.9297   -3.4180
  -12.6953   -2.9297   -3.4180
  -13.1836   -2.9297   -3.4180
  -13.1836   -2.4414   -3.4180
  -13.1836   -2.4414   -3.9063
  -13.1836   -2.4414   -3.9063
  -13.1836   -2.4414   -3.9063
  -13.1836   -2.4414   -3.9063
  -13.1836   -2.4414   -3.9063
  -13.1836   -2.4414   -3.9063
  -13.1836   -2.4414   -4.3945
  -13.1836   -2.4414   -4.3945
  -13.1836   -2.4414   -4.3945
  -13.1836   -2.4414   -4.3945
  -13.1836   -2.4414   -3.9063
  -13.1836   -2.4414   -3.9063
  -13.1836   -2.9297   -3.9063
  -13.1836   -2.9297   -3.9063
  -12.6953   -2.9297   -3.9063
  -12.6953   -2.9297   -3.9063
  -12.6953   -2.9297   -3.4180
  -12.6953   -3.4180   -3.4180
  -12.2070   -3.4180   -3.4180
  -12.2070   -3.4180   -3.4180
  -11.7188   -3.4180   -3.4180
  -11.7188   -3.4180   -3.4180
  -11.2305   -3.4180   -3.4180
  -11.2305   -2.9297   -3.4180
  -11.2305   -2.9297   -3.4180
  -10.7422   -2.9297   -3.4180
  -10.7422   -2.9297   -3.4180
  -10.7422   -2.9297   -3.9063
  -10.2539   -2.4414   -3.9063
  -10.2539   -2.4414   -3.9063
  -10.2539   -2.4414   -3.9063
  -10.2539   -2.4414   -3.9063
   -9.7656   -2.4414   -3.9063
   -9.7656   -2.4414   -3.9063
   -9.7656   -2.4414   -3.9063
   -9.7656   -2.4414   -3.9063
   -9.7656   -2.4414   -3.9063
   -9.7656   -2.4414   -3.9063
   -9.7656   -2.4414   -3.9063
   -9.2773   -2.4414   -3.9063
   -9.2773   -2.4414   -3.9063
   -9.2773   -2.4414   -3.9063
   -9.2773   -2.4414   -3.9063
   -9.2773   -2.4414   -3.4180
   -9.2773   -2.4414   -3.4180
   -9.7656   -2.4414   -3.4180
   -9.7656   -2.4414   -3.4180
   -9.7656   -2.4414   -2.9297
   -9.7656   -2.4414   -3.4180
   -9.7656   -2.4414   -2.9297
   -9.7656   -1.9531   -2.9297
   -9.2773   -1.9531   -2.9297
   -9.2773   -1.9531   -2.9297
   -9.2773   -1.9531   -2.9297
   -9.2773   -1.9531   -2.9297
   -9.2773   -1.9531   -2.9297
   -8.7891   -1.4648   -2.9297
   -8.7891   -1.4648   -2.9297
   -8.3008   -1.4648   -3.4180
   -8.3008   -1.4648   -3.4180
   -8.3008   -1.4648   -3.4180
   -8.3008   -1.4648   -3.4180
   -8.3008   -1.4648   -3.4180
   -8.3008   -1.9531   -3.9063
   -8.3008   -1.4648   -3.9063
   -8.7891   -1.9531   -3.9063
   -8.7891   -1.9531   -3.9063
   -8.7891   -1.9531   -3.9063
   -9.2773   -1.9531   -3.9063
   -9.2773   -1.9531   -3.9063
   -9.7656   -1.9531   -3.9063
   -9.7656   -1.9531   -4.3945
   -9.7656   -1.9531   -4.3945
  -10.2539   -1.9531   -4.3945
  -10.2539   -1.9531   -4.3945
  -10.2539   -1.9531   -4.3945
  -10.7422   -1.9531   -4.3945
  -10.7422   -1.9531   -4.3945
  -10.7422   -1.9531   -4.3945
  -10.7422   -1.9531   -4.8828
  -11.2305   -1.9531   -4.8828
  -11.2305   -1.4648   -4.8828
  -11.2305   -1.4648   -4.8828
  -11.2305   -1.4648   -4.8828
  -11.2305   -1.4648   -4.8828
  -11.2305   -1.4648   -4.8828
  -11.2305   -1.4648   -4.8828
  -11.2305   -1.4648   -4.8828
  -11.2305   -1.4648   -4.8828
  -11.2305   -1.4648   -4.8828
  -11.2305   -1.9531   -4.8828
  -11.2305   -1.9531   -4.8828
  -11.7188   -1.9531   -4.8828
  -11.7188   -1.9531   -4.8828
  -11.7188   -1.9531   -4.8828
  -12.2070   -1.9531   -4.8828
  -12.2070   -2.4414   -4.8828
  -12.2070   -2.4414   -4.8828
  -12.6953   -2.4414   -4.8828
  -12.6953   -2.4414   -4.8828
  -12.6953   -2.4414   -4.8828
  -12.6953   -2.4414   -4.3945
  -12.6953   -2.4414   -4.3945
  -12.6953   -2.4414   -4.3945
  -12.2070   -2.9297   -4.3945
  -12.2070   -2.9297   -4.3945
  -12.2070   -2.9297   -4.3945
  -12.2070   -2.9297   -3.9063
  -11.7188   -2.9297   -4.3945
  -12.2070   -2.9297   -3.9063
  -11.7188   -2.9297   -4.3945
  -11.7188   -2.4414   -4.3945
  -11.7188   -2.4414   -4.3945
  -11.2305   -2.4414   -4.3945
  -11.2305   -2.4414   -4.3945
  -11.2305   -2.4414   -4.8828
  -11.2305   -2.4414   -4.8828
  -10.7422   -2.4414   -4.8828
  -10.7422   -2.4414   -4.8828
  -10.7422   -2.4414   -4.8828
  -10.2539   -2.4414   -5.3711
  -10.2539   -2.4414   -5.3711
  -10.2539   -2.4414   -5.3711
  -10.2539   -2.4414   -5.3711
  -10.2539   -2.4414   -5.3711
  -10.2539   -2.9297   -5.3711
  -10.2539   -2.9297   -5.3711
  -10.2539   -2.9297   -5.3711
  -10.2539   -2.9297   -5.3711
  -10.2539   -2.9297   -5.3711
  -10.2539   -2.9297   -5.3711
  -10.2539   -2.9297   -5.3711
  -10.7422   -2.9297   -5.3711
  -10.7422   -2.9297   -5.3711
  -10.7422   -2.9297   -5.3711
  -11.2305   -2.4414   -5.3711
  -11.2305   -2.4414   -4.8828
  -11.2305   -2.4414   -4.8828
  -11.2305   -2.9297   -4.8828
  -11.2305   -2.9297   -4.8828
  -11.7188   -2.9297   -4.8828
  -11.7188   -2.9297   -4.8828
  -11.7188   -2.9297   -4.3945
  -12.2070   -2.9297   -4.3945
  -12.2070   -2.9297   -4.3945
  -12.2070   -2.9297   -4.3945
  -12.2070   -3.4180   -3.9063
  -12.2070   -3.4180   -3.9063
  -12.2070   -3.4180   -3.9063
  -12.2070   -3.4180   -3.4180
  -12.2070   -3.4180   -3.4180
  -12.2070   -3.4180   -2.9297
  -12.2070   -3.4180   -2.9297
  -12.6953   -3.4180   -2.9297
  -12.6953   -3.4180   -2.4414
  -12.6953   -3.4180   -2.4414
  -12.6953   -3.4180   -2.4414
  -12.6953   -3.4180   -1.9531
  -13.1836   -3.4180   -1.9531
  -13.1836   -2.9297   -1.9531
  -13.1836   -2.9297   -1.9531
  -13.1836   -2.9297   -1.9531
  -13.1836   -2.4414   -1.9531
  -13.6719   -2.4414   -2.4414
  -13.6719   -2.4414   -2.4414
  -13.6719   -2.4414   -2.4414
  -13.6719   -2.4414   -2.4414
  -13.6719   -1.9531   -2.4414
  -13.1836   -2.4414   -2.4414
  -13.1836   -1.9531   -2.4414
  -13.1836   -1.9531   -2.4414
  -13.1836   -1.9531   -2.4414
  -12.6953   -1.9531   -2.4414
  -12.6953   -1.9531   -2.4414
  -12.6953   -1.9531   -2.4414
  -12.2070   -1.9531   -2.4414
  -12.2070   -1.9531   -2.4414
  -12.2070   -1.9531   -2.4414
  -12.2070   -1.9531   -2.9297
  -12.2070   -1.9531   -2.4414
  -11.7188   -1.9531   -2.4414
  -11.7188   -2.4414   -2.9297
  -11.7188   -1.9531   -2.9297
  -11.7188   -1.9531   -2.9297
  -11.7188   -1.9531   -2.9297
  -11.2305   -1.9531   -2.9297
  -11.7188   -1.9531   -2.9297
  -11.2305   -1.9531   -2.9297
  -11.2305   -1.9531   -3.4180
  -11.2305   -1.9531   -3.4180
  -11.2305   -1.9531   -3.4180
  -11.2305   -1.9531   -3.4180
  -11.2305   -1.9531   -3.9063
  -11.2305   -1.9531   -3.9063
  -11.2305   -2.4414   -3.9063
  -10.7422   -2.4414   -3.9063
  -10.7422   -2.4414   -3.9063
  -10.7422   -2.9297   -3.9063
  -10.7422   -2.9297   -3.9063
  -10.7422   -2.9297   -3.9063
  -10.7422   -2.9297   -3.9063
  -10.2539   -3.4180   -3.9063
  -10.2539   -3.4180   -3.4180
  -10.2539   -3.4180   -3.4180
   -9.7656   -3.4180   -3.4180
   -9.7656   -3.4180   -3.4180
   -9.7656   -3.4180   -3.4180
   -9.2773   -3.4180   -3.4180
   -9.2773   -3.4180   -2.9297
   -8.7891   -3.4180   -2.9297
   -8.3008   -3.4180   -2.9297
   -8.3008   -3.4180   -2.4414
   -8.3008   -3.4180   -2.4414
   -7.8125   -3.4180   -2.4414
   -7.8125   -2.9297   -1.9531
   -7.8125   -2.9297   -1.9531
   -7.8125   -2.9297   -1.9531
   -7.8125   -2.9297   -1.4648
   -7.8125   -2.9297   -1.4648
   -7.3242   -2.9297   -1.4648
   -7.3242   -2.4414   -1.4648
   -7.3242   -2.9297   -1.4648
   -7.3242   -2.4414   -1.4648
   -7.8125   -2.4414   -1.4648
   -7.8125   -2.4414   -1.4648
   -7.8125   -2.4414   -1.4648
   -7.8125   -2.4414   -1.9531
   -7.8125   -2.4414   -1.9531
   -7.8125   -2.4414   -1.9531
   -7.8125   -2.4414   -2.4414
   -7.8125   -2.4414   -2.4414
   -7.8125   -2.4414   -2.4414
   -7.3242   -2.4414   -2.9297
   -7.3242   -2.4414   -2.9297
   -7.3242   -2.4414   -2.9297
   -7.3242   -2.4414   -2.9297
   -7.8125   -2.4414   -3.4180
   -7.3242   -2.4414   -3.4180
   -7.8125   -1.9531   -3.4180
   -7.8125   -1.9531   -3.4180
   -7.8125   -1.9531   -3.9063
   -8.3008   -2.4414   -3.9063
   -8.3008   -2.4414   -4.3945
   -8.7891   -2.4414   -4.3945
   -8.7891   -2.4414   -4.3945
   -9.2773   -2.4414   -4.8828
   -9.7656   -2.4414   -4.8828
   -9.7656   -2.4414   -5.3711
  -10.2539   -2.4414   -5.3711
  -10.7422   -2.4414   -5.3711
  -10.7422   -2.4414   -5.8594
  -11.2305   -2.4414   -5.8594
  -11.2305   -2.4414   -6.3477
  -11.7188   -1.9531   -6.3477
  -11.7188   -1.9531   -6.8359
  -12.2070   -1.9531   -6.8359
  -12.2070   -1.9531   -7.3242
  -12.6953   -1.9531   -7.3242
  -12.6953   -1.9531   -7.3242
  -13.1836   -1.9531   -7.8125
  -13.1836   -1.4648   -7.8125
  -13.6719   -1.9531   -7.8125
  -14.1602   -1.9531   -8.3008
  -14.1602   -1.9531   -8.3008
  -14.6484   -1.9531   -8.3008
  -15.1367   -1.9531   -8.3008
  -15.1367   -1.9531   -8.3008
  -15.6250   -2.4414   -8.3008
  -15.6250   -2.4414   -8.3008
  -16.1133   -2.4414   -8.3008
  -16.1133   -2.4414   -8.3008
  -16.6016   -2.9297   -8.3008
  -16.6016   -2.9297   -8.3008
  -16.6016   -2.9297   -8.3008
  -16.6016   -2.9297   -8.3008
  -16.6016   -2.9297   -7.8125
  -16.6016   -2.9297   -7.8125
  -17.0898   -2.9297   -7.8125
  -16.6016   -2.9297   -7.3242
  -17.0898   -2.9297   -7.3242
  -16.6016   -2.9297   -7.3242
  -16.6016   -2.9297   -6.8359
  -16.6016   -2.4414   -6.8359
  -16.6016   -2.4414   -6.3477
  -16.6016   -2.4414   -6.3477
  -16.1133   -2.4414   -6.3477
  -16.1133   -2.4414   -5.8594
  -15.6250   -2.4414   -5.8594
  -15.6250   -2.4414   -5.3711
  -15.6250   -2.4414   -5.3711
  -15.1367   -2.4414   -5.3711
  -15.1367   -2.4414   -5.3711
  -14.6484   -2.4414   -4.8828
  -14.6484   -2.4414   -4.8828
  -14.1602   -2.4414   -4.8828
  -14.1602   -1.9531   -4.3945
  -13.6719   -2.4414   -4.3945
  -13.6719   -1.9531   -3.9063
  -13.1836   -1.9531   -3.9063
  -13.1836   -1.9531   -3.4180
  -12.6953   -1.9531   -3.4180
  -12.6953   -1.4648   -2.9297
  -12.2070   -1.4648   -2.9297
  -11.7188   -1.4648   -2.4414
  -11.7188   -1.4648   -2.4414
  -11.2305   -1.4648   -1.9531
  -11.2305   -1.9531   -1.9531
  -11.2305   -1.9531   -1.4648
  -10.7422   -1.9531   -1.4648
  -10.7422   -1.9531    -.9766
  -10.7422   -1.9531    -.9766
  -10.2539   -1.9531    -.9766
  -10.2539   -1.9531    -.4883
  -10.2539   -1.9531    -.4883
  -10.2539   -1.9531    -.4883
   -9.7656   -1.9531    -.4883
   -9.7656   -1.9531    -.4883
   -9.7656   -1.9531    -.4883
   -9.2773   -1.4648    -.4883
   -9.2773   -1.9531    -.4883
   -9.2773   -1.4648    -.4883
   -8.7891   -1.4648    -.9766
   -8.7891   -1.9531    -.9766
   -8.3008   -1.9531    -.4883
   -8.3008   -1.9531    -.9766
   -8.3008   -1.9531    -.9766
   -8.3008   -1.9531    -.9766
   -8.3008   -1.9531    -.9766
   -7.8125   -2.4414    -.9766
   -7.8125   -2.4414    -.9766
   -7.8125   -2.4414    -.9766
   -7.8125   -2.9297    -.9766
   -7.8125   -2.9297    -.9766
   -7.3242   -2.9297    -.9766
   -7.3242   -3.4180    -.9766
   -7.3242   -3.4180    -.9766
   -7.3242   -3.4180   -1.4648
   -7.3242   -3.4180   -1.4648
   -7.3242   -3.4180   -1.4648
   -7.3242   -3.4180   -1.9531
   -7.3242   -3.4180   -1.9531
   -7.3242   -3.4180   -1.9531
   -7.3242   -3.4180   -1.9531
   -7.3242   -3.4180   -2.4414
   -7.8125   -3.4180   -2.4414
   -8.3008   -3.4180   -2.4414
   -8.3008   -2.9297   -2.9297
   -8.3008   -2.9297   -2.9297
   -8.7891   -2.9297   -2.9297
   -8.7891   -2.9297   -3.4180
   -9.2773   -2.4414   -3.4180
   -9.2773   -2.4414   -3.4180
   -9.2773   -2.4414   -3.4180
   -9.7656   -2.4414   -3.4180
   -9.7656   -2.4414   -3.9063
   -9.7656   -2.4414   -3.9063
   -9.7656   -2.4414   -4.3945
   -9.7656   -2.4414   -4.3945
   -9.7656   -2.4414   -4.3945
   -9.7656   -2.4414   -4.8828
   -9.7656   -2.4414   -4.8828
   -9.7656   -2.4414   -5.3711
   -9.7656   -2.4414   -5.3711
   -9.7656   -2.4414   -5.3711
   -9.7656   -2.4414   -5.8594
   -9.7656   -2.4414   -5.8594
   -9.7656   -2.4414   -5.8594
   -9.7656   -2.4414   -6.3477
   -9.7656   -2.4414   -6.3477
  -10.2539   -2.4414   -6.3477
  -10.2539   -2.4414   -6.3477
  -10.2539   -2.4414   -6.3477
  -10.2539   -2.4414   -6.8359
  -10.7422   -2.4414   -6.8359
  -10.7422   -2.4414   -6.8359
  -10.7422   -2.4414   -6.8359
  -11.2305   -2.4414   -6.8359
  -11.2305   -2.4414   -6.8359
  -11.2305   -2.4414   -7.3242
  -11.7188   -2.4414   -7.3242
  -11.7188   -2.4414   -7.3242
  -11.7188   -1.9531   -7.3242
  -12.2070   -1.9531   -7.3242
  -11.7188   -1.9531   -7.3242
  -12.2070   -1.9531   -7.3242
  -12.2070   -2.4414   -7.3242
  -11.7188   -2.4414   -7.3242
  -11.7188   -2.4414   -7.3242
  -11.7188   -2.4414   -7.3242
  -11.7188   -2.4414   -7.8125
  -11.7188   -2.4414   -7.3242
  -11.7188   -2.9297   -7.3242
  -11.2305   -2.9297   -7.3242
  -11.2305   -2.9297   -7.3242
  -11.2305   -2.9297   -7.3242
  -11.2305   -2.9297   -7.3242
  -11.2305   -2.9297   -7.3242
  -11.2305   -2.9297   -7.3242
  -10.7422   -2.9297   -7.3242
  -10.7422   -2.9297   -7.3242
  -10.7422   -2.9297   -6.8359
  -10.7422   -2.9297   -6.8359
  -10.7422   -2.9297   -6.8359
  -10.7422   -2.4414   -6.8359
  -10.7422   -2.4414   -6.8359
  -10.7422   -2.4414   -6.8359
  -10.7422   -2.4414   -6.8359
  -10.2539   -2.4414   -6.8359
  -10.2539   -1.9531   -6.8359
  -10.2539   -1.9531   -6.3477
  -10.2539   -1.9531   -6.3477
  -10.2539   -1.9531   -6.3477
  -10.2539   -1.9531   -5.8594
  -10.7422   -1.9531   -5.8594
  -10.7422   -1.9531   -5.3711
  -10.7422   -1.9531   -5.3711
  -10.7422   -1.9531   -4.8828
  -10.7422   -2.4414   -4.8828
  -10.7422   -1.9531   -4.3945
  -10.7422   -1.9531   -4.3945
  -10.7422   -1.9531   -3.9063
