********************************************************************************
           RED INTERUNIVERSITARIA DE INSTRUMENTACION SISIMICA (RIIS)
 AREA DE ESTRUCTURAS, UNIVERSIDAD AUTONOMA METROPOLITANA - UNIDAD AZCAPOTZALCO
         AV. SAN PABLO 180; COL. REYNOSA TAMAULIPAS; MEXICO D.F. 02200.                                                                               
       TELS: 7235859, 7235856; FAX: 7244285; e-mail: esz@hp9000a1.uam.mx
********************************************************************************
ARCHIVO ESTANDAR DE ACELERACION:
VERSION DEL FORMATO                    : 2.0
NOMBRE DEL ARCHIVO                     : RIDI0110.081
FECHA Y HORA DE CREACION               : JUNIO, 2002
REF. CATALOGO ACELEROGRAMAS, SMIS 1996 : 


================================================================================
DATOS DE LA ESTACION:
NOMBRE DE LA ESTACION                  : UAM IZTAPALAPA
CLAVE DE LA ESTACION                   : RIDI
LOCALIZACION DE LA ESTACION            : AVENIDA MICHOACAN ESQUINA LA PURISIMA,
                                       : COLONIA VICENTINA, PLANTEL IZTAPALAPA
                                       : FRENTE AL EDIFICIO "O", MEXICO, D.F.
                                       :
                                       :
COORDENADAS DE LA ESTACION             : 19.360 LAT. N 
                                       : 99.060 LONG. W 
ALTITUD (msnm)                         : 2235
TIPO DE SUELO                          : LIMOS Y ARENAS ARCILLOSAS
                                       : 
                                       : 
INSTITUCION RESPONSABLE                : RED INTERUNIVERSITARIA DE 
                                       : INSTRUMENTACION SISMICA (RIIS)

================================================================================
DATOS DEL ACELEROGRAFO:
MODELO DEL ACELEROGRAFO                : SSA-2
NUMERO DE SERIE DEL ACELEROGRAFO       : 1009
NUMERO DE CANALES                      : 3
ORIENTACION C1-C6 (rumbo;orientacion)  : /N00E/+V/N90E
ORIENTACION C7-C12 (rumbo;orientacion) :
VEL. DE MUESTREO, C1-C6 (muestras/s)   : /200/200/200
VEL. DE MUESTREO, C7-C12 (muestras/s)  :
ESC. COMPLETA DE SENSORES, C1-C6, (g)  : /1.0/1.0/1.0
ESC. COMPLETA DE SENSORES, C7-C12, (g) :
FREC. NAT. DE SENSORES, C1-C6, (Hz)    : /50.0/50.0/50.0
FREC. NAT. DE SENSORES, C7-C12, (Hz)   :
AMORTIGUAMIENTO DE SENSORES, C1-C6     : /0.7/0.7/0.7
AMORTIGUAMIENTO DE SENSORES, C7-C12    :
INTERVALO DE MUESTREO, C1-C6, (s)      : /0.005/0.005/0.005
INTERVALO DE MUESTREO, C7-C12, (s)     :
UMBRAL DE DISPARO, C1-C6, (Gal)        : /3/3/3
UMBRAL DE DISPARO, C7-C12, (Gal)       :
MEMORIA DE PREEVENTO (s)               : 15
TIEMPO DE POSEVENTO (s)                : 60


================================================================================
DATOS DEL SISMO:
FECHA DEL SISMO (GMT)                  : 08/OCT/2001                      
HORA EPICENTRO (GMT)                   : 03:39                            
MAGNITUD(ES)                           : /Ms=6.1                          
COORDENADAS DEL EPICENTRO              : 16.98 LAT. N                     
                                       : 100.16 LONG. W                   
PROFUNDIDAD FOCAL (km)                 : 10                               
FUENTES DE LOS DATOS EPICENTRALES      : SSN                              
                                       : SISTEMA SISMOLOGICO NACIONAL     

================================================================================
DATOS DE ESTE REGISTRO:
HORA DE LA PRIMERA MUESTRA (GMT)       : 03:39:00.00
EXACTITUD DEL TIEMPO (s)               :     
DURACION DEL REGISTRO (s), C1-C6       : /79.36/79.36/79.36                
DURACION DEL REGISTRO (s), C7-C12      :                                   
NUM. TOTAL DE MUESTRAS, C1-C6          : /15872/15872/15872                
NUM. TOTAL DE MUESTRAS, C7-C12         :                                   
ACEL. MAX.(Gal), C1-C6                 : /6.34/7.26/6.83                   
ACEL. MAX., C1-C6, EN LA MUESTRA       : /3470/3363/5061                   
ACEL. MAX.(Gal), C7-C12                : 
ACEL. MAX., C7-C12, EN LA MUESTRA      :
UNIDADES DE LOS DATOS                  : Gal
FACTOR DE DECIMACION                   : 1
FORMATO DATOS (FORTRAN,10 campos/dato) : 3F10.4


===============================================================================
CALIDAD DEL ACELEROGRAMA:
REGISTRO DIGITAL COMPLETO, CARECE DE TIEMPO ABSOLUTO.


===============================================================================
COMENTARIOS:
CADA UNO DE LOS CANALES SE ENCUENTRA AJUSTADO POR LINEA BASE MEDIANTE LA
SUSTRACCION DEL PROMEDIO DE LAS ACELERACIONES EN EL TIEMPO.











MODELO DEL ACELEROGRAFO : SSA-2 (KINEMETRICS)
===============================================================================
DATOS DE ACELERACION:
---------+---------+---------+---------+---------+---------+---------+---------+
   CANAL-1   CANAL-2   CANAL-3   CANAL-4   CANAL-5   CANAL-6   CANAL-7   CANAL-8
      N00E        +V      N90E
---------+---------+---------+---------+---------+---------+---------+---------+
[...]
     .0000   -5.3285    -.9766
     .0000   -5.3285    -.9766
     .0000   -5.3285    -.4883
     .0000   -5.3285    -.4883
     .0000   -5.3285    -.4883
     .0000   -4.8441    -.4883
     .0000   -4.8441     .0000
     .0000   -4.8441     .0000
     .0000   -4.8441     .4885
     .0000   -4.3596     .4885
     .0000   -4.3596     .4885
     .0000   -3.8752     .4885
    -.4883   -3.8752     .4885
    -.4883   -3.8752     .9770
    -.4883   -3.3908     .9770
    -.4883   -3.3908    1.4656
    -.4883   -3.3908    1.4656
    -.4883   -2.9064    1.4656
    -.9766   -3.3908    1.4656
    -.9766   -2.9064    1.4656
    -.9766   -2.9064    1.4656
   -1.4648   -2.9064    1.4656
   -1.4648   -2.9064    1.4656
   -1.4648   -2.9064    1.4656
   -1.4648   -2.9064    1.4656
   -1.4648   -3.3908    1.4656
   -1.9531   -3.3908    1.4656
   -1.9531   -3.3908    1.4656
   -1.9531   -3.3908    1.4656
   -1.9531   -3.8752    1.4656
   -1.9531   -3.8752    1.4656
   -1.9531   -3.8752    1.4656
   -1.9531   -4.3596    1.4656
   -1.9531   -4.3596    1.4656
   -1.9531   -4.3596    1.4656
   -1.9531   -4.3596    1.4656
   -1.9531   -4.8441    1.4656
   -1.9531   -4.8441    1.4656
   -1.9531   -4.8441    1.4656
   -1.9531   -4.8441    1.4656
   -1.9531   -4.8441    1.4656
   -1.9531   -5.3285    1.4656
   -1.9531   -5.3285    1.4656
   -1.9531   -5.3285    1.4656
   -1.9531   -5.3285    1.4656
   -1.9531   -5.3285    1.4656
   -1.9531   -5.3285    1.4656
   -1.9531   -5.3285    1.4656
   -1.4648   -5.3285    1.4656
   -1.4648   -5.8129    1.4656
   -1.4648   -5.8129    1.4656
   -1.4648   -5.8129    1.4656
   -1.4648   -5.8129     .9770
   -1.4648   -5.8129     .9770
   -1.4648   -5.8129     .9770
   -1.4648   -6.2973     .9770
   -1.4648   -6.2973     .9770
   -1.4648   -6.2973     .9770
   -1.4648   -6.7817     .4885
   -1.4648   -6.2973     .4885
   -1.4648   -6.2973     .4885
   -1.4648   -6.2973     .4885
   -1.4648   -6.7817     .4885
   -1.4648   -6.7817     .4885
   -1.4648   -6.7817     .4885
   -1.4648   -6.7817     .4885
   -1.4648   -6.7817     .4885
   -1.4648   -6.7817     .4885
   -1.4648   -6.7817     .4885
   -1.4648   -6.7817     .4885
   -1.4648   -6.7817     .4885
   -1.4648   -6.7817     .0000
   -1.4648   -6.7817     .0000
   -1.9531   -6.7817     .0000
   -1.9531   -6.7817     .0000
   -1.9531   -6.7817     .0000
   -1.9531   -6.2973     .0000
   -1.9531   -6.2973     .0000
   -1.9531   -6.2973    -.4883
   -1.9531   -6.2973    -.4883
   -1.9531   -6.2973    -.4883
   -1.9531   -6.2973    -.9766
   -2.4414   -5.8129    -.9766
   -2.4414   -5.8129    -.9766
   -2.4414   -5.8129   -1.4648
   -2.4414   -5.8129   -1.4648
   -2.4414   -5.8129   -1.4648
   -2.9297   -5.8129   -1.4648
   -2.9297   -5.8129   -1.9531
   -2.9297   -5.8129   -1.9531
   -2.9297   -5.3285   -1.9531
   -2.9297   -5.8129   -1.9531
   -2.9297   -5.3285   -2.4414
   -2.9297   -5.3285   -2.4414
   -2.9297   -5.3285   -2.4414
   -3.4180   -5.3285   -2.4414
   -3.4180   -5.3285   -2.4414
   -3.4180   -5.3285   -2.4414
   -3.4180   -5.3285   -2.4414
   -3.4180   -5.3285   -2.4414
   -3.4180   -5.3285   -2.9297
   -3.4180   -5.3285   -2.9297
   -3.9063   -4.8441   -2.9297
   -3.9063   -4.8441   -2.9297
   -3.9063   -4.8441   -2.9297
   -3.9063   -4.8441   -2.9297
   -3.9063   -4.8441   -2.9297
   -3.9063   -4.8441   -2.9297
   -3.9063   -4.3596   -2.9297
   -4.3945   -4.3596   -2.9297
   -4.3945   -4.3596   -2.9297
   -4.3945   -4.3596   -2.9297
   -4.3945   -4.3596   -2.4414
   -4.3945   -4.3596   -2.4414
   -4.3945   -4.3596   -2.4414
   -4.8828   -4.3596   -2.4414
   -4.8828   -4.3596   -2.4414
   -4.8828   -4.3596   -2.4414
   -4.8828   -4.3596   -2.4414
   -4.8828   -4.3596   -1.9531
   -4.8828   -4.3596   -1.9531
   -4.8828   -3.8752   -1.9531
   -4.8828   -3.8752   -1.9531
   -4.8828   -3.8752   -1.9531
   -4.8828   -3.8752   -1.9531
   -4.3945   -3.8752   -1.9531
   -4.3945   -3.8752   -1.9531
   -4.3945   -3.8752   -1.9531
   -4.3945   -3.8752   -1.9531
   -4.8828   -3.8752   -1.9531
   -4.8828   -3.8752   -1.4648
   -4.8828   -3.8752   -1.9531
   -4.8828   -3.8752   -1.9531
   -4.8828   -3.8752   -1.9531
   -4.8828   -3.8752   -1.9531
   -4.8828   -3.8752   -1.9531
   -4.8828   -3.8752   -1.9531
   -4.8828   -3.8752   -2.4414
   -4.8828   -3.8752   -2.4414
   -4.8828   -3.8752   -2.4414
   -5.3711   -3.8752   -2.4414
   -5.3711   -3.8752   -2.4414
   -5.3711   -3.8752   -2.9297
   -5.3711   -3.8752   -2.9297
   -5.3711   -3.8752   -2.9297
   -5.3711   -3.8752   -2.9297
   -5.3711   -4.3596   -3.4180
   -5.3711   -4.3596   -3.4180
   -5.3711   -4.3596   -3.9063
   -5.3711   -4.3596   -3.9063
   -5.3711   -4.3596   -3.9063
   -5.3711   -4.3596   -4.3945
   -5.3711   -4.3596   -4.3945
   -5.3711   -4.8441   -4.3945
   -5.3711   -4.8441   -4.8828
   -5.3711   -4.8441   -4.8828
   -5.3711   -4.8441   -4.8828
   -5.3711   -4.8441   -5.3711
   -5.3711   -4.8441   -5.3711
   -5.3711   -5.3285   -5.3711
   -5.3711   -5.3285   -5.3711
   -5.3711   -4.8441   -5.8594
   -5.3711   -5.3285   -5.8594
   -5.3711   -5.3285   -6.3477
   -5.3711   -5.3285   -6.3477
   -5.3711   -5.3285   -6.3477
   -5.3711   -5.3285   -6.3477
   -5.3711   -5.3285   -6.3477
   -5.3711   -5.3285   -6.3477
   -4.8828   -5.3285   -6.3477
   -4.8828   -5.3285   -6.3477
   -4.3945   -5.3285   -6.3477
   -4.3945   -5.3285   -6.8359
   -4.3945   -5.3285   -6.8359
   -3.9063   -5.3285   -6.8359
   -3.9063   -5.3285   -6.8359
   -3.4180   -5.3285   -6.8359
   -3.4180   -5.3285   -6.8359
   -2.9297   -5.3285   -6.8359
   -2.9297   -5.3285   -6.8359
   -2.4414   -5.3285   -6.8359
   -2.4414   -5.3285   -6.8359
   -1.9531   -5.3285   -6.8359
   -1.9531   -5.3285   -6.8359
   -1.4648   -5.3285   -6.8359
   -1.4648   -5.3285   -6.3477
    -.9766   -5.3285   -6.3477
    -.4883   -4.8441   -6.3477
    -.4883   -4.8441   -6.3477
    -.4883   -4.8441   -6.3477
     .0000   -4.8441   -6.3477
     .0000   -4.8441   -6.3477
     .0000   -4.8441   -6.3477
     .4885   -4.8441   -6.3477
     .4885   -4.8441   -6.3477
     .4885   -4.8441   -6.3477
     .4885   -4.8441   -5.8594
     .4885   -4.8441   -5.8594
     .4885   -4.8441   -5.8594
     .4885   -4.8441   -5.8594
     .4885   -4.8441   -5.8594
     .4885   -4.3596   -5.3711
     .0000   -4.3596   -5.3711
     .0000   -4.3596   -5.3711
     .0000   -4.3596   -5.3711
     .0000   -4.3596   -5.3711
     .0000   -4.3596   -5.3711
     .0000   -4.3596   -5.3711
     .0000   -3.8752   -4.8828
     .0000   -3.8752   -4.8828
     .0000   -3.8752   -4.8828
     .0000   -3.8752   -4.3945
     .0000   -3.8752   -4.3945
    -.4883   -3.3908   -4.3945
    -.4883   -3.3908   -4.3945
    -.4883   -3.3908   -4.3945
    -.4883   -3.3908   -3.9063
    -.4883   -3.3908   -3.9063
    -.4883   -3.3908   -3.9063
    -.4883   -3.3908   -3.9063
    -.4883   -3.3908   -3.9063
    -.4883   -3.3908   -3.9063
    -.4883   -3.3908   -3.9063
    -.4883   -3.3908   -3.9063
    -.4883   -3.3908   -3.4180
    -.4883   -3.3908   -3.4180
    -.4883   -3.3908   -3.4180
    -.4883   -3.3908   -3.4180
    -.4883   -3.8752   -3.4180
    -.4883   -3.8752   -3.4180
    -.4883   -3.8752   -3.4180
     .0000   -3.8752   -3.4180
     .0000   -3.8752   -3.9063
     .0000   -4.3596   -3.4180
     .0000   -4.3596   -3.4180
     .0000   -4.3596   -3.4180
     .0000   -4.3596   -3.4180
     .0000   -4.3596   -3.4180
     .4885   -4.3596   -3.4180
     .4885   -4.8441   -3.4180
     .4885   -4.8441   -3.4180
     .4885   -4.8441   -3.4180
     .4885   -4.8441   -3.9063
     .4885   -4.8441   -3.9063
     .4885   -4.8441   -3.9063
     .4885   -5.3285   -3.9063
     .9770   -5.3285   -3.9063
     .9770   -5.3285   -3.9063
     .9770   -5.3285   -3.4180
     .9770   -5.3285   -3.4180
     .9770   -5.8129   -3.4180
    1.4656   -5.8129   -3.4180
    1.4656   -5.8129   -3.4180
    1.4656   -5.8129   -3.4180
    1.4656   -5.8129   -3.4180
    1.4656   -5.8129   -3.4180
    1.4656   -5.8129   -3.4180
    1.4656   -5.8129   -2.9297
    1.4656   -6.2973   -2.9297
    1.4656   -6.2973   -2.4414
    1.4656   -6.2973   -2.4414
    1.4656   -6.2973   -2.4414
    1.4656   -5.8129   -2.4414
    1.4656   -5.8129   -1.9531
    1.4656   -5.8129   -1.9531
    1.4656   -5.8129   -1.9531
    1.4656   -5.8129   -1.9531
    1.4656   -5.8129   -1.9531
    1.4656   -5.8129   -1.4648
    1.4656   -5.8129   -1.4648
    1.4656   -5.8129   -1.4648
    1.4656   -5.3285   -1.4648
    1.4656   -5.8129   -1.4648
    1.4656   -5.3285   -1.4648
    1.4656   -5.3285   -1.4648
    1.4656   -5.3285   -1.4648
    1.4656   -5.3285   -1.4648
    1.4656   -5.3285   -1.4648
    1.4656   -5.3285   -1.4648
    1.4656   -5.3285   -1.4648
    1.4656   -5.3285   -1.4648
    1.4656   -5.3285   -1.4648
    1.4656   -5.8129   -1.9531
    1.4656   -5.8129   -1.4648
    1.4656   -5.8129   -1.4648
    1.4656   -5.8129   -1.9531
    1.4656   -6.2973   -1.9531
    1.4656   -5.8129   -1.9531
    1.4656   -5.8129   -1.9531
    1.4656   -6.2973   -2.4414
    1.4656   -6.2973   -2.4414
    1.4656   -6.2973   -2.4414
    1.4656   -6.2973   -2.4414
    1.4656   -6.2973   -2.4414
    1.4656   -6.2973   -2.4414
    1.9541   -6.7817   -2.4414
    1.9541   -6.7817   -2.9297
    1.9541   -6.7817   -2.9297
    1.9541   -6.7817   -2.4414
    2.4426   -6.2973   -2.4414
    2.4426   -6.2973   -2.4414
    2.4426   -6.2973   -2.4414
    2.4426   -6.2973   -2.4414
    2.4426   -5.8129   -2.4414
    2.9311   -5.8129   -1.9531
    2.4426   -5.8129   -1.9531
    2.4426   -5.8129   -1.9531
    2.4426   -5.8129   -1.9531
    2.4426   -5.8129   -1.9531
    2.4426   -5.8129   -1.4648
    2.4426   -5.8129   -1.4648
    2.4426   -5.8129   -1.4648
    2.4426   -5.8129   -1.4648
    2.4426   -5.3285   -1.4648
    2.4426   -5.3285    -.9766
    2.4426   -5.3285    -.9766
    1.9541   -5.3285    -.4883
    1.9541   -5.3285    -.4883
    1.9541   -5.3285    -.4883
    1.9541   -5.3285     .0000
    1.4656   -4.8441     .0000
    1.4656   -4.8441     .4885
    1.4656   -4.8441     .4885
    1.4656   -4.3596     .4885
    1.4656   -4.3596     .9770
     .9770   -4.3596     .9770
     .9770   -4.3596    1.4656
     .4885   -4.3596    1.4656
     .4885   -3.8752    1.9541
     .4885   -3.8752    1.9541
     .4885   -3.8752    1.9541
     .0000   -3.8752    2.4426
     .0000   -3.8752    2.4426
    -.4883   -3.8752    2.4426
    -.4883   -3.8752    2.4426
    -.9766   -3.8752    2.9311
    -.9766   -3.8752    2.9311
    -.9766   -3.8752    2.9311
   -1.4648   -3.8752    2.9311
   -1.4648   -3.8752    2.9311
   -1.4648   -3.8752    2.9311
   -1.9531   -3.8752    2.9311
   -1.9531   -3.8752    2.9311
   -1.9531   -4.3596    2.9311
   -1.9531   -4.3596    2.9311
   -2.4414   -4.3596    2.9311
   -2.4414   -4.3596    2.9311
   -2.4414   -4.3596    2.9311
   -2.4414   -4.8441    2.9311
   -2.4414   -4.8441    2.4426
   -2.9297   -4.8441    2.4426
   -2.9297   -4.8441    2.4426
   -2.9297   -5.3285    2.4426
   -3.4180   -5.3285    2.4426
   -3.4180   -5.3285    2.4426
   -3.4180   -5.3285    1.9541
   -3.4180   -5.8129    1.9541
   -3.9063   -5.8129    1.4656
   -3.9063   -5.8129    1.4656
   -3.9063   -5.8129    1.4656
   -3.9063   -5.8129     .9770
   -3.9063   -5.8129     .9770
   -3.9063   -5.8129     .4885
   -3.9063   -6.2973     .4885
   -4.3945   -6.2973     .4885
   -4.3945   -6.2973     .0000
   -4.3945   -6.2973     .0000
   -4.3945   -6.2973     .0000
   -4.3945   -6.2973    -.4883
   -4.3945   -6.2973    -.4883
   -4.3945   -6.2973    -.9766
   -4.3945   -6.2973    -.9766
   -4.3945   -5.8129    -.9766
   -4.3945   -5.8129    -.9766
   -4.3945   -5.8129   -1.4648
   -4.3945   -5.8129   -1.4648
   -4.3945   -5.8129   -1.4648
   -4.3945   -5.8129   -1.4648
   -4.3945   -5.8129   -1.4648
   -4.3945   -5.8129   -1.9531
   -4.3945   -5.8129   -1.9531
   -4.3945   -5.8129   -1.9531
   -4.3945   -5.3285   -1.9531
   -4.3945   -5.3285   -1.9531
   -4.3945   -5.3285   -1.9531
   -4.3945   -5.3285   -1.9531
   -4.3945   -5.8129   -1.9531
   -4.3945   -5.8129   -1.9531
   -4.3945   -5.8129   -1.9531
   -4.3945   -5.8129   -1.4648
   -4.3945   -5.8129   -1.4648
   -4.3945   -5.8129   -1.4648
   -4.3945   -5.8129   -1.4648
   -4.3945   -5.8129   -1.4648
   -4.3945   -5.8129    -.9766
   -4.3945   -5.8129    -.9766
   -3.9063   -5.8129    -.9766
   -3.9063   -5.8129    -.4883
   -3.9063   -5.8129    -.4883
   -3.9063   -5.8129    -.4883
   -4.3945   -5.3285    -.4883
   -4.3945   -5.3285    -.4883
   -4.3945   -5.3285    -.4883
   -4.3945   -5.3285    -.4883
   -4.3945   -5.3285    -.4883
   -4.3945   -5.3285    -.4883
   -4.3945   -5.3285    -.4883
   -4.3945   -4.8441    -.4883
   -4.8828   -5.3285    -.4883
   -4.8828   -4.8441    -.4883
   -4.8828   -4.8441    -.4883
   -4.8828   -4.8441    -.4883
   -4.8828   -4.8441    -.4883
   -4.8828   -4.8441    -.4883
   -4.8828   -4.3596    -.4883
   -4.8828   -4.3596    -.4883
   -5.3711   -4.3596    -.9766
   -5.3711   -4.3596    -.9766
   -5.3711   -4.3596   -1.4648
   -5.3711   -4.3596   -1.4648
   -5.3711   -4.3596   -1.4648
   -4.8828   -4.3596   -1.4648
   -4.8828   -4.3596   -1.4648
   -4.8828   -4.3596   -1.4648
   -4.8828   -4.3596   -1.4648
   -4.8828   -4.3596   -1.4648
   -4.3945   -4.3596   -1.4648
   -4.3945   -3.8752   -1.4648
   -4.3945   -3.8752   -1.4648
   -4.3945   -3.8752   -1.4648
   -3.9063   -3.8752   -1.4648
   -3.9063   -3.8752   -1.4648
   -3.9063   -3.8752   -1.4648
   -3.9063   -3.8752   -1.4648
   -3.4180   -3.8752   -1.4648
   -3.9063   -3.8752   -1.4648
   -3.4180   -3.8752   -1.4648
   -3.4180   -3.8752   -1.4648
   -3.4180   -3.8752   -1.4648
   -3.4180   -3.8752   -1.4648
   -3.4180   -3.8752   -1.9531
   -3.4180   -3.8752   -1.9531
   -3.4180   -4.3596   -1.9531
   -3.4180   -4.3596   -1.9531
   -2.9297   -4.3596   -2.4414
   -2.9297   -4.3596   -2.4414
   -2.9297   -4.8441   -2.4414
   -2.9297   -4.8441   -2.4414
   -3.4180   -4.8441   -2.4414
   -3.4180   -4.8441   -2.9297
   -2.9297   -4.8441   -2.9297
   -2.9297   -4.8441   -2.9297
   -3.4180   -5.3285   -2.9297
   -3.4180   -5.3285   -3.4180
   -3.4180   -5.3285   -3.4180
   -3.4180   -5.3285   -3.4180
   -3.4180   -5.3285   -3.4180
   -3.4180   -5.3285   -3.9063
   -3.4180   -5.3285   -3.9063
   -3.4180   -5.3285   -3.9063
   -3.4180   -5.3285   -3.9063
   -3.9063   -5.3285   -4.3945
   -3.9063   -5.3285   -4.3945
   -3.9063   -5.3285   -4.3945
   -3.9063   -5.3285   -4.3945
   -3.9063   -5.3285   -4.3945
   -3.9063   -5.3285   -4.8828
   -3.9063   -5.3285   -4.8828
   -3.9063   -5.3285   -4.8828
   -3.9063   -5.3285   -4.8828
   -3.9063   -5.3285   -4.8828
   -3.4180   -5.3285   -4.8828
   -3.9063   -5.3285   -4.8828
   -3.4180   -5.3285   -4.8828
   -3.4180   -5.3285   -5.3711
   -3.4180   -4.8441   -5.3711
   -3.4180   -4.8441   -5.3711
   -3.4180   -4.8441   -5.3711
   -3.4180   -4.8441   -5.3711
