********************************************************************************
           RED INTERUNIVERSITARIA DE INSTRUMENTACION SISIMICA (RIIS)
 AREA DE ESTRUCTURAS, UNIVERSIDAD AUTONOMA METROPOLITANA - UNIDAD AZCAPOTZALCO
         AV. SAN PABLO 180; COL. REYNOSA TAMAULIPAS; MEXICO D.F. 02200.                                                                               
       		e-mail: agb@azc.uam.mx
********************************************************************************
ARCHIVO ESTANDAR DE ACELERACION:
VERSION DEL FORMATO                    : 2.0
NOMBRE DEL ARCHIVO                     : RIDI0110.081
FECHA Y HORA DE CREACION               : JUNIO, 2002
REF. CATALOGO ACELEROGRAMAS, SMIS 1996 : 


================================================================================
DATOS DE LA ESTACION:
NOMBRE DE LA ESTACION                  : UAM IZTAPALAPA
CLAVE DE LA ESTACION                   : RIDI
LOCALIZACION DE LA ESTACION            : AVENIDA MICHOACAN ESQUINA LA PURISIMA,
                                       : COLONIA VICENTINA, PLANTEL IZTAPALAPA
                                       : FRENTE AL EDIFICIO "O", MEXICO, D.F.
                                       :
                                       :
COORDENADAS DE LA ESTACION             : 19.360 LAT. N 
                                       : 99.060 LONG. W 
ALTITUD (msnm)                         : 2235
TIPO DE SUELO                          : LIMOS Y ARENAS ARCILLOSAS
                                       : 
                                       : 
INSTITUCION RESPONSABLE                : RED INTERUNIVERSITARIA DE 
                                       : INSTRUMENTACION SISMICA (RIIS)

================================================================================
DATOS DEL ACELEROGRAFO:
MODELO DEL ACELEROGRAFO                : SSA-2
NUMERO DE SERIE DEL ACELEROGRAFO       : 1009
NUMERO DE CANALES                      : 3
ORIENTACION C1-C6 (rumbo;orientacion)  : /N00E/+V/N90E
ORIENTACION C7-C12 (rumbo;orientacion) :
VEL. DE MUESTREO, C1-C6 (muestras/s)   : /200/200/200
VEL. DE MUESTREO, C7-C12 (muestras/s)  :
ESC. COMPLETA DE SENSORES, C1-C6, (g)  : /1.0/1.0/1.0
ESC. COMPLETA DE SENSORES, C7-C12, (g) :
FREC. NAT. DE SENSORES, C1-C6, (Hz)    : /50.0/50.0/50.0
FREC. NAT. DE SENSORES, C7-C12, (Hz)   :
AMORTIGUAMIENTO DE SENSORES, C1-C6     : /0.7/0.7/0.7
AMORTIGUAMIENTO DE SENSORES, C7-C12    :
INTERVALO DE MUESTREO, C1-C6, (s)      : /0.005/0.005/0.005
INTERVALO DE MUESTREO, C7-C12, (s)     :
UMBRAL DE DISPARO, C1-C6, (Gal)        : /3/3/3
UMBRAL DE DISPARO, C7-C12, (Gal)       :
MEMORIA DE PREEVENTO (s)               : 15
TIEMPO DE POSEVENTO (s)                : 60


================================================================================
DATOS DEL SISMO:
FECHA DEL SISMO (GMT)                  : 08/OCT/2001                      
HORA EPICENTRO (GMT)                   : 03:39                            
MAGNITUD(ES)                           : /Ms=6.1                          
COORDENADAS DEL EPICENTRO              : 16.98 LAT. N                     
                                       : 100.16 LONG. W                   
PROFUNDIDAD FOCAL (km)                 : 10                               
FUENTES DE LOS DATOS EPICENTRALES      : SSN                              
                                       : SISTEMA SISMOLOGICO NACIONAL     

================================================================================
DATOS DE ESTE REGISTRO:
HORA DE LA PRIMERA MUESTRA (GMT)       : 03:39:00.00
EXACTITUD DEL TIEMPO (s)               :     
DURACION DEL REGISTRO (s), C1-C6       : /79.36/79.36/79.36                
DURACION DEL REGISTRO (s), C7-C12      :                                   
NUM. TOTAL DE MUESTRAS, C1-C6          : /15872/15872/15872                
NUM. TOTAL DE MUESTRAS, C7-C12         :                                   
ACEL. MAX.(Gal), C1-C6                 : /-4.65/2.23/5.37                   
ACEL. MAX., C1-C6, EN LA MUESTRA       : /3470/3363/5061                   
ACEL. MAX.(Gal), C7-C12                : 
ACEL. MAX., C7-C12, EN LA MUESTRA      :
UNIDADES DE LOS DATOS                  : Gal
FACTOR DE DECIMACION                   : 1
FORMATO DATOS (FORTRAN,10 campos/dato) : 3E16.7


===============================================================================
CALIDAD DEL ACELEROGRAMA:
REGISTRO DIGITAL COMPLETO, CARECE DE TIEMPO ABSOLUTO.


===============================================================================
COMENTARIOS:
CADA UNO DE LOS CANALES SE ENCUENTRA AJUSTADO POR LINEA BASE MEDIANTE LA
SUSTRACCION DEL PROMEDIO DE LAS ACELERACIONES EN EL TIEMPO.











MODELO DEL ACELEROGRAFO : SSA-2 (KINEMETRICS)
===============================================================================
DATOS DE ACELERACION:
---------+---------+---------+---------+---------+---------+---------+---------+
   CANAL-1   CANAL-2   CANAL-3   CANAL-4   CANAL-5   CANAL-6   CANAL-7   CANAL-8
      N00E        +V      N90E
---------+---------+---------+---------+---------+---------+---------+---------+  
[...]
  -3.1886012e+00   1.2482165e+00   4.8978199e-01
  -2.7003078e+00   1.2482099e+00   4.8977481e-01
  -2.7003143e+00   1.2482034e+00   4.8976763e-01
  -2.7003208e+00   1.2481968e+00   4.8976044e-01
  -2.7003274e+00   1.2481903e+00   4.8975326e-01
  -3.1886339e+00   1.2481837e+00   4.8974608e-01
  -3.1886405e+00   1.2481772e+00   9.7803890e-01
  -3.1886470e+00   1.2481706e+00   4.8973171e-01
  -3.1886535e+00   1.2481640e+00   4.8972453e-01
  -3.1886601e+00   1.2481575e+00   4.8971735e-01
  -3.1886666e+00   1.2481509e+00   4.8971016e-01
  -3.1886732e+00   1.2481444e+00   4.8970298e-01
  -3.1886797e+00   1.2481378e+00   4.8969580e-01
  -3.1886862e+00   1.2481313e+00   1.3886144e-03
  -3.1886928e+00   1.2481247e+00   1.3814314e-03
  -3.1886993e+00   1.2481182e+00   1.3742485e-03
  -3.6770059e+00   1.2481116e+00   1.3670655e-03
  -3.6770124e+00   1.2481050e+00   1.3598826e-03
  -3.6770189e+00   1.2480985e+00  -4.8694730e-01
  -3.6770255e+00   1.2480919e+00  -4.8695448e-01
  -3.6770320e+00   1.2480854e+00  -4.8696167e-01
  -3.6770386e+00   1.2480788e+00  -4.8696885e-01
  -3.6770451e+00   7.6367227e-01  -9.7527603e-01
  -3.6770517e+00   7.6366572e-01  -9.7528322e-01
  -3.6770582e+00   7.6365916e-01  -1.4635904e+00
  -3.6770647e+00   7.6365261e-01  -1.4635976e+00
  -3.6770713e+00   7.6364605e-01  -1.4636048e+00
  -3.6770778e+00   7.6363950e-01  -1.9518119e+00
  -3.6770844e+00   7.6363294e-01  -1.9518191e+00
  -3.6770909e+00   2.7912638e-01  -1.9518263e+00
  -3.6770974e+00   2.7911983e-01  -2.4401335e+00
  -3.6771040e+00   2.7911327e-01  -2.4401407e+00
  -3.6771105e+00   2.7910672e-01  -2.4401479e+00
  -3.6771171e+00   2.7910016e-01  -2.9284550e+00
  -3.6771236e+00   2.7909361e-01  -2.9284622e+00
  -3.6771301e+00  -2.0531295e-01  -2.9284694e+00
  -3.6771367e+00  -2.0531950e-01  -2.9284766e+00
  -3.6771432e+00   2.7907394e-01  -3.4167838e+00
  -3.6771498e+00  -2.0533261e-01  -3.4167910e+00
  -3.6771563e+00  -2.0533917e-01  -3.9050981e+00
  -3.6771628e+00  -2.0534572e-01  -3.9051053e+00
  -3.6771694e+00  -2.0535228e-01  -3.9051125e+00
  -3.6771759e+00  -2.0535884e-01  -3.9051197e+00
  -3.6771825e+00  -2.0536539e-01  -3.9051269e+00
  -3.6771890e+00  -2.0537195e-01  -3.9051341e+00
  -3.1888955e+00  -2.0537850e-01  -3.9051412e+00
  -3.1889021e+00  -2.0538506e-01  -3.9051484e+00
  -2.7006086e+00  -2.0539161e-01  -3.9051556e+00
  -2.7006152e+00  -2.0539817e-01  -4.3933628e+00
  -2.7006217e+00  -2.0540472e-01  -4.3933700e+00
  -2.2124283e+00  -2.0541128e-01  -4.3933772e+00
  -2.2124348e+00  -2.0541783e-01  -4.3933843e+00
  -1.7241413e+00  -2.0542439e-01  -4.3933915e+00
  -1.7241479e+00  -2.0543094e-01  -4.3933987e+00
  -1.2358544e+00  -2.0543750e-01  -4.3934059e+00
  -1.2358610e+00  -2.0544406e-01  -4.3934131e+00
  -7.4756750e-01  -2.0545061e-01  -4.3934203e+00
  -7.4757404e-01  -2.0545717e-01  -4.3934274e+00
  -2.5928058e-01  -2.0546372e-01  -4.3934346e+00
  -2.5928712e-01  -2.0547028e-01  -4.3934418e+00
   2.2900634e-01  -2.0547683e-01  -4.3934490e+00
   2.2899980e-01  -2.0548339e-01  -3.9052562e+00
   7.1719326e-01  -2.0548994e-01  -3.9052634e+00
   1.2054867e+00   2.7890350e-01  -3.9052705e+00
   1.2054802e+00   2.7889695e-01  -3.9052777e+00
   1.2054736e+00   2.7889039e-01  -3.9052849e+00
   1.6937671e+00   2.7888384e-01  -3.9052921e+00
   1.6937606e+00   2.7887728e-01  -3.9052993e+00
   1.6937540e+00   2.7887073e-01  -3.9053064e+00
   2.1822475e+00   2.7886417e-01  -3.9053136e+00
   2.1822409e+00   2.7885761e-01  -3.9053208e+00
   2.1822344e+00   2.7885106e-01  -3.9053280e+00
   2.1822279e+00   2.7884450e-01  -3.4170352e+00
   2.1822213e+00   2.7883795e-01  -3.4170424e+00
   2.1822148e+00   2.7883139e-01  -3.4170495e+00
   2.1822082e+00   2.7882484e-01  -3.4170567e+00
   2.1822017e+00   2.7881828e-01  -3.4170639e+00
   2.1821951e+00   7.6331173e-01  -2.9287711e+00
   1.6936886e+00   7.6330517e-01  -2.9287783e+00
   1.6936821e+00   7.6329862e-01  -2.9287855e+00
   1.6936755e+00   7.6329206e-01  -2.9287926e+00
   1.6936690e+00   7.6328551e-01  -2.9287998e+00
   1.6936624e+00   7.6327895e-01  -2.9288070e+00
   1.6936559e+00   7.6327239e-01  -2.9288142e+00
   1.6936494e+00   1.2476658e+00  -2.4405214e+00
   1.6936428e+00   1.2476593e+00  -2.4405286e+00
   1.6936363e+00   1.2476527e+00  -2.4405357e+00
   1.6936297e+00   1.2476462e+00  -1.9522429e+00
   1.6936232e+00   1.2476396e+00  -1.9522501e+00
   1.2053167e+00   1.7320331e+00  -1.9522573e+00
   1.2053101e+00   1.7320265e+00  -1.9522645e+00
   1.2053036e+00   1.7320200e+00  -1.9522717e+00
   1.2052970e+00   1.7320134e+00  -1.4640788e+00
   1.2052905e+00   1.7320068e+00  -1.4640860e+00
   1.2052840e+00   1.7320003e+00  -1.4640932e+00
   1.2052774e+00   1.7319937e+00  -1.4641004e+00
   1.2052709e+00   1.7319872e+00  -1.4641076e+00
   1.2052643e+00   1.7319806e+00  -1.4641148e+00
   1.2052578e+00   1.7319741e+00  -1.4641219e+00
   1.2052513e+00   1.7319675e+00  -1.4641291e+00
   1.2052447e+00   1.7319610e+00  -9.7583630e-01
   1.2052382e+00   1.7319544e+00  -9.7584349e-01
   1.2052316e+00   1.7319478e+00  -9.7585067e-01
   1.2052251e+00   1.7319413e+00  -9.7585785e-01
   1.2052185e+00   1.2475347e+00  -9.7586504e-01
   1.2052120e+00   1.2475282e+00  -9.7587222e-01
   1.2052055e+00   1.2475216e+00  -9.7587940e-01
   1.6934989e+00   1.2475151e+00  -9.7588658e-01
   1.6934924e+00   1.2475085e+00  -1.4641938e+00
   1.6934858e+00   7.6310195e-01  -9.7590095e-01
   1.6934793e+00   7.6309540e-01  -9.7590813e-01
   1.6934728e+00   7.6308884e-01  -9.7591532e-01
   1.6934662e+00   7.6308229e-01  -9.7592250e-01
   1.6934597e+00   7.6307573e-01  -9.7592968e-01
   2.1819531e+00   7.6306918e-01  -9.7593686e-01
   2.1819466e+00   2.7856262e-01  -9.7594405e-01
   2.1819401e+00   2.7855607e-01  -9.7595123e-01
   2.1819335e+00   2.7854951e-01  -9.7595841e-01
   2.1819270e+00   2.7854296e-01  -1.4642656e+00
   2.1819204e+00   2.7853640e-01  -1.4642728e+00
   2.1819139e+00   2.7852985e-01  -1.4642800e+00
   2.1819074e+00  -2.0587671e-01  -1.4642871e+00
   2.6704008e+00  -2.0588327e-01  -1.4642943e+00
   2.6703943e+00  -2.0588982e-01  -1.4643015e+00
   2.6703877e+00  -2.0589638e-01  -9.7600869e-01
   2.6703812e+00  -2.0590293e-01  -9.7601588e-01
   2.6703747e+00  -6.9030949e-01  -9.7602306e-01
   3.1589681e+00  -6.9031604e-01  -9.7603024e-01
   3.1589616e+00  -6.9032260e-01  -9.7603743e-01
   3.1589550e+00  -6.9032915e-01  -9.7604461e-01
   3.1589485e+00  -6.9033571e-01  -9.7605179e-01
   3.1589419e+00  -6.9034226e-01  -9.7605898e-01
   3.1589354e+00  -6.9034882e-01  -9.7606616e-01
   3.1589289e+00  -6.9035537e-01  -4.8777334e-01
   3.1589223e+00  -1.1747619e+00  -4.8778052e-01
   3.1589158e+00  -1.1747685e+00   5.1229298e-04
   3.1589092e+00  -1.1747750e+00   5.0511002e-04
   3.1589027e+00  -1.1747816e+00   4.9792705e-04
   3.1588962e+00  -6.9038815e-01   4.9074409e-04
   3.1588896e+00  -6.9039471e-01   4.8878356e-01
   3.1588831e+00  -6.9040126e-01   4.8877638e-01
   3.1588765e+00  -6.9040782e-01   4.8876920e-01
   3.1588700e+00  -6.9041437e-01   4.8876201e-01
   3.1588635e+00  -6.9042093e-01   4.8875483e-01
   3.1588569e+00  -6.9042748e-01   9.7704765e-01
   3.1588504e+00  -6.9043404e-01   9.7704046e-01
   3.1588438e+00  -6.9044059e-01   9.7703328e-01
   3.1588373e+00  -2.0604715e-01   9.7702610e-01
   3.1588308e+00  -6.9045370e-01   9.7701891e-01
   3.1588242e+00  -2.0606026e-01   9.7701173e-01
   3.1588177e+00  -2.0606682e-01   9.7700455e-01
   3.1588111e+00  -2.0607337e-01   9.7699737e-01
   3.1588046e+00  -2.0607993e-01   9.7699018e-01
   3.1587981e+00  -2.0608648e-01   9.7698300e-01
   3.1587915e+00  -2.0609304e-01   9.7697582e-01
   3.1587850e+00  -2.0609959e-01   9.7696863e-01
   3.1587784e+00  -2.0610615e-01   9.7696145e-01
   3.1587719e+00  -2.0611270e-01   9.7695427e-01
   3.1587653e+00  -6.9051926e-01   4.8864708e-01
   3.1587588e+00  -6.9052581e-01   9.7693990e-01
   3.1587523e+00  -6.9053237e-01   9.7693272e-01
   3.1587457e+00  -6.9053892e-01   4.8862554e-01
   3.1587392e+00  -1.1749455e+00   4.8861835e-01
   3.1587326e+00  -6.9055204e-01   4.8861117e-01
   3.1587261e+00  -6.9055859e-01   4.8860399e-01
   3.1587196e+00  -1.1749651e+00   2.9680410e-04
   3.1587130e+00  -1.1749717e+00   2.8962114e-04
   3.1587065e+00  -1.1749783e+00   2.8243818e-04
   3.1586999e+00  -1.1749848e+00   2.7525522e-04
   3.1586934e+00  -1.1749914e+00   2.6807225e-04
   3.1586869e+00  -1.1749979e+00   2.6088929e-04
   3.6471803e+00  -1.6594045e+00   2.5370633e-04
   3.6471738e+00  -1.6594110e+00  -4.8805348e-01
   3.6471672e+00  -1.6594176e+00  -4.8806066e-01
   3.6471607e+00  -1.6594241e+00   2.3215744e-04
   4.1356542e+00  -1.1750307e+00   2.2497448e-04
   4.1356476e+00  -1.1750373e+00   2.1779152e-04
   4.1356411e+00  -1.1750438e+00   2.1060855e-04
   4.1356345e+00  -1.1750504e+00   2.0342559e-04
   4.1356280e+00  -6.9065692e-01   1.9624263e-04
   4.6241215e+00  -6.9066348e-01   4.8848906e-01
   4.1356149e+00  -6.9067003e-01   4.8848188e-01
   4.1356084e+00  -6.9067659e-01   4.8847469e-01
   4.1356018e+00  -6.9068314e-01   4.8846751e-01
   4.1355953e+00  -6.9068970e-01   4.8846033e-01
   4.1355887e+00  -6.9069625e-01   9.7675314e-01
   4.1355822e+00  -6.9070281e-01   9.7674596e-01
   4.1355757e+00  -6.9070936e-01   9.7673878e-01
   4.1355691e+00  -6.9071592e-01   9.7673160e-01
   4.1355626e+00  -2.0632247e-01   9.7672441e-01
   4.1355560e+00  -2.0632903e-01   1.4649172e+00
   4.1355495e+00  -2.0633559e-01   1.4649100e+00
   3.6470430e+00  -2.0634214e-01   1.9532029e+00
   3.6470364e+00  -2.0634870e-01   1.9531957e+00
   3.6470299e+00  -2.0635525e-01   1.9531885e+00
   3.6470233e+00  -2.0636181e-01   2.4414813e+00
   3.1585168e+00   2.7803164e-01   2.4414741e+00
   3.1585103e+00   2.7802508e-01   2.9299669e+00
   3.1585037e+00   2.7801853e-01   2.9299598e+00
   3.1584972e+00   7.6251197e-01   2.9299526e+00
   3.1584906e+00   7.6250542e-01   3.4184454e+00
   2.6698841e+00   7.6249886e-01   3.4184382e+00
   2.6698776e+00   7.6249231e-01   3.9070310e+00
   2.1813710e+00   7.6248575e-01   3.9070239e+00
   2.1813645e+00   1.2468792e+00   4.3955167e+00
   2.1813579e+00   1.2468726e+00   4.3955095e+00
   2.1813514e+00   1.2468661e+00   4.3955023e+00
   1.6928449e+00   1.2468595e+00   4.8839951e+00
   1.6928383e+00   1.2468530e+00   4.8839879e+00
   1.2045318e+00   1.2468464e+00   4.8839808e+00
   1.2045252e+00   1.2468399e+00   4.8839736e+00
   7.1621869e-01   1.2468333e+00   5.3724664e+00
   7.1621215e-01   1.2468268e+00   5.3724592e+00
   7.1620561e-01   1.2468202e+00   5.3724520e+00
   2.2799907e-01   1.2468136e+00   5.3724448e+00
   2.2799253e-01   1.2468071e+00   5.3724377e+00
   2.2798599e-01   1.2468005e+00   5.3724305e+00
  -2.6032055e-01   1.2467940e+00   5.3724233e+00
  -2.6032709e-01   1.2467874e+00   5.3724161e+00
  -2.6033364e-01   7.6238086e-01   5.3724089e+00
  -2.6034018e-01   7.6237431e-01   5.3724017e+00
  -7.4864672e-01   7.6236775e-01   5.3723946e+00
  -7.4865326e-01   7.6236120e-01   5.3723874e+00
  -7.4865980e-01   7.6235464e-01   5.3723802e+00
  -7.4866634e-01   2.7784809e-01   5.3723730e+00
  -7.4867288e-01   2.7784153e-01   4.8838658e+00
  -1.2369794e+00   2.7783498e-01   4.8838586e+00
  -1.2369860e+00   2.7782842e-01   4.8838515e+00
  -1.2369925e+00  -2.0657813e-01   4.8838443e+00
  -1.7252990e+00  -2.0658469e-01   4.8838371e+00
  -1.7253056e+00  -2.0659125e-01   4.8838299e+00
  -1.7253121e+00  -2.0659780e-01   4.3953227e+00
  -1.7253187e+00  -6.9100436e-01   4.3953155e+00
  -2.2136252e+00  -6.9101091e-01   3.9068084e+00
  -2.2136317e+00  -6.9101747e-01   3.9068012e+00
  -2.2136383e+00  -6.9102402e-01   3.9067940e+00
  -2.2136448e+00  -6.9103058e-01   3.4181868e+00
  -2.2136514e+00  -6.9103713e-01   3.4181796e+00
  -2.2136579e+00  -6.9104369e-01   2.9296724e+00
  -2.2136645e+00  -1.1754502e+00   2.9296653e+00
  -2.7018710e+00  -1.1754568e+00   2.9296581e+00
  -2.7018775e+00  -1.1754634e+00   2.4411509e+00
  -2.7018841e+00  -1.1754699e+00   2.4411437e+00
  -2.7018906e+00  -1.1754765e+00   2.4411365e+00
  -2.7018972e+00  -1.1754830e+00   1.9528294e+00
  -2.7019037e+00  -1.1754896e+00   1.9528222e+00
  -2.7019102e+00  -1.1754961e+00   1.4645150e+00
  -2.7019168e+00  -1.1755027e+00   1.4645078e+00
  -2.7019233e+00  -6.9110924e-01   1.4645006e+00
  -2.7019299e+00  -6.9111580e-01   1.4644934e+00
  -2.7019364e+00  -6.9112235e-01   9.7628625e-01
  -2.7019429e+00  -6.9112891e-01   9.7627907e-01
  -2.7019495e+00  -6.9113546e-01   9.7627189e-01
  -2.7019560e+00  -6.9114202e-01   9.7626470e-01
  -2.7019626e+00  -6.9114857e-01   9.7625752e-01
  -2.7019691e+00  -6.9115513e-01   4.8795034e-01
  -2.7019756e+00  -6.9116168e-01   4.8794315e-01
  -2.7019822e+00  -6.9116824e-01   4.8793597e-01
  -2.7019887e+00  -2.0677480e-01   4.8792879e-01
  -2.7019953e+00  -2.0678135e-01   4.8792161e-01
  -2.7020018e+00  -2.0678791e-01   4.8791442e-01
  -2.7020083e+00  -2.0679446e-01   4.8790724e-01
  -2.7020149e+00  -6.9120102e-01   4.8790006e-01
  -2.7020214e+00  -6.9120757e-01   4.8789287e-01
  -2.7020280e+00  -6.9121413e-01   4.8788569e-01
  -2.7020345e+00  -6.9122068e-01   9.7617851e-01
  -2.7020411e+00  -6.9122724e-01   9.7617132e-01
  -2.7020476e+00  -6.9123379e-01   9.7616414e-01
  -2.7020541e+00  -6.9124035e-01   9.7615696e-01
  -2.7020607e+00  -6.9124690e-01   9.7614978e-01
  -2.7020672e+00  -6.9125346e-01   1.4643426e+00
  -2.7020738e+00  -6.9126002e-01   1.4643354e+00
  -2.2138803e+00  -6.9126657e-01   1.4643282e+00
  -2.2138868e+00  -6.9127313e-01   1.9526210e+00
  -2.2138934e+00  -6.9127968e-01   1.9526139e+00
  -2.2138999e+00  -6.9128624e-01   1.9526067e+00
  -2.7021065e+00  -2.0689279e-01   1.9525995e+00
  -2.7021130e+00  -2.0689935e-01   1.9525923e+00
  -2.7021195e+00  -2.0690590e-01   1.9525851e+00
  -2.7021261e+00  -2.0691246e-01   1.9525779e+00
  -2.7021326e+00  -2.0691901e-01   1.9525708e+00
  -2.7021392e+00  -2.0692557e-01   1.9525636e+00
  -2.7021457e+00  -2.0693212e-01   1.9525564e+00
  -2.7021522e+00   2.7746132e-01   1.9525492e+00
  -3.1904588e+00  -2.0694524e-01   1.9525420e+00
  -3.1904653e+00   2.7744821e-01   1.9525348e+00
  -3.1904719e+00   2.7744165e-01   1.9525277e+00
  -3.1904784e+00   2.7743510e-01   1.9525205e+00
  -3.1904849e+00   2.7742854e-01   1.9525133e+00
  -3.1904915e+00   2.7742199e-01   1.9525061e+00
  -3.1904980e+00   7.6191543e-01   1.9524989e+00
  -3.1905046e+00   7.6190888e-01   1.9524918e+00
  -3.6788111e+00   7.6190232e-01   1.4641846e+00
  -3.6788176e+00   7.6189577e-01   1.4641774e+00
  -3.6788242e+00   7.6188921e-01   9.7597020e-01
  -3.6788307e+00   7.6188266e-01   9.7596302e-01
  -3.6788373e+00   7.6187610e-01   9.7595584e-01
  -3.1905438e+00   7.6186954e-01   9.7594865e-01
  -3.1905504e+00   7.6186299e-01   9.7594147e-01
  -3.1905569e+00   7.6185643e-01   9.7593429e-01
  -3.1905634e+00   7.6184988e-01   9.7592710e-01
  -3.1905700e+00   7.6184332e-01   9.7591992e-01
  -2.7022765e+00   7.6183677e-01   9.7591274e-01
