********************************************************************************
           RED INTERUNIVERSITARIA DE INSTRUMENTACION SISIMICA (RIIS)
 AREA DE ESTRUCTURAS, UNIVERSIDAD AUTONOMA METROPOLITANA - UNIDAD AZCAPOTZALCO
         AV. SAN PABLO 180; COL. REYNOSA TAMAULIPAS; MEXICO D.F. 02200.                                                                               
                       e-mail: agb@azc.uam.mx
********************************************************************************
ARCHIVO ESTANDAR DE ACELERACION:
VERSION DEL FORMATO                    : 2.0
NOMBRE DEL ARCHIVO                     : RIDI0111.101
FECHA Y HORA DE CREACION               : JUNIO, 2002
REF. CATALOGO ACELEROGRAMAS, SMIS 1996 : 


================================================================================
DATOS DE LA ESTACION:
NOMBRE DE LA ESTACION                  : UAM IZTAPALAPA
CLAVE DE LA ESTACION                   : RIDI
LOCALIZACION DE LA ESTACION            : AVENIDA MICHOACAN ESQUINA LA PURISIMA,
                                       : COLONIA VICENTINA, PLANTEL IZTAPALAPA
                                       : FRENTE AL EDIFICIO "O", MEXICO, D.F.
                                       :
                                       :
COORDENADAS DE LA ESTACION             : 19.360 LAT. N 
                                       : 99.060 LONG. W 
ALTITUD (msnm)                         : 2235
TIPO DE SUELO                          : LIMOS Y ARENAS ARCILLOSAS
                                       : 
                                       : 
INSTITUCION RESPONSABLE                : RED INTERUNIVERSITARIA DE 
                                       : INSTRUMENTACION SISMICA (RIIS)

================================================================================
DATOS DEL ACELEROGRAFO:
MODELO DEL ACELEROGRAFO                : SSA-2
NUMERO DE SERIE DEL ACELEROGRAFO       : 1009
NUMERO DE CANALES                      : 3
ORIENTACION C1-C6 (rumbo;orientacion)  : /N00E/+V/N90E
ORIENTACION C7-C12 (rumbo;orientacion) :
VEL. DE MUESTREO, C1-C6 (muestras/s)   : /200/200/200
VEL. DE MUESTREO, C7-C12 (muestras/s)  :
ESC. COMPLETA DE SENSORES, C1-C6, (g)  : /1.0/1.0/1.0
ESC. COMPLETA DE SENSORES, C7-C12, (g) :
FREC. NAT. DE SENSORES, C1-C6, (Hz)    : /50.0/50.0/50.0
FREC. NAT. DE SENSORES, C7-C12, (Hz)   :
AMORTIGUAMIENTO DE SENSORES, C1-C6     : /0.7/0.7/0.7
AMORTIGUAMIENTO DE SENSORES, C7-C12    :
INTERVALO DE MUESTREO, C1-C6, (s)      : /0.005/0.005/0.005
INTERVALO DE MUESTREO, C7-C12, (s)     :
UMBRAL DE DISPARO, C1-C6, (Gal)        : /3/3/3
UMBRAL DE DISPARO, C7-C12, (Gal)       :
MEMORIA DE PREEVENTO (s)               : 15
TIEMPO DE POSEVENTO (s)                : 60


================================================================================
DATOS DEL SISMO:
FECHA DEL SISMO (GMT)                  : 10/NOV/01
HORA EPICENTRO (GMT)                   : 17:09
MAGNITUD(ES)                           : /Ms=6.0
COORDENADAS DEL EPICENTRO              : 15.85 LAT. N 
                                       : 98.35 LONG. W
PROFUNDIDAD FOCAL (km)                 : 20 
FUENTES DE LOS DATOS EPICENTRALES      : SSN
                                       : SISTEMA SISMOLOGICO NACIONAL

================================================================================
DATOS DE ESTE REGISTRO:
HORA DE LA PRIMERA MUESTRA (GMT)       : 17:09:00.00
EXACTITUD DEL TIEMPO (s)               :     
DURACION DEL REGISTRO (s), C1-C6       : /78.08/78.08/78.08          
DURACION DEL REGISTRO (s), C7-C12      :                             
NUM. TOTAL DE MUESTRAS, C1-C6          : /15616/15616/15616          
NUM. TOTAL DE MUESTRAS, C7-C12         :                             
ACEL. MAX.(Gal), C1-C6                 : /1.97/0.80/-3.02             
ACEL. MAX., C1-C6, EN LA MUESTRA       : /2500/2407/4069             
ACEL. MAX.(Gal), C7-C12                : 
ACEL. MAX., C7-C12, EN LA MUESTRA      :
UNIDADES DE LOS DATOS                  : Gal
FACTOR DE DECIMACION                   : 1
FORMATO DATOS (FORTRAN,10 campos/dato) : 3E16.7


===============================================================================
CALIDAD DEL ACELEROGRAMA:
REGISTRO DIGITAL COMPLETO, CARECE DE TIEMPO ABSOLUTO.


===============================================================================
COMENTARIOS:
CADA UNO DE LOS CANALES SE ENCUENTRA AJUSTADO POR LINEA BASE MEDIANTE LA
SUSTRACCION DEL PROMEDIO DE LAS ACELERACIONES EN EL TIEMPO.











MODELO DEL ACELEROGRAFO : SSA-2 (KINEMETRICS)
===============================================================================
DATOS DE ACELERACION:
---------+---------+---------+---------+---------+---------+---------+---------+
   CANAL-1   CANAL-2   CANAL-3   CANAL-4   CANAL-5   CANAL-6   CANAL-7   CANAL-8
      N00E        +V      N90E
---------+---------+---------+---------+---------+---------+---------+---------+   
[...]
  -9.6809210e-01   3.0449568e-01  -1.0599712e+00
  -9.6810145e-01   3.0448388e-01  -5.7168018e-01
  -9.6811080e-01   3.0447209e-01  -5.7168913e-01
  -9.6812015e-01   3.0446029e-01  -5.7169807e-01
  -9.6812950e-01   3.0444850e-01  -5.7170702e-01
  -9.6813885e-01   3.0443671e-01  -5.7171597e-01
  -9.6814821e-01   3.0442491e-01  -5.7172492e-01
  -4.7995756e-01   3.0441312e-01  -5.7173386e-01
  -4.7996691e-01   3.0440132e-01  -5.7174281e-01
  -4.7997626e-01   3.0438953e-01  -5.7175176e-01
  -4.7998561e-01   3.0437773e-01  -5.7176070e-01
  -4.7999496e-01   3.0436594e-01  -5.7176965e-01
  -4.8000431e-01   3.0435415e-01  -5.7177860e-01
  -4.8001366e-01   3.0434235e-01  -5.7178755e-01
  -4.8002301e-01   3.0433056e-01  -5.7179649e-01
  -4.8003236e-01   3.0431876e-01  -5.7180544e-01
  -4.8004171e-01   3.0430697e-01  -8.3514387e-02
  -4.8005106e-01   3.0429518e-01  -8.3523334e-02
  -4.8006041e-01   3.0428338e-01  -8.3532281e-02
   8.2302361e-03  -1.8022841e-01  -8.3541228e-02
   8.2208854e-03   3.0425979e-01  -8.3550175e-02
   8.2115348e-03   3.0424800e-01  -8.3559122e-02
   8.2021841e-03   3.0423621e-01  -8.3568069e-02
   8.1928334e-03   3.0422441e-01  -8.3577016e-02
   8.1834828e-03  -1.8028738e-01  -8.3585964e-02
   8.1741321e-03   3.0420082e-01   4.0470509e-01
   4.9646478e-01   3.0418903e-01   4.0469614e-01
   8.1554307e-03   3.0417723e-01   4.0468720e-01
   4.9644608e-01   3.0416544e-01   4.0467825e-01
   4.9643673e-01   3.0415365e-01   4.0466930e-01
   4.9642738e-01   3.0414185e-01   8.9286035e-01
   4.9641803e-01   3.0413006e-01   8.9285141e-01
   4.9640868e-01   3.0411826e-01   8.9284246e-01
   4.9639933e-01   3.0410647e-01   8.9283351e-01
   9.8488998e-01   3.0409468e-01   8.9282457e-01
   9.8488063e-01   3.0408288e-01   8.9281562e-01
   9.8487127e-01   3.0407109e-01   8.9280667e-01
   9.8486192e-01   3.0405929e-01   1.3810977e+00
   9.8485257e-01   3.0404750e-01   1.3810888e+00
   9.8484322e-01   3.0403571e-01   1.3810798e+00
   9.8483387e-01   3.0402391e-01   1.3810709e+00
   9.8482452e-01   3.0401212e-01   1.3810619e+00
   9.8481517e-01   3.0400032e-01   1.3810530e+00
   9.8480582e-01   3.0398853e-01   1.3810440e+00
   9.8479647e-01   3.0397673e-01   1.3810351e+00
   9.8478712e-01   3.0396494e-01   1.3810261e+00
   1.4732778e+00   3.0395315e-01   1.3810172e+00
   1.4732684e+00   3.0394135e-01   1.3810083e+00
   1.4732591e+00   3.0392956e-01   1.3809993e+00
   9.8474972e-01   3.0391776e-01   1.3809904e+00
   9.8474037e-01   3.0390597e-01   1.8692814e+00
   1.4732310e+00   3.0389418e-01   1.8692725e+00
   1.4732217e+00   3.0388238e-01   1.3809635e+00
   1.4732123e+00   3.0387059e-01   1.8692546e+00
   1.4732030e+00   3.0385879e-01   1.8692456e+00
   1.4731936e+00   3.0384700e-01   1.8692367e+00
   1.4731843e+00   3.0383521e-01   1.8692277e+00
   1.4731749e+00   3.0382341e-01   1.3809188e+00
   1.4731656e+00   3.0381162e-01   1.3809098e+00
   1.4731562e+00   3.0379982e-01   1.8692009e+00
   1.4731469e+00   3.0378803e-01   1.8691919e+00
   1.4731375e+00   3.0377623e-01   1.8691830e+00
   1.4731282e+00   3.0376444e-01   1.8691740e+00
   1.4731188e+00   3.0375265e-01   1.8691651e+00
   1.4731095e+00   3.0374085e-01   1.8691562e+00
   1.4731001e+00   3.0372906e-01   1.8691472e+00
   1.4730908e+00   3.0371726e-01   1.8691383e+00
   1.4730814e+00   3.0370547e-01   1.8691293e+00
   1.4730721e+00   3.0369368e-01   1.8691204e+00
   1.4730627e+00   3.0368188e-01   1.8691114e+00
   1.4730534e+00   3.0367009e-01   1.8691025e+00
   1.4730440e+00   3.0365829e-01   1.8690935e+00
   1.4730347e+00   3.0364650e-01   1.3807846e+00
   1.4730253e+00   3.0363471e-01   1.3807756e+00
   1.4730159e+00   3.0362291e-01   1.3807667e+00
   1.4730066e+00   3.0361112e-01   1.8690577e+00
   1.4729972e+00   3.0359932e-01   1.8690488e+00
   1.4729879e+00   3.0358753e-01   1.8690398e+00
   1.4729785e+00   3.0357573e-01   1.8690309e+00
   1.4729692e+00  -1.8093606e-01   1.8690219e+00
   1.4729598e+00  -1.8094785e-01   1.3807130e+00
   1.4729505e+00  -1.8095965e-01   1.8690041e+00
   1.4729411e+00  -1.8097144e-01   1.8689951e+00
   1.4729318e+00  -1.8098324e-01   2.3574862e+00
   1.4729224e+00  -1.8099503e-01   2.3574772e+00
   1.4729131e+00  -1.8100682e-01   1.8689683e+00
   1.4729037e+00  -1.8101862e-01   1.8689593e+00
   1.4728944e+00  -1.8103041e-01   1.8689504e+00
   1.4728850e+00  -1.8104221e-01   2.3574414e+00
   9.8437569e-01  -1.8105400e-01   2.3574325e+00
   9.8436634e-01  -1.8106579e-01   2.3574235e+00
   1.4728570e+00  -1.8107759e-01   2.3574146e+00
   1.4728476e+00  -1.8108938e-01   1.8689056e+00
   9.8433829e-01  -1.8110118e-01   2.3573967e+00
   9.8432894e-01   3.0338703e-01   2.3573877e+00
   9.8431958e-01   3.0337523e-01   2.3573788e+00
   9.8431023e-01   3.0336344e-01   2.3573698e+00
   9.8430088e-01  -1.8114835e-01   2.3573609e+00
   9.8429153e-01   3.0333985e-01   2.3573519e+00
   9.8428218e-01  -1.8117194e-01   2.3573430e+00
   9.8427283e-01  -1.8118374e-01   2.3573341e+00
   9.8426348e-01  -1.8119553e-01   2.3573251e+00
   9.8425413e-01   3.0329268e-01   2.3573162e+00
   9.8424478e-01   3.0328088e-01   2.3573072e+00
   9.8423543e-01   3.0326909e-01   2.3572983e+00
   9.8422608e-01   3.0325729e-01   2.3572893e+00
   9.8421673e-01   3.0324550e-01   2.3572804e+00
   9.8420738e-01   3.0323371e-01   2.3572714e+00
   9.8419803e-01   3.0322191e-01   2.3572625e+00
   9.8418868e-01   3.0321012e-01   2.3572535e+00
   9.8417932e-01   3.0319832e-01   2.3572446e+00
   4.9566997e-01  -1.8131347e-01   2.3572356e+00
   4.9566062e-01   3.0317473e-01   2.3572267e+00
   4.9565127e-01  -1.8133706e-01   1.8687177e+00
   4.9564192e-01  -1.8134885e-01   1.8687088e+00
   4.9563257e-01  -1.8136065e-01   1.8686998e+00
   4.9562322e-01  -1.8137244e-01   1.8686909e+00
   4.9561387e-01  -1.8138424e-01   1.8686820e+00
   4.9560452e-01  -1.8139603e-01   1.8686730e+00
   4.9559517e-01  -1.8140782e-01   1.8686641e+00
   4.9558582e-01  -1.8141962e-01   1.3803551e+00
   4.9557647e-01  -1.8143141e-01   1.3803462e+00
   4.9556712e-01  -1.8144321e-01   1.3803372e+00
   4.9555777e-01  -1.8145500e-01   1.3803283e+00
   4.9554842e-01  -1.8146679e-01   1.3803193e+00
   4.9553906e-01  -1.8147859e-01   1.3803104e+00
   4.9552971e-01  -6.6589038e-01   1.3803014e+00
   7.2203634e-03  -1.8150218e-01   1.3802925e+00
   4.9551101e-01  -1.8151397e-01   1.3802835e+00
   4.9550166e-01  -6.6592577e-01   8.9197459e-01
   4.9549231e-01  -6.6593756e-01   8.9196564e-01
   4.9548296e-01  -6.6594935e-01   8.9195670e-01
   4.9547361e-01  -6.6596115e-01   8.9194775e-01
   7.1642593e-03  -6.6597294e-01   8.9193880e-01
   7.1549087e-03  -6.6598474e-01   8.9192985e-01
   7.1455580e-03  -6.6599653e-01   8.9192091e-01
   7.1362073e-03  -6.6600832e-01   4.0371196e-01
   7.1268567e-03  -6.6602012e-01   8.9190301e-01
   7.1175060e-03  -6.6603191e-01   4.0369407e-01
   7.1081553e-03  -1.8164371e-01   4.0368512e-01
   7.0988046e-03  -6.6605550e-01   4.0367617e-01
   7.0894540e-03  -6.6606729e-01   4.0366722e-01
   7.0801033e-03  -6.6607909e-01   4.0365828e-01
   7.0707526e-03  -6.6609088e-01  -8.4650670e-02
  -4.8123860e-01  -6.6610268e-01  -8.4659617e-02
  -4.8124795e-01  -6.6611447e-01  -8.4668564e-02
  -4.8125730e-01  -6.6612627e-01  -8.4677512e-02
  -4.8126665e-01  -6.6613806e-01  -8.4686459e-02
  -4.8127600e-01  -6.6614985e-01  -8.4695406e-02
  -4.8128535e-01  -6.6616165e-01  -8.4704353e-02
  -4.8129470e-01  -6.6617344e-01  -8.4713300e-02
  -4.8130405e-01  -6.6618524e-01  -8.4722247e-02
  -4.8131340e-01  -6.6619703e-01  -5.7303119e-01
  -4.8132275e-01  -6.6620882e-01  -5.7304014e-01
  -4.8133210e-01  -6.6622062e-01  -5.7304909e-01
  -4.8134146e-01  -1.8183241e-01  -5.7305804e-01
  -4.8135081e-01  -6.6624421e-01  -5.7306698e-01
  -4.8136016e-01  -1.8185600e-01  -5.7307593e-01
  -4.8136951e-01  -1.8186780e-01  -5.7308488e-01
  -4.8137886e-01  -1.8187959e-01  -5.7309382e-01
  -4.8138821e-01  -1.8189138e-01  -5.7310277e-01
  -4.8139756e-01  -1.8190318e-01  -5.7311172e-01
  -4.8140691e-01  -1.8191497e-01  -5.7312067e-01
  -4.8141626e-01  -1.8192677e-01  -5.7312961e-01
  -4.8142561e-01  -1.8193856e-01  -5.7313856e-01
  -4.8143496e-01  -1.8195035e-01  -5.7314751e-01
  -4.8144431e-01  -1.8196215e-01  -5.7315645e-01
  -4.8145366e-01  -1.8197394e-01  -5.7316540e-01
  -4.8146301e-01  -1.8198574e-01  -5.7317435e-01
  -4.8147236e-01  -1.8199753e-01  -5.7318330e-01
  -4.8148172e-01  -1.8200932e-01  -5.7319224e-01
  -4.8149107e-01  -1.8202112e-01  -5.7320119e-01
  -4.8150042e-01  -1.8203291e-01  -5.7321014e-01
  -4.8150977e-01  -1.8204471e-01  -5.7321908e-01
  -4.8151912e-01  -1.8205650e-01  -1.0615280e+00
  -4.8152847e-01  -1.8206830e-01  -1.0615370e+00
  -4.8153782e-01  -1.8208009e-01  -1.0615459e+00
  -4.8154717e-01  -1.8209188e-01  -1.0615549e+00
  -4.8155652e-01  -1.8210368e-01  -1.0615638e+00
  -4.8156587e-01  -1.8211547e-01  -1.0615728e+00
  -4.8157522e-01  -1.8212727e-01  -1.0615817e+00
  -4.8158457e-01  -1.8213906e-01  -1.0615907e+00
  -4.8159392e-01   3.0234915e-01  -1.0615996e+00
  -4.8160327e-01   3.0233735e-01  -1.0616086e+00
  -4.8161262e-01  -1.8217444e-01  -1.5499175e+00
  -4.8162198e-01   3.0231376e-01  -1.5499264e+00
  -4.8163133e-01   3.0230197e-01  -1.5499354e+00
  -4.8164068e-01  -1.8220982e-01  -1.5499443e+00
  -9.6985003e-01  -1.8222162e-01  -1.5499533e+00
  -9.6985938e-01  -1.8223341e-01  -1.5499622e+00
  -9.6986873e-01  -1.8224521e-01  -1.5499712e+00
  -9.6987808e-01  -1.8225700e-01  -1.5499801e+00
  -9.6988743e-01  -1.8226880e-01  -1.5499891e+00
  -9.6989678e-01  -1.8228059e-01  -2.0382980e+00
  -9.6990613e-01  -1.8229238e-01  -2.0383070e+00
  -9.6991548e-01  -1.8230418e-01  -2.0383159e+00
  -9.6992483e-01  -1.8231597e-01  -2.0383249e+00
  -9.6993418e-01  -1.8232777e-01  -2.0383338e+00
  -4.8174353e-01  -1.8233956e-01  -2.0383428e+00
  -9.6995289e-01  -1.8235135e-01  -2.0383517e+00
  -9.6996224e-01  -1.8236315e-01  -2.5265607e+00
  -9.6997159e-01  -1.8237494e-01  -2.5265696e+00
  -9.6998094e-01  -1.8238674e-01  -2.5265786e+00
  -9.6999029e-01  -1.8239853e-01  -2.5265875e+00
  -9.6999964e-01  -1.8241032e-01  -2.5265964e+00
  -9.7000899e-01  -1.8242212e-01  -2.5266054e+00
  -9.7001834e-01  -1.8243391e-01  -2.5266143e+00
  -9.7002769e-01  -1.8244571e-01  -2.5266233e+00
  -9.7003704e-01  -1.8245750e-01  -2.5266322e+00
  -9.7004639e-01  -1.8246930e-01  -2.5266412e+00
  -9.7005574e-01  -1.8248109e-01  -2.5266501e+00
  -9.7006509e-01  -1.8249288e-01  -2.5266591e+00
  -9.7007444e-01  -1.8250468e-01  -2.5266680e+00
  -9.7008379e-01  -1.8251647e-01  -2.5266770e+00
  -9.7009315e-01  -1.8252827e-01  -2.5266859e+00
  -9.7010250e-01  -1.8254006e-01  -3.0149949e+00
  -9.7011185e-01  -1.8255185e-01  -2.5267038e+00
  -9.7012120e-01   3.0193635e-01  -2.5267128e+00
  -9.7013055e-01  -1.8257544e-01  -2.5267217e+00
  -9.7013990e-01   3.0191276e-01  -2.5267307e+00
  -9.7014925e-01   3.0190097e-01  -2.5267396e+00
  -9.7015860e-01   3.0188918e-01  -2.5267485e+00
  -9.7016795e-01   3.0187738e-01  -2.5267575e+00
  -9.7017730e-01   3.0186559e-01  -2.0385664e+00
  -9.7018665e-01   3.0185379e-01  -2.0385754e+00
  -9.7019600e-01   3.0184200e-01  -2.5267843e+00
  -9.7020535e-01   3.0183020e-01  -2.5267933e+00
  -9.7021470e-01   3.0181841e-01  -2.0386022e+00
  -9.7022405e-01   3.0180662e-01  -2.0386112e+00
  -9.7023341e-01   3.0179482e-01  -2.0386201e+00
  -9.7024276e-01   3.0178303e-01  -2.0386291e+00
  -4.8205211e-01   3.0177123e-01  -2.0386380e+00
  -4.8206146e-01   3.0175944e-01  -2.0386470e+00
  -4.8207081e-01   3.0174765e-01  -2.0386559e+00
  -9.7028016e-01   3.0173585e-01  -2.0386649e+00
  -9.7028951e-01   3.0172406e-01  -2.0386738e+00
  -4.8209886e-01   3.0171226e-01  -2.5268828e+00
  -4.8210821e-01   3.0170047e-01  -2.0386917e+00
  -4.8211756e-01   3.0168868e-01  -2.0387006e+00
  -4.8212691e-01   3.0167688e-01  -2.0387096e+00
  -9.7033626e-01   3.0166509e-01  -2.0387185e+00
  -4.8214561e-01   3.0165329e-01  -2.0387275e+00
  -4.8215496e-01   3.0164150e-01  -2.5269364e+00
  -4.8216431e-01   3.0162970e-01  -2.0387454e+00
  -4.8217367e-01   3.0161791e-01  -2.0387543e+00
  -4.8218302e-01   3.0160612e-01  -2.0387633e+00
  -4.8219237e-01   3.0159432e-01  -2.0387722e+00
  -4.8220172e-01   3.0158253e-01  -2.5269812e+00
  -4.8221107e-01   3.0157073e-01  -2.5269901e+00
  -4.8222042e-01   3.0155894e-01  -2.5269991e+00
  -4.8222977e-01   3.0154715e-01  -2.0388080e+00
  -4.8223912e-01   3.0153535e-01  -2.0388170e+00
  -4.8224847e-01   3.0152356e-01  -2.0388259e+00
  -4.8225782e-01   3.0151176e-01  -2.0388349e+00
   6.0328279e-03  -1.8300003e-01  -2.5270438e+00
  -4.8227652e-01   3.0148818e-01  -2.5270527e+00
  -4.8228587e-01   3.0147638e-01  -2.5270617e+00
  -4.8229522e-01   3.0146459e-01  -2.0388706e+00
  -4.8230457e-01   3.0145279e-01  -2.0388796e+00
   5.9860745e-03   3.0144100e-01  -2.5270885e+00
   5.9767238e-03   3.0142920e-01  -2.5270975e+00
   5.9673732e-03  -1.8308259e-01  -2.5271064e+00
   5.9580225e-03   3.0140562e-01  -2.5271154e+00
   5.9486718e-03   3.0139382e-01  -2.5271243e+00
   5.9393211e-03   3.0138203e-01  -2.0389333e+00
   5.9299705e-03   3.0137023e-01  -2.0389422e+00
   5.9206198e-03   3.0135844e-01  -2.0389512e+00
   5.9112691e-03   3.0134665e-01  -2.0389601e+00
   5.9019184e-03   3.0133485e-01  -2.0389691e+00
   5.8925678e-03   3.0132306e-01  -2.0389780e+00
   5.8832171e-03   3.0131126e-01  -2.0389870e+00
   5.8738664e-03   3.0129947e-01  -2.0389959e+00
   5.8645157e-03   3.0128768e-01  -2.0390048e+00
   5.8551651e-03   3.0127588e-01  -2.0390138e+00
   5.8458144e-03   3.0126409e-01  -2.0390227e+00
   5.8364637e-03   3.0125229e-01  -1.5507317e+00
   5.8271130e-03   3.0124050e-01  -1.5507406e+00
   5.8177624e-03   7.8562870e-01  -1.5507496e+00
   5.8084117e-03   3.0121691e-01  -1.5507585e+00
   5.7990610e-03   3.0120512e-01  -1.5507675e+00
   4.9408971e-01   3.0119332e-01  -1.5507764e+00
   4.9408036e-01   7.8558153e-01  -1.5507854e+00
   4.9407101e-01   3.0116973e-01  -1.5507943e+00
   4.9406166e-01   7.8555794e-01  -1.0625033e+00
   4.9405231e-01   7.8554615e-01  -1.0625122e+00
   4.9404296e-01   7.8553435e-01  -1.0625212e+00
   4.9403361e-01   7.8552256e-01  -5.7423011e-01
   4.9402426e-01   3.0111076e-01  -5.7423905e-01
   4.9401490e-01   7.8549897e-01  -5.7424800e-01
   4.9400555e-01   7.8548718e-01  -5.7425695e-01
   4.9399620e-01   7.8547538e-01  -5.7426590e-01
   4.9398685e-01   7.8546359e-01  -5.7427484e-01
   4.9397750e-01   7.8545179e-01  -5.7428379e-01
   4.9396815e-01   7.8544000e-01  -8.5992738e-02
   4.9395880e-01   3.0102820e-01  -5.7430168e-01
   4.9394945e-01   7.8541641e-01  -8.6010632e-02
   4.9394010e-01   7.8540462e-01  -8.6019579e-02
   4.9393075e-01   7.8539282e-01  -8.6028526e-02
   4.9392140e-01   7.8538103e-01   4.0226253e-01
   4.9391205e-01   7.8536923e-01   4.0225358e-01
   4.9390270e-01   7.8535744e-01   4.0224463e-01
   4.9389335e-01   7.8534565e-01   4.0223569e-01
   4.9388400e-01   7.8533385e-01   4.0222674e-01
   4.9387464e-01   7.8532206e-01   4.0221779e-01
   4.9386529e-01   7.8531026e-01   4.0220884e-01
   4.9385594e-01   7.8529847e-01   4.0219990e-01
   4.9384659e-01   7.8528668e-01   4.0219095e-01
   4.9383724e-01   7.8527488e-01   4.0218200e-01
