********************************************************************************
           RED INTERUNIVERSITARIA DE INSTRUMENTACION SISIMICA (RIIS)
 AREA DE ESTRUCTURAS, UNIVERSIDAD AUTONOMA METROPOLITANA - UNIDAD AZCAPOTZALCO
         AV. SAN PABLO 180; COL. REYNOSA TAMAULIPAS; MEXICO D.F. 02200.                                                                               
         TELS:53189455; FAX:53189085; e-mail: tperea@correo.azc.uam.mx
********************************************************************************
ARCHIVO ESTANDAR DE ACELERACION:
VERSION DEL FORMATO                    : 2.0
NOMBRE DEL ARCHIVO                     : RIDX0101.131
FECHA Y HORA DE CREACION               : JULIO, 2002
REF. CATALOGO ACELEROGRAMAS, SMIS 1996 : 


================================================================================
DATOS DE LA ESTACION:
NOMBRE DE LA ESTACION                  : UAM XOCHIMILCO
CLAVE DE LA ESTACION                   : RIDX
LOCALIZACION DE LA ESTACION            : CALZADA DEL HUESO 1100, COLONIA VILLA
                                       : QUIETUD, PLANTEL XOCHIMILCO, FRENTE A
                                       : LA BIBLIOTECA, MEXICO, D.F.
                                       :
                                       :
COORDENADAS DE LA ESTACION             : 19.310 LAT. N 
                                       : 99.100 LONG. W 
ALTITUD (msnm)                         : 2235
TIPO DE SUELO                          : LIMOS Y ARENAS ARCILLOSAS
                                       : 
                                       : 
INSTITUCION RESPONSABLE                : RED INTERUNIVERSITARIA DE
                                       : INSTRUMENTACION SISMICA (RIIS)

================================================================================
DATOS DEL ACELEROGRAFO:
MODELO DEL ACELEROGRAFO                : SSA-2                       
NUMERO DE SERIE DEL ACELEROGRAFO       : 1320                        
NUMERO DE CANALES                      : 3                           
ORIENTACION C1-C6 (rumbo;orientacion)  : /N00E/+V/N90E               
ORIENTACION C7-C12 (rumbo;orientacion) :                             
VEL. DE MUESTREO, C1-C6 (muestras/s)   : /200/200/200                
VEL. DE MUESTREO, C7-C12 (muestras/s)  :                             
ESC. COMPLETA DE SENSORES, C1-C6, (g)  : /1.0/1.0/1.0                
ESC. COMPLETA DE SENSORES, C7-C12, (g) :                             
FREC. NAT. DE SENSORES, C1-C6, (Hz)    : /50.0/50.0/50.0             
FREC. NAT. DE SENSORES, C7-C12, (Hz)   :                             
AMORTIGUAMIENTO DE SENSORES, C1-C6     : /0.7/0.7/0.7                
AMORTIGUAMIENTO DE SENSORES, C7-C12    :                             
INTERVALO DE MUESTREO, C1-C6, (s)      : /0.005/0.005/0.005          
INTERVALO DE MUESTREO, C7-C12, (s)     :                             
UMBRAL DE DISPARO, C1-C6, (Gal)        : /2/2/2                      
UMBRAL DE DISPARO, C7-C12, (Gal)       :                             
MEMORIA DE PREEVENTO (s)               : 15                          
TIEMPO DE POSEVENTO (s)                : 60                          


================================================================================
DATOS DEL SISMO:
FECHA DEL SISMO (GMT)                  : 13/ENE/2001
HORA EPICENTRO (GMT)                   : 17:34:00
MAGNITUD(ES)                           : /Ms=7.8
COORDENADAS DEL EPICENTRO              : 13.05 LAT. N 
                                       : 88.66 LONG. W 
PROFUNDIDAD FOCAL (km)                 : 60 
FUENTES DE LOS DATOS EPICENTRALES      : USGS
                                       : U.S. GEOLOGICAL SURVEY

================================================================================
DATOS DE ESTE REGISTRO:
HORA DE LA PRIMERA MUESTRA (GMT)       : 17:34:00.00
EXACTITUD DEL TIEMPO (s)               : 
DURACION DEL REGISTRO (s), C1-C6       : /58.88/58.88/58.88                 
DURACION DEL REGISTRO (s), C7-C12      :                                    
NUM. TOTAL DE MUESTRAS, C1-C6          : /11776/11776/11776                 
NUM. TOTAL DE MUESTRAS, C7-C12         :                                    
ACEL. MAX.(Gal), C1-C6                 : /-5.95/-1.43/5.10                  
ACEL. MAX., C1-C6, EN LA MUESTRA       : /11199/1055/3359                   
ACEL. MAX.(Gal), C7-C12                : 
ACEL. MAX., C7-C12, EN LA MUESTRA      : 
UNIDADES DE LOS DATOS                  : Gal 
FACTOR DE DECIMACION                   : 1
FORMATO DATOS (FORTRAN,10 campos/dato) : 3F10.4


================================================================================
CALIDAD DEL ACELEROGRAMA:
REGISTRO DIGITAL COMPLETO, CARECE DE TIEMPO ABSOLUTO.


================================================================================
COMENTARIOS:
CADA UNO DE LOS CANALES SE ENCUENTRA AJUSTADO POR LINEA BASE MEDIANTE LA
SUSTRACCION DEL PROMEDIO DE LAS ACELERACIONES EN EL TIEMPO.











MODELO DEL ACELEROGRAFO : SSA-2 (KINEMETRICS)
================================================================================
DATOS DE ACELERACION:
---------+---------+---------+---------+---------+---------+---------+---------+
   CANAL-1   CANAL-2   CANAL-3   CANAL-4   CANAL-5   CANAL-6   CANAL-7   CANAL-8
      N00E        +V      N90E
---------+---------+---------+---------+---------+---------+---------+---------+
[...]
    1.3954    -.4501     .6909
    1.3954    -.4501     .6909
    1.8856    -.4501     .6909
    1.8856    -.4501     .6909
    1.8856    -.4501     .6909
    1.8856    -.4501     .6909
    1.8856    -.9404     .6909
    1.8856    -.4501     .6909
    1.8856    -.4501     .2005
    1.8856    -.4501     .2005
    1.8856    -.4501     .6909
    1.8856    -.4501     .6909
    2.3758    -.4501     .2005
    2.3758    -.4501     .2005
    2.3758    -.4501     .2005
    2.3758    -.4501     .2005
    2.3758    -.4501     .2005
    2.3758    -.4501     .2005
    2.3758    -.4501     .2005
    2.3758    -.4501     .2005
    2.3758    -.4501     .2005
    2.3758    -.4501     .2005
    2.3758    -.4501     .2005
    2.3758     .0401     .2005
    2.3758    -.4501     .2005
    2.3758    -.4501     .2005
    2.3758    -.4501     .2005
    2.8663    -.4501     .2005
    2.8663    -.4501     .2005
    2.8663    -.4501     .2005
    2.8663    -.4501    -.2897
    2.8663    -.4501     .6909
    2.8663    -.4501    -.2897
    2.8663    -.4501     .2005
    2.8663    -.4501    -.2897
    2.8663    -.9404    -.2897
    2.8663    -.4501    -.2897
    2.8663    -.4501    -.2897
    2.8663    -.4501    -.2897
    2.8663    -.4501    -.2897
    2.8663    -.4501    -.2897
    2.8663    -.4501    -.2897
    2.8663    -.4501    -.2897
    2.8663    -.4501    -.7799
    2.8663    -.4501    -.2897
    2.8663    -.4501    -.2897
    2.8663    -.4501    -.2897
    3.3567    -.4501    -.2897
    3.3567    -.4501    -.2897
    3.3567    -.4501    -.2897
    3.3567     .0401    -.2897
    3.8472     .0401    -.2897
    3.8472     .0401    -.2897
    3.8472     .0401    -.2897
    3.8472     .0401    -.2897
    3.8472     .0401    -.2897
    3.8472     .0401    -.2897
    3.8472     .0401    -.2897
    3.8472     .0401    -.2897
    3.8472     .0401    -.2897
    3.8472    -.4501     .2005
    3.8472     .0401    -.2897
    3.8472     .0401    -.2897
    3.8472     .0401    -.2897
    3.8472     .0401    -.2897
    3.8472     .0401    -.2897
    3.8472     .0401    -.2897
    3.8472     .0401    -.2897
    3.8472     .0401    -.2897
    3.8472     .0401    -.2897
    3.8472     .0401    -.2897
    3.8472     .0401    -.2897
    3.8472     .0401    -.7799
    4.3376     .0401    -.7799
    4.3376     .0401    -.7799
    4.3376     .0401    -.7799
    4.3376     .0401    -.7799
    4.3376     .0401    -.7799
    4.3376     .0401    -.7799
    4.3376     .0401    -.7799
    4.3376     .0401    -.7799
    4.8281     .0401    -.7799
    4.3376     .0401    -.7799
    4.3376     .0401    -.7799
    4.3376     .0401    -.7799
    4.3376     .0401    -.7799
    4.3376     .0401    -.7799
    4.3376     .0401    -.7799
    4.3376     .0401    -.7799
    4.3376     .0401    -.7799
    4.3376     .0401    -.7799
    4.3376     .0401    -.7799
    4.3376     .0401    -.7799
    4.3376     .0401    -.7799
    4.3376     .0401    -.7799
    4.3376     .0401    -.7799
    4.3376     .0401    -.7799
    4.3376     .0401    -.7799
    4.8281     .0401    -.7799
    4.3376     .0401    -.7799
    4.8281     .0401    -.7799
    4.8281    -.4501    -.7799
    4.8281     .0401    -.7799
    4.8281     .0401   -1.2701
    4.3376     .0401    -.7799
    4.8281     .0401   -1.2701
    4.8281     .0401    -.7799
    4.8281     .0401   -1.2701
    4.8281     .0401    -.7799
    4.8281     .0401   -1.2701
    5.3185     .0401   -1.2701
    4.3376     .0401    -.7799
    4.8281     .0401   -1.2701
    4.8281     .0401   -1.2701
    4.8281     .0401   -1.2701
    4.8281     .0401   -1.2701
    4.8281     .0401   -1.2701
    4.8281     .0401   -1.2701
    4.8281     .5303   -1.2701
    4.8281     .0401   -1.2701
    4.8281     .0401   -1.2701
    4.8281     .0401   -1.2701
    4.3376     .0401   -1.2701
    4.3376     .0401   -1.2701
    4.8281     .0401   -1.2701
    4.3376     .0401   -1.2701
    4.3376     .0401   -1.2701
    4.3376     .0401   -1.2701
    4.3376     .0401   -1.2701
    4.3376     .0401   -1.2701
    4.3376    -.4501   -1.2701
    4.3376     .0401   -1.2701
    4.3376     .0401   -1.2701
    4.3376     .0401   -1.2701
    4.3376     .0401   -1.2701
    4.3376     .0401   -1.2701
    4.3376     .0401   -1.2701
    4.3376     .0401   -1.2701
    4.3376     .0401   -1.7603
    4.3376     .0401   -1.2701
    4.3376     .0401   -1.2701
    4.3376     .0401   -1.2701
    4.3376     .0401   -1.2701
    4.3376     .0401   -1.2701
    4.3376     .0401   -1.2701
    4.3376     .0401   -1.2701
    3.8472     .0401   -1.2701
    3.8472     .5303   -1.2701
    3.8472     .0401   -1.2701
    3.8472     .0401   -1.2701
    3.8472     .0401   -1.2701
    3.8472     .0401   -1.2701
    3.8472     .0401   -1.2701
    3.8472     .0401   -1.2701
    3.8472     .0401   -1.2701
    3.8472     .0401    -.7799
    3.8472     .0401   -1.2701
    3.8472     .0401   -1.2701
    3.8472     .0401   -1.2701
    3.3567     .0401   -1.2701
    3.3567     .0401   -1.2701
    3.3567     .0401   -1.2701
    3.3567     .0401   -1.2701
    3.3567     .0401   -1.2701
    3.3567     .0401   -1.2701
    2.8663    -.4501   -1.7603
    2.8663    -.4501   -1.7603
    2.8663    -.4501   -2.2506
    2.8663    -.4501   -1.7603
    2.8663    -.4501   -1.7603
    2.8663    -.4501   -1.7603
    2.8663    -.4501   -1.7603
    2.8663    -.4501   -1.7603
    2.3758    -.4501   -1.7603
    2.3758    -.4501   -1.7603
    2.3758    -.4501   -1.7603
    2.3758    -.4501   -1.7603
    2.3758    -.4501   -1.7603
    2.3758    -.4501   -1.7603
    2.3758    -.4501   -1.7603
    2.3758    -.4501   -1.7603
    2.3758    -.4501   -1.7603
    1.8856    -.4501   -1.7603
    1.8856    -.4501   -1.7603
    1.8856    -.4501   -1.2701
    1.8856    -.4501   -1.7603
    1.8856    -.4501   -1.7603
    1.8856    -.4501   -1.7603
    1.3954    -.4501   -1.7603
    1.3954    -.4501   -1.7603
    1.3954    -.4501   -1.7603
    1.3954    -.4501   -1.7603
    1.3954    -.4501   -1.7603
    1.3954    -.4501   -1.7603
    1.3954    -.4501   -1.7603
     .9052    -.4501   -2.2506
     .9052    -.4501   -2.2506
     .9052    -.4501   -1.7603
     .9052    -.4501   -1.7603
     .9052    -.4501   -1.7603
     .9052    -.4501   -1.7603
     .9052    -.4501   -1.7603
     .9052    -.4501   -1.7603
     .4150    -.4501   -1.7603
     .4150    -.4501   -1.7603
     .9052    -.4501   -1.7603
     .4150    -.4501   -1.7603
     .4150    -.4501   -2.2506
     .4150    -.4501   -1.7603
    -.0752    -.4501   -2.2506
    -.0752    -.4501   -1.7603
    -.0752    -.4501   -1.7603
    -.0752    -.4501   -1.7603
    -.0752    -.4501   -2.2506
    -.0752    -.4501   -1.7603
    -.0752    -.4501   -1.7603
    -.5654    -.4501   -1.7603
   -1.0556    -.4501   -1.7603
    -.5654    -.4501   -1.7603
    -.5654    -.4501   -2.2506
    -.5654    -.4501   -1.7603
    -.5654    -.4501   -2.2506
   -1.0556    -.4501   -1.7603
   -1.0556    -.4501   -1.7603
   -1.0556    -.4501   -1.7603
   -1.0556    -.4501   -2.2506
   -1.0556    -.4501   -1.7603
   -1.0556    -.4501   -2.2506
   -1.0556    -.4501   -1.7603
   -1.0556    -.4501   -1.7603
   -1.5458    -.4501   -1.7603
   -1.5458    -.4501   -1.7603
   -1.5458    -.4501   -1.7603
   -1.5458    -.4501   -1.7603
   -1.0556    -.4501   -1.7603
   -1.5458    -.4501   -1.7603
   -2.0361    -.4501   -1.7603
   -2.0361    -.4501   -1.7603
   -2.0361    -.4501   -1.7603
   -2.0361    -.4501   -1.7603
   -2.0361    -.4501   -1.7603
   -2.0361    -.4501   -1.7603
   -2.5263     .0401   -1.7603
   -2.5263     .0401   -1.7603
   -2.0361     .0401   -1.7603
   -2.5263     .0401   -1.2701
   -2.5263     .0401   -1.2701
   -2.5263     .0401   -1.2701
   -2.5263     .0401   -1.2701
   -2.5263     .0401   -1.2701
   -2.5263     .0401   -1.2701
   -2.5263     .0401   -1.2701
   -2.5263     .0401   -1.2701
   -2.5263     .0401   -1.2701
   -3.0165    -.4501   -1.2701
   -3.0165     .0401   -1.2701
   -3.0165     .0401   -1.2701
   -3.0165     .0401   -1.2701
   -3.0165     .0401   -1.2701
   -3.0165     .0401   -1.2701
   -3.0165     .0401   -1.2701
   -3.5067     .0401   -1.2701
   -3.5067     .0401   -1.7603
   -3.5067     .0401   -1.2701
   -3.5067     .0401   -1.2701
   -3.5067     .0401   -1.2701
   -3.5067     .0401   -1.2701
   -3.5067     .0401   -1.2701
   -3.5067     .0401   -1.2701
   -3.9969     .0401   -1.2701
   -3.9969     .0401   -1.2701
   -3.9969     .5303   -1.2701
   -3.9969     .0401   -1.2701
   -3.9969     .0401   -1.2701
   -3.9969     .0401   -1.2701
   -3.9969     .0401    -.7799
   -4.4871     .0401   -1.2701
   -4.4871     .0401    -.7799
   -4.4871     .0401   -1.2701
   -4.4871     .0401    -.2897
   -4.4871     .0401    -.7799
   -4.4871     .0401    -.7799
   -4.4871     .0401    -.7799
   -4.4871    -.4501    -.7799
   -4.4871     .0401    -.7799
   -4.9773     .0401    -.7799
   -4.9773     .0401    -.7799
   -4.9773     .0401    -.7799
   -4.9773     .0401    -.7799
   -4.9773     .0401    -.7799
   -4.9773     .0401    -.7799
   -4.9773     .0401   -1.2701
   -4.9773     .0401    -.7799
   -4.9773     .0401    -.7799
   -4.9773     .0401    -.7799
   -4.9773     .0401    -.2897
   -4.9773     .0401    -.2897
   -4.9773     .0401    -.2897
   -5.4675     .0401    -.2897
   -5.4675     .0401    -.2897
   -5.4675     .5303    -.2897
   -5.4675     .0401    -.2897
   -5.4675     .0401    -.2897
   -5.4675     .0401    -.2897
   -5.4675     .0401    -.2897
   -5.4675     .0401    -.2897
   -5.4675     .0401    -.2897
   -5.4675     .0401    -.2897
   -5.4675     .0401    -.2897
   -5.4675     .0401     .2005
   -5.4675     .0401     .2005
   -5.4675     .0401     .2005
   -5.4675     .0401     .2005
   -5.4675     .0401     .2005
   -5.4675     .0401     .2005
   -5.4675     .0401     .2005
   -5.4675     .0401     .2005
   -5.4675     .0401     .2005
   -5.4675     .0401     .2005
   -5.4675     .0401     .2005
   -5.4675     .0401     .2005
   -5.4675     .0401     .2005
   -5.4675     .0401     .2005
   -5.4675     .0401     .2005
   -5.4675     .0401     .6909
   -5.4675     .0401     .6909
   -5.4675     .0401     .6909
   -5.4675     .0401     .6909
   -5.4675     .0401     .6909
   -5.9577     .0401     .6909
   -5.4675     .0401     .6909
   -5.4675     .0401     .6909
   -5.4675     .0401     .6909
   -5.4675     .0401     .6909
   -5.4675     .0401     .6909
   -5.4675     .0401     .6909
   -5.4675     .0401     .6909
   -5.4675     .0401    1.1814
   -5.4675     .0401    1.1814
   -5.4675     .0401     .6909
   -5.4675     .0401    1.1814
   -5.4675     .0401    1.1814
   -5.4675     .0401    1.1814
   -5.4675     .0401    1.1814
   -4.9773     .0401    1.1814
   -4.9773     .0401    1.1814
   -4.9773     .0401    1.1814
   -4.9773     .0401    1.1814
   -4.9773     .0401    1.1814
   -4.9773     .0401    1.1814
   -4.9773     .0401    1.6718
   -4.9773     .0401    1.1814
   -4.9773     .0401    1.1814
   -4.9773     .0401    1.1814
   -4.9773     .0401    1.1814
   -4.9773     .0401    1.6718
   -4.9773     .0401    1.6718
   -4.9773     .0401    1.6718
   -4.4871     .0401    1.6718
   -4.9773     .0401    1.6718
   -4.9773     .0401    1.6718
   -4.9773     .0401    1.6718
   -4.9773     .0401    1.1814
   -4.9773     .0401    1.1814
   -4.9773    -.4501    1.1814
   -4.9773    -.4501    1.6718
   -4.9773    -.4501    1.1814
   -4.4871    -.4501    1.6718
   -4.4871    -.4501    1.1814
   -4.4871    -.4501    1.6718
   -4.9773    -.4501    1.6718
   -4.4871    -.4501    1.6718
   -4.4871    -.4501    1.6718
   -4.4871     .0401    1.6718
   -3.9969    -.4501    1.6718
   -3.9969     .0401    1.6718
   -3.9969     .0401    1.6718
   -3.9969    -.4501    1.6718
   -3.9969    -.9404    1.6718
   -3.9969    -.4501    1.6718
   -3.9969    -.4501    1.6718
   -3.9969     .0401    1.6718
   -3.5067    -.4501    1.6718
   -3.5067     .0401    1.6718
   -3.5067     .0401    1.6718
   -3.5067    -.4501    1.6718
   -3.5067    -.4501    1.6718
   -3.0165     .0401    1.6718
   -3.0165     .0401    1.6718
   -3.0165    -.4501    1.6718
   -3.0165    -.4501    1.6718
   -3.0165    -.4501    1.6718
   -3.0165     .0401    1.6718
   -3.0165    -.4501    1.6718
   -3.0165    -.4501    1.6718
   -3.0165     .5303    1.6718
   -2.5263    -.4501    1.6718
   -2.5263    -.4501    1.6718
   -2.5263     .0401    1.6718
   -2.5263    -.4501    1.6718
   -2.5263    -.4501    1.6718
   -2.5263    -.4501    1.6718
   -2.0361    -.4501    2.1623
   -2.0361     .0401    1.6718
   -2.0361     .0401    1.6718
   -2.0361    -.4501    1.6718
   -2.0361     .0401    1.6718
   -1.5458   -1.4306    1.6718
   -1.5458    -.4501    1.6718
   -1.5458    -.4501    1.6718
   -1.5458    -.4501    1.6718
   -1.5458    -.4501    1.6718
   -1.5458    -.4501    1.6718
   -1.0556    -.4501    1.6718
   -1.0556    -.4501    1.6718
   -1.0556    -.4501    1.6718
   -1.0556    -.4501    1.6718
   -1.0556    -.4501    1.6718
   -1.0556    -.4501    1.6718
   -1.0556    -.4501    1.6718
   -1.0556    -.4501    1.6718
    -.5654    -.4501    1.6718
    -.5654    -.4501    1.6718
    -.5654    -.4501    1.6718
    -.5654     .5303    1.6718
    -.5654    -.4501    1.6718
    -.0752    -.4501    1.6718
    -.0752    -.4501    1.6718
    -.0752    -.4501    1.6718
    -.0752    -.4501    1.6718
    -.0752    -.4501    1.6718
    -.0752    -.4501    1.6718
    -.0752    -.4501    2.1623
     .4150    -.4501    1.6718
     .4150    -.4501    1.6718
     .4150    -.4501    1.6718
     .4150    -.4501    1.6718
     .4150    -.4501    1.6718
     .9052     .0401    1.6718
     .9052    -.4501    1.6718
     .9052     .0401    2.1623
     .9052     .0401    2.1623
    1.3954     .0401    1.6718
    1.3954     .0401    1.6718
    1.3954     .0401    1.6718
    1.3954     .0401    2.1623
    1.3954     .0401    1.6718
    1.3954     .0401    1.6718
    1.3954     .0401    1.6718
    1.8856     .0401    1.6718
    1.8856     .0401    1.6718
    1.8856     .0401    1.6718
    1.8856     .0401    1.6718
    1.8856     .0401    1.6718
    1.8856     .0401    1.6718
    2.3758     .0401    1.6718
    2.3758     .0401    1.6718
    2.3758     .0401    1.6718
    2.3758     .0401    1.6718
    2.3758     .0401    1.6718
    2.3758     .0401    1.6718
    2.3758     .0401    2.1623
    2.3758     .0401    1.6718
    2.3758     .0401    1.6718
    2.8663     .0401    1.6718
    2.8663     .0401    1.6718
    2.8663     .0401    1.6718
    2.8663     .0401    1.6718
    2.8663     .0401    1.6718
    2.8663     .0401    1.6718
    2.8663     .0401    1.1814
