********************************************************************************
           RED INTERUNIVERSITARIA DE INSTRUMENTACION SISIMICA (RIIS)
 AREA DE ESTRUCTURAS, UNIVERSIDAD AUTONOMA METROPOLITANA - UNIDAD AZCAPOTZALCO
         AV. SAN PABLO 180; COL. REYNOSA TAMAULIPAS; MEXICO D.F. 02200.                                                                               
         TELS:53189455; FAX:53189085; e-mail: tperea@correo.azc.uam.mx
********************************************************************************
ARCHIVO ESTANDAR DE ACELERACION:
VERSION DEL FORMATO                    : 2.0
NOMBRE DEL ARCHIVO                     : RIDX0103.061
FECHA Y HORA DE CREACION               : JULIO, 2002
REF. CATALOGO ACELEROGRAMAS, SMIS 1996 : 


================================================================================
DATOS DE LA ESTACION:
NOMBRE DE LA ESTACION                  : UAM XOCHIMILCO
CLAVE DE LA ESTACION                   : RIDX
LOCALIZACION DE LA ESTACION            : CALZADA DEL HUESO 1100, COLONIA VILLA
                                       : QUIETUD, PLANTEL XOCHIMILCO, FRENTE A
                                       : LA BIBLIOTECA, MEXICO, D.F.
                                       :
                                       :
COORDENADAS DE LA ESTACION             : 19.310 LAT. N 
                                       : 99.100 LONG. W 
ALTITUD (msnm)                         : 2235
TIPO DE SUELO                          : LIMOS Y ARENAS ARCILLOSAS
                                       : 
                                       : 
INSTITUCION RESPONSABLE                : RED INTERUNIVERSITARIA DE
                                       : INSTRUMENTACION SISMICA (RIIS)

================================================================================
DATOS DEL ACELEROGRAFO:
MODELO DEL ACELEROGRAFO                : SSA-2                     
NUMERO DE SERIE DEL ACELEROGRAFO       : 1320                      
NUMERO DE CANALES                      : 3                         
ORIENTACION C1-C6 (rumbo;orientacion)  : /N00E/+V/N90E             
ORIENTACION C7-C12 (rumbo;orientacion) :                           
VEL. DE MUESTREO, C1-C6 (muestras/s)   : /200/200/200              
VEL. DE MUESTREO, C7-C12 (muestras/s)  :                           
ESC. COMPLETA DE SENSORES, C1-C6, (g)  : /1.0/1.0/1.0              
ESC. COMPLETA DE SENSORES, C7-C12, (g) :                           
FREC. NAT. DE SENSORES, C1-C6, (Hz)    : /50.0/50.0/50.0           
FREC. NAT. DE SENSORES, C7-C12, (Hz)   :                           
AMORTIGUAMIENTO DE SENSORES, C1-C6     : /0.7/0.7/0.7              
AMORTIGUAMIENTO DE SENSORES, C7-C12    :                           
INTERVALO DE MUESTREO, C1-C6, (s)      : /0.005/0.005/0.005        
INTERVALO DE MUESTREO, C7-C12, (s)     :                           
UMBRAL DE DISPARO, C1-C6, (Gal)        : /2/2/2                    
UMBRAL DE DISPARO, C7-C12, (Gal)       :                           
MEMORIA DE PREEVENTO (s)               : 15                        
TIEMPO DE POSEVENTO (s)                : 60                        


================================================================================
DATOS DEL SISMO:
FECHA DEL SISMO (GMT)                  : 06/MAR/2001
HORA EPICENTRO (GMT)                   : 21:58:00
MAGNITUD(ES)                           : /Mb=5.1
COORDENADAS DEL EPICENTRO              : 17.19 LAT. N 
                                       : 99.94 LONG. W 
PROFUNDIDAD FOCAL (km)                 : 33 
FUENTES DE LOS DATOS EPICENTRALES      : USGS
                                       : U.S. GEOLOGICAL SURVEY

================================================================================
DATOS DE ESTE REGISTRO:
HORA DE LA PRIMERA MUESTRA (GMT)       : 21:58:00.00
EXACTITUD DEL TIEMPO (s)               : 
DURACION DEL REGISTRO (s), C1-C6       : /52.48/52.48/52.48            
DURACION DEL REGISTRO (s), C7-C12      :                               
NUM. TOTAL DE MUESTRAS, C1-C6          : /10496/10496/10496            
NUM. TOTAL DE MUESTRAS, C7-C12         :                               
ACEL. MAX.(Gal), C1-C6                 : /-2.98/1.51/-2.54             
ACEL. MAX., C1-C6, EN LA MUESTRA       : /3859/5903/2556               
ACEL. MAX.(Gal), C7-C12                : 
ACEL. MAX., C7-C12, EN LA MUESTRA      : 
UNIDADES DE LOS DATOS                  : Gal 
FACTOR DE DECIMACION                   : 1
FORMATO DATOS (FORTRAN,10 campos/dato) : 3F10.4


================================================================================
CALIDAD DEL ACELEROGRAMA:
REGISTRO DIGITAL COMPLETO, CARECE DE TIEMPO ABSOLUTO.


================================================================================
COMENTARIOS:
CADA UNO DE LOS CANALES SE ENCUENTRA AJUSTADO POR LINEA BASE MEDIANTE LA
SUSTRACCION DEL PROMEDIO DE LAS ACELERACIONES EN EL TIEMPO.











MODELO DEL ACELEROGRAFO : SSA-2 (KINEMETRICS)
================================================================================
DATOS DE ACELERACION:
---------+---------+---------+---------+---------+---------+---------+---------+
   CANAL-1   CANAL-2   CANAL-3   CANAL-4   CANAL-5   CANAL-6   CANAL-7   CANAL-8
      N00E        +V      N90E
---------+---------+---------+---------+---------+---------+---------+---------+
[...]
    1.4227    -.4487     .3933
    1.4227    -.4487     .3933
    1.4227     .0415    -.0972
    1.4227    -.4487    -.0972
    1.4227    -.4487    -.0972
    1.9132    -.4487    -.0972
    1.9132     .0415    -.0972
    1.9132    -.4487    -.0972
    1.9132    -.4487    -.0972
    1.9132    -.4487    -.0972
    1.9132    -.4487    -.0972
    1.9132    -.4487    -.0972
    1.9132    -.4487    -.0972
    1.4227    -.4487    -.5876
    1.4227    -.4487    -.0972
    1.4227     .0415    -.5876
    1.4227     .0415    -.5876
    1.4227     .0415    -.5876
    1.4227     .0415    -.5876
    1.4227     .0415    -.5876
    1.4227     .0415    -.5876
    1.4227     .0415    -.5876
    1.4227     .0415    -.5876
    1.4227     .0415    -.5876
     .9323     .0415    -.5876
     .9323     .0415    -.5876
     .9323     .0415    -.5876
     .9323     .0415    -.5876
     .9323     .0415    -.5876
     .9323     .0415    -.5876
     .4420     .0415    -.5876
     .4420     .0415    -.5876
     .4420     .0415    -.5876
     .4420     .0415    -.5876
     .4420     .0415    -.0972
     .4420     .0415    -.0972
     .4420     .0415    -.0972
     .4420     .0415    -.0972
     .4420     .0415    -.0972
     .4420     .0415    -.0972
     .4420     .0415     .3933
     .4420     .0415     .3933
     .4420     .0415     .3933
    -.0482     .0415     .3933
    -.0482     .0415     .3933
    -.0482     .0415     .3933
    -.0482     .5317     .3933
    -.0482     .5317     .3933
    -.0482     .5317     .3933
    -.0482     .5317     .3933
    -.0482     .5317     .3933
    -.0482     .5317     .3933
    -.0482     .5317     .3933
    -.0482     .5317     .3933
    -.0482     .5317     .3933
    -.0482     .5317     .3933
    -.0482     .5317     .3933
    -.0482     .5317     .3933
    -.0482     .5317     .3933
    -.0482     .0415     .3933
    -.0482     .5317     .3933
    -.0482     .5317     .3933
    -.0482     .5317     .3933
    -.0482     .5317     .3933
    -.0482     .5317     .3933
    -.0482     .5317     .3933
    -.0482     .5317     .3933
    -.0482     .0415     .3933
    -.0482     .0415    -.0972
    -.0482     .0415    -.0972
    -.0482     .0415    -.0972
    -.0482     .0415    -.0972
    -.0482     .0415    -.0972
    -.0482     .0415    -.0972
    -.0482     .5317    -.0972
    -.0482     .0415    -.0972
    -.5384     .0415    -.5876
    -.5384     .0415    -.5876
    -.5384     .0415    -.5876
    -.5384     .0415    -.5876
    -.5384     .0415    -.5876
    -.5384    -.4487    -.5876
    -.5384     .0415   -1.0780
   -1.0286    -.4487   -1.0780
   -1.0286    -.4487   -1.0780
   -1.0286    -.4487    -.5876
   -1.0286    -.4487   -1.0780
   -1.0286    -.4487    -.5876
   -1.0286    -.4487    -.5876
   -1.0286    -.4487    -.5876
   -1.0286    -.4487    -.5876
   -1.5188    -.4487    -.5876
   -1.5188    -.4487    -.5876
   -1.5188    -.4487    -.5876
   -1.5188    -.4487    -.5876
   -1.5188    -.4487    -.0972
   -1.5188    -.4487    -.0972
   -1.5188    -.4487    -.0972
   -1.5188    -.4487    -.0972
   -1.5188    -.4487    -.0972
   -1.5188    -.4487    -.0972
   -1.5188    -.4487     .3933
   -1.5188    -.4487     .3933
   -1.5188    -.4487     .3933
   -1.5188    -.4487     .3933
   -1.5188    -.4487     .3933
   -1.0286    -.4487     .3933
   -1.0286    -.4487     .8838
   -1.0286     .0415     .8838
   -1.0286     .0415     .3933
   -1.0286     .0415     .8838
   -1.0286     .0415     .8838
   -1.0286     .0415     .8838
   -1.0286     .0415     .8838
   -1.0286     .0415     .8838
    -.5384     .0415    1.3742
    -.5384     .0415    1.3742
    -.5384     .0415    1.3742
    -.5384     .0415    1.3742
    -.5384     .0415    1.3742
    -.5384     .0415    1.3742
    -.5384     .0415    1.3742
    -.5384     .0415    1.3742
    -.5384     .0415    1.3742
    -.5384     .5317    1.3742
    -.5384     .0415    1.3742
    -.5384     .5317    1.3742
    -.5384     .5317    1.3742
    -.5384     .5317     .8838
    -.5384     .5317    1.3742
    -.5384     .0415    1.3742
    -.5384     .0415     .8838
    -.5384     .0415     .8838
    -.5384     .0415     .8838
    -.5384     .0415     .8838
    -.5384     .0415     .8838
    -.5384     .0415     .8838
    -.5384     .0415     .8838
    -.5384     .0415     .8838
    -.5384     .0415     .8838
    -.5384     .0415     .8838
    -.5384    -.4487     .8838
    -.5384    -.4487     .8838
    -.5384    -.4487     .3933
    -.5384    -.4487     .3933
    -.0482    -.4487     .3933
    -.0482    -.4487     .3933
    -.0482    -.4487     .3933
    -.0482    -.4487     .3933
    -.0482    -.4487     .3933
    -.0482    -.4487     .3933
    -.0482    -.4487     .3933
    -.0482    -.4487     .3933
    -.0482    -.4487     .3933
     .4420    -.4487     .3933
     .4420     .0415     .3933
     .4420     .0415     .3933
     .9323     .0415     .8838
     .9323     .0415     .8838
     .9323     .0415     .8838
     .9323     .0415     .8838
     .9323     .0415     .8838
    1.4227     .0415     .8838
    1.4227     .0415     .8838
    1.4227     .0415     .8838
    1.4227     .0415     .8838
    1.4227    -.4487     .3933
    1.4227     .0415     .8838
    1.4227     .0415     .8838
    1.4227     .0415     .8838
    1.4227     .0415     .3933
    1.4227     .0415     .3933
    1.4227     .0415     .3933
    1.9132     .0415     .3933
    1.9132     .0415     .3933
    1.9132     .0415     .3933
    1.9132     .0415     .3933
    1.9132     .0415     .3933
    1.9132     .0415     .3933
    1.9132     .0415     .3933
    1.9132     .0415     .3933
    1.9132     .0415     .8838
    1.9132     .0415     .8838
    1.4227     .0415     .3933
    1.4227     .0415     .3933
    1.4227     .0415     .3933
    1.4227     .0415     .3933
    1.4227     .0415     .3933
    1.4227     .0415     .3933
    1.4227     .0415     .3933
    1.4227     .0415     .3933
    1.4227     .0415     .3933
    1.4227     .0415     .3933
    1.4227     .0415     .3933
    1.4227     .0415     .3933
    1.4227     .0415     .3933
    1.4227    -.4487     .3933
    1.4227    -.4487     .3933
     .9323    -.4487     .3933
     .9323    -.4487     .3933
     .9323    -.4487     .3933
     .9323    -.4487    -.0972
     .9323    -.4487    -.0972
     .9323    -.4487    -.0972
     .9323    -.4487    -.0972
     .9323     .0415    -.0972
     .9323     .0415    -.0972
     .9323     .0415    -.5876
     .9323     .0415    -.5876
     .9323     .0415    -.5876
     .9323     .0415    -.5876
     .9323     .0415    -.5876
     .9323     .0415    -.5876
     .9323     .0415    -.5876
     .9323     .0415    -.5876
    1.4227     .0415    -.5876
    1.4227     .0415    -.5876
    1.4227     .0415    -.5876
    1.4227     .0415    -.5876
    1.4227     .0415    -.5876
    1.4227     .0415    -.5876
    1.4227     .0415    -.5876
    1.4227     .0415    -.5876
    1.9132     .0415    -.5876
    1.9132     .0415    -.5876
    1.9132     .0415    -.5876
    1.9132     .0415    -.5876
    1.9132     .0415    -.5876
    1.9132     .0415    -.5876
    1.9132     .0415    -.5876
    1.9132     .0415    -.5876
    1.9132     .0415    -.5876
    2.4036     .0415    -.5876
    1.9132     .0415    -.5876
    2.4036     .0415    -.5876
    2.4036     .0415    -.5876
    1.9132     .0415    -.5876
    2.4036     .0415    -.5876
    1.9132     .0415    -.5876
    1.9132     .0415    -.5876
    1.9132     .0415    -.5876
    1.9132     .0415    -.5876
    1.9132     .0415    -.5876
    1.4227     .0415    -.5876
    1.4227     .0415    -.5876
    1.4227    -.4487    -.5876
    1.4227     .0415    -.5876
    1.4227    -.4487    -.5876
    1.4227    -.4487    -.5876
    1.4227     .0415    -.5876
     .9323     .0415    -.5876
     .9323     .0415    -.5876
     .9323     .0415    -.5876
     .9323    -.4487    -.5876
     .4420     .0415    -.5876
     .4420     .0415    -.5876
     .4420     .0415    -.5876
     .4420     .0415    -.5876
    -.0482     .0415    -.5876
    -.0482     .0415    -.5876
    -.0482     .0415    -.5876
    -.0482     .0415    -.5876
    -.0482    -.4487    -.5876
    -.5384    -.4487    -.5876
    -.5384    -.4487    -.5876
    -.5384    -.4487    -.5876
    -.5384    -.4487    -.5876
    -.5384    -.4487    -.5876
    -.5384    -.4487    -.5876
    -.5384     .0415    -.5876
    -.5384     .0415    -.5876
    -.5384    -.4487    -.5876
   -1.0286    -.4487    -.5876
   -1.0286    -.4487   -1.0780
   -1.0286    -.4487    -.5876
   -1.0286    -.4487    -.5876
   -1.0286    -.4487    -.5876
    -.5384     .0415    -.5876
    -.5384     .0415    -.5876
    -.5384     .0415    -.5876
    -.5384     .0415    -.5876
    -.5384     .0415    -.5876
    -.5384     .0415    -.5876
    -.5384     .0415    -.5876
    -.5384     .0415    -.5876
    -.5384     .0415    -.5876
    -.0482     .0415    -.5876
    -.0482     .0415    -.5876
    -.0482     .0415    -.0972
    -.0482     .0415    -.0972
    -.0482     .0415    -.0972
     .4420     .0415    -.0972
     .4420     .0415    -.0972
     .4420     .0415    -.0972
     .4420     .0415    -.0972
     .4420     .0415    -.0972
     .4420     .0415    -.0972
     .4420     .5317    -.0972
     .4420     .0415    -.0972
    -.0482     .0415    -.0972
    -.0482     .0415    -.0972
    -.0482     .0415    -.0972
    -.0482     .0415    -.0972
    -.0482     .0415    -.0972
    -.0482     .0415    -.0972
    -.5384     .5317    -.0972
    -.5384     .0415    -.0972
    -.5384     .5317    -.0972
    -.5384     .0415    -.0972
    -.5384     .0415    -.0972
   -1.0286     .0415    -.0972
   -1.0286     .0415    -.0972
   -1.0286     .0415    -.0972
   -1.0286     .0415    -.0972
   -1.5188     .0415    -.0972
   -1.5188     .0415    -.0972
   -1.5188     .0415    -.5876
   -1.5188     .0415    -.5876
   -2.0090     .0415    -.5876
   -2.0090     .0415    -.5876
   -2.0090     .0415    -.5876
   -2.0090     .0415    -.5876
   -2.0090     .0415    -.5876
   -2.4992     .0415   -1.0780
   -2.4992     .0415   -1.0780
   -2.4992     .0415   -1.0780
   -2.4992     .0415   -1.0780
   -2.4992     .0415   -1.0780
   -2.4992     .0415   -1.0780
   -2.4992     .0415   -1.0780
   -2.9894     .0415   -1.0780
   -2.4992     .0415   -1.0780
   -2.9894     .0415   -1.0780
   -2.9894     .0415   -1.0780
   -2.9894     .0415   -1.0780
   -2.9894     .0415   -1.0780
   -2.4992     .0415    -.5876
   -2.4992     .0415    -.5876
   -2.4992     .0415    -.5876
   -2.4992     .0415    -.5876
   -2.4992     .0415    -.5876
   -2.4992     .0415    -.5876
   -2.4992     .0415    -.5876
   -2.4992     .0415    -.5876
   -2.4992     .0415    -.5876
   -2.4992     .0415    -.5876
   -2.4992     .0415    -.5876
   -2.4992     .0415    -.0972
   -2.0090     .0415    -.0972
   -2.0090     .0415    -.0972
   -2.0090     .0415     .3933
   -1.5188     .0415     .3933
   -1.5188     .0415     .3933
   -1.5188     .0415     .3933
   -1.5188     .0415     .3933
   -1.5188     .0415     .3933
   -1.0286     .0415     .8838
   -1.0286     .0415     .8838
   -1.0286    -.4487     .8838
   -1.0286    -.4487     .8838
   -1.0286    -.4487     .8838
   -1.0286    -.4487     .8838
   -1.0286     .0415     .8838
   -1.0286    -.4487     .8838
   -1.0286    -.4487     .8838
   -1.0286    -.4487    1.3742
   -1.0286    -.4487    1.3742
   -1.0286     .0415    1.3742
   -1.0286    -.4487     .8838
   -1.0286    -.4487     .8838
   -1.0286    -.4487     .8838
   -1.0286    -.4487     .8838
   -1.0286    -.4487     .8838
   -1.0286    -.4487     .8838
   -1.5188    -.4487    1.3742
   -1.5188    -.4487    1.3742
   -1.5188    -.4487    1.3742
   -1.5188    -.4487    1.3742
   -1.5188    -.4487    1.3742
   -1.5188    -.4487     .8838
   -1.5188    -.4487     .8838
   -1.5188    -.4487     .8838
   -1.5188    -.4487     .8838
   -1.5188    -.4487     .8838
   -1.5188    -.4487     .8838
   -1.5188    -.4487     .8838
   -1.5188    -.4487     .8838
   -1.5188    -.4487     .8838
   -1.5188    -.4487     .8838
   -1.5188    -.4487    1.3742
   -1.5188    -.4487    1.3742
   -1.5188    -.4487    1.3742
   -1.5188    -.4487    1.3742
   -1.5188    -.4487    1.3742
   -1.0286    -.4487    1.3742
   -1.0286    -.4487    1.3742
   -1.0286     .0415    1.3742
   -1.0286     .0415    1.3742
   -1.0286     .0415    1.3742
   -1.0286     .0415    1.3742
   -1.0286     .0415    1.3742
   -1.0286     .0415    1.3742
   -1.0286     .0415    1.3742
    -.5384     .5317    1.3742
    -.5384     .5317     .8838
    -.5384     .5317    1.3742
    -.0482     .5317    1.3742
    -.0482     .5317    1.3742
    -.0482     .5317    1.3742
    -.0482     .5317    1.3742
    -.0482     .5317    1.3742
     .4420     .5317    1.3742
     .4420     .5317    1.3742
     .4420     .5317    1.3742
     .9323     .5317    1.3742
     .9323     .5317    1.3742
     .9323     .5317    1.3742
     .9323     .5317    1.3742
     .9323     .5317    1.3742
    1.4227     .5317    1.8646
    1.4227     .5317    1.3742
    1.4227     .5317    1.8646
    1.4227     .5317    1.8646
    1.4227     .5317    1.3742
    1.4227     .5317    1.8646
    1.4227     .5317    1.3742
    1.4227     .5317    1.8646
    1.4227     .5317    1.3742
    1.4227     .5317    1.3742
    1.4227     .5317    1.8646
    1.4227     .5317    1.8646
    1.4227     .5317    1.8646
    1.4227     .5317    1.8646
    1.4227     .5317    1.3742
    1.4227     .5317    1.3742
     .9323     .5317    1.3742
     .9323     .5317    1.3742
     .9323     .5317    1.3742
     .9323     .5317    1.3742
     .9323     .5317     .8838
     .9323     .5317     .8838
     .9323     .5317     .8838
     .9323     .5317     .8838
     .9323     .5317     .8838
     .9323     .5317     .3933
     .4420     .5317     .3933
     .9323     .5317     .3933
     .4420     .5317     .3933
     .4420     .5317     .3933
     .4420     .5317     .3933
     .4420     .5317    -.0972
     .4420     .5317    -.0972
     .4420     .5317    -.0972
     .4420     .5317    -.0972
     .4420     .5317    -.0972
     .9323    1.0219    -.0972
     .4420     .5317    -.0972
     .9323     .5317    -.0972
     .9323     .5317    -.5876
     .9323     .5317    -.5876
     .9323     .5317    -.5876
     .9323     .5317    -.5876
     .9323     .0415    -.5876
     .9323     .0415    -.5876
     .9323     .0415    -.5876
     .9323     .0415    -.5876
     .9323     .0415    -.5876
     .9323     .0415    -.5876
     .9323     .0415    -.5876
     .9323     .0415    -.5876
     .9323     .0415    -.5876
    1.4227    -.4487    -.5876
    1.4227     .0415    -.5876
