********************************************************************************
           RED INTERUNIVERSITARIA DE INSTRUMENTACION SISMICA (RIIS)
 AREA DE ESTRUCTURAS, UNIVERSIDAD AUTONOMA METROPOLITANA - UNIDAD AZCAPOTZALCO
         AV. SAN PABLO 180; COL. REYNOSA TAMAULIPAS; MEXICO D.F. 02200.         
         TELS:53189455; FAX:53189085; e-mail: tperea@correo.azc.uam.mx
********************************************************************************
ARCHIVO ESTANDAR DE ACELERACION:
VERSION DEL FORMATO                    : 2.0
NOMBRE DEL ARCHIVO                     : RIDA0008.091
FECHA Y HORA DE CREACION               : JULIO, 2002
REF. CATALOGO ACELEROGRAMAS, SMIS 1996 : 


================================================================================
DATOS DE LA ESTACION:
NOMBRE DE LA ESTACION                  : UAM AZCAPOTZALCO
CLAVE DE LA ESTACION                   : RIDA
LOCALIZACION DE LA ESTACION            : AVENIDA SAN PABLO Y EJE 5, COLONIA
                                       : REYNOSA, PLANTEL AZCAPOTZALCO, JARDIN
                                       : ENTRE EDIFICIO "H" Y "E", MEXICO, D.F.
                                       :
                                       :
COORDENADAS DE LA ESTACION             : 19.520 LAT. N 
                                       : 99.190 LONG. W 
ALTITUD (msnm)                         : 2240
TIPO DE SUELO                          : LIMO ARENOSO
                                       : 
                                       : 
INSTITUCION RESPONSABLE                : RED INTERUNIVERSITARIA DE
                                       : INSTRUMENTACION SISMICA (RIIS)

================================================================================
DATOS DEL ACELEROGRAFO:
MODELO DEL ACELEROGRAFO                : SSA-2                     
NUMERO DE SERIE DEL ACELEROGRAFO       : 1561                      
NUMERO DE CANALES                      : 3                         
ORIENTACION C1-C6 (rumbo;orientacion)  : /N00E/+V/N90E             
ORIENTACION C7-C12 (rumbo;orientacion) :                           
VEL. DE MUESTREO, C1-C6 (muestras/s)   : /200/200/200              
VEL. DE MUESTREO, C7-C12 (muestras/s)  :                           
ESC. COMPLETA DE SENSORES, C1-C6, (g)  : /1.0/1.0/1.0              
ESC. COMPLETA DE SENSORES, C7-C12, (g) :                           
FREC. NAT. DE SENSORES, C1-C6, (Hz)    : /52.4/52.5/53.7           
FREC. NAT. DE SENSORES, C7-C12, (Hz)   :                           
AMORTIGUAMIENTO DE SENSORES, C1-C6     : /0.64/0.64/0.64           
AMORTIGUAMIENTO DE SENSORES, C7-C12    :                           
INTERVALO DE MUESTREO, C1-C6, (s)      : /0.005/0.005/0.005        
INTERVALO DE MUESTREO, C7-C12, (s)     :                           
UMBRAL DE DISPARO, C1-C6, (Gal)        : /3/3/3                    
UMBRAL DE DISPARO, C7-C12, (Gal)       :                           
MEMORIA DE PREEVENTO (s)               : 15.4                      
TIEMPO DE POSEVENTO (s)                : 60.0                      


================================================================================ 
DATOS DEL SISMO:
FECHA DEL SISMO (GMT)                  : 09/AGO/2000
HORA EPICENTRO (GMT)                   : 11:42:00
MAGNITUD(ES)                           : /Ms=6.5
COORDENADAS DEL EPICENTRO              : 18.20 LAT. N 
                                       : 102.48 LONG. W 
PROFUNDIDAD FOCAL (km)                 : 45 
FUENTES DE LOS DATOS EPICENTRALES      : USGS
                                       : U.S. GEOLOGICAL SURVEY

================================================================================
DATOS DE ESTE REGISTRO:
HORA DE LA PRIMERA MUESTRA (GMT)       : 11:42:00.00
EXACTITUD DEL TIEMPO (s)               : 
DURACION DEL REGISTRO (s), C1-C6       : /106.24/106.24/106.24           
DURACION DEL REGISTRO (s), C7-C12      :                                 
NUM. TOTAL DE MUESTRAS, C1-C6          : /21248/21248/21248              
NUM. TOTAL DE MUESTRAS, C7-C12         :                                 
ACEL. MAX.(Gal), C1-C6                 : /4.66/1.27/-7.58                
ACEL. MAX., C1-C6, EN LA MUESTRA       : /6232/3505/4371                 
ACEL. MAX.(Gal), C7-C12                : 
ACEL. MAX., C7-C12, EN LA MUESTRA      : 
UNIDADES DE LOS DATOS                  : Gal 
FACTOR DE DECIMACION                   : 1
FORMATO DATOS (FORTRAN,10 campos/dato) : 3F10.4


===============================================================================
CALIDAD DEL ACELEROGRAMA:
REGISTRO DIGITAL COMPLETO, CARECE DE TIEMPO ABSOLUTO.


===============================================================================
COMENTARIOS:
CADA UNO DE LOS CANALES SE ENCUENTRA AJUSTADO POR LINEA BASE MEDIANTE LA
SUSTRACCION DEL PROMEDIO DE LAS ACELERACIONES EN EL TIEMPO.











MODELO DEL ACELEROGRAFO : SSA-2 (KINEMETRICS)
===============================================================================
DATOS DE ACELERACION:
---------+---------+---------+---------+---------+---------+---------+---------+
   CANAL-1   CANAL-2   CANAL-3   CANAL-4   CANAL-5   CANAL-6   CANAL-7   CANAL-8
      N00E        +V      N90E
---------+---------+---------+---------+---------+---------+---------+---------+
[...]
   -2.6591    -.1861     .2285
   -2.1710    -.1861     .7168
   -2.1710    -.1861     .7168
   -2.1710    -.1861     .7168
   -2.1710    -.1861    1.2050
   -2.1710    -.1861    1.2050
   -2.1710    -.1861    1.6933
   -2.1710    -.1861    1.6933
   -1.6826    -.1861    2.1815
   -1.6826    -.1861    2.1815
   -1.6826    -.1861    2.1815
   -1.6826    -.1861    2.6698
   -1.6826    -.1861    2.6698
   -1.6826    -.1861    2.6698
   -1.6826    -.1861    3.1580
   -1.1944    -.1861    3.1580
   -1.1944    -.1861    3.1580
   -1.1944    -.1861    3.1580
   -1.1944    -.1861    3.1580
   -1.1944    -.1861    3.6463
   -1.1944    -.1861    3.6463
   -1.1944    -.1861    3.6463
    -.7061    -.1861    4.1345
    -.7061    -.1861    4.1345
    -.7061    -.1861    4.1345
    -.7061    -.1861    4.1345
    -.7061    -.1861    4.1345
    -.7061    -.1861    4.1345
    -.7061    -.1861    4.1345
    -.2179    -.1861    4.6228
    -.2179    -.1861    4.6228
    -.2179    -.1861    4.6228
    -.2179    -.1861    4.6228
    -.2179    -.1861    4.6228
    -.2179    -.1861    4.6228
    -.2179    -.1861    4.6228
     .2704    -.1861    4.6228
     .2704    -.1861    4.6228
     .2704    -.1861    4.6228
     .2704    -.1861    4.6228
     .2704    -.1861    4.6228
     .2704    -.1861    4.6228
     .2704    -.1861    4.6228
     .2704     .3022    4.6228
     .7586    -.1861    4.6228
     .7586     .3022    4.6228
     .7586    -.1861    4.6228
     .7586     .3022    4.6228
     .7586     .3022    4.6228
     .7586    -.1861    4.6228
     .7586    -.1861    4.6228
     .7586    -.1861    4.6228
     .7586     .3022    4.6228
     .7586     .3022    4.6228
     .7586     .3022    4.6228
     .7586     .3022    4.6228
     .7586    -.1861    4.6228
     .7586     .3022    4.1345
     .7586     .3022    4.1345
     .7586     .3022    4.1345
     .7586     .3022    4.1345
     .7586     .3022    4.1345
     .7586     .3022    4.1345
     .7586     .3022    4.1345
     .7586     .3022    3.6463
     .7586     .3022    3.6463
     .7586     .3022    3.6463
     .7586     .3022    3.6463
     .7586     .7904    3.6463
     .7586     .3022    3.1580
     .7586     .7904    3.1580
     .7586     .7904    3.1580
     .7586     .7904    3.1580
     .7586     .7904    3.1580
     .7586     .7904    3.1580
     .7586     .7904    3.1580
     .7586     .7904    3.1580
     .7586     .3022    2.6698
     .7586     .3022    2.6698
     .7586     .3022    2.6698
     .7586     .3022    2.6698
     .7586     .3022    2.6698
     .7586     .3022    2.1815
     .7586     .3022    2.1815
     .7586     .3022    2.1815
     .7586     .3022    2.1815
     .7586     .3022    1.6933
     .7586     .3022    1.6933
     .7586     .3022    1.6933
     .7586     .3022    1.6933
     .7586     .3022    1.6933
     .7586    -.1861    1.6933
     .7586     .3022    1.2050
     .7586     .3022    1.2050
     .7586     .3022     .7168
    1.2469     .3022    1.2050
    1.2469     .3022     .7168
    1.2469     .3022     .7168
    1.2469     .3022     .7168
    1.2469     .3022     .7168
    1.2469     .3022     .7168
    1.2469     .3022     .2285
    1.2469     .3022     .2285
    1.2469     .3022     .2285
    1.2469     .7904    -.2597
    1.2469     .7904    -.2597
    1.2469     .7904    -.2597
    1.2469     .7904    -.2597
    1.2469     .7904    -.2597
    1.2469     .7904    -.2597
    1.2469     .7904    -.2597
    1.2469     .7904    -.2597
    1.2469     .7904    -.2597
    1.2469     .7904    -.2597
    1.2469     .7904    -.2597
    1.2469     .7904    -.2597
    1.2469     .7904    -.2597
    1.2469     .7904     .2285
    1.2469     .7904     .2285
    1.2469     .7904     .2285
    1.2469     .7904     .2285
    1.2469     .7904     .2285
    1.2469     .7904     .2285
    1.2469     .7904     .2285
    1.2469     .7904     .2285
    1.7351     .7904     .2285
    1.7351     .7904     .2285
    1.7351     .7904     .7168
    1.7351     .7904     .7168
    1.7351     .7904     .7168
    1.7351     .3022     .7168
    1.7351     .3022     .7168
    1.7351     .3022     .7168
    1.7351     .3022     .7168
    1.7351     .3022     .7168
    1.7351     .3022     .7168
    1.7351     .3022    1.2050
    1.7351     .3022    1.2050
    1.7351     .3022    1.2050
    1.7351     .3022    1.2050
    1.7351    -.1861    1.2050
    1.7351    -.1861    1.2050
    1.7351    -.1861    1.2050
    1.7351    -.1861    1.2050
    1.7351    -.1861    1.2050
    1.7351    -.1861    1.2050
    1.7351    -.1861    1.2050
    1.7351    -.1861    1.6933
    1.7351    -.1861    1.6933
    1.7351    -.1861    1.6933
    1.7351    -.6743    1.6933
    1.7351    -.6743    1.6933
    1.7351    -.6743    1.6933
    1.7351    -.6743    1.6933
    1.7351    -.6743    1.6933
    1.7351    -.6743    1.6933
    1.7351    -.6743    1.6933
    1.7351   -1.1626    1.6933
    1.7351   -1.1626    1.6933
    1.7351   -1.1626    1.6933
    1.7351   -1.1626    1.6933
    1.2469   -1.1626    1.6933
    1.2469   -1.1626    1.2050
    1.2469   -1.1626    1.2050
    1.2469   -1.1626    1.2050
    1.2469   -1.1626    1.2050
    1.2469   -1.1626    1.2050
    1.2469   -1.1626    1.2050
     .7586   -1.1626    1.2050
     .7586   -1.1626    1.2050
     .7586   -1.1626     .7168
     .7586   -1.1626     .7168
     .2704   -1.1626     .7168
     .2704    -.6743     .7168
     .2704    -.6743     .2285
     .2704    -.6743     .2285
     .2704    -.6743     .2285
    -.2179    -.6743     .2285
    -.2179    -.6743    -.2597
    -.2179    -.6743    -.2597
    -.7061    -.6743    -.2597
    -.7061    -.6743    -.7480
    -.7061    -.6743    -.7480
    -.7061    -.6743    -.7480
   -1.1944    -.6743    -.7480
   -1.1944    -.6743   -1.2362
   -1.1944    -.1861   -1.2362
   -1.1944    -.1861   -1.2362
   -1.6826    -.1861   -1.7245
   -1.6826    -.1861   -1.7245
   -1.6826    -.1861   -1.7245
   -1.6826    -.1861   -2.2127
   -1.6826    -.1861   -2.2127
   -1.6826    -.1861   -2.2127
   -2.1710    -.1861   -2.2127
   -2.1710    -.1861   -2.2127
   -2.1710    -.1861   -2.7010
   -2.1710    -.1861   -2.7010
   -2.1710    -.1861   -2.7010
   -2.1710    -.1861   -2.7010
   -2.1710    -.1861   -2.7010
   -2.6591    -.1861   -2.7010
   -2.6591    -.1861   -2.7010
   -2.6591    -.1861   -2.7010
   -2.6591    -.1861   -3.1892
   -2.6591    -.1861   -3.1892
   -3.1473    -.1861   -3.1892
   -3.1473    -.1861   -3.1892
   -3.1473    -.1861   -3.1892
   -3.1473    -.1861   -3.1892
   -3.1473    -.1861   -3.1892
   -3.1473    -.1861   -3.1892
   -3.6356    -.1861   -3.1892
   -3.6356    -.1861   -3.1892
   -3.6356    -.1861   -3.1892
   -3.6356    -.1861   -3.1892
   -3.6356    -.1861   -3.1892
   -3.6356    -.1861   -3.1892
   -3.6356    -.1861   -3.1892
   -3.6356     .3022   -3.1892
   -3.6356     .3022   -2.7010
   -3.1473     .3022   -2.7010
   -3.1473     .3022   -2.7010
   -3.1473     .3022   -2.7010
   -3.1473     .7904   -2.2127
   -3.1473     .7904   -2.2127
   -2.6591     .7904   -1.7245
   -2.6591     .7904   -1.7245
   -2.6591     .7904   -1.7245
   -2.6591     .7904   -1.7245
   -2.1710     .7904   -1.2362
   -2.1710     .7904   -1.2362
   -2.1710     .7904   -1.2362
   -2.1710     .7904    -.7480
   -1.6826     .7904    -.7480
   -1.6826     .7904    -.7480
   -1.6826     .7904    -.7480
   -1.6826     .7904    -.2597
   -1.6826     .7904    -.2597
   -1.1944     .7904    -.2597
   -1.1944     .7904    -.2597
   -1.1944     .7904    -.2597
    -.7061     .7904     .2285
    -.7061     .7904     .2285
    -.7061     .7904     .2285
    -.7061     .7904     .2285
    -.2179     .7904     .7168
    -.2179     .7904     .7168
    -.2179     .7904     .7168
    -.2179     .7904     .7168
     .2704     .7904    1.2050
     .2704     .7904    1.2050
     .2704     .7904    1.2050
     .2704     .7904    1.2050
     .2704     .7904    1.6933
     .2704     .7904    1.6933
     .2704     .7904    1.6933
     .2704     .7904    1.6933
     .2704     .7904    1.6933
     .2704     .7904    1.6933
     .2704     .7904    2.1815
     .2704     .7904    2.1815
     .2704     .7904    2.1815
     .2704     .7904    2.1815
     .2704     .7904    2.1815
     .2704     .7904    2.6698
     .2704     .7904    2.6698
     .2704     .7904    2.6698
     .2704     .7904    2.6698
     .2704     .7904    2.6698
    -.2179     .7904    2.6698
     .2704     .7904    2.6698
    -.2179     .7904    2.6698
    -.2179     .7904    2.6698
    -.2179     .7904    2.6698
    -.2179     .7904    2.6698
    -.2179     .7904    2.6698
    -.2179     .7904    2.6698
    -.2179     .7904    2.6698
    -.2179     .7904    2.6698
    -.2179     .7904    2.1815
    -.7061     .7904    2.1815
    -.7061     .7904    2.1815
    -.7061     .7904    2.1815
    -.7061     .7904    1.6933
    -.7061     .7904    1.6933
   -1.1944     .7904    1.6933
   -1.1944     .7904    1.2050
   -1.1944     .7904    1.2050
   -1.6826     .7904    1.2050
   -1.6826     .7904     .7168
   -1.6826     .3022     .7168
   -1.6826     .7904     .7168
   -1.6826     .7904     .2285
   -1.6826     .3022     .2285
   -2.1710     .3022    -.2597
   -2.1710     .3022    -.2597
   -2.1710     .3022    -.7480
   -2.1710     .3022    -.7480
   -2.1710     .3022   -1.2362
   -2.6591     .3022   -1.2362
   -2.6591     .3022   -1.7245
   -2.6591     .3022   -1.7245
   -2.6591     .3022   -2.2127
   -2.6591     .3022   -2.2127
   -2.6591     .3022   -2.7010
   -2.6591     .3022   -2.7010
   -2.6591     .3022   -3.1892
   -2.6591    -.1861   -3.6774
   -2.6591    -.1861   -3.6774
   -2.6591    -.1861   -4.1657
   -2.6591    -.1861   -4.1657
   -2.6591    -.1861   -4.6539
   -2.6591    -.1861   -4.6539
   -2.6591    -.1861   -5.1422
   -2.6591    -.1861   -5.1422
   -2.6591    -.1861   -5.6305
   -2.6591    -.1861   -5.6305
   -2.6591    -.6743   -5.6305
   -2.1710    -.6743   -6.1187
   -2.1710    -.6743   -6.1187
   -2.1710    -.6743   -6.6069
   -2.1710    -.6743   -6.6069
   -2.1710    -.6743   -6.6069
   -2.1710    -.6743   -6.6069
   -1.6826    -.6743   -7.0953
   -1.6826    -.6743   -7.0953
   -1.6826    -.6743   -7.0953
   -1.1944    -.6743   -7.0953
   -1.1944    -.6743   -7.0953
   -1.1944    -.6743   -7.0953
    -.7061    -.6743   -7.0953
    -.7061    -.6743   -7.5834
    -.7061    -.6743   -7.5834
    -.2179    -.6743   -7.5834
    -.2179    -.6743   -7.5834
    -.2179    -.6743   -7.5834
     .2704    -.6743   -7.0953
     .2704    -.6743   -7.5834
     .2704    -.6743   -7.0953
     .2704    -.1861   -7.0953
     .7586    -.1861   -7.0953
     .7586    -.1861   -7.0953
     .7586    -.1861   -7.0953
     .7586    -.1861   -6.6069
    1.2469    -.1861   -6.6069
    1.2469    -.1861   -6.6069
    1.2469    -.1861   -6.6069
    1.2469    -.1861   -6.6069
    1.2469    -.1861   -6.1187
    1.2469    -.1861   -6.1187
    1.2469    -.1861   -5.6305
    1.2469    -.1861   -5.6305
    1.2469     .3022   -5.1422
    1.2469     .3022   -5.1422
    1.2469     .3022   -4.6539
    1.2469     .3022   -4.6539
    1.2469     .3022   -4.6539
    1.2469     .3022   -4.1657
    1.2469    -.1861   -3.6774
     .7586    -.1861   -3.6774
     .7586    -.1861   -3.1892
     .7586    -.1861   -2.7010
     .7586    -.1861   -2.7010
     .2704    -.1861   -2.2127
     .2704    -.1861   -2.2127
     .2704    -.1861   -1.7245
     .2704    -.1861   -1.7245
     .2704    -.1861   -1.2362
    -.2179    -.1861    -.7480
    -.2179    -.1861    -.7480
    -.2179    -.1861    -.2597
    -.2179    -.1861    -.2597
    -.2179    -.1861     .2285
    -.7061    -.1861     .7168
    -.7061    -.1861     .7168
    -.7061    -.1861    1.2050
    -.7061    -.1861    1.2050
    -.7061    -.1861    1.6933
   -1.1944    -.1861    1.6933
   -1.1944    -.1861    2.1815
   -1.1944    -.1861    2.1815
   -1.1944    -.1861    2.1815
   -1.1944    -.1861    2.6698
   -1.1944    -.1861    2.6698
   -1.1944    -.1861    3.1580
   -1.6826    -.1861    3.1580
   -1.6826    -.1861    3.1580
   -1.6826    -.1861    3.1580
   -1.6826    -.1861    3.6463
   -1.6826    -.1861    3.6463
   -1.6826    -.1861    3.6463
   -1.6826    -.1861    3.6463
   -1.6826    -.1861    4.1345
   -1.6826    -.1861    4.1345
   -1.6826     .3022    4.1345
   -1.1944    -.1861    4.1345
   -1.1944    -.1861    4.1345
   -1.1944    -.1861    4.1345
   -1.1944     .3022    4.1345
   -1.1944     .3022    4.1345
    -.7061    -.1861    4.1345
    -.7061    -.1861    3.6463
    -.7061    -.1861    3.6463
    -.7061    -.1861    3.6463
    -.7061     .3022    3.6463
    -.2179    -.1861    3.6463
    -.2179     .3022    3.1580
    -.2179     .3022    3.1580
    -.2179     .3022    3.1580
     .2704     .3022    3.1580
     .2704     .3022    3.1580
     .2704     .3022    2.6698
     .2704     .3022    2.6698
     .2704     .3022    2.6698
     .2704     .3022    2.1815
     .7586     .3022    2.1815
     .7586     .3022    2.1815
     .7586     .3022    2.1815
     .7586     .3022    2.1815
     .7586     .3022    1.6933
     .7586     .3022    1.6933
    1.2469     .3022    1.6933
    1.2469     .3022    1.6933
    1.2469     .3022    1.2050
    1.2469     .3022    1.2050
    1.2469     .3022    1.2050
    1.2469     .3022    1.2050
    1.2469     .3022    1.2050
    1.2469     .3022     .7168
    1.2469     .3022     .7168
    1.7351     .3022     .7168
    1.7351     .3022     .2285
    1.7351     .3022     .2285
    1.7351     .3022     .2285
    1.7351     .3022     .2285
    1.7351     .3022    -.2597
    1.7351     .3022    -.2597
    1.7351     .3022    -.2597
    1.7351     .7904    -.2597
    2.2234     .7904    -.7480
    2.2234     .7904    -.7480
    2.2234     .7904    -.7480
    2.2234     .7904    -.7480
    2.2234     .7904    -.7480
    2.2234     .7904    -.7480
    2.2234     .7904    -.7480
    2.2234     .7904    -.7480
    2.2234     .7904   -1.2362
    2.2234     .7904   -1.2362
    2.2234     .7904   -1.2362
    2.2234     .7904   -1.2362
    2.2234     .7904   -1.2362
    2.2234     .7904   -1.2362
    2.2234     .7904   -1.7245
    2.2234     .3022   -1.7245
    2.2234     .3022   -1.7245
    2.2234     .3022   -1.7245
    2.2234     .3022   -1.7245
    1.7351     .3022   -1.7245
    1.7351     .3022   -1.7245
    1.7351     .3022   -1.7245
    1.7351     .3022   -1.7245
    1.7351     .3022   -1.7245
    1.7351     .3022   -1.7245
    1.7351     .3022   -1.7245
    1.7351     .3022   -1.7245
    1.7351     .3022   -1.7245
    1.7351     .3022   -1.7245
    1.7351     .3022   -1.7245
    1.7351     .3022   -1.7245
    1.7351     .3022   -1.7245
    1.7351     .3022   -1.7245
    1.7351     .3022   -1.7245
    1.7351     .3022   -1.2362
