********************************************************************************
           RED INTERUNIVERSITARIA DE INSTRUMENTACION SISMICA (RIIS)
 AREA DE ESTRUCTURAS, UNIVERSIDAD AUTONOMA METROPOLITANA - UNIDAD AZCAPOTZALCO
         AV. SAN PABLO 180; COL. REYNOSA TAMAULIPAS; MEXICO D.F. 02200.         
         TELS:53189455; FAX:53189085; e-mail: tperea@correo.azc.uam.mx
********************************************************************************
ARCHIVO ESTANDAR DE ACELERACION:
VERSION DEL FORMATO                    : 2.0
NOMBRE DEL ARCHIVO                     : RIDA0007.211
FECHA Y HORA DE CREACION               : JULIO, 2002
REF. CATALOGO ACELEROGRAMAS, SMIS 1996 : 


================================================================================
DATOS DE LA ESTACION:
NOMBRE DE LA ESTACION                  : UAM AZCAPOTZALCO
CLAVE DE LA ESTACION                   : RIDA
LOCALIZACION DE LA ESTACION            : AVENIDA SAN PABLO Y EJE 5, COLONIA
                                       : REYNOSA, PLANTEL AZCAPOTZALCO, JARDIN
                                       : ENTRE EDIFICIO "H" Y "E", MEXICO, D.F.
                                       :
                                       :
COORDENADAS DE LA ESTACION             : 19.520 LAT. N 
                                       : 99.190 LONG. W 
ALTITUD (msnm)                         : 2240
TIPO DE SUELO                          : LIMO ARENOSO
                                       : 
                                       : 
INSTITUCION RESPONSABLE                : RED INTERUNIVERSITARIA DE
                                       : INSTRUMENTACION SISMICA (RIIS)

================================================================================
DATOS DEL ACELEROGRAFO:
MODELO DEL ACELEROGRAFO                : SSA-2                    
NUMERO DE SERIE DEL ACELEROGRAFO       : 1561                     
NUMERO DE CANALES                      : 3                        
ORIENTACION C1-C6 (rumbo;orientacion)  : /N00E/+V/N90E            
ORIENTACION C7-C12 (rumbo;orientacion) :                          
VEL. DE MUESTREO, C1-C6 (muestras/s)   : /200/200/200             
VEL. DE MUESTREO, C7-C12 (muestras/s)  :                          
ESC. COMPLETA DE SENSORES, C1-C6, (g)  : /1.0/1.0/1.0             
ESC. COMPLETA DE SENSORES, C7-C12, (g) :                          
FREC. NAT. DE SENSORES, C1-C6, (Hz)    : /52.4/52.5/53.7          
FREC. NAT. DE SENSORES, C7-C12, (Hz)   :                          
AMORTIGUAMIENTO DE SENSORES, C1-C6     : /0.64/0.64/0.64          
AMORTIGUAMIENTO DE SENSORES, C7-C12    :                          
INTERVALO DE MUESTREO, C1-C6, (s)      : /0.005/0.005/0.005       
INTERVALO DE MUESTREO, C7-C12, (s)     :                          
UMBRAL DE DISPARO, C1-C6, (Gal)        : /3/3/3                   
UMBRAL DE DISPARO, C7-C12, (Gal)       :                          
MEMORIA DE PREEVENTO (s)               : 15.4                     
TIEMPO DE POSEVENTO (s)                : 60.0                     


================================================================================ 
DATOS DEL SISMO:
FECHA DEL SISMO (GMT)                  : 21/JUL/2000
HORA EPICENTRO (GMT)                   : 06:14:00
MAGNITUD(ES)                           : /Mw=5.9
COORDENADAS DEL EPICENTRO              : 18.41 LAT. N 
                                       : 98.92 LONG. W 
PROFUNDIDAD FOCAL (km)                 : 80 
FUENTES DE LOS DATOS EPICENTRALES      : USGS
                                       : U.S. GEOLOGICAL SURVEY

================================================================================
DATOS DE ESTE REGISTRO:
HORA DE LA PRIMERA MUESTRA (GMT)       : 06:14:00.00
EXACTITUD DEL TIEMPO (s)               : 
DURACION DEL REGISTRO (s), C1-C6       : /112.64/112.64/112.64        
DURACION DEL REGISTRO (s), C7-C12      :                              
NUM. TOTAL DE MUESTRAS, C1-C6          : /22528/22528/22528           
NUM. TOTAL DE MUESTRAS, C7-C12         :                              
ACEL. MAX.(Gal), C1-C6                 : /-13.62/4.59/-8.91           
ACEL. MAX., C1-C6, EN LA MUESTRA       : /3288/4204/3401              
ACEL. MAX.(Gal), C7-C12                : 
ACEL. MAX., C7-C12, EN LA MUESTRA      : 
UNIDADES DE LOS DATOS                  : Gal 
FACTOR DE DECIMACION                   : 1
FORMATO DATOS (FORTRAN,10 campos/dato) : 3F10.4


===============================================================================
CALIDAD DEL ACELEROGRAMA:
REGISTRO DIGITAL COMPLETO, CARECE DE TIEMPO ABSOLUTO.


===============================================================================
COMENTARIOS:
CADA UNO DE LOS CANALES SE ENCUENTRA AJUSTADO POR LINEA BASE MEDIANTE LA
SUSTRACCION DEL PROMEDIO DE LAS ACELERACIONES EN EL TIEMPO.











MODELO DEL ACELEROGRAFO : SSA-2 (KINEMETRICS)
===============================================================================
DATOS DE ACELERACION:
---------+---------+---------+---------+---------+---------+---------+---------+
   CANAL-1   CANAL-2   CANAL-3   CANAL-4   CANAL-5   CANAL-6   CANAL-7   CANAL-8
      N00E        +V      N90E
---------+---------+---------+---------+---------+---------+---------+---------+
[...]
    -.9263    -.7817    -.1293
    -.9263    -.7817    -.1293
    -.9263    -.7817    -.1293
    -.9263    -.7817    -.6176
    -.9263    -.7817    -.6176
    -.9263    -.7817    -.6176
    -.9263    -.7817    -.6176
    -.9263    -.2934    -.6176
    -.4380    -.2934    -.6176
    -.4380    -.2934    -.6176
    -.4380    -.2934    -.6176
    -.4380     .1948    -.6176
     .0502     .1948   -1.1058
     .0502     .1948   -1.1058
     .0502     .1948   -1.1058
     .5385     .6831   -1.1058
     .5385     .6831    -.6176
     .5385     .6831    -.6176
    1.0267     .6831    -.6176
    1.0267     .6831    -.6176
    1.0267     .6831    -.6176
    1.5150     .6831    -.6176
    1.5150     .6831    -.1293
    1.5150     .6831    -.1293
    1.0267     .6831    -.1293
    1.0267     .1948    -.1293
    1.0267     .1948    -.1293
    1.0267     .1948    -.1293
     .5385     .1948    -.6176
     .5385    -.2934    -.6176
     .5385    -.2934    -.6176
     .5385    -.2934    -.6176
     .5385    -.2934    -.6176
     .0502    -.2934    -.6176
     .0502     .1948    -.1293
     .5385     .1948    -.1293
     .5385     .1948    -.1293
     .5385     .6831    -.1293
     .5385     .6831    -.1293
     .5385     .6831     .3589
    1.0267     .6831     .3589
    1.0267     .6831     .3589
    1.0267     .6831     .3589
    1.0267     .6831     .3589
    1.5150     .6831     .3589
    1.5150     .1948     .3589
    1.5150     .1948     .8472
    1.5150     .1948     .8472
    1.0267    -.2934     .8472
    1.0267    -.2934     .8472
     .5385    -.2934     .8472
     .5385    -.2934     .8472
     .5385    -.2934     .8472
     .0502    -.2934     .8472
     .0502    -.2934     .8472
    -.4380    -.2934     .8472
    -.4380    -.2934     .3589
    -.4380    -.2934     .3589
    -.9263     .1948     .3589
    -.9263     .1948     .3589
   -1.4145     .1948     .3589
   -1.4145     .6831     .3589
   -1.4145     .6831     .3589
   -1.9029     .6831     .3589
   -1.9029     .6831     .3589
   -1.9029     .6831     .3589
   -1.9029     .6831     .3589
   -2.3910     .1948     .3589
   -2.3910     .1948     .3589
   -2.3910    -.2934     .3589
   -2.3910    -.2934     .8472
   -2.3910    -.7817     .8472
   -1.9029   -1.2699     .8472
   -1.9029   -1.2699     .8472
   -1.9029   -1.7582     .8472
   -1.9029   -1.7582     .8472
   -1.9029   -1.7582     .3589
   -1.9029   -1.7582     .3589
   -1.9029   -1.7582    -.1293
   -1.9029   -2.2464    -.1293
   -1.9029   -2.2464    -.1293
   -1.9029   -1.7582    -.6176
   -1.9029   -1.7582    -.6176
   -2.3910   -1.7582    -.6176
   -2.3910   -1.7582    -.6176
   -2.3910   -1.7582    -.6176
   -2.3910   -1.2699   -1.1058
   -2.8792   -1.2699   -1.1058
   -2.8792   -1.2699   -1.1058
   -2.8792   -1.2699    -.6176
   -2.8792    -.7817    -.6176
   -2.8792    -.7817    -.6176
   -2.8792    -.7817    -.6176
   -2.8792   -1.2699    -.6176
   -2.8792   -1.2699    -.6176
   -2.3910   -1.2699    -.6176
   -2.3910   -1.2699    -.1293
   -2.3910   -1.2699    -.1293
   -1.9029   -1.2699    -.1293
   -1.4145   -1.2699    -.1293
   -1.4145   -1.2699    -.1293
    -.9263   -1.2699    -.1293
    -.9263    -.7817    -.1293
    -.4380    -.7817    -.1293
    -.4380    -.7817    -.1293
    -.4380    -.2934    -.1293
    -.4380    -.2934    -.1293
    -.4380    -.2934    -.1293
    -.4380     .1948    -.6176
    -.4380     .1948    -.6176
    -.4380     .6831    -.6176
    -.4380     .6831   -1.1058
    -.4380     .6831   -1.1058
    -.4380     .6831   -1.1058
    -.4380     .6831   -1.5941
    -.4380     .6831   -1.5941
    -.4380    1.1713   -1.5941
    -.4380    1.1713   -1.5941
    -.4380     .6831   -1.5941
     .0502     .6831   -1.1058
     .0502     .6831   -1.1058
     .5385     .6831   -1.1058
     .5385     .6831    -.6176
    1.0267     .1948    -.6176
    1.5150     .1948    -.1293
    1.5150     .1948    -.1293
    2.0032     .1948     .3589
    2.0032     .1948     .3589
    2.0032    -.2934     .3589
    2.0032     .1948     .3589
    2.0032     .1948     .3589
    2.4915     .1948     .3589
    2.4915     .1948     .3589
    2.4915     .1948    -.1293
    2.4915     .1948    -.1293
    2.4915     .1948    -.1293
    2.9797     .6831    -.6176
    2.9797     .6831    -.6176
    2.9797     .6831   -1.1058
    2.9797     .6831   -1.1058
    2.9797     .6831   -1.1058
    2.4915     .6831   -1.1058
    2.4915     .6831   -1.1058
    2.4915     .6831    -.6176
    2.0032     .6831    -.6176
    2.0032     .6831    -.1293
    2.0032     .6831     .3589
    1.5150     .6831     .3589
    1.5150     .6831     .8472
    1.5150     .1948    1.3354
    1.5150     .1948    1.8237
    1.5150     .1948    2.3119
    2.0032    -.2934    2.3119
    2.0032    -.2934    2.8002
    2.0032    -.7817    2.8002
    2.4915    -.7817    2.8002
    2.4915   -1.2699    2.8002
    2.9797   -1.2699    2.8002
    3.4680   -1.2699    2.8002
    3.4680   -1.2699    2.8002
    3.9562   -1.2699    2.3119
    3.9562   -1.2699    1.8237
    3.9562   -1.2699    1.8237
    3.9562   -1.2699    1.8237
    3.9562   -1.7582    1.8237
    3.9562   -1.7582    1.3354
    3.9562   -1.7582    1.3354
    3.9562   -1.7582     .8472
    3.4680   -1.7582     .8472
    3.4680   -1.7582     .8472
    2.9797   -1.2699     .8472
    2.4915   -1.2699     .8472
    2.4915   -1.2699     .8472
    2.0032   -1.2699     .8472
    2.0032   -1.2699     .8472
    2.0032   -1.2699     .8472
    1.5150   -1.2699     .8472
    1.5150   -1.2699    1.3354
    1.5150    -.7817     .8472
    1.5150    -.7817    1.3354
    2.0032    -.7817    1.3354
    2.0032    -.7817    1.3354
    2.4915    -.7817    1.3354
    2.4915    -.7817     .8472
    2.4915    -.7817     .8472
    2.4915    -.2934     .8472
    2.4915    -.2934     .3589
    2.4915    -.2934     .3589
    2.4915     .1948    -.1293
    2.4915     .6831    -.6176
    2.4915     .6831    -.6176
    2.4915    1.1713   -1.1058
    2.0032    1.6598   -1.5941
    2.0032    1.6598   -2.0823
    2.0032    2.1483   -2.0823
    1.5150    2.1483   -2.5706
    1.5150    2.6368   -2.5706
    1.0267    2.6368   -2.5706
    1.0267    3.1253   -2.5706
     .5385    3.1253   -2.5706
     .5385    3.1253   -2.5706
     .0502    3.1253   -2.5706
     .0502    3.1253   -2.5706
    -.4380    2.6368   -2.5706
    -.4380    2.6368   -2.0823
    -.4380    2.1483   -2.0823
    -.4380    1.6598   -2.0823
    -.4380    1.6598   -2.0823
    -.4380    1.1713   -1.5941
    -.4380     .6831   -1.5941
    -.4380     .6831   -2.0823
    -.4380     .1948   -2.0823
    -.4380     .1948   -2.0823
    -.9263    -.2934   -2.5706
    -.9263    -.2934   -3.0588
   -1.4145    -.2934   -3.0588
   -1.9029    -.2934   -3.5471
   -2.3910    -.2934   -4.0353
   -2.8792    -.2934   -4.0353
   -3.3675     .1948   -4.5236
   -3.8558     .1948   -4.5236
   -3.8558     .1948   -4.5236
   -4.3441     .1948   -5.0118
   -4.3441     .6831   -5.0118
   -4.3441     .6831   -5.0118
   -4.8322     .6831   -5.0118
   -4.8322     .6831   -5.0118
   -4.3441     .6831   -4.5236
   -4.3441     .6831   -4.5236
   -4.3441     .6831   -4.5236
   -4.3441     .1948   -4.5236
   -4.3441     .1948   -4.5236
   -4.3441    -.2934   -4.0353
   -3.8558    -.7817   -4.0353
   -3.8558   -1.2699   -4.0353
   -3.8558   -1.2699   -4.0353
   -3.3675   -1.7582   -4.5236
   -3.3675   -1.7582   -4.5236
   -3.3675   -1.7582   -4.5236
   -3.3675   -1.7582   -4.5236
   -3.3675   -1.7582   -4.5236
   -3.3675   -1.2699   -4.0353
   -2.8792   -1.2699   -4.0353
   -2.8792   -1.2699   -4.0353
   -2.3910    -.7817   -3.5471
   -2.3910    -.7817   -3.0588
   -2.3910    -.7817   -3.0588
   -1.9029    -.7817   -2.5706
   -1.9029    -.2934   -2.0823
   -1.4145    -.2934   -2.0823
   -1.4145    -.2934   -1.5941
    -.9263    -.2934   -1.1058
    -.4380    -.7817   -1.1058
    -.4380    -.7817    -.6176
     .0502    -.7817    -.1293
     .0502   -1.2699    -.1293
     .5385   -1.2699     .3589
     .5385   -1.2699     .8472
    1.0267   -1.7582     .8472
    1.5150   -1.7582    1.3354
    1.5150   -1.2699    1.3354
    1.5150   -1.2699    1.8237
    2.0032   -1.2699    1.8237
    2.0032    -.7817    1.8237
    2.4915    -.7817    2.3119
    2.4915    -.2934    2.3119
    2.9797     .1948    2.8002
    3.4680     .1948    2.8002
    3.9562     .6831    3.2884
    4.4445    1.1713    3.7769
    5.4210    1.1713    4.2654
    5.9092    1.1713    4.2654
    6.3975    1.6598    4.7539
    6.8857    1.6598    5.2424
    7.3740    1.6598    5.2424
    7.8622    1.6598    5.2424
    8.3505    1.6598    5.7309
    8.3505    1.1713    5.7309
    8.8387    1.1713    5.7309
    8.8387    1.1713    5.7309
    8.8387    1.1713    5.7309
    8.8387     .6831    5.7309
    8.8387     .6831    5.7309
    8.8387     .6831    5.7309
    8.3505     .6831    5.7309
    8.3505     .6831    5.7309
    8.3505     .6831    5.2424
    7.8622     .1948    5.2424
    7.8622     .1948    5.2424
    7.3740     .6831    4.7539
    7.3740     .6831    4.7539
    7.3740     .6831    4.2654
    7.3740    1.1713    4.2654
    6.8857    1.1713    3.7769
    6.8857    1.6598    3.7769
    6.3975    1.6598    3.7769
    6.3975    2.1483    3.2884
    5.9092    2.1483    3.2884
    5.9092    2.1483    3.2884
    5.4210    2.1483    2.8002
    4.9327    2.1483    2.8002
    4.4445    2.1483    2.8002
    3.9562    1.6598    2.8002
    2.9797    1.6598    3.2884
    2.4915    1.6598    3.2884
    2.0032    1.1713    3.2884
    1.0267    1.1713    2.8002
     .5385     .6831    2.8002
     .0502     .6831    2.3119
    -.4380     .1948    1.8237
    -.9263     .1948    1.8237
   -1.4145     .1948    1.3354
   -1.9029    -.2934     .8472
   -2.3910    -.2934     .3589
   -2.8792    -.2934    -.1293
   -2.8792    -.2934    -.6176
   -3.3675    -.2934   -1.1058
   -3.8558    -.2934   -1.5941
   -4.3441    -.2934   -2.0823
   -4.8322    -.2934   -2.0823
   -5.3204    -.2934   -2.5706
   -6.2970    -.2934   -2.5706
   -7.2735     .1948   -3.0588
   -7.7617     .1948   -3.0588
   -8.7382     .1948   -3.0588
   -9.7148     .6831   -3.0588
  -10.2029     .6831   -3.0588
  -11.1795    1.1713   -3.0588
  -11.6678    1.1713   -3.0588
  -12.1560    1.6598   -3.0588
  -12.6442    1.6598   -2.5706
  -13.1325    1.6598   -2.5706
  -13.6207    1.6598   -2.5706
  -13.6207    1.6598   -2.5706
  -13.6207    1.1713   -2.0823
  -13.6207     .6831   -2.0823
  -13.1325     .1948   -2.0823
  -13.1325    -.2934   -2.0823
  -12.6442    -.2934   -2.0823
  -12.6442    -.7817   -2.0823
  -12.1560   -1.2699   -2.5706
  -12.1560   -1.2699   -3.0588
  -11.6678   -1.2699   -3.0588
  -11.6678   -1.2699   -4.0353
  -11.6678   -1.7582   -4.5236
  -12.1560   -1.7582   -5.0118
  -12.1560   -1.7582   -5.5000
  -12.1560   -1.2699   -5.9883
  -12.6442   -1.2699   -5.9883
  -13.1325   -1.2699   -6.4766
  -13.1325    -.7817   -6.4766
  -13.6207    -.7817   -6.4766
  -13.6207    -.2934   -6.4766
  -13.6207     .1948   -6.4766
  -13.1325     .6831   -5.9883
  -12.6442    1.1713   -5.9883
  -12.1560    1.1713   -5.5000
  -11.1795    1.6598   -4.5236
  -10.2029    1.6598   -4.0353
   -9.2266    1.6598   -3.5471
   -8.2500    1.6598   -2.5706
   -7.2735    1.6598   -2.0823
   -5.8088    1.6598   -1.5941
   -4.8322    1.1713    -.6176
   -4.3441    1.1713    -.1293
   -3.3675     .6831    -.1293
   -2.8792     .6831     .3589
   -2.3910     .1948     .3589
   -1.9029    -.2934     .8472
   -1.4145    -.7817     .8472
   -1.4145    -.7817     .8472
   -1.4145   -1.2699     .3589
   -1.4145   -1.2699     .3589
    -.9263   -1.2699    -.1293
    -.9263   -1.2699    -.1293
    -.9263   -1.2699    -.1293
    -.4380    -.7817    -.6176
     .0502    -.7817    -.6176
     .5385    -.2934    -.6176
    1.0267    -.2934    -.6176
    1.5150     .1948    -.1293
    2.4915     .1948    -.1293
    2.9797     .6831     .3589
    3.4680    1.1713     .8472
    4.4445    1.1713    1.8237
    4.9327    1.1713    2.3119
    5.9092    1.1713    2.8002
    6.3975    1.1713    3.7769
    6.8857    1.1713    4.2654
    7.3740     .6831    4.7539
    7.8622     .6831    5.2424
    8.3505     .1948    5.7309
    8.3505     .1948    6.2194
    8.8387    -.2934    6.7078
    8.8387    -.2934    6.7078
    8.8387    -.2934    6.7078
    8.3505    -.2934    7.1963
    8.3505    -.2934    7.1963
    8.3505    -.2934    7.1963
    7.8622    -.2934    7.1963
    7.8622     .1948    7.1963
    7.8622     .1948    7.1963
    7.8622     .6831    7.1963
    7.3740     .6831    7.1963
    7.3740    1.1713    7.1963
    6.8857    1.1713    7.1963
    6.3975    1.6598    7.6848
    6.3975    1.6598    7.1963
    5.4210    1.6598    7.1963
    4.9327    1.6598    7.1963
    4.4445    1.6598    7.1963
    3.9562    1.6598    7.1963
    3.9562    1.6598    6.7078
    3.4680    1.1713    6.7078
    2.9797     .6831    6.7078
    2.4915     .1948    6.7078
    2.0032     .1948    6.7078
    2.0032    -.2934    6.7078
    2.0032    -.7817    6.7078
    1.5150   -1.2699    6.7078
    1.5150   -1.2699    6.7078
    1.5150   -1.7582    6.7078
    1.0267   -1.7582    6.7078
    1.0267   -2.2464    6.7078
    1.0267   -2.2464    6.7078
     .5385   -2.2464    6.7078
     .5385   -2.2464    6.2194
     .0502   -1.7582    5.7309
     .0502   -1.7582    5.2424
    -.4380   -1.7582    4.7539
    -.9263   -1.7582    4.2654
   -1.4145   -1.2699    3.7769
   -1.9029   -1.2699    3.2884
   -2.8792   -1.2699    2.8002
   -3.3675    -.7817    1.8237
   -3.8558    -.7817    1.3354
   -4.8322    -.7817     .3589
   -5.3204    -.2934    -.1293
   -5.8088    -.2934    -.6176
   -6.7853     .1948   -1.1058
   -7.2735     .1948   -1.5941
   -7.2735     .1948   -1.5941
   -7.7617     .1948   -2.0823
   -7.7617     .6831   -2.0823
   -7.7617     .1948   -2.0823
   -7.7617     .1948   -2.0823
   -7.2735    -.2934   -2.0823
   -7.2735    -.2934   -2.0823
   -6.7853    -.2934   -2.0823
   -6.7853    -.7817   -1.5941
   -6.7853    -.7817   -1.5941
   -6.7853    -.7817   -1.5941
   -6.7853    -.7817   -1.5941
   -6.2970    -.7817   -1.5941
   -6.2970    -.7817   -1.5941
   -6.2970    -.7817   -1.5941
   -6.2970    -.7817   -2.0823
   -6.2970    -.7817   -2.5706
   -5.8088    -.2934   -3.5471
   -5.8088    -.2934   -4.0353
   -5.8088    -.2934   -5.0118
   -5.8088    -.2934   -5.9883
   -5.3204     .1948   -6.4766
   -5.3204     .6831   -6.9648
   -5.8088     .6831   -7.9413
   -5.8088    1.1713   -8.4296
   -6.2970    1.1713   -8.9178
   -6.7853    1.1713   -8.9178
   -6.7853    1.1713   -8.9178
   -6.7853    1.1713   -8.9178
   -7.2735    1.1713   -8.9178
   -6.7853    1.1713   -8.9178
   -6.7853    1.1713   -8.4296
   -6.2970     .6831   -8.4296
   -5.8088     .6831   -7.9413
   -4.8322     .6831   -7.9413
