********************************************************************************
           RED INTERUNIVERSITARIA DE INSTRUMENTACION SISMICA (RIIS)
 AREA DE ESTRUCTURAS, UNIVERSIDAD AUTONOMA METROPOLITANA - UNIDAD AZCAPOTZALCO
         AV. SAN PABLO 180; COL. REYNOSA TAMAULIPAS; MEXICO D.F. 02200.        
         TELS:53189455; FAX:53189085; e-mail: tperea@correo.azc.uam.mx
********************************************************************************
ARCHIVO ESTANDAR DE ACELERACION:
VERSION DEL FORMATO                    : 2.0
NOMBRE DEL ARCHIVO                     : RIDI0008.091
FECHA Y HORA DE CREACION               : JULIO, 2002
REF. CATALOGO ACELEROGRAMAS, SMIS 1996 : 


================================================================================
DATOS DE LA ESTACION:
NOMBRE DE LA ESTACION                  : UAM IZTAPALAPA
CLAVE DE LA ESTACION                   : RIDI
LOCALIZACION DE LA ESTACION            : AVENIDA MICHOACAN ESQUINA LA PURISIMA,
                                       : COLONIA VICENTINA, PLANTEL IZTAPALAPA
                                       : FRENTE AL EDIFICIO "O", MEXICO, D.F.
                                       :
                                       :
COORDENADAS DE LA ESTACION             : 19.360 LAT. N 
                                       : 99.060 LONG. W 
ALTITUD (msnm)                         : 2235
TIPO DE SUELO                          : LIMOS Y ARENAS ARCILLOSAS
                                       : 
                                       : 
INSTITUCION RESPONSABLE                : RED INTERUNIVERSITARIA DE
                                       : INSTRUMENTACION SISMICA (RIIS)

================================================================================
DATOS DEL ACELEROGRAFO:
MODELO DEL ACELEROGRAFO                : SSA-2                         
NUMERO DE SERIE DEL ACELEROGRAFO       : 1009                          
NUMERO DE CANALES                      : 3                             
ORIENTACION C1-C6 (rumbo;orientacion)  : /N00E/+V/N90E                 
ORIENTACION C7-C12 (rumbo;orientacion) :                               
VEL. DE MUESTREO, C1-C6 (muestras/s)   : /200/200/200                  
VEL. DE MUESTREO, C7-C12 (muestras/s)  :                               
ESC. COMPLETA DE SENSORES, C1-C6, (g)  : /1.0/1.0/1.0                  
ESC. COMPLETA DE SENSORES, C7-C12, (g) :                               
FREC. NAT. DE SENSORES, C1-C6, (Hz)    : /50.0/50.3/50.7               
FREC. NAT. DE SENSORES, C7-C12, (Hz)   :                               
AMORTIGUAMIENTO DE SENSORES, C1-C6     : /0.66/0.67/0.66               
AMORTIGUAMIENTO DE SENSORES, C7-C12    :                               
INTERVALO DE MUESTREO, C1-C6, (s)      : /0.005/0.005/0.005            
INTERVALO DE MUESTREO, C7-C12, (s)     :                               
UMBRAL DE DISPARO, C1-C6, (Gal)        : /3/3/3                        
UMBRAL DE DISPARO, C7-C12, (Gal)       :                               
MEMORIA DE PREEVENTO (s)               : 15.4                          
TIEMPO DE POSEVENTO (s)                : 60.0                          


================================================================================
DATOS DEL SISMO:
FECHA DEL SISMO (GMT)                  : 09/AGO/2000
HORA EPICENTRO (GMT)                   : 11:42:00
MAGNITUD(ES)                           : /Ms=6.5
COORDENADAS DEL EPICENTRO              : 18.20 LAT. N 
                                       : 102.48 LONG. W 
PROFUNDIDAD FOCAL (km)                 : 45 
FUENTES DE LOS DATOS EPICENTRALES      : USGS
                                       : U.S. GEOLOGICAL SURVEY

================================================================================
DATOS DE ESTE REGISTRO:
HORA DE LA PRIMERA MUESTRA (GMT)       : 11:42:00.00
EXACTITUD DEL TIEMPO (s)               : 
DURACION DEL REGISTRO (s), C1-C6       : /147.20/147.20/147.20          
DURACION DEL REGISTRO (s), C7-C12      :                                
NUM. TOTAL DE MUESTRAS, C1-C6          : /29440/29440/29440             
NUM. TOTAL DE MUESTRAS, C7-C12         :                                
ACEL. MAX.(Gal), C1-C6                 : /9.84/-2.67/15.15              
ACEL. MAX., C1-C6, EN LA MUESTRA       : /12749/12056/12313             
ACEL. MAX.(Gal), C7-C12                : 
ACEL. MAX., C7-C12, EN LA MUESTRA      : 
UNIDADES DE LOS DATOS                  : Gal 
FACTOR DE DECIMACION                   : 1
FORMATO DATOS (FORTRAN,10 campos/dato) : 3F10.4


===============================================================================
CALIDAD DEL ACELEROGRAMA:
REGISTRO DIGITAL COMPLETO, CARECE DE TIEMPO ABSOLUTO


===============================================================================
COMENTARIOS:
CADA UNO DE LOS CANALES SE ENCUENTRA AJUSTADO POR LINEA BASE MEDIANTE LA
SUSTRACCION DEL PROMEDIO DE LAS ACELERACIONES EN EL TIEMPO.











MODELO DEL ACELEROGRAFO : SSA-2 (KINEMETRICS)
===============================================================================
DATOS DE ACELERACION:
---------+---------+---------+---------+---------+---------+---------+---------+
   CANAL-1   CANAL-2   CANAL-3   CANAL-4   CANAL-5   CANAL-6   CANAL-7   CANAL-8
      N00E        +V      N90E
---------+---------+---------+---------+---------+---------+---------+---------+
[...]
   -2.3604    -.2523   -1.4555
   -2.3604    -.2523    -.9672
   -2.8487    -.2523    -.9672
   -2.3604    -.2523    -.4790
   -2.3604    -.7366    -.4790
   -2.3604    -.7366     .0093
   -2.3604    -.2523     .0093
   -2.8487    -.2523     .0093
   -2.3604    -.2523     .4975
   -2.8487    -.7366     .4975
   -2.8487    -.7366     .9858
   -2.3604    -.2523     .9858
   -2.8487    -.2523     .9858
   -2.8487    -.2523    1.4740
   -2.8487    -.7366    1.4740
   -2.8487    -.2523    1.9623
   -2.8487    -.2523    1.9623
   -2.3604    -.2523    1.9623
   -2.8487    -.2523    2.4505
   -2.8487    -.7366    2.4505
   -2.3604    -.2523    2.4505
   -2.3604    -.2523    2.9388
   -2.8487    -.7366    2.9388
   -2.8487    -.7366    2.9388
   -2.8487    -.7366    3.4273
   -2.8487    -.7366    3.4273
   -2.3604    -.7366    3.4273
   -2.3604    -.7366    3.4273
   -2.8487    -.7366    3.9158
   -2.8487    -.7366    3.9158
   -2.3604    -.7366    3.9158
   -2.3604    -.7366    3.9158
   -2.8487    -.7366    3.9158
   -2.8487    -.7366    3.9158
   -2.8487    -.7366    3.9158
   -2.8487    -.7366    3.9158
   -2.8487    -.7366    4.4042
   -2.8487    -.7366    4.4042
   -2.8487    -.7366    4.4042
   -2.8487   -1.2210    4.4042
   -2.8487   -1.2210    3.9158
   -2.8487    -.7366    4.4042
   -2.8487   -1.2210    4.4042
   -2.8487   -1.2210    4.4042
   -2.8487   -1.2210    4.4042
   -2.8487   -1.2210    4.4042
   -2.8487   -1.2210    4.4042
   -2.8487   -1.2210    3.9158
   -2.8487   -1.2210    3.9158
   -2.8487   -1.2210    3.9158
   -2.8487   -1.2210    4.4042
   -2.3604   -1.2210    4.4042
   -2.3604   -1.2210    3.9158
   -2.3604   -1.2210    3.9158
   -2.3604   -1.7054    3.9158
   -2.3604   -1.7054    3.9158
   -2.3604   -1.7054    3.9158
   -2.3604   -1.7054    3.9158
   -2.3604   -1.7054    3.9158
   -2.3604   -1.7054    3.9158
   -2.3604   -1.7054    3.9158
   -1.8721   -1.7054    3.9158
   -1.8721   -1.7054    3.9158
   -1.8721   -1.7054    3.9158
   -1.8721   -1.7054    3.9158
   -1.3839   -2.1898    4.4042
   -1.3839   -2.1898    4.4042
   -1.3839   -2.1898    4.4042
   -1.3839   -2.1898    3.9158
    -.8957   -2.1898    4.4042
    -.8957   -2.1898    4.4042
    -.8957   -2.1898    4.4042
    -.8957   -2.1898    4.4042
    -.4074   -2.6741    4.4042
    -.4074   -2.6741    4.4042
    -.4074   -2.6741    4.4042
    -.4074   -2.6741    4.4042
    -.4074   -2.6741    4.4042
     .0808   -2.6741    4.4042
     .0808   -2.6741    4.4042
     .0808   -2.6741    4.4042
     .0808   -2.6741    4.4042
     .0808   -2.6741    4.4042
     .5691   -2.6741    4.4042
     .5691   -2.6741    4.8927
     .5691   -2.6741    4.8927
     .5691   -2.6741    4.8927
    1.0573   -2.6741    4.4042
    1.0573   -2.6741    4.8927
    1.0573   -2.6741    4.4042
    1.0573   -2.6741    4.4042
    1.5456   -2.6741    4.4042
    1.5456   -2.6741    4.4042
    1.5456   -2.6741    4.4042
    1.5456   -2.6741    4.4042
    1.5456   -2.6741    4.4042
    1.5456   -2.6741    4.4042
    2.0338   -2.6741    4.4042
    2.0338   -2.1898    4.4042
    2.0338   -2.1898    4.4042
    2.0338   -2.1898    3.9158
    2.5221   -2.1898    3.9158
    2.5221   -2.1898    3.9158
    2.5221   -2.1898    3.9158
    2.5221   -2.1898    3.9158
    2.5221   -2.1898    3.4273
    2.5221   -2.1898    3.4273
    2.5221   -2.1898    3.4273
    3.0103   -2.1898    3.4273
    3.0103   -1.7054    2.9388
    3.0103   -1.7054    2.9388
    3.0103   -1.7054    2.9388
    3.4988   -1.7054    2.4505
    3.4988   -1.7054    2.4505
    3.4988   -1.7054    2.4505
    3.4988   -1.7054    1.9623
    3.4988   -1.7054    1.9623
    3.4988   -1.7054    1.4740
    3.4988   -1.2210    1.4740
    3.4988   -1.2210    1.4740
    3.4988   -1.2210     .9858
    3.9873   -1.2210     .4975
    3.9873   -1.2210     .4975
    3.9873   -1.2210     .0093
    3.9873   -1.2210     .0093
    3.9873   -1.2210    -.4790
    3.9873   -1.2210    -.4790
    3.9873   -1.2210    -.9672
    3.9873   -1.2210   -1.4555
    3.9873   -1.2210   -1.4555
    3.9873   -1.2210   -1.9437
    3.9873   -1.2210   -1.9437
    3.9873   -1.2210   -2.4319
    3.9873   -1.2210   -2.4319
    3.9873   -1.2210   -2.9202
    3.9873   -1.2210   -3.4085
    3.9873   -1.2210   -3.4085
    3.9873   -1.2210   -3.8967
    3.9873   -1.2210   -4.3849
    4.4758   -1.2210   -4.3849
    3.9873   -1.2210   -4.8732
    3.9873   -1.2210   -4.8732
    3.9873   -1.2210   -5.3614
    3.9873   -1.2210   -5.3614
    3.9873   -1.2210   -5.8497
    3.9873   -1.2210   -6.3379
    3.9873   -1.2210   -6.3379
    3.9873   -1.2210   -6.8262
    3.9873   -1.2210   -6.8262
    3.9873   -1.2210   -7.3145
    3.9873   -1.2210   -7.3145
    3.9873   -1.2210   -7.8027
    3.9873   -1.2210   -8.2909
    3.9873   -1.2210   -8.2909
    3.9873   -1.2210   -8.2909
    3.9873   -1.2210   -8.7793
    3.9873   -1.2210   -8.7793
    3.9873   -1.2210   -9.2674
    3.9873   -1.2210   -9.2674
    3.9873   -1.2210   -9.7557
    3.9873   -1.2210   -9.7557
    3.9873   -1.2210   -9.7557
    3.9873   -1.2210  -10.2439
    3.9873    -.7366  -10.2439
    3.9873    -.7366  -10.2439
    3.9873    -.7366  -10.7322
    3.9873    -.7366  -10.7322
    3.4988    -.7366  -11.2205
    3.9873    -.7366  -10.7322
    3.4988    -.2523  -11.2205
    3.4988    -.7366  -11.2205
    3.4988    -.2523  -11.2205
    3.4988    -.2523  -11.7086
    3.4988    -.2523  -11.7086
    3.9873    -.2523  -11.7086
    3.4988    -.2523  -11.7086
    3.4988    -.2523  -11.7086
    3.4988    -.2523  -11.7086
    3.4988    -.2523  -12.1969
    3.9873    -.2523  -12.1969
    3.4988    -.2523  -12.1969
    3.4988    -.2523  -12.1969
    3.4988    -.2523  -12.1969
    3.4988    -.2523  -12.1969
    3.4988    -.2523  -12.1969
    3.4988    -.2523  -12.1969
    3.4988    -.2523  -12.1969
    3.4988    -.2523  -12.1969
    3.4988    -.2523  -12.1969
    3.4988    -.2523  -12.1969
    3.4988    -.2523  -12.1969
    3.4988    -.2523  -12.1969
    3.4988     .2321  -12.1969
    3.4988    -.2523  -12.1969
    3.4988    -.2523  -12.1969
    3.4988    -.2523  -12.1969
    3.4988    -.2523  -12.1969
    3.4988     .2321  -12.1969
    3.4988    -.2523  -12.1969
    3.4988    -.2523  -11.7086
    3.4988    -.2523  -11.7086
    3.4988     .2321  -11.7086
    3.4988     .2321  -11.7086
    3.4988     .2321  -11.2205
    3.4988     .2321  -11.2205
    3.4988     .2321  -11.2205
    3.4988     .2321  -11.2205
    3.4988     .2321  -10.7322
    3.0103     .2321  -10.7322
    3.0103     .2321  -10.2439
    3.0103     .7165  -10.2439
    3.0103     .7165  -10.2439
    3.0103     .7165  -10.2439
    3.0103     .7165   -9.7557
    3.0103     .7165   -9.2674
    3.0103     .7165   -9.2674
    2.5221     .7165   -9.2674
    2.5221     .7165   -8.7793
    2.5221    1.2009   -8.7793
    2.0338    1.2009   -8.2909
    2.0338    1.2009   -8.2909
    2.0338    1.2009   -7.8027
    2.0338    1.2009   -7.8027
    2.0338    1.6852   -7.3145
    2.0338    1.6852   -7.3145
    1.5456    1.6852   -6.8262
    1.5456    1.2009   -6.8262
    1.0573    1.2009   -6.3379
    1.5456    1.6852   -6.3379
    1.0573    1.6852   -5.8497
    1.0573    1.6852   -5.8497
    1.0573    1.6852   -5.3614
     .5691    1.6852   -5.3614
     .5691    1.6852   -4.8732
     .5691    1.6852   -4.3849
     .5691    1.6852   -4.3849
     .5691    1.6852   -3.8967
     .0808    1.6852   -3.4085
     .0808    1.6852   -3.4085
     .0808    2.1696   -2.9202
     .0808    2.1696   -2.9202
    -.4074    2.1696   -2.4319
    -.4074    2.1696   -2.4319
    -.4074    2.1696   -1.9437
    -.4074    2.1696   -1.4555
    -.8957    2.1696   -1.4555
    -.8957    2.1696    -.9672
    -.8957    2.1696    -.9672
    -.8957    2.1696    -.4790
    -.8957    2.1696    -.4790
   -1.3839    2.1696     .0093
   -1.3839    2.1696     .0093
   -1.3839    2.1696     .4975
   -1.3839    2.1696     .4975
   -1.3839    2.1696     .9858
   -1.8721    2.1696     .9858
   -1.8721    2.1696    1.4740
   -1.8721    2.1696    1.4740
   -1.8721    2.1696    1.9623
   -1.8721    2.1696    2.4505
   -2.3604    2.1696    2.4505
   -2.3604    2.1696    2.4505
   -2.3604    2.1696    2.9388
   -2.3604    2.1696    3.4273
   -2.3604    2.1696    3.4273
   -2.3604    1.6852    3.9158
   -2.3604    1.6852    3.9158
   -2.3604    1.6852    4.4042
   -2.8487    1.6852    4.4042
   -2.8487    1.6852    4.4042
   -2.8487    1.6852    4.8927
   -2.8487    1.6852    4.8927
   -3.3369    1.6852    5.3812
   -3.3369    1.6852    5.3812
   -3.3369    1.6852    5.8697
   -3.3369    1.6852    5.8697
   -3.3369    1.6852    6.3582
   -3.3369    1.6852    6.3582
   -3.3369    1.6852    6.8467
   -3.3369    1.6852    6.8467
   -3.8251    1.6852    7.3352
   -3.8251    1.6852    7.3352
   -3.8251    1.6852    7.3352
   -3.8251    1.2009    7.8237
   -3.8251    1.2009    7.8237
   -3.8251    1.2009    8.3121
   -3.8251    1.2009    8.3121
   -3.8251    1.2009    8.8006
   -3.8251    1.2009    8.8006
   -3.8251    1.2009    9.2891
   -4.3134    1.2009    9.2891
   -4.3134    1.2009    9.2891
   -4.3134    1.2009    9.7776
   -4.3134    1.2009    9.7776
   -4.3134    1.2009   10.2661
   -4.3134    1.2009   10.2661
   -4.3134    1.2009   10.2661
   -4.3134    1.2009   10.7546
   -4.3134    1.2009   10.7546
   -4.3134    1.2009   11.2431
   -4.3134    1.2009   11.2431
   -4.3134     .7165   11.2431
   -4.3134    1.2009   11.7316
   -4.3134    1.2009   11.7316
   -4.3134    1.2009   11.7316
   -4.3134    1.2009   12.2200
   -4.3134    1.2009   12.2200
   -4.3134    1.6852   12.7085
   -4.3134    1.6852   12.7085
   -4.3134    1.6852   13.1970
   -4.3134    1.6852   13.1970
   -4.3134    1.6852   13.1970
   -4.3134    1.6852   13.1970
   -4.3134    1.6852   13.6855
   -4.3134    1.6852   13.6855
   -4.3134    1.6852   13.6855
   -4.3134    1.6852   14.1740
   -4.3134    2.1696   14.1740
   -4.3134    2.1696   14.1740
   -4.3134    2.1696   14.1740
   -4.3134    2.1696   14.1740
   -4.3134    2.1696   14.1740
   -3.8251    2.1696   14.1740
   -3.8251    2.1696   14.6625
   -3.8251    2.1696   14.6625
   -3.8251    2.1696   14.6625
   -3.8251    2.1696   14.6625
   -3.8251    2.1696   14.6625
   -3.8251    2.1696   14.6625
   -3.8251    2.1696   14.6625
   -3.8251    2.1696   15.1510
   -3.8251    2.1696   14.6625
   -3.3369    2.1696   14.6625
   -3.3369    1.6852   14.6625
   -3.3369    2.1696   14.6625
   -3.3369    1.6852   14.6625
   -3.3369    1.6852   14.6625
   -3.3369    1.6852   14.6625
   -3.3369    1.6852   14.6625
   -3.3369    1.6852   14.6625
   -2.8487    1.6852   14.6625
   -2.8487    1.6852   14.6625
   -2.8487    1.6852   14.6625
   -2.8487    1.6852   14.6625
   -2.8487    1.6852   14.6625
   -2.8487    1.6852   14.1740
   -2.3604    1.6852   14.1740
   -2.3604    1.6852   14.1740
   -2.3604    1.6852   13.6855
   -2.3604    1.2009   13.6855
   -2.3604    1.2009   13.6855
   -2.3604    1.2009   13.6855
   -1.8721    1.2009   13.6855
   -2.3604    1.2009   13.1970
   -1.8721    1.2009   13.1970
   -1.8721    1.2009   13.1970
   -1.8721    1.2009   12.7085
   -1.8721    1.2009   12.7085
   -1.8721    1.2009   12.2200
   -1.8721    1.2009   12.2200
   -1.8721    1.2009   12.2200
   -1.8721    1.2009   11.7316
   -1.3839    1.2009   11.2431
   -1.8721     .7165   11.2431
   -1.8721     .7165   11.2431
   -1.8721     .7165   10.7546
   -1.3839     .7165   10.7546
   -1.3839     .7165   10.2661
   -1.3839     .7165   10.2661
   -1.3839     .7165    9.7776
   -1.3839     .7165    9.2891
   -1.3839     .7165    9.2891
   -1.3839     .7165    9.2891
   -1.3839     .7165    8.8006
   -1.3839     .7165    8.8006
   -1.3839     .7165    8.3121
   -1.3839     .7165    7.8237
    -.8957     .7165    7.8237
    -.8957     .7165    7.3352
    -.8957     .7165    7.3352
    -.8957     .7165    7.3352
    -.8957     .7165    6.8467
    -.8957     .7165    6.3582
    -.8957     .7165    6.3582
    -.8957     .7165    5.8697
    -.8957     .7165    5.8697
    -.8957     .7165    5.8697
    -.8957     .7165    5.3812
    -.4074     .7165    5.3812
    -.4074     .7165    4.8927
    -.4074     .7165    4.4042
    -.4074     .2321    4.4042
    -.4074     .7165    3.9158
    -.4074     .7165    3.9158
    -.4074     .7165    3.4273
    -.4074     .7165    3.4273
    -.4074     .7165    2.9388
    -.4074     .7165    2.4505
    -.4074     .7165    2.4505
    -.4074     .7165    1.9623
     .0808     .7165    1.9623
     .0808     .7165    1.4740
     .0808     .7165    1.4740
     .0808     .2321     .9858
     .0808     .2321     .9858
     .0808     .2321     .4975
     .5691     .2321     .4975
     .5691     .2321     .0093
     .5691     .2321     .0093
     .5691     .2321    -.4790
     .5691     .2321    -.4790
    1.0573     .2321    -.4790
    1.0573     .2321    -.9672
    1.0573     .2321    -.9672
    1.0573     .2321   -1.4555
    1.0573     .2321   -1.4555
    1.5456     .2321   -1.9437
    1.5456     .2321   -1.9437
    1.5456     .2321   -1.9437
    1.5456     .2321   -2.4319
    1.5456     .2321   -2.4319
    1.5456     .2321   -2.4319
    1.5456     .2321   -3.4085
    1.5456     .2321   -3.4085
    1.5456     .2321   -3.4085
    1.5456     .2321   -3.4085
    1.5456     .2321   -3.4085
    2.0338     .2321   -3.8967
    2.0338     .2321   -3.8967
    2.0338     .2321   -3.8967
    2.0338     .2321   -4.3849
    2.0338     .2321   -4.3849
    2.0338     .2321   -4.3849
    2.0338    -.2523   -4.8732
    2.0338    -.2523   -4.8732
    2.0338    -.2523   -4.8732
    2.0338    -.2523   -4.8732
    2.0338    -.2523   -5.3614
    2.0338    -.2523   -5.3614
    2.0338    -.2523   -5.3614
    2.0338    -.2523   -5.3614
    2.0338    -.2523   -5.8497
    2.0338    -.2523   -5.8497
    2.0338    -.7366   -5.8497
    2.0338    -.7366   -6.3379
    2.0338    -.7366   -6.3379
    2.0338    -.7366   -6.3379
    2.0338    -.7366   -6.3379
    2.0338    -.7366   -6.8262
    2.5221    -.7366   -6.8262
    2.5221    -.7366   -6.8262
    2.5221    -.7366   -6.8262
    2.5221    -.7366   -7.3145
    2.5221    -.7366   -7.3145
    2.5221    -.7366   -7.3145
    2.5221    -.7366   -7.3145
    2.5221    -.7366   -7.8027
    2.5221    -.7366   -7.8027
    2.5221    -.7366   -7.8027
    2.5221    -.7366   -8.2909
    2.5221    -.7366   -8.2909
    2.5221    -.7366   -8.2909
    2.5221   -1.2210   -8.2909
    2.5221   -1.2210   -8.2909
    2.5221    -.7366   -8.7793
    2.5221    -.7366   -8.7793
    2.5221   -1.2210   -8.7793
    2.5221   -1.2210   -8.7793
    2.5221   -1.2210   -9.2674
    2.5221   -1.2210   -9.2674
    3.0103   -1.2210   -9.2674
    3.0103    -.7366   -9.7557
