********************************************************************************
           RED INTERUNIVERSITARIA DE INSTRUMENTACION SISMICA (RIIS)
 AREA DE ESTRUCTURAS, UNIVERSIDAD AUTONOMA METROPOLITANA - UNIDAD AZCAPOTZALCO
         AV. SAN PABLO 180; COL. REYNOSA TAMAULIPAS; MEXICO D.F. 02200.        
         TELS:53189455; FAX:53189085; e-mail: tperea@correo.azc.uam.mx
********************************************************************************
ARCHIVO ESTANDAR DE ACELERACION:
VERSION DEL FORMATO                    : 2.0
NOMBRE DEL ARCHIVO                     : RIDI0007.211
FECHA Y HORA DE CREACION               : JULIO, 2002
REF. CATALOGO ACELEROGRAMAS, SMIS 1996 : 


================================================================================
DATOS DE LA ESTACION:
NOMBRE DE LA ESTACION                  : UAM IZTAPALAPA
CLAVE DE LA ESTACION                   : RIDI
LOCALIZACION DE LA ESTACION            : AVENIDA MICHOACAN ESQUINA LA PURISIMA,
                                       : COLONIA VICENTINA, PLANTEL IZTAPALAPA
                                       : FRENTE AL EDIFICIO "O", MEXICO, D.F.
                                       :
                                       :
COORDENADAS DE LA ESTACION             : 19.360 LAT. N 
                                       : 99.060 LONG. W 
ALTITUD (msnm)                         : 2235
TIPO DE SUELO                          : LIMOS Y ARENAS ARCILLOSAS
                                       : 
                                       : 
INSTITUCION RESPONSABLE                : RED INTERUNIVERSITARIA DE
                                       : INSTRUMENTACION SISMICA (RIIS)

================================================================================
DATOS DEL ACELEROGRAFO:
MODELO DEL ACELEROGRAFO                : SSA-2                       
NUMERO DE SERIE DEL ACELEROGRAFO       : 1009                        
NUMERO DE CANALES                      : 3                           
ORIENTACION C1-C6 (rumbo;orientacion)  : /N00E/+V/N90E               
ORIENTACION C7-C12 (rumbo;orientacion) :                             
VEL. DE MUESTREO, C1-C6 (muestras/s)   : /200/200/200                
VEL. DE MUESTREO, C7-C12 (muestras/s)  :                             
ESC. COMPLETA DE SENSORES, C1-C6, (g)  : /1.0/1.0/1.0                
ESC. COMPLETA DE SENSORES, C7-C12, (g) :                             
FREC. NAT. DE SENSORES, C1-C6, (Hz)    : /50.0/50.3/50.7             
FREC. NAT. DE SENSORES, C7-C12, (Hz)   :                             
AMORTIGUAMIENTO DE SENSORES, C1-C6     : /0.66/0.67/0.66             
AMORTIGUAMIENTO DE SENSORES, C7-C12    :                             
INTERVALO DE MUESTREO, C1-C6, (s)      : /0.005/0.005/0.005          
INTERVALO DE MUESTREO, C7-C12, (s)     :                             
UMBRAL DE DISPARO, C1-C6, (Gal)        : /3/3/3                      
UMBRAL DE DISPARO, C7-C12, (Gal)       :                             
MEMORIA DE PREEVENTO (s)               : 15.4                        
TIEMPO DE POSEVENTO (s)                : 60.0                        


================================================================================
DATOS DEL SISMO:
FECHA DEL SISMO (GMT)                  : 21/JUL/2000
HORA EPICENTRO (GMT)                   : 06:14:00
MAGNITUD(ES)                           : /Mw=5.9
COORDENADAS DEL EPICENTRO              : 18.41 LAT. N 
                                       : 98.92 LONG. W 
PROFUNDIDAD FOCAL (km)                 : 80 
FUENTES DE LOS DATOS EPICENTRALES      : USGS
                                       : U.S. GEOLOGICAL SURVEY

================================================================================
DATOS DE ESTE REGISTRO:
HORA DE LA PRIMERA MUESTRA (GMT)       : 06:14:00.00
EXACTITUD DEL TIEMPO (s)               : 
DURACION DEL REGISTRO (s), C1-C6       : /139.52/139.52/139.52        
DURACION DEL REGISTRO (s), C7-C12      :                              
NUM. TOTAL DE MUESTRAS, C1-C6          : /27904/27904/27904           
NUM. TOTAL DE MUESTRAS, C7-C12         :                              
ACEL. MAX.(Gal), C1-C6                 : /-25.57/14.90/-19.54         
ACEL. MAX., C1-C6, EN LA MUESTRA       : /6428/6627/6487              
ACEL. MAX.(Gal), C7-C12                : 
ACEL. MAX., C7-C12, EN LA MUESTRA      : 
UNIDADES DE LOS DATOS                  : Gal 
FACTOR DE DECIMACION                   : 1
FORMATO DATOS (FORTRAN,10 campos/dato) : 3F10.4


===============================================================================
CALIDAD DEL ACELEROGRAMA:
REGISTRO DIGITAL COMPLETO, CARECE DE TIEMPO ABSOLUTO


===============================================================================
COMENTARIOS:
CADA UNO DE LOS CANALES SE ENCUENTRA AJUSTADO POR LINEA BASE MEDIANTE LA
SUSTRACCION DEL PROMEDIO DE LAS ACELERACIONES EN EL TIEMPO.











MODELO DEL ACELEROGRAFO : SSA-2 (KINEMETRICS)
===============================================================================
DATOS DE ACELERACION:
---------+---------+---------+---------+---------+---------+---------+---------+
   CANAL-1   CANAL-2   CANAL-3   CANAL-4   CANAL-5   CANAL-6   CANAL-7   CANAL-8
      N00E        +V      N90E
---------+---------+---------+---------+---------+---------+---------+---------+
[...]
   -3.1172   -2.5359    -.5063
   -3.1172   -2.5359    -.5063
   -3.1172   -2.5359    -.5063
   -3.6055   -2.5359    -.5063
   -3.6055   -2.5359    -.5063
   -3.6055   -2.5359    -.5063
   -3.6055   -2.5359    -.5063
   -4.0937   -2.5359    -.0181
   -4.0937   -2.0516    -.0181
   -4.0937   -2.0516    -.0181
   -4.0937   -1.5672    -.0181
   -4.0937   -1.5672    -.0181
   -4.0937   -1.0828    -.0181
   -4.5820    -.5984    -.0181
   -4.5820    -.1141    -.0181
   -4.5820     .3703    -.0181
   -4.5820     .8547    -.0181
   -4.5820    1.3390    -.0181
   -4.5820    1.8234    -.0181
   -4.5820    1.8234    -.0181
   -4.5820    2.3078     .4702
   -4.5820    2.3078     .4702
   -4.5820    2.3078     .4702
   -4.0937    2.3078     .4702
   -4.0937    2.7922     .4702
   -3.6055    2.7922     .4702
   -3.6055    2.7922     .4702
   -3.1172    2.3078     .4702
   -3.1172    2.3078     .4702
   -2.6290    2.3078     .4702
   -2.1407    2.3078     .4702
   -2.1407    2.3078     .9584
   -1.6525    1.8234     .9584
   -1.1642    1.8234     .9584
    -.6760    1.8234     .9584
    -.1877    1.8234     .9584
     .3005    1.3390     .9584
     .7888    1.3390    1.4467
    1.2770    1.3390    1.4467
    1.7653    1.8234    1.4467
    2.2535    1.8234    1.4467
    2.7420    1.8234    1.4467
    3.2305    2.3078    1.4467
    3.7190    2.7922    1.9349
    4.2075    2.7922    1.9349
    4.6959    3.2768    1.9349
    5.1844    3.2768    1.9349
    5.6729    3.2768    1.9349
    5.6729    3.7614    1.9349
    5.6729    3.7614    1.9349
    5.6729    3.7614    1.9349
    5.6729    3.2768    1.9349
    5.6729    3.2768    1.9349
    5.6729    2.7922    1.9349
    5.6729    2.7922    1.9349
    5.6729    1.8234    1.9349
    5.6729    1.3390    1.9349
    5.6729     .8547    1.9349
    5.6729     .3703    1.9349
    5.6729    -.1141    1.4467
    5.6729    -.5984    1.4467
    5.6729   -1.0828    1.4467
    5.6729   -1.5672    1.4467
    5.6729   -1.5672     .9584
    5.6729   -2.0516     .9584
    5.6729   -2.0516     .4702
    5.1844   -2.0516     .4702
    5.1844   -1.5672    -.0181
    5.1844   -1.5672    -.5063
    4.6959   -1.5672    -.9946
    4.6959   -1.5672   -1.4828
    4.2075   -1.5672   -1.9711
    3.7190   -1.5672   -2.4593
    3.2305   -1.5672   -2.9475
    2.7420   -2.0516   -2.9475
    2.2535   -2.0516   -3.4358
    1.7653   -2.5359   -3.9241
     .7888   -3.0203   -4.4123
     .3005   -3.5047   -4.9005
    -.6760   -3.9891   -5.3888
   -1.1642   -3.9891   -5.8770
   -1.6525   -4.4734   -6.3653
   -2.1407   -4.4734   -6.3653
   -3.1172   -4.9578   -6.8535
   -3.6055   -4.9578   -6.8535
   -4.0937   -4.9578   -7.3418
   -4.5820   -4.9578   -7.3418
   -5.0702   -4.9578   -7.3418
   -5.5585   -4.9578   -7.3418
   -6.0467   -4.9578   -7.3418
   -7.0232   -4.4734   -7.3418
   -7.5115   -4.4734   -7.3418
   -7.9997   -3.9891   -7.3418
   -8.4880   -3.9891   -7.3418
   -8.9762   -3.5047   -7.3418
   -9.4646   -2.5359   -7.3418
   -9.9527   -2.0516   -7.3418
  -10.4409   -1.5672   -7.3418
  -10.9292   -1.0828   -7.3418
  -10.9292    -.5984   -6.8535
  -11.4175     .3703   -6.8535
  -11.4175     .8547   -6.8535
  -11.9058    1.3390   -6.3653
  -11.9058    1.8234   -6.3653
  -11.9058    1.8234   -5.8770
  -11.9058    2.3078   -5.3888
  -12.3939    2.3078   -5.3888
  -12.3939    2.3078   -4.9005
  -12.3939    2.3078   -4.4123
  -12.3939    2.3078   -3.9241
  -11.9058    2.3078   -3.4358
  -11.9058    2.3078   -2.9475
  -11.9058    2.3078   -2.4593
  -11.4175    2.3078   -1.9711
  -11.4175    2.7922   -1.4828
  -10.9292    2.7922    -.5063
  -10.4409    3.2768     .4702
  -10.4409    3.2768     .9584
   -9.9527    3.7614    1.9349
   -9.4646    3.7614    2.9119
   -8.9762    4.2460    3.4004
   -8.4880    4.7306    4.3774
   -7.5115    4.7306    4.8659
   -7.0232    5.2152    5.3544
   -6.5350    5.2152    6.3313
   -6.0467    5.2152    6.8198
   -5.5585    5.2152    7.3083
   -5.0702    5.2152    7.3083
   -4.0937    5.2152    7.7968
   -3.6055    5.2152    7.7968
   -2.6290    5.2152    8.2853
   -2.1407    4.7306    8.2853
   -1.1642    4.2460    8.2853
    -.6760    4.2460    8.2853
     .3005    3.7614    8.7738
     .7888    3.2768    8.7738
    1.7653    2.7922    8.7738
    2.7420    2.7922    8.7738
    3.2305    2.3078    8.2853
    3.7190    1.3390    8.2853
    4.6959    1.3390    8.2853
    5.1844     .8547    8.2853
    6.1614     .3703    8.2853
    6.6499    -.1141    7.7968
    7.6269    -.5984    7.3083
    8.6039    -.5984    7.3083
    9.0923   -1.0828    6.8198
   10.0693   -1.0828    6.3313
   10.5578   -1.0828    5.8428
   11.5348   -1.0828    5.3544
   12.0233   -1.5672    4.8659
   13.0002   -1.5672    4.3774
   13.4887   -1.5672    3.8889
   14.4657   -2.0516    3.4004
   14.9542   -2.0516    2.4234
   15.4426   -2.5359    1.9349
   15.9312   -2.5359    1.4467
   16.4197   -3.0203     .4702
   16.4197   -3.5047    -.0181
   16.9082   -3.9891    -.5063
   16.9082   -3.9891    -.9946
   16.9082   -4.4734   -1.4828
   17.3966   -4.4734   -1.9711
   16.9082   -4.4734   -2.4593
   16.9082   -4.4734   -2.4593
   16.9082   -4.4734   -2.9475
   16.4197   -4.4734   -3.4358
   15.9312   -4.4734   -3.9241
   15.4426   -4.4734   -4.4123
   14.9542   -4.4734   -5.3888
   14.4657   -3.9891   -5.8770
   13.9772   -3.9891   -6.3653
   13.9772   -3.5047   -6.8535
   13.4887   -3.5047   -7.3418
   13.0002   -3.0203   -7.8300
   13.0002   -2.5359   -8.3183
   13.0002   -2.5359   -8.8065
   12.5118   -2.0516   -9.2948
   12.5118   -1.5672   -9.2948
   12.5118   -1.0828   -9.7831
   12.5118    -.5984   -9.7831
   12.0233    -.1141  -10.2713
   11.5348     .3703  -10.2713
   11.0463     .8547  -10.2713
   10.5578    1.3390  -10.7595
   10.0693    2.3078  -10.7595
    9.0923    2.3078  -10.7595
    8.6039    2.7922  -10.7595
    7.6269    3.2768  -10.7595
    6.6499    4.2460  -10.2713
    5.6729    4.7306  -10.2713
    4.2075    4.7306   -9.7831
    2.7420    5.2152   -9.2948
    1.7653    5.2152   -8.3183
     .3005    5.6998   -7.8300
    -.6760    5.6998   -7.3418
   -1.6525    5.6998   -6.8535
   -2.6290    5.6998   -5.8770
   -4.0937    5.6998   -5.3888
   -5.0702    5.2152   -4.4123
   -5.5585    5.2152   -3.9241
   -6.5350    5.2152   -3.4358
   -7.5115    4.7306   -2.4593
   -8.4880    4.7306   -1.9711
   -8.9762    4.7306   -1.4828
   -9.4646    4.7306    -.5063
   -9.9527    4.2460     .4702
  -10.4409    4.2460     .9584
  -11.4175    4.2460    1.9349
  -11.9058    3.7614    2.4234
  -12.3939    3.7614    3.4004
  -12.3939    3.2768    4.3774
  -12.8821    3.2768    4.8659
  -12.8821    3.2768    5.3544
  -13.3705    2.7922    6.3313
  -13.3705    2.3078    6.8198
  -13.3705    2.3078    7.7968
  -13.8587    1.8234    8.2853
  -13.8587    1.3390    8.7738
  -13.8587     .8547    9.7507
  -13.8587     .3703   10.2392
  -14.3470    -.5984   11.2162
  -14.3470   -1.0828   11.7047
  -14.3470   -1.5672   12.1932
  -14.3470   -2.0516   13.1702
  -14.3470   -2.5359   13.6586
  -14.3470   -3.0203   14.1472
  -14.3470   -3.0203   14.6356
  -13.8587   -3.5047   14.6356
  -13.8587   -3.9891   15.1241
  -13.3705   -4.4734   15.6126
  -12.8821   -4.9578   15.6126
  -12.3939   -4.9578   16.1011
  -11.9058   -5.4422   16.1011
  -10.9292   -5.9266   16.1011
   -9.9527   -5.9266   16.1011
   -9.4646   -6.4109   16.1011
   -8.9762   -6.4109   16.1011
   -7.9997   -6.4109   16.1011
   -7.0232   -6.4109   16.1011
   -6.0467   -6.4109   15.6126
   -5.0702   -6.4109   15.1241
   -4.5820   -6.4109   14.6356
   -3.6055   -5.9266   13.6586
   -2.6290   -5.9266   13.1702
   -1.6525   -5.4422   12.1932
   -1.1642   -5.4422   11.2162
    -.1877   -5.4422   10.2392
     .7888   -4.9578    9.2623
    1.2770   -4.9578    8.2853
    2.2535   -4.4734    7.7968
    2.7420   -4.4734    6.8198
    3.7190   -4.4734    6.3313
    4.2075   -4.4734    5.3544
    5.1844   -4.9578    4.8659
    6.1614   -4.9578    3.8889
    6.6499   -4.9578    3.4004
    7.6269   -5.4422    2.4234
    8.6039   -5.4422    1.4467
    9.0923   -5.4422     .4702
   10.5578   -5.4422    -.0181
   11.0463   -5.4422   -1.4828
   12.0233   -4.9578   -2.4593
   13.0002   -4.4734   -3.4358
   13.4887   -3.9891   -4.4123
   14.4657   -3.5047   -5.3888
   14.9542   -2.5359   -6.8535
   15.4426   -1.5672   -7.8300
   16.4197    -.5984   -8.8065
   16.9082     .3703   -9.2948
   17.8850    1.3390  -10.2713
   18.3736    2.3078  -11.2477
   18.8621    3.2768  -11.7361
   19.3506    3.7614  -12.2243
   20.3275    4.7306  -13.2007
   20.3275    5.2152  -13.2007
   20.8161    5.6998  -14.1773
   21.3046    6.1844  -14.1773
   21.3046    6.6690  -14.6655
   20.8161    7.1537  -14.6655
   20.8161    7.1537  -14.6655
   20.3275    7.6383  -14.6655
   19.8390    7.6383  -14.1773
   19.3506    7.6383  -14.1773
   18.8621    8.1229  -14.1773
   18.3736    8.1229  -14.1773
   17.8850    7.6383  -14.1773
   16.9082    7.6383  -13.6890
   16.4197    7.1537  -13.6890
   15.4426    7.1537  -13.2007
   14.4657    6.6690  -12.2243
   13.9772    6.1844  -12.2243
   13.0002    5.6998  -11.2477
   12.5118    5.2152  -11.2477
   12.0233    4.7306  -10.2713
   11.0463    4.2460   -9.7831
   10.5578    3.7614   -8.8065
    9.5808    3.2768   -8.3183
    8.6039    3.2768   -7.3418
    7.6269    2.7922   -6.3653
    6.6499    2.3078   -5.8770
    5.6729    2.3078   -5.3888
    4.6959    1.8234   -4.4123
    3.2305    1.3390   -3.9241
    1.7653    1.3390   -3.4358
     .3005    1.3390   -2.9475
   -1.1642    1.3390   -2.4593
   -3.1172     .8547   -1.9711
   -4.5820     .8547   -1.9711
   -6.5350     .8547   -1.4828
   -7.9997     .8547    -.9946
   -9.9527     .8547    -.5063
  -11.4175     .8547     .4702
  -12.8821     .8547     .9584
  -14.3470     .8547    1.4467
  -15.3234     .8547    2.4234
  -16.7883     .8547    3.4004
  -17.2765    1.3390    4.3774
  -18.2529    1.3390    5.3544
  -19.2295    1.3390    6.3313
  -20.2059    1.3390    7.3083
  -20.6942     .8547    8.2853
  -21.6707     .8547    9.2623
  -22.6471     .8547   10.2392
  -23.1354     .3703   11.2162
  -23.6236    -.1141   12.1932
  -24.1120    -.5984   13.1702
  -24.6002   -1.0828   14.6356
  -25.0884   -1.5672   15.6126
  -25.0884   -2.0516   16.5896
  -25.0884   -2.5359   17.0780
  -25.5767   -2.5359   18.0550
  -25.5767   -3.0203   18.0550
  -25.5767   -3.0203   18.5436
  -25.5767   -3.5047   18.5436
  -25.5767   -3.5047   19.0320
  -25.5767   -3.5047   19.0320
  -25.5767   -3.5047   19.0320
  -25.0884   -3.5047   18.5436
  -25.0884   -3.5047   18.5436
  -24.6002   -3.5047   18.5436
  -24.6002   -3.5047   18.0550
  -24.1120   -3.5047   18.0550
  -24.1120   -3.5047   17.5665
  -23.6236   -3.5047   17.0780
  -23.6236   -3.5047   16.5896
  -23.1354   -3.5047   16.1011
  -22.6471   -3.5047   15.1241
  -22.1590   -3.5047   14.6356
  -21.1824   -3.5047   13.6586
  -20.2059   -3.5047   12.6816
  -19.2295   -3.5047   11.7047
  -18.2529   -3.5047   11.2162
  -16.7883   -3.9891   10.2392
  -15.8117   -4.4734    9.2623
  -14.3470   -4.4734    8.2853
  -12.8821   -4.9578    6.8198
  -10.9292   -4.9578    5.8428
   -9.4646   -5.4422    4.3774
   -7.9997   -5.9266    3.4004
   -6.0467   -5.9266    2.4234
   -5.0702   -5.9266    1.4467
   -3.1172   -5.9266     .4702
   -1.6525   -6.4109    -.5063
    -.1877   -5.9266   -1.9711
     .7888   -5.9266   -2.9475
    2.2535   -5.9266   -3.9241
    3.2305   -5.9266   -4.9005
    4.2075   -5.4422   -5.8770
    5.1844   -5.4422   -6.3653
    6.1614   -4.9578   -7.3418
    7.1384   -4.9578   -8.3183
    8.1154   -4.4734   -8.8065
    9.0923   -4.4734   -9.7831
   10.0693   -3.9891  -10.2713
   11.0463   -3.9891  -11.2477
   12.0233   -3.5047  -12.2243
   13.0002   -3.0203  -13.2007
   13.9772   -3.0203  -14.1773
   15.4426   -2.5359  -15.1538
   16.4197   -2.5359  -15.6420
   17.3966   -2.0516  -16.1302
   18.3736   -1.5672  -17.1068
   19.3506   -1.0828  -17.5951
   20.3275    -.5984  -18.0832
   21.3046    -.1141  -18.5714
   22.2815     .3703  -19.0598
   22.7700    1.3390  -19.5480
   23.2585    1.8234  -19.5480
   23.7470    2.3078  -19.5480
   23.7470    2.7922  -19.5480
   23.7470    3.2768  -19.0598
   23.7470    3.7614  -19.0598
   23.2585    4.2460  -18.5714
   23.2585    4.2460  -18.0832
   22.7700    4.7306  -17.5951
   22.2815    4.7306  -17.1068
   21.3046    5.2152  -16.1302
   20.3275    5.2152  -15.6420
   19.3506    5.2152  -14.6655
   18.8621    5.6998  -14.1773
   17.8850    5.6998  -13.6890
   16.9082    5.6998  -13.2007
   16.4197    6.1844  -12.2243
   15.4426    6.1844  -11.2477
   14.4657    6.1844  -10.2713
   13.4887    6.1844   -9.2948
   12.0233    6.1844   -8.3183
   11.0463    6.1844   -7.3418
   10.0693    6.6690   -6.8535
    9.0923    6.6690   -5.8770
    8.1154    7.1537   -4.9005
    7.1384    7.1537   -3.9241
    6.1614    7.1537   -3.4358
    4.6959    7.6383   -1.9711
    3.7190    7.6383    -.9946
    2.2535    8.1229     .4702
    1.2770    8.1229    1.4467
     .3005    8.1229    2.9119
    -.6760    8.1229    4.3774
   -1.1642    8.1229    5.3544
   -2.1407    8.1229    6.3313
   -3.1172    8.1229    7.7968
   -3.6055    7.6383    8.2853
   -4.5820    7.6383    9.2623
   -5.5585    7.6383   10.2392
   -6.5350    7.1537   10.2392
   -7.5115    7.1537   11.2162
   -8.4880    6.6690   11.2162
   -9.4646    6.1844   11.7047
   -9.9527    6.1844   11.7047
  -10.4409    6.1844   12.1932
  -10.9292    6.1844   12.1932
  -11.9058    5.6998   12.1932
  -12.8821    5.6998   12.6816
  -13.3705    5.2152   13.1702
  -13.8587    5.2152   13.6586
  -14.8352    4.7306   13.6586
  -15.3234    4.7306   14.1472
  -15.8117    4.7306   14.1472
  -15.8117    4.2460   14.6356
  -16.2999    3.7614   14.6356
  -16.2999    3.7614   14.6356
  -16.2999    3.2768   14.1472
  -16.2999    3.2768   14.1472
  -15.8117    2.7922   13.6586
  -15.8117    2.7922   13.6586
  -15.3234    2.3078   13.1702
  -14.8352    1.8234   13.1702
  -14.8352    1.3390   12.6816
  -14.3470     .8547   12.1932
  -14.3470     .3703   11.2162
  -13.8587    -.1141   10.7277
  -13.8587    -.5984    9.7507
  -13.3705   -1.5672    9.2623
  -13.3705   -2.0516    8.2853
  -12.8821   -2.5359    7.3083
  -12.8821   -3.5047    6.3313
  -12.3939   -3.9891    4.8659
  -11.9058   -4.4734    3.8889
  -11.9058   -4.9578    2.9119
  -11.4175   -5.9266    1.9349
  -11.4175   -6.4109     .9584
  -10.9292   -6.8953    -.5063
  -10.4409   -7.8641   -1.4828
   -9.9527   -7.8641   -2.9475
   -8.9762   -8.3484   -3.9241
   -8.4880   -8.8328   -5.3888
   -7.9997   -8.8328   -5.8770
   -7.5115   -9.3173   -7.3418
   -6.5350   -9.3173   -8.3183
   -6.0467   -9.3173   -9.2948
   -5.0702   -9.3173  -10.2713
   -4.0937   -9.3173  -10.7595
