********************************************************************************
           RED INTERUNIVERSITARIA DE INSTRUMENTACION SISIMICA (RIIS)
 AREA DE ESTRUCTURAS, UNIVERSIDAD AUTONOMA METROPOLITANA - UNIDAD AZCAPOTZALCO
         AV. SAN PABLO 180; COL. REYNOSA TAMAULIPAS; MEXICO D.F. 02200.                                                                               
         TELS:53189455; FAX:53189085; e-mail: tperea@correo.azc.uam.mx
********************************************************************************
ARCHIVO ESTANDAR DE ACELERACION:
VERSION DEL FORMATO                    : 2.0
NOMBRE DEL ARCHIVO                     : RIDX0008.091
FECHA Y HORA DE CREACION               : JULIO, 2002
REF. CATALOGO ACELEROGRAMAS, SMIS 1996 : 


================================================================================
DATOS DE LA ESTACION:
NOMBRE DE LA ESTACION                  : UAM XOCHIMILCO
CLAVE DE LA ESTACION                   : RIDX
LOCALIZACION DE LA ESTACION            : CALZADA DEL HUESO 1100, COLONIA VILLA
                                       : QUIETUD, PLANTEL XOCHIMILCO, FRENTE A
                                       : LA BIBLIOTECA, MEXICO, D.F.
                                       :
                                       :
COORDENADAS DE LA ESTACION             : 19.310 LAT. N 
                                       : 99.100 LONG. W 
ALTITUD (msnm)                         : 2235
TIPO DE SUELO                          : LIMOS Y ARENAS ARCILLOSAS
                                       : 
                                       : 
INSTITUCION RESPONSABLE                : RED INTERUNIVERSITARIA DE
                                       : INSTRUMENTACION SISMICA (RIIS)

================================================================================
DATOS DEL ACELEROGRAFO:
MODELO DEL ACELEROGRAFO                : SSA-2                      
NUMERO DE SERIE DEL ACELEROGRAFO       : 1320                       
NUMERO DE CANALES                      : 3                          
ORIENTACION C1-C6 (rumbo;orientacion)  : /N00E/+V/N90E              
ORIENTACION C7-C12 (rumbo;orientacion) :                            
VEL. DE MUESTREO, C1-C6 (muestras/s)   : /200/200/200               
VEL. DE MUESTREO, C7-C12 (muestras/s)  :                            
ESC. COMPLETA DE SENSORES, C1-C6, (g)  : /1.0/1.0/1.0               
ESC. COMPLETA DE SENSORES, C7-C12, (g) :                            
FREC. NAT. DE SENSORES, C1-C6, (Hz)    : /50.0/50.0/50.0            
FREC. NAT. DE SENSORES, C7-C12, (Hz)   :                            
AMORTIGUAMIENTO DE SENSORES, C1-C6     : /0.7/0.7/0.7               
AMORTIGUAMIENTO DE SENSORES, C7-C12    :                            
INTERVALO DE MUESTREO, C1-C6, (s)      : /0.005/0.005/0.005         
INTERVALO DE MUESTREO, C7-C12, (s)     :                            
UMBRAL DE DISPARO, C1-C6, (Gal)        : /2/2/2                     
UMBRAL DE DISPARO, C7-C12, (Gal)       :                            
MEMORIA DE PREEVENTO (s)               : 15                         
TIEMPO DE POSEVENTO (s)                : 60                         


================================================================================
DATOS DEL SISMO:
FECHA DEL SISMO (GMT)                  : 09/AGO/2000
HORA EPICENTRO (GMT)                   : 11:42:00
MAGNITUD(ES)                           : /Ms=6.5
COORDENADAS DEL EPICENTRO              : 18.20 LAT. N 
                                       : 102.48 LONG. W 
PROFUNDIDAD FOCAL (km)                 : 45 
FUENTES DE LOS DATOS EPICENTRALES      : USGS
                                       : U.S. GEOLOGICAL SURVEY

================================================================================
DATOS DE ESTE REGISTRO:
HORA DE LA PRIMERA MUESTRA (GMT)       : 11:42:00.00
EXACTITUD DEL TIEMPO (s)               : 
DURACION DEL REGISTRO (s), C1-C6       : /134.40/134.40/134.40             
DURACION DEL REGISTRO (s), C7-C12      :                                   
NUM. TOTAL DE MUESTRAS, C1-C6          : /26880/26880/26880                
NUM. TOTAL DE MUESTRAS, C7-C12         :                                   
ACEL. MAX.(Gal), C1-C6                 : /-37.58/5.8182/-24.2920           
ACEL. MAX., C1-C6, EN LA MUESTRA       : /8814/7881/6337                   
ACEL. MAX.(Gal), C7-C12                : 
ACEL. MAX., C7-C12, EN LA MUESTRA      : 
UNIDADES DE LOS DATOS                  : Gal 
FACTOR DE DECIMACION                   : 1
FORMATO DATOS (FORTRAN,10 campos/dato) : 3F10.4


================================================================================
CALIDAD DEL ACELEROGRAMA:
REGISTRO DIGITAL COMPLETO, CARECE DE TIEMPO ABSOLUTO.


================================================================================
COMENTARIOS:
CADA UNO DE LOS CANALES SE ENCUENTRA AJUSTADO POR LINEA BASE MEDIANTE LA
SUSTRACCION DEL PROMEDIO DE LAS ACELERACIONES EN EL TIEMPO.











MODELO DEL ACELEROGRAFO : SSA-2 (KINEMETRICS)
================================================================================
DATOS DE ACELERACION:
---------+---------+---------+---------+---------+---------+---------+---------+
   CANAL-1   CANAL-2   CANAL-3   CANAL-4   CANAL-5   CANAL-6   CANAL-7   CANAL-8
      N00E        +V      N90E
---------+---------+---------+---------+---------+---------+---------+---------+
[...]
   23.7038    -.0643    2.1793
   23.7038    -.5545    2.1793
   24.1943    -.5545    2.1793
   24.1943    -.5545    2.1793
   24.1943    -.5545    2.1793
   24.6848    -.5545    2.1793
   24.6848   -1.0447    2.1793
   25.1752   -1.0447    2.1793
   25.1752   -1.5350    1.6891
   25.6657   -1.5350    1.6891
   25.6657   -1.5350    1.6891
   26.1560   -1.5350    1.6891
   26.1560   -1.5350    1.6891
   26.1560   -2.0251    1.6891
   26.6465   -1.5350    1.6891
   26.6465   -1.5350    1.6891
   26.6465   -2.0251    1.1989
   26.6465   -2.0251    1.1989
   26.6465   -2.5154    1.1989
   27.1370   -2.5154    1.1989
   27.1370   -2.5154    1.1989
   27.1370   -2.5154    1.1989
   27.6274   -2.5154    1.1989
   27.6274   -2.5154     .7087
   27.6274   -2.5154     .7087
   28.1179   -2.5154    1.1989
   28.1179   -2.5154     .7087
   28.1179   -3.0055     .7087
   28.1179   -3.0055    1.1989
   28.6084   -3.0055     .7087
   28.6084   -3.0055    1.1989
   28.6084   -3.0055     .7087
   28.6084   -3.0055    1.1989
   28.6084   -3.0055     .7087
   28.6084   -3.0055    1.1989
   29.0988   -3.0055     .7087
   29.0988   -3.0055     .7087
   29.0988   -3.0055    1.1989
   29.0988   -3.0055     .7087
   29.0988   -3.0055    1.1989
   29.0988   -3.0055    1.1989
   29.0988   -3.0055    1.1989
   29.5892   -3.0055    1.1989
   29.5892   -3.0055    1.1989
   29.5892   -3.0055    1.1989
   29.5892   -2.5154    1.1989
   29.5892   -3.0055    1.1989
   29.5892   -2.5154    1.6891
   29.5892   -3.0055    1.6891
   29.5892   -2.5154    1.6891
   29.5892   -2.5154    2.1793
   29.5892   -2.5154    2.1793
   29.5892   -2.5154    2.1793
   29.5892   -2.5154    2.1793
   29.5892   -2.5154    2.6695
   29.5892   -2.5154    2.6695
   29.5892   -2.5154    2.6695
   29.5892   -2.5154    3.1600
   29.5892   -2.5154    3.1600
   29.5892   -2.5154    3.1600
   29.5892   -2.0251    3.1600
   29.5892   -2.0251    3.1600
   29.5892   -2.0251    3.6504
   29.5892   -2.0251    3.6504
   29.5892   -1.5350    3.6504
   29.5892   -1.5350    4.1409
   29.5892   -1.5350    4.1409
   29.5892   -1.5350    4.1409
   29.5892   -1.5350    4.1409
   29.5892   -1.5350    4.6313
   30.0797   -1.5350    4.6313
   30.0797   -1.0447    4.6313
   30.0797   -1.0447    4.6313
   30.0797   -1.0447    5.1218
   30.0797   -1.0447    5.1218
   30.0797   -1.0447    5.1218
   30.0797    -.5545    5.1218
   30.0797    -.5545    5.1218
   30.0797    -.5545    5.6122
   30.0797    -.5545    5.6122
   30.5701    -.5545    5.6122
   30.5701    -.5545    5.6122
   30.5701    -.5545    5.6122
   30.5701    -.0643    5.6122
   30.5701    -.0643    5.6122
   30.5701    -.0643    6.1027
   30.5701    -.0643    6.1027
   30.5701    -.0643    6.1027
   30.5701    -.0643    6.1027
   30.5701    -.0643    6.1027
   30.5701     .4259    6.1027
   30.5701     .4259    6.1027
   30.5701     .4259    6.1027
   30.5701     .4259    6.1027
   30.5701     .4259    6.5931
   30.5701     .9161    6.5931
   30.5701     .9161    6.5931
   30.5701     .9161    7.0836
   30.5701     .9161    7.0836
   30.5701     .9161    7.0836
   30.5701    1.4063    7.0836
   30.0797    1.4063    7.0836
   30.0797    1.4063    7.0836
   30.0797    1.4063    7.0836
   30.0797    1.4063    7.0836
   30.0797    1.4063    7.5740
   29.5892    1.4063    7.5740
   29.5892    1.4063    7.5740
   29.5892    1.4063    7.5740
   29.5892    1.4063    7.5740
   29.0988    1.4063    7.5740
   29.0988    1.4063    8.0645
   28.6084    1.4063    8.0645
   28.6084    1.8965    8.0645
   28.6084    1.4063    8.0645
   28.1179    1.8965    8.0645
   28.1179    1.8965    8.0645
   27.6274    1.8965    8.0645
   27.6274    1.8965    8.0645
   27.1370    1.8965    8.0645
   26.6465    1.8965    8.0645
   26.6465    1.8965    8.0645
   26.1560    1.8965    8.0645
   26.1560    1.8965    8.5549
   25.6657    1.8965    8.0645
   25.6657    1.8965    8.0645
   25.6657    1.8965    8.5549
   25.1752    1.8965    8.0645
   25.1752    2.3868    8.0645
   24.6848    2.3868    8.0645
   24.6848    2.3868    8.0645
   24.1943    1.8965    8.0645
   23.7038    2.3868    8.0645
   23.2133    2.3868    7.5740
   23.2133    2.3868    7.5740
   22.7230    2.3868    7.5740
   22.2325    1.8965    7.0836
   22.2325    2.3868    7.5740
   22.2325    2.3868    7.5740
   21.7421    2.3868    7.5740
   21.2516    2.3868    7.5740
   21.2516    2.3868    7.5740
   20.7611    2.3868    7.5740
   20.7611    2.3868    7.0836
   20.2706    2.3868    7.0836
   20.2706    2.3868    7.0836
   19.7802    1.8965    7.0836
   19.7802    2.3868    7.0836
   19.2899    2.3868    7.0836
   19.2899    1.8965    7.0836
   18.7994    1.8965    6.5931
   18.3089    1.8965    6.5931
   18.3089    1.8965    6.5931
   17.8184    1.8965    6.5931
   17.8184    1.8965    6.5931
   17.3279    1.8965    6.5931
   16.8376    1.8965    6.5931
   16.8376    1.8965    6.5931
   16.3472    1.8965    6.5931
   15.8567    1.8965    6.5931
   15.8567    1.8965    6.5931
   15.3662    1.8965    6.1027
   14.8757    1.8965    6.1027
   14.8757    2.3868    6.1027
   14.3853    2.3868    6.1027
   14.3853    2.3868    6.1027
   13.8949    2.3868    6.1027
   13.8949    2.3868    6.1027
   13.4044    2.3868    6.1027
   12.9140    2.3868    6.1027
   12.9140    2.3868    6.1027
   12.4235    2.3868    6.1027
   12.4235    2.3868    6.1027
   11.9331    2.3868    6.1027
   11.4426    2.3868    6.1027
   10.9522    2.3868    6.1027
   10.9522    2.3868    6.1027
   10.4617    2.3868    6.1027
    9.9713    2.3868    6.1027
    9.4808    2.3868    6.1027
    8.9904    2.3868    6.1027
    8.4999    2.3868    6.1027
    8.0095    1.8965    6.1027
    7.5190    1.8965    6.1027
    7.0286    1.8965    6.1027
    6.5381    1.8965    6.1027
    6.5381    1.8965    6.1027
    6.0477    1.8965    6.1027
    5.5572    1.8965    6.1027
    5.0668    1.8965    6.1027
    4.5763    1.4063    6.1027
    4.5763    1.8965    6.1027
    4.0859    1.4063    6.1027
    3.5954    1.4063    6.1027
    3.1050    1.4063    5.6122
    2.1241    1.4063    5.6122
    2.1241    1.4063    5.6122
    1.6339     .9161    5.6122
     .6534     .9161    5.6122
     .1632     .9161    5.6122
    -.3270     .9161    5.1218
    -.8172     .9161    5.6122
   -1.3074     .9161    5.1218
   -1.7976     .4259    5.1218
   -2.7780     .4259    5.1218
   -3.2682     .4259    5.1218
   -3.7584     .4259    4.6313
   -4.2486     .4259    4.6313
   -4.7389    -.0643    4.6313
   -5.2291    -.0643    4.6313
   -5.7193    -.0643    4.1409
   -5.7193    -.0643    4.1409
   -6.6997    -.0643    3.6504
   -7.1899    -.5545    3.1600
   -7.6801    -.5545    3.1600
   -8.1704    -.5545    2.6695
   -8.1704    -.5545    2.6695
   -8.6605   -1.0447    2.1793
   -9.1508   -1.0447    2.1793
   -9.6409   -1.0447    1.6891
  -10.1312   -1.0447    1.6891
  -10.6214   -1.0447    1.6891
  -11.1115   -1.5350    1.1989
  -11.6018   -1.5350    1.1989
  -12.5823   -1.5350    1.1989
  -13.0724   -1.5350    1.1989
  -13.0724   -1.5350     .7087
  -14.0528   -2.0251     .7087
  -14.5430   -2.0251     .7087
  -15.0333   -2.0251     .2185
  -15.5234   -2.0251     .2185
  -15.5234   -2.5154     .2185
  -16.5039   -2.5154    -.2717
  -16.5039   -2.5154    -.2717
  -16.9941   -2.5154    -.7619
  -17.4843   -2.5154    -.7619
  -17.9745   -2.5154   -1.2521
  -18.4647   -2.5154   -1.2521
  -18.9549   -2.5154   -1.2521
  -18.9549   -3.0055   -1.7423
  -19.4452   -3.0055   -1.7423
  -19.9353   -3.0055   -2.2326
  -20.4255   -3.0055   -2.2326
  -20.4255   -3.0055   -2.7228
  -20.9158   -3.0055   -2.7228
  -20.9158   -3.0055   -2.7228
  -21.4060   -3.0055   -3.2130
  -21.8963   -3.0055   -3.2130
  -21.8963   -3.0055   -3.2130
  -22.3864   -3.0055   -3.7032
  -22.3864   -3.4957   -3.7032
  -22.8767   -3.4957   -4.1934
  -22.8767   -3.4957   -4.1934
  -23.3668   -3.4957   -4.1934
  -23.3668   -3.4957   -4.6836
  -23.3668   -3.4957   -4.6836
  -23.8570   -3.4957   -4.6836
  -23.8570   -3.4957   -5.1738
  -24.3472   -3.4957   -5.1738
  -24.3472   -3.4957   -5.1738
  -24.8374   -3.4957   -5.1738
  -24.8374   -3.0055   -5.1738
  -25.3277   -3.0055   -5.6640
  -25.3277   -3.0055   -5.6640
  -25.8179   -3.0055   -5.6640
  -25.8179   -3.0055   -5.6640
  -26.3081   -3.0055   -6.1542
  -26.3081   -3.0055   -6.1542
  -26.7983   -3.0055   -6.1542
  -26.7983   -3.0055   -6.6444
  -26.7983   -3.0055   -6.6444
  -27.2885   -3.0055   -6.6444
  -27.2885   -2.5154   -6.6444
  -27.7787   -2.5154   -6.6444
  -27.7787   -2.5154   -7.1347
  -27.7787   -2.5154   -7.1347
  -28.2689   -2.5154   -7.1347
  -28.2689   -2.5154   -7.6249
  -28.2689   -2.0251   -7.6249
  -28.7591   -2.0251   -7.6249
  -28.7591   -2.0251   -8.1151
  -29.2493   -2.0251   -8.1151
  -29.2493   -2.0251   -8.1151
  -29.2493   -1.5350   -8.6054
  -29.7395   -1.5350   -8.6054
  -29.7395   -1.5350   -8.6054
  -30.2298   -1.5350   -8.6054
  -30.2298   -1.5350   -9.0954
  -30.2298   -1.0447   -9.0954
  -30.2298   -1.0447   -9.0954
  -30.7200    -.5545   -9.0954
  -30.7200    -.5545   -9.0954
  -30.7200    -.5545   -9.0954
  -30.7200    -.0643   -9.5857
  -31.2102    -.0643   -9.5857
  -31.2102    -.0643   -9.5857
  -31.7004    -.0643   -9.5857
  -31.7004    -.0643   -9.5857
  -31.7004    -.0643   -9.5857
  -32.1906     .4259  -10.0759
  -32.1906     .4259  -10.0759
  -32.1906     .4259  -10.0759
  -32.6808     .4259  -10.0759
  -32.6808     .4259  -10.0759
  -32.6808     .4259  -10.0759
  -33.1709     .4259  -10.0759
  -33.1709     .4259  -10.0759
  -33.1709     .4259  -10.0759
  -33.6612     .4259  -10.0759
  -33.6612     .9161  -10.5661
  -33.6612     .9161  -10.5661
  -34.1514     .9161  -10.5661
  -34.1514     .9161  -10.5661
  -34.6417     .9161  -10.5661
  -34.6417     .9161  -10.5661
  -35.1319     .9161  -10.5661
  -35.1319     .9161  -10.5661
  -35.1319     .9161  -10.5661
  -35.6220    1.4063  -10.5661
  -35.6220    1.4063  -10.5661
  -35.6220    1.4063  -10.5661
  -36.6025    1.4063  -10.5661
  -36.6025    1.4063  -10.5661
  -36.6025    1.4063  -10.5661
  -36.6025    1.4063  -10.0759
  -37.0927    1.8965  -10.0759
  -37.0927    1.8965  -10.0759
  -37.0927    1.8965   -9.5857
  -37.0927    1.8965   -9.5857
  -37.5829    1.8965   -9.5857
  -37.5829    1.8965   -9.5857
  -37.5829    1.8965   -9.0954
  -37.5829    1.4063   -9.0954
  -37.5829    1.4063   -9.0954
  -37.5829    1.4063   -9.0954
  -37.5829    1.4063   -9.0954
  -37.0927    1.4063   -9.0954
  -37.0927    1.4063   -9.0954
  -37.0927     .9161   -9.0954
  -37.0927     .9161   -9.0954
  -37.0927     .9161   -9.0954
  -37.0927     .9161   -8.6054
  -37.0927     .9161   -8.6054
  -37.0927     .4259   -8.6054
  -36.6025     .4259   -8.1151
  -36.6025     .4259   -8.1151
  -36.6025     .4259   -7.6249
  -36.1123     .4259   -7.6249
  -36.1123     .4259   -7.6249
  -35.6220     .4259   -7.1347
  -35.6220     .4259   -7.1347
  -35.1319    -.0643   -6.6444
  -34.6417    -.0643   -6.6444
  -34.6417    -.0643   -6.6444
  -34.1514    -.0643   -6.1542
  -33.6612    -.0643   -6.1542
  -33.6612    -.0643   -5.6640
  -33.1709    -.5545   -5.6640
  -32.6808    -.5545   -5.1738
  -32.6808    -.5545   -5.1738
  -32.1906    -.5545   -5.6640
  -31.7004   -1.0447   -5.1738
  -31.2102   -1.0447   -5.1738
  -31.2102   -1.0447   -5.1738
  -30.7200   -1.0447   -5.1738
  -30.2298   -1.0447   -5.1738
  -29.7395   -1.0447   -4.6836
  -29.2493   -1.0447   -4.6836
  -28.7591   -1.0447   -4.1934
  -28.7591   -1.0447   -4.1934
  -28.2689   -1.0447   -4.1934
  -27.7787   -1.0447   -3.7032
  -27.7787   -1.0447   -3.7032
  -27.2885   -1.0447   -3.7032
  -26.7983   -1.0447   -3.7032
  -26.7983   -1.0447   -3.7032
  -26.3081   -1.0447   -3.7032
  -25.8179   -1.0447   -3.7032
  -25.3277   -1.5350   -3.7032
  -25.3277   -1.5350   -3.7032
  -24.8374   -1.5350   -3.7032
  -24.3472   -1.0447   -3.7032
  -23.8570   -1.0447   -3.2130
  -23.3668   -1.0447   -3.2130
  -22.8767   -1.0447   -3.2130
  -22.3864   -1.5350   -3.2130
  -21.8963   -1.5350   -2.7228
  -21.8963   -1.5350   -2.7228
  -21.4060   -1.5350   -2.7228
  -20.9158   -1.5350   -2.2326
  -20.4255   -1.5350   -2.2326
  -19.9353   -1.5350   -2.2326
  -19.4452   -1.0447   -1.7423
  -18.9549   -1.0447   -1.7423
  -18.4647   -1.0447   -1.7423
  -17.9745   -1.0447   -1.2521
  -17.4843   -1.0447   -1.2521
  -16.9941   -1.0447   -1.2521
  -16.9941   -1.0447   -1.2521
  -16.5039   -1.0447   -1.2521
  -16.0137    -.5545   -1.2521
  -15.5234    -.5545   -1.2521
  -15.5234    -.5545   -1.2521
  -15.0333   -1.0447   -1.2521
  -14.5430   -1.0447    -.7619
  -14.5430   -1.0447    -.7619
  -14.5430   -1.5350    -.7619
  -14.0528   -1.5350    -.7619
  -13.5627   -1.5350    -.7619
  -13.0724   -1.5350    -.7619
  -13.0724   -1.5350    -.2717
  -12.5823   -1.5350    -.2717
  -12.0920   -1.5350    -.2717
  -11.6018   -1.5350     .2185
  -11.1115   -1.0447     .2185
  -11.1115   -1.5350     .2185
  -10.6214   -1.0447     .2185
  -10.1312   -1.0447     .2185
   -9.6409   -1.5350     .2185
   -9.6409   -1.0447     .2185
   -9.1508   -1.0447     .2185
   -8.6605   -1.0447     .2185
   -8.1704   -1.0447     .2185
   -7.6801   -1.0447     .2185
   -7.1899   -1.0447     .2185
   -6.6997   -1.0447     .2185
   -6.2095   -1.0447     .2185
   -5.7193   -1.0447     .2185
   -5.7193   -1.0447     .2185
   -5.2291   -1.0447     .2185
   -5.2291   -1.0447     .2185
   -4.7389   -1.0447     .7087
   -4.2486   -1.0447     .7087
   -3.7584   -1.0447     .7087
   -3.2682   -1.0447     .7087
   -3.2682   -1.0447     .7087
   -2.7780   -1.0447    1.1989
   -2.2878   -1.0447    1.1989
   -1.7976   -1.0447    1.1989
   -1.3074   -1.0447    1.1989
   -1.3074   -1.0447    1.1989
    -.8172   -1.0447    1.1989
    -.3270   -1.0447    1.1989
     .1632   -1.0447    1.1989
     .1632   -1.0447    1.1989
     .6534   -1.0447     .7087
    1.1437   -1.0447     .7087
    1.6339   -1.0447     .7087
    1.6339   -1.0447     .7087
    2.1241   -1.0447     .7087
    2.6145   -1.0447     .7087
    3.1050   -1.0447     .7087
    3.1050   -1.0447     .7087
    3.5954   -1.0447    1.1989
    4.0859   -1.0447     .7087
    4.5763   -1.0447    1.1989
    4.5763   -1.0447    1.1989
    5.0668   -1.0447    1.1989
    5.5572   -1.0447     .7087
    6.0477   -1.0447    1.1989
    6.5381   -1.0447     .7087
    6.5381   -1.0447     .7087
    7.0286    -.5545     .7087
    7.5190    -.5545     .7087
    8.0095    -.5545     .7087
    8.4999    -.5545     .7087
    8.9904    -.5545     .7087
    9.4808    -.5545     .7087
    9.4808    -.5545     .7087
    9.9713    -.5545     .7087
   10.4617    -.5545     .7087
