********************************************************************************
           RED INTERUNIVERSITARIA DE INSTRUMENTACION SISIMICA (RIIS)
 AREA DE ESTRUCTURAS, UNIVERSIDAD AUTONOMA METROPOLITANA - UNIDAD AZCAPOTZALCO
         AV. SAN PABLO 180; COL. REYNOSA TAMAULIPAS; MEXICO D.F. 02200.                                                                               
       TELS: 7235859, 7235856; FAX: 7244285; e-mail: esz@hp9000a1.uam.mx
********************************************************************************
ARCHIVO ESTANDAR DE ACELERACION:
VERSION DEL FORMATO                    : 2.0            
NOMBRE DEL ARCHIVO                     : Ridx0003.121   
FECHA Y HORA DE CREACION               : Junio,2001     
REF. CATALOGO ACELEROGRAMAS, SMIS 1996 : 


================================================================================
DATOS DE LA ESTACION:
NOMBRE DE LA ESTACION                  : UAM XOCHIMILCO
CLAVE DE LA ESTACION                   : RIDX
LOCALIZACION DE LA ESTACION            : CALZADA DEL HUESO 1100, COLONIA VILLA
                                       : QUIETUD, PLANTEL XOCHIMILCO, FRENTE A
                                       : LA BIBLIOTECA, MEXICO, D.F.
                                       :
                                       :
COORDENADAS DE LA ESTACION             : 19.310 LAT. N 
                                       : 99.100 LONG. W 
ALTITUD (msnm)                         : 2235
TIPO DE SUELO                          : LIMOS Y ARENAS ARCILLOSAS
                                       : 
                                       : 
INSTITUCION RESPONSABLE                : RED INTERUNIVERSITARIA DE
                                       : INSTRUMENTACION SISMICA (RIIS)

================================================================================
DATOS DEL ACELEROGRAFO:
MODELO DEL ACELEROGRAFO                : SSA-2                     
NUMERO DE SERIE DEL ACELEROGRAFO       : 1320                      
NUMERO DE CANALES                      : 3                         
ORIENTACION C1-C6 (rumbo;orientacion)  : /N00E/+V/N90E             
ORIENTACION C7-C12 (rumbo;orientacion) :                           
VEL. DE MUESTREO, C1-C6 (muestras/s)   : /200/200/200              
VEL. DE MUESTREO, C7-C12 (muestras/s)  :                           
ESC. COMPLETA DE SENSORES, C1-C6, (g)  : /1.0/1.0/1.0              
ESC. COMPLETA DE SENSORES, C7-C12, (g) :                           
FREC. NAT. DE SENSORES, C1-C6, (Hz)    : /50.0/50.0/50.0           
FREC. NAT. DE SENSORES, C7-C12, (Hz)   :                           
AMORTIGUAMIENTO DE SENSORES, C1-C6     : /0.7/0.7/0.7              
AMORTIGUAMIENTO DE SENSORES, C7-C12    :                           
INTERVALO DE MUESTREO, C1-C6, (s)      : /0.005/0.005/0.005        
INTERVALO DE MUESTREO, C7-C12, (s)     :                           
UMBRAL DE DISPARO, C1-C6, (Gal)        : /2/2/2                    
UMBRAL DE DISPARO, C7-C12, (Gal)       :                           
MEMORIA DE PREEVENTO (s)               : 15                        
TIEMPO DE POSEVENTO (s)                : 60                        


================================================================================
DATOS DEL SISMO:
FECHA DEL SISMO (GMT)                  : 12/Mar/2000                     
HORA EPICENTRO (GMT)                   : 22:21:30                        
MAGNITUD(ES)                           : /Mw=6.30                        
COORDENADAS DEL EPICENTRO              : 14.98 LAT. N                    
                                       : -92.44 LONG. W                  
PROFUNDIDAD FOCAL (km)                 : 62                              
FUENTES DE LOS DATOS EPICENTRALES      : SSN                             
                                       : INSTITUTO DE GEOFISICA, UNAM    

================================================================================
DATOS DE ESTE REGISTRO:
HORA DE LA PRIMERA MUESTRA (GMT)       : 22:21:30.00
EXACTITUD DEL TIEMPO (s)               : 
DURACION DEL REGISTRO (s), C1-C6       : /47.36/47.36/47.36             
DURACION DEL REGISTRO (s), C7-C12      :                                
NUM. TOTAL DE MUESTRAS, C1-C6          : /9472/9472/9472                
NUM. TOTAL DE MUESTRAS, C7-C12         :                                
ACEL. MAX.(Gal), C1-C6                 : /-4.23/1.06/-2.15              
ACEL. MAX., C1-C6, EN LA MUESTRA       : /6200/6720/6613                
ACEL. MAX.(Gal), C7-C12                : 
ACEL. MAX., C7-C12, EN LA MUESTRA      :
UNIDADES DE LOS DATOS                  : Gal 
FACTOR DE DECIMACION                   : 1
FORMATO DATOS (FORTRAN,10 campos/dato) : 3F10.4


================================================================================
CALIDAD DEL ACELEROGRAMA:
REGISTRO DIGITAL COMPLETO, CARECE DE TIEMPO ABSOLUTO.


================================================================================
COMENTARIOS:
CADA UNO DE LOS CANALES SE ENCUENTRA AJUSTADO POR LINEA BASE MEDIANTE LA
SUSTRACCION DEL PROMEDIO DE LAS ACELERACIONES EN EL TIEMPO.











MODELO DEL ACELEROGRAFO : SSA-2 (KINEMETRICS)
================================================================================
DATOS DE ACELERACION:
---------+---------+---------+---------+---------+---------+---------+---------+
   CANAL-1   CANAL-2   CANAL-3   CANAL-4   CANAL-5   CANAL-6   CANAL-7   CANAL-8
      N00E        +V      N90E
---------+---------+---------+---------+---------+---------+---------+---------+
[...]
    -.3148    -.4030    -.6856
    -.3148    -.4030    -.6856
    -.3148     .0872    -.6856
    -.3148     .0872    -.1954
    -.3148     .0872    -.1954
     .1757     .0872    -.1954
     .1757     .0872    -.1954
     .1757     .0872    -.1954
     .1757     .0872    -.1954
     .1757     .0872    -.1954
     .1757     .0872    -.1954
     .1757     .0872    -.1954
     .1757     .0872    -.1954
     .1757     .0872     .2948
     .1757     .0872     .2948
     .6661     .0872    -.1954
     .6661     .0872     .2948
     .6661     .0872     .2948
     .6661     .0872     .2948
     .6661     .0872     .2948
     .6661     .0872     .2948
     .6661     .0872     .2948
     .6661     .0872     .2948
     .6661     .0872     .2948
     .6661     .0872     .2948
     .6661     .0872     .2948
    1.1566     .0872     .2948
    1.1566     .0872     .2948
    1.1566     .0872     .2948
    1.1566     .0872     .2948
    1.1566     .0872     .2948
    1.1566     .0872     .2948
    1.1566     .0872     .2948
    1.1566     .0872     .2948
    1.1566     .0872     .2948
    1.1566     .0872     .2948
    1.1566     .0872     .2948
    1.1566     .0872     .2948
    1.1566     .0872     .7850
    1.1566     .0872     .2948
    1.6470     .0872     .7850
    1.6470     .0872     .7850
    1.6470     .0872     .7850
    1.6470     .0872     .7850
    1.6470     .0872     .2948
    1.6470     .0872     .7850
    1.6470     .0872     .7850
    1.6470     .0872     .7850
    1.6470     .0872     .7850
    1.6470     .0872     .7850
    1.6470     .0872     .7850
    1.6470     .0872     .7850
    1.6470     .0872     .7850
    1.6470     .0872     .7850
    1.6470     .0872     .7850
    1.6470     .0872     .7850
    1.6470     .0872     .7850
    1.6470     .0872     .7850
    1.6470     .0872     .7850
    1.6470     .0872     .7850
    1.6470     .0872     .7850
    2.1375     .0872     .7850
    2.1375     .0872     .7850
    2.1375     .0872     .7850
    2.1375     .0872     .7850
    2.1375     .0872     .7850
    2.1375     .0872     .7850
    2.1375     .0872     .7850
    2.1375     .0872     .7850
    2.1375     .0872     .7850
    2.1375     .0872     .7850
    2.1375     .0872     .7850
    2.1375     .0872     .7850
    2.1375     .0872     .7850
    2.1375     .0872     .7850
    2.1375     .0872     .7850
    2.1375     .0872     .7850
    2.1375     .0872     .7850
    2.1375     .0872     .7850
    2.1375     .0872     .7850
    2.1375     .0872     .7850
    2.1375     .0872    1.2752
    2.1375     .0872     .7850
    2.1375     .0872     .7850
    2.1375     .0872    1.2752
    2.1375     .0872    1.2752
    2.1375     .0872     .7850
    2.1375     .0872     .7850
    2.1375     .0872     .7850
    2.1375     .0872     .7850
    2.1375     .0872     .7850
    2.1375     .0872    1.2752
    2.1375     .0872    1.2752
    2.1375     .0872     .7850
    2.1375     .0872     .7850
    2.1375     .0872     .7850
    2.1375     .0872     .7850
    2.1375     .0872     .7850
    2.1375     .0872     .7850
    2.1375     .0872     .7850
    2.1375     .0872     .7850
    2.1375     .0872     .7850
    2.1375     .0872     .7850
    2.1375     .0872     .7850
    2.1375     .0872     .7850
    2.1375     .0872     .7850
    2.1375     .0872     .7850
    2.1375     .0872     .7850
    2.6279     .0872    1.2752
    2.6279     .0872    1.2752
    2.6279     .0872     .7850
    2.1375     .0872     .7850
    2.6279     .0872     .7850
    2.1375     .0872     .7850
    2.6279     .0872     .7850
    2.6279     .0872     .7850
    2.6279     .0872     .7850
    2.6279     .0872     .7850
    2.6279     .0872     .7850
    2.1375     .0872     .7850
    2.1375    -.4030     .2948
    2.1375    -.4030     .2948
    2.1375    -.4030     .2948
    2.1375    -.4030     .2948
    2.1375    -.4030     .2948
    2.1375    -.4030     .2948
    2.1375    -.4030     .2948
    2.1375    -.4030     .2948
    2.1375    -.4030     .2948
    2.1375    -.4030     .2948
    2.1375    -.4030     .2948
    2.1375    -.4030     .2948
    2.1375    -.4030     .2948
    2.1375    -.4030     .2948
    2.1375    -.4030     .2948
    2.1375    -.4030     .2948
    2.1375    -.4030     .2948
    2.1375    -.4030     .2948
    2.1375    -.4030     .2948
    2.1375    -.4030     .2948
    2.1375    -.4030     .2948
    2.1375    -.4030     .2948
    2.1375    -.4030     .2948
    2.1375    -.4030     .2948
    2.1375    -.4030     .2948
    2.6279    -.4030     .2948
    2.6279    -.4030     .2948
    2.6279    -.4030     .2948
    2.6279    -.4030     .2948
    2.6279    -.4030     .2948
    2.6279    -.4030     .2948
    2.6279    -.4030     .2948
    2.6279    -.4030    -.1954
    2.6279    -.4030    -.1954
    2.6279    -.4030    -.1954
    2.6279    -.4030    -.1954
    2.6279    -.4030    -.1954
    2.6279    -.4030    -.1954
    2.6279    -.4030    -.1954
    2.6279    -.4030    -.1954
    2.6279    -.4030    -.1954
    2.6279    -.4030    -.1954
    2.6279    -.4030    -.1954
    2.6279    -.4030    -.1954
    2.6279    -.4030    -.1954
    2.6279    -.4030    -.1954
    2.6279     .0872    -.1954
    2.6279    -.4030    -.1954
    2.6279    -.4030    -.1954
    2.6279    -.4030    -.1954
    2.6279    -.4030    -.1954
    2.6279    -.4030    -.1954
    2.6279    -.4030    -.1954
    2.6279    -.4030    -.1954
    2.6279    -.4030    -.1954
    2.6279     .0872    -.1954
    2.6279     .0872    -.1954
    2.6279    -.4030    -.1954
    2.6279     .0872    -.1954
    2.6279    -.4030    -.1954
    2.6279     .0872    -.1954
    2.6279     .0872    -.1954
    2.6279    -.4030    -.1954
    2.6279     .0872    -.1954
    2.6279     .0872    -.1954
    2.6279     .0872    -.1954
    2.6279     .0872    -.1954
    2.6279     .0872    -.6856
    2.6279     .0872    -.6856
    2.6279     .0872    -.6856
    2.6279     .0872    -.6856
    2.6279     .0872    -.1954
    2.6279     .0872    -.6856
    2.6279     .0872    -.6856
    2.6279     .0872    -.6856
    2.6279     .0872    -.6856
    2.6279     .0872    -.6856
    2.6279     .0872    -.6856
    2.6279     .0872    -.1954
    2.6279     .0872    -.1954
    2.6279     .0872    -.1954
    2.6279     .0872    -.1954
    2.6279     .0872    -.1954
    2.6279     .5774    -.1954
    2.6279     .0872    -.1954
    2.6279     .5774    -.1954
    2.6279     .5774    -.1954
    2.6279     .5774    -.1954
    2.6279     .5774    -.1954
    2.6279     .5774    -.1954
    2.6279     .5774    -.1954
    2.6279     .5774    -.1954
    2.6279     .5774    -.1954
    2.6279     .0872    -.1954
    2.6279     .5774    -.1954
    2.6279     .0872    -.1954
    2.6279     .5774    -.1954
    2.1375     .5774    -.1954
    2.1375     .5774    -.1954
    2.1375     .5774    -.1954
    2.1375     .5774    -.1954
    2.1375     .5774    -.1954
    2.1375     .5774    -.1954
    2.1375     .5774    -.1954
    2.1375     .5774    -.1954
    2.1375     .5774    -.1954
    2.1375     .5774    -.1954
    1.6470     .0872    -.1954
    1.6470     .5774    -.1954
    1.6470     .5774    -.1954
    1.6470     .5774    -.1954
    1.6470     .5774    -.1954
    1.6470     .5774    -.1954
    1.6470     .5774    -.1954
    1.6470     .5774    -.1954
    1.1566     .5774    -.1954
    1.1566     .5774    -.1954
    1.1566     .5774    -.1954
    1.1566     .5774    -.1954
    1.1566     .0872    -.1954
    1.1566     .5774    -.1954
    1.1566     .0872    -.1954
    1.1566     .0872    -.1954
     .6661     .0872    -.1954
     .6661     .5774    -.1954
     .6661     .5774    -.1954
     .6661     .0872    -.1954
     .6661     .5774    -.1954
     .6661     .0872    -.1954
     .6661     .5774    -.1954
     .6661     .0872    -.1954
     .6661     .0872    -.1954
     .1757     .0872    -.1954
     .1757     .0872    -.1954
     .1757     .0872    -.1954
     .1757     .0872    -.1954
     .1757     .0872    -.1954
     .1757     .0872    -.1954
     .1757     .0872    -.1954
    -.3148     .0872    -.1954
    -.3148     .0872    -.1954
    -.3148     .0872    -.1954
    -.3148     .0872    -.1954
    -.3148     .0872    -.1954
    -.3148     .0872    -.1954
    -.3148     .0872    -.1954
    -.3148     .0872    -.1954
    -.3148     .0872    -.1954
    -.8050     .0872    -.1954
    -.8050     .0872    -.1954
    -.8050     .0872    -.1954
    -.8050     .0872    -.1954
    -.8050     .0872    -.1954
    -.8050     .0872    -.1954
    -.8050     .0872    -.1954
   -1.2952     .0872    -.1954
   -1.2952     .0872    -.1954
   -1.2952     .0872    -.1954
   -1.2952     .0872    -.1954
   -1.2952     .0872    -.1954
   -1.2952     .0872    -.1954
   -1.2952     .0872    -.1954
   -1.7854     .0872    -.1954
   -1.2952     .0872    -.1954
   -1.7854     .0872    -.1954
   -1.7854     .0872    -.1954
   -1.7854     .0872    -.1954
   -1.7854     .0872    -.1954
   -1.7854     .0872    -.1954
   -1.7854     .0872    -.1954
   -1.7854     .0872    -.1954
   -1.7854     .0872    -.1954
   -2.2756     .0872    -.1954
   -2.2756     .0872    -.1954
   -2.2756     .0872    -.1954
   -2.2756     .0872    -.1954
   -2.2756     .0872    -.1954
   -2.2756     .0872    -.1954
   -2.2756     .0872    -.1954
   -2.2756     .0872    -.1954
   -2.2756     .0872    -.1954
   -2.2756     .0872    -.1954
   -2.7658     .0872    -.1954
   -2.7658     .0872    -.1954
   -2.7658     .0872    -.1954
   -2.7658     .5774    -.1954
   -2.7658     .0872    -.1954
   -2.7658     .0872    -.1954
   -2.7658     .0872    -.1954
   -2.7658     .0872    -.1954
   -3.2560     .0872    -.1954
   -3.2560     .0872    -.1954
   -3.2560     .0872    -.1954
   -3.2560     .0872    -.1954
   -3.2560     .0872    -.1954
   -3.2560     .0872    -.6856
   -3.7462     .0872    -.6856
   -3.7462    -.4030    -.6856
   -3.7462     .0872    -.6856
   -3.7462     .0872    -.6856
   -3.7462    -.4030    -.6856
   -3.7462     .0872    -.6856
   -3.7462     .0872    -.6856
   -3.7462     .0872    -.6856
   -3.7462     .0872    -.6856
   -4.2364     .0872    -.6856
   -3.7462     .0872    -.6856
   -4.2364     .0872    -.6856
   -4.2364     .0872    -.6856
   -4.2364     .0872    -.6856
   -4.2364     .0872    -.6856
   -4.2364     .0872    -.6856
   -4.2364     .0872    -.6856
   -4.2364     .0872    -.6856
   -4.2364     .0872    -.6856
   -4.2364    -.4030    -.6856
   -4.2364     .0872    -.6856
   -4.2364    -.4030    -.6856
   -4.2364     .0872    -.6856
   -4.2364     .0872    -.6856
   -4.2364    -.4030    -.6856
   -4.2364    -.4030    -.6856
   -4.2364    -.4030    -.6856
   -4.2364    -.4030    -.6856
   -4.2364     .0872    -.6856
   -4.2364    -.4030    -.6856
   -4.2364     .0872    -.6856
   -4.2364    -.4030    -.6856
   -4.2364    -.4030    -.6856
   -4.2364    -.4030    -.6856
   -4.2364    -.4030    -.6856
   -4.2364    -.4030    -.6856
   -4.2364    -.4030    -.6856
   -4.2364    -.4030    -.6856
   -4.2364    -.4030    -.6856
   -4.2364    -.4030    -.6856
   -4.2364    -.4030    -.6856
   -4.2364    -.4030    -.6856
   -4.2364    -.4030    -.6856
   -4.2364    -.4030    -.6856
   -4.2364    -.4030    -.6856
   -4.2364    -.4030    -.6856
   -4.2364    -.4030    -.6856
   -4.2364    -.4030    -.6856
   -4.2364    -.4030    -.6856
   -4.2364    -.4030    -.6856
   -4.2364    -.4030    -.6856
   -4.2364    -.4030    -.6856
   -4.2364    -.4030    -.6856
   -4.2364    -.4030    -.6856
   -4.2364    -.4030    -.6856
   -4.2364    -.4030    -.6856
   -3.7462    -.4030   -1.1758
   -3.7462    -.4030    -.6856
   -3.7462    -.4030    -.6856
   -3.7462    -.4030    -.6856
   -3.7462    -.4030    -.6856
   -3.7462    -.4030    -.6856
   -3.7462    -.4030    -.6856
   -3.7462    -.4030    -.6856
   -3.7462    -.4030    -.6856
   -3.7462    -.4030    -.6856
   -3.7462    -.4030    -.6856
   -3.7462    -.4030    -.6856
   -3.2560    -.4030    -.6856
   -3.2560    -.4030    -.6856
   -3.2560    -.4030    -.6856
   -3.2560    -.4030    -.6856
   -3.2560    -.4030    -.6856
   -3.2560    -.4030    -.6856
   -3.2560    -.4030    -.6856
   -3.2560    -.4030    -.6856
   -3.2560    -.4030    -.6856
   -3.2560    -.4030    -.6856
   -2.7658    -.4030    -.1954
   -2.7658    -.4030    -.1954
   -2.7658    -.4030    -.1954
   -2.2756    -.4030    -.1954
   -2.2756     .0872    -.1954
   -2.2756     .0872     .2948
   -2.2756     .0872    -.1954
   -2.2756     .0872    -.1954
   -2.2756     .0872    -.1954
   -1.7854     .0872     .2948
   -1.7854     .0872     .2948
   -1.7854     .0872     .2948
   -1.7854     .0872     .2948
   -1.7854     .0872     .2948
   -1.7854     .0872     .2948
   -1.7854     .0872     .2948
   -1.7854     .0872     .2948
   -1.7854    -.4030     .2948
   -1.2952    -.4030     .2948
   -1.2952    -.4030     .2948
   -1.2952    -.4030     .2948
   -1.2952    -.4030     .2948
   -1.2952    -.4030     .2948
   -1.2952    -.4030     .2948
   -1.2952    -.4030     .2948
    -.8050    -.4030     .2948
    -.8050    -.4030     .2948
    -.8050    -.4030     .2948
    -.8050    -.4030     .2948
    -.8050    -.4030     .2948
    -.8050    -.4030     .7850
    -.3148    -.4030     .7850
    -.3148    -.4030     .7850
    -.3148    -.4030     .2948
    -.3148    -.4030     .7850
    -.3148    -.4030     .7850
    -.3148    -.4030     .7850
    -.3148    -.4030     .7850
    -.3148    -.4030     .7850
     .1757    -.4030     .7850
     .1757    -.4030     .7850
     .1757    -.4030     .7850
     .1757    -.4030     .7850
     .1757    -.4030     .7850
     .1757    -.4030     .7850
     .1757    -.4030     .7850
     .1757    -.4030     .7850
     .6661    -.4030     .7850
     .6661    -.4030     .7850
     .6661    -.4030     .7850
     .6661    -.4030     .7850
     .6661    -.4030     .7850
     .6661    -.4030     .7850
     .6661    -.4030     .7850
    1.1566    -.4030     .7850
    1.1566    -.4030     .7850
    1.1566    -.4030     .7850
    1.1566    -.4030     .7850
    1.1566    -.4030     .7850
    1.1566    -.4030     .7850
    1.1566    -.4030     .7850
    1.1566    -.4030     .7850
    1.1566    -.4030     .7850
    1.1566    -.4030     .7850
    1.1566    -.4030     .7850
    1.6470    -.4030     .7850
    1.6470     .0872     .7850
    1.6470     .0872     .7850
    1.6470    -.4030     .7850
    1.6470     .0872     .7850
    1.6470     .0872     .7850
    1.6470     .0872     .7850
