********************************************************************************
           RED INTERUNIVERSITARIA DE INSTRUMENTACION SISIMICA (RIIS)
 AREA DE ESTRUCTURAS, UNIVERSIDAD AUTONOMA METROPOLITANA - UNIDAD AZCAPOTZALCO
         AV. SAN PABLO 180; COL. REYNOSA TAMAULIPAS; MEXICO D.F. 02200.                                                                               
       TELS: 7235859, 7235856; FAX: 7244285; e-mail: esz@hp9000a1.uam.mx
********************************************************************************
ARCHIVO ESTANDAR DE ACELERACION:
VERSION DEL FORMATO                    : 2.0                 
NOMBRE DEL ARCHIVO                     : Ridx0012.011        
FECHA Y HORA DE CREACION               : Junio,2001          
REF. CATALOGO ACELEROGRAMAS, SMIS 1996 : 


================================================================================
DATOS DE LA ESTACION:
NOMBRE DE LA ESTACION                  : UAM XOCHIMILCO
CLAVE DE LA ESTACION                   : RIDX
LOCALIZACION DE LA ESTACION            : CALZADA DEL HUESO 1100, COLONIA VILLA
                                       : QUIETUD, PLANTEL XOCHIMILCO, FRENTE A
                                       : LA BIBLIOTECA, MEXICO, D.F.
                                       :
                                       :
COORDENADAS DE LA ESTACION             : 19.310 LAT. N 
                                       : 99.100 LONG. W 
ALTITUD (msnm)                         : 2235
TIPO DE SUELO                          : LIMOS Y ARENAS ARCILLOSAS
                                       : 
                                       : 
INSTITUCION RESPONSABLE                : RED INTERUNIVERSITARIA DE
                                       : INSTRUMENTACION SISMICA (RIIS)

================================================================================
DATOS DEL ACELEROGRAFO:
MODELO DEL ACELEROGRAFO                : SSA-2                     
NUMERO DE SERIE DEL ACELEROGRAFO       : 1320                      
NUMERO DE CANALES                      : 3                         
ORIENTACION C1-C6 (rumbo;orientacion)  : /N00E/+V/N90E             
ORIENTACION C7-C12 (rumbo;orientacion) :                           
VEL. DE MUESTREO, C1-C6 (muestras/s)   : /200/200/200              
VEL. DE MUESTREO, C7-C12 (muestras/s)  :                           
ESC. COMPLETA DE SENSORES, C1-C6, (g)  : /1.0/1.0/1.0              
ESC. COMPLETA DE SENSORES, C7-C12, (g) :                           
FREC. NAT. DE SENSORES, C1-C6, (Hz)    : /50.0/50.0/50.0           
FREC. NAT. DE SENSORES, C7-C12, (Hz)   :                           
AMORTIGUAMIENTO DE SENSORES, C1-C6     : /0.7/0.7/0.7              
AMORTIGUAMIENTO DE SENSORES, C7-C12    :                           
INTERVALO DE MUESTREO, C1-C6, (s)      : /0.005/0.005/0.005        
INTERVALO DE MUESTREO, C7-C12, (s)     :                           
UMBRAL DE DISPARO, C1-C6, (Gal)        : /2/2/2                    
UMBRAL DE DISPARO, C7-C12, (Gal)       :                           
MEMORIA DE PREEVENTO (s)               : 15                        
TIEMPO DE POSEVENTO (s)                : 60                        


================================================================================
DATOS DEL SISMO:
FECHA DEL SISMO (GMT)                  : 01/Dic/2000                      
HORA EPICENTRO (GMT)                   : 14:07:44                         
MAGNITUD(ES)                           : /Mw=5.50                         
COORDENADAS DEL EPICENTRO              : 18.20 LAT. N                     
                                       : -102.35 LONG. W                  
PROFUNDIDAD FOCAL (km)                 : 33                               
FUENTES DE LOS DATOS EPICENTRALES      : SSN                              
                                       : INSTITUTO DE GEOFISICA, UNAM     

================================================================================
DATOS DE ESTE REGISTRO:
HORA DE LA PRIMERA MUESTRA (GMT)       : 14:07:44.00
EXACTITUD DEL TIEMPO (s)               : 
DURACION DEL REGISTRO (s), C1-C6       : /69.12/69.12/69.12              
DURACION DEL REGISTRO (s), C7-C12      :                                 
NUM. TOTAL DE MUESTRAS, C1-C6          : /13824/13824/13824              
NUM. TOTAL DE MUESTRAS, C7-C12         :                                 
ACEL. MAX.(Gal), C1-C6                 : /3.39/-1.23/2.24                
ACEL. MAX., C1-C6, EN LA MUESTRA       : /8184/2856/5582                 
ACEL. MAX.(Gal), C7-C12                : 
ACEL. MAX., C7-C12, EN LA MUESTRA      :
UNIDADES DE LOS DATOS                  : Gal 
FACTOR DE DECIMACION                   : 1
FORMATO DATOS (FORTRAN,10 campos/dato) : 3F10.4


================================================================================
CALIDAD DEL ACELEROGRAMA:
REGISTRO DIGITAL COMPLETO, CARECE DE TIEMPO ABSOLUTO.


================================================================================
COMENTARIOS:
CADA UNO DE LOS CANALES SE ENCUENTRA AJUSTADO POR LINEA BASE MEDIANTE LA
SUSTRACCION DEL PROMEDIO DE LAS ACELERACIONES EN EL TIEMPO.











MODELO DEL ACELEROGRAFO : SSA-2 (KINEMETRICS)
================================================================================
DATOS DE ACELERACION:
---------+---------+---------+---------+---------+---------+---------+---------+
   CANAL-1   CANAL-2   CANAL-3   CANAL-4   CANAL-5   CANAL-6   CANAL-7   CANAL-8
      N00E        +V      N90E
---------+---------+---------+---------+---------+---------+---------+---------+
[...]
    1.4310    -.2520     .7722
    1.4310    -.2520     .7722
    1.4310    -.2520     .7722
    1.4310    -.2520     .7722
    1.4310    -.2520     .7722
    1.4310    -.2520     .7722
    1.4310    -.2520     .7722
    1.4310    -.2520     .7722
    1.4310    -.2520     .7722
    1.4310    -.2520     .7722
    1.4310    -.2520     .7722
    1.4310    -.2520     .7722
    1.4310    -.2520     .7722
    1.4310    -.2520     .7722
    1.4310    -.2520     .7722
    1.4310    -.2520     .7722
    1.4310    -.2520     .7722
    1.4310    -.2520     .7722
    1.4310    -.2520     .7722
     .9408    -.2520     .7722
     .9408    -.2520     .7722
     .9408    -.2520     .7722
     .9408    -.2520     .7722
     .9408    -.2520     .7722
     .9408    -.2520     .7722
     .9408    -.2520     .7722
     .9408    -.2520     .7722
     .9408    -.2520     .7722
     .9408    -.2520     .7722
     .9408    -.2520     .7722
     .9408    -.2520     .7722
     .9408    -.2520     .7722
     .9408    -.2520     .7722
     .9408    -.2520     .7722
     .9408    -.2520     .2820
     .9408    -.2520     .2820
     .9408    -.2520     .7722
     .9408    -.2520     .7722
     .9408    -.2520     .2820
     .4506    -.2520     .2820
     .4506    -.2520     .2820
     .4506    -.2520     .2820
     .4506    -.2520     .2820
     .4506    -.2520     .2820
     .4506    -.2520     .2820
     .4506    -.2520     .2820
     .4506    -.2520     .2820
     .4506    -.2520     .2820
    -.0396    -.7420    -.2082
    -.0396    -.7420    -.2082
    -.0396    -.7420    -.2082
    -.0396    -.7420    -.2082
    -.0396    -.7420    -.2082
    -.0396    -.7420    -.2082
    -.0396    -.7420    -.2082
    -.0396    -.7420    -.2082
    -.0396    -.7420    -.2082
    -.0396    -.7420    -.6984
    -.0396    -.7420    -.6984
    -.5298    -.7420    -.6984
    -.5298    -.7420    -.6984
    -.5298    -.7420    -.6984
    -.5298    -.7420    -.6984
    -.5298    -.7420    -.6984
    -.5298    -.7420    -.6984
    -.5298    -.7420    -.6984
    -.5298    -.7420    -.6984
    -.5298    -.7420    -.6984
    -.5298    -.7420    -.6984
    -.5298    -.7420    -.6984
    -.5298    -.7420    -.6984
    -.5298    -.7420    -.6984
    -.5298    -.7420    -.6984
    -.5298    -.7420    -.6984
   -1.0200    -.7420    -.6984
   -1.0200    -.7420    -.6984
   -1.0200    -.7420   -1.1886
   -1.0200    -.7420   -1.1886
   -1.0200    -.7420    -.6984
   -1.0200    -.7420   -1.1886
   -1.0200    -.7420   -1.1886
   -1.0200    -.7420   -1.1886
   -1.0200    -.7420   -1.1886
   -1.0200    -.7420   -1.1886
   -1.0200    -.7420   -1.1886
   -1.0200    -.7420   -1.1886
   -1.0200    -.7420   -1.1886
   -1.0200    -.7420   -1.1886
   -1.5102    -.2520   -1.1886
   -1.5102    -.7420   -1.1886
   -1.0200    -.7420   -1.1886
   -1.5102    -.7420   -1.1886
   -1.5102    -.2520   -1.1886
   -1.5102    -.2520   -1.1886
   -1.5102    -.2520   -1.1886
   -1.5102    -.2520   -1.1886
   -1.5102    -.7420   -1.1886
   -1.5102    -.2520   -1.1886
   -1.5102    -.2520   -1.1886
   -1.5102    -.2520   -1.6788
   -1.5102    -.2520   -1.1886
   -1.5102    -.2520   -1.1886
   -1.5102    -.2520   -1.1886
   -1.5102    -.2520   -1.1886
   -1.5102    -.2520   -1.6788
   -1.5102    -.2520   -1.1886
   -1.5102    -.2520   -1.1886
   -1.5102    -.2520   -1.1886
   -1.5102    -.2520   -1.1886
   -1.5102    -.2520   -1.6788
   -1.5102    -.2520   -1.1886
   -1.5102    -.2520   -1.6788
   -1.5102    -.2520   -1.6788
   -1.5102    -.2520   -1.6788
   -1.5102    -.2520   -1.6788
   -1.5102    -.2520   -1.6788
   -1.5102    -.2520   -1.6788
   -1.5102    -.2520   -1.6788
   -1.5102    -.2520   -1.6788
   -2.0004    -.2520   -1.6788
   -2.0004    -.2520   -1.6788
   -2.0004    -.2520   -1.6788
   -2.0004    -.2520   -1.6788
   -2.0004    -.2520   -1.6788
   -2.0004    -.2520   -1.6788
   -2.0004    -.2520   -1.6788
   -2.0004    -.2520   -1.1886
   -1.5102    -.2520   -1.1886
   -1.5102     .2383   -1.1886
   -2.0004     .2383   -1.1886
   -1.5102     .2383   -1.1886
   -1.5102     .2383   -1.1886
   -1.5102     .2383    -.6984
   -1.5102     .2383    -.6984
   -2.0004     .2383   -1.1886
   -2.0004     .2383   -1.1886
   -2.0004     .2383   -1.1886
   -2.0004     .2383    -.6984
   -2.0004     .2383    -.6984
   -2.0004     .2383   -1.1886
   -2.0004     .2383   -1.1886
   -2.0004     .2383   -1.1886
   -2.0004     .2383   -1.1886
   -2.0004     .2383    -.6984
   -2.0004     .2383   -1.1886
   -2.0004     .2383   -1.1886
   -2.0004     .2383    -.6984
   -2.0004     .2383    -.6984
   -2.0004     .2383    -.6984
   -2.0004     .2383    -.6984
   -2.0004     .2383    -.6984
   -2.0004     .2383    -.6984
   -2.0004     .2383    -.6984
   -2.0004     .2383   -1.1886
   -2.0004     .2383    -.6984
   -2.0004     .2383    -.6984
   -2.0004     .2383    -.6984
   -2.0004     .2383    -.6984
   -2.0004     .7285    -.6984
   -2.0004     .2383    -.6984
   -2.0004     .7285    -.6984
   -2.0004     .2383    -.6984
   -2.0004     .2383    -.6984
   -2.0004     .2383    -.6984
   -2.0004     .2383    -.6984
   -2.0004     .2383    -.6984
   -2.0004     .2383    -.6984
   -2.0004     .2383    -.6984
   -2.0004     .2383    -.6984
   -2.0004     .2383    -.6984
   -2.0004     .2383    -.6984
   -2.0004     .2383    -.6984
   -2.0004     .7285    -.6984
   -2.0004     .2383    -.6984
   -2.0004     .2383    -.2082
   -2.0004     .7285    -.2082
   -2.0004     .2383    -.2082
   -2.0004     .2383    -.2082
   -2.0004     .7285    -.2082
   -2.0004     .7285    -.2082
   -2.0004     .2383    -.2082
   -2.0004     .7285    -.2082
   -2.0004     .7285    -.2082
   -2.0004     .7285    -.2082
   -2.0004     .7285    -.2082
   -2.0004     .7285    -.2082
   -2.0004     .2383    -.2082
   -2.0004     .7285     .2820
   -1.5102     .2383     .2820
   -1.5102     .2383     .2820
   -1.5102     .2383     .2820
   -1.5102     .2383     .2820
   -1.5102     .2383     .2820
   -1.5102     .2383     .2820
   -1.5102     .2383     .2820
   -1.5102     .2383    -.2082
   -1.5102     .2383    -.2082
   -1.5102     .2383     .2820
   -1.5102     .2383     .2820
   -1.5102     .2383     .2820
   -1.5102     .2383     .2820
   -1.5102     .2383     .2820
   -1.5102     .2383     .2820
   -1.5102     .2383     .2820
   -1.5102     .2383     .2820
   -1.5102     .2383     .2820
   -1.0200     .2383     .2820
   -1.0200     .7285     .2820
   -1.0200     .7285     .2820
   -1.0200     .2383     .2820
   -1.0200     .2383     .2820
   -1.0200     .2383     .2820
   -1.0200     .2383     .2820
   -1.0200     .2383     .2820
   -1.0200     .2383     .2820
   -1.0200     .2383     .2820
   -1.0200     .2383     .2820
    -.5298     .2383     .2820
    -.5298     .2383     .2820
    -.5298     .2383     .2820
    -.5298     .2383     .2820
    -.5298     .2383     .2820
    -.5298     .2383     .2820
    -.5298     .2383     .2820
    -.5298     .2383     .2820
    -.5298     .2383     .2820
    -.5298     .2383     .2820
    -.0396     .2383     .2820
    -.0396     .2383     .7722
    -.0396     .2383     .2820
    -.0396     .2383     .7722
    -.0396     .2383     .2820
    -.0396     .2383     .7722
    -.0396     .2383     .7722
    -.0396     .2383     .2820
    -.0396     .2383     .2820
    -.0396    -.2520     .2820
    -.0396     .2383     .2820
    -.0396     .2383     .7722
    -.0396    -.2520     .2820
    -.0396    -.2520     .7722
    -.0396    -.2520     .2820
     .4506    -.2520     .7722
    -.0396    -.2520     .2820
    -.0396    -.2520     .2820
    -.0396    -.2520     .2820
    -.0396    -.2520     .2820
    -.0396    -.2520     .2820
     .4506    -.2520     .2820
     .4506    -.7420     .2820
     .4506    -.2520     .2820
     .4506    -.7420     .2820
     .4506    -.2520     .2820
     .4506    -.7420     .2820
     .4506    -.7420     .2820
     .4506    -.7420     .2820
     .4506    -.7420     .2820
     .9408    -.7420     .2820
     .9408    -.7420     .2820
     .9408    -.7420     .2820
     .9408    -.7420     .2820
     .9408    -.7420     .2820
     .9408    -.7420     .2820
     .9408    -.7420     .2820
     .9408    -.7420     .2820
    1.4310    -.7420     .2820
    1.4310    -.7420     .2820
    1.4310    -.7420     .2820
    1.4310    -.7420     .2820
    1.4310    -.7420     .2820
    1.4310    -.7420     .2820
    1.4310    -.7420     .2820
    1.4310    -.7420     .2820
    1.4310    -.7420     .2820
    1.9212    -.7420     .2820
    1.9212    -.7420     .2820
    1.9212    -.7420     .2820
    1.9212    -.7420     .2820
    1.9212    -.7420     .2820
    1.9212    -.7420     .2820
    1.9212    -.7420     .2820
    1.9212    -.7420     .2820
    1.9212    -.7420     .2820
    1.9212    -.7420     .2820
    2.4114    -.7420     .2820
    2.4114    -.7420     .2820
    2.4114    -.7420     .2820
    2.4114    -.7420     .2820
    2.4114    -.7420     .2820
    2.4114    -.7420     .2820
    2.4114    -.7420     .2820
    2.4114    -.7420     .2820
    2.4114    -.7420     .2820
    2.4114    -.7420     .2820
    2.9016    -.7420     .2820
    2.9016    -.7420     .2820
    2.9016    -.7420     .2820
    2.9016    -.7420     .2820
    2.9016    -.7420     .2820
    2.9016    -.7420     .2820
    2.9016    -.7420     .2820
    2.9016    -.7420     .2820
    2.9016    -.7420     .2820
    2.9016    -.7420     .2820
    2.9016    -.2520     .2820
    2.9016    -.2520     .2820
    2.9016    -.2520     .2820
    2.9016    -.7420     .2820
    2.9016    -.7420     .2820
    2.9016    -.7420     .2820
    2.9016    -.2520     .2820
    2.9016    -.7420     .2820
    2.9016    -.2520     .2820
    2.9016    -.2520     .2820
    2.9016    -.2520     .2820
    2.9016    -.2520     .2820
    2.9016    -.2520     .2820
    2.9016    -.2520     .2820
    2.9016    -.2520     .2820
    2.9016    -.2520     .2820
    2.9016    -.2520     .2820
    2.9016    -.2520     .2820
    2.9016    -.2520     .2820
    2.9016    -.2520     .7722
    2.9016    -.2520     .7722
    3.3919    -.2520     .7722
    2.9016    -.2520     .7722
    3.3919    -.2520     .7722
    2.9016    -.2520     .7722
    2.9016    -.2520     .7722
    2.9016    -.2520     .7722
    2.9016    -.2520     .7722
    2.9016    -.2520     .7722
    2.9016    -.2520     .7722
    2.9016    -.2520    1.2624
    2.9016    -.2520    1.2624
    2.9016    -.2520    1.2624
    2.9016    -.2520    1.2624
    2.9016    -.2520    1.2624
    2.9016    -.2520    1.2624
    2.9016    -.2520    1.2624
    2.9016    -.2520    1.2624
    2.9016    -.2520    1.2624
    2.4114    -.2520     .7722
    2.4114    -.2520     .7722
    2.4114    -.2520     .7722
    2.4114    -.2520     .7722
    2.4114    -.2520     .7722
    2.4114    -.2520     .7722
    2.4114    -.2520     .7722
    2.4114    -.2520    1.2624
    2.4114    -.2520    1.2624
    1.9212    -.2520    1.2624
    1.9212    -.2520    1.2624
    2.4114    -.2520    1.2624
    1.9212    -.2520     .7722
    1.9212    -.2520    1.2624
    1.9212    -.2520    1.2624
    1.9212    -.2520    1.2624
    1.9212    -.7420    1.2624
    1.9212    -.2520    1.2624
    1.9212    -.2520     .7722
    1.9212    -.2520    1.2624
    1.9212    -.2520     .7722
    1.9212    -.2520     .7722
    1.9212    -.2520     .7722
    1.4310    -.2520     .7722
    1.4310    -.2520     .7722
    1.4310    -.7420     .7722
    1.4310    -.2520     .7722
    1.4310    -.2520    1.2624
    1.4310    -.2520     .7722
    1.4310    -.2520     .7722
    1.4310    -.2520     .7722
    1.4310    -.2520     .7722
     .9408    -.2520     .7722
     .9408    -.2520     .7722
     .9408    -.2520     .7722
     .9408    -.7420     .7722
     .9408    -.2520     .7722
     .9408    -.2520     .7722
     .9408    -.2520     .7722
     .9408    -.2520     .7722
     .4506    -.7420     .7722
     .4506    -.2520     .7722
     .4506    -.2520     .7722
     .4506    -.2520     .2820
     .4506    -.2520     .7722
     .4506    -.2520     .2820
     .4506    -.2520     .2820
     .4506    -.2520     .2820
    -.0396    -.2520     .2820
    -.0396    -.2520     .2820
    -.0396    -.2520     .2820
    -.0396    -.2520     .2820
    -.0396    -.2520     .2820
    -.0396    -.2520     .2820
    -.0396    -.2520     .2820
    -.0396    -.2520     .2820
    -.5298    -.2520     .2820
    -.5298    -.2520     .2820
    -.5298    -.2520     .2820
    -.5298    -.2520     .2820
   -1.0200    -.2520     .2820
    -.5298    -.2520     .2820
    -.5298    -.2520     .2820
   -1.0200    -.2520    -.2082
    -.5298    -.2520    -.2082
   -1.0200    -.2520    -.2082
   -1.0200    -.2520    -.2082
   -1.0200    -.2520    -.2082
   -1.0200    -.2520    -.2082
   -1.0200    -.2520    -.2082
   -1.0200    -.2520    -.2082
   -1.0200    -.2520    -.2082
   -1.0200    -.2520    -.2082
   -1.5102    -.2520    -.2082
   -1.5102     .2383    -.2082
   -1.5102    -.2520    -.2082
   -1.5102    -.2520    -.2082
   -1.5102     .2383    -.2082
   -1.5102     .2383    -.2082
   -1.5102     .2383    -.6984
   -1.5102    -.2520    -.6984
   -1.5102     .2383    -.6984
   -1.5102     .2383    -.6984
   -1.5102     .2383    -.6984
   -1.5102     .2383    -.6984
   -1.5102     .2383    -.6984
   -1.5102     .2383    -.6984
   -2.0004     .2383    -.6984
   -2.0004     .2383    -.6984
   -2.0004     .2383    -.6984
   -2.0004    -.2520    -.6984
   -2.0004     .2383    -.6984
   -2.0004     .2383    -.6984
   -2.0004     .2383    -.6984
   -2.0004     .2383    -.6984
   -2.0004     .2383    -.6984
   -2.0004    -.2520   -1.1886
   -2.4907    -.2520   -1.1886
   -2.4907    -.2520   -1.1886
   -2.4907    -.2520   -1.1886
   -2.4907    -.2520   -1.1886
   -2.4907    -.2520   -1.1886
   -2.4907    -.2520   -1.1886
   -2.4907    -.2520   -1.1886
   -2.4907    -.2520   -1.6788
   -2.4907    -.2520   -1.6788
   -2.4907    -.2520   -1.6788
   -2.4907    -.2520   -1.1886
   -2.4907    -.2520   -1.1886
   -2.4907    -.2520   -1.1886
   -2.4907    -.2520   -1.1886
   -2.4907    -.2520   -1.1886
   -2.4907    -.2520   -1.1886
   -2.4907    -.2520   -1.1886
   -2.4907    -.2520   -1.1886
   -2.4907    -.2520   -1.1886
   -2.4907    -.2520   -1.1886
   -2.4907    -.2520   -1.1886
   -2.4907    -.2520   -1.1886
   -2.4907    -.2520   -1.1886
   -2.4907    -.2520   -1.1886
   -2.4907    -.2520   -1.1886
