********************************************************************************
           RED INTERUNIVERSITARIA DE INSTRUMENTACION SISIMICA (RIIS)
 AREA DE ESTRUCTURAS, UNIVERSIDAD AUTONOMA METROPOLITANA - UNIDAD AZCAPOTZALCO
         AV. SAN PABLO 180; COL. REYNOSA TAMAULIPAS; MEXICO D.F. 02200.                                                                               
         TELS:53189455; FAX:53189085; e-mail: tperea@correo.azc.uam.mx
********************************************************************************
ARCHIVO ESTANDAR DE ACELERACION:
VERSION DEL FORMATO                    : 2.0
NOMBRE DEL ARCHIVO                     : RIDX0007.211
FECHA Y HORA DE CREACION               : JULIO, 2002
REF. CATALOGO ACELEROGRAMAS, SMIS 1996 : 


================================================================================
DATOS DE LA ESTACION:
NOMBRE DE LA ESTACION                  : UAM XOCHIMILCO
CLAVE DE LA ESTACION                   : RIDX
LOCALIZACION DE LA ESTACION            : CALZADA DEL HUESO 1100, COLONIA VILLA
                                       : QUIETUD, PLANTEL XOCHIMILCO, FRENTE A
                                       : LA BIBLIOTECA, MEXICO, D.F.
                                       :
                                       :
COORDENADAS DE LA ESTACION             : 19.310 LAT. N 
                                       : 99.100 LONG. W 
ALTITUD (msnm)                         : 2235
TIPO DE SUELO                          : LIMOS Y ARENAS ARCILLOSAS
                                       : 
                                       : 
INSTITUCION RESPONSABLE                : RED INTERUNIVERSITARIA DE
                                       : INSTRUMENTACION SISMICA (RIIS)

================================================================================
DATOS DEL ACELEROGRAFO:
MODELO DEL ACELEROGRAFO                : SSA-2                  
NUMERO DE SERIE DEL ACELEROGRAFO       : 1320                   
NUMERO DE CANALES                      : 3                      
ORIENTACION C1-C6 (rumbo;orientacion)  : /N00E/+V/N90E          
ORIENTACION C7-C12 (rumbo;orientacion) :                        
VEL. DE MUESTREO, C1-C6 (muestras/s)   : /200/200/200           
VEL. DE MUESTREO, C7-C12 (muestras/s)  :                        
ESC. COMPLETA DE SENSORES, C1-C6, (g)  : /1.0/1.0/1.0           
ESC. COMPLETA DE SENSORES, C7-C12, (g) :                        
FREC. NAT. DE SENSORES, C1-C6, (Hz)    : /50.0/50.0/50.0        
FREC. NAT. DE SENSORES, C7-C12, (Hz)   :                        
AMORTIGUAMIENTO DE SENSORES, C1-C6     : /0.7/0.7/0.7           
AMORTIGUAMIENTO DE SENSORES, C7-C12    :                        
INTERVALO DE MUESTREO, C1-C6, (s)      : /0.005/0.005/0.005     
INTERVALO DE MUESTREO, C7-C12, (s)     :                        
UMBRAL DE DISPARO, C1-C6, (Gal)        : /2/2/2                 
UMBRAL DE DISPARO, C7-C12, (Gal)       :                        
MEMORIA DE PREEVENTO (s)               : 15                     
TIEMPO DE POSEVENTO (s)                : 60                     


================================================================================
DATOS DEL SISMO:
FECHA DEL SISMO (GMT)                  : 21/JUL/2000
HORA EPICENTRO (GMT)                   : 06:14:00
MAGNITUD(ES)                           : /Mw=5.9
COORDENADAS DEL EPICENTRO              : 18.41 LAT. N 
                                       : 98.92 LONG. W 
PROFUNDIDAD FOCAL (km)                 : 80 
FUENTES DE LOS DATOS EPICENTRALES      : USGS
                                       : U.S. GEOLOGICAL SURVEY

================================================================================
DATOS DE ESTE REGISTRO:
HORA DE LA PRIMERA MUESTRA (GMT)       : 06:14:00.00
EXACTITUD DEL TIEMPO (s)               : 
DURACION DEL REGISTRO (s), C1-C6       : /134.40/134.40/134.40           
DURACION DEL REGISTRO (s), C7-C12      :                                 
NUM. TOTAL DE MUESTRAS, C1-C6          : /26880/26880/26880              
NUM. TOTAL DE MUESTRAS, C7-C12         :                                 
ACEL. MAX.(Gal), C1-C6                 : /-14.01/-8.75/-14.61            
ACEL. MAX., C1-C6, EN LA MUESTRA       : /6171/2880/7796                 
ACEL. MAX.(Gal), C7-C12                : 
ACEL. MAX., C7-C12, EN LA MUESTRA      : 
UNIDADES DE LOS DATOS                  : Gal 
FACTOR DE DECIMACION                   : 1
FORMATO DATOS (FORTRAN,10 campos/dato) : 3F10.4


================================================================================
CALIDAD DEL ACELEROGRAMA:
REGISTRO DIGITAL COMPLETO, CARECE DE TIEMPO ABSOLUTO.


================================================================================
COMENTARIOS:
CADA UNO DE LOS CANALES SE ENCUENTRA AJUSTADO POR LINEA BASE MEDIANTE LA
SUSTRACCION DEL PROMEDIO DE LAS ACELERACIONES EN EL TIEMPO.











MODELO DEL ACELEROGRAFO : SSA-2 (KINEMETRICS)
================================================================================
DATOS DE ACELERACION:
---------+---------+---------+---------+---------+---------+---------+---------+
   CANAL-1   CANAL-2   CANAL-3   CANAL-4   CANAL-5   CANAL-6   CANAL-7   CANAL-8
      N00E        +V      N90E
---------+---------+---------+---------+---------+---------+---------+---------+
[...]
   -1.7624    1.0458   12.3502
   -1.7624     .5556   12.3502
   -1.2722     .0654   12.3502
   -1.2722     .0654   12.3502
    -.7820    -.4248   12.3502
    -.7820    -.4248   12.3502
    -.2918    -.4248   12.3502
    -.2918    -.9150   11.8597
     .1984    -.9150   11.8597
     .6886    -.9150   11.8597
    1.1788   -1.4053   11.3693
    1.6691   -1.4053   10.8788
    2.1595   -1.4053    9.8979
    2.6500    -.9150    9.4075
    3.1404    -.9150    8.9170
    3.6309    -.9150    7.9361
    4.1213    -.9150    6.9552
    4.1213    -.9150    5.9743
    4.6118    -.9150    4.9934
    5.1022    -.9150    4.0125
    5.5926   -1.4053    3.0316
    5.5926   -1.4053    2.0510
    5.5926   -1.4053    1.0706
    6.0831   -1.4053     .0901
    6.0831   -1.4053    -.8903
    6.0831    -.9150   -1.8707
    6.0831    -.4248   -2.3609
    6.0831    -.4248   -3.3413
    5.5926     .0654   -3.8315
    5.5926     .0654   -4.3217
    5.1022     .5556   -4.8120
    5.1022     .5556   -5.3022
    4.6118     .5556   -5.7924
    4.1213     .5556   -5.7924
    4.1213     .5556   -6.2826
    3.6309     .5556   -6.2826
    3.1404     .0654   -6.2826
    2.6500     .5556   -6.2826
    2.1595     .0654   -6.2826
    1.6691     .0654   -6.2826
    1.1788     .0654   -6.2826
     .6886     .0654   -6.2826
     .1984     .5556   -6.2826
     .1984     .5556   -6.2826
    -.2918     .5556   -6.7728
    -.7820    1.0458   -6.2826
    -.7820    1.0458   -6.2826
   -1.2722    1.0458   -6.2826
   -1.7624     .5556   -6.2826
   -1.7624     .5556   -6.2826
   -2.2526     .0654   -6.2826
   -2.2526     .0654   -6.2826
   -2.2526     .0654   -6.2826
   -2.2526    -.4248   -5.7924
   -2.2526    -.4248   -5.7924
   -1.7624    -.4248   -5.3022
   -1.7624    -.4248   -5.3022
   -1.7624    -.4248   -4.8120
   -1.2722     .0654   -4.3217
    -.7820     .0654   -3.8315
    -.7820     .5556   -3.3413
    -.2918     .5556   -2.8511
     .1984     .5556   -2.3609
     .6886     .5556   -1.3805
    1.1788     .5556    -.8903
    1.6691     .5556    -.4001
    2.6500     .5556     .5803
    3.1404     .5556    1.0706
    3.6309     .5556    2.0510
    4.6118     .5556    3.0316
    5.1022     .5556    3.5221
    6.0831    1.0458    4.0125
    6.5736    1.0458    4.5030
    7.0640    1.0458    4.9934
    7.5544    1.0458    5.4839
    8.0449    1.0458    5.9743
    8.0449    1.0458    6.4648
    8.5353    1.0458    6.9552
    8.5353     .5556    6.9552
    9.0258     .5556    7.4457
    9.0258     .0654    7.4457
    9.0258     .0654    7.4457
    9.0258    -.4248    7.4457
    9.0258    -.4248    6.9552
    9.0258    -.9150    6.9552
    8.5353    -.9150    6.9552
    8.5353    -.9150    6.4648
    8.0449    -.9150    6.4648
    8.0449    -.9150    5.9743
    7.5544    -.9150    5.9743
    7.0640    -.4248    5.4839
    7.0640    -.4248    5.4839
    6.5736    -.4248    4.9934
    6.0831    -.4248    4.9934
    5.5926    -.4248    4.5030
    5.5926    -.4248    4.5030
    5.1022     .0654    4.0125
    4.6118     .0654    4.0125
    4.1213     .0654    4.0125
    4.1213     .0654    4.0125
    3.6309     .0654    3.5221
    3.1404     .0654    3.5221
    3.1404     .0654    3.5221
    2.6500     .0654    3.0316
    2.1595    -.4248    3.0316
    2.1595    -.4248    3.0316
    1.6691    -.4248    3.0316
    1.1788    -.9150    2.5412
    1.1788    -.9150    2.5412
     .6886    -.9150    2.5412
     .1984   -1.4053    1.5608
     .1984   -1.4053    1.5608
    -.2918   -1.4053    1.0706
    -.2918   -1.8954    1.0706
    -.7820   -1.8954    1.0706
   -1.2722   -1.8954     .5803
   -1.2722   -1.8954     .0901
   -1.7624   -1.8954    -.4001
   -1.7624   -1.8954    -.4001
   -1.7624   -1.8954    -.4001
   -1.7624   -1.8954    -.8903
   -1.7624   -1.8954    -.8903
   -1.7624   -1.8954    -.8903
   -1.7624   -1.8954   -1.3805
   -1.7624   -1.4053    -.8903
   -1.7624   -1.8954   -1.3805
   -1.7624   -1.4053   -1.3805
   -1.2722   -1.4053    -.8903
   -1.2722   -1.4053    -.8903
   -1.2722   -1.4053    -.4001
    -.7820   -1.4053    -.4001
    -.7820    -.9150    -.4001
    -.7820    -.9150    -.4001
    -.7820    -.9150    -.4001
    -.7820    -.9150    -.4001
    -.7820    -.9150    -.4001
    -.7820    -.4248    -.4001
    -.7820    -.4248    -.8903
    -.7820    -.4248    -.8903
    -.7820    -.4248    -.8903
    -.7820    -.4248    -.8903
    -.7820    -.4248    -.8903
    -.7820    -.4248    -.8903
    -.7820    -.9150   -1.3805
    -.7820    -.9150   -1.3805
   -1.2722    -.9150   -1.3805
   -1.2722    -.9150   -1.3805
   -1.2722   -1.4053   -1.3805
   -1.2722   -1.4053   -1.3805
   -1.7624   -1.4053    -.8903
   -1.7624   -1.4053    -.8903
   -1.7624   -1.4053    -.8903
   -2.2526   -1.4053    -.4001
   -2.2526   -1.4053     .0901
   -2.2526    -.9150     .0901
   -2.7428    -.9150     .5803
   -2.7428    -.9150    1.0706
   -3.2330    -.4248    1.5608
   -3.2330    -.4248    2.5412
   -3.7232    -.4248    3.0316
   -3.7232    -.4248    3.5221
   -4.2135    -.4248    4.0125
   -4.7037    -.4248    4.9934
   -4.7037    -.4248    5.4839
   -5.1939     .0654    5.9743
   -5.6841     .0654    6.4648
   -5.6841     .0654    6.9552
   -6.1743     .0654    7.4457
   -6.6645     .5556    7.9361
   -6.6645     .5556    7.9361
   -7.1547     .5556    8.4266
   -7.6449     .5556    8.4266
   -7.6449    1.0458    8.4266
   -8.1351    1.0458    8.4266
   -8.1351    1.0458    8.4266
   -8.6254    1.5360    8.4266
   -8.6254    1.5360    7.9361
   -8.6254    1.5360    7.9361
   -8.6254    2.0262    7.4457
   -8.6254    2.0262    6.9552
   -8.6254    2.5165    6.4648
   -8.6254    2.5165    5.9743
   -8.6254    3.0067    4.9934
   -8.6254    3.0067    4.5030
   -8.6254    3.4969    4.0125
   -8.6254    3.9871    3.5221
   -8.6254    3.9871    3.0316
   -8.6254    4.4773    2.5412
   -8.1351    4.4773    2.0510
   -8.1351    4.4773    1.5608
   -8.1351    4.4773    1.5608
   -7.6449    4.4773    1.0706
   -7.6449    4.4773    1.0706
   -7.1547    3.9871    1.0706
   -7.1547    3.9871     .5803
   -6.6645    3.4969     .5803
   -6.1743    3.4969     .5803
   -5.6841    3.0067     .5803
   -5.1939    3.0067     .5803
   -5.1939    3.0067    1.0706
   -4.7037    2.5165    1.0706
   -4.2135    2.5165    1.0706
   -3.7232    2.5165    1.0706
   -3.2330    2.5165    1.5608
   -2.7428    3.0067    2.0510
   -2.2526    3.0067    2.0510
   -1.7624    3.0067    2.5412
   -1.2722    3.0067    2.5412
    -.7820    2.5165    3.0316
    -.2918    2.5165    3.0316
     .1984    2.5165    3.5221
     .1984    2.0262    3.5221
     .6886    2.0262    4.0125
     .6886    2.0262    4.0125
     .6886    2.0262    4.5030
    1.1788    1.5360    4.5030
    1.1788    1.5360    4.9934
    1.1788    1.5360    4.9934
    1.1788    1.5360    4.9934
     .6886    1.5360    5.4839
     .6886    1.0458    5.4839
     .6886    1.0458    5.4839
     .6886     .5556    5.4839
     .6886     .5556    5.9743
     .6886     .0654    5.9743
     .6886     .0654    5.9743
     .6886    -.4248    5.9743
     .6886    -.9150    5.9743
    1.1788    -.9150    5.9743
    1.6691    -.9150    5.4839
    1.6691   -1.4053    5.4839
    2.1595   -1.8954    5.4839
    2.6500   -2.3857    4.9934
    3.1404   -2.3857    4.9934
    4.1213   -2.8758    4.5030
    4.1213   -3.3661    4.0125
    5.1022   -3.3661    3.5221
    5.5926   -3.3661    3.5221
    6.0831   -3.8562    3.0316
    6.5736   -3.8562    3.0316
    7.0640   -3.8562    2.0510
    7.5544   -3.8562    2.0510
    8.0449   -3.3661    1.5608
    8.5353   -3.3661    1.0706
    8.5353   -3.3661     .0901
    8.5353   -2.8758    -.4001
    8.5353   -2.8758    -.4001
    8.5353   -2.3857    -.8903
    8.5353   -2.3857   -1.3805
    8.5353   -1.8954   -1.8707
    8.5353   -1.8954   -2.3609
    8.5353   -1.4053   -2.8511
    8.5353   -1.8954   -3.3413
    8.5353   -1.8954   -3.8315
    8.0449   -1.8954   -4.3217
    8.0449   -1.8954   -4.3217
    7.5544   -1.8954   -4.8120
    7.5544   -1.8954   -5.3022
    7.5544   -1.8954   -5.7924
    7.0640   -1.8954   -5.7924
    7.0640   -1.8954   -6.7728
    7.0640   -1.4053   -6.7728
    6.5736   -1.4053   -7.2630
    6.5736    -.9150   -7.7533
    6.5736    -.4248   -7.7533
    6.5736    -.4248   -8.2434
    6.0831     .0654   -8.2434
    6.0831     .5556   -8.2434
    6.0831     .5556   -7.7533
    6.0831    1.0458   -7.7533
    5.5926    1.0458   -7.2630
    5.5926    1.0458   -6.7728
    5.5926     .5556   -6.2826
    5.1022     .5556   -5.7924
    5.1022     .5556   -5.3022
    4.6118     .0654   -4.8120
    4.6118     .0654   -3.8315
    4.1213    -.4248   -3.3413
    4.1213    -.4248   -2.8511
    3.6309    -.4248   -1.8707
    3.6309    -.4248   -1.3805
    3.1404    -.9150    -.4001
    3.1404    -.9150     .0901
    3.1404   -1.4053    1.0706
    2.6500   -1.8954    1.5608
    2.6500   -1.8954    2.0510
    3.1404   -1.8954    3.0316
    3.1404   -2.3857    3.0316
    3.1404   -2.3857    3.5221
    3.1404   -2.3857    4.0125
    3.1404   -1.8954    4.5030
    3.6309   -1.8954    4.9934
    3.6309   -1.8954    4.9934
    4.1213   -1.4053    4.9934
    4.1213   -1.8954    5.4839
    4.1213   -1.8954    5.4839
    4.6118   -1.8954    5.4839
    5.1022   -2.3857    5.4839
    5.1022   -2.3857    5.4839
    5.1022   -2.8758    5.4839
    5.5926   -2.8758    5.4839
    5.5926   -3.3661    4.9934
    5.5926   -3.8562    4.9934
    5.5926   -3.8562    4.5030
    5.5926   -3.8562    4.0125
    5.5926   -4.3464    3.5221
    5.5926   -4.3464    3.5221
    5.5926   -4.3464    2.5412
    5.1022   -4.3464    2.0510
    5.1022   -4.8367    1.5608
    5.1022   -4.8367    1.0706
    5.1022   -5.3269     .0901
    4.6118   -5.3269    -.4001
    4.6118   -5.3269   -1.3805
    4.1213   -5.8172   -1.8707
    4.1213   -5.3269   -2.8511
    3.6309   -5.3269   -3.8315
    3.6309   -5.3269   -4.8120
    3.1404   -4.8367   -5.7924
    3.1404   -4.3464   -6.7728
    2.6500   -3.8562   -7.7533
    2.6500   -3.3661   -8.7337
    2.1595   -2.8758   -9.7141
    2.1595   -1.8954  -10.2042
    1.6691   -1.4053  -11.1847
    1.6691    -.9150  -11.6749
    1.1788    -.4248  -12.1652
     .6886    -.4248  -12.6553
     .6886    -.4248  -13.1456
     .1984     .0654  -13.6357
    -.2918     .0654  -14.1259
    -.2918     .0654  -14.6161
    -.7820     .0654  -14.6161
   -1.2722     .0654  -14.6161
   -1.7624     .0654  -14.6161
   -2.2526     .0654  -14.6161
   -2.2526     .5556  -14.6161
   -2.7428     .5556  -14.6161
   -3.2330     .5556  -14.1259
   -3.7232     .5556  -14.1259
   -4.2135     .5556  -13.6357
   -4.2135     .5556  -13.1456
   -4.7037     .5556  -13.1456
   -5.1939     .5556  -12.6553
   -5.6841     .5556  -12.1652
   -5.6841     .5556  -11.6749
   -5.6841     .5556  -11.1847
   -6.1743     .5556  -10.6944
   -6.1743    1.0458  -10.6944
   -6.1743    1.0458  -10.2042
   -6.1743    1.0458   -9.7141
   -6.6645    1.0458   -9.2238
   -6.1743    1.0458   -8.7337
   -6.1743    1.0458   -8.2434
   -6.1743    1.0458   -7.7533
   -6.1743    1.0458   -7.2630
   -5.6841     .5556   -7.2630
   -5.6841     .0654   -6.7728
   -5.1939     .0654   -6.2826
   -4.7037    -.4248   -5.7924
   -4.7037    -.4248   -5.3022
   -4.2135    -.4248   -5.3022
   -3.7232    -.4248   -4.8120
   -3.7232    -.4248   -4.8120
   -3.7232    -.4248   -4.3217
   -3.2330     .0654   -4.3217
   -3.2330     .5556   -4.3217
   -3.2330     .5556   -3.8315
   -2.7428     .5556   -3.8315
   -2.7428    1.0458   -3.3413
   -2.7428    1.0458   -3.3413
   -2.7428     .5556   -3.3413
   -2.7428     .5556   -2.8511
   -2.7428     .5556   -2.8511
   -2.7428     .0654   -2.8511
   -2.7428     .0654   -2.3609
   -2.7428     .0654   -2.3609
   -2.7428    -.4248   -2.3609
   -3.2330    -.4248   -1.8707
   -3.2330    -.4248   -1.8707
   -3.2330    -.4248   -1.3805
   -3.2330    -.4248   -1.3805
   -3.7232    -.4248    -.8903
   -3.7232    -.4248    -.8903
   -3.7232    -.4248    -.4001
   -3.7232    -.4248    -.4001
   -3.7232    -.4248     .0901
   -3.7232     .0654     .5803
   -3.7232     .0654    1.0706
   -3.7232     .0654    1.0706
   -3.2330     .0654    1.5608
   -3.2330     .0654    2.0510
   -3.2330     .5556    2.5412
   -2.7428     .5556    2.5412
   -2.7428     .5556    3.0316
   -2.2526     .0654    3.0316
   -2.2526     .0654    3.5221
   -2.2526     .0654    3.5221
   -1.7624    -.4248    4.0125
   -1.7624    -.4248    4.0125
   -1.2722    -.4248    4.0125
   -1.2722    -.4248    4.0125
    -.7820    -.9150    4.0125
    -.7820    -.4248    3.5221
    -.2918    -.4248    3.5221
     .1984    -.4248    3.0316
     .1984    -.4248    3.0316
     .6886    -.4248    2.5412
     .6886     .0654    2.0510
     .6886    -.4248    1.5608
    1.1788    -.4248    1.0706
    1.6691     .0654     .5803
    1.6691     .0654     .0901
    2.1595     .0654    -.4001
    2.1595     .0654   -1.3805
    2.1595     .0654   -1.8707
    2.6500     .5556   -2.3609
    2.6500    1.0458   -2.8511
    2.6500    1.0458   -3.8315
    3.1404    1.5360   -4.3217
    3.1404    1.5360   -4.8120
    3.6309    1.5360   -5.3022
    3.6309    2.0262   -5.3022
    3.6309    2.0262   -5.7924
    3.6309    2.0262   -5.7924
    4.1213    2.0262   -6.2826
    4.1213    2.0262   -6.2826
    4.1213    2.0262   -6.2826
    4.1213    2.0262   -6.2826
    4.1213    1.5360   -6.2826
    4.1213    1.5360   -6.2826
    4.1213    1.5360   -6.2826
    4.1213    1.0458   -6.2826
    4.1213    1.0458   -6.2826
    4.1213    1.0458   -5.7924
    3.6309    1.0458   -5.7924
    3.6309    1.0458   -5.7924
    3.6309    1.0458   -5.7924
    3.1404    1.5360   -5.7924
    3.1404    1.5360   -5.7924
    2.6500    1.0458   -5.7924
    2.1595    1.0458   -6.2826
    1.6691     .5556   -6.2826
    1.6691     .5556   -6.2826
    1.1788     .5556   -6.2826
     .6886     .5556   -5.7924
     .1984     .5556   -5.7924
    -.2918     .0654   -5.3022
    -.7820     .0654   -4.8120
   -1.2722     .0654   -4.8120
   -1.7624     .0654   -4.3217
   -1.7624     .5556   -4.3217
   -2.2526     .5556   -4.3217
   -2.7428     .5556   -3.3413
   -3.2330     .5556   -2.8511
   -4.2135    1.0458   -2.3609
   -4.2135    1.0458   -1.8707
   -4.7037    1.0458   -1.3805
   -5.1939    1.0458    -.4001
   -5.6841    1.0458     .0901
   -5.6841     .5556     .5803
   -5.6841     .5556    1.5608
   -6.1743     .5556    2.0510
   -6.1743     .5556    2.5412
   -6.1743     .0654    3.0316
   -6.1743     .0654    4.0125
   -6.1743     .0654    4.0125
   -6.1743     .5556    4.5030
   -5.6841     .5556    4.9934
   -5.6841     .5556    4.9934
   -5.1939     .5556    5.4839
   -4.7037     .5556    5.4839
   -4.2135     .0654    5.4839
   -3.7232     .0654    5.4839
