********************************************************************************
           RED INTERUNIVERSITARIA DE INSTRUMENTACION SISIMICA (RIIS)
 AREA DE ESTRUCTURAS, UNIVERSIDAD AUTONOMA METROPOLITANA - UNIDAD AZCAPOTZALCO
         AV. SAN PABLO 180; COL. REYNOSA TAMAULIPAS; MEXICO D.F. 02200.                                                                               
       TELS: 7235859, 7235856; FAX: 7244285; e-mail: jac@hp9000a1.uam.mx
********************************************************************************
ARCHIVO ESTANDAR DE ACELERACION:
VERSION DEL FORMATO                    : 2.0
NOMBRE DEL ARCHIVO                     : RIDA9701.111
FECHA Y HORA DE CREACION               : 11 de enero 1997 /15:39
REF. CATALOGO ACELEROGRAMAS, SMIS 1996 : REGISTRO No.      /PAG.


================================================================================
DATOS DE LA ESTACION:
NOMBRE DE LA ESTACION                  : UAM AZCAPOTZALCO
CLAVE DE LA ESTACION                   : RIDA
LOCALIZACION DE LA ESTACION            : AVENIDA SAN PABLO Y EJE 5, COLONIA
                                       : REYNOSA, PLANTEL AZCAPOTZALCO, JARDIN
                                       : ENTRE EDIFICIO "H" Y "E", MEXICO, D.F.
                                       :
                                       :
COORDENADAS DE LA ESTACION             : 19.5200 LAT. N 
                                       : 99.1900 LONG. W 
ALTITUD (msnm)                         : 2240
TIPO DE SUELO                          : LIMO ARENOSO
                                       : 
                                       : 
INSTITUCION RESPONSABLE                : RED INTERUNIVERSITARIA DE 
                                       : INSTRUMENTACION SISMICA (RIIS)

================================================================================
DATOS DEL ACELEROGRAFO:
MODELO DEL ACELEROGRAFO                : SSA-2
NUMERO DE SERIE DEL ACELEROGRAFO       : 1561
NUMERO DE CANALES                      : 3
ORIENTACION C1-C6 (rumbo;orientacion)  : /N00E/+V/N90E
ORIENTACION C7-C12 (rumbo;orientacion) :
VEL. DE MUESTREO, C1-C6 (muestras/s)   : /200/200/200
VEL. DE MUESTREO, C7-C12 (muestras/s)  :
ESC. COMPLETA DE SENSORES, C1-C6, (g)  : /+1.0/+1.0/+1.0
ESC. COMPLETA DE SENSORES, C7-C12, (g) :
FREC. NAT. DE SENSORES, C1-C6, (Hz)    : /50.0/50.0/50.0
FREC. NAT. DE SENSORES, C7-C12, (Hz)   :
AMORTIGUAMIENTO DE SENSORES, C1-C6     : /0.7/0.7/0.7
AMORTIGUAMIENTO DE SENSORES, C7-C12    :
INTERVALO DE MUESTREO, C1-C6, (s)      : /0.005/0.005/0.005
INTERVALO DE MUESTREO, C7-C12, (s)     :
UMBRAL DE DISPARO, C1-C6, (Gal)        : /3/3/3
UMBRAL DE DISPARO, C7-C12, (Gal)       :
MEMORIA DE PREEVENTO (s)               : 15.36
TIEMPO DE POSEVENTO (s)                : 60


================================================================================
DATOS DEL SISMO:
FECHA DEL SISMO (GMT)                  : 11/ENE/97
HORA EPICENTRO (GMT)                   : 20:28
MAGNITUD(ES)                           : /Ms=6.90/Mw=7.10
COORDENADAS DEL EPICENTRO              : 18.220 LAT. N 
                                       : 102.76 LONG. W 
PROFUNDIDAD FOCAL (km)                 : 33 
FUENTE DE LOS DATOS EPICENTRALES       : USGS
                                       :

================================================================================
DATOS DE ESTE REGISTRO:
HORA DE LA PRIMERA MUESTRA (GMT)       : 20:28:00.00
EXACTITUD DEL TIEMPO (s)               : CARECE DE TIEMPO ABSOLUTO
DURACION DEL REGISTRO (s), C1-C6       : /129.28/129.28/129.28
DURACION DEL REGISTRO (s), C7-C12      :
NUM. TOTAL DE MUESTRAS, C1-C6          : /25856/25856/25856
NUM. TOTAL DE MUESTRAS, C7-C12         :
ACEL. MAX. (Gal), C1-C6                : /-10.87/2.89/-7.82
ACEL. MAX., C1-C6, EN LA MUESTRA       : /5683/4094/4635
ACEL. MAX. (Gal), C7-C12               :
ACEL. MAX., C7-C12, EN LA MUESTRA      :
UNIDADES DE LOS DATOS                  : Gal 
FACTOR DE DECIMACION                   : 1
FORMATO DATOS (FORTRAN,10 campos/dato) : 3F10.2


================================================================================
CALIDAD DEL ACELEROGRAMA:
REGISTRO DIGITAL COMPLETO, CARECE DE TIEMPO ABSOLUTO.


================================================================================
COMENTARIOS:
CADA UNO DE LOS CANALES SE ENCUENTRA AJUSTADO POR LINEA BASE MEDIANTE LA
SUSTRACCION DEL PROMEDIO DE LAS ACELERACIONES EN EL TIEMPO.












================================================================================
DATOS DE ACELERACION:
---------+---------+---------+---------+---------+---------+---------+---------+
   CANAL-1   CANAL-2   CANAL-3   CANAL-4   CANAL-5   CANAL-6   CANAL-7   CANAL-8
      N00E        +V      N90E
---------+---------+---------+---------+---------+---------+---------+---------+
[...]
     -2.57      -.53      1.46
     -2.08      -.04      1.46
     -2.08      -.04      1.46
     -2.08      -.04      1.94
     -1.59      -.04      1.94
     -1.59      -.04      1.94
     -1.10      -.04      1.94
     -1.10      -.04      1.94
      -.62      -.04      1.94
      -.62      -.53      1.94
      -.13      -.53      1.94
       .36      -.53      1.94
       .85      -.53      1.94
       .85      -.53      1.94
      1.34      -.53      1.94
      1.82      -.53      1.94
      2.31      -.53      1.94
      2.80      -.53      1.94
      3.29      -.53      1.94
      3.78      -.53      2.43
      3.78      -.53      2.43
      4.26      -.53      2.43
      4.26      -.53      2.43
      4.75      -.53      2.43
      4.75      -.53      2.43
      4.75      -.53      2.43
      5.24      -.53      1.94
      5.24      -.53      1.94
      5.73      -.53      1.94
      5.73      -.53      1.94
      5.73      -.53      1.94
      6.22      -.04      1.94
      6.22      -.04      1.94
      6.71      -.04      1.94
      6.71      -.04      1.94
      7.19      -.04      1.94
      7.19       .45      1.94
      7.19      -.04      1.94
      7.68       .45      1.94
      7.68       .45      1.94
      7.68       .45      1.94
      7.68      -.04      1.94
      7.68      -.04      1.94
      7.68      -.04      2.43
      7.68      -.04      1.94
      7.68      -.04      1.94
      7.68      -.04      1.94
      7.19      -.04      1.94
      7.19      -.53      1.94
      7.19      -.53      1.94
      6.71      -.53      1.94
      6.71      -.53      1.94
      6.22      -.53      1.46
      6.22      -.53      1.46
      5.73      -.53       .97
      5.24     -1.02       .97
      4.75      -.53       .48
      4.75      -.53      -.01
      4.26      -.53      -.01
      3.78      -.53      -.50
      3.78      -.53      -.50
      3.29      -.53      -.98
      3.29      -.04     -1.47
      2.80      -.04     -1.47
      2.31      -.04     -1.96
      2.31      -.04     -1.96
      1.82      -.04     -2.45
      1.82      -.53     -2.45
      1.34      -.53     -2.45
       .85      -.53     -2.94
       .85      -.53     -2.94
       .36      -.53     -3.43
       .36      -.53     -3.43
      -.13      -.53     -3.91
      -.13      -.53     -3.91
      -.13      -.53     -4.40
      -.62      -.53     -4.40
      -.62      -.53     -4.89
     -1.10     -1.02     -4.89
     -1.59     -1.02     -5.38
     -1.59     -1.02     -5.38
     -2.08     -1.02     -5.38
     -2.08     -1.02     -5.87
     -2.08     -1.02     -5.87
     -2.57     -1.50     -5.87
     -2.57     -1.50     -5.87
     -2.57     -1.50     -5.87
     -3.06     -1.50     -5.87
     -3.06     -1.50     -5.87
     -3.06     -1.50     -5.87
     -3.06     -1.50     -5.87
     -3.06     -1.50     -5.87
     -3.06     -1.50     -5.38
     -3.06     -1.50     -5.38
     -2.57     -1.50     -5.38
     -3.06     -1.02     -5.38
     -2.57     -1.02     -5.38
     -2.57     -1.02     -5.38
     -2.57     -1.02     -5.38
     -2.57      -.53     -5.38
     -2.08      -.53     -4.89
     -2.08      -.53     -4.89
     -2.08      -.53     -4.89
     -2.08      -.04     -4.40
     -2.08      -.04     -4.40
     -1.59      -.04     -3.91
     -1.59      -.04     -3.91
     -1.59      -.04     -3.91
     -1.59      -.04     -3.43
     -1.59      -.04     -2.94
     -1.59      -.04     -2.45
     -1.59      -.04     -2.45
     -1.59      -.53     -1.96
     -1.59      -.53     -1.47
     -1.59      -.53     -1.47
     -1.59      -.53      -.98
     -1.10      -.53      -.50
     -1.10      -.53      -.01
     -1.10      -.04       .48
     -1.10      -.04       .97
     -1.10      -.04      1.46
     -1.10      -.04      1.94
      -.62      -.04      1.94
      -.62       .45      2.43
      -.62       .45      2.43
      -.13       .45      2.92
      -.13       .45      2.92
      -.13       .45      3.41
       .36       .45      3.41
       .36       .45      3.90
       .85       .45      3.90
       .85       .94      3.90
       .85       .94      4.39
      1.34       .94      4.39
      1.34       .45      4.87
      1.34       .45      4.87
      1.82       .45      5.36
      1.82       .45      5.36
      1.82       .45      5.36
      1.82       .45      5.85
      2.31       .45      5.85
      2.31       .45      5.85
      2.31       .45      5.85
      2.31       .45      6.34
      1.82       .45      6.34
      2.31       .45      6.34
      2.31       .45      6.34
      2.31       .45      6.83
      2.31       .45      6.83
      2.31       .45      6.83
      1.82       .45      6.83
      1.82       .45      6.83
      1.82       .45      6.34
      1.34       .45      6.34
      1.34       .45      6.34
      1.34       .45      5.85
      1.34       .45      5.85
      1.34       .45      5.85
      1.34       .45      5.36
       .85       .45      5.36
       .85       .45      4.87
       .85       .45      4.39
       .85       .45      4.39
       .85       .45      3.90
       .36      -.04      3.90
       .36      -.04      3.41
       .36      -.04      3.41
       .36      -.04      3.41
       .36      -.04      2.92
       .36      -.04      2.92
       .36      -.04      2.92
      -.13      -.04      2.92
      -.13      -.04      2.43
      -.13      -.53      2.43
      -.13      -.53      1.94
      -.13      -.53      1.94
      -.13      -.53      1.46
      -.13      -.53       .97
      -.13      -.53       .48
      -.13      -.53       .48
      -.62      -.53      -.01
      -.62      -.53      -.50
      -.62      -.53      -.98
     -1.10      -.53     -1.47
     -1.10      -.53     -1.96
     -1.10      -.53     -2.45
     -1.10      -.53     -3.43
     -1.10      -.53     -3.43
     -1.10      -.53     -3.91
     -1.10      -.04     -3.91
     -1.10      -.04     -4.40
     -1.10      -.04     -4.89
     -1.10      -.04     -4.89
     -1.10      -.04     -5.38
     -1.59      -.04     -5.38
     -1.59      -.04     -5.87
     -1.59       .45     -5.87
     -1.59       .45     -5.87
     -1.59       .45     -6.36
     -1.59       .45     -6.36
     -2.08       .45     -6.36
     -2.08       .45     -6.84
     -2.08       .45     -6.84
     -2.57       .45     -6.84
     -2.57       .45     -7.33
     -2.57       .45     -7.33
     -3.06       .45     -7.82
     -3.06       .94     -7.33
     -3.54       .94     -7.82
     -3.54       .94     -7.82
     -3.54       .94     -7.33
     -4.03      1.43     -7.33
     -3.54      1.43     -7.33
     -3.54      1.43     -7.33
     -3.54      1.91     -6.84
     -3.54      1.91     -6.84
     -3.54      1.91     -6.84
     -3.06      1.91     -6.84
     -3.06      1.91     -6.84
     -2.57      2.40     -6.84
     -2.08      2.40     -6.36
     -2.08      2.40     -6.36
     -1.59      1.91     -6.36
     -1.59      1.91     -5.87
     -1.59      1.91     -5.87
     -1.10      1.91     -5.87
     -1.10      1.91     -5.38
     -1.10      1.91     -5.38
     -1.10      1.91     -4.89
     -1.10      1.91     -4.89
     -1.10      1.91     -4.40
     -1.10      1.91     -4.40
     -1.10      1.91     -3.91
     -1.10      1.91     -3.91
     -1.10      1.91     -3.43
     -1.10      1.91     -3.43
      -.62      2.40     -2.94
     -1.10      2.40     -2.94
      -.62      2.40     -2.45
      -.62      2.40     -2.45
      -.62      2.40     -2.45
      -.62      2.89     -1.96
      -.13      2.89     -1.96
      -.13      2.89     -1.96
       .36      2.89     -1.96
       .36      2.89     -1.47
       .85      2.89     -1.47
      1.34      2.40      -.98
      1.34      2.40      -.98
      1.82      2.40      -.98
      2.31      2.40      -.50
      2.31      1.91      -.50
      2.80      1.91      -.50
      2.80      1.43      -.50
      3.29      1.43      -.50
      3.29      1.43      -.01
      3.78       .94      -.01
      3.78       .94      -.01
      3.78       .94      -.01
      4.26       .94      -.01
      4.26       .45       .48
      4.26       .45       .48
      4.75       .45       .48
      4.75       .45       .48
      4.75       .45       .48
      4.75       .45       .48
      5.24       .45       .48
      5.24       .45       .48
      5.24       .45       .48
      5.24       .45       .48
      5.73       .45       .48
      5.73       .45       .48
      5.73       .45       .97
      5.73       .45       .97
      5.73      -.04       .97
      5.73      -.04       .97
      5.73      -.04      1.46
      5.73      -.04      1.46
      6.22      -.04      1.46
      6.22      -.53      1.46
      6.22      -.53      1.46
      6.22      -.53      1.46
      6.22      -.53      1.46
      6.22      -.53      1.46
      6.22     -1.02       .97
      6.22     -1.02       .97
      6.22     -1.02       .97
      6.22     -1.02       .97
      5.73     -1.02       .97
      5.73     -1.50       .97
      5.73     -1.50       .97
      5.24     -1.50       .48
      5.24     -1.50       .48
      4.75     -1.50       .48
      4.75     -1.50       .48
      4.26     -1.50       .48
      4.26     -1.50       .48
      4.26     -1.50      -.01
      3.78     -1.50      -.01
      3.78     -1.02      -.01
      3.29     -1.02      -.01
      2.80     -1.02      -.01
      2.80     -1.02      -.50
      2.31     -1.02      -.50
      1.82     -1.02      -.50
      1.82      -.53      -.98
      1.34      -.53      -.98
       .85      -.53      -.98
       .85      -.53      -.98
       .36      -.04     -1.47
      -.13      -.04     -1.47
      -.62      -.04     -1.47
     -1.10       .45     -1.47
     -1.10       .45     -1.47
     -1.59       .45     -1.47
     -2.08       .45     -1.96
     -2.08       .45     -1.47
     -2.57       .45     -1.96
     -3.06       .94     -1.96
     -3.06       .94     -1.96
     -3.54       .94     -1.96
     -4.03       .94     -1.96
     -4.52       .45     -1.96
     -5.01       .45     -1.96
     -5.01       .94     -1.96
     -5.50       .45     -1.47
     -5.99       .45     -1.96
     -6.47       .45     -1.47
     -6.96       .45     -1.47
     -6.96       .45     -1.47
     -7.45       .45     -1.47
     -7.94       .45     -1.47
     -8.43       .45     -1.47
     -8.43       .45     -1.47
     -8.91       .45     -1.47
     -9.40       .45     -1.47
     -9.40       .45     -1.47
     -9.89       .45      -.98
     -9.89       .45      -.98
    -10.38       .45      -.98
    -10.38       .94      -.98
    -10.38       .94      -.50
    -10.87       .94      -.01
    -10.87       .94      -.01
    -10.87       .94       .48
    -10.87       .94       .48
    -10.87       .94       .97
    -10.38       .94      1.46
    -10.38       .94      1.46
    -10.38       .94      1.94
     -9.89       .94      2.43
     -9.89      1.43      2.92
     -9.89      1.43      2.92
     -9.40      1.43      3.41
     -9.40      1.43      3.90
     -8.91       .94      3.90
     -8.91       .94      4.39
     -8.43       .94      4.87
     -7.94       .94      4.87
     -7.94       .94      5.36
     -7.45       .94      5.36
     -7.45       .94      5.85
     -6.96       .94      5.85
     -6.96       .45      5.85
     -6.47       .45      6.34
     -5.99       .45      6.34
     -5.50       .45      6.83
     -5.50       .45      6.83
     -5.01      -.04      6.34
     -5.01      -.04      6.83
     -4.52      -.04      6.83
     -4.03      -.04      6.83
     -3.54      -.04      6.83
     -3.06      -.04      6.83
     -2.57      -.04      6.83
     -2.57      -.04      6.83
     -2.08      -.04      6.34
     -1.59      -.04      6.34
     -1.10      -.04      6.34
     -1.10      -.04      6.34
      -.62      -.04      6.34
      -.13      -.04      6.34
      -.13      -.53      5.85
       .36      -.04      5.85
       .36      -.04      5.85
       .85      -.04      5.36
       .85      -.04      5.36
       .85      -.04      5.36
      1.34      -.04      4.87
      1.34      -.04      4.87
      1.34      -.04      4.39
      1.82      -.04      4.39
      1.82      -.04      4.39
      1.82      -.04      3.90
      2.31      -.53      3.90
      2.31      -.53      3.90
      2.31      -.53      3.41
      2.31      -.53      3.41
      2.31      -.53      2.92
      2.31      -.53      2.43
      2.80      -.53      2.43
      2.80      -.53      2.43
      2.80      -.53      1.94
      2.80      -.53      1.94
      2.80      -.53      1.94
      2.80      -.53      1.46
      2.80      -.53      1.46
      2.80      -.53      1.46
      2.80      -.53      1.46
      2.80      -.53       .97
      2.80      -.53       .97
      2.80      -.53       .97
      2.31     -1.02       .97
      2.31     -1.02       .97
      1.82     -1.02       .97
      1.82     -1.02       .97
      1.34     -1.02       .97
      1.34      -.53       .97
       .85      -.53       .97
       .85      -.53       .97
       .36      -.53       .97
       .36      -.53       .97
       .36      -.53       .97
      -.13      -.53       .97
      -.13      -.04       .97
      -.13      -.04       .97
      -.13      -.04      1.46
      -.13      -.04      1.46
      -.13      -.04      1.46
      -.13      -.04      1.46
      -.13      -.04      1.46
      -.13      -.53      1.94
      -.13      -.53      1.94
      -.62      -.53      1.94
      -.13      -.53      1.94
      -.62      -.53      1.94
      -.62     -1.02      1.94
      -.62     -1.02      2.43
      -.62     -1.02      2.43
      -.62     -1.02      2.43
      -.62     -1.02      2.43
      -.62     -1.50      2.43
      -.62     -1.02      2.92
     -1.10     -1.02      2.92
     -1.10     -1.02      2.92
     -1.10     -1.02      2.92
     -1.10     -1.02      3.41
     -1.10     -1.02      3.41
     -1.10     -1.02      3.41
     -1.10     -1.02      3.41
     -1.10     -1.02      3.41
     -1.10      -.53      3.41
     -1.10      -.53      3.90
     -1.10      -.53      3.90
     -1.10      -.53      3.90
      -.62      -.53      3.90
      -.62     -1.02      3.90
      -.62     -1.02      3.41
      -.62     -1.02      3.41
      -.62     -1.02      3.41
      -.62      -.53      3.41
      -.13     -1.02      2.92
      -.13     -1.02      2.92
      -.13      -.53      2.43
      -.13      -.53      2.43
      -.13      -.53      2.43
      -.13      -.53      1.94
      -.13      -.53      1.94
       .36      -.53      1.46
       .36      -.53      1.46
       .36      -.53      1.46
       .36      -.53       .97
       .36      -.53       .97
       .36      -.53       .97
       .36      -.53       .48
       .36      -.53       .48
       .36      -.53       .48
       .36      -.53       .48
       .36      -.53       .48
       .36      -.53       .48
       .36      -.53       .48
       .85      -.53      -.01
       .36      -.53      -.01
       .36      -.53      -.01
       .36      -.53      -.01
       .36      -.53      -.01
       .36      -.53      -.50
       .36      -.53      -.50
       .36     -1.02      -.50
