********************************************************************************
           RED INTERUNIVERSITARIA DE INSTRUMENTACION SISIMICA (RIIS)
 AREA DE ESTRUCTURAS, UNIVERSIDAD AUTONOMA METROPOLITANA - UNIDAD AZCAPOTZALCO
         AV. SAN PABLO 180; COL. REYNOSA TAMAULIPAS; MEXICO D.F. 02200.
       TELS: 7235859, 7235856; FAX: 7244285; e-mail: jac@hp9000a1.uam.mx
********************************************************************************
ARCHIVO ESTANDAR DE ACELERACION:
VERSION DEL FORMATO                    : 2.0
NOMBRE DEL ARCHIVO                     : RIDA9607.151
FECHA Y HORA DE CREACION               : 15 de julio 1996 /15:39
REF. CATALOGO ACELEROGRAMAS, SMIS 1996 : REGISTRO No.      /PAG.


================================================================================
DATOS DE LA ESTACION:
NOMBRE DE LA ESTACION                  : UAM AZCAPOTZALCO
CLAVE DE LA ESTACION                   : RIDA
LOCALIZACION DE LA ESTACION            : AVENIDA SAN PABLO Y EJE 5, COLONIA
                                       : REYNOSA, PLANTEL AZCAPOTZALCO, JARDIN
                                       : ENTRE EDIFICIO "H" Y "E", MEXICO, D.F.
                                       :
                                       :
COORDENADAS DE LA ESTACION             : 19.5200 LAT. N
                                       : 99.1900 LONG. W
ALTITUD (msnm)                         : 2240
TIPO DE SUELO                          : LIMO ARENOSO
                                       : 
                                       : 
INSTITUCION RESPONSABLE                : RED INTERUNIVERSITARIA DE 
                                       : INSTRUMENTACION SISMICA (RIIS)

================================================================================
DATOS DEL ACELEROGRAFO:
MODELO DEL ACELEROGRAFO                : SSA-2
NUMERO DE SERIE DEL ACELEROGRAFO       : 1561
NUMERO DE CANALES                      : 3
ORIENTACION C1-C6 (rumbo;orientacion)  : /N00E/+V/N90E
ORIENTACION C7-C12 (rumbo;orientacion) :
VEL. DE MUESTREO, C1-C6 (muestras/s)   : /200/200/200
VEL. DE MUESTREO, C7-C12 (muestras/s)  :
ESC. COMPLETA DE SENSORES, C1-C6, (g)  : /+1.0/+1.0/+1.0
ESC. COMPLETA DE SENSORES, C7-C12, (g) :
FREC. NAT. DE SENSORES, C1-C6, (Hz)    : /50.0/50.0/50.0
FREC. NAT. DE SENSORES, C7-C12, (Hz)   :
AMORTIGUAMIENTO DE SENSORES, C1-C6     : /0.7/0.7/0.7
AMORTIGUAMIENTO DE SENSORES, C7-C12    :
INTERVALO DE MUESTREO, C1-C6, (s)      : /0.005/0.005/0.005
INTERVALO DE MUESTREO, C7-C12, (s)     :
UMBRAL DE DISPARO, C1-C6, (Gal)        : /3/3/3
UMBRAL DE DISPARO, C7-C12, (Gal)       :
MEMORIA DE PREEVENTO (s)               : 15.36
TIEMPO DE POSEVENTO (s)                : 60


================================================================================
DATOS DEL SISMO:
FECHA DEL SISMO (GMT)                  : 15/JUL/96
HORA EPICENTRO (GMT)                   : 21:23
MAGNITUD(ES)                           : /Ms=6.50/Mw=6.60
COORDENADAS DEL EPICENTRO              : 17.600 LAT. N 
                                       : 100.97 LONG. W 
PROFUNDIDAD FOCAL (km)                 : 18 
FUENTE DE LOS DATOS EPICENTRALES       : USGS
                                       :

================================================================================
DATOS DE ESTE REGISTRO:
HORA DE LA PRIMERA MUESTRA (GMT)       : 21:23:00.00
EXACTITUD DEL TIEMPO (s)               : CARECE DE TIEMPO ABSOLUTO
DURACION DEL REGISTRO (s), C1-C6       : /120.32/120.32/120.32
DURACION DEL REGISTRO (s), C7-C12      :
NUM. TOTAL DE MUESTRAS, C1-C6          : /24064/24064/24064
NUM. TOTAL DE MUESTRAS, C7-C12         :
ACEL. MAX. (Gal), C1-C6                : /7.43/2.36/-10.92
ACEL. MAX., C1-C6, EN LA MUESTRA       : /3506/6384/4444
ACEL. MAX. (Gal), C7-C12               :
ACEL. MAX., C7-C12, EN LA MUESTRA      :
UNIDADES DE LOS DATOS                  : Gal
FACTOR DE DECIMACION                   : 1
FORMATO DATOS (FORTRAN,10 campos/dato) : 3F10.2


================================================================================
CALIDAD DEL ACELEROGRAMA:
REGISTRO DIGITAL COMPLETO, CARECE DE TIEMPO ABSOLUTO.


================================================================================
COMENTARIOS:
CADA UNO DE LOS CANALES SE ENCUENTRA AJUSTADO POR LINEA BASE MEDIANTE LA
SUSTRACCION DEL PROMEDIO DE LAS ACELERACIONES EN EL TIEMPO.












================================================================================
DATOS DE ACELERACION:
---------+---------+---------+---------+---------+---------+---------+---------+
   CANAL-1   CANAL-2   CANAL-3   CANAL-4   CANAL-5   CANAL-6   CANAL-7   CANAL-8
      N00E        +V      N90E
---------+---------+---------+---------+---------+---------+---------+---------+
[...]
      5.48       .41     -5.06
      5.96       .41     -5.06
      5.96      -.08     -5.55
      5.96       .41     -5.55
      6.45       .41     -5.55
      6.45       .41     -6.03
      6.45       .41     -6.03
      6.45       .41     -6.03
      6.45       .41     -6.03
      6.45       .41     -6.03
      6.45       .41     -6.03
      6.45       .41     -6.03
      6.45       .41     -6.03
      6.45       .41     -6.52
      6.45       .90     -6.03
      6.45       .90     -6.52
      6.45       .90     -6.03
      6.45       .90     -6.03
      6.45       .90     -6.03
      6.45       .90     -6.03
      5.96       .90     -6.03
      5.96       .90     -5.55
      5.96       .90     -5.55
      5.96       .90     -5.06
      5.96       .90     -5.06
      5.48       .90     -4.57
      5.48       .90     -4.08
      5.48       .90     -4.08
      5.48       .90     -3.10
      5.48       .90     -3.10
      5.48       .90     -2.62
      4.99       .90     -2.13
      4.99       .41     -1.64
      4.50       .41     -1.64
      4.50       .41     -1.15
      4.01       .41      -.66
      4.01       .41      -.17
      3.52       .41      -.17
      3.52       .41       .80
      3.03       .41       .80
      3.03       .41      1.29
      2.55       .41      1.78
      2.55       .41      2.27
      2.06       .41      2.76
      2.06       .90      3.24
      1.57       .41      3.73
      1.57       .90      3.73
      1.08       .41      4.22
       .59       .90      4.71
       .59       .41      5.20
       .11       .90      5.20
       .11       .90      5.69
      -.38       .90      6.17
      -.38       .90      6.17
      -.38       .90      6.66
      -.87       .90      7.15
     -1.36       .90      7.15
     -1.36       .90      7.64
     -1.85       .90      7.64
     -1.85       .90      7.64
     -2.33       .90      7.64
     -2.33       .90      8.13
     -2.33       .90      8.13
     -2.82       .90      8.13
     -2.82       .90      8.13
     -2.82       .90      7.64
     -3.31       .90      7.64
     -3.31       .90      7.64
     -3.31       .90      7.64
     -3.31       .90      7.15
     -3.31       .90      7.15
     -3.31       .41      7.15
     -3.31       .41      6.66
     -2.82       .41      6.66
     -2.82       .41      6.17
     -2.82       .41      6.17
     -2.82       .41      5.69
     -2.82      -.08      5.69
     -2.82      -.08      5.69
     -2.33      -.08      5.20
     -2.33      -.08      5.20
     -2.33      -.08      4.71
     -1.85      -.08      4.71
     -1.85      -.08      4.22
     -1.85      -.08      3.73
     -1.85      -.08      3.73
     -1.36      -.08      3.24
     -1.36      -.08      2.76
     -1.36      -.08      2.76
     -1.36      -.08      2.27
     -1.36      -.08      1.78
      -.87      -.08      1.29
      -.87      -.08       .80
      -.87      -.57       .80
      -.87      -.08       .31
      -.38      -.08       .31
      -.38      -.08      -.17
      -.38      -.08      -.66
      -.38      -.57      -.66
      -.38      -.57     -1.15
      -.38      -.57     -1.64
       .11      -.57     -1.64
       .11      -.57     -1.64
       .11     -1.05     -2.13
       .11     -1.05     -2.13
       .59     -1.05     -2.13
       .59     -1.05     -2.13
       .59     -1.05     -2.62
       .59     -1.05     -2.62
       .59     -1.05     -2.62
       .59     -1.05     -2.62
      1.08     -1.05     -3.10
      1.08     -1.05     -3.10
      1.08     -1.05     -3.10
      1.08     -1.05     -3.10
      1.08     -1.05     -3.59
      1.57     -1.05     -3.59
      1.57     -1.05     -3.59
      1.57      -.57     -3.59
      1.57      -.57     -4.08
      1.57      -.57     -4.08
      1.57      -.57     -4.08
      1.57      -.57     -4.08
      1.57      -.08     -4.08
      2.06      -.08     -4.08
      1.57      -.08     -4.08
      1.57      -.08     -4.08
      1.57      -.08     -4.08
      1.57      -.08     -4.08
      1.57       .41     -4.08
      1.57      -.08     -4.08
      1.57       .41     -4.08
      1.08       .41     -3.59
      1.08       .41     -3.59
      1.08       .41     -3.59
      1.08       .41     -3.59
      1.08       .41     -3.59
       .59      -.08     -3.59
       .59       .41     -3.10
       .59      -.08     -3.10
       .59      -.08     -3.10
       .11      -.08     -3.10
       .11      -.08     -3.10
       .11      -.08     -2.62
      -.38      -.08     -2.62
      -.38      -.08     -2.62
      -.38      -.08     -2.62
      -.87      -.08     -2.13
      -.87      -.08     -2.13
      -.87      -.08     -2.13
     -1.36      -.08     -1.64
     -1.36      -.08     -1.64
     -1.36      -.08     -1.64
     -1.36      -.08     -1.15
     -1.85      -.08     -1.15
     -1.85      -.08      -.66
     -1.85      -.08      -.66
     -2.33      -.08      -.17
     -2.33      -.08      -.17
     -2.33      -.08      -.17
     -2.33      -.08       .31
     -2.82      -.08       .31
     -2.82      -.08       .31
     -2.82      -.08       .31
     -3.31      -.08       .31
     -3.80      -.08       .31
     -3.80      -.08       .31
     -3.80      -.08      -.17
     -4.29      -.08      -.17
     -4.29       .41      -.17
     -4.29      -.08      -.17
     -4.29       .41      -.17
     -4.29       .41      -.66
     -4.29       .41      -.66
     -4.29       .41      -.66
     -4.78       .41      -.66
     -4.78       .41      -.66
     -4.78       .41      -.66
     -4.78       .90      -.66
     -4.78       .90      -.66
     -4.78       .90      -.66
     -4.78       .90      -.66
     -4.78       .90     -1.15
     -4.78      1.39     -1.15
     -4.78      1.39     -1.15
     -4.78       .90     -1.15
     -4.78      1.39     -1.15
     -4.78       .90     -1.15
     -4.78       .90     -1.15
     -4.29       .90     -1.15
     -4.29       .90     -1.15
     -4.29       .90     -1.15
     -4.29       .90     -1.15
     -3.80       .90     -1.15
     -3.80       .90     -1.15
     -3.80       .90     -1.15
     -3.31       .41     -1.15
     -3.31       .41     -1.15
     -2.82       .41     -1.15
     -2.82       .41     -1.15
     -2.33       .41     -1.15
     -2.33       .41     -1.15
     -2.33       .41     -1.15
     -1.85       .41     -1.15
     -1.36       .41     -1.15
     -1.36       .41     -1.15
      -.87       .41     -1.15
      -.87       .41     -1.15
      -.38       .41     -1.15
       .11       .41     -1.64
       .11       .41     -1.64
       .59      -.08     -1.64
       .59      -.08     -1.64
      1.08      -.08     -2.13
      1.08      -.08     -2.13
      1.57      -.08     -2.13
      1.57      -.08     -2.13
      1.57      -.57     -2.62
      2.06      -.57     -2.62
      2.06      -.57     -2.62
      2.55      -.57     -2.62
      2.55      -.57     -2.62
      2.55     -1.05     -3.10
      3.03     -1.05     -3.10
      3.03     -1.05     -3.10
      3.03     -1.05     -3.10
      3.52     -1.05     -3.10
      3.52     -1.05     -3.10
      3.52     -1.05     -3.10
      4.01     -1.05     -3.10
      4.01     -1.05     -3.10
      4.01     -1.05     -3.10
      4.01     -1.05     -3.10
      4.50     -1.05     -2.62
      4.50     -1.05     -2.62
      4.50      -.57     -2.62
      4.50      -.57     -2.13
      4.50      -.57     -2.13
      4.50      -.57     -1.64
      4.50      -.57     -1.64
      4.50      -.57     -1.15
      4.50      -.08      -.66
      4.01      -.08      -.66
      4.01      -.08      -.17
      4.01      -.08      -.17
      4.01      -.57       .31
      4.01      -.08       .31
      3.52      -.08       .80
      3.52      -.08      1.29
      3.52      -.08      1.29
      3.52      -.57      1.78
      3.52      -.08      1.78
      3.03      -.57      2.27
      3.03      -.57      2.27
      2.55      -.08      2.76
      2.55      -.08      3.24
      2.55      -.08      3.24
      2.06      -.08      3.73
      2.06      -.08      3.73
      2.06      -.08      4.22
      1.57      -.08      4.71
      1.57      -.08      4.71
      1.57      -.08      5.20
      1.57       .41      5.69
      1.57       .41      6.17
      1.57       .41      6.17
      1.57       .41      6.66
      1.57       .41      7.15
      1.08       .41      7.15
      1.08       .90      7.64
      1.08       .90      7.64
      1.08       .90      8.13
       .59       .90      8.13
       .59       .90      8.61
       .59       .90      9.10
       .11       .90      9.10
       .11       .90      9.10
      -.38       .90      9.10
      -.38       .90      9.59
      -.38       .90      9.59
      -.38       .90      9.59
      -.38       .90      9.59
      -.87       .90      9.59
      -.87      1.39      9.59
      -.87      1.39     10.08
      -.87      1.39      9.59
      -.87      1.39      9.59
      -.87      1.39      9.59
      -.87      1.39      9.59
      -.87      1.39      9.59
      -.87      1.39      9.10
      -.87      1.39      9.10
      -.87      1.39      8.61
      -.87      1.39      8.61
      -.87      1.39      8.61
      -.87      1.39      8.13
      -.87      1.39      7.64
     -1.36       .90      7.64
     -1.36       .90      7.15
     -1.36       .90      7.15
     -1.36       .90      6.66
     -1.36       .90      6.66
     -1.36       .41      6.17
     -1.36       .41      5.69
     -1.85       .41      5.69
     -1.85       .41      5.20
     -1.85       .41      4.71
     -1.85      -.08      4.22
     -1.85      -.08      3.73
     -1.85      -.08      3.24
     -2.33      -.57      2.76
     -2.33      -.57      2.27
     -2.33      -.57      1.78
     -2.33      -.57      1.29
     -2.33     -1.05       .80
     -2.33     -1.05       .31
     -2.33     -1.05      -.17
     -2.33     -1.05      -.66
     -2.33     -1.05     -1.15
     -2.33     -1.05     -1.64
     -1.85     -1.05     -2.13
     -1.85     -1.05     -3.10
     -1.85     -1.05     -3.59
     -1.85     -1.05     -4.08
     -1.85      -.57     -4.57
     -1.36      -.57     -5.06
     -1.36      -.57     -5.55
     -1.36      -.57     -6.03
      -.87      -.57     -6.03
      -.87      -.08     -6.52
      -.87      -.08     -7.01
      -.38      -.08     -7.50
      -.38      -.08     -7.99
      -.38      -.08     -7.99
       .11      -.08     -8.48
       .11      -.08     -8.96
       .11      -.08     -8.96
       .59      -.08     -9.45
       .59      -.08     -9.45
       .59      -.08     -9.94
       .59      -.08     -9.94
      1.08      -.08    -10.43
      1.08      -.08    -10.43
      1.08      -.08    -10.43
      1.08      -.08    -10.92
      1.57      -.08    -10.92
      1.57      -.08    -10.92
      1.57      -.57    -10.92
      1.57      -.57    -10.92
      1.57      -.57    -10.92
      1.57      -.57    -10.92
      1.57      -.57    -10.92
      1.57      -.57    -10.92
      1.57      -.57    -10.43
      1.57      -.57    -10.43
      1.57      -.57     -9.94
      1.57      -.57     -9.94
      1.57      -.57     -9.45
      1.57      -.57     -9.45
      1.57      -.57     -8.96
      1.57      -.57     -8.96
      1.57      -.57     -8.48
      1.57      -.57     -7.99
      1.57      -.57     -7.50
      1.57      -.57     -7.01
      1.57      -.57     -7.01
      1.57      -.57     -6.52
      1.57      -.57     -6.52
      2.06      -.57     -6.03
      2.06      -.57     -5.55
      2.06      -.57     -5.55
      2.06      -.08     -5.06
      2.06      -.08     -4.57
      2.55      -.08     -4.08
      2.55      -.08     -4.08
      2.55       .41     -3.59
      2.55      -.08     -3.10
      2.55       .41     -3.10
      2.55       .41     -2.62
      2.55       .90     -2.13
      2.55       .90     -1.64
      2.55       .90     -1.64
      2.06       .90     -1.15
      2.06       .90      -.66
      2.06       .90      -.17
      2.06       .90       .31
      2.06      1.39       .80
      1.57      1.39       .80
      1.57      1.39      1.29
      1.57      1.39      1.78
      1.57       .90      2.27
      1.57       .90      2.76
      1.57       .90      2.76
      1.57       .90      3.24
      1.57       .90      3.73
      1.08       .90      3.73
      1.08       .90      4.22
      1.08       .41      4.71
       .59       .41      4.71
       .59       .41      5.20
       .59       .41      5.20
       .59       .41      5.69
       .11      -.08      5.69
       .11      -.08      5.69
       .11      -.08      5.69
       .11      -.08      6.17
      -.38      -.08      6.17
      -.38      -.08      6.17
      -.38      -.08      6.17
      -.38      -.08      6.66
      -.87      -.08      6.17
      -.87      -.08      6.66
     -1.36      -.08      6.66
     -1.36      -.08      6.66
     -1.36      -.08      6.66
     -1.85      -.08      6.66
     -1.85      -.08      6.66
     -2.33      -.08      6.66
     -2.33      -.08      6.66
     -2.33      -.08      6.66
     -2.82      -.08      6.17
     -2.82      -.08      6.17
     -2.82      -.08      6.17
     -3.31      -.08      5.69
     -3.31      -.08      5.69
     -3.31      -.08      5.69
     -3.31       .41      5.69
     -3.80      -.08      5.20
     -3.80       .41      5.20
     -3.80       .41      5.20
     -3.80      -.08      4.71
     -3.80       .41      4.71
     -3.80       .41      4.71
     -3.80      -.08      4.22
     -3.80       .41      4.22
     -4.29      -.08      3.73
     -4.29      -.08      3.73
     -4.29      -.08      3.73
     -4.29      -.08      3.24
     -4.29      -.08      2.76
     -4.29      -.08      2.76
     -4.29      -.08      2.76
     -4.78      -.08      2.27
     -4.78      -.08      2.27
     -4.78      -.08      1.78
     -4.78      -.08      1.29
     -4.29      -.08      1.29
     -4.78      -.08       .80
     -4.29      -.08       .80
     -4.29      -.08       .31
     -4.29      -.08       .31
     -3.80      -.08      -.17
     -3.80      -.08      -.66
     -3.80      -.08      -.66
     -3.31      -.08      -.66
     -3.31      -.08     -1.15
     -3.31      -.08     -1.15
     -2.82      -.08     -1.64
     -2.82      -.08     -1.64
     -2.82      -.08     -1.64
     -2.33      -.08     -2.13
     -2.33      -.08     -2.13
     -2.33      -.57     -2.13
     -2.33      -.57     -2.13
     -1.85      -.57     -2.13
     -2.33      -.57     -2.62
     -1.85      -.57     -2.62
     -1.85      -.57     -2.62
     -1.85      -.57     -2.62
     -1.85      -.57     -2.62
     -1.36     -1.05     -2.62
     -1.36     -1.05     -2.62
     -1.36     -1.05     -2.62
     -1.36     -1.05     -2.62
     -1.36     -1.05     -2.62
      -.87     -1.05     -2.13
      -.87     -1.05     -2.13
      -.87     -1.05     -2.13
      -.38     -1.05     -1.64
      -.38     -1.05     -1.64
      -.38     -1.05     -1.64
       .11     -1.05     -1.15
       .11     -1.54     -1.15
       .59     -1.54     -1.15
       .59     -1.54     -1.15
       .59     -1.54      -.66
      1.08     -1.54      -.66
      1.08     -1.05      -.66
      1.08     -1.05      -.66
      1.08     -1.54      -.66
      1.08     -1.54      -.66
      1.57     -1.05      -.66
