********************************************************************************
           RED INTERUNIVERSITARIA DE INSTRUMENTACION SISIMICA (RIIS)
 AREA DE ESTRUCTURAS, UNIVERSIDAD AUTONOMA METROPOLITANA - UNIDAD AZCAPOTZALCO
         AV. SAN PABLO 180; COL. REYNOSA TAMAULIPAS; MEXICO D.F. 02200.                                                                               
       TELS: 7235859, 7235856; FAX: 7244285; e-mail: jac@hp9000a1.uam.mx
********************************************************************************
ARCHIVO ESTANDAR DE ACELERACION:
VERSION DEL FORMATO                    : 2.0
NOMBRE DEL ARCHIVO                     : RIDA9705.221
FECHA Y HORA DE CREACION               : 22 de mayo 1997 /01:51
REF. CATALOGO ACELEROGRAMAS, SMIS 1996 : 


================================================================================
DATOS DE LA ESTACION:
NOMBRE DE LA ESTACION                  : UAM AZCAPOTZALCO
CLAVE DE LA ESTACION                   : RIDA
LOCALIZACION DE LA ESTACION            : AVENIDA SAN PABLO Y EJE 5, COLONIA
                                       : REYNOSA, PLANTEL AZCAPOTZALCO, JARDIN
                                       : ENTRE EDIFICIO "H" Y "E", MEXICO, D.F.
                                       :
                                       :
COORDENADAS DE LA ESTACION             : 19.5200 LAT. N 
                                       : 99.1900 LONG. W 
ALTITUD (msnm)                         : 2240
TIPO DE SUELO                          : LIMO ARENOSO
                                       : 
                                       : 
INSTITUCION RESPONSABLE                : RED INTERUNIVERSITARIA DE 
                                       : INSTRUMENTACION SISMICA (RIIS)

================================================================================
DATOS DEL ACELEROGRAFO:
MODELO DEL ACELEROGRAFO                : SSA-2
NUMERO DE SERIE DEL ACELEROGRAFO       : 1561
NUMERO DE CANALES                      : 3
ORIENTACION C1-C6 (rumbo;orientacion)  : /N00E/+V/N90E
ORIENTACION C7-C12 (rumbo;orientacion) :
VEL. DE MUESTREO, C1-C6 (muestras/s)   : /200/200/200
VEL. DE MUESTREO, C7-C12 (muestras/s)  :
ESC. COMPLETA DE SENSORES, C1-C6, (g)  : /+1.0/+1.0/+1.0
ESC. COMPLETA DE SENSORES, C7-C12, (g) :
FREC. NAT. DE SENSORES, C1-C6, (Hz)    : /50.0/50.0/50.0
FREC. NAT. DE SENSORES, C7-C12, (Hz)   :
AMORTIGUAMIENTO DE SENSORES, C1-C6     : /0.7/0.7/0.7
AMORTIGUAMIENTO DE SENSORES, C7-C12    :
INTERVALO DE MUESTREO, C1-C6, (s)      : /0.005/0.005/0.005
INTERVALO DE MUESTREO, C7-C12, (s)     :
UMBRAL DE DISPARO, C1-C6, (Gal)        : /3/3/3
UMBRAL DE DISPARO, C7-C12, (Gal)       :
MEMORIA DE PREEVENTO (s)               : 15
TIEMPO DE POSEVENTO (s)                : 60


================================================================================
DATOS DEL SISMO:
FECHA DEL SISMO (GMT)                  : 22/MAY/97
HORA EPICENTRO (GMT)                   : 07:50:47
MAGNITUD(ES)                           : /Ms=6.00
COORDENADAS DEL EPICENTRO              : 18.410 LAT. N 
                                       : 101.52 LONG. W 
PROFUNDIDAD FOCAL (km)                 : 33 
FUENTE DE LOS DATOS EPICENTRALES       : USGS
                                       :

================================================================================
DATOS DE ESTE REGISTRO:
HORA DE LA PRIMERA MUESTRA (GMT)       : 07:50:00.00
EXACTITUD DEL TIEMPO (s)               : CARECE DE TIEMPO ABSOLUTO
DURACION DEL REGISTRO (s), C1-C6       : /117.76/117.76/117.76
DURACION DEL REGISTRO (s), C7-C12      :
NUM. TOTAL DE MUESTRAS, C1-C6          : /23552/23552/23552
NUM. TOTAL DE MUESTRAS, C7-C12         :
ACEL. MAX. (Gal), C1-C6                : /-4.82/1.23/4.38
ACEL. MAX., C1-C6, EN LA MUESTRA       : /3090/5727/4803
ACEL. MAX. (Gal), C7-C12               :
ACEL. MAX., C7-C12, EN LA MUESTRA      :
UNIDADES DE LOS DATOS                  : Gal 
FACTOR DE DECIMACION                   : 1
FORMATO DATOS (FORTRAN,10 campos/dato) : 3F10.2


================================================================================
CALIDAD DEL ACELEROGRAMA:
REGISTRO DIGITAL COMPLETO, CARECE DE TIEMPO ABSOLUTO.


================================================================================
COMENTARIOS:
CADA UNO DE LOS CANALES SE ENCUENTRA AJUSTADO POR LINEA BASE MEDIANTE LA
SUSTRACCION DEL PROMEDIO DE LAS ACELERACIONES EN EL TIEMPO.












================================================================================
DATOS DE ACELERACION:
---------+---------+---------+---------+---------+---------+---------+---------+
   CANAL-1   CANAL-2   CANAL-3   CANAL-4   CANAL-5   CANAL-6   CANAL-7   CANAL-8
      N00E        +V      N90E
---------+---------+---------+---------+---------+---------+---------+---------+
[...]
       .06      -.23     -1.48
       .06      -.23     -1.48
       .06      -.23     -1.48
      -.43      -.23     -1.48
      -.43      -.23     -1.97
      -.43      -.23     -1.97
      -.43      -.23     -1.97
      -.43      -.23     -1.97
      -.43      -.23     -1.97
      -.91      -.23     -1.97
      -.91      -.23     -1.48
      -.91      -.23     -1.97
      -.91      -.72     -1.97
      -.91      -.72     -1.48
      -.91      -.72     -1.48
      -.91      -.72     -1.48
      -.91      -.72     -1.48
     -1.40      -.72     -1.97
     -1.40      -.23     -1.97
     -1.40      -.72     -1.97
     -1.40      -.72     -1.97
     -1.40      -.72     -1.97
     -1.40      -.23     -1.97
     -1.40      -.23     -1.97
     -1.40      -.23     -1.97
     -1.40      -.23     -1.97
     -1.40      -.23     -1.97
     -1.40      -.23     -1.97
     -1.40      -.23     -1.48
     -1.40      -.23     -1.48
     -1.40      -.23     -1.48
     -1.40       .26     -1.48
      -.91       .26     -1.48
      -.91       .26     -1.48
      -.91       .26     -1.48
      -.91       .26      -.99
      -.91       .26      -.99
      -.91       .26      -.99
      -.43       .26      -.99
      -.43       .26      -.99
      -.43      -.23      -.99
      -.43      -.23      -.99
      -.43      -.23      -.50
      -.43      -.23      -.50
      -.43      -.23      -.50
      -.43      -.23      -.50
      -.43      -.23      -.50
      -.43      -.23      -.50
       .06      -.23      -.50
       .06      -.23      -.01
       .06      -.23      -.01
       .06      -.23      -.01
       .06      -.23      -.01
       .06      -.23      -.01
       .06      -.23      -.01
       .06      -.23      -.01
       .06      -.23       .47
       .55      -.23       .47
       .55      -.23       .47
       .55      -.23       .47
       .55      -.23       .47
      1.04      -.23       .47
      1.04      -.23       .47
      1.04       .26       .47
      1.04       .26       .47
      1.04       .26       .47
      1.53       .26       .47
      1.53       .26       .47
      1.53       .26       .96
      1.53       .26       .96
      1.53      -.23       .96
      1.53       .26       .96
      1.53       .26       .96
      2.02       .26       .96
      2.02       .26       .96
      2.02       .26       .96
      2.02       .26       .96
      2.02       .26       .96
      2.02       .26       .96
      2.02       .26       .96
      2.02       .26       .96
      1.53       .26       .96
      2.02       .26       .96
      1.53       .26       .96
      1.53       .26       .96
      1.53       .26       .96
      1.53       .26       .96
      1.53       .26       .96
      1.53       .26       .96
      1.53       .26       .96
      1.53       .26       .96
      1.53       .26       .96
      1.53      -.23       .96
      1.04      -.23       .96
      1.04      -.23      1.45
      1.04      -.23      1.45
      1.04      -.23      1.45
      1.04      -.23      1.45
      1.04      -.23      1.45
       .55      -.23      1.45
       .55      -.23      1.45
       .55      -.23       .96
       .55      -.23       .96
       .55      -.23       .96
       .06      -.23       .96
       .06      -.23       .96
       .06      -.23       .96
       .06       .26       .96
       .06      -.23       .96
      -.43       .26       .96
      -.43       .26       .96
      -.43      -.23       .96
      -.43      -.23       .96
      -.91      -.23       .96
      -.91      -.23       .96
      -.91      -.23       .96
      -.91      -.23       .96
     -1.40      -.23       .96
     -1.40      -.23       .96
     -1.40      -.23       .96
     -1.40      -.23       .96
     -1.89      -.23       .96
     -1.89      -.23       .96
     -1.89      -.23       .96
     -1.89      -.23       .96
     -1.89      -.23       .96
     -1.89      -.23       .96
     -2.38      -.23       .96
     -2.38      -.23       .96
     -2.38      -.23       .96
     -2.38      -.23       .96
     -2.38      -.23       .96
     -2.38      -.23       .96
     -2.38      -.23       .96
     -2.38      -.23       .96
     -2.38      -.23       .96
     -2.38      -.23       .96
     -2.87       .26       .96
     -2.87       .26       .96
     -2.87       .26       .96
     -2.87       .26       .96
     -2.87       .26       .96
     -2.87       .26       .96
     -2.87       .26       .96
     -2.87       .26       .96
     -2.38       .26       .96
     -2.38       .26       .96
     -2.38       .26       .96
     -2.38       .26       .96
     -2.38      -.23       .96
     -2.38       .26       .96
     -2.38      -.23       .96
     -1.89      -.23       .96
     -1.89      -.23       .96
     -1.89      -.23       .96
     -1.89      -.23       .96
     -1.89      -.23       .96
     -1.40      -.23       .96
     -1.40      -.23       .96
     -1.40      -.23       .96
      -.91       .26       .96
      -.91       .26       .47
      -.91       .26       .47
      -.91      -.23       .47
      -.43       .26       .47
      -.43       .26       .47
      -.43       .26       .47
       .06       .26      -.01
       .06       .26       .47
       .06       .26      -.01
       .06       .26      -.01
       .55       .26      -.01
       .55       .26      -.01
       .55       .26      -.01
      1.04       .26      -.01
      1.04      -.23      -.01
      1.04      -.23      -.01
      1.04      -.23      -.01
      1.04      -.23      -.01
      1.04      -.23      -.50
      1.53      -.23      -.50
      1.53      -.23      -.50
      1.53      -.23      -.50
      1.53      -.23      -.50
      1.53      -.23      -.99
      1.53      -.23      -.99
      1.53      -.23      -.99
      1.53      -.23      -.99
      1.53      -.23      -.99
      1.53      -.23      -.99
      1.53      -.23      -.99
      1.53      -.23     -1.48
      1.53      -.23     -1.48
      1.53      -.23     -1.48
      1.53      -.23     -1.48
      1.53      -.23     -1.48
      1.53      -.23     -1.48
      1.53      -.23     -1.48
      1.53      -.23     -1.48
      1.04       .26     -1.48
      1.04      -.23     -1.48
      1.04      -.23     -1.48
      1.04      -.23     -1.48
      1.04      -.23     -1.48
      1.04      -.23     -1.48
      1.04      -.23     -1.48
       .55      -.23     -1.48
       .55      -.23     -1.48
       .55      -.23     -1.48
       .55       .26     -1.48
       .06       .26     -1.48
       .06       .26     -1.48
       .06       .26     -1.48
       .06       .26     -1.48
       .06       .26     -1.48
       .06       .26     -1.48
       .06       .26     -1.48
       .06       .26     -1.48
      -.43       .26     -1.48
      -.43       .26     -1.48
       .06       .26     -1.48
       .06       .26     -1.48
      -.43       .26     -1.48
      -.43       .26     -1.48
      -.43       .26     -1.48
      -.43       .26     -1.48
      -.43       .26     -1.48
      -.43       .26     -1.48
      -.43       .26     -1.48
      -.43       .26     -1.48
      -.43       .26     -1.48
      -.43       .26      -.99
      -.43       .26      -.99
      -.43       .26      -.99
      -.43       .26      -.99
      -.91       .26      -.99
      -.91       .26      -.99
      -.91       .26      -.99
      -.91       .26      -.99
      -.91       .26      -.99
      -.91       .26      -.99
      -.91       .26      -.99
      -.91       .26      -.99
      -.91       .26      -.50
      -.91       .26      -.50
      -.91       .26      -.50
      -.91       .26      -.50
      -.91       .26      -.50
      -.91       .26      -.50
      -.91       .26      -.01
      -.43       .26      -.01
      -.43      -.23      -.01
      -.43      -.23      -.01
      -.43      -.23       .47
       .06      -.23       .47
       .06      -.23       .47
       .06      -.23       .47
       .06      -.23       .47
       .06      -.23       .47
       .55      -.23       .47
       .55      -.23       .47
       .55      -.23       .47
       .55      -.23       .96
       .55      -.23       .96
      1.04      -.23       .96
      1.04      -.23       .96
      1.04      -.23       .96
      1.04      -.23       .96
      1.04      -.23       .96
      1.04      -.23       .96
      1.04      -.23       .96
      1.04      -.23       .96
      1.53      -.23       .96
      1.53      -.23       .96
      1.53      -.23      1.45
      1.53      -.23      1.45
      1.53      -.23      1.45
      2.02      -.23      1.45
      2.02      -.23      1.45
      2.02      -.23      1.45
      2.02      -.23      1.45
      2.50      -.23      1.45
      2.50      -.23      1.45
      2.50      -.23       .96
      2.50      -.23       .96
      2.50      -.23       .96
      2.99      -.23       .96
      2.99      -.23       .96
      2.99      -.23       .96
      2.99      -.23       .96
      2.99      -.23       .96
      2.50      -.23       .96
      2.50      -.23       .96
      2.50      -.23       .96
      2.50      -.23       .96
      2.50      -.23       .96
      2.50      -.23       .47
      2.02      -.23       .47
      2.02      -.23       .47
      2.02      -.23       .47
      2.02      -.23       .47
      2.02      -.23       .47
      1.53      -.23       .47
      1.53      -.23       .47
      1.53      -.23       .47
      1.53      -.23       .47
      1.04      -.23       .47
      1.04      -.23       .47
      1.04       .26       .47
       .55      -.23       .47
       .55      -.23       .47
       .55       .26       .47
       .06       .26       .47
       .06       .26       .47
       .06       .26       .47
      -.43       .26       .47
      -.43       .26       .47
      -.43      -.23       .47
      -.91       .26       .47
      -.91       .26       .47
      -.91       .26       .47
     -1.40       .26       .47
     -1.40       .26       .47
     -1.40       .26       .96
     -1.89       .26       .96
     -1.89       .26       .96
     -1.89       .26       .96
     -2.38       .26       .96
     -2.38       .26       .96
     -2.87       .26       .96
     -2.87       .26       .96
     -2.87       .26       .96
     -3.35       .26       .96
     -3.35       .26       .96
     -3.35      -.23       .96
     -3.84      -.23       .96
     -3.84      -.23       .96
     -3.84      -.23       .96
     -4.33      -.23       .96
     -4.33      -.23       .96
     -4.33      -.23       .96
     -4.33      -.23       .96
     -4.82      -.23       .96
     -4.82      -.23       .47
     -4.82      -.23       .47
     -4.82      -.23       .47
     -4.82      -.23       .47
     -4.82      -.23       .47
     -4.82      -.23       .47
     -4.82       .26       .47
     -4.82       .26       .47
     -4.82       .26       .47
     -4.82       .26       .47
     -4.82       .26       .47
     -4.33       .26       .47
     -4.33       .26       .47
     -4.33       .26       .47
     -4.33      -.23       .47
     -4.33       .26       .47
     -4.33      -.23      -.01
     -4.33      -.23      -.01
     -3.84      -.23      -.01
     -3.84      -.23      -.01
     -3.84      -.23      -.01
     -3.84      -.23      -.01
     -3.84      -.23      -.01
     -3.35      -.23      -.01
     -3.35      -.23      -.01
     -3.35      -.23      -.50
     -2.87      -.23      -.01
     -2.87      -.23      -.01
     -2.38      -.23      -.50
     -2.38      -.23      -.01
     -2.38      -.23      -.50
     -1.89      -.23      -.01
     -1.89      -.23      -.01
     -1.89      -.23      -.50
     -1.40      -.23      -.01
      -.91       .26      -.01
      -.91       .26      -.01
      -.91       .26      -.50
      -.43       .26      -.01
      -.43       .26      -.01
      -.43       .26      -.01
       .06       .26      -.50
       .06       .26      -.50
       .06       .26      -.50
       .06       .26      -.50
       .55       .26      -.50
       .55       .26      -.50
       .55       .26      -.50
       .55       .26      -.50
      1.04       .26      -.50
      1.04       .26      -.50
      1.04       .26      -.50
      1.04       .26      -.50
      1.53       .26      -.99
      1.53       .26      -.99
      1.53       .26      -.99
      2.02       .26      -.99
      2.02       .26      -.99
      2.02       .26      -.99
      2.02       .26      -.99
      2.50       .26      -.99
      2.50      -.23      -.99
      2.50       .26      -.99
      2.50      -.23      -.99
      2.99      -.23      -.99
      2.99      -.23      -.50
      2.99      -.23      -.50
      2.99      -.23      -.50
      2.99      -.23      -.50
      2.99      -.23      -.50
      2.99      -.23      -.50
      2.99      -.23      -.50
      2.99      -.72      -.50
      2.99      -.72      -.50
      2.99      -.72      -.99
      2.99      -.72      -.99
      2.99      -.23      -.99
      2.99      -.23      -.99
      2.99      -.23      -.99
      2.99      -.23      -.99
      2.99      -.23      -.99
      2.50      -.23      -.99
      2.99      -.23      -.99
      2.99      -.23      -.99
      2.99      -.23      -.99
      2.99       .26      -.99
      2.99       .26      -.99
      2.99       .26      -.99
      2.99       .26      -.99
      2.99       .26      -.99
      2.99       .26      -.99
      2.99       .26      -.99
      2.99       .26      -.99
      2.99       .26      -.99
      2.50       .26      -.99
      2.50       .26      -.99
      2.50       .26      -.99
      2.50       .26      -.99
      2.50       .26      -.99
      2.50       .26      -.99
      2.02       .26      -.99
      2.02       .26      -.99
      2.02       .26      -.99
      2.02       .26      -.99
      2.02       .26      -.99
      1.53       .26      -.99
      1.53       .26      -.99
      1.53       .26      -.99
      1.53       .26      -.99
      1.53       .26      -.99
      1.53       .26      -.99
      1.04       .26      -.99
      1.04       .26      -.99
      1.04       .26     -1.48
      1.04       .26      -.99
      1.04       .26      -.99
      1.04       .26     -1.48
      1.04       .26      -.99
      1.04       .26     -1.48
      1.04       .26      -.99
      1.04       .26      -.99
      1.04       .26      -.99
      1.04       .26      -.99
      1.04       .26      -.99
      1.04       .26      -.99
      1.04       .26      -.99
      1.04       .26      -.99
       .55       .26      -.50
      1.04       .26      -.50
       .55       .26      -.50
       .55       .26      -.50
       .55       .26      -.50
       .55       .26      -.50
       .55       .26      -.01
       .06       .26      -.01
       .06       .26      -.01
       .06       .26       .47
       .06       .26       .47
       .06       .26       .47
       .06       .26       .47
       .06       .26       .47
       .06       .26       .47
       .06       .26       .47
       .06       .26       .47
       .06       .26       .47
      -.43       .26       .47
      -.43       .26       .47
