********************************************************************************
           RED INTERUNIVERSITARIA DE INSTRUMENTACION SISIMICA (RIIS)
 AREA DE ESTRUCTURAS, UNIVERSIDAD AUTONOMA METROPOLITANA - UNIDAD AZCAPOTZALCO
         AV. SAN PABLO 180; COL. REYNOSA TAMAULIPAS; MEXICO D.F. 02200.                                                                               
       TELS: 7235859, 7235856; FAX: 7244285; e-mail: esz@hp9000a1.uam.mx
********************************************************************************
ARCHIVO ESTANDAR DE ACELERACION:
VERSION DEL FORMATO                    : 2.0
NOMBRE DEL ARCHIVO                     : RIDA9412.101
FECHA Y HORA DE CREACION               : 10 de diciembre 1994 /16:18
REF. CATALOGO ACELEROGRAMAS, SMIS 1996 : REGISTRO No. 1190 /PAG. 132


================================================================================
DATOS DE LA ESTACION:
NOMBRE DE LA ESTACION                  : UAM AZCAPOTZALCO
CLAVE DE LA ESTACION                   : RIDA
LOCALIZACION DE LA ESTACION            : AVENIDA SAN PABLO Y EJE 5, COLONIA
                                       : REYNOSA, PLANTEL AZCAPOTZALCO, JARDIN
                                       : ENTRE EDIFICIO "H" Y "E", MEXICO, D.F.
                                       :
                                       :
COORDENADAS DE LA ESTACION             : 19.520 LAT. N 
                                       : 99.190 LONG. W 
ALTITUD (msnm)                         : 2240
TIPO DE SUELO                          : LIMO ARENOSO
                                       : 
                                       : 
INSTITUCION RESPONSABLE                : RED INTERUNIVERSITARIA DE
                                       : INSTRUMENTACION SISMICA (RIIS)

================================================================================
DATOS DEL ACELEROGRAFO:
MODELO DEL ACELEROGRAFO                : SSA-2
NUMERO DE SERIE DEL ACELEROGRAFO       : 1561
NUMERO DE CANALES                      : 3
ORIENTACION C1-C6 (rumbo;orientacion)  : /N00E/+V/N90E
ORIENTACION C7-C12 (rumbo;orientacion) :
VEL. DE MUESTREO, C1-C6 (muestras/s)   : /200/200/200
VEL. DE MUESTREO, C7-C12 (muestras/s)  :
ESC. COMPLETA DE SENSORES, C1-C6, (g)  : /1.0/1.0/1.0
ESC. COMPLETA DE SENSORES, C7-C12, (g) :
FREC. NAT. DE SENSORES, C1-C6, (Hz)    : /50.0/50.0/50.0
FREC. NAT. DE SENSORES, C7-C12, (Hz)   :
AMORTIGUAMIENTO DE SENSORES, C1-C6     : /0.7/0.7/0.7
AMORTIGUAMIENTO DE SENSORES, C7-C12    :
INTERVALO DE MUESTREO, C1-C6, (s)      : /0.005/0.005/0.005
INTERVALO DE MUESTREO, C7-C12, (s)     :
UMBRAL DE DISPARO, C1-C6, (Gal)        : /3/3/3
UMBRAL DE DISPARO, C7-C12, (Gal)       :
MEMORIA DE PREEVENTO (s)               : 15
TIEMPO DE POSEVENTO (s)                : 60


================================================================================
DATOS DEL SISMO:
FECHA DEL SISMO (GMT)                  : 10/DIC/94
HORA EPICENTRO (GMT)                   : 16:17:40,9
MAGNITUD(ES)                           : /Mc=6.30
COORDENADAS DEL EPICENTRO              : 18.020 LAT. N 
                                       : 101.560 LONG. W
PROFUNDIDAD FOCAL (km)                 : 20 
FUENTES DE LOS DATOS EPICENTRALES      : SSN
                                       : INSTITUTO DE GEOFISICA, UNAM

================================================================================
DATOS DE ESTE REGISTRO:
HORA DE LA PRIMERA MUESTRA (GMT)       : 16:18:00.00
EXACTITUD DEL TIEMPO (s)               : 
DURACION DEL REGISTRO (s), C1-C6       : /119.04/119.04/119.04
DURACION DEL REGISTRO (s), C7-C12      :
NUM. TOTAL DE MUESTRAS, C1-C6          : /23808/23808/23808
NUM. TOTAL DE MUESTRAS, C7-C12         :
ACEL. MAX.(Gal), C1-C6                 : /7.86/-2.45/-15.16
ACEL. MAX., C1-C6, EN LA MUESTRA       : /4887/5044/5048
ACEL. MAX.(Gal), C7-C12                :
ACEL. MAX., C7-C12, EN LA MUESTRA      : 
UNIDADES DE LOS DATOS                  : Gal 
FACTOR DE DECIMACION                   : 1
FORMATO DATOS (FORTRAN,10 campos/dato) : 3F10.3


===============================================================================
CALIDAD DEL ACELEROGRAMA:
REGISTRO DIGITAL COMPLETO, CARECE DE TIEMPO ABSOLUTO.


===============================================================================
COMENTARIOS:
CADA UNO DE LOS CANALES SE ENCUENTRA AJUSTADO POR LINEA BASE MEDIANTE LA
SUSTRACCION DEL PROMEDIO DE LAS ACELERACIONES EN EL TIEMPO.











MODELO DEL ACELEROGRAFO : SSA-2 (KINEMETRICS)
===============================================================================
DATOS DE ACELERACION:
---------+---------+---------+---------+---------+---------+---------+---------+
   CANAL-1   CANAL-2   CANAL-3   CANAL-4   CANAL-5   CANAL-6   CANAL-7   CANAL-8
      N00E        +V      N90E
---------+---------+---------+---------+---------+---------+---------+---------+
[...]
     -.932      .480    -6.372
     -.932      .480    -6.372
     -.932      .480    -5.883
     -.932      .480    -5.883
     -.932      .480    -5.883
     -.932      .968    -5.395
     -.444      .480    -5.395
     -.444      .968    -4.907
     -.444      .968    -4.907
     -.444      .968    -4.418
     -.444      .968    -4.418
     -.444      .968    -4.418
     -.444      .968    -3.930
     -.444      .968    -3.930
     -.444      .968    -3.930
     -.444     1.456    -3.442
     -.444     1.456    -3.442
     -.444     1.456    -2.954
     -.444     1.456    -2.954
     -.444     1.456    -2.465
     -.444     1.456    -1.977
     -.932     1.456    -1.977
     -.932     1.456    -1.489
     -.932     1.456    -1.000
     -.932     1.456    -1.000
     -.932     1.456     -.512
     -.932     1.456     -.024
     -.932     1.456     -.024
     -.932     1.456      .464
     -.932     1.456      .464
     -.932     1.456      .953
     -.932     1.456      .953
     -.932     1.456      .953
     -.932     1.456      .953
     -.932     1.456      .953
     -.932     1.456     1.441
     -.932     1.456     1.441
     -.932      .968     1.441
     -.932      .968     1.441
     -.932      .968     1.441
     -.932      .968     1.441
     -.444      .968     1.441
     -.444      .968     1.441
     -.932      .480     1.441
     -.444      .480     1.441
     -.444      .480     1.929
     -.444      .480     1.929
     -.444      .480     1.929
     -.444      .480     2.418
     -.444      .480     2.418
      .045      .480     2.418
      .045      .480     2.418
      .045      .480     2.906
      .045      .480     2.906
      .045      .480     2.906
      .533      .480     2.906
      .533      .480     2.906
      .533      .480     2.906
      .533      .480     2.906
     1.022      .480     3.394
     1.022      .480     3.394
     1.510      .480     3.394
     1.510      .480     3.394
     1.510      .480     2.906
     1.510      .480     2.906
     1.510      .480     2.906
     1.510      .480     2.906
     1.510      .480     2.906
     1.510      .480     2.906
     1.510      .480     2.906
     1.510      .480     2.906
     1.510      .480     2.906
     1.022     -.009     2.906
     1.022     -.009     2.418
     1.022     -.009     2.418
     1.022     -.009     2.418
     1.022     -.009     2.418
      .533     -.009     2.418
      .533     -.009     2.418
      .533     -.009     2.418
      .533     -.009     1.929
      .533     -.009     1.929
      .533     -.497     1.929
      .533     -.009     1.441
      .533     -.009     1.441
      .045     -.497      .953
      .045     -.009      .953
      .045     -.009      .464
      .045     -.497      .464
      .045     -.497      .464
     -.444     -.497     -.024
     -.444     -.497     -.024
     -.444     -.497     -.512
     -.444     -.497     -.512
     -.444     -.985    -1.000
     -.444     -.985    -1.000
     -.932     -.985    -1.000
     -.932     -.985    -1.000
     -.932    -1.473    -1.489
     -.932    -1.473    -1.489
     -.932    -1.473    -1.489
    -1.421    -1.473    -1.489
    -1.421    -1.473    -1.489
    -1.421    -1.473    -1.977
    -1.421    -1.473    -1.977
    -1.909    -1.473    -1.977
    -1.909    -1.473    -1.977
    -1.909    -1.473    -1.977
    -1.909    -1.473    -1.977
    -2.397    -1.473    -2.465
    -2.397     -.985    -2.465
    -2.397     -.985    -2.465
    -2.397     -.985    -2.465
    -2.397     -.985    -2.465
    -2.885     -.985    -2.465
    -2.885     -.985    -2.954
    -2.885     -.497    -2.954
    -2.885     -.497    -2.954
    -3.374     -.497    -2.954
    -3.374     -.497    -2.954
    -3.374     -.497    -2.954
    -3.374     -.497    -3.442
    -3.374     -.497    -3.442
    -3.374     -.497    -3.442
    -3.374     -.497    -3.442
    -3.374     -.009    -3.442
    -3.374     -.009    -3.442
    -3.374     -.009    -3.442
    -3.374     -.009    -2.954
    -3.374     -.009    -2.954
    -2.885     -.009    -2.954
    -2.885     -.009    -2.465
    -2.885     -.009    -2.465
    -2.397      .480    -2.465
    -2.397      .480    -1.977
    -2.397      .480    -1.977
    -1.909      .480    -1.489
    -1.909      .480    -1.489
    -1.909      .968    -1.000
    -1.421      .968    -1.000
    -1.421      .968     -.512
     -.932      .968     -.024
     -.932      .968     -.024
     -.444      .968      .464
     -.444      .968      .953
      .045      .968     1.441
      .533      .968     1.441
      .533      .968     1.929
     1.022      .968     2.418
     1.022      .968     2.906
     1.510      .968     3.394
     1.999      .968     3.394
     2.487      .968     3.882
     2.976      .968     4.371
     3.464     1.456     4.371
     3.464     1.456     4.859
     3.953     1.456     5.348
     3.953     1.456     5.348
     4.441     1.456     5.348
     4.441      .968     5.836
     4.930      .968     5.836
     5.419      .968     6.325
     5.419      .968     6.325
     5.419      .968     6.325
     5.419      .968     6.325
     5.419      .968     6.814
     5.907      .968     6.814
     5.907      .968     6.814
     5.907      .968     7.302
     5.907      .968     7.302
     6.396      .968     7.302
     6.396      .968     7.302
     6.396      .480     7.791
     6.884      .480     7.791
     6.884      .480     7.791
     6.884      .480     7.791
     7.373      .480     7.302
     7.373      .480     7.302
     7.373      .480     7.302
     7.373     -.009     6.814
     7.861      .480     6.325
     7.861     -.009     6.325
     7.861     -.009     5.836
     7.861     -.009     5.348
     7.861     -.009     4.859
     7.861     -.009     4.371
     7.861     -.009     4.371
     7.861     -.009     3.882
     7.861     -.009     3.394
     7.861     -.009     3.394
     7.373     -.009     2.906
     7.373     -.009     2.418
     7.373     -.009     2.418
     7.373     -.009     1.929
     6.884     -.497     1.441
     6.884     -.009      .953
     6.884     -.497      .464
     6.884     -.497      .464
     6.396     -.497     -.024
     6.396     -.497     -.512
     6.396     -.497     -.512
     5.907     -.497    -1.000
     5.907     -.497    -1.489
     5.907     -.497    -1.489
     5.419     -.985    -1.977
     5.419     -.985    -2.465
     5.419     -.985    -2.465
     5.419     -.985    -2.954
     4.930     -.497    -2.954
     4.930     -.985    -3.442
     4.441     -.497    -3.442
     4.441     -.497    -3.930
     3.953     -.009    -3.930
     3.953     -.009    -4.418
     3.464     -.009    -4.907
     3.464     -.009    -4.418
     2.976      .480    -4.907
     2.976      .480    -4.907
     2.487      .480    -4.907
     2.487      .480    -4.907
     1.999      .968    -4.907
     1.510      .968    -4.907
     1.510      .968    -4.907
     1.022      .968    -4.907
      .533      .968    -4.907
      .533      .968    -4.907
      .045      .968    -4.907
     -.444      .968    -4.907
     -.932      .968    -4.907
     -.932      .968    -4.907
    -1.421      .480    -5.395
    -1.421      .480    -4.907
    -1.909      .480    -4.907
    -2.397     -.009    -4.907
    -2.397     -.009    -4.907
    -2.397     -.009    -4.907
    -2.885     -.497    -4.907
    -3.374     -.497    -4.418
    -3.374     -.497    -4.418
    -3.374     -.497    -4.418
    -3.374     -.497    -3.930
    -3.862     -.497    -3.930
    -3.862     -.497    -3.442
    -4.350     -.497    -3.442
    -4.350     -.497    -2.954
    -4.350     -.497    -2.465
    -4.839     -.497    -1.977
    -4.839     -.009    -1.977
    -4.839     -.009    -1.489
    -5.327     -.009    -1.000
    -5.327     -.009     -.512
    -5.327     -.009     -.024
    -5.327     -.009      .464
    -5.327     -.009      .953
    -5.327     -.009     1.441
    -5.327     -.009     1.929
    -5.327      .480     2.418
    -5.327     -.009     2.418
    -5.327     -.009     2.906
    -5.327     -.009     3.394
    -5.327     -.009     3.394
    -4.839     -.009     3.882
    -4.839     -.009     4.371
    -4.839     -.009     4.371
    -4.350     -.009     4.859
    -4.350     -.009     5.348
    -3.862      .480     5.348
    -3.374      .480     5.836
    -3.862     -.009     5.836
    -3.374     -.009     6.325
    -3.374      .480     6.325
    -2.885      .480     6.325
    -2.397      .480     6.814
    -2.397      .480     7.302
    -2.397      .480     7.302
    -1.909      .480     7.791
    -1.909      .480     7.791
    -1.421      .480     8.279
    -1.421      .480     8.279
     -.932      .480     8.768
     -.932      .480     8.768
     -.444      .480     8.768
     -.444      .480     9.256
     -.444      .480     9.256
      .045      .480     9.745
      .045     -.009     9.745
      .533     -.009     9.745
     1.022     -.009    10.233
     1.022     -.009    10.233
     1.510     -.009    10.233
     1.510     -.009     9.745
     1.510     -.009     9.745
     1.999     -.009     9.745
     1.999     -.009     9.256
     2.487     -.009     9.256
     2.487     -.009     8.768
     2.487     -.009     8.279
     2.976     -.009     7.791
     2.976     -.009     7.302
     2.976     -.009     6.814
     3.464     -.009     6.325
     3.464      .480     5.836
     3.953      .480     5.348
     3.953      .480     5.348
     3.953     -.009     4.859
     3.953     -.009     4.371
     3.953     -.009     3.882
     3.953     -.009     3.394
     3.953     -.009     2.906
     3.953     -.009     2.418
     3.953     -.009     1.929
     3.953     -.009     1.441
     3.953     -.497      .953
     3.464     -.497      .464
     3.464     -.497     -.024
     3.464     -.985     -.512
     3.464     -.985    -1.000
     2.976     -.985    -1.489
     2.976     -.985    -2.465
     2.976     -.985    -3.442
     2.487    -1.473    -3.930
     2.487    -1.473    -4.907
     2.487    -1.473    -5.883
     2.487    -1.473    -6.372
     2.487    -1.473    -7.348
     1.999    -1.473    -7.836
     1.999    -1.473    -8.325
     1.999    -1.473    -9.301
     1.999    -1.473    -9.790
     1.999    -1.473   -10.278
     1.999    -1.962   -10.766
     1.999    -1.473   -11.254
     1.999    -1.962   -11.743
     1.999    -1.962   -12.231
     1.999    -1.962   -12.719
     1.999    -1.962   -13.207
     1.999    -1.962   -13.696
     1.510    -2.450   -14.184
     1.510    -2.450   -14.184
     1.510    -2.450   -14.672
     1.510    -2.450   -14.672
     1.022    -2.450   -15.161
     1.022    -2.450   -15.161
      .533    -1.962   -15.161
      .533    -1.962   -15.161
      .533    -1.962   -15.161
      .533    -1.473   -15.161
      .045    -1.473   -15.161
      .045     -.985   -14.672
      .045     -.985   -14.672
     -.444     -.497   -14.184
     -.444     -.009   -13.696
     -.444     -.009   -13.696
     -.444     -.009   -13.207
     -.444      .480   -13.207
     -.444      .968   -12.719
     -.444      .968   -12.231
     -.444      .968   -11.743
     -.444      .968   -11.254
     -.444      .968   -10.766
     -.444      .968   -10.766
     -.444      .968   -10.278
     -.932      .968    -9.790
     -.932      .968    -9.301
     -.932      .968    -8.813
    -1.421      .968    -8.325
    -1.421      .968    -7.348
    -1.421      .968    -6.860
    -1.421      .968    -6.372
    -1.909      .968    -5.883
    -1.909      .968    -5.395
    -1.909      .968    -4.418
    -1.909      .968    -3.930
    -2.397      .968    -3.442
    -2.397      .968    -2.954
    -2.397      .968    -1.977
    -2.397      .968    -1.000
    -2.397      .968     -.512
    -2.397      .968      .464
    -2.397      .968      .953
    -2.397     1.456     1.441
    -2.397     1.456     2.418
    -2.397     1.456     2.906
    -2.397     1.456     3.882
    -2.397     1.945     4.371
    -1.909     1.945     4.859
    -1.909     1.945     5.836
    -1.909     1.945     6.325
    -1.909     1.945     6.814
    -1.909     1.945     7.302
    -1.421     1.945     8.279
    -1.421     1.945     8.768
    -1.421     1.945     9.256
     -.932     1.945     9.745
     -.932     1.945    10.233
     -.932     1.945    10.722
     -.444     1.945    11.210
     -.444     1.456    11.210
     -.444     1.456    11.699
     -.444     1.456    12.187
      .045      .968    12.187
      .045      .968    12.676
      .533      .968    12.676
      .533      .968    13.164
      .533      .480    13.164
      .533      .480    13.164
      .533      .480    13.164
     1.022     -.009    13.653
      .533     -.009    13.653
      .533     -.009    13.653
      .533     -.009    13.653
      .533     -.497    13.653
      .533     -.497    13.653
      .533     -.497    13.653
      .533     -.497    13.164
      .533     -.497    13.164
      .533     -.985    13.164
      .533     -.985    12.676
      .533     -.985    12.187
      .533     -.985    11.699
      .533     -.985    11.210
      .533     -.985    10.722
      .533     -.985    10.233
      .533     -.985     9.745
      .533     -.985     9.256
      .533     -.985     8.768
      .533     -.985     8.279
      .533     -.985     7.791
      .533     -.985     6.814
      .533     -.985     6.325
      .533     -.985     5.836
      .533     -.985     4.859
      .045     -.497     4.371
      .045     -.497     3.394
      .045     -.497     2.906
      .045     -.497     1.929
      .045     -.497     1.441
     -.444     -.497      .464
     -.444     -.497     -.024
     -.444     -.497    -1.000
     -.444     -.497    -1.489
     -.932     -.985    -2.465
     -.932     -.985    -3.442
     -.932     -.985    -3.930
    -1.421     -.985    -4.907
    -1.421     -.985    -5.395
    -1.421     -.985    -6.372
    -1.909     -.985    -6.860
    -1.909     -.985    -7.348
    -1.909     -.985    -7.836
    -2.397     -.985    -8.325
    -2.397     -.985    -8.813
    -2.397     -.985    -9.301
    -2.885     -.985    -9.790
    -2.885     -.985   -10.278
    -3.374     -.497   -10.278
    -3.374     -.497   -10.766
    -3.862     -.497   -11.254
    -3.862     -.497   -11.254
    -3.862     -.497   -11.254
    -3.862     -.009   -11.743
    -4.350     -.009   -12.231
    -4.350     -.009   -12.231
    -4.350     -.497   -12.719
    -4.839     -.497   -13.207
    -4.839     -.497   -13.207
    -4.839     -.497   -13.207
    -4.839     -.985   -13.696
    -4.839     -.985   -13.696
    -4.839     -.985   -13.696
    -4.839     -.985   -13.696
    -4.839     -.985   -13.696
    -4.839     -.985   -13.207
    -5.327     -.985   -13.207
    -5.327     -.985   -13.207
    -5.327     -.497   -13.207
    -5.815     -.497   -12.719
    -5.815     -.497   -12.719
    -5.815     -.497   -12.231
    -6.303     -.497   -12.231
    -6.303     -.009   -11.743
    -6.303     -.009   -11.743
    -6.303     -.009   -11.254
    -6.303     -.009   -11.254
    -6.303     -.009   -10.766
    -6.792     -.009   -10.278
    -6.792     -.009    -9.790
    -6.792      .480    -9.301
