********************************************************************************
           RED INTERUNIVERSITARIA DE INSTRUMENTACION SISMICA (RIIS)
 AREA DE ESTRUCTURAS, UNIVERSIDAD AUTONOMA METROPOLITANA - UNIDAD AZCAPOTZALCO
         AV. SAN PABLO 180; COL. REYNOSA TAMAULIPAS; MEXICO D.F. 02200.         
       TELS:53189458,53189456; FAX:53189085; e-mail: mrc@hp9000a1.uam.mx
********************************************************************************
ARCHIVO ESTANDAR DE ACELERACION:
VERSION DEL FORMATO                    : 2.0
NOMBRE DEL ARCHIVO                     : RIDA9906.151
FECHA Y HORA DE CREACION               : mayo 2000
REF. CATALOGO ACELEROGRAMAS, SMIS 1996 : 


================================================================================
DATOS DE LA ESTACION:
NOMBRE DE LA ESTACION                  : UAM AZCAPOTZALCO
CLAVE DE LA ESTACION                   : RIDA
LOCALIZACION DE LA ESTACION            : AVENIDA SAN PABLO Y EJE 5, COLONIA
                                       : REYNOSA, PLANTEL AZCAPOTZALCO, JARDIN
                                       : ENTRE EDIFICIO "H" Y "E", MEXICO, D.F.
                                       :
                                       :
COORDENADAS DE LA ESTACION             : 19.520 LAT. N 
                                       : 99.190 LONG. W 
ALTITUD (msnm)                         : 2240
TIPO DE SUELO                          : LIMO ARENOSO
                                       : 
                                       : 
INSTITUCION RESPONSABLE                : RED INTERUNIVERSITARIA DE
                                       : INSTRUMENTACION SISMICA (RIIS)

================================================================================
DATOS DEL ACELEROGRAFO:
MODELO DEL ACELEROGRAFO                : SSA-2
NUMERO DE SERIE DEL ACELEROGRAFO       : 1561
NUMERO DE CANALES                      : 3
ORIENTACION C1-C6 (rumbo;orientacion)  : /N00E/+V/N90E
ORIENTACION C7-C12 (rumbo;orientacion) :
VEL. DE MUESTREO, C1-C6 (muestras/s)   : /200/200/200
VEL. DE MUESTREO, C7-C12 (muestras/s)  :
ESC. COMPLETA DE SENSORES, C1-C6, (g)  : /1.0/1.0/1.0
ESC. COMPLETA DE SENSORES, C7-C12, (g) :
FREC. NAT. DE SENSORES, C1-C6, (Hz)    : /52.4/52.5/53.7
FREC. NAT. DE SENSORES, C7-C12, (Hz)   :
AMORTIGUAMIENTO DE SENSORES, C1-C6     : /0.64/0.64/0.64
AMORTIGUAMIENTO DE SENSORES, C7-C12    :
INTERVALO DE MUESTREO, C1-C6, (s)      : /0.005/0.005/0.005
INTERVALO DE MUESTREO, C7-C12, (s)     : 
UMBRAL DE DISPARO, C1-C6, (Gal)        : /3/3/3
UMBRAL DE DISPARO, C7-C12, (Gal)       :
MEMORIA DE PREEVENTO (s)               : 15.4
TIEMPO DE POSEVENTO (s)                : 60.0


================================================================================ 
DATOS DEL SISMO:
FECHA DEL SISMO (GMT)                  : 15/JUN/99
HORA EPICENTRO (GMT)                   : 20:42:07.1
MAGNITUD(ES)                           : /Mb=6.4/Ms=6.5/Ma=6.3/Me=7.0
COORDENADAS DEL EPICENTRO              : 18.18 LAT. N 
                                       : 97.51 LONG. W 
PROFUNDIDAD FOCAL (km)                 : 69
FUENTES DE LOS DATOS EPICENTRALES      : SSN
                                       : INSTITUTO DE GEOFISICA, UNAM

================================================================================
DATOS DE ESTE REGISTRO:
HORA DE LA PRIMERA MUESTRA (GMT)       : 20:42:44
EXACTITUD DEL TIEMPO (s)               : 
DURACION DEL REGISTRO (s), C1-C6       : /188.16/188.16/188.16
DURACION DEL REGISTRO (s), C7-C12      :
NUM. TOTAL DE MUESTRAS, C1-C6          : /37632/37632/37632
NUM. TOTAL DE MUESTRAS, C7-C12         :
ACEL. MAX.(Gal), C1-C6                 : /20.71/11.56/-29.36
ACEL. MAX., C1-C6, EN LA MUESTRA       : /6174/4779/7247
ACEL. MAX.(Gal), C7-C12                :
ACEL. MAX., C7-C12, EN LA MUESTRA      :
UNIDADES DE LOS DATOS                  : Gal
FACTOR DE DECIMACION                   : 1
FORMATO DATOS (FORTRAN,10 campos/dato) : 3F10.3


===============================================================================
CALIDAD DEL ACELEROGRAMA:
REGISTRO DIGITAL COMPLETO, CARECE DE TIEMPO ABSOLUTO.


===============================================================================
COMENTARIOS:
CADA UNO DE LOS CANALES SE ENCUENTRA AJUSTADO POR LINEA BASE MEDIANTE LA
SUSTRACCION DEL PROMEDIO DE LAS ACELERACIONES EN EL TIEMPO.











MODELO DEL ACELEROGRAFO : SSA-2 (KINEMETRICS)
===============================================================================
DATOS DE ACELERACION:
---------+---------+---------+---------+---------+---------+---------+---------+
   CANAL-1   CANAL-2   CANAL-3   CANAL-4   CANAL-5   CANAL-6   CANAL-7   CANAL-8
      N00E        +V      N90E
---------+---------+---------+---------+---------+---------+---------+---------+
[...]
     -7.54      0.98     -0.27
     -7.54      0.98      0.21
     -7.54      0.98      0.69
     -7.06      0.98      1.16
     -7.06      0.98      2.12
     -7.06      0.98      2.60
     -7.06      0.98      3.55
     -6.58      0.98      4.03
     -6.58      1.46      4.50
     -6.11      1.46      4.98
     -5.63      1.46      5.46
     -5.15      1.46      5.94
     -4.19      0.98      6.41
     -3.71      0.50      6.41
     -3.23      0.50      6.89
     -2.75      0.02      6.89
     -2.28     -0.46      7.37
     -1.32     -0.46      7.84
     -0.84     -0.94      8.32
      0.12     -1.42      8.32
      0.60     -1.42      8.80
      1.56     -1.42      8.80
      2.99     -1.91      8.80
      3.95     -1.91      8.80
      5.39     -1.91      8.80
      6.34     -1.91      8.80
      7.78     -1.91      8.32
      8.74     -1.42      8.32
      9.69     -0.94      8.32
     10.65     -0.94      8.32
     11.61     -0.46      8.32
     12.09     -0.46      8.80
     12.57      0.02      8.80
     13.05      0.50      9.28
     13.53      0.50      9.75
     13.53      0.50     10.23
     13.53      0.50     10.23
     13.53      0.50     10.71
     13.53      0.50     11.18
     13.53      0.02     11.18
     13.53      0.02     11.18
     13.53     -0.46     11.18
     14.01     -0.94     11.18
     14.01     -0.94     10.71
     14.01     -1.42     10.71
     14.01     -1.91     10.23
     14.01     -2.39      9.75
     13.53     -2.87      9.28
     13.05     -3.35      8.80
     13.05     -3.83      7.84
     12.57     -4.31      6.89
     12.57     -4.31      6.41
     12.57     -4.31      5.46
     12.57     -4.31      4.50
     12.57     -4.31      3.55
     12.57     -3.83      2.60
     13.05     -3.35      1.64
     13.53     -2.87      0.69
     13.53     -2.39      0.21
     14.01     -1.91     -0.74
     14.01     -1.42     -1.22
     14.48     -0.94     -1.70
     14.48     -0.46     -1.70
     14.48     -0.46     -2.18
     14.48      0.02     -2.18
     14.48      0.02     -2.65
     14.01      0.02     -2.65
     13.53     -0.46     -3.13
     13.05     -0.94     -3.13
     12.57     -1.42     -3.61
     12.09     -1.91     -4.08
     11.61     -2.39     -4.56
     10.65     -2.39     -5.51
     10.17     -2.87     -6.47
      9.22     -2.87     -7.42
      8.26     -3.35     -7.90
      7.30     -3.35     -8.85
      6.34     -3.35     -9.81
      5.39     -3.35    -10.76
      4.43     -3.35    -11.71
      3.47     -3.35    -12.19
      2.03     -2.87    -13.15
      1.08     -2.87    -13.62
      0.12     -2.87    -14.10
     -0.84     -2.39    -14.58
     -1.32     -1.91    -14.58
     -2.28     -1.42    -15.05
     -2.75     -0.94    -15.05
     -3.23     -0.46    -14.58
     -4.19      0.02    -14.58
     -4.67      0.02    -14.10
     -5.15      0.50    -14.10
     -5.63      0.98    -13.62
     -6.11      1.46    -13.15
     -6.58      1.94    -13.15
     -7.06      1.94    -13.15
     -8.02      2.42    -12.67
     -8.98      2.42    -12.67
     -9.46      2.42    -12.67
    -10.42      2.90    -12.19
    -11.37      2.90    -12.19
    -12.33      2.90    -11.71
    -13.29      2.90    -11.24
    -14.25      2.90    -11.24
    -15.20      2.90    -10.76
    -15.68      2.90    -10.28
    -16.64      3.38     -9.33
    -17.12      2.90     -8.85
    -17.60      2.90     -8.38
    -17.60      2.90     -7.42
    -17.60      2.90     -6.95
    -18.08      2.90     -5.99
    -17.60      2.90     -5.04
    -17.60      2.90     -4.08
    -17.60      2.90     -3.61
    -17.60      2.90     -2.65
    -17.12      2.90     -1.70
    -16.64      2.90     -0.74
    -16.16      2.90      0.21
    -15.68      2.42      1.16
    -15.20      2.42      2.12
    -14.25      1.94      3.07
    -13.29      1.94      3.55
    -12.33      1.46      4.50
    -11.37      1.46      4.98
    -10.42      0.98      5.46
     -9.94      0.98      5.94
     -8.98      0.98      6.89
     -8.50      0.98      6.89
     -8.02      0.98      7.37
     -8.02      0.98      7.84
     -7.54      0.98      7.84
     -7.06      0.98      7.84
     -7.06      0.98      7.84
     -6.58      0.98      7.84
     -6.11      1.46      7.84
     -5.15      1.46      7.37
     -4.19      1.46      7.37
     -3.23      1.94      6.89
     -2.28      1.94      6.89
     -1.32      1.94      6.89
     -0.36      1.46      6.89
      0.60      1.46      6.41
      2.03      1.46      6.41
      2.99      0.98      5.94
      3.95      0.50      5.94
      4.91      0.50      5.46
      5.86      0.02      4.98
      6.34      0.02      4.98
      6.82     -0.46      4.50
      7.30     -0.94      4.03
      7.30     -0.94      3.55
      7.30     -0.94      3.07
      7.78     -0.94      3.07
      7.30     -0.94      2.60
      7.30     -0.94      2.12
      7.30     -0.94      2.12
      6.82     -0.94      1.64
      6.34     -0.94      1.16
      5.86     -0.94      1.16
      5.39     -0.94      0.69
      4.91     -0.94      0.21
      3.95     -0.94     -0.27
      3.47     -0.46     -0.74
      2.99     -0.46     -0.74
      2.51      0.02     -0.74
      2.03      0.50     -1.22
      2.03      0.50     -0.74
      2.03      0.98     -0.74
      2.03      0.98     -0.74
      2.51      1.46     -0.74
      2.51      1.46     -0.27
      2.99      1.46     -0.27
      2.99      1.46      0.21
      3.47      1.46      0.21
      3.47      1.46      0.21
      3.95      1.46      0.21
      3.95      1.46     -0.27
      4.43      1.46     -0.74
      4.43      1.46     -1.22
      4.43      1.46     -1.70
      4.43      1.46     -1.70
      3.95      0.98     -1.70
      3.47      0.50     -1.70
      2.99      0.50     -1.70
      2.99      0.02     -1.22
      2.99     -0.46     -1.22
      2.99     -0.94     -0.74
      2.99     -1.42     -0.74
      2.99     -1.91     -0.74
      2.51     -2.39     -0.74
      2.03     -2.39     -0.74
      1.08     -2.87     -0.27
      0.60     -2.87     -0.27
      0.12     -2.87     -0.27
     -0.84     -2.87     -0.74
     -1.32     -2.87     -0.74
     -1.80     -2.39     -1.22
     -2.75     -2.39     -1.70
     -3.71     -2.39     -2.18
     -4.67     -1.91     -2.65
     -5.15     -1.42     -3.61
     -5.63     -0.94     -4.08
     -6.11     -0.46     -5.04
     -6.58      0.02     -5.51
     -6.58      0.50     -5.99
     -6.11      0.98     -6.47
     -6.11      0.98     -6.47
     -5.15      0.98     -6.47
     -4.67      0.98     -6.95
     -4.19      0.98     -6.95
     -3.71      0.50     -7.42
     -3.23      0.02     -6.95
     -3.23     -0.46     -6.47
     -3.23     -0.94     -5.99
     -3.23     -1.91     -5.51
     -3.23     -2.39     -5.04
     -3.23     -2.87     -4.08
     -3.71     -3.83     -3.61
     -4.19     -4.31     -3.13
     -5.15     -4.79     -2.65
     -6.11     -5.27     -2.18
     -7.06     -5.75     -1.70
     -8.02     -5.75     -1.70
     -8.50     -6.23     -1.22
     -9.46     -6.23     -1.22
     -9.94     -6.23     -1.22
    -10.42     -6.23     -1.22
    -10.89     -6.23     -1.22
    -10.89     -5.75     -0.74
    -10.42     -5.27     -0.74
    -10.42     -4.31     -0.74
     -9.94     -3.83     -0.74
     -8.98     -2.87     -0.74
     -7.54     -1.91     -0.27
     -6.11     -1.42      0.21
     -4.67     -0.94      0.21
     -3.23     -0.94      0.69
     -1.32     -0.46      1.16
      0.12     -0.94      1.16
      1.08     -0.94      2.12
      2.03     -0.94      2.60
      2.99     -1.42      3.07
      3.47     -1.91      4.03
      4.43     -1.91      4.98
      4.91     -2.39      5.94
      5.39     -2.87      6.89
      5.86     -3.35      8.32
      5.86     -3.83      9.28
      6.34     -3.83     10.23
      6.34     -4.31     10.71
      6.34     -4.31     11.66
      6.34     -4.79     12.62
      6.34     -4.79     13.09
      6.34     -4.31     13.57
      6.82     -4.31     14.05
      6.82     -3.83     14.52
      7.30     -2.87     14.52
      7.78     -2.39     14.52
      8.26     -1.42     14.52
      8.26     -0.46     14.52
      8.74      0.50     14.52
      9.22      1.46     14.52
      9.69      1.94     14.52
      9.69      2.90     14.52
     10.17      3.86     14.52
     10.17      4.35     15.00
     10.65      4.83     15.48
     11.13      5.31     15.96
     11.61      5.79     16.43
     12.09      6.27     16.91
     12.09      6.27     17.39
     12.57      6.27     17.86
     13.05      6.75     18.34
     13.05      6.27     18.34
     12.57      6.27     18.82
     12.57      5.79     19.30
     12.57      5.79     19.30
     12.57      5.31     19.30
     12.09      4.83     19.30
     12.09      4.35     18.82
     11.61      3.86     18.34
     11.61      3.38     18.34
     11.13      2.90     17.86
     11.13      2.42     17.39
     10.65      1.94     17.39
     10.65      1.94     16.91
     10.65      1.94     16.43
     10.17      1.94     16.43
     10.17      1.94     15.96
     10.17      1.94     15.48
      9.69      1.94     15.48
      9.69      2.42     15.00
      9.22      2.42     14.52
      8.74      2.42     14.52
      8.26      2.42     14.52
      7.30      1.94     14.05
      6.82      1.94     14.05
      5.86      1.94     13.57
      5.39      1.94     13.57
      4.43      1.94     13.09
      3.95      1.46     12.62
      2.99      1.46     12.14
      2.03      0.98     11.66
      1.56      0.50     11.18
      0.60      0.02     10.71
     -0.36     -0.46      9.75
     -0.84     -0.94      9.28
     -1.80     -1.42      8.32
     -2.28     -1.91      7.84
     -3.23     -1.91      6.89
     -3.71     -2.39      6.41
     -4.67     -2.39      5.46
     -5.15     -2.87      4.50
     -5.63     -2.87      3.55
     -6.11     -2.87      2.60
     -6.58     -2.87      1.64
     -7.06     -2.87      0.21
     -7.54     -2.39     -0.74
     -7.54     -2.39     -1.70
     -8.02     -2.39     -3.13
     -8.02     -2.39     -4.56
     -8.02     -2.39     -6.47
     -8.50     -2.87     -7.90
     -8.50     -2.87     -9.81
     -8.98     -3.35    -11.71
     -9.46     -3.83    -13.15
     -9.94     -3.83    -15.05
    -10.89     -4.31    -16.96
    -11.37     -4.31    -18.39
    -12.33     -4.31    -19.82
    -13.29     -4.31    -21.25
    -14.25     -4.31    -22.21
    -14.72     -3.83    -23.64
    -15.68     -3.83    -24.59
    -16.16     -3.35    -25.07
    -16.64     -2.87    -26.02
    -17.12     -2.87    -26.98
    -17.60     -2.39    -27.45
    -17.60     -1.91    -27.93
    -17.60     -1.42    -28.41
    -17.12     -1.42    -28.41
    -16.64     -0.94    -28.88
    -16.16     -0.46    -29.36
    -15.20      0.02    -29.36
    -14.72      0.02    -29.36
    -13.77      0.50    -29.36
    -12.81      0.50    -29.36
    -11.37      0.50    -28.88
    -10.42      0.50    -28.41
     -9.94      0.98    -27.93
     -8.98      0.98    -27.45
     -8.50      0.98    -26.98
     -7.54      0.98    -26.02
     -7.06      0.98    -25.54
     -7.06      0.98    -24.59
     -6.58      0.98    -23.64
     -6.11      1.46    -22.68
     -5.63      1.46    -21.73
     -5.63      1.46    -20.78
     -5.15      1.46    -19.82
     -4.67      1.46    -18.39
     -4.19      0.98    -17.44
     -3.71      0.98    -16.48
     -3.23      0.98    -15.53
     -3.23      0.98    -14.10
     -2.75      0.98    -13.15
     -2.28      0.98    -11.71
     -1.80      0.98    -10.28
     -1.32      0.98     -8.85
     -0.84      0.98     -7.90
      0.12      0.50     -6.47
      0.60      0.50     -5.04
      1.08      0.50     -3.61
      1.56      0.02     -2.65
      2.03      0.02     -1.22
      2.51     -0.46      0.21
      3.47     -0.94      1.64
      3.95     -1.42      3.07
      4.91     -1.42      4.03
      5.86     -1.91      4.98
      6.34     -1.91      5.94
      6.82     -1.91      6.89
      7.78     -1.91      7.37
      8.26     -1.91      7.84
      8.74     -1.91      8.80
      9.22     -1.91      8.80
      9.69     -1.91      9.28
      9.69     -1.42      9.75
     10.17     -1.42      9.75
      9.69     -0.94     10.23
     10.17     -0.46     10.71
      9.69     -0.46     10.71
      9.22      0.02     11.18
      8.74      0.50     12.14
      8.26      0.50     12.62
      7.30      0.98     13.09
      6.82      0.98     14.05
      5.86      1.46     14.52
      5.39      1.46     15.00
      4.91      1.46     15.48
      4.43      1.46     15.96
      4.43      1.46     15.96
      4.43      0.98     16.43
      4.43      0.98     16.43
      4.91      0.98     16.43
      5.39      0.50     15.96
      5.39      0.50     15.48
      5.86      0.02     15.00
      6.34      0.02     14.52
      6.34      0.02     14.05
      6.34      0.02     13.57
      6.34      0.02     13.09
      5.86      0.02     12.62
      5.86      0.02     12.14
      5.39     -0.46     11.66
      4.43      0.02     10.71
      3.95     -0.46     10.71
      3.47      0.02     10.23
      2.51      0.02      9.75
      2.03      0.02      9.28
      1.56      0.02      8.80
      0.60      0.50      8.32
      0.60      0.50      8.32
      0.12      0.50      7.84
     -0.36      0.50      7.84
     -0.36      0.50      7.84
     -0.36      0.02      7.84
     -0.84      0.02      7.84
     -0.84      0.02      7.84
     -0.84      0.02      7.84
     -0.84      0.02      7.37
     -0.84      0.50      7.37
     -0.84      0.98      6.89
     -0.84      0.98      6.41
     -0.84      1.94      5.94
     -0.84      1.94      5.46
     -0.84      2.42      4.98
     -0.84      2.90      4.03
     -1.32      3.38      3.07
     -1.80      3.38      1.64
     -2.28      3.38      0.69
     -2.75      3.38     -0.27
     -3.23      3.38     -1.22
     -3.71      3.38     -2.18
     -4.19      2.90     -3.13
     -4.67      2.90     -4.08
     -5.15      2.42     -5.04
     -5.15      2.42     -5.51
     -5.63      1.94     -5.99
     -5.63      1.94     -6.47
     -5.63      1.94     -6.47
     -5.63      1.46     -6.95
     -5.63      1.46     -6.95
     -5.63      1.46     -7.42
     -5.63      1.46     -7.42
     -5.63      1.46     -7.42
     -5.63      1.46     -7.42
     -5.63      1.46     -7.42
     -5.63      0.98     -7.42
     -5.63      0.98     -6.95
     -5.63      0.98     -6.95
     -5.63      0.98     -6.95
     -5.63      0.98     -6.95
     -5.63      0.98     -6.95
     -5.63      0.98     -6.95
     -5.63      0.98     -7.42
     -5.15      0.98     -7.90
     -5.15      0.98     -8.38
     -4.67      0.98     -8.85
     -3.71      0.98     -9.81
     -3.23      1.46    -10.28
     -2.75      1.46    -11.24
     -2.28      1.94    -11.71
     -1.32      1.94    -12.19
     -0.84      1.94    -12.19
      0.12      2.42    -12.19
      0.60      2.42    -12.19
      1.56      2.42    -11.71
      2.03      2.90    -11.24
      2.99      2.90    -10.76
      2.99      2.90    -10.28
      3.95      2.90     -9.81
      3.95      2.90     -8.85
      4.43      2.42     -7.90
      4.43      2.42     -7.42
      4.43      1.94     -6.47
      4.43      1.94     -5.99
      3.95      1.46     -5.51
      3.95      0.98     -4.56
      3.47      0.50     -4.08
