********************************************************************************
           RED INTERUNIVERSITARIA DE INSTRUMENTACION SISIMICA (RIIS)
 AREA DE ESTRUCTURAS, UNIVERSIDAD AUTONOMA METROPOLITANA - UNIDAD AZCAPOTZALCO
         AV. SAN PABLO 180; COL. REYNOSA TAMAULIPAS; MEXICO D.F. 02200.                                                                               
       TELS: 7235859, 7235856; FAX: 7244285; e-mail: esz@hp9000a1.uam.mx
********************************************************************************
ARCHIVO ESTANDAR DE ACELERACION:
VERSION DEL FORMATO                    : 2.0
NOMBRE DEL ARCHIVO                     : RIDA9310.241
FECHA Y HORA DE CREACION               : 24 de octubre 1993 /07:55
REF. CATALOGO ACELEROGRAMAS, SMIS 1996 : REGISTRO No. 28 /PAG. 34


================================================================================
DATOS DE LA ESTACION:
NOMBRE DE LA ESTACION                  : UAM AZCAPOTZALCO
CLAVE DE LA ESTACION                   : RIDA
LOCALIZACION DE LA ESTACION            : AVENIDA SAN PABLO Y EJE 5, COLONIA
                                       : REYNOSA, PLANTEL AZCAPOTZALCO, JARDIN
                                       : ENTRE EDIFICIO "H" Y "E", MEXICO, D.F.
                                       :
                                       :
COORDENADAS DE LA ESTACION             : 19.520 LAT. N 
                                       : 99.190 LONG. W 
ALTITUD (msnm)                         : 2240
TIPO DE SUELO                          : LIMO ARENOSO
                                       : 
                                       : 
INSTITUCION RESPONSABLE                : RED INTERUNIVERSITARIA DE
                                       : INSTRUMENTACION SISMICA (RIIS)

================================================================================
DATOS DEL ACELEROGRAFO:
MODELO DEL ACELEROGRAFO                : SSA-2
NUMERO DE SERIE DEL ACELEROGRAFO       : 1009
NUMERO DE CANALES                      : 3
ORIENTACION C1-C6 (rumbo;orientacion)  : /N00E/+V/N90E
ORIENTACION C7-C12 (rumbo;orientacion) :
VEL. DE MUESTREO, C1-C6 (muestras/s)   : /200/200/200
VEL. DE MUESTREO, C7-C12 (muestras/s)  :
ESC. COMPLETA DE SENSORES, C1-C6, (g)  : /1.0/1.0/1.0
ESC. COMPLETA DE SENSORES, C7-C12, (g) :
FREC. NAT. DE SENSORES, C1-C6, (Hz)    : /50.0/50.0/50.0
FREC. NAT. DE SENSORES, C7-C12, (Hz)   :
AMORTIGUAMIENTO DE SENSORES, C1-C6     : /0.7/0.7/0.7
AMORTIGUAMIENTO DE SENSORES, C7-C12    :
INTERVALO DE MUESTREO, C1-C6, (s)      : /0.005/0.005/0.005
INTERVALO DE MUESTREO, C7-C12, (s)     : 
UMBRAL DE DISPARO, C1-C6, (Gal)        : /2/2/2
UMBRAL DE DISPARO, C7-C12, (Gal)       :
MEMORIA DE PREEVENTO (s)               : 15
TIEMPO DE POSEVENTO (s)                : 60


================================================================================
DATOS DEL SISMO:
FECHA DEL SISMO (GMT)                  : 24/OCT/93
HORA EPICENTRO (GMT)                   : 07:52:18,2
MAGNITUD(ES)                           : /Mb=6.20/Ms=6.60/Mc=6.50
COORDENADAS DEL EPICENTRO              : 16.540 LAT. N 
                                       : 98.980 LONG. W 
PROFUNDIDAD FOCAL (km)                 : 19 
FUENTES DE LOS DATOS EPICENTRALES      : SSN
                                       : INSTITUTO DE GEOFISICA, UNAM

================================================================================
DATOS DE ESTE REGISTRO:
HORA DE LA PRIMERA MUESTRA (GMT)       : 07:54:00.00
EXACTITUD DEL TIEMPO (s)               : 
DURACION DEL REGISTRO (s), C1-C6       : /110.08/110.08/110.08
DURACION DEL REGISTRO (s), C7-C12      :
NUM. TOTAL DE MUESTRAS, C1-C6          : /22016/22016/22016
NUM. TOTAL DE MUESTRAS, C7-C12         :
ACEL. MAX.(Gal), C1-C6                 : /7.51/2.30/5.98
ACEL. MAX., C1-C6, EN LA MUESTRA       : /9455/10972/9058
ACEL. MAX.(Gal), C7-C12                :
ACEL. MAX., C7-C12, EN LA MUESTRA      :
UNIDADES DE LOS DATOS                  : Gal
FACTOR DE DECIMACION                   : 1
FORMATO DATOS (FORTRAN,10 campos/dato) : 3F10.3


===============================================================================
CALIDAD DEL ACELEROGRAMA:
REGISTRO DIGITAL COMPLETO, CARECE DE TIEMPO ABSOLUTO.


===============================================================================
COMENTARIOS:
CADA UNO DE LOS CANALES SE ENCUENTRA AJUSTADO POR LINEA BASE MEDIANTE LA
SUSTRACCION DEL PROMEDIO DE LAS ACELERACIONES EN EL TIEMPO.











MODELO DEL ACELEROGRAFO : SSA-2 (KINEMETRICS)
===============================================================================
DATOS DE ACELERACION:
---------+---------+---------+---------+---------+---------+---------+---------+
   CANAL-1   CANAL-2   CANAL-3   CANAL-4   CANAL-5   CANAL-6   CANAL-7   CANAL-8
      N00E        +V      N90E
---------+---------+---------+---------+---------+---------+---------+---------+
[...]
     4.575     -.121    -1.832
     4.575     -.121    -2.320
     4.575     -.121    -2.320
     5.064     -.121    -2.320
     4.575     -.121    -2.320
     5.064     -.121    -2.320
     5.064     -.121    -2.320
     5.064     -.121    -2.808
     5.064     -.121    -2.808
     5.064     -.121    -2.808
     5.064     -.121    -2.808
     5.064     -.121    -2.808
     5.064     -.121    -2.808
     5.064      .363    -2.808
     5.064      .363    -2.808
     4.575      .363    -2.808
     4.575      .363    -2.808
     4.575      .363    -2.808
     4.575      .363    -2.808
     4.087      .848    -3.297
     4.087      .848    -3.297
     4.087      .848    -3.297
     3.598      .848    -3.297
     3.598      .848    -3.297
     3.109      .363    -3.297
     3.109      .363    -3.297
     2.621      .363    -3.297
     2.621      .363    -3.297
     2.132      .363    -3.297
     2.132      .363    -3.297
     1.644     -.121    -3.297
     1.155     -.121    -2.808
     1.155     -.121    -2.808
     1.155     -.121    -2.808
      .667     -.121    -2.808
      .178     -.121    -2.808
      .178     -.606    -2.808
     -.310     -.606    -2.808
     -.310     -.606    -2.808
     -.799     -.606    -2.808
     -.799     -.606    -2.808
    -1.287     -.606    -2.320
    -1.287     -.606    -2.320
    -1.776     -.606    -2.320
    -2.264     -.606    -2.320
    -2.264     -.606    -1.832
    -2.753     -.606    -1.832
    -2.753     -.606    -1.832
    -3.241     -.606    -1.344
    -3.730     -.606    -1.344
    -3.730     -.606     -.855
    -4.218     -.606     -.855
    -4.706     -.606     -.367
    -4.706     -.606     -.367
    -4.706     -.606      .121
    -5.194     -.606      .121
    -5.194     -.606      .610
    -5.194     -.606      .610
    -5.683     -.606     1.098
    -5.683     -.606     1.098
    -5.683     -.606     1.098
    -5.683     -.606     1.586
    -6.171     -.606     1.586
    -6.171     -.606     1.586
    -6.171     -.606     2.074
    -6.171     -.606     2.074
    -6.171     -.606     2.074
    -6.659     -.606     2.074
    -6.659     -.606     2.563
    -6.659     -.606     2.563
    -6.659     -.606     2.563
    -7.148     -.121     2.563
    -7.148     -.121     3.051
    -7.148     -.121     2.563
    -7.148     -.121     3.051
    -7.148     -.121     3.051
    -7.148     -.121     3.051
    -7.148     -.121     3.051
    -7.148     -.121     3.539
    -7.148     -.121     3.539
    -7.148     -.121     3.539
    -7.148     -.121     3.539
    -7.148     -.121     3.539
    -7.148     -.121     3.539
    -7.148     -.121     3.539
    -6.659     -.121     3.539
    -6.659     -.121     3.051
    -6.659     -.121     3.051
    -6.171     -.121     3.051
    -6.171     -.121     3.051
    -5.683     -.121     3.051
    -5.683      .363     3.051
    -5.194      .363     3.051
    -5.194      .363     3.051
    -4.706      .363     3.051
    -4.706      .363     2.563
    -4.706      .363     2.563
    -4.218      .363     2.563
    -4.218      .363     2.074
    -3.730      .363     2.074
    -3.730      .363     2.074
    -3.241      .363     1.586
    -3.241      .363     1.586
    -2.753      .363     1.586
    -2.753      .363     1.586
    -2.264      .363     1.586
    -2.264      .363     1.586
    -1.776      .363     1.586
    -1.287      .363     1.586
    -1.287      .363     1.586
     -.799      .363     1.586
     -.799     -.121     1.586
     -.310     -.121     1.586
      .178     -.121     1.586
      .178     -.121     1.586
      .667     -.121     1.586
     1.155     -.121     1.586
     1.644     -.121     1.098
     2.132     -.121     1.098
     2.621     -.606     1.098
     2.621     -.606      .610
     3.109     -.606      .610
     3.598     -.606      .610
     3.598     -.606      .610
     4.087     -.606      .121
     4.087     -.606      .121
     4.575     -.606      .121
     5.064     -.606     -.367
     5.064     -.606     -.367
     5.552     -.606     -.367
     5.552     -.606     -.367
     6.041     -.606     -.367
     6.041     -.606     -.367
     6.041     -.606     -.367
     6.529     -.606     -.367
     6.529     -.121     -.367
     6.529     -.121     -.367
     6.529     -.121     -.367
     6.529     -.121     -.367
     6.529     -.121     -.367
     6.529     -.121     -.855
     6.529     -.121     -.855
     7.018      .363     -.855
     7.018      .363     -.855
     7.018      .363     -.855
     7.018      .363     -.855
     7.018      .363     -.855
     7.018      .363     -.855
     7.018      .363     -.855
     7.018      .363    -1.344
     7.018      .363    -1.344
     7.018      .363    -1.344
     7.018      .363    -1.344
     7.018      .363    -1.344
     7.018      .363    -1.344
     7.018      .363    -1.344
     6.529      .363    -1.344
     6.529      .363    -1.344
     6.529      .363    -1.344
     6.529      .363    -1.832
     6.041      .363    -1.832
     6.041      .363    -1.832
     6.041      .363    -1.832
     5.552      .363    -1.832
     5.552      .363    -1.832
     5.064      .363    -1.832
     4.575      .848    -1.832
     4.575      .848    -1.832
     4.575      .848    -1.344
     4.087      .848    -1.344
     3.598      .848    -1.344
     3.598      .848    -1.344
     3.109      .848    -1.344
     2.621      .848    -1.344
     2.621     1.332    -1.344
     2.132      .848    -1.344
     2.132     1.332    -1.344
     2.132     1.332     -.855
     1.644      .848     -.855
     1.644      .848     -.855
     1.644      .848     -.855
     1.155      .848     -.855
     1.155      .848     -.855
     1.155      .848     -.855
      .667      .848     -.367
      .667      .848     -.367
      .178      .848     -.367
      .178      .848     -.367
     -.310      .848      .121
     -.310      .848      .121
     -.799      .848      .121
     -.799      .848      .121
    -1.287      .848      .121
    -1.287      .848      .121
    -1.776      .848      .121
    -1.776      .848      .121
    -2.264      .848      .121
    -2.264      .848      .610
    -2.264      .848      .610
    -2.264      .848      .610
    -2.264      .848      .610
    -2.264      .848      .610
    -2.753      .848      .610
    -2.753      .848     1.098
    -2.753      .848     1.098
    -2.753      .848     1.098
    -2.753      .848     1.098
    -2.753      .848     1.098
    -2.753      .848     1.098
    -2.753      .363     1.098
    -2.753      .363     1.098
    -2.753      .363     1.098
    -2.753      .363     1.098
    -2.753      .363     1.098
    -2.753      .363     1.586
    -2.753      .363     1.098
    -2.753      .363     1.098
    -2.753      .363     1.098
    -2.264      .363     1.098
    -2.264      .363     1.098
    -2.264      .363     1.098
    -2.264     -.121     1.098
    -2.264     -.121     1.098
    -2.264     -.121     1.098
    -1.776     -.121     1.098
    -1.776     -.121     1.098
    -1.776     -.121     1.098
    -1.776     -.121     1.098
    -1.776     -.121     1.098
    -1.287     -.121     1.098
    -1.287     -.121     1.098
    -1.287     -.121     1.098
    -1.287     -.121     1.098
    -1.287     -.121     1.098
    -1.287     -.121     1.098
    -1.287     -.121     1.586
    -1.287     -.121     1.586
    -1.287     -.121     1.586
    -1.287      .363     1.586
    -1.287      .363     1.586
    -1.287      .363     1.586
    -1.287      .363     1.586
    -1.776      .363     2.074
    -1.776      .363     2.074
    -1.776      .363     2.074
    -1.776      .363     2.074
    -1.776      .363     2.074
    -1.776     -.121     2.074
    -1.776     -.121     2.074
    -1.776     -.121     2.074
    -1.776     -.121     2.074
    -2.264     -.121     2.074
    -2.264     -.606     2.074
    -2.264     -.606     2.074
    -2.264     -.606     1.586
    -2.264     -.606     1.586
    -2.264    -1.090     1.586
    -2.264    -1.090     1.586
    -2.264    -1.090     1.586
    -2.264    -1.090     1.586
    -2.264    -1.574     1.586
    -2.264    -1.574     1.586
    -2.264    -1.574     1.586
    -2.753    -1.574     1.586
    -2.753    -1.574     1.586
    -2.753    -1.574     1.586
    -2.753    -2.059     1.098
    -2.753    -2.059     1.586
    -2.753    -2.059     1.098
    -3.241    -2.059     1.098
    -3.241    -2.059     1.098
    -3.241    -1.574     1.098
    -3.241    -1.574     1.098
    -3.241    -1.574      .610
    -3.241    -1.574      .610
    -2.753    -1.574      .610
    -2.753    -1.090      .610
    -2.753    -1.090      .121
    -2.753    -1.090      .121
    -2.753    -1.090      .121
    -2.753    -1.090      .121
    -2.264     -.606     -.367
    -2.264     -.606     -.367
    -2.264     -.606     -.367
    -2.264     -.606     -.855
    -2.264     -.606     -.855
    -2.264     -.606     -.855
    -2.264     -.606    -1.344
    -2.264     -.606     -.855
    -1.776     -.606    -1.344
    -1.776     -.606    -1.344
    -1.776     -.606     -.855
    -1.287     -.606    -1.344
    -1.287     -.121     -.855
    -1.287     -.606     -.855
    -1.287     -.606     -.855
    -1.287     -.606     -.855
    -1.287     -.606     -.367
    -1.287     -.606     -.367
    -1.287     -.606     -.367
     -.799     -.121     -.367
     -.310     -.121     -.367
     -.310     -.121     -.367
     -.310     -.121     -.367
      .178     -.121     -.367
      .178     -.121     -.367
      .667     -.121     -.367
     1.155     -.121     -.367
     1.155     -.121     -.367
     1.644     -.121      .121
     2.132     -.121     -.367
     2.132      .363     -.367
     2.621      .363     -.367
     3.109      .363     -.367
     3.109      .363     -.855
     3.598      .363     -.855
     4.087      .363     -.855
     4.575      .363    -1.344
     4.575      .363    -1.344
     5.064      .363    -1.344
     5.064      .363     -.855
     5.064      .363     -.855
     5.552      .363     -.855
     5.552      .363    -1.344
     5.552      .363    -1.344
     5.552      .363    -1.344
     5.552      .363    -1.344
     6.041      .363    -1.344
     6.041      .363    -1.344
     6.041      .363    -1.344
     6.529      .848    -1.344
     6.529      .363    -1.344
     6.529      .363    -1.344
     6.529      .848    -1.344
     6.529      .363    -1.344
     6.529      .363    -1.344
     7.018      .363     -.855
     7.018      .363     -.855
     7.018      .363     -.855
     7.018      .363    -1.344
     7.018      .363     -.855
     7.506      .363    -1.344
     7.506      .363    -1.344
     7.506      .363    -1.344
     7.506      .363    -1.344
     7.506      .363    -1.832
     7.018      .363    -1.832
     7.018      .363    -1.832
     7.018      .363    -1.832
     6.529     -.121    -1.832
     6.529     -.121    -1.832
     6.529     -.121    -1.832
     6.529     -.121    -1.832
     6.041     -.121    -1.832
     6.041     -.121    -1.832
     5.552     -.121    -1.832
     5.552     -.121    -1.344
     5.064     -.121    -1.344
     5.064     -.121    -1.344
     4.575     -.121    -1.344
     4.087     -.121     -.855
     3.598     -.121     -.855
     3.598     -.121     -.855
     3.109     -.121     -.855
     2.621     -.606     -.855
     2.621     -.606     -.855
     2.132     -.606     -.855
     1.644     -.606     -.855
     1.155     -.606     -.855
     1.155     -.606    -1.344
      .667     -.606    -1.344
      .178     -.606    -1.344
      .178    -1.090    -1.344
     -.310    -1.090    -1.344
     -.799    -1.090    -1.344
     -.799    -1.090    -1.344
    -1.287    -1.090    -1.344
    -1.287    -1.090    -1.344
    -1.287    -1.090    -1.344
    -1.776    -1.090    -1.344
    -1.776    -1.090     -.855
    -1.776    -1.090     -.855
    -1.776    -1.090     -.855
    -2.264    -1.090     -.855
    -2.264    -1.090     -.855
    -2.264    -1.090     -.855
    -2.264     -.606     -.855
    -2.264     -.606     -.855
    -2.264     -.606     -.855
    -2.753     -.606     -.367
    -2.753     -.606     -.367
    -2.753     -.606     -.367
    -2.753     -.606     -.367
    -2.753     -.606     -.367
    -3.241     -.606     -.367
    -3.241     -.606     -.367
    -3.241     -.606     -.367
    -3.241     -.606     -.367
    -3.730     -.606     -.367
    -3.730     -.606     -.367
    -3.730     -.606     -.855
    -3.730     -.606     -.855
    -3.730     -.606     -.855
    -3.730     -.606     -.855
    -3.730     -.606     -.855
    -3.241     -.606    -1.344
    -3.241     -.121    -1.344
    -3.241     -.606    -1.344
    -3.241     -.606    -1.344
    -2.753     -.606    -1.832
    -2.753     -.606    -1.832
    -2.264     -.606    -1.832
    -2.264     -.606    -1.832
    -2.264     -.606    -1.832
    -1.776     -.606    -1.832
    -1.776     -.606    -2.320
    -1.287     -.606    -2.320
    -1.287     -.606    -2.320
    -1.287     -.121    -2.320
     -.799     -.121    -2.320
     -.799     -.121    -2.320
     -.799     -.121    -1.832
     -.799     -.121    -1.832
     -.310      .363    -1.832
     -.310      .363    -1.832
     -.310      .363    -1.832
     -.310      .363    -1.832
      .178      .363    -1.344
      .178      .363    -1.344
      .178      .363    -1.344
      .178      .363     -.855
      .667      .363     -.855
      .667      .363     -.855
      .667      .363     -.855
      .667      .363     -.855
      .667      .363     -.855
      .667      .363     -.367
      .667     -.121     -.367
      .667     -.121      .121
      .667     -.121      .121
      .667     -.121      .121
      .667     -.121      .610
      .667     -.121      .610
      .667     -.121     1.098
      .667     -.121     1.098
      .667     -.121     1.586
     1.155     -.121     1.586
     1.155     -.121     2.074
     1.155     -.121     2.074
     1.155     -.121     2.563
     1.155     -.121     3.051
     1.155      .363     3.051
      .667      .363     3.051
      .667      .363     3.051
      .178      .363     3.539
      .178      .363     3.539
      .178      .363     3.539
      .178      .363     3.539
     -.310      .363     4.028
     -.310      .363     4.028
     -.310      .363     4.028
     -.310      .363     4.028
     -.799      .363     4.028
     -.799      .363     4.028
     -.799     -.121     4.028
    -1.287     -.121     4.028
    -1.776     -.121     4.028
    -1.776     -.121     4.028
    -2.264     -.121     4.028
    -2.753     -.121     4.028
    -2.753     -.121     3.539
    -3.241     -.121     3.539
    -3.241     -.121     3.539
    -3.241     -.121     3.051
    -3.730     -.121     3.051
    -3.730     -.121     3.051
    -4.218     -.121     2.563
    -4.218     -.121     2.563
    -4.706     -.121     2.563
    -4.706     -.121     2.074
    -5.194     -.121     2.074
    -5.194     -.121     2.074
    -5.683      .363     2.074
    -5.683      .363     2.074
    -5.683      .363     2.074
    -5.683      .363     1.586
    -5.683      .363     1.586
    -5.683      .363     1.586
