********************************************************************************
           RED INTERUNIVERSITARIA DE INSTRUMENTACION SISIMICA (RIIS)
 AREA DE ESTRUCTURAS, UNIVERSIDAD AUTONOMA METROPOLITANA - UNIDAD AZCAPOTZALCO
         AV. SAN PABLO 180; COL. REYNOSA TAMAULIPAS; MEXICO D.F. 02200.                                                                               
       TELS: 7235859, 7235856; FAX: 7244285; e-mail: esz@hp9000a1.uam.mx
********************************************************************************
ARCHIVO ESTANDAR DE ACELERACION:
VERSION DEL FORMATO                    : 2.0
NOMBRE DEL ARCHIVO                     : RIDA9509.141
FECHA Y HORA DE CREACION               : 14 de septiembre 1995 /14:05
REF. CATALOGO ACELEROGRAMAS, SMIS 1996 : REGISTRO No. 1504 /PAG. 158


================================================================================
DATOS DE LA ESTACION:
NOMBRE DE LA ESTACION                  : UAM AZCAPOTZALCO
CLAVE DE LA ESTACION                   : RIDA
LOCALIZACION DE LA ESTACION            : AVENIDA SAN PABLO Y EJE 5, COLONIA
                                       : REYNOSA, PLANTEL AZCAPOTZALCO, JARDIN
                                       : ENTRE EDIFICIO "H" Y "E", MEXICO, D.F.
                                       :
                                       :
COORDENADAS DE LA ESTACION             : 19.520 LAT. N 
                                       : 99.190 LONG. W 
ALTITUD (msnm)                         : 2240
TIPO DE SUELO                          : LIMO ARENOSO
                                       : 
                                       : 
INSTITUCION RESPONSABLE                : RED INTERUNIVERSITARIA DE
                                       : INSTRUMENTACION SISMICA (RIIS)

================================================================================
DATOS DEL ACELEROGRAFO:
MODELO DEL ACELEROGRAFO                : SSA-2
NUMERO DE SERIE DEL ACELEROGRAFO       : 1561
NUMERO DE CANALES                      : 3
ORIENTACION C1-C6 (rumbo;orientacion)  : /N00E/+V/N90E
ORIENTACION C7-C12 (rumbo;orientacion) :
VEL. DE MUESTREO, C1-C6 (muestras/s)   : /200/200/200
VEL. DE MUESTREO, C7-C12 (muestras/s)  :
ESC. COMPLETA DE SENSORES, C1-C6, (g)  : /1.0/1.0/1.0
ESC. COMPLETA DE SENSORES, C7-C12, (g) :
FREC. NAT. DE SENSORES, C1-C6, (Hz)    : /50.0/50.0/50.0
FREC. NAT. DE SENSORES, C7-C12, (Hz)   :
AMORTIGUAMIENTO DE SENSORES, C1-C6     : /0.7/0.7/0.7
AMORTIGUAMIENTO DE SENSORES, C7-C12    :
INTERVALO DE MUESTREO, C1-C6, (s)      : /0.005/0.005/0.005
INTERVALO DE MUESTREO, C7-C12, (s)     : 
UMBRAL DE DISPARO, C1-C6, (Gal)        : /3/3/3
UMBRAL DE DISPARO, C7-C12, (Gal)       :
MEMORIA DE PREEVENTO (s)               : 15
TIEMPO DE POSEVENTO (s)                : 60


================================================================================
DATOS DEL SISMO:
FECHA DEL SISMO (GMT)                  : 14/SEP/95
HORA EPICENTRO (GMT)                   : 14:04:30,5
MAGNITUD(ES)                           : /Mb=6.40/Ms=7.20/Mc=7.30
COORDENADAS DEL EPICENTRO              : 16.310 LAT. N 
                                       : 98.880 LONG. W 
PROFUNDIDAD FOCAL (km)                 : 22 
FUENTES DE LOS DATOS EPICENTRALES      : SSN
                                       : INSTITUTO DE GEOFISICA, UNAM

================================================================================
DATOS DE ESTE REGISTRO:
HORA DE LA PRIMERA MUESTRA (GMT)       : 14:05:00.00
EXACTITUD DEL TIEMPO (s)               : 
DURACION DEL REGISTRO (s), C1-C6       : /163.84/163.84/163.84
DURACION DEL REGISTRO (s), C7-C12      :
NUM. TOTAL DE MUESTRAS, C1-C6          : /32768/32768/32768
NUM. TOTAL DE MUESTRAS, C7-C12         :
ACEL. MAX.(Gal), C1-C6                 : /16.81/7.08/-22.99
ACEL. MAX., C1-C6, EN LA MUESTRA       : /11678/9137/8865
ACEL. MAX.(Gal), C7-C12                :
ACEL. MAX., C7-C12, EN LA MUESTRA      : 
UNIDADES DE LOS DATOS                  : Gal 
FACTOR DE DECIMACION                   : 1
FORMATO DATOS (FORTRAN,10 campos/dato) : 3F10.3


===============================================================================
CALIDAD DEL ACELEROGRAMA:
REGISTRO DIGITAL COMPLETO, CARECE DE TIEMPO ABSOLUTO.


===============================================================================
COMENTARIOS:
CADA UNO DE LOS CANALES SE ENCUENTRA AJUSTADO POR LINEA BASE MEDIANTE LA
SUSTRACCION DEL PROMEDIO DE LAS ACELERACIONES EN EL TIEMPO.











MODELO DEL ACELEROGRAFO : SSA-2 (KINEMETRICS)
===============================================================================
DATOS DE ACELERACION:
---------+---------+---------+---------+---------+---------+---------+---------+
   CANAL-1   CANAL-2   CANAL-3   CANAL-4   CANAL-5   CANAL-6   CANAL-7   CANAL-8
      N00E        +V      N90E
---------+---------+---------+---------+---------+---------+---------+---------+
[...]
    -1.753     -.730     9.725
    -1.753    -1.218     9.725
    -1.265     -.730    10.213
     -.776     -.730    10.213
     -.288    -1.218    10.213
     -.288    -1.218    10.702
      .201    -1.218    10.702
      .201    -1.218    10.702
      .689    -1.218    10.702
      .689    -1.218    10.702
     1.178    -1.218    10.213
     1.178    -1.218    10.213
     1.667    -1.218     9.725
     1.667    -1.218     9.236
     2.155    -1.218     8.259
     2.155    -1.218     7.771
     2.644    -1.218     6.794
     2.644    -1.706     6.305
     2.644    -1.706     5.328
     2.155    -2.195     4.351
     2.155    -2.195     3.862
     2.155    -2.195     2.885
     1.667    -2.195     2.397
     1.178    -2.195     1.420
     1.178    -2.195      .931
      .689    -1.706     -.045
      .201    -1.706     -.534
      .201    -1.706    -1.510
     -.288    -1.218    -1.999
     -.776    -1.218    -2.975
     -.776     -.730    -2.975
     -.776     -.242    -3.463
    -1.265     -.242    -3.952
    -1.265      .247    -4.440
    -1.753      .247    -4.928
    -1.753      .247    -5.417
    -1.753      .735    -5.905
    -1.753      .735    -5.905
    -2.242      .735    -6.393
    -2.242      .735    -6.881
    -2.242      .735    -7.370
    -2.730      .735    -7.370
    -2.730      .735    -7.858
    -3.218      .735    -8.346
    -3.218      .735    -8.835
    -3.218      .735    -8.835
    -3.706      .735    -9.323
    -3.706      .735    -9.811
    -3.706      .735    -9.811
    -3.706      .735   -10.299
    -3.706      .247   -10.299
    -3.706      .735   -10.788
    -3.706      .735   -10.788
    -3.706      .735   -10.788
    -3.706      .247   -11.276
    -3.218      .247   -11.276
    -3.218      .247   -11.276
    -3.218      .247   -11.764
    -3.218      .247   -11.764
    -3.218      .247   -11.764
    -2.730      .735   -11.764
    -2.730      .735   -11.764
    -2.242      .735   -11.764
    -2.242      .735   -12.252
    -1.753      .735   -12.252
    -1.265      .735   -12.252
    -1.265     1.223   -12.252
     -.776      .735   -12.252
     -.288     1.223   -12.252
      .201     1.223   -12.252
      .201     1.223   -11.764
      .689     1.223   -11.764
     1.178     1.223   -11.764
     1.667     1.223   -11.276
     2.155     1.223   -11.276
     2.644     1.223   -10.788
     3.132     1.223   -10.788
     3.621     1.223   -10.299
     4.109     1.223   -10.299
     4.109     1.223    -9.811
     4.598     1.223    -9.811
     5.086     1.223    -9.323
     5.575      .735    -9.323
     5.575     1.223    -8.835
     6.063     1.223    -8.835
     6.063     1.223    -8.346
     6.552     1.223    -7.858
     6.552     1.223    -7.858
     7.040     1.712    -7.370
     7.040     1.712    -7.370
     7.040     1.712    -6.881
     7.040     1.712    -5.905
     7.040     1.712    -5.905
     7.529     1.712    -4.928
     7.529     1.712    -4.440
     7.529     1.712    -3.952
     7.529     1.712    -2.975
     8.017     1.712    -2.487
     8.017     1.712    -1.999
     8.017     1.712    -1.022
     8.017     1.712     -.534
     8.506     1.712     -.045
     8.506     1.712      .931
     8.994     1.712     1.420
     8.994     1.223     1.908
     9.483     1.223     2.397
     9.483     1.223     2.885
     9.971     1.223     3.374
     9.971      .735     3.862
     9.971      .735     4.351
     9.971      .735     4.839
    10.460      .735     4.839
     9.971      .247     5.328
     9.971      .247     5.817
     9.971      .247     5.817
     9.971      .247     6.305
     9.971      .247     6.794
     9.483      .247     6.794
     9.483      .247     7.282
     8.994      .247     7.771
     8.506      .247     7.771
     8.017      .247     8.259
     8.017      .247     8.259
     7.040      .247     8.748
     6.552      .247     8.748
     6.063      .247     9.236
     6.063      .247     9.236
     5.086      .247     9.236
     5.086      .247     9.725
     4.598      .247     9.725
     4.109     -.242    10.213
     3.621     -.242    10.213
     3.621     -.242    10.213
     3.132     -.242    10.702
     2.644     -.730    10.702
     2.644     -.730    10.702
     2.155     -.730    10.702
     1.667    -1.218    10.702
     1.667    -1.218    10.702
     1.178    -1.218    10.702
      .689    -1.218    10.702
      .201    -1.218    10.702
     -.288    -1.218    10.702
     -.776    -1.218    10.702
    -1.265    -1.218    10.702
    -2.242    -1.218    10.702
    -2.730    -1.218    10.213
    -3.218    -1.706    10.213
    -4.195    -1.706    10.213
    -4.683    -1.706     9.725
    -5.171    -1.706     9.725
    -6.148    -1.706     9.725
    -6.636    -1.706     9.236
    -7.124    -1.218     9.236
    -7.613     -.730     8.748
    -8.101     -.730     8.748
    -8.101     -.242     8.259
    -8.101     -.242     8.259
    -8.101      .247     8.259
    -7.613     -.242     8.259
    -7.613     -.242     8.259
    -7.613     -.242     8.259
    -8.101     -.242     8.259
    -8.101     -.730     7.771
    -8.589    -1.218     7.282
    -8.589     -.730     6.794
    -9.078    -1.218     5.817
    -9.566    -1.218     5.328
   -10.054    -1.218     4.839
   -10.054    -1.218     4.351
   -10.054    -1.218     3.374
    -9.566    -1.218     2.885
   -10.054    -1.218     2.397
   -10.054    -1.218     1.908
   -10.054    -1.218     1.420
   -10.054     -.730      .931
   -10.054     -.730      .443
   -10.054     -.730     -.045
    -9.566     -.242     -.045
    -9.566     -.242     -.045
    -8.589      .247     -.534
    -8.101      .247     -.534
    -7.613      .247     -.534
    -6.636      .735    -1.022
    -5.660      .735    -1.022
    -5.171      .247    -1.022
    -4.195      .247    -1.022
    -3.706     -.242    -1.022
    -3.218     -.730    -1.022
    -2.730    -1.218    -1.022
    -2.730    -1.706    -1.022
    -2.730    -1.706    -1.022
    -2.730    -2.195    -1.022
    -2.242    -2.195     -.534
    -2.242    -1.706     -.534
    -2.242    -1.706     -.045
    -1.753    -1.706     -.045
    -1.753    -1.218     -.534
    -1.753    -1.218     -.045
    -1.265     -.730     -.045
     -.776     -.242     -.045
     -.288     -.242     -.045
      .201     -.242      .443
      .201      .247      .443
      .689      .247      .443
      .689      .247      .931
     1.178      .247      .931
     1.178      .247      .931
     1.667      .735      .931
     2.155      .735      .931
     2.155      .735      .931
     2.644      .735      .931
     3.132      .247     1.420
     3.621      .247     2.397
     3.621      .247     2.885
     3.621     -.242     3.374
     4.109     -.242     3.862
     4.109     -.242     3.862
     4.109     -.730     4.351
     4.109     -.730     4.839
     4.109    -1.218     4.839
     4.109    -1.218     4.839
     3.621    -1.218     4.839
     4.109    -1.706     5.328
     4.109    -1.706     5.328
     4.109    -1.706     5.328
     3.621    -2.195     5.328
     3.621    -2.195     5.328
     3.621    -2.195     5.817
     3.621    -2.195     5.817
     3.621    -2.195     5.817
     3.132    -2.195     5.817
     3.132    -2.195     6.305
     3.132    -2.195     6.305
     3.621    -2.195     6.794
     3.621    -2.195     6.794
     3.621    -2.195     6.794
     3.621    -2.195     6.794
     3.621    -2.195     6.794
     3.621    -2.195     6.794
     3.621    -2.683     6.794
     3.621    -2.683     6.794
     3.621    -2.683     6.794
     3.621    -2.683     6.305
     3.132    -2.683     6.305
     3.132    -2.683     5.817
     3.132    -2.683     5.328
     2.644    -2.683     4.839
     2.155    -2.683     4.351
     2.155    -2.683     4.351
     1.667    -2.683     3.862
     1.667    -2.195     3.374
     1.667    -2.195     3.374
     1.178    -2.195     3.374
     1.178    -2.195     3.862
      .689    -1.706     3.862
      .201    -1.706     4.351
     -.288    -1.706     4.839
     -.776    -1.706     5.328
    -1.265    -1.218     5.817
    -1.753    -1.218     5.817
    -2.730     -.730     6.305
    -3.218     -.730     6.794
    -3.706     -.730     6.794
    -3.706     -.242     7.282
    -4.195     -.242     7.282
    -4.683     -.242     7.282
    -4.683     -.242     7.282
    -4.683      .247     6.794
    -5.171      .247     6.794
    -5.171     -.242     6.794
    -5.171     -.242     6.794
    -5.171     -.730     6.305
    -5.171     -.730     5.817
    -5.660    -1.218     5.817
    -5.660    -1.706     5.328
    -5.171    -1.706     4.839
    -5.660    -2.195     4.351
    -5.171    -2.195     4.351
    -5.171    -2.683     3.862
    -4.683    -2.683     3.374
    -4.683    -3.171     3.374
    -4.683    -3.660     2.885
    -4.195    -3.660     2.397
    -4.195    -3.660     2.397
    -4.195    -3.660     1.908
    -4.195    -3.660     1.908
    -4.195    -4.148     1.908
    -3.706    -3.660     1.420
    -3.706    -3.660     1.420
    -3.706    -3.660      .931
    -3.706    -3.660      .931
    -3.218    -3.660      .443
    -3.218    -3.171     -.045
    -2.730    -3.171     -.534
    -2.730    -3.171    -1.510
    -2.730    -3.171    -1.999
    -2.242    -3.171    -2.975
    -1.753    -3.171    -3.463
    -1.753    -3.171    -4.928
    -1.753    -3.171    -5.905
    -1.753    -3.171    -6.881
    -1.753    -3.171    -8.346
    -1.753    -2.683    -9.323
    -1.753    -2.683   -10.299
    -2.242    -2.683   -11.276
    -2.242    -2.683   -12.252
    -2.242    -2.683   -12.741
    -2.242    -2.683   -13.717
    -2.242    -2.195   -14.206
    -2.242    -2.195   -14.694
    -2.242    -2.195   -15.182
    -2.242    -2.195   -15.671
    -2.242    -2.195   -16.159
    -2.242    -1.706   -16.159
    -2.242    -2.195   -16.647
    -2.242    -2.195   -16.647
    -2.242    -2.195   -16.647
    -2.242    -2.195   -17.135
    -2.242    -2.195   -17.135
    -2.242    -2.195   -17.624
    -2.242    -2.195   -18.112
    -2.242    -2.195   -18.112
    -1.753    -2.195   -18.600
    -1.753    -2.195   -18.600
    -1.265    -1.706   -19.089
    -1.265    -1.706   -19.577
     -.776    -1.706   -20.065
     -.776    -1.706   -20.553
     -.288    -1.706   -20.553
     -.288    -1.706   -21.042
      .201    -1.706   -21.530
      .689    -1.706   -22.018
     1.178    -1.706   -22.018
     1.178    -1.706   -22.506
     1.667    -1.706   -22.506
     1.667    -1.706   -22.506
     1.667    -2.195   -22.506
     1.667    -2.195   -22.506
     1.667    -2.195   -22.506
     1.667    -2.195   -22.995
     1.667    -2.195   -22.995
     1.667    -2.195   -22.995
     1.667    -2.195   -22.995
     1.667    -2.195   -22.995
     1.667    -1.706   -22.995
     2.155    -1.706   -22.506
     2.155    -1.706   -22.506
     2.155    -1.218   -22.506
     2.644    -1.218   -22.018
     2.644     -.730   -22.018
     2.644     -.730   -21.530
     3.132     -.242   -21.530
     3.132     -.242   -21.042
     3.621      .247   -20.065
     3.621      .247   -19.577
     4.109      .247   -18.600
     4.598      .735   -18.112
     4.598      .735   -17.135
     5.086      .735   -16.647
     5.575      .247   -15.671
     5.575      .247   -14.694
     6.063      .247   -14.206
     6.063     -.242   -13.229
     6.063     -.730   -12.252
     6.063     -.730   -11.276
     6.063     -.730   -10.299
     6.063     -.730    -9.811
     6.063     -.730    -8.835
     6.552     -.730    -7.858
     6.063    -1.218    -7.370
     6.552    -1.218    -6.393
     6.063    -1.218    -5.905
     6.063    -1.218    -4.928
     6.063    -1.218    -3.952
     5.575    -1.218    -3.463
     5.575    -1.218    -2.487
     5.575    -1.218    -1.510
     5.575    -1.218     -.534
     5.575    -1.218      .443
     5.575    -1.218     1.420
     5.086     -.730     2.397
     5.086     -.730     3.374
     5.086     -.242     4.351
     5.086     -.242     5.328
     5.086      .247     6.305
     5.086      .247     7.282
     5.086      .735     8.259
     5.086      .735     9.236
     5.575     1.223    10.213
     5.575     1.223    11.190
     5.575     1.712    11.679
     5.575     1.712    12.656
     5.575     1.712    13.144
     5.086     1.712    13.633
     5.086     1.712    14.121
     5.086     1.712    14.610
     5.086     1.712    15.098
     5.086     1.712    15.098
     5.086     1.712    15.587
     5.086     1.712    16.075
     5.086     1.223    16.075
     4.598     1.223    16.564
     4.598     1.223    16.564
     4.598     1.223    16.564
     4.109      .735    17.053
     4.109      .735    17.053
     3.621      .247    17.053
     3.621      .247    17.053
     3.132      .247    17.541
     3.132      .247    17.053
     2.644      .247    17.053
     2.155      .247    17.053
     2.155      .247    17.053
     1.667      .247    17.053
     1.667      .247    16.564
     1.178      .247    16.564
     1.178      .247    16.564
      .689      .735    16.075
      .689      .735    16.075
      .201      .735    16.075
      .201      .735    15.587
      .201      .735    15.587
     -.288     1.223    14.610
     -.288     1.223    14.610
     -.776     1.223    14.121
     -.776     1.223    14.121
     -.776     1.223    13.633
    -1.265     1.223    13.144
    -1.265     1.223    12.656
    -1.753     1.223    12.656
    -1.753     1.223    12.167
    -1.753     1.223    12.167
    -1.753     1.223    11.679
    -1.753     1.223    11.679
    -2.242      .735    11.190
    -2.242      .735    10.702
    -2.242      .735    10.702
    -2.242      .247    10.213
    -2.242      .247    10.213
    -2.242      .247     9.725
    -2.242      .247     9.725
    -2.242      .247     9.236
    -1.753     -.242     8.748
    -1.753     -.242     8.259
    -1.265     -.730     7.771
     -.776     -.730     7.282
     -.776     -.730     6.794
     -.288    -1.218     5.817
      .689    -1.218     5.328
     1.178    -1.218     4.351
     1.667    -1.218     3.862
     2.155    -1.218     2.885
     2.644    -1.706     2.397
     3.132    -1.218     1.908
     3.621    -1.218     1.420
     4.109    -1.218      .931
     4.598     -.730      .443
     5.086     -.730     -.045
     5.086     -.242     -.534
     5.575     -.242    -1.022
     6.063      .247    -1.510
     6.063      .247    -1.510
     6.063      .735    -1.999
     6.552      .735    -1.999
     7.040     1.223    -1.999
     7.040     1.223    -1.999
     7.529     1.712    -1.999
     7.529     1.712    -1.999
     7.529     1.712    -1.999
     7.529     1.712    -1.999
     8.017     2.200    -1.999
     8.017     2.200    -1.999
     8.017     2.200    -1.999
     8.017     1.712    -1.999
     8.017     1.712    -1.999
     8.017     1.712    -1.999
     8.506     1.712    -1.999
     8.506     1.223    -2.487
     8.506     1.223    -2.487
     8.017     1.223    -2.487
     8.017     1.223    -2.487
     8.017     1.223    -2.487
     8.017     1.223    -2.487
     8.017     1.223    -2.487
     8.017     1.223    -2.487
     8.017     1.223    -2.487
