********************************************************************************
           RED INTERUNIVERSITARIA DE INSTRUMENTACION SISIMICA (RIIS)
 AREA DE ESTRUCTURAS, UNIVERSIDAD AUTONOMA METROPOLITANA - UNIDAD AZCAPOTZALCO
         AV. SAN PABLO 180; COL. REYNOSA TAMAULIPAS; MEXICO D.F. 02200.                                                                               
       TELS: 7235859, 7235856; FAX: 7244285; e-mail: esz@hp9000a1.uam.mx
********************************************************************************
ARCHIVO ESTANDAR DE ACELERACION:
VERSION DEL FORMATO                    : 2.0
NOMBRE DEL ARCHIVO                     : RIDA9510.091
FECHA Y HORA DE CREACION               : 9 de octubre 1995 /15:39
REF. CATALOGO ACELEROGRAMAS, SMIS 1996 : REGISTRO No. 1735 /PAG. 178


================================================================================
DATOS DE LA ESTACION:
NOMBRE DE LA ESTACION                  : UAM AZCAPOTZALCO
CLAVE DE LA ESTACION                   : RIDA
LOCALIZACION DE LA ESTACION            : AVENIDA SAN PABLO Y EJE 5, COLONIA
                                       : REYNOSA, PLANTEL AZCAPOTZALCO, JARDIN
                                       : ENTRE EDIFICIO "H" Y "E", MEXICO, D.F.
                                       :
                                       :
COORDENADAS DE LA ESTACION             : 19.520 LAT. N 
                                       : 99.190 LONG. W 
ALTITUD (msnm)                         : 2240
TIPO DE SUELO                          : LIMO ARENOSO
                                       : 
                                       : 
INSTITUCION RESPONSABLE                : RED INTERUNIVERSITARIA DE 
                                       : INSTRUMENTACION SISMICA (RIIS)

================================================================================
DATOS DEL ACELEROGRAFO:
MODELO DEL ACELEROGRAFO                : SSA-2
NUMERO DE SERIE DEL ACELEROGRAFO       : 1561
NUMERO DE CANALES                      : 3
ORIENTACION C1-C6 (rumbo;orientacion)  : /N00E/+V/N90E
ORIENTACION C7-C12 (rumbo;orientacion) :
VEL. DE MUESTREO, C1-C6 (muestras/s)   : /200/200/200
VEL. DE MUESTREO, C7-C12 (muestras/s)  :
ESC. COMPLETA DE SENSORES, C1-C6, (g)  : /1.0/1.0/1.0
ESC. COMPLETA DE SENSORES, C7-C12, (g) :
FREC. NAT. DE SENSORES, C1-C6, (Hz)    : /50.0/50.0/50.0
FREC. NAT. DE SENSORES, C7-C12, (Hz)   :
AMORTIGUAMIENTO DE SENSORES, C1-C6     : /0.7/0.7/0.7
AMORTIGUAMIENTO DE SENSORES, C7-C12    :
INTERVALO DE MUESTREO, C1-C6, (s)      : /0.005/0.005/0.005
INTERVALO DE MUESTREO, C7-C12, (s)     :
UMBRAL DE DISPARO, C1-C6, (Gal)        : /3/3/3
UMBRAL DE DISPARO, C7-C12, (Gal)       :
MEMORIA DE PREEVENTO (s)               : 15
TIEMPO DE POSEVENTO (s)                : 60


================================================================================
DATOS DEL SISMO:
FECHA DEL SISMO (GMT)                  : 09/OCT/95
HORA EPICENTRO (GMT)                   : 15:35:51,0
MAGNITUD(ES)                           : /Mb=6.50/Ms=7.30/Mc=7.50
COORDENADAS DEL EPICENTRO              : 18.740 LAT. N 
                                       : 104.670 LONG. W
PROFUNDIDAD FOCAL (km)                 : 5  
FUENTES DE LOS DATOS EPICENTRALES      : SSN
                                       : INSTITUTO DE GEOFISICA, UNAM

================================================================================
DATOS DE ESTE REGISTRO:
HORA DE LA PRIMERA MUESTRA (GMT)       : 15:39:00.00
EXACTITUD DEL TIEMPO (s)               :
DURACION DEL REGISTRO (s), C1-C6       : /96.00/96.00/96.00
DURACION DEL REGISTRO (s), C7-C12      :
NUM. TOTAL DE MUESTRAS, C1-C6          : /19200/19200/19200
NUM. TOTAL DE MUESTRAS, C7-C12         :
ACEL. MAX.(Gal), C1-C6                 : /3.20/-1.28/3.50
ACEL. MAX., C1-C6, EN LA MUESTRA       : /7050/4058/3078
ACEL. MAX.(Gal), C7-C12                :
ACEL. MAX., C7-C12, EN LA MUESTRA      :
UNIDADES DE LOS DATOS                  : Gal 
FACTOR DE DECIMACION                   : 1
FORMATO DATOS (FORTRAN,10 campos/dato) : 3F10.3


===============================================================================
CALIDAD DEL ACELEROGRAMA:
REGISTRO DIGITAL COMPLETO, CARECE DE TIEMPO ABSOLUTO.


===============================================================================
COMENTARIOS:
CADA UNO DE LOS CANALES SE ENCUENTRA AJUSTADO POR LINEA BASE MEDIANTE LA
SUSTRACCION DEL PROMEDIO DE LAS ACELERACIONES EN EL TIEMPO.











MODELO DEL ACELEROGRAFO : SSA-2 (KINEMETRICS)
===============================================================================
DATOS DE ACELERACION:
---------+---------+---------+---------+---------+---------+---------+---------+
   CANAL-1   CANAL-2   CANAL-3   CANAL-4   CANAL-5   CANAL-6   CANAL-7   CANAL-8
      N00E        +V      N90E
---------+---------+---------+---------+---------+---------+---------+---------+
[...]
     -.224      .180     1.546
     -.224     -.308     1.546
     -.224     -.308     1.546
     -.713     -.308     1.546
     -.713     -.308     1.546
     -.713     -.308     1.546
     -.713     -.308     1.546
     -.224     -.308     1.546
     -.224     -.308     1.546
     -.224     -.308     1.546
     -.224     -.308     1.546
     -.224     -.308     1.058
     -.224     -.308     1.058
     -.224     -.308     1.058
     -.224     -.308     1.546
     -.224     -.308     1.546
     -.224     -.308     1.058
     -.224     -.308     1.058
     -.224     -.308     1.058
     -.224     -.308     1.058
     -.224     -.308     1.058
     -.224     -.308     1.058
     -.224     -.308     1.058
     -.224     -.308     1.058
     -.224     -.308     1.058
     -.224     -.308     1.058
     -.224     -.797      .569
     -.224     -.797      .569
     -.224     -.797      .569
     -.713     -.797      .569
     -.224     -.797      .569
     -.224     -.797      .569
     -.224     -.797      .569
     -.224     -.797      .081
     -.224     -.797      .569
     -.224     -.797      .569
     -.224     -.797      .569
     -.224     -.797      .569
     -.224     -.797      .569
     -.224     -.797      .569
     -.224     -.797      .569
     -.224     -.797      .569
     -.224     -.797      .569
     -.713     -.797      .569
     -.713     -.797      .569
     -.713     -.308      .569
     -.224     -.797      .569
     -.224     -.308      .569
     -.224     -.308      .569
     -.713     -.308      .569
     -.713     -.308      .569
     -.713     -.797      .569
     -.713     -.308      .569
     -.713     -.308      .569
     -.713     -.308      .569
     -.713     -.308      .569
     -.713     -.308      .569
     -.713     -.308      .569
     -.713     -.308      .569
    -1.201     -.308      .569
    -1.201     -.308      .569
    -1.201     -.308      .569
    -1.201     -.308      .569
    -1.201     -.308      .569
    -1.201     -.308      .569
    -1.201     -.308      .569
    -1.201     -.308      .569
    -1.201     -.308      .569
    -1.201     -.308      .569
    -1.201     -.308      .569
    -1.201     -.308      .569
    -1.201     -.308     1.058
    -1.201     -.308     1.058
    -1.201     -.308     1.058
    -1.201     -.308     1.058
    -1.201     -.308     1.058
    -1.201     -.308      .569
    -1.201     -.308     1.058
    -1.201     -.308     1.058
    -1.201     -.308     1.058
    -1.201     -.308     1.058
    -1.201     -.308     1.058
    -1.689     -.308     1.058
    -1.689     -.308     1.058
    -1.689     -.308     1.058
    -1.689     -.308     1.058
    -1.689     -.308     1.058
    -1.689     -.308     1.058
    -1.689     -.308     1.058
    -1.689     -.308     1.058
    -1.689     -.308     1.058
    -1.689     -.308     1.058
    -1.689     -.308     1.058
    -1.689     -.308     1.058
    -1.689     -.308     1.058
    -1.689     -.308     1.058
    -1.689     -.308     1.058
    -1.201     -.308     1.058
    -1.201     -.308     1.058
    -1.201     -.308     1.058
    -1.201     -.308     1.058
    -1.201     -.308      .569
    -1.201     -.308      .569
    -1.201     -.308      .569
    -1.201     -.308     1.058
    -1.201     -.308     1.058
    -1.201     -.308     1.058
     -.713     -.308     1.058
     -.713      .180     1.058
     -.713      .180     1.058
     -.713      .180     1.058
     -.713     -.308      .569
     -.713     -.308      .569
     -.713      .180      .569
     -.713     -.308      .569
     -.713     -.308      .569
     -.713     -.308      .569
     -.224     -.308      .569
     -.224      .180      .569
     -.224     -.308      .569
     -.224     -.308      .081
     -.224     -.308      .081
     -.224      .180      .081
     -.224      .180      .081
     -.224      .180      .081
     -.224      .180      .081
     -.224      .180     -.408
     -.224      .180     -.408
      .265      .180     -.408
      .265      .180     -.408
      .265      .180     -.408
      .265      .180     -.896
      .265      .180     -.896
      .265      .180     -.896
      .265      .180     -.896
      .265      .180     -.896
      .265      .180     -.896
      .753      .180     -.896
      .753      .180     -.896
      .753      .180    -1.385
      .753      .180    -1.385
      .753      .180    -1.385
      .753      .180    -1.385
      .753      .180    -1.385
      .753      .180    -1.385
      .753      .180    -1.385
      .753      .180    -1.385
      .753      .180    -1.873
      .753      .180    -1.873
      .753      .180    -1.873
     1.242      .180    -1.873
     1.242      .180    -1.873
     1.242      .180    -1.873
     1.242      .668    -1.873
     1.242      .180    -1.873
     1.242      .180    -2.361
     1.242      .180    -2.361
     1.242      .180    -2.361
     1.242      .668    -2.361
     1.730      .668    -2.361
     1.730      .180    -2.361
     1.730      .180    -2.361
     1.730      .668    -2.361
     1.730      .668    -2.361
     1.730      .668    -2.361
     1.730      .668    -2.361
     1.730      .668    -2.361
     1.730      .668    -2.361
     1.730      .668    -2.361
     1.730      .668    -2.361
     1.730      .668    -2.361
     1.730      .668    -2.361
     1.730      .668    -2.361
     1.730      .668    -2.361
     1.730      .668    -2.361
     1.730      .668    -2.361
     1.730      .668    -2.361
     1.730      .668    -2.361
     1.730      .668    -2.361
     1.730      .668    -2.361
     1.730      .668    -2.361
     1.730      .668    -2.361
     1.730      .668    -2.361
     1.730      .668    -1.873
     1.730      .668    -1.873
     1.730      .668    -1.873
     1.730      .668    -1.873
     1.730      .668    -1.873
     1.730      .668    -1.873
     1.730      .668    -1.873
     1.730      .668    -1.873
     1.730      .668    -1.873
     1.730      .668    -1.385
     1.730      .668    -1.385
     1.730      .668    -1.385
     1.730      .668    -1.385
     1.730      .668    -1.385
     1.730      .668    -1.385
     1.730      .668    -1.385
     1.730      .668    -1.385
     1.242      .668    -1.385
     1.242      .668    -1.385
     1.242      .668    -1.385
     1.242      .668     -.896
     1.242      .668     -.896
     1.242      .668     -.896
     1.242      .668     -.896
     1.242      .668     -.896
     1.242      .668     -.896
     1.242      .668     -.896
     1.242      .668     -.896
     1.242      .668     -.408
     1.242      .668     -.408
      .753      .668     -.408
      .753      .180     -.408
      .753      .180     -.408
      .753      .180     -.408
      .753      .180     -.408
      .753      .180     -.408
      .753      .180     -.408
      .753      .180     -.408
      .265      .180     -.408
      .265      .180     -.408
      .265      .180     -.408
     -.224     -.308     -.408
     -.224     -.308     -.408
     -.224     -.308     -.408
     -.224     -.308     -.408
     -.224     -.308     -.408
     -.224     -.308     -.408
     -.224     -.308     -.408
     -.713     -.308     -.408
     -.713     -.308     -.408
     -.713     -.308     -.408
     -.713     -.308      .081
     -.713     -.308     -.408
     -.713     -.308      .081
     -.713     -.308      .081
     -.713     -.308      .081
    -1.201     -.308      .081
    -1.201     -.308      .081
    -1.201     -.308      .081
    -1.201     -.308      .081
    -1.201     -.308      .081
    -1.201     -.308      .081
    -1.201     -.308      .081
    -1.201     -.308      .081
    -1.201     -.308      .081
    -1.201     -.308      .081
    -1.201     -.308      .081
    -1.201     -.308      .081
    -1.201     -.308      .081
    -1.689     -.308      .081
    -1.201     -.308      .081
    -1.689     -.797      .081
    -1.689     -.797      .081
    -1.689     -.797      .081
    -1.689     -.797      .081
    -1.689     -.797      .081
    -1.689     -.308      .081
    -1.689     -.797      .081
    -1.689     -.797      .081
    -1.689     -.797      .081
    -1.689     -.797      .081
    -1.689     -.797      .081
    -1.689     -.797      .081
    -1.689     -.797      .081
    -1.689     -.797      .081
    -1.689     -.797      .081
    -1.689     -.797      .081
    -1.689     -.308      .081
    -1.689     -.797      .081
    -1.689     -.308      .081
    -1.689     -.308      .081
    -1.689     -.308      .081
    -1.689     -.308      .081
    -1.689     -.797      .081
    -1.689     -.308      .081
    -1.689     -.308      .081
    -1.689     -.308      .081
    -1.689     -.308     -.408
    -1.689     -.308     -.408
    -1.689     -.308     -.408
    -1.201     -.308     -.408
    -1.201     -.308     -.408
    -1.201     -.308     -.408
    -1.201     -.308     -.408
    -1.201     -.308     -.408
    -1.201     -.308     -.408
    -1.201     -.308     -.408
    -1.201     -.308     -.408
    -1.201     -.308     -.408
     -.713     -.308     -.408
     -.713     -.308     -.896
     -.713     -.308     -.896
     -.713     -.308     -.896
     -.713     -.308     -.896
     -.713     -.308     -.896
     -.224     -.308     -.896
     -.224     -.308    -1.385
     -.224     -.308     -.896
     -.224     -.308     -.896
     -.224     -.308     -.896
      .265     -.308     -.896
      .265      .180     -.896
      .265      .180     -.896
      .265      .180     -.896
      .265      .180     -.896
      .753      .180    -1.385
      .753      .180    -1.385
      .753      .180    -1.385
      .753      .180    -1.385
      .753      .180    -1.385
      .753      .180    -1.385
      .753      .180    -1.385
     1.242      .180    -1.385
     1.242      .180    -1.873
     1.242      .180    -1.873
     1.242      .180    -1.873
     1.242      .180    -1.873
     1.730      .180    -1.873
     1.730      .180    -1.873
     1.730      .180    -1.873
     1.730      .180    -1.873
     1.730      .180    -1.873
     1.730      .180    -1.873
     2.219      .180    -2.361
     1.730      .180    -2.361
     2.219      .180    -2.361
     2.219      .180    -2.361
     2.219      .180    -2.361
     2.219      .180    -2.361
     2.707      .180    -2.361
     2.707      .180    -2.361
     2.707      .180    -2.361
     2.707      .180    -2.361
     2.707      .180    -2.361
     2.707      .180    -2.361
     2.707      .180    -2.361
     2.707      .180    -2.361
     2.707      .180    -2.361
     3.196      .180    -2.849
     3.196      .180    -2.849
     3.196      .180    -2.849
     3.196      .180    -2.849
     3.196      .180    -2.849
     3.196      .180    -2.849
     3.196      .180    -2.361
     3.196      .668    -2.849
     3.196      .180    -2.849
     3.196      .180    -2.361
     3.196      .668    -2.361
     3.196      .668    -2.361
     3.196      .668    -2.361
     3.196      .668    -2.361
     3.196      .668    -2.361
     3.196      .668    -2.361
     3.196      .668    -2.361
     3.196      .668    -1.873
     3.196      .668    -1.873
     3.196      .668    -1.873
     3.196      .668    -1.873
     3.196      .668    -1.873
     3.196      .668    -1.873
     3.196      .668    -1.873
     2.707      .668    -1.385
     2.707      .668    -1.385
     2.707      .668    -1.385
     2.707      .668    -1.385
     2.707      .668    -1.385
     2.707      .180    -1.385
     2.707      .180     -.896
     2.707      .180     -.408
     2.707      .668     -.408
     2.219      .668     -.408
     2.219      .668     -.896
     2.219      .668     -.408
     2.219      .668     -.408
     2.219      .668     -.408
     2.219      .668      .081
     2.219      .180      .081
     2.219      .668      .081
     2.219      .668      .081
     2.219      .668      .081
     1.730      .180      .569
     1.730      .668      .569
     1.730      .668      .569
     1.730      .668      .569
     1.730      .668      .569
     1.730      .180     1.058
     1.730      .668     1.058
     1.730      .180     1.058
     1.730      .668     1.058
     1.730      .668     1.546
     1.242      .180     1.546
     1.242      .180     1.546
     1.242      .668     1.546
     1.242      .180     1.546
     1.242      .180     1.546
     1.242      .180     2.035
     1.242      .180     2.035
     1.242      .180     2.035
      .753      .180     2.035
      .753      .180     2.035
      .753      .180     2.035
      .753      .180     2.523
      .753      .180     2.523
      .753      .180     2.523
      .753      .180     2.523
      .265      .180     2.523
      .265      .180     2.523
      .265      .180     2.523
      .265      .180     2.523
      .265      .180     2.523
      .265      .180     2.523
      .265      .180     3.012
      .265      .180     3.012
      .265      .180     2.523
     -.224      .180     2.523
     -.224      .180     2.523
     -.224      .180     2.523
     -.224      .180     2.523
     -.224      .180     2.523
     -.224      .180     2.523
     -.224      .180     2.523
     -.224      .180     2.523
     -.224      .180     2.523
     -.224      .180     2.523
     -.224      .180     2.523
     -.713      .180     2.523
     -.224      .180     2.523
     -.713      .180     2.523
     -.713     -.308     2.523
     -.224      .180     2.523
     -.713     -.308     2.523
     -.224     -.308     2.523
     -.224      .180     2.523
     -.224     -.308     2.523
     -.713     -.308     2.523
     -.713     -.308     2.035
     -.224     -.308     2.035
     -.224     -.308     2.035
     -.713     -.308     2.035
     -.713     -.308     2.035
     -.713     -.308     2.035
     -.713     -.308     1.546
     -.713     -.308     2.035
     -.713     -.308     2.035
     -.713     -.308     1.546
     -.713     -.308     1.546
     -.713     -.308     1.546
     -.713     -.308     1.546
     -.713     -.308     1.546
     -.713     -.308     1.546
     -.713     -.308     1.546
     -.713     -.308     1.546
     -.713     -.308     1.546
     -.713     -.308     1.546
     -.713     -.308     1.546
     -.713     -.308     1.546
     -.713     -.308     1.546
     -.713     -.308     1.546
     -.713     -.308     1.546
     -.713     -.308     1.546
    -1.201     -.797     1.546
    -1.201     -.797     1.058
    -1.201     -.308     1.058
    -1.201     -.797     1.058
     -.713     -.308     1.058
    -1.201     -.797     1.058
    -1.201     -.308     1.058
     -.713     -.797     1.058
    -1.201     -.797     1.058
    -1.201     -.797     1.058
    -1.201     -.308     1.058
    -1.201     -.797     1.058
    -1.201     -.797     1.058
    -1.201     -.308     1.058
    -1.201     -.308      .569
    -1.201     -.797      .569
    -1.201     -.797      .569
    -1.201     -.797      .569
    -1.201     -.797      .569
    -1.201     -.308      .569
    -1.201     -.797      .569
    -1.201     -.797      .569
    -1.201     -.797      .569
    -1.201     -.308      .569
