********************************************************************************
           RED INTERUNIVERSITARIA DE INSTRUMENTACION SISIMICA (RIIS)
 AREA DE ESTRUCTURAS, UNIVERSIDAD AUTONOMA METROPOLITANA - UNIDAD AZCAPOTZALCO
         AV. SAN PABLO 180; COL. REYNOSA TAMAULIPAS; MEXICO D.F. 02200.                                                                               
       TELS: 7235859, 7235856; FAX: 7244285; e-mail: jac@hp9000a1.uam.mx
********************************************************************************
ARCHIVO ESTANDAR DE ACELERACION:
VERSION DEL FORMATO                    : 2.0
NOMBRE DEL ARCHIVO                     : RIDI9705.221
FECHA Y HORA DE CREACION               : 22 de mayo 1997 /01:51
REF. CATALOGO ACELEROGRAMAS, SMIS 1996 : 


================================================================================
DATOS DE LA ESTACION:
NOMBRE DE LA ESTACION                  : UAM IZTAPALAPA
CLAVE DE LA ESTACION                   : RIDI
LOCALIZACION DE LA ESTACION            : AVENIDA MICHOACAN ESQUINA LA PURISIMA,
                                       : COLONIA VICENTINA, PLANTEL IZTAPALAPA
                                       : FRENTE AL EDIFICIO "O", MEXICO, D.F.
                                       :
                                       :
COORDENADAS DE LA ESTACION             : 19.3600 LAT. N 
                                       : 99.0600 LONG. W 
ALTITUD (msnm)                         : 2235
TIPO DE SUELO                          : LIMOS Y ARENAS ARCILLOSAS
                                       : 
                                       : 
INSTITUCION RESPONSABLE                : RED INTERUNIVERSITARIA DE
                                       : INSTRUMENTACION SISMICA (RIIS)

================================================================================
DATOS DEL ACELEROGRAFO:
MODELO DEL ACELEROGRAFO                : SSA-2
NUMERO DE SERIE DEL ACELEROGRAFO       : 1009
NUMERO DE CANALES                      : 3
ORIENTACION C1-C6 (rumbo;orientacion)  : /N00E/+V/N90E
ORIENTACION C7-C12 (rumbo;orientacion) :
VEL. DE MUESTREO, C1-C6 (muestras/s)   : /200/200/200
VEL. DE MUESTREO, C7-C12 (muestras/s)  :
ESC. COMPLETA DE SENSORES, C1-C6, (g)  : /+1.0/+1.0/+1.0
ESC. COMPLETA DE SENSORES, C7-C12, (g) :
FREC. NAT. DE SENSORES, C1-C6, (Hz)    : /50.0/50.0/50.0
FREC. NAT. DE SENSORES, C7-C12, (Hz)   :
AMORTIGUAMIENTO DE SENSORES, C1-C6     : /0.7/0.7/0.7
AMORTIGUAMIENTO DE SENSORES, C7-C12    :
INTERVALO DE MUESTREO, C1-C6, (s)      : /0.005/0.005/0.005
INTERVALO DE MUESTREO, C7-C12, (s)     :
UMBRAL DE DISPARO, C1-C6, (Gal)        : /3/3/3
UMBRAL DE DISPARO, C7-C12, (Gal)       :
MEMORIA DE PREEVENTO (s)               : 15
TIEMPO DE POSEVENTO (s)                : 60


================================================================================
DATOS DEL SISMO:
FECHA DEL SISMO (GMT)                  : 22/MAY/97
HORA EPICENTRO (GMT)                   : 07:50:47
MAGNITUD(ES)                           : /Ms=6.00
COORDENADAS DEL EPICENTRO              : 18.410 LAT. N 
                                       : 101.52 LONG. W 
PROFUNDIDAD FOCAL (km)                 : 33 
FUENTE DE LOS DATOS EPICENTRALES       : USGS
                                       :

================================================================================
DATOS DE ESTE REGISTRO:
HORA DE LA PRIMERA MUESTRA (GMT)       : 07:50:00.00
EXACTITUD DEL TIEMPO (s)               : CARECA DE TIEMPO ABSOLUTO
DURACION DEL REGISTRO (s), C1-C6       : /80.64/80.64/80.64
DURACION DEL REGISTRO (s), C7-C12      :
NUM. TOTAL DE MUESTRAS, C1-C6          : /16128/16128/16128
NUM. TOTAL DE MUESTRAS, C7-C12         :
ACEL. MAX. (Gal), C1-C6                : /-3.27/-1.15/3.66
ACEL. MAX., C1-C6, EN LA MUESTRA       : /3405/4046/3344
ACEL. MAX. (Gal), C7-C12               :
ACEL. MAX., C7-C12, EN LA MUESTRA      :
UNIDADES DE LOS DATOS                  : Gal 
FACTOR DE DECIMACION                   : 1
FORMATO DATOS (FORTRAN,10 campos/dato) : 3F10.2


================================================================================
CALIDAD DEL ACELEROGRAMA:
REGISTRO DIGITAL COMPLETO, CARECE DE TIEMPO ABSOLUTO.


================================================================================
COMENTARIOS:
CADA UNO DE LOS CANALES SE ENCUENTRA AJUSTADO POR LINEA BASE MEDIANTE LA
SUSTRACCION DEL PROMEDIO DE LAS ACELERACIONES EN EL TIEMPO.












================================================================================
DATOS DE ACELERACION:
---------+---------+---------+---------+---------+---------+---------+---------+
   CANAL-1   CANAL-2   CANAL-3   CANAL-4   CANAL-5   CANAL-6   CANAL-7   CANAL-8
      N00E        +V      N90E
---------+---------+---------+---------+---------+---------+---------+---------+
[...]
       .15      -.67     -1.71
       .15      -.67     -1.71
       .15      -.67     -1.71
       .15      -.67     -1.71
       .15      -.67     -1.71
       .15      -.67     -1.71
       .15      -.67     -1.71
       .15      -.67     -1.71
       .63      -.67     -1.71
       .63      -.67     -1.71
       .15      -.67     -1.71
       .63      -.18     -1.71
       .63      -.18     -1.22
       .63      -.18     -1.22
       .63      -.18     -1.22
       .63      -.18     -1.22
       .63      -.18     -1.22
       .63       .30     -1.22
       .63      -.18     -1.22
       .63       .30     -1.22
       .63       .30     -1.22
       .63       .30     -1.22
       .63       .30     -1.22
       .63       .30     -1.22
       .63       .30      -.73
      1.12       .30      -.73
      1.12       .30      -.73
      1.12       .30      -.73
      1.12       .30      -.73
      1.12       .30      -.73
      1.12       .30      -.73
      1.12       .30      -.73
      1.12       .30      -.73
      1.12       .30      -.73
      1.12       .30      -.73
      1.12       .30      -.73
      1.12       .30      -.73
      1.12       .30      -.73
      1.12       .30      -.73
      1.12       .30      -.73
      1.12       .30      -.73
      1.12       .30      -.73
      1.12       .30      -.73
      1.12       .30      -.73
      1.12       .30      -.24
      1.12       .30      -.73
      1.12       .30      -.73
      1.12       .30      -.73
      1.12       .30      -.73
      1.12       .30      -.73
      1.12       .30      -.73
      1.12       .30      -.73
      1.12       .30      -.73
      1.12       .30      -.73
      1.12       .30      -.73
      1.12       .30      -.73
      1.12       .30      -.73
      1.12       .30      -.73
      1.12       .30      -.73
      1.12       .30      -.73
       .63       .30      -.73
      1.12       .30      -.73
       .63       .30      -.73
       .63       .30      -.73
       .63       .30      -.73
       .63       .30      -.73
       .63       .30      -.73
       .63       .30      -.73
       .63       .30      -.73
       .63       .30      -.73
       .63       .30      -.73
       .63       .30      -.73
       .63       .30      -.73
       .63       .30      -.73
       .63       .30      -.73
       .63       .30      -.73
       .15       .30      -.73
       .63       .30      -.73
       .15       .30      -.73
       .15       .30      -.73
       .15       .30      -.73
       .15       .30      -.73
       .15       .78      -.73
       .15       .78      -.73
       .15       .78      -.73
       .15       .78      -.73
       .15       .78      -.73
       .15       .78      -.73
       .15       .78      -.73
      -.34       .78      -.73
       .15       .78      -.73
      -.34       .78      -.73
      -.34       .78      -.73
      -.34       .78      -.73
      -.34       .78      -.73
      -.34       .78      -.73
      -.34       .78      -.73
      -.34       .30      -.73
      -.34       .78      -.73
      -.34       .78      -.73
      -.34       .30      -.73
      -.83       .30      -.73
      -.83       .30      -.73
      -.83       .30      -.73
      -.83       .30      -.73
      -.83       .30      -.73
      -.83       .30      -.73
      -.83       .30      -.73
      -.83       .30      -.73
      -.83       .30     -1.22
      -.83       .30     -1.22
      -.83       .30      -.73
      -.83       .30      -.73
      -.83       .30      -.73
      -.83       .30      -.73
      -.83       .30      -.73
      -.83       .30      -.73
      -.83       .30      -.73
      -.83       .30      -.73
      -.83       .30      -.73
      -.83       .30      -.73
      -.83       .30      -.73
      -.83       .30      -.73
      -.83       .30      -.73
      -.83       .30      -.73
      -.83       .30      -.73
      -.83       .30      -.73
      -.34       .30      -.73
      -.34       .30      -.24
      -.34       .30      -.24
      -.34       .30      -.24
      -.34       .30      -.24
      -.83       .30      -.24
      -.34       .30      -.24
      -.83       .30      -.24
      -.34       .30      -.24
      -.34       .30      -.24
      -.34       .30       .25
      -.34       .30       .25
      -.34       .30       .25
      -.34       .30       .25
      -.34       .30       .25
      -.34       .30       .25
      -.34       .30       .25
      -.34       .30       .73
      -.34       .30       .73
      -.34       .30       .73
      -.34       .30      1.22
      -.34       .30       .73
      -.83       .30      1.22
      -.83       .30      1.22
      -.34       .30      1.22
      -.34       .30      1.22
      -.34       .30      1.71
      -.34       .30      1.71
      -.34       .30      1.71
      -.34       .30      1.71
      -.34       .30      1.71
      -.34       .30      1.71
      -.34       .30      2.20
      -.34       .30      2.20
      -.34       .30      2.20
      -.34       .30      2.20
      -.34       .30      2.20
      -.83       .30      2.20
      -.34       .30      2.20
      -.34       .30      2.20
      -.34       .30      2.20
      -.34       .30      2.20
      -.34       .30      2.20
      -.34       .30      2.20
      -.34       .30      2.20
      -.34       .30      2.20
      -.34       .30      2.20
      -.34       .30      2.20
      -.34       .30      2.20
      -.34       .30      2.20
      -.34       .30      2.20
      -.34       .30      2.20
      -.34       .30      2.20
      -.34       .30      2.20
      -.34       .30      2.20
      -.34       .30      2.20
      -.34       .30      2.20
      -.34       .30      2.20
      -.34       .30      2.20
      -.34       .30      2.20
      -.34       .30      2.20
      -.34       .30      2.20
      -.34       .30      2.20
      -.34       .30      2.20
      -.34       .30      2.20
      -.34       .30      2.20
      -.34       .30      2.20
      -.34       .30      2.20
      -.34       .30      2.20
      -.34       .30      2.20
      -.34       .30      2.20
      -.34       .30      2.20
      -.34       .30      2.20
      -.34       .30      2.20
      -.34       .30      2.20
      -.34       .30      2.20
      -.34       .30      2.20
      -.34       .30      2.20
      -.34      -.18      2.20
      -.34      -.18      2.20
      -.34      -.18      2.20
      -.34      -.18      2.20
      -.34      -.18      2.20
      -.34      -.18      2.20
      -.34      -.18      2.20
       .15      -.18      2.20
       .15      -.18      2.69
       .15      -.18      2.69
       .15      -.18      2.20
       .15      -.18      2.20
       .15      -.18      2.20
       .15      -.18      2.69
       .15      -.18      2.69
       .15      -.18      2.69
       .15      -.18      2.20
       .15      -.18      2.20
       .15      -.18      2.20
       .15      -.67      2.20
       .15      -.18      2.69
       .15      -.18      2.20
       .15      -.18      2.20
       .15      -.18      2.69
       .63      -.18      2.69
       .63      -.18      2.69
       .63      -.18      2.69
       .63      -.18      2.69
       .63      -.18      2.69
       .63      -.18      2.69
       .63      -.18      2.20
       .63      -.18      2.20
       .63      -.18      2.20
       .63      -.18      2.20
       .63      -.18      2.20
       .63      -.18      2.20
       .63      -.18      2.20
       .63      -.18      2.20
       .63      -.18      2.20
       .63      -.18      2.20
       .63      -.18      2.20
       .63      -.18      2.20
       .63      -.18      1.71
       .63      -.18      1.71
       .63      -.18      1.71
       .63      -.18      1.71
       .63      -.18      1.71
       .63      -.18      1.71
       .63      -.18      1.22
       .63      -.18      1.22
       .63      -.18      1.22
       .63      -.18      1.22
       .63      -.18      1.22
      1.12      -.18      1.22
       .63      -.18      1.22
      1.12      -.18      1.22
      1.12      -.18       .73
      1.12      -.18       .73
      1.12      -.18       .73
      1.12      -.18       .73
      1.12      -.18       .73
      1.12      -.18       .73
      1.12      -.18       .73
      1.12      -.18       .25
      1.12      -.18       .25
      1.12      -.18       .25
      1.12      -.18       .25
      1.12      -.18       .25
      1.12      -.18       .25
      1.12      -.18       .25
      1.12      -.18      -.24
      1.12      -.18      -.24
      1.12      -.18       .25
      1.12      -.18       .25
      1.12      -.18       .25
      1.12      -.18      -.24
      1.12      -.18      -.24
      1.12      -.18      -.24
      1.12      -.18      -.24
      1.12      -.18      -.24
      1.12      -.18      -.24
      1.12      -.18      -.24
      1.12      -.18      -.24
      1.12      -.18      -.73
      1.12      -.18      -.73
      1.12      -.18      -.73
      1.12       .30      -.73
      1.12       .30      -.73
      1.12       .30      -.73
      1.12       .30      -.73
      1.12       .30      -.73
      1.12       .30      -.73
      1.12       .30      -.73
       .63       .30     -1.22
       .63       .30     -1.22
       .63       .30     -1.22
       .63       .30     -1.22
       .63       .30     -1.22
       .63       .30     -1.22
       .63       .30     -1.22
       .63       .30     -1.71
       .63       .30     -1.71
       .63       .30     -1.71
       .63       .30     -1.71
       .63       .30     -1.71
       .15       .30     -1.71
       .15       .30     -1.71
       .15       .30     -2.19
       .15       .30     -2.19
       .15       .30     -2.19
       .15       .30     -2.19
       .15       .30     -2.19
       .15       .30     -2.19
       .15       .30     -2.19
       .15       .30     -2.19
       .15       .30     -2.68
       .15       .30     -2.68
       .15       .30     -2.68
       .15       .30     -2.68
       .15       .30     -2.68
       .15       .30     -2.68
      -.34       .30     -2.68
      -.34       .30     -3.17
      -.34      -.18     -3.17
      -.34      -.18     -3.17
      -.34      -.18     -3.17
      -.34      -.18     -3.17
      -.34      -.18     -3.17
      -.34      -.18     -3.17
      -.34      -.18     -3.17
      -.34      -.18     -3.17
      -.34      -.18     -3.17
      -.34      -.67     -3.17
      -.34      -.67     -3.17
      -.34      -.67     -3.17
      -.34      -.18     -3.17
      -.34      -.67     -3.17
      -.34      -.67     -3.66
      -.34      -.67     -3.17
      -.34      -.67     -3.17
       .15      -.67     -3.17
       .15      -.67     -3.17
       .15      -.18     -3.17
       .15      -.67     -3.17
       .15      -.67     -3.17
       .15      -.67     -3.17
       .15      -.67     -3.17
       .15      -.18     -3.17
       .15      -.18     -3.17
       .15      -.67     -3.17
       .15      -.67     -3.17
       .15      -.18     -3.17
       .15      -.18     -3.17
       .15      -.18     -3.17
       .15      -.67     -3.17
       .15      -.18     -3.17
       .15      -.18     -3.17
       .15      -.18     -3.17
       .15      -.67     -2.68
       .15      -.18     -2.68
       .15      -.67     -2.68
       .15      -.67     -2.68
       .15      -.67     -2.68
       .15      -.67     -2.68
       .15      -.18     -2.68
       .15      -.18     -2.68
       .15      -.67     -2.68
       .15      -.67     -2.19
       .15      -.67     -2.19
       .15      -.67     -2.19
       .15      -.67     -2.19
       .15      -.67     -2.19
       .15      -.67     -2.19
       .15      -.67     -2.19
       .15      -.67     -2.19
       .15      -.67     -1.71
       .15      -.18     -1.71
       .63      -.67     -1.71
       .15      -.18     -1.71
       .63      -.18     -1.71
       .15      -.18     -1.71
       .63      -.18     -1.71
       .63      -.18     -1.71
       .63      -.18     -1.71
       .15      -.18     -1.22
       .15      -.18     -1.71
       .63      -.18     -1.22
       .15      -.18     -1.22
       .15      -.18     -1.22
       .15      -.18     -1.22
       .15      -.18     -1.22
       .15      -.18     -1.22
       .15      -.18      -.73
       .15      -.18      -.73
       .15      -.18      -.73
       .15       .30      -.73
       .15       .30      -.73
       .15      -.18      -.73
       .15       .30      -.73
       .15       .30      -.73
       .15       .30      -.73
       .15      -.18      -.73
       .15       .30      -.24
      -.34       .30      -.24
      -.34       .30      -.24
      -.34      -.18      -.24
      -.34       .30      -.24
      -.34      -.18      -.24
      -.34       .30       .25
      -.34      -.18       .25
      -.34      -.18       .25
      -.34      -.18       .25
      -.34      -.18       .25
      -.83      -.18       .25
      -.83      -.18       .25
      -.83      -.18       .73
      -.83      -.18       .73
      -.83      -.18       .73
      -.83      -.18       .73
      -.83      -.18       .73
      -.83       .30      1.22
      -.83       .30      1.22
      -.83       .30      1.22
      -.83       .30      1.22
      -.83       .30      1.22
      -.83       .30      1.22
      -.83       .30      1.71
      -.83       .30      1.71
      -.83       .30      1.71
      -.83       .30      1.71
      -.83       .30      1.71
      -.83       .30      1.71
      -.83       .30      1.71
      -.83       .30      1.71
      -.83       .30      1.71
      -.83      -.18      2.20
      -.83       .30      2.20
      -.83       .30      2.20
      -.83       .30      2.20
      -.83       .30      2.20
      -.83       .30      2.20
      -.83       .30      2.20
      -.83       .30      2.20
      -.83       .30      2.20
      -.83       .30      2.20
      -.83      -.18      2.20
      -.83      -.18      2.20
      -.83      -.18      2.20
      -.83      -.18      2.20
      -.83       .30      2.20
      -.83      -.18      2.20
      -.83       .30      2.20
      -.83      -.18      2.69
      -.83       .30      2.69
      -.83       .30      2.69
      -.83       .30      2.69
      -.83       .30      2.69
      -.83       .30      2.69
      -.83       .30      2.69
      -.83       .30      2.69
      -.83       .30      2.69
      -.83       .30      2.69
      -.83       .30      2.69
      -.83       .30      2.69
      -.83       .30      2.69
      -.83       .30      3.17
      -.83       .30      3.17
      -.83       .30      2.69
      -.83       .30      3.17
      -.83       .30      3.17
      -.83       .30      3.17
      -.83       .30      3.17
      -.83       .30      3.17
      -.83       .30      3.17
      -.83       .30      3.17
      -.83       .30      3.17
      -.83       .30      3.17
      -.83      -.18      2.69
      -.83       .30      2.69
      -.83      -.18      2.69
      -.83       .30      2.69
      -.83       .30      3.17
      -.83      -.18      3.17
      -.83       .30      3.17
      -.83       .30      3.17
