********************************************************************************
           RED INTERUNIVERSITARIA DE INSTRUMENTACION SISIMICA (RIIS)
 AREA DE ESTRUCTURAS, UNIVERSIDAD AUTONOMA METROPOLITANA - UNIDAD AZCAPOTZALCO
         AV. SAN PABLO 180; COL. REYNOSA TAMAULIPAS; MEXICO D.F. 02200.                                                                               
       TELS: 7235859, 7235856; FAX: 7244285; e-mail: esz@hp9000a1.uam.mx
********************************************************************************
ARCHIVO ESTANDAR DE ACELERACION:
VERSION DEL FORMATO                    : 2.0
NOMBRE DEL ARCHIVO                     : RIDI9405.231
FECHA Y HORA DE CREACION               : 23 de mayo 1994 /1:42
REF. CATALOGO ACELEROGRAMAS, SMIS 1996 : REGISTRO No. 581 /PAG. 80


================================================================================
DATOS DE LA ESTACION:
NOMBRE DE LA ESTACION                  : UAM IZTAPALAPA
CLAVE DE LA ESTACION                   : RIDI
LOCALIZACION DE LA ESTACION            : AVENIDA MICHOACAN ESQUINA LA PURISIMA,
                                       : COLONIA VICENTINA, PLANTEL IZTAPALAPA
                                       : FRENTE AL EDIFICIO "O", MEXICO, D.F.
                                       :
                                       :
COORDENADAS DE LA ESTACION             : 19.360 LAT. N 
                                       : 99.060 LONG. W 
ALTITUD (msnm)                         : 2235
TIPO DE SUELO                          : LIMOS Y ARENAS ARCILLOSAS
                                       : 
                                       : 
INSTITUCION RESPONSABLE                : RED INTERUNIVERSITARIA DE 
                                       : INSTRUMENTACION SISMICA (RIIS)

================================================================================
DATOS DEL ACELEROGRAFO:
MODELO DEL ACELEROGRAFO                : SSA-2
NUMERO DE SERIE DEL ACELEROGRAFO       : 1009
NUMERO DE CANALES                      : 3
ORIENTACION C1-C6 (rumbo;orientacion)  : /N00E/+V/N90E
ORIENTACION C7-C12 (rumbo;orientacion) :
VEL. DE MUESTREO, C1-C6 (muestras/s)   : /200/200/200
VEL. DE MUESTREO, C7-C12 (muestras/s)  :
ESC. COMPLETA DE SENSORES, C1-C6, (g)  : /1.0/1.0/1.0
ESC. COMPLETA DE SENSORES, C7-C12, (g) :
FREC. NAT. DE SENSORES, C1-C6, (Hz)    : /50.0/50.0/50.0
FREC. NAT. DE SENSORES, C7-C12, (Hz)   :
AMORTIGUAMIENTO DE SENSORES, C1-C6     : /0.7/0.7/0.7
AMORTIGUAMIENTO DE SENSORES, C7-C12    :
INTERVALO DE MUESTREO, C1-C6, (s)      : /0.005/0.005/0.005
INTERVALO DE MUESTREO, C7-C12, (s)     :
UMBRAL DE DISPARO, C1-C6, (Gal)        : /3/3/3
UMBRAL DE DISPARO, C7-C12, (Gal)       :
MEMORIA DE PREEVENTO (s)               : 15
TIEMPO DE POSEVENTO (s)                : 60


================================================================================
DATOS DEL SISMO:
FECHA DEL SISMO (GMT)                  : 23/MAY/94
HORA EPICENTRO (GMT)                   : 01:41:46,0
MAGNITUD(ES)                           : /Mc=5.60
COORDENADAS DEL EPICENTRO              : 18.030 LAT. N 
                                       : 100.570 LONG. W
PROFUNDIDAD FOCAL (km)                 : 23 
FUENTES DE LOS DATOS EPICENTRALES      : SSN
                                       : INSTITUTO DE GEOFISICA, UNAM

================================================================================
DATOS DE ESTE REGISTRO:
HORA DE LA PRIMERA MUESTRA (GMT)       : 01:42:00.00
EXACTITUD DEL TIEMPO (s)               : 
DURACION DEL REGISTRO (s), C1-C6       : /119.04/119.04/119.04
DURACION DEL REGISTRO (s), C7-C12      :
NUM. TOTAL DE MUESTRAS, C1-C6          : /23808/23808/23808
NUM. TOTAL DE MUESTRAS, C7-C12         :
ACEL. MAX.(Gal), C1-C6                 : /-6.29/-4.00/9.69
ACEL. MAX., C1-C6, EN LA MUESTRA       : /7853/7110/6733
ACEL. MAX.(Gal), C7-C12                :
ACEL. MAX., C7-C12, EN LA MUESTRA      :
UNIDADES DE LOS DATOS                  : Gal 
FACTOR DE DECIMACION                   : 1
FORMATO DATOS (FORTRAN,10 campos/dato) : 3F10.3


===============================================================================
CALIDAD DEL ACELEROGRAMA:
REGISTRO DIGITAL COMPLETO, CARECE DE TIEMPO ABSOLUTO.


===============================================================================
COMENTARIOS:
CADA UNO DE LOS CANALES SE ENCUENTRA AJUSTADO POR LINEA BASE MEDIANTE LA
SUSTRACCION DEL PROMEDIO DE LAS ACELERACIONES EN EL TIEMPO.











MODELO DEL ACELEROGRAFO : SSA-2 (KINEMETRICS)
===============================================================================
DATOS DE ACELERACION:
---------+---------+---------+---------+---------+---------+---------+---------+
   CANAL-1   CANAL-2   CANAL-3   CANAL-4   CANAL-5   CANAL-6   CANAL-7   CANAL-8
      N00E        +V      N90E
---------+---------+---------+---------+---------+---------+---------+---------+
[...]
     1.523     1.390     3.850
     1.035     1.390     3.850
     1.523     1.390     3.850
     1.035     1.390     4.336
     1.035     1.390     4.336
     1.035     1.390     4.336
     1.035      .900     4.336
     1.035     1.390     4.823
     1.035      .410     4.823
     1.035      .900     5.309
     1.035      .900     5.309
     1.035      .900     5.309
     1.035      .900     4.823
     1.035      .900     5.309
     1.035      .900     4.823
     1.035      .900     4.823
     1.035      .410     4.823
     1.035      .900     4.823
      .546      .900     4.823
      .546      .900     5.309
      .058      .410     4.823
      .058      .900     5.309
      .058      .900     4.823
      .058      .410     4.823
     -.430      .410     4.823
     -.430      .900     4.823
     -.430      .410     4.823
     -.430      .410     4.336
     -.919      .410     4.336
     -.430      .410     4.336
     -.919      .410     3.850
     -.430      .410     3.363
     -.430      .410     3.850
     -.430      .410     3.363
     -.430      .410     3.850
      .058     -.081     3.363
      .058      .410     3.363
      .058     -.081     3.363
      .058      .410     2.877
      .058     -.081     2.877
      .058     -.081     2.877
      .058     -.081     2.877
      .058     -.081     2.877
      .058     -.081     3.363
      .058     -.571     2.877
      .058     -.571     2.877
      .058     -.571     2.877
      .058     -.571     2.877
      .058     -.571     2.390
     -.430    -1.061     2.877
     -.430    -1.061     2.390
     -.919     -.571     2.390
     -.919    -1.061     2.390
     -.919    -1.061     2.390
     -.919    -1.061     1.903
    -1.407    -1.551     1.903
    -1.407    -1.551     1.903
    -1.407    -1.061     1.903
    -1.895    -1.061     1.903
    -1.407    -1.551     2.390
    -1.895    -1.061     1.903
    -1.407    -1.061     1.903
    -1.407    -1.551     1.903
    -1.407    -1.061     2.390
    -1.407    -1.061     2.390
    -1.407    -1.551     2.390
    -1.407    -1.061     2.877
     -.919    -1.061     2.877
     -.919    -1.061     2.877
     -.919    -1.551     2.877
     -.919    -1.061     2.877
     -.919    -1.551     2.877
     -.919    -1.551     2.877
     -.919    -1.061     2.877
     -.919    -1.061     2.390
     -.919    -1.061     2.390
    -1.407    -1.061     2.390
    -1.407    -1.061     2.390
    -1.407    -1.061     1.903
    -1.407    -1.061     1.903
    -1.407    -1.061     1.903
    -1.407    -1.061     1.903
    -1.895    -1.551     2.390
    -1.895    -1.061     2.390
    -1.895    -1.061     2.390
    -1.895    -1.061     2.390
    -1.895    -1.061     1.903
    -2.383    -1.061     2.390
    -2.383    -1.061     1.903
    -2.383    -1.061     2.390
    -2.383     -.571     2.390
    -2.383     -.571     2.390
    -2.383    -1.061     2.390
    -2.383     -.571     2.390
    -2.383     -.571     2.390
    -1.895    -1.061     2.390
    -2.383     -.571     2.390
    -1.895     -.571     2.390
    -1.895     -.571     1.903
    -1.895     -.081     1.903
    -1.895     -.081     1.903
    -1.895     -.081     1.903
    -1.895     -.081     1.903
    -1.407     -.081     1.417
    -1.407     -.081     1.903
     -.919     -.081     1.903
     -.919      .410     1.417
     -.919     -.081     1.903
     -.430     -.081     1.903
     -.430     -.081     1.903
      .058      .410     1.903
      .058      .410     1.903
      .058     -.081     1.903
      .546      .410     1.903
     1.035      .410     1.417
     1.035      .410     1.903
     1.035      .410     1.417
     1.035      .410     1.903
     1.523      .410     1.417
     1.523      .410     1.417
     2.012      .410      .930
     2.012      .900      .930
     2.012      .900      .930
     2.012      .900      .444
     2.012      .900     -.043
     2.012      .900     -.043
     2.500     1.390     -.530
     2.500     1.390    -1.016
     2.500     1.390    -1.016
     2.500     1.390    -1.503
     2.500     1.390    -1.989
     2.500     1.390    -1.989
     2.500     1.390    -1.989
     2.500     1.390    -2.962
     2.500     1.390    -2.962
     2.500     1.880    -2.962
     2.500     1.880    -2.962
     2.012     1.880    -3.448
     2.012     1.390    -3.935
     2.012     1.880    -3.935
     2.012     1.880    -4.421
     1.523     1.880    -4.421
     1.523     1.880    -4.421
     1.523     1.880    -4.907
     1.523     1.880    -5.394
     1.035     1.880    -5.394
     1.523     1.390    -5.394
     1.523     1.390    -6.366
     1.035     1.390    -5.880
     1.523     1.390    -6.366
     1.523     1.390    -6.366
     1.035      .900    -6.366
     1.035      .900    -6.366
     1.035      .410    -6.853
     1.035      .410    -6.853
     1.035      .410    -6.853
     1.035     -.081    -7.339
     1.035     -.081    -7.339
     1.035     -.081    -7.339
     1.035     -.571    -7.825
     1.035     -.571    -7.825
     1.035     -.571    -7.825
     1.035    -1.061    -7.825
     1.035    -1.061    -7.825
     1.035    -1.061    -8.312
     1.035    -1.061    -7.825
     1.523    -1.061    -8.312
     1.523    -1.551    -7.825
     1.523    -1.551    -7.825
     1.035    -1.551    -7.825
     1.035    -1.551    -7.339
     1.035    -1.551    -7.339
     1.035    -1.551    -6.853
     1.035    -1.551    -6.853
     1.035    -1.551    -6.853
      .546    -1.551    -6.366
      .546    -1.551    -6.366
      .058    -1.551    -6.366
      .058    -1.551    -5.880
      .058    -1.061    -5.880
     -.430    -1.061    -5.880
     -.430    -1.551    -5.880
     -.919    -1.061    -5.880
     -.919    -1.061    -5.394
     -.919    -1.551    -5.394
    -1.407    -1.061    -4.907
    -1.895    -1.061    -4.907
    -1.895    -1.061    -4.907
    -1.895    -1.061    -4.421
    -1.895     -.571    -3.935
    -1.895     -.571    -3.935
    -1.895     -.571    -3.448
    -1.895     -.571    -2.962
    -1.895     -.081    -2.962
    -1.895     -.081    -2.962
    -1.895     -.081    -1.989
    -1.895      .410    -1.989
    -1.895      .410    -1.503
    -1.407     -.081    -1.503
    -1.407      .410    -1.503
    -1.407      .410    -1.016
     -.919      .410    -1.016
     -.919      .410    -1.016
     -.430     -.081    -1.016
     -.430      .410    -1.016
     -.430      .410    -1.016
      .058     -.081    -1.016
      .058     -.081    -1.016
      .546     -.081    -1.016
      .546     -.081    -1.016
      .546     -.081    -1.503
     1.035     -.081    -1.503
     1.035     -.081    -1.503
     1.035     -.081    -1.989
     1.035     -.081    -1.503
     1.035     -.081    -1.503
      .546     -.081    -1.503
      .546     -.081    -1.503
      .546     -.081    -1.503
      .546     -.081    -1.503
      .058      .410    -1.016
      .058     -.081    -1.503
      .058     -.081    -1.503
      .058      .410    -1.016
      .058      .410    -1.016
     -.430      .410    -1.016
     -.430      .410    -1.016
     -.430      .410     -.530
     -.430      .900    -1.016
      .058      .900     -.530
     -.430      .900     -.530
      .058     1.390     -.530
      .058     1.390     -.530
      .058     1.390     -.530
      .058     1.390     -.530
      .546     1.390     -.530
      .058     1.390     -.530
      .546     1.880    -1.016
      .546     1.880     -.530
      .546     1.390     -.530
      .546     1.390    -1.016
      .546     1.390    -1.016
      .546     1.390    -1.016
      .546     1.390    -1.016
      .546      .900    -1.016
      .058      .900    -1.016
      .058      .900    -1.016
      .058      .410    -1.503
      .058      .900    -1.503
      .058      .410    -1.503
      .058      .410    -1.016
      .058      .410    -1.503
      .058      .410    -1.016
     -.430     -.081    -1.016
     -.430     -.081    -1.016
     -.430     -.081    -1.016
     -.430     -.081    -1.016
      .058     -.571    -1.016
      .058     -.571    -1.016
      .058     -.571    -1.016
      .058    -1.061    -1.016
      .058    -1.061    -1.016
      .058    -1.061     -.530
      .546    -1.061     -.530
      .546    -1.061     -.043
      .546    -1.061     -.530
     1.035    -1.061     -.530
     1.035    -1.061     -.043
     1.035    -1.551     -.043
     1.035    -1.061     -.043
     1.035    -1.061      .444
     1.523    -1.061      .444
     1.523    -1.551      .444
     1.523    -1.551      .444
     1.523    -1.551      .444
     1.523    -1.551      .444
     1.035    -1.551      .444
     1.035    -1.551      .444
     1.035    -1.061      .444
     1.035    -1.061     -.043
     1.035    -1.061     -.043
     1.035    -1.061     -.043
     1.035    -1.061      .444
     1.035    -1.061     -.043
      .546    -1.061     -.043
      .546    -1.061     -.043
     1.035    -1.061     -.043
     1.035    -1.061      .444
      .546     -.571      .444
      .546     -.571      .444
      .546     -.571      .930
      .546    -1.061      .930
      .058    -1.061     1.903
      .058     -.571     1.903
      .058    -1.061     2.390
      .058     -.571     2.390
      .058     -.571     3.363
      .058     -.571     3.363
      .058     -.571     3.850
      .058     -.571     4.336
     -.430     -.571     4.823
     -.430     -.571     4.823
     -.430     -.571     4.823
     -.430     -.571     5.309
     -.919     -.571     5.796
     -.919     -.081     5.796
     -.919     -.571     6.283
     -.919     -.081     6.283
     -.919     -.081     6.769
     -.919     -.081     7.256
    -1.407      .410     7.742
    -1.407      .410     7.256
    -1.407      .410     7.742
    -1.407      .410     7.742
    -1.895      .410     8.229
    -1.895      .900     8.229
    -1.895      .900     8.715
    -1.895      .410     8.229
    -2.383      .900     8.715
    -2.383      .900     8.229
    -2.383      .410     8.715
    -2.383      .410     8.715
    -2.383      .410     8.715
    -2.383      .410     7.742
    -1.895      .410     8.229
    -1.895      .410     8.229
    -1.895      .410     8.229
    -1.895      .410     8.229
    -1.407     -.081     8.229
    -1.407     -.081     8.229
    -1.407      .410     8.229
     -.919      .410     8.715
     -.919     -.081     8.715
     -.430      .410     8.715
     -.430      .410     8.715
     -.430     -.081     9.202
      .058      .410     9.202
      .058     -.081     9.202
      .058      .410     9.202
      .058     -.081     9.202
      .546      .410     9.202
      .546      .410     9.688
      .546      .410     9.202
     1.035      .410     9.202
     1.035      .410     9.202
     1.035      .900     8.715
     1.035      .900     8.715
     1.523      .900     8.229
     1.523      .900     7.742
     1.523      .900     7.742
     1.523      .900     7.256
     1.523     1.390     6.769
     1.523     1.390     6.769
     2.012      .900     6.283
     2.012     1.390     5.796
     2.012     1.390     5.309
     2.012     1.390     4.823
     2.012     1.390     4.336
     2.012     1.390     3.850
     2.500      .900     3.850
     2.500     1.390     2.877
     2.500      .900     2.390
     2.500      .900     2.390
     2.989      .900     1.903
     2.989      .410     1.903
     2.989      .900     1.417
     2.989      .410     1.417
     2.989      .410      .930
     2.500     -.081      .930
     2.500     -.081      .930
     2.500     -.081      .930
     2.500     -.571      .930
     2.012     -.571      .930
     2.012     -.571      .930
     2.012     -.571      .930
     2.012     -.571      .444
     1.523    -1.061      .444
     1.523     -.571      .930
     1.035    -1.061      .930
     1.035    -1.061      .930
     1.035     -.571      .930
      .546     -.571      .930
      .546     -.571     1.417
      .058     -.081      .930
      .058     -.081     1.417
      .058     -.081      .930
     -.430      .410      .930
     -.430      .410      .930
     -.430      .410      .930
     -.919      .900      .444
     -.919      .900      .444
     -.919      .900     -.043
     -.919      .900     -.043
     -.919     1.390     -.043
     -.919      .900     -.530
     -.919      .900     -.530
    -1.407      .900     -.530
    -1.407      .900    -1.016
    -1.407      .410    -1.016
    -1.407      .410    -1.016
    -1.407      .410    -1.016
     -.919     -.081    -1.016
    -1.407     -.081    -1.503
     -.919     -.081    -1.503
     -.919     -.571    -1.503
     -.919     -.571    -1.503
     -.919     -.571    -1.503
     -.919    -1.061    -1.503
     -.919    -1.061    -1.503
     -.919    -1.551    -1.989
     -.919    -1.061    -1.989
     -.919    -1.551    -1.989
     -.919    -1.551    -1.989
     -.919    -2.042    -1.989
     -.919    -1.551    -1.989
     -.919    -2.042    -1.989
     -.430    -2.042    -1.989
     -.430    -2.042    -1.989
     -.430    -2.042    -1.989
     -.430    -1.551    -1.989
     -.430    -1.551    -2.476
      .058    -1.551    -2.476
      .058    -2.042    -1.989
      .058    -1.551    -2.476
      .058    -1.551    -2.476
      .058    -1.551    -2.476
      .546    -1.551    -2.476
      .546    -1.551    -2.962
     1.035    -1.551    -2.962
     1.035    -1.061    -2.962
     1.035    -1.061    -2.962
     1.523    -1.061    -2.962
     1.523    -1.061    -2.962
     2.012     -.571    -2.962
     2.500    -1.061    -3.448
     2.500    -1.061    -3.448
     2.989    -1.061    -4.421
     2.989     -.571    -4.421
     3.477     -.571    -4.421
     3.477    -1.061    -4.421
     3.477     -.571    -4.907
     3.477    -1.061    -4.907
     3.477     -.571    -4.421
     3.477    -1.061    -4.421
     3.477    -1.061    -4.907
     3.477    -1.061    -4.907
     3.477    -1.061    -4.907
     2.989    -1.061    -4.421
     2.989     -.571    -4.907
     2.500     -.571    -4.907
     2.500    -1.061    -4.421
     2.012     -.571    -5.394
     2.012     -.571    -4.907
     1.523     -.571    -4.907
     1.523     -.571    -5.394
     1.035     -.571    -5.394
     1.035     -.081    -5.880
      .546      .410    -5.880
      .546     -.081    -5.880
      .058     -.081    -6.366
      .058     -.081    -6.853
      .058      .410    -6.366
      .058      .410    -6.853
      .058      .410    -6.853
      .058      .410    -7.339
      .058      .410    -7.825
      .058      .410    -7.825
      .058      .410    -8.312
      .058      .410    -8.312
      .058      .410    -8.312
      .058      .410    -8.312
      .058      .410    -8.312
      .058      .410    -8.312
      .058      .410    -7.825
      .058      .410    -7.825
      .058      .410    -7.825
      .058      .900    -7.339
      .058      .410    -7.825
      .058      .900    -7.339
      .058      .900    -6.853
     -.430      .900    -6.853
     -.430      .900    -6.853
     -.430      .410    -6.366
     -.430      .900    -6.366
     -.919      .410    -5.880
     -.919      .410    -5.880
     -.919      .410    -5.880
    -1.407      .410    -5.880
