********************************************************************************
           RED INTERUNIVERSITARIA DE INSTRUMENTACION SISMICA (RIIS)
 AREA DE ESTRUCTURAS, UNIVERSIDAD AUTONOMA METROPOLITANA - UNIDAD AZCAPOTZALCO
         AV. SAN PABLO 180; COL. REYNOSA TAMAULIPAS; MEXICO D.F. 02200.        
       TELS:53189458,53189456; FAX:53189085; e-mail: mrc@hp9000a1.uam.mx
********************************************************************************
ARCHIVO ESTANDAR DE ACELERACION:
VERSION DEL FORMATO                    : 2.0
NOMBRE DEL ARCHIVO                     : RIDI9909.301
FECHA Y HORA DE CREACION               : MAYO 2000
REF. CATALOGO ACELEROGRAMAS, SMIS 1996 :  


================================================================================
DATOS DE LA ESTACION:
NOMBRE DE LA ESTACION                  : UAM IZTAPALAPA
CLAVE DE LA ESTACION                   : RIDI
LOCALIZACION DE LA ESTACION            : AVENIDA MICHOACAN ESQUINA LA PURISIMA,
                                       : COLONIA VICENTINA, PLANTEL IZTAPALAPA
                                       : FRENTE AL EDIFICIO "O", MEXICO, D.F.
                                       :
                                       :
COORDENADAS DE LA ESTACION             : 19.360 LAT. N 
                                       : 99.060 LONG. W 
ALTITUD (msnm)                         : 2235
TIPO DE SUELO                          : LIMOS Y ARENAS ARCILLOSAS
                                       : 
                                       : 
INSTITUCION RESPONSABLE                : RED INTERUNIVERSITARIA DE
                                       : INSTRUMENTACION SISMICA (RIIS)

================================================================================
DATOS DEL ACELEROGRAFO:
MODELO DEL ACELEROGRAFO                : SSA-2
NUMERO DE SERIE DEL ACELEROGRAFO       : 1009
NUMERO DE CANALES                      : 3
ORIENTACION C1-C6 (rumbo;orientacion)  : /N00E/+V/N90E
ORIENTACION C7-C12 (rumbo;orientacion) :
VEL. DE MUESTREO, C1-C6 (muestras/s)   : /200/200/200
VEL. DE MUESTREO, C7-C12 (muestras/s)  :
ESC. COMPLETA DE SENSORES, C1-C6, (g)  : /1.0/1.0/1.0
ESC. COMPLETA DE SENSORES, C7-C12, (g) :
FREC. NAT. DE SENSORES, C1-C6, (Hz)    : /50.0/50.3/50.7
FREC. NAT. DE SENSORES, C7-C12, (Hz)   :
AMORTIGUAMIENTO DE SENSORES, C1-C6     : /0.66/0.67/0.66
AMORTIGUAMIENTO DE SENSORES, C7-C12    :
INTERVALO DE MUESTREO, C1-C6, (s)      : /0.005/0.005/0.005
INTERVALO DE MUESTREO, C7-C12, (s)     :
UMBRAL DE DISPARO, C1-C6, (Gal)        : /3/3/3
UMBRAL DE DISPARO, C7-C12, (Gal)       :
MEMORIA DE PREEVENTO (s)               : 15.4
TIEMPO DE POSEVENTO (s)                : 60.0


================================================================================
DATOS DEL SISMO:
FECHA DEL SISMO (GMT)                  : 30/SEP/99
HORA EPICENTRO (GMT)                   : 16:31:14.8
MAGNITUD(ES)                           : /Mb=6.5/Ms=7.5/Mc=5.2/Ma=7.1/Me=7.6
COORDENADAS DEL EPICENTRO              : 15.95 LAT. N 
                                       : 97.03 LONG. W 
PROFUNDIDAD FOCAL (km)                 : 16
FUENTES DE LOS DATOS EPICENTRALES      : SSN
                                       : INSTITUTO DE GEOFISICA, UNAM

================================================================================
DATOS DE ESTE REGISTRO:
HORA DE LA PRIMERA MUESTRA (GMT)       : 16:32:50
EXACTITUD DEL TIEMPO (s)               : 
DURACION DEL REGISTRO (s), C1-C6       : /198.44/198.44/198.44
DURACION DEL REGISTRO (s), C7-C12      :
NUM. TOTAL DE MUESTRAS, C1-C6          : /39680/39680/39680
NUM. TOTAL DE MUESTRAS, C7-C12         :
ACEL. MAX.(Gal), C1-C6                 : /17.66/6.51/18.23
ACEL. MAX., C1-C6, EN LA MUESTRA       : /8427/5414/10008
ACEL. MAX.(Gal), C7-C12                :
ACEL. MAX., C7-C12, EN LA MUESTRA      :
UNIDADES DE LOS DATOS                  : Gal
FACTOR DE DECIMACION                   : 1
FORMATO DATOS (FORTRAN,10 campos/dato) : 3F10.3


===============================================================================
CALIDAD DEL ACELEROGRAMA:
REGISTRO DIGITAL COMPLETO, CARECE DE TIEMPO ABSOLUTO


===============================================================================
COMENTARIOS:
CADA UNO DE LOS CANALES SE ENCUENTRA AJUSTADO POR LINEA BASE MEDIANTE LA
SUSTRACCION DEL PROMEDIO DE LAS ACELERACIONES EN EL TIEMPO.











MODELO DEL ACELEROGRAFO : SSA-2 (KINEMETRICS)
===============================================================================
DATOS DE ACELERACION:
---------+---------+---------+---------+---------+---------+---------+---------+
   CANAL-1   CANAL-2   CANAL-3   CANAL-4   CANAL-5   CANAL-6   CANAL-7   CANAL-8
      N00E        +V      N90E
---------+---------+---------+---------+---------+---------+---------+---------+
[...]
      4.25     -0.70      8.69
      4.25     -0.70      8.69
      4.25     -1.18      9.17
      4.25     -1.18      9.17
      4.25     -1.18      9.17
      4.72     -1.18      9.17
      4.72     -1.66      9.64
      4.72     -1.66      9.64
      4.72     -1.66     10.12
      5.20     -1.66     10.12
      5.20     -2.15     10.12
      5.20     -2.15     10.60
      5.20     -2.15     10.60
      5.68     -2.15     11.08
      5.68     -2.15     11.08
      5.68     -2.15     11.08
      5.68     -2.63     11.55
      6.16     -2.63     12.03
      6.16     -2.63     12.03
      6.16     -2.63     12.03
      6.16     -2.63     12.51
      6.16     -2.63     12.51
      6.16     -2.63     12.98
      6.64     -2.63     12.98
      6.64     -2.63     13.46
      6.64     -2.63     13.46
      6.64     -2.63     13.94
      6.64     -2.63     13.94
      6.64     -2.63     13.94
      7.12     -2.63     13.94
      7.12     -2.63     13.94
      7.12     -2.63     13.94
      7.12     -2.63     13.94
      7.12     -2.63     13.94
      7.12     -2.15     13.94
      7.12     -2.15     13.94
      7.12     -2.15     13.94
      7.12     -2.15     13.94
      7.12     -2.15     13.94
      7.12     -2.15     13.46
      7.12     -2.15     13.46
      7.12     -2.15     12.98
      7.12     -2.15     12.98
      7.12     -2.15     12.51
      7.12     -1.66     12.03
      6.64     -1.66     12.03
      6.64     -1.66     11.55
      6.64     -1.66     11.08
      6.64     -1.66     10.60
      6.64     -1.66     10.12
      6.64     -1.66      9.64
      6.64     -1.66      9.17
      6.64     -1.66      8.69
      6.64     -1.66      8.21
      6.64     -1.66      7.74
      6.64     -1.66      7.26
      6.64     -1.66      6.78
      6.64     -1.66      6.30
      6.64     -1.66      5.83
      6.64     -1.18      5.35
      7.12     -1.66      4.40
      7.12     -1.66      3.92
      7.12     -1.18      3.44
      7.12     -1.66      2.96
      7.12     -1.18      2.49
      7.12     -1.66      1.53
      7.12     -1.18      1.06
      7.60     -1.18      0.58
      7.60     -1.18      0.10
      7.60     -1.18     -0.37
      7.60     -1.18     -0.85
      7.60     -1.18     -1.33
      8.08     -1.18     -1.81
      8.08     -1.18     -2.28
      8.08     -1.18     -2.76
      8.08     -1.18     -3.24
      8.56     -1.18     -3.24
      8.56     -1.18     -3.71
      8.56     -0.70     -4.19
      8.56     -0.70     -4.67
      8.56     -0.70     -4.67
      9.04     -0.70     -5.14
      9.04     -0.70     -5.14
      9.04     -0.70     -5.62
      9.04     -0.70     -5.62
      9.04     -0.70     -6.10
      9.04     -0.70     -6.10
      9.04     -0.70     -6.10
      8.56     -0.70     -6.57
      8.56     -0.70     -6.57
      8.56     -0.70     -7.05
      8.56     -0.70     -7.05
      8.56     -0.70     -7.05
      8.08     -0.70     -7.05
      8.08     -0.70     -7.53
      8.08     -0.70     -7.53
      8.08     -0.70     -7.53
      8.08     -0.70     -7.53
      7.60     -0.70     -7.53
      7.60     -1.18     -8.01
      7.60     -1.18     -8.01
      7.12     -1.18     -8.01
      7.12     -1.18     -8.01
      6.64     -1.18     -8.01
      6.64     -1.18     -8.01
      6.64     -1.18     -7.53
      6.16     -1.18     -8.01
      6.16     -1.18     -8.01
      6.16     -1.66     -8.01
      6.16     -1.66     -8.01
      5.68     -1.66     -8.01
      5.68     -1.66     -8.01
      5.68     -1.66     -8.01
      5.20     -1.66     -8.01
      5.20     -1.66     -8.01
      5.20     -1.66     -8.01
      4.72     -1.66     -8.01
      4.72     -1.66     -8.01
      4.72     -1.66     -8.01
      4.25     -1.66     -8.01
      4.25     -1.66     -8.01
      4.25     -1.66     -8.01
      4.25     -1.18     -8.01
      3.77     -1.18     -8.01
      3.77     -1.18     -8.01
      3.77     -1.18     -8.01
      3.77     -1.66     -8.01
      3.29     -1.18     -8.01
      3.29     -1.18     -8.48
      3.29     -1.18     -8.48
      2.81     -1.66     -8.48
      2.81     -1.66     -8.96
      2.33     -1.66     -8.96
      2.33     -1.66     -8.96
      2.33     -1.66     -8.96
      2.33     -1.66     -9.44
      1.85     -2.15     -9.44
      1.85     -2.15     -9.44
      1.37     -2.15     -9.44
      1.37     -2.15     -9.91
      1.37     -2.15     -9.91
      0.89     -2.15    -10.39
      0.89     -2.63    -10.39
      0.89     -2.63    -10.39
      0.41     -2.63    -10.87
      0.41     -2.63    -10.87
      0.41     -2.63    -11.34
     -0.07     -3.11    -11.34
     -0.07     -3.11    -11.34
     -0.07     -3.11    -11.82
     -0.07     -3.11    -11.82
     -0.07     -3.59    -11.82
     -0.07     -3.59    -11.82
     -0.07     -3.59    -12.30
     -0.07     -3.59    -12.30
     -0.07     -3.59    -12.77
     -0.07     -3.59    -12.77
     -0.07     -3.59    -12.77
     -0.07     -3.59    -12.77
     -0.07     -4.07    -13.25
     -0.54     -3.59    -13.25
     -0.54     -3.59    -13.73
     -0.54     -3.59    -13.73
     -0.54     -3.59    -13.73
     -0.54     -3.59    -14.20
     -1.02     -3.59    -14.20
     -1.02     -3.59    -14.20
     -1.02     -3.59    -14.20
     -1.02     -3.11    -14.20
     -1.02     -3.11    -14.20
     -1.02     -3.11    -14.20
     -1.50     -3.11    -14.68
     -1.50     -3.11    -14.68
     -1.50     -2.63    -14.68
     -1.98     -3.11    -15.16
     -1.98     -2.63    -15.64
     -2.46     -2.63    -15.64
     -2.46     -2.63    -15.64
     -2.46     -2.63    -15.64
     -2.94     -2.15    -15.64
     -2.94     -2.15    -16.11
     -3.42     -2.15    -16.11
     -3.42     -2.15    -16.11
     -3.90     -1.66    -16.11
     -3.90     -2.15    -16.59
     -4.37     -1.66    -16.59
     -4.37     -1.66    -16.59
     -4.85     -1.66    -16.59
     -4.85     -1.66    -17.07
     -5.33     -1.66    -17.07
     -5.81     -1.66    -17.07
     -5.81     -1.66    -17.07
     -5.81     -1.66    -17.54
     -6.29     -1.66    -17.54
     -6.29     -1.66    -17.54
     -6.77     -1.66    -17.54
     -6.77     -1.66    -17.54
     -6.77     -1.66    -17.54
     -7.25     -1.18    -17.54
     -7.25     -1.18    -17.54
     -7.25     -1.18    -17.07
     -7.73     -1.18    -17.07
     -7.73     -1.18    -17.07
     -7.73     -0.70    -17.07
     -7.73     -0.70    -16.59
     -7.73     -1.18    -16.59
     -8.21     -0.70    -16.59
     -8.21     -0.70    -16.59
     -8.21     -0.70    -16.11
     -8.21     -0.70    -16.11
     -8.21     -0.70    -15.64
     -8.21     -0.70    -15.64
     -8.21     -0.70    -15.64
     -8.21     -0.70    -15.16
     -8.68     -0.70    -15.16
     -8.68     -0.70    -14.68
     -8.68     -0.22    -14.68
     -8.68     -0.22    -14.20
     -9.16     -0.22    -13.73
     -9.16     -0.22    -13.73
     -9.16     -0.70    -13.25
     -9.64     -0.22    -12.77
     -9.64     -0.22    -12.77
     -9.64     -0.22    -12.30
    -10.12     -0.22    -12.30
    -10.12     -0.22    -11.82
    -10.12     -0.22    -11.34
    -10.60     -0.22    -11.34
    -10.60     -0.22    -10.87
    -11.08     -0.22    -10.39
    -11.08     -0.22     -9.91
    -11.08     -0.22     -9.44
    -11.08     -0.22     -8.96
    -11.08     -0.22     -8.96
    -11.56      0.26     -8.48
    -11.56      0.26     -8.01
    -11.56      0.26     -7.53
    -12.04      0.26     -7.05
    -12.04      0.26     -6.57
    -12.04      0.74     -6.10
    -12.04      0.74     -5.62
    -12.04      0.74     -5.14
    -12.51      0.74     -4.67
    -12.51      1.22     -4.19
    -12.51      1.22     -4.19
    -12.51      1.22     -3.71
    -12.99      1.22     -3.24
    -12.99      1.22     -2.76
    -12.99      1.22     -2.28
    -12.99      1.22     -1.81
    -12.99      1.70     -1.33
    -12.99      1.70     -1.33
    -12.99      1.70     -0.85
    -12.99      1.70     -0.37
    -12.99      1.70      0.10
    -12.99      1.70      0.10
    -13.47      1.70      0.58
    -13.47      1.70      0.58
    -13.47      1.70      1.06
    -12.99      1.70      1.53
    -13.47      1.70      1.53
    -12.99      1.70      1.53
    -12.99      1.70      2.01
    -12.99      1.70      2.01
    -12.99      1.70      2.49
    -12.99      1.70      2.49
    -12.99      1.22      2.49
    -12.99      1.22      2.96
    -12.51      1.22      2.96
    -12.51      1.22      3.44
    -12.04      1.22      3.44
    -12.04      1.22      3.44
    -12.04      1.22      3.44
    -11.56      1.70      3.92
    -11.08      1.70      3.92
    -11.08      1.22      3.92
    -10.60      1.70      3.92
    -10.60      1.70      4.40
    -10.12      1.70      4.40
     -9.64      1.70      4.40
     -9.64      1.70      4.40
     -9.16      1.70      4.40
     -9.16      1.70      4.40
     -8.68      1.70      4.40
     -8.21      1.70      4.87
     -8.21      1.70      4.87
     -7.73      1.70      4.87
     -7.25      1.70      4.87
     -7.25      1.70      4.87
     -6.77      1.70      5.35
     -6.29      1.70      5.35
     -5.81      1.70      5.35
     -5.81      1.70      5.35
     -5.33      1.70      5.83
     -4.85      1.70      5.83
     -4.85      1.70      5.83
     -4.37      1.70      6.30
     -3.90      1.70      6.30
     -3.90      1.70      6.30
     -3.42      1.70      6.78
     -3.42      2.18      6.78
     -2.94      1.70      7.26
     -2.94      2.18      7.26
     -2.46      2.18      7.74
     -1.98      2.18      7.74
     -1.98      2.18      8.21
     -1.98      2.18      8.69
     -1.50      2.18      8.69
     -1.50      2.18      9.17
     -1.50      2.18      9.64
     -1.50      2.18      9.64
     -1.02      2.18     10.12
     -1.02      2.18     10.60
     -1.02      2.18     11.08
     -1.02      2.18     11.08
     -0.54      2.18     11.55
     -0.54      2.18     12.03
     -0.54      2.18     12.03
     -0.54      2.18     12.51
     -0.07      2.18     12.98
     -0.07      2.66     13.46
     -0.07      2.66     13.94
      0.41      2.66     14.42
      0.41      2.66     14.42
      0.41      2.66     14.89
      0.41      2.66     15.37
      0.41      2.66     15.37
      0.41      2.66     15.85
      0.41      2.66     15.85
      0.41      3.14     15.85
      0.41      3.14     16.32
      0.89      3.14     16.80
      0.89      3.14     16.80
      0.89      3.14     17.28
      0.89      3.14     17.28
      0.89      3.14     17.28
      1.37      3.14     17.76
      1.37      3.14     17.76
      1.37      3.14     17.76
      1.85      3.14     17.76
      1.85      3.14     17.76
      1.85      2.66     17.76
      1.85      3.14     18.23
      1.85      3.14     18.23
      1.85      3.14     18.23
      1.85      2.66     18.23
      2.33      2.66     18.23
      2.33      2.66     18.23
      2.33      2.66     18.23
      2.81      2.18     18.23
      2.81      2.18     18.23
      2.81      2.18     17.76
      2.81      2.18     17.76
      3.29      1.70     17.76
      3.29      1.70     17.76
      3.29      1.70     17.76
      3.77      1.70     17.28
      3.77      1.70     17.28
      3.77      1.22     17.28
      4.25      1.22     16.80
      4.25      1.22     16.80
      4.25      0.74     16.32
      4.72      0.74     16.32
      4.72      0.74     15.85
      4.72      0.26     15.85
      5.20      0.26     15.85
      5.20      0.26     15.37
      5.20      0.26     15.37
      5.20     -0.22     14.89
      5.20     -0.22     14.42
      5.68     -0.22     13.94
      5.68     -0.22     13.94
      5.68     -0.22     13.46
      5.68     -0.22     12.98
      5.68     -0.22     12.98
      6.16     -0.22     12.51
      6.16     -0.22     12.03
      6.16     -0.22     12.03
      6.16     -0.22     11.55
      6.64     -0.22     11.08
      6.64     -0.22     11.08
      6.64     -0.22     10.60
      6.64     -0.22     10.12
      6.64     -0.22     10.12
      7.12      0.26      9.64
      7.12      0.26      9.17
      7.12      0.26      9.17
      7.12      0.26      8.69
      7.12      0.26      8.21
      7.12      0.26      7.74
      7.12      0.74      7.74
      7.60      0.74      7.26
      7.60      0.74      6.78
      7.60      0.74      6.30
      7.60      0.74      6.30
      7.60      0.74      5.35
      7.60      0.74      4.87
      7.60      1.22      4.40
      7.60      1.22      4.40
      7.60      1.22      3.92
      8.08      1.22      3.44
      8.08      1.22      2.96
      8.08      1.22      2.96
      8.08      1.22      2.49
      8.08      1.22      2.01
      8.56      0.74      1.53
      8.56      0.74      1.53
      8.56      0.74      1.06
      8.56      0.74      0.58
      9.04      0.74      0.58
      9.04      0.74      0.10
      9.04      0.26     -0.37
      9.04      0.26     -0.37
      9.51      0.26     -0.85
      9.51      0.26     -1.33
      9.51      0.26     -1.33
      9.51      0.26     -1.81
      9.99      0.26     -1.81
      9.99      0.26     -2.28
      9.99      0.26     -2.28
      9.99      0.26     -2.76
      9.99      0.26     -2.76
      9.99      0.26     -3.24
      9.99      0.26     -3.24
     10.47      0.26     -3.24
     10.47      0.26     -3.24
     10.47      0.26     -3.71
     10.47      0.26     -3.71
     10.47      0.26     -3.71
     10.47      0.26     -4.19
      9.99      0.26     -4.19
      9.99      0.26     -4.19
      9.99      0.26     -4.19
      9.99      0.74     -4.19
      9.99      0.26     -4.67
      9.99      0.74     -4.67
      9.99      0.26     -4.67
      9.51      0.74     -4.67
      9.51      0.74     -5.14
      9.51      0.74     -5.14
      9.51      0.74     -5.14
      9.04      0.26     -5.14
      9.04      0.26     -5.14
      9.04      0.26     -5.14
      8.56      0.26     -5.14
      8.08      0.26     -5.14
      8.08      0.26     -5.14
      8.08      0.26     -5.14
      8.08     -0.22     -5.14
      7.60     -0.22     -5.14
      7.60     -0.22     -5.14
      7.12     -0.22     -5.14
      7.12     -0.22     -5.14
      6.64     -0.22     -5.14
      6.64     -0.70     -4.67
      6.16     -0.70     -4.67
      6.16     -0.70     -4.67
      6.16     -0.70     -4.67
      5.68     -0.70     -4.19
      5.20     -1.18     -4.67
      5.20     -1.18     -4.19
      5.20     -1.18     -4.19
      4.72     -1.18     -4.19
      4.72     -1.18     -4.19
      4.25     -1.18     -4.19
      4.25     -1.18     -4.19
      4.25     -1.18     -4.19
      4.25     -1.18     -4.19
      3.77     -1.18     -4.19
      3.77     -1.18     -4.67
      3.77     -1.18     -4.67
      3.77     -1.18     -4.67
      3.29     -1.18     -5.14
      3.29     -1.18     -5.14
      3.29     -1.18     -5.14
      3.29     -1.18     -5.62
      2.81     -1.18     -6.10
      2.81     -1.66     -6.10
      2.33     -1.66     -6.10
      2.33     -1.66     -6.57
      2.33     -1.66     -7.05
      2.33     -1.66     -7.05
      2.33     -1.66     -7.53
      2.33     -1.66     -7.53
      2.33     -1.66     -8.01
      1.85     -1.66     -8.01
      1.85     -1.66     -8.48
      1.85     -1.66     -8.96
      1.85     -1.66     -8.96
      1.85     -2.15     -8.96
