********************************************************************************
           RED INTERUNIVERSITARIA DE INSTRUMENTACION SISIMICA (RIIS)
 AREA DE ESTRUCTURAS, UNIVERSIDAD AUTONOMA METROPOLITANA - UNIDAD AZCAPOTZALCO
         AV. SAN PABLO 180; COL. REYNOSA TAMAULIPAS; MEXICO D.F. 02200.                                                                               
       TELS: 7235859, 7235856; FAX: 7244285; e-mail: esz@hp9000a1.uam.mx
********************************************************************************
ARCHIVO ESTANDAR DE ACELERACION:
VERSION DEL FORMATO                    : 2.0
NOMBRE DEL ARCHIVO                     : RIDI9310.241
FECHA Y HORA DE CREACION               : 24 de octubre 1993 /07:55
REF. CATALOGO ACELEROGRAMAS, SMIS 1996 : REGISTRO No. 29 /PAG. 34


================================================================================
DATOS DE LA ESTACION:
NOMBRE DE LA ESTACION                  : UAM IZTAPALAPA
CLAVE DE LA ESTACION                   : RIDI
LOCALIZACION DE LA ESTACION            : AVENIDA MICHOACAN ESQUINA LA PURISIMA,
                                       : COLONIA VICENTINA, PLANTEL IZTAPALAPA
                                       : FRENTE AL EDIFICIO "O", MEXICO, D.F.
                                       :
                                       :
COORDENADAS DE LA ESTACION             : 19.360 LAT. N 
                                       : 99.060 LONG. W 
ALTITUD (msnm)                         : 2235
TIPO DE SUELO                          : LIMOS Y ARENAS ARCILLOSAS
                                       : 
                                       : 
INSTITUCION RESPONSABLE                : RED INTERUNIVERSITARIA DE
                                       : INSTRUMENTACION SISMICA (RIIS)

================================================================================
DATOS DEL ACELEROGRAFO:
MODELO DEL ACELEROGRAFO                : SSA-2
NUMERO DE SERIE DEL ACELEROGRAFO       : 167
NUMERO DE CANALES                      : 3
ORIENTACION C1-C6 (rumbo;orientacion)  : /N00E/+V/N90E
ORIENTACION C7-C12 (rumbo;orientacion) :
VEL. DE MUESTREO, C1-C6 (muestras/s)   : /200/200/200
VEL. DE MUESTREO, C7-C12 (muestras/s)  :
ESC. COMPLETA DE SENSORES, C1-C6, (g)  : /1.0/1.0/1.0
ESC. COMPLETA DE SENSORES, C7-C12, (g) :
FREC. NAT. DE SENSORES, C1-C6, (Hz)    : /50.0/50.0/50.0
FREC. NAT. DE SENSORES, C7-C12, (Hz)   :
AMORTIGUAMIENTO DE SENSORES, C1-C6     : /0.7/0.7/0.7
AMORTIGUAMIENTO DE SENSORES, C7-C12    :
INTERVALO DE MUESTREO, C1-C6, (s)      : /0.005/0.005/0.005
INTERVALO DE MUESTREO, C7-C12, (s)     :
UMBRAL DE DISPARO, C1-C6, (Gal)        : /2/2/2
UMBRAL DE DISPARO, C7-C12, (Gal)       :
MEMORIA DE PREEVENTO (s)               : 15
TIEMPO DE POSEVENTO (s)                : 60


================================================================================
DATOS DEL SISMO:
FECHA DEL SISMO (GMT)                  : 24/OCT/93
HORA EPICENTRO (GMT)                   : 07:52:18,2
MAGNITUD(ES)                           : /Mb=6.20/Ms=6.60/Mc=6.50
COORDENADAS DEL EPICENTRO              : 16.540 LAT. N 
                                       : 98.980 LONG. W 
PROFUNDIDAD FOCAL (km)                 : 19 
FUENTES DE LOS DATOS EPICENTRALES      : SSN
                                       : INSTITUTO DE GEOFISICA, UNAM

================================================================================
DATOS DE ESTE REGISTRO:
HORA DE LA PRIMERA MUESTRA (GMT)       : 07:54:00.00
EXACTITUD DEL TIEMPO (s)               :     
DURACION DEL REGISTRO (s), C1-C6       : /143.36/143.36/143.36
DURACION DEL REGISTRO (s), C7-C12      :
NUM. TOTAL DE MUESTRAS, C1-C6          : /28672/28672/28672
NUM. TOTAL DE MUESTRAS, C7-C12         :
ACEL. MAX.(Gal), C1-C6                 : /7.89/-2.53/7.35
ACEL. MAX., C1-C6, EN LA MUESTRA       : /5971/4321/5047
ACEL. MAX.(Gal), C7-C12                :
ACEL. MAX., C7-C12, EN LA MUESTRA      :
UNIDADES DE LOS DATOS                  : Gal
FACTOR DE DECIMACION                   : 1
FORMATO DATOS (FORTRAN,10 campos/dato) : 3F10.3


===============================================================================
CALIDAD DEL ACELEROGRAMA:
REGISTRO DIGITAL COMPLETO, CARECE DE TIEMPO ABSOLUTO.


===============================================================================
COMENTARIOS:
CADA UNO DE LOS CANALES SE ENCUENTRA AJUSTADO POR LINEA BASE MEDIANTE LA
SUSTRACCION DEL PROMEDIO DE LAS ACELERACIONES EN EL TIEMPO.











MODELO DEL ACELEROGRAFO : SSA-2 (KINEMETRICS)
===============================================================================
DATOS DE ACELERACION:
---------+---------+---------+---------+---------+---------+---------+---------+
   CANAL-1   CANAL-2   CANAL-3   CANAL-4   CANAL-5   CANAL-6   CANAL-7   CANAL-8
      N00E        +V      N90E
---------+---------+---------+---------+---------+---------+---------+---------+
[...]
      .565     -.075     2.486
     1.053     -.075     1.999
     1.053     -.075     2.486
     1.053     -.075     2.486
     1.053     -.075     2.972
     1.053     -.075     2.972
     1.542     -.075     2.972
     1.542     -.075     2.972
     2.030     -.075     3.458
     2.030     -.075     3.458
     2.030     -.075     3.458
     2.030     -.075     3.458
     2.518     -.075     3.458
     2.518     -.075     3.945
     2.518     -.075     3.945
     3.007     -.075     4.431
     3.007     -.566     3.945
     3.495     -.075     3.945
     3.495     -.566     3.945
     3.495     -.075     4.431
     3.495     -.075     4.431
     3.495     -.566     4.431
     3.984     -.566     4.431
     3.495     -.075     4.917
     3.984     -.566     4.917
     3.984     -.566     4.917
     3.984     -.566     5.404
     3.984     -.566     5.404
     3.984     -.566     5.404
     3.984     -.566     5.404
     4.472     -.566     5.404
     4.472     -.566     5.404
     4.472     -.566     5.404
     4.472     -.566     5.404
     4.961    -1.056     5.404
     4.961    -1.056     5.404
     4.961     -.566     4.917
     4.961    -1.056     5.404
     4.961     -.566     5.404
     4.961     -.566     5.404
     4.961     -.566     5.404
     4.961     -.566     4.917
     4.961     -.566     5.404
     4.961     -.566     4.917
     4.961     -.566     4.917
     4.961     -.566     4.917
     4.961     -.566     4.917
     4.961     -.075     4.917
     4.961     -.075     4.917
     5.449     -.075     4.917
     5.449     -.075     4.917
     5.449     -.075     4.917
     5.938     -.075     4.917
     5.938     -.075     4.917
     5.938     -.075     4.917
     5.938      .415     4.917
     6.426      .415     4.917
     6.426      .415     4.917
     6.915      .415     4.917
     6.915      .415     4.917
     6.915      .415     4.917
     6.915      .415     4.917
     6.915      .415     4.917
     6.915      .415     4.431
     6.915      .905     4.917
     6.915      .415     4.431
     6.915      .415     4.431
     6.915      .415     4.917
     6.915      .415     4.431
     6.915      .415     3.945
     6.915      .415     3.945
     6.426      .415     4.431
     6.426      .415     4.431
     6.426     -.075     3.945
     6.426     -.075     3.945
     5.938     -.075     3.945
     5.938     -.075     3.945
     5.938     -.075     3.945
     5.938     -.075     3.458
     5.938     -.075     3.458
     5.449     -.075     3.458
     5.449     -.075     3.458
     5.449     -.075     2.972
     4.961     -.075     2.972
     4.961     -.075     2.972
     4.961     -.075     2.972
     4.961     -.566     2.972
     4.472     -.075     2.972
     4.472     -.075     2.972
     4.472     -.075     2.972
     4.472     -.566     2.972
     4.472     -.075     2.972
     3.984     -.075     2.972
     4.472     -.566     2.972
     3.984     -.075     2.972
     3.984     -.075     2.486
     3.984     -.075     2.486
     3.495     -.075     2.972
     3.495     -.075     2.486
     3.495     -.075     2.486
     3.495     -.075     2.486
     3.495     -.075     1.999
     3.007     -.075     1.999
     3.007     -.075     1.999
     3.007     -.075     1.999
     3.007     -.566     1.513
     2.518     -.075     1.999
     2.518     -.075     1.513
     2.518     -.075     1.513
     2.518     -.566     1.513
     2.030     -.075     1.027
     2.518     -.566     1.027
     2.518     -.075     1.027
     2.030     -.566     1.027
     2.030     -.566      .540
     2.518     -.566      .540
     2.030     -.566      .540
     2.518     -.566      .054
     2.518     -.566      .054
     2.518     -.566      .054
     2.518     -.566      .054
     2.518     -.566      .054
     2.518     -.566     -.432
     2.518     -.566     -.432
     2.518     -.566     -.919
     2.030     -.566     -.432
     2.518     -.566     -.919
     2.518    -1.056     -.919
     2.518    -1.056     -.919
     2.518     -.566    -1.405
     2.518     -.566    -1.405
     2.518     -.566    -1.405
     2.518     -.566    -1.892
     2.518     -.566    -1.892
     3.007     -.566    -1.892
     2.518     -.566    -1.892
     3.007     -.566    -1.892
     3.007     -.566    -1.892
     3.007     -.566    -2.378
     3.007     -.566    -2.378
     2.518     -.566    -2.864
     2.518     -.566    -2.864
     2.518     -.075    -2.864
     2.518     -.566    -2.864
     2.518     -.075    -3.351
     2.030     -.566    -2.864
     2.030     -.566    -3.351
     2.030     -.566    -3.351
     2.030     -.075    -3.351
     2.030     -.566    -3.351
     1.542     -.566    -3.351
     1.542     -.075    -3.351
     1.053     -.566    -3.351
     1.053     -.566    -3.351
     1.053     -.075    -3.351
     1.053     -.566    -3.351
     1.053     -.566    -3.351
      .565     -.075    -3.351
      .565     -.566    -3.351
      .077     -.075    -3.351
      .077     -.075    -3.351
      .077     -.075    -3.837
     -.411     -.075    -3.351
     -.900     -.075    -3.837
     -.900     -.075    -3.351
     -.900     -.075    -3.351
    -1.388      .415    -3.351
    -1.876      .415    -3.837
    -1.876      .415    -3.837
    -2.365      .415    -4.323
    -2.365      .415    -3.837
    -2.853      .415    -3.837
    -2.853      .415    -3.837
    -3.341      .905    -3.837
    -3.341      .905    -3.837
    -3.341      .905    -3.837
    -3.829      .905    -4.323
    -3.829      .905    -3.837
    -4.318      .905    -4.323
    -4.318     1.395    -4.323
    -4.806      .905    -3.837
    -4.806     1.395    -3.837
    -5.294      .905    -3.837
    -5.294     1.395    -3.837
    -5.294      .905    -3.837
    -5.783     1.395    -3.837
    -5.783     1.395    -3.837
    -5.783     1.395    -3.837
    -5.783     1.395    -3.351
    -6.271     1.395    -3.351
    -6.271      .905    -3.351
    -6.271      .905    -3.351
    -6.271      .905    -3.351
    -6.271      .905    -3.351
    -6.271      .905    -2.864
    -6.271      .905    -2.864
    -6.271      .415    -2.864
    -6.271      .415    -2.864
    -6.759      .415    -2.864
    -6.271      .415    -2.378
    -6.271      .415    -1.892
    -6.759     -.075    -1.892
    -6.271     -.075    -1.892
    -6.759     -.075    -1.892
    -6.271     -.566    -1.892
    -6.759     -.075    -1.405
    -6.759     -.075    -1.405
    -6.759     -.566    -1.405
    -6.759     -.566    -1.405
    -6.271     -.566     -.919
    -6.271     -.566     -.919
    -6.271     -.566     -.919
    -6.271     -.566     -.919
    -6.271    -1.056     -.432
    -5.783    -1.056     -.919
    -5.783     -.566     -.432
    -5.783     -.566     -.432
    -5.783     -.566     -.432
    -5.783    -1.056      .054
    -5.294    -1.056     -.432
    -5.294    -1.056     -.432
    -5.294     -.566      .054
    -5.294     -.566      .054
    -5.294     -.566      .054
    -5.294     -.566      .054
    -5.294     -.566      .054
    -5.783     -.566      .054
    -5.294     -.075      .054
    -5.783     -.075      .054
    -5.294     -.075      .054
    -5.783     -.075     -.432
    -5.783     -.075      .054
    -5.783     -.075      .054
    -5.783     -.075      .054
    -5.783     -.075     -.432
    -5.783      .415      .054
    -5.783     -.075     -.432
    -5.783      .415     -.432
    -5.783      .415     -.432
    -5.783      .415     -.432
    -6.271      .415      .054
    -6.271      .415     -.432
    -5.783      .415     -.432
    -6.271      .905     -.919
    -6.271      .905     -.919
    -6.271      .905     -.919
    -6.271      .905    -1.405
    -6.271      .905    -1.405
    -6.271      .905     -.919
    -6.271      .905    -1.405
    -6.271      .905    -1.405
    -5.783      .905    -1.405
    -5.783      .905    -1.892
    -5.783     1.395    -1.892
    -5.783     1.395    -1.892
    -5.294     1.395    -2.378
    -5.294     1.395    -1.892
    -5.294     1.395    -1.892
    -4.806     1.395    -2.378
    -4.806     1.395    -1.892
    -4.806     1.395    -2.378
    -4.806     1.395    -2.378
    -4.806      .905    -2.378
    -4.318     1.395    -2.378
    -4.318     1.395    -2.378
    -4.318     1.395    -2.378
    -4.318     1.395    -2.378
    -4.318     1.395    -2.378
    -4.318     1.395    -2.378
    -3.829     1.395    -2.378
    -3.829      .905    -1.892
    -4.318     1.395    -1.892
    -3.829      .905    -1.892
    -3.829      .905    -1.892
    -3.829      .905    -1.892
    -3.341      .905    -1.405
    -3.341      .905    -1.892
    -3.341      .905     -.919
    -3.341      .415    -1.405
    -3.341      .415     -.919
    -3.341      .415     -.919
    -2.853      .905     -.432
    -3.341      .415     -.432
    -2.853      .415      .054
    -2.853      .415      .054
    -2.853      .415      .054
    -2.853      .415      .540
    -2.365      .415      .054
    -2.365      .415      .540
    -2.365      .415     1.027
    -2.365      .415     1.027
    -1.876     -.075     1.027
    -1.876      .415     1.513
    -1.388     -.075     1.513
    -1.388      .415     1.999
     -.900     -.075     1.999
     -.900      .415     2.486
     -.900     -.075     2.486
     -.411      .415     2.486
     -.411      .415     2.486
     -.411      .415     2.972
      .077      .415     2.972
      .077      .415     2.972
      .565      .415     2.972
      .565      .415     3.458
     1.053      .415     2.972
     1.053      .905     3.458
     1.053      .415     2.972
     1.542      .415     3.458
     1.542      .905     3.458
     2.030      .905     3.458
     2.030      .905     3.458
     2.030      .905     3.458
     2.518      .415     3.458
     3.007      .415     2.972
     3.007      .415     3.458
     3.007      .905     3.458
     3.495      .905     2.972
     3.495      .415     2.972
     3.984      .905     2.972
     3.984      .905     2.972
     4.472      .905     2.972
     4.472      .905     2.972
     4.961      .905     2.972
     4.961      .905     2.972
     5.449      .905     2.972
     5.449      .905     2.486
     5.449      .905     2.486
     5.449      .905     2.486
     5.938     1.395     2.486
     5.938     1.395     1.999
     6.426     1.395     1.999
     6.426     1.395     1.999
     6.915     1.395     1.999
     6.915     1.395     1.999
     6.915     1.395     1.513
     7.403     1.395     1.513
     7.403     1.395     1.513
     7.403     1.395     1.513
     7.403     1.395     1.513
     7.892     1.395     1.513
     7.892     1.886     1.027
     7.403     1.886     1.027
     7.892     1.395     1.027
     7.892     1.395      .540
     7.403     1.395      .540
     7.403     1.395      .540
     7.403     1.395      .540
     7.403     1.395      .054
     7.403     1.395     -.432
     6.915     1.395     -.432
     7.403     1.395     -.919
     6.915      .905     -.432
     6.915     1.395     -.919
     6.915      .905     -.919
     6.915      .905     -.919
     6.915      .905    -1.405
     6.915      .905    -1.405
     6.915      .905    -1.892
     6.915      .415    -1.405
     6.915      .415    -1.892
     6.915      .415    -1.405
     6.426      .415    -1.405
     6.426      .415    -1.892
     6.426      .415    -1.405
     6.426      .415    -1.892
     5.938     -.075    -1.892
     5.938      .415    -1.405
     5.449     -.075    -1.892
     5.449     -.075    -1.405
     4.961     -.075    -1.405
     4.961     -.075    -1.892
     4.472     -.075    -1.405
     4.472     -.075    -1.892
     4.472     -.075    -1.405
     3.984     -.075    -1.405
     3.984     -.075    -1.405
     3.984     -.075    -1.405
     3.495     -.075    -1.405
     3.495     -.075    -1.405
     3.495     -.075    -1.405
     3.495     -.075    -1.405
     3.007     -.075     -.919
     3.007     -.075    -1.405
     3.007     -.075     -.919
     2.518     -.566     -.919
     2.518     -.075     -.919
     2.518     -.075     -.919
     2.030     -.075     -.919
     2.030     -.566     -.919
     2.030     -.566     -.919
     1.542     -.566     -.432
     1.542     -.566     -.432
     1.542     -.566     -.432
     1.542     -.566     -.919
     1.542     -.566     -.432
     1.542     -.566     -.432
     1.542    -1.056      .054
     1.542    -1.056      .054
     1.053    -1.056      .054
     1.542    -1.056      .054
     1.542    -1.056      .054
     1.053    -1.056      .540
     1.053    -1.056      .540
     1.053    -1.056      .540
     1.053    -1.056      .540
     1.053    -1.056     1.027
      .565    -1.056     1.513
      .565    -1.056     1.513
      .565    -1.546     1.027
      .565    -1.546     1.513
      .565    -1.546     1.513
      .565    -1.546     1.999
      .077    -1.546     1.513
      .565    -1.056     1.513
      .565    -1.546     1.999
      .565    -1.546     1.999
      .565    -1.546     1.999
      .565    -2.036     2.486
      .565    -1.546     2.486
      .565    -1.546     2.486
     1.053    -1.546     2.972
     1.053    -1.546     2.486
     1.053    -1.546     2.972
     1.053    -1.546     2.972
     1.053    -1.546     2.972
      .565    -1.546     2.486
     1.053    -1.546     2.972
     1.053    -2.036     3.458
     1.053    -1.546     2.972
     1.053    -1.056     2.972
      .565    -1.546     2.972
     1.053    -1.546     2.972
     1.053    -1.056     2.972
     1.053    -1.546     2.972
     1.053    -1.056     2.972
     1.053    -1.056     2.972
     1.053    -1.546     2.972
      .565    -1.056     2.972
      .565    -1.056     2.972
      .565    -1.056     2.972
      .565    -1.056     2.486
      .077     -.566     2.486
      .077     -.566     2.486
      .077     -.566     2.486
     -.411     -.566     1.999
     -.411     -.566     1.999
     -.900     -.075     1.999
     -.900     -.075     1.999
     -.900     -.566     1.999
    -1.388     -.075     1.999
    -1.388     -.075     1.513
    -1.388     -.075     1.513
    -1.876      .415     1.513
    -1.876      .415     1.513
    -1.876     -.075     1.027
    -1.876      .415     1.027
    -1.876      .415      .540
    -2.365      .415     1.027
    -2.365      .415      .540
    -2.365      .905      .054
    -2.365      .905      .054
    -2.365      .905      .054
    -2.365      .905      .054
    -2.365      .905      .054
    -2.365      .905     -.432
    -2.365      .905     -.919
    -2.365      .905     -.919
    -2.853      .905     -.919
    -2.853      .905     -.919
    -2.853      .905     -.919
    -2.365      .905    -1.405
    -2.365      .905    -1.892
    -2.365      .905    -1.405
    -2.365      .905    -1.892
    -2.365      .905    -1.892
    -2.365      .905    -1.892
    -2.365      .905    -2.378
    -2.365      .905    -2.378
    -2.365      .905    -2.378
    -2.365      .905    -2.378
    -2.365      .905    -2.864
    -2.365      .905    -2.864
    -2.365      .905    -2.864
    -2.365      .905    -2.864
    -2.853      .905    -2.864
    -2.853      .905    -2.864
