********************************************************************************
           RED INTERUNIVERSITARIA DE INSTRUMENTACION SISIMICA (RIIS)
 AREA DE ESTRUCTURAS, UNIVERSIDAD AUTONOMA METROPOLITANA - UNIDAD AZCAPOTZALCO
         AV. SAN PABLO 180; COL. REYNOSA TAMAULIPAS; MEXICO D.F. 02200.                                                                               
       TELS: 7235859, 7235856; FAX: 7244285; e-mail: esz@hp9000a1.uam.mx
********************************************************************************
ARCHIVO ESTANDAR DE ACELERACION:
VERSION DEL FORMATO                    : 2.0
NOMBRE DEL ARCHIVO                     : RIDI9510.091
FECHA Y HORA DE CREACION               : 9 de octubre 1995 /15:39
REF. CATALOGO ACELEROGRAMAS, SMIS 1996 : REGISTRO No. 1736 /PAG. 178


================================================================================
DATOS DE LA ESTACION:
NOMBRE DE LA ESTACION                  : UAM IZTAPALAPA
CLAVE DE LA ESTACION                   : RIDI
LOCALIZACION DE LA ESTACION            : AVENIDA MICHOACAN ESQUINA LA PURISIMA,
                                       : COLONIA VICENTINA, PLANTEL IZTAPALAPA
                                       : FRENTE AL EDIFICIO "O", MEXICO, D.F.
                                       :
                                       :
COORDENADAS DE LA ESTACION             : 19.360 LAT. N 
                                       : 99.060 LONG. W 
ALTITUD (msnm)                         : 2235
TIPO DE SUELO                          : LIMOS Y ARENAS ARCILLOSAS
                                       : 
                                       : 
INSTITUCION RESPONSABLE                : RED INTERUNIVERSITARIA DE
                                       : INSTRUMENTACION SISMICA (RIIS)

================================================================================
DATOS DEL ACELEROGRAFO:
MODELO DEL ACELEROGRAFO                : SSA-2
NUMERO DE SERIE DEL ACELEROGRAFO       : 1009
NUMERO DE CANALES                      : 3
ORIENTACION C1-C6 (rumbo;orientacion)  : /N00E/+V/N90E
ORIENTACION C7-C12 (rumbo;orientacion) :
VEL. DE MUESTREO, C1-C6 (muestras/s)   : /200/200/200
VEL. DE MUESTREO, C7-C12 (muestras/s)  :
ESC. COMPLETA DE SENSORES, C1-C6, (g)  : /1.0/1.0/1.0
ESC. COMPLETA DE SENSORES, C7-C12, (g) :
FREC. NAT. DE SENSORES, C1-C6, (Hz)    : /50.0/50.0/50.0
FREC. NAT. DE SENSORES, C7-C12, (Hz)   :
AMORTIGUAMIENTO DE SENSORES, C1-C6     : /0.7/0.7/0.7
AMORTIGUAMIENTO DE SENSORES, C7-C12    :
INTERVALO DE MUESTREO, C1-C6, (s)      : /0.005/0.005/0.005
INTERVALO DE MUESTREO, C7-C12, (s)     :
UMBRAL DE DISPARO, C1-C6, (Gal)        : /3/3/3
UMBRAL DE DISPARO, C7-C12, (Gal)       :
MEMORIA DE PREEVENTO (s)               : 15
TIEMPO DE POSEVENTO (s)                : 60


================================================================================
DATOS DEL SISMO:
FECHA DEL SISMO (GMT)                  : 09/OCT/95
HORA EPICENTRO (GMT)                   : 15:35:51,0
MAGNITUD(ES)                           : /Mb=6.50/Ms=7.30/Mc=7.50
COORDENADAS DEL EPICENTRO              : 18.740 LAT. N 
                                       : 104.670 LONG. W
PROFUNDIDAD FOCAL (km)                 : 5  
FUENTES DE LOS DATOS EPICENTRALES      : SSN
                                       : INSTITUTO DE GEOFISICA, UNAM

================================================================================
DATOS DE ESTE REGISTRO:
HORA DE LA PRIMERA MUESTRA (GMT)       : 15:39:00.00
EXACTITUD DEL TIEMPO (s)               : 
DURACION DEL REGISTRO (s), C1-C6       : /181.76/181.76/181.76
DURACION DEL REGISTRO (s), C7-C12      :
NUM. TOTAL DE MUESTRAS, C1-C6          : /36352/36352/36352
NUM. TOTAL DE MUESTRAS, C7-C12         :
ACEL. MAX.(Gal), C1-C6                 : /-10.32/2.27/-7.88
ACEL. MAX., C1-C6, EN LA MUESTRA       : /10654/7612/3561
ACEL. MAX.(Gal), C7-C12                :
ACEL. MAX., C7-C12, EN LA MUESTRA      :
UNIDADES DE LOS DATOS                  : Gal 
FACTOR DE DECIMACION                   : 1
FORMATO DATOS (FORTRAN,10 campos/dato) : 3F10.3


===============================================================================
CALIDAD DEL ACELEROGRAMA:
REGISTRO DIGITAL COMPLETO, CARECE DE TIEMPO ABSOLUTO.


===============================================================================
COMENTARIOS:
CADA UNO DE LOS CANALES SE ENCUENTRA AJUSTADO POR LINEA BASE MEDIANTE LA
SUSTRACCION DEL PROMEDIO DE LAS ACELERACIONES EN EL TIEMPO.











MODELO DEL ACELEROGRAFO : SSA-2 (KINEMETRICS)
===============================================================================
DATOS DE ACELERACION:
---------+---------+---------+---------+---------+---------+---------+---------+
   CANAL-1   CANAL-2   CANAL-3   CANAL-4   CANAL-5   CANAL-6   CANAL-7   CANAL-8
      N00E        +V      N90E
---------+---------+---------+---------+---------+---------+---------+---------+
[...]
    -6.412     -.148     4.814
    -6.412     -.148     4.814
    -6.412     -.148     4.814
    -6.412     -.148     5.302
    -6.412     -.148     5.302
    -6.412     -.148     5.302
    -6.412     -.148     5.302
    -5.924     -.148     5.302
    -5.924     -.148     5.302
    -5.436     -.148     5.302
    -5.436     -.148     5.302
    -5.436     -.148     4.814
    -5.436     -.148     4.814
    -5.436     -.148     4.814
    -5.436     -.148     4.814
    -5.436      .336     4.814
    -5.436      .336     5.302
    -4.948      .336     4.814
    -4.948      .336     5.302
    -4.948      .336     5.302
    -4.948      .336     5.302
    -4.948      .336     5.302
    -4.948      .336     5.302
    -4.948      .336     5.302
    -4.460      .336     5.302
    -4.460      .336     5.302
    -4.460      .336     5.302
    -3.972      .336     4.814
    -3.972      .336     4.814
    -3.484      .336     4.814
    -3.484      .821     4.814
    -3.484      .821     4.814
    -3.484      .821     4.814
    -3.484      .821     4.814
    -2.996      .821     4.814
    -2.996      .821     4.326
    -2.996     1.305     4.326
    -2.996     1.305     4.326
    -2.996     1.305     4.326
    -2.996     1.305     4.326
    -2.508     1.305     4.326
    -2.508     1.305     4.326
    -2.508     1.305     4.326
    -2.508     1.305     4.326
    -2.020     1.305     4.326
    -2.020     1.305     4.326
    -1.531     1.305     3.837
    -1.531     1.305     3.837
    -1.531     1.305     3.837
    -1.043     1.305     3.837
    -1.043     1.305     3.837
    -1.043     1.305     3.349
    -1.043     1.305     3.349
     -.555     1.305     3.349
     -.555     1.305     2.861
     -.555     1.305     2.861
     -.067     1.305     2.861
     -.067     1.305     2.861
     -.067     1.305     2.861
     -.067     1.305     2.861
     -.067     1.305     2.861
     -.067     1.305     2.373
      .421     1.305     2.373
      .421     1.305     2.373
      .421     1.305     1.885
      .909     1.305     1.885
      .909     1.305     1.885
      .909     1.305     1.885
     1.397     1.305     1.885
     1.397     1.305     1.397
     1.397     1.305     1.397
     1.886     1.305      .909
     1.886     1.305      .909
     1.886     1.305      .909
     1.886     1.305      .421
     1.886     1.305      .421
     2.374     1.305     -.067
     1.886     1.305     -.067
     2.374     1.305     -.067
     2.374     1.305     -.067
     2.374     1.305     -.067
     2.374     1.305     -.555
     2.862      .821     -.555
     2.862      .821     -.555
     2.862      .821    -1.043
     2.862      .821    -1.043
     3.351      .821    -1.043
     3.351      .821    -1.531
     3.351      .821    -1.531
     3.351      .821    -1.531
     3.839      .821    -2.020
     3.839      .821    -2.020
     3.839      .821    -2.020
     3.839      .821    -2.508
     4.327      .821    -2.508
     4.327      .821    -2.508
     4.327      .821    -2.508
     4.327      .821    -2.996
     4.327      .821    -2.996
     4.327      .821    -2.996
     4.816      .821    -2.996
     4.816      .821    -3.484
     4.816      .821    -3.484
     4.816      .336    -3.484
     5.304      .336    -3.972
     5.304      .336    -3.972
     5.304      .336    -3.972
     5.792      .336    -3.972
     5.792      .336    -4.460
     6.281      .336    -4.460
     6.281      .336    -4.460
     6.281      .821    -4.948
     6.281      .821    -4.948
     6.281      .821    -4.948
     6.281      .821    -4.948
     6.281      .821    -4.948
     6.281      .821    -5.436
     6.281      .336    -5.436
     6.769      .336    -5.436
     6.769      .336    -5.436
     6.769      .336    -5.924
     6.769      .336    -5.924
     6.769      .336    -5.924
     6.769      .336    -5.924
     7.257      .336    -5.924
     7.257      .336    -6.412
     7.257      .336    -6.412
     7.746      .336    -6.412
     7.746      .821    -6.412
     8.234      .821    -6.412
     8.234      .821    -6.900
     8.234      .821    -6.900
     8.234      .821    -6.900
     8.234      .821    -6.900
     8.234      .821    -6.900
     8.234      .821    -6.900
     8.234      .821    -6.900
     8.234      .821    -7.388
     8.234      .821    -7.388
     8.234     1.305    -7.388
     8.234      .821    -7.388
     8.234     1.305    -7.388
     8.234      .821    -7.388
     8.234      .821    -7.388
     8.234      .821    -7.388
     8.234      .821    -7.388
     8.722      .821    -7.388
     8.722     1.305    -7.388
     8.722     1.305    -7.877
     8.722     1.305    -7.877
     9.211     1.305    -7.877
     8.722     1.305    -7.877
     8.722     1.305    -7.877
     8.722     1.305    -7.877
     8.722     1.305    -7.877
     8.722     1.305    -7.877
     8.722     1.305    -7.877
     8.722     1.305    -7.877
     8.722     1.305    -7.877
     8.722     1.305    -7.388
     8.722     1.305    -7.388
     8.722     1.305    -7.388
     8.722     1.305    -7.388
     8.234     1.305    -7.388
     8.234     1.305    -7.388
     8.234     1.305    -7.388
     8.722     1.305    -7.388
     8.722     1.305    -7.388
     8.722     1.305    -7.388
     8.722     1.305    -7.388
     8.722     1.305    -6.900
     8.722     1.305    -6.900
     8.722     1.305    -6.900
     8.234     1.305    -6.900
     8.234     1.305    -6.900
     8.234     1.305    -6.900
     8.234     1.305    -6.900
     8.234     1.305    -6.412
     8.234     1.305    -6.412
     8.234     1.305    -6.412
     7.746     1.305    -5.924
     7.746     1.305    -5.924
     7.746     1.305    -5.924
     7.746     1.305    -5.924
     7.746     1.305    -5.924
     7.746      .821    -5.924
     7.746      .821    -5.436
     7.746      .821    -5.436
     7.746      .821    -5.436
     7.746      .821    -5.436
     7.746      .821    -4.948
     7.257      .821    -4.948
     7.257      .821    -4.948
     7.257      .821    -4.948
     7.257      .821    -4.460
     7.257      .821    -4.460
     7.257      .821    -4.460
     6.769      .821    -4.460
     6.769      .821    -3.972
     6.769      .821    -3.972
     6.769      .821    -3.972
     6.281      .821    -3.484
     6.281      .336    -3.484
     6.281      .336    -3.484
     6.281      .336    -2.996
     6.281      .336    -2.996
     6.281      .336    -2.996
     6.281      .336    -2.996
     5.792      .336    -2.996
     5.792      .336    -2.508
     5.792      .336    -2.508
     5.792      .336    -2.508
     5.792      .336    -2.020
     5.792      .336    -2.020
     5.792      .336    -2.020
     5.792      .336    -2.020
     5.304      .336    -1.531
     5.304      .336    -1.531
     5.304      .336    -1.043
     4.816      .336    -1.043
     4.816      .336    -1.043
     4.816     -.148    -1.043
     4.816     -.148     -.555
     4.327     -.148     -.555
     4.327     -.148     -.555
     4.327     -.148     -.555
     4.327     -.148     -.067
     3.839     -.148     -.067
     3.839     -.148     -.067
     3.839     -.148     -.067
     3.839     -.148     -.067
     3.351     -.148      .421
     3.351     -.148      .421
     3.351     -.148      .421
     3.351     -.148      .421
     2.862     -.148      .909
     2.862     -.148      .909
     2.862     -.148      .909
     2.374     -.632     1.397
     2.374     -.632     1.397
     1.886     -.632     1.397
     1.886     -.632     1.885
     1.886     -.632     1.885
     1.886     -.632     1.885
     1.886     -.632     1.885
     1.886     -.632     1.885
     1.397     -.632     2.373
     1.397     -.632     2.373
     1.397     -.632     2.373
      .909     -.632     2.373
      .909     -.632     2.373
      .909     -.632     2.861
      .909     -.632     2.861
      .909     -.632     2.861
      .421     -.632     2.861
      .421     -.632     3.349
     -.067     -.632     3.349
     -.067     -.632     3.349
     -.555     -.632     3.837
     -.555     -.632     3.837
     -.555     -.632     3.837
    -1.043     -.632     3.837
    -1.043     -.632     4.326
    -1.043     -.632     4.326
    -1.043     -.632     4.326
    -1.531    -1.117     4.326
    -1.531     -.632     4.814
    -1.531    -1.117     4.814
    -1.531     -.632     4.814
    -1.531    -1.117     4.814
    -2.020     -.632     4.814
    -2.020     -.632     4.814
    -2.508     -.632     4.814
    -2.508     -.632     5.302
    -2.996     -.632     5.302
    -2.996     -.632     5.302
    -3.484     -.632     5.302
    -3.484     -.632     5.790
    -3.484     -.632     5.790
    -3.972     -.632     5.790
    -3.972     -.632     5.790
    -3.972     -.632     5.790
    -4.460     -.632     6.278
    -4.460    -1.117     6.278
    -4.948    -1.117     6.278
    -4.948    -1.117     6.278
    -4.948    -1.117     6.278
    -4.948    -1.117     6.278
    -4.948    -1.117     6.278
    -4.948     -.632     6.278
    -5.436     -.632     6.766
    -5.436     -.632     6.766
    -5.924     -.632     6.766
    -5.924     -.632     6.766
    -6.412     -.632     6.766
    -6.412     -.632     6.766
    -6.900     -.632     6.766
    -6.900     -.632     6.766
    -6.900     -.632     6.766
    -7.388     -.632     7.254
    -7.388     -.632     7.254
    -7.388     -.632     7.254
    -7.388    -1.117     7.254
    -7.877    -1.117     7.254
    -7.877    -1.117     7.254
    -7.877    -1.117     7.254
    -7.877    -1.117     7.254
    -7.877    -1.117     7.254
    -7.877    -1.117     7.254
    -8.365     -.632     7.254
    -8.365     -.632     7.254
    -8.365     -.632     7.254
    -8.853     -.632     7.254
    -8.853    -1.117     6.766
    -8.853    -1.117     6.766
    -9.341    -1.117     6.766
    -9.341     -.632     6.766
    -9.341     -.632     6.766
    -9.341     -.632     6.766
    -9.829     -.632     6.766
    -9.829    -1.117     6.766
    -9.829    -1.117     6.766
    -9.829    -1.117     6.766
    -9.829    -1.117     6.766
    -9.829    -1.117     6.766
    -9.829    -1.117     6.278
    -9.829    -1.117     6.278
    -9.829    -1.117     6.278
    -9.829    -1.117     6.278
    -9.829    -1.117     5.790
    -9.829    -1.117     5.790
    -9.829    -1.117     5.790
    -9.829    -1.117     5.790
    -9.829    -1.117     5.790
    -9.829    -1.117     5.790
    -9.829    -1.117     5.790
    -9.829    -1.117     5.302
    -9.829    -1.117     5.302
    -9.829    -1.117     5.302
    -9.829    -1.117     5.302
   -10.317    -1.117     5.302
   -10.317    -1.117     5.302
    -9.829    -1.117     5.302
    -9.829    -1.117     4.814
    -9.829    -1.117     4.814
    -9.829    -1.117     4.814
    -9.829    -1.117     4.326
    -9.341    -1.117     4.326
    -9.341    -1.117     4.326
    -9.341    -1.117     4.326
    -9.341    -1.117     3.837
    -9.341    -1.117     3.837
    -9.341    -1.117     3.837
    -9.341    -1.117     3.837
    -9.341    -1.117     3.349
    -9.341    -1.117     3.349
    -9.341    -1.117     3.349
    -9.341    -1.117     3.349
    -9.341    -1.117     3.349
    -9.341    -1.117     2.861
    -9.341    -1.117     2.861
    -9.341    -1.117     2.861
    -8.853    -1.117     2.861
    -8.853    -1.601     2.373
    -8.853    -1.601     2.373
    -8.853    -1.601     2.373
    -8.853    -1.601     1.885
    -8.365    -1.601     1.885
    -8.365    -1.601     1.885
    -8.365    -1.601     1.885
    -8.365    -1.601     1.397
    -8.365    -1.601     1.397
    -7.877    -1.117     1.397
    -7.877    -1.117      .909
    -7.877    -1.117      .909
    -7.877    -1.117      .909
    -7.877    -1.117      .421
    -7.877    -1.117      .421
    -7.877    -1.117      .421
    -7.877    -1.117      .421
    -7.877    -1.601      .421
    -7.388    -1.601     -.067
    -7.388    -1.601     -.067
    -7.388    -1.601     -.067
    -7.388    -1.601     -.555
    -6.900    -1.601     -.555
    -6.900    -1.601     -.555
    -6.900    -1.601    -1.043
    -6.900    -1.601    -1.043
    -6.900    -1.601    -1.043
    -6.412    -1.601    -1.531
    -6.412    -1.117    -1.531
    -6.412    -1.117    -1.531
    -6.412    -1.117    -1.531
    -6.412    -1.117    -2.020
    -6.412    -1.117    -2.020
    -6.412    -1.117    -2.020
    -6.412    -1.117    -2.020
    -6.412    -1.117    -2.020
    -5.924    -1.117    -2.508
    -5.924    -1.117    -2.508
    -5.924    -1.117    -2.508
    -5.924    -1.117    -2.996
    -5.436    -1.117    -2.996
    -5.436    -1.601    -2.996
    -5.436    -1.601    -3.484
    -4.948    -1.601    -3.484
    -4.948    -1.117    -3.484
    -4.948    -1.117    -3.484
    -4.948    -1.117    -3.484
    -4.460    -1.117    -3.972
    -4.460    -1.117    -3.972
    -4.460     -.632    -3.972
    -3.972     -.632    -3.972
    -3.972     -.632    -3.972
    -3.972     -.632    -3.972
    -3.972     -.632    -3.972
    -3.972     -.632    -4.460
    -3.484     -.632    -4.460
    -3.484     -.632    -4.460
    -3.484     -.632    -4.460
    -2.996    -1.117    -4.460
    -2.996     -.632    -4.948
    -2.996     -.632    -4.948
    -2.508     -.632    -4.948
    -2.508     -.632    -4.948
    -2.020     -.632    -4.948
    -2.020     -.632    -5.436
    -2.020     -.632    -5.436
    -1.531     -.148    -5.436
    -1.531     -.148    -5.436
    -1.531     -.148    -5.436
    -1.531     -.148    -5.436
    -1.531     -.148    -5.436
    -1.043     -.148    -5.924
    -1.043     -.148    -5.924
    -1.043     -.148    -5.924
     -.555     -.148    -5.924
     -.555     -.148    -5.924
     -.555     -.148    -5.924
     -.067     -.148    -5.924
     -.067     -.148    -5.924
     -.067     -.148    -5.924
      .421     -.148    -5.924
      .421     -.148    -5.924
      .909      .336    -5.924
      .909      .336    -6.412
     1.397      .336    -6.412
     1.397      .336    -6.412
     1.886      .336    -6.412
     1.886      .336    -6.412
     1.886      .336    -6.412
     1.886      .336    -6.412
     1.886      .336    -6.412
     1.886      .821    -6.412
     1.886      .821    -6.412
     2.374      .336    -6.412
     2.374      .821    -6.412
     2.862      .821    -6.412
     2.862      .821    -6.412
     2.862      .821    -6.412
     2.862      .821    -6.412
     2.862      .821    -6.412
     3.351      .821    -6.412
     3.351      .821    -6.412
     3.839      .821    -6.412
     3.839      .821    -6.412
     3.839      .821    -6.412
     4.327      .821    -6.412
     4.327     1.305    -6.412
     4.327     1.305    -5.924
     4.327     1.305    -5.924
     3.839     1.305    -5.924
     4.327     1.305    -5.924
     4.327     1.305    -5.924
     4.327     1.305    -5.924
     4.327     1.305    -5.924
     4.327     1.305    -5.436
     4.327     1.305    -5.436
     4.327     1.305    -5.436
     4.327     1.305    -5.436
     4.327     1.305    -5.436
     4.327     1.305    -4.948
     4.816     1.305    -4.948
     4.816     1.305    -4.948
     4.816     1.305    -4.948
     4.816     1.305    -4.948
