********************************************************************************
           RED INTERUNIVERSITARIA DE INSTRUMENTACION SISMICA (RIIS)
 AREA DE ESTRUCTURAS, UNIVERSIDAD AUTONOMA METROPOLITANA - UNIDAD AZCAPOTZALCO
         AV. SAN PABLO 180; COL. REYNOSA TAMAULIPAS; MEXICO D.F. 02200.        
       TELS:53189458,53189456; FAX:53189085; e-mail: mrc@hp9000a1.uam.mx
********************************************************************************
ARCHIVO ESTANDAR DE ACELERACION:
VERSION DEL FORMATO                    : 2.0
NOMBRE DEL ARCHIVO                     : RIDI9906.151
FECHA Y HORA DE CREACION               : MAYO 2000
REF. CATALOGO ACELEROGRAMAS, SMIS 1996 :  


================================================================================
DATOS DE LA ESTACION:
NOMBRE DE LA ESTACION                  : UAM IZTAPALAPA
CLAVE DE LA ESTACION                   : RIDI
LOCALIZACION DE LA ESTACION            : AVENIDA MICHOACAN ESQUINA LA PURISIMA,
                                       : COLONIA VICENTINA, PLANTEL IZTAPALAPA
                                       : FRENTE AL EDIFICIO "O", MEXICO, D.F.
                                       :
                                       :
COORDENADAS DE LA ESTACION             : 19.360 LAT. N 
                                       : 99.060 LONG. W 
ALTITUD (msnm)                         : 2235
TIPO DE SUELO                          : LIMOS Y ARENAS ARCILLOSAS
                                       : 
                                       : 
INSTITUCION RESPONSABLE                : RED INTERUNIVERSITARIA DE
                                       : INSTRUMENTACION SISMICA (RIIS)

================================================================================
DATOS DEL ACELEROGRAFO:
MODELO DEL ACELEROGRAFO                : SSA-2
NUMERO DE SERIE DEL ACELEROGRAFO       : 1009
NUMERO DE CANALES                      : 3
ORIENTACION C1-C6 (rumbo;orientacion)  : /N00E/+V/N90E
ORIENTACION C7-C12 (rumbo;orientacion) :
VEL. DE MUESTREO, C1-C6 (muestras/s)   : /200/200/200
VEL. DE MUESTREO, C7-C12 (muestras/s)  :
ESC. COMPLETA DE SENSORES, C1-C6, (g)  : /1.0/1.0/1.0
ESC. COMPLETA DE SENSORES, C7-C12, (g) :
FREC. NAT. DE SENSORES, C1-C6, (Hz)    : /50.0/50.3/50.7
FREC. NAT. DE SENSORES, C7-C12, (Hz)   :
AMORTIGUAMIENTO DE SENSORES, C1-C6     : /0.66/0.67/0.66
AMORTIGUAMIENTO DE SENSORES, C7-C12    :
INTERVALO DE MUESTREO, C1-C6, (s)      : /0.005/0.005/0.005
INTERVALO DE MUESTREO, C7-C12, (s)     :
UMBRAL DE DISPARO, C1-C6, (Gal)        : /3/3/3
UMBRAL DE DISPARO, C7-C12, (Gal)       :
MEMORIA DE PREEVENTO (s)               : 15.4
TIEMPO DE POSEVENTO (s)                : 60.0


================================================================================
DATOS DEL SISMO:
FECHA DEL SISMO (GMT)                  : 15/JUN/99
HORA EPICENTRO (GMT)                   : 20:42:07.1
MAGNITUD(ES)                           : /Mb=6.4/Ms=6.5/Ma=6.3/Me=7.0
COORDENADAS DEL EPICENTRO              : 18.18 LAT. N 
                                       : 97.51 LONG. W 
PROFUNDIDAD FOCAL (km)                 : 69
FUENTES DE LOS DATOS EPICENTRALES      : SSN
                                       : INSTITUTO DE GEOFISICA, UNAM

================================================================================
DATOS DE ESTE REGISTRO:
HORA DE LA PRIMERA MUESTRA (GMT)       : 20:42:10
EXACTITUD DEL TIEMPO (s)               : 
DURACION DEL REGISTRO (s), C1-C6       : /100.12/100.12/100.12
DURACION DEL REGISTRO (s), C7-C12      :
NUM. TOTAL DE MUESTRAS, C1-C6          : /20024/20024/20024
NUM. TOTAL DE MUESTRAS, C7-C12         :
ACEL. MAX.(Gal), C1-C6                 : /-23.12/7.22/-25.66
ACEL. MAX., C1-C6, EN LA MUESTRA       : /5967/6387/5962
ACEL. MAX.(Gal), C7-C12                :
ACEL. MAX., C7-C12, EN LA MUESTRA      :
UNIDADES DE LOS DATOS                  : Gal
FACTOR DE DECIMACION                   : 1
FORMATO DATOS (FORTRAN,10 campos/dato) : 3F10.3


===============================================================================
CALIDAD DEL ACELEROGRAMA:
REGISTRO DIGITAL COMPLETO, CARECE DE TIEMPO ABSOLUTO 


===============================================================================
COMENTARIOS:
CADA UNO DE LOS CANALES SE ENCUENTRA AJUSTADO POR LINEA BASE MEDIANTE LA
SUSTRACCION DEL PROMEDIO DE LAS ACELERACIONES EN EL TIEMPO.











MODELO DEL ACELEROGRAFO : SSA-2 (KINEMETRICS)
===============================================================================
DATOS DE ACELERACION:
---------+---------+---------+---------+---------+---------+---------+---------+
   CANAL-1   CANAL-2   CANAL-3   CANAL-4   CANAL-5   CANAL-6   CANAL-7   CANAL-8
      N00E        +V      N90E
---------+---------+---------+---------+---------+---------+---------+---------+
[...]
     -2.05      0.01    -14.69
     -2.53     -0.47    -14.22
     -2.53     -0.47    -13.74
     -3.01     -0.95    -13.26
     -3.49     -1.43    -13.26
     -3.96     -1.91    -12.31
     -4.44     -1.91    -12.31
     -4.92     -2.39    -11.83
     -5.40     -2.39    -11.35
     -5.88     -2.87    -10.88
     -6.36     -2.87    -10.40
     -6.84     -2.87     -9.92
     -7.80     -3.35     -9.45
     -8.28     -3.35     -9.45
     -8.75     -3.35     -8.97
     -9.71     -3.35     -8.49
    -10.19     -3.35     -8.02
    -10.67     -3.35     -7.54
    -11.15     -3.35     -7.54
    -12.11     -3.83     -6.58
    -12.59     -3.35     -6.58
    -12.59     -3.83     -6.11
    -13.07     -3.83     -6.11
    -13.54     -3.83     -5.63
    -14.02     -3.83     -5.15
    -14.02     -3.83     -5.15
    -14.50     -3.83     -4.68
    -14.50     -3.83     -4.68
    -14.98     -3.83     -4.20
    -14.98     -4.31     -4.20
    -14.98     -4.31     -3.72
    -14.98     -4.31     -3.72
    -14.98     -4.31     -3.25
    -14.98     -4.31     -3.25
    -14.98     -4.80     -3.25
    -14.50     -4.80     -2.77
    -14.50     -4.80     -2.77
    -14.02     -4.80     -2.77
    -13.54     -4.80     -2.77
    -13.54     -4.80     -2.77
    -13.07     -4.31     -2.77
    -12.59     -4.31     -3.25
    -12.11     -4.31     -3.25
    -11.63     -3.83     -3.25
    -11.15     -3.83     -3.72
    -10.67     -3.35     -3.72
    -10.19     -2.87     -3.72
     -9.71     -2.87     -3.72
     -9.23     -2.39     -4.20
     -8.75     -1.91     -4.68
     -8.28     -1.91     -4.68
     -7.80     -1.43     -4.68
     -7.32     -0.95     -5.15
     -6.84     -0.47     -5.63
     -6.36     -0.47     -5.63
     -5.88      0.01     -6.11
     -5.40      0.49     -6.11
     -5.40      0.49     -6.58
     -4.92      0.97     -6.58
     -4.44      0.97     -6.58
     -3.96      1.93     -6.58
     -3.96      2.42     -6.11
     -3.01      2.90     -6.11
     -3.01      2.90     -6.11
     -2.53      3.38     -5.63
     -2.53      3.86     -5.15
     -2.05      3.86     -5.15
     -2.05      4.34     -4.68
     -1.57      4.34     -4.68
     -1.57      4.82     -4.20
     -1.09      4.82     -3.72
     -1.09      4.82     -3.25
     -1.09      4.82     -2.77
     -1.09      5.30     -2.29
     -1.09      5.30     -1.81
     -1.09      5.30     -1.34
     -1.09      5.30     -0.86
     -1.09      5.78     -0.38
     -1.57      5.78      0.09
     -1.57      5.78      0.09
     -1.57      5.78      0.57
     -2.05      6.26      1.05
     -2.05      6.26      1.53
     -2.53      6.26      2.00
     -2.53      6.26      2.00
     -3.01      6.26      2.00
     -3.01      6.26      2.48
     -3.01      6.26      2.48
     -3.49      6.26      2.96
     -3.49      6.26      2.96
     -3.49      6.26      2.96
     -3.49      6.26      3.43
     -3.49      6.26      2.96
     -3.49      5.78      3.43
     -3.49      6.26      3.43
     -3.49      5.78      3.43
     -3.49      5.78      3.43
     -3.96      5.78      3.43
     -3.96      5.78      3.43
     -3.96      5.78      3.43
     -3.96      5.78      3.43
     -4.44      5.78      2.96
     -4.44      5.30      2.96
     -4.44      5.30      3.43
     -4.44      4.82      3.43
     -4.92      4.34      3.43
     -4.92      3.86      3.43
     -4.92      3.86      3.43
     -4.44      3.38      3.43
     -4.44      2.90      2.96
     -3.96      2.42      2.96
     -3.96      1.93      2.96
     -3.49      1.45      2.96
     -3.01      0.97      2.96
     -3.01      0.49      2.96
     -2.53      0.49      2.96
     -2.53      0.01      2.96
     -2.05      0.01      2.96
     -1.57      0.01      2.96
     -1.09     -0.47      2.96
     -1.09      0.01      2.96
     -0.61      0.01      3.43
     -0.13      0.01      3.43
      0.35      0.01      3.91
      0.83      0.49      3.91
      1.31      0.49      4.39
      1.78      0.97      4.39
      2.26      0.97      4.87
      2.74      1.45      4.87
      3.22      1.45      5.34
      3.70      1.93      5.82
      4.18      1.93      6.30
      4.18      2.42      6.77
      4.66      2.42      7.25
      5.14      2.90      7.73
      5.62      2.90      8.21
      6.10      2.90      8.68
      6.57      2.90      9.16
      6.57      2.90      9.64
      7.05      2.90     10.11
      7.53      2.42     10.59
      7.53      2.42     10.59
      7.53      1.93     11.07
      8.01      1.93     11.55
      8.01      1.45     11.55
      8.01      1.45     12.02
      8.01      0.97     12.02
      8.01      0.49     12.50
      8.01      0.01     12.98
      8.01     -0.47     12.98
      8.01     -0.47     13.45
      8.01     -0.95     13.93
      8.49     -1.43     14.41
      8.49     -1.91     14.89
      8.49     -2.39     15.36
      8.49     -2.87     15.84
      8.49     -3.35     16.32
      8.97     -3.35     16.79
      8.97     -3.83     17.27
      9.45     -4.31     17.75
      9.45     -4.31     18.23
      9.93     -4.31     18.70
      9.93     -4.31     19.18
     10.41     -4.31     19.66
     10.41     -4.31     20.13
     10.41     -4.31     20.61
     10.89     -4.31     21.09
     10.89     -3.83     21.09
     10.89     -3.83     21.57
     11.37     -3.35     22.04
     11.37     -3.35     22.04
     11.37     -3.35     22.04
     11.84     -2.87     22.04
     11.84     -2.87     22.04
     11.84     -2.87     22.04
     11.84     -2.87     22.04
     12.32     -2.39     21.57
     12.32     -2.39     21.57
     12.32     -2.39     21.57
     12.80     -2.39     21.09
     12.80     -2.39     21.09
     12.80     -2.39     21.09
     13.28     -2.39     21.09
     13.28     -1.91     20.61
     13.76     -2.39     20.61
     13.76     -2.39     20.13
     14.24     -2.39     20.13
     14.24     -2.87     19.66
     14.24     -2.87     19.18
     14.24     -2.87     19.18
     14.24     -2.87     18.70
     14.24     -2.87     17.75
     13.76     -2.87     17.27
     13.76     -2.39     16.79
     13.28     -2.39     16.32
     12.80     -2.39     15.84
     12.80     -2.39     15.36
     12.32     -2.39     14.89
     11.84     -2.39     14.41
     11.37     -2.39     13.93
     10.89     -2.39     13.45
     10.41     -2.39     12.98
     10.41     -2.39     12.50
      9.93     -2.39     12.50
      9.45     -2.39     12.02
      8.97     -2.39     11.55
      8.49     -1.91     11.07
      8.49     -1.91     10.59
      8.01     -1.91     10.11
      7.53     -1.43     10.11
      7.05     -0.95      9.64
      6.57     -0.47      9.64
      6.57     -0.47      9.16
      6.10      0.01      9.16
      5.62      0.49      9.16
      5.14      0.97      9.16
      5.14      0.97      8.68
      4.66      1.45      8.68
      4.66      1.45      8.68
      4.18      1.93      8.68
      3.70      1.93      8.68
      3.70      1.93      8.21
      3.22      2.42      8.21
      3.22      2.42      8.21
      2.74      2.42      7.73
      2.74      2.42      7.73
      2.26      2.42      7.73
      2.26      1.93      7.73
      1.78      1.93      7.73
      1.31      1.93      7.73
      1.31      1.45      7.73
      1.31      0.97      7.73
      0.83      0.97      7.73
      0.83      0.49      7.25
      0.83      0.01      7.25
      0.35     -0.47      7.25
      0.35     -0.95      7.25
      0.35     -1.43      6.77
      0.35     -1.91      6.77
      0.35     -2.39      6.77
      0.35     -2.87      6.30
      0.35     -3.35      6.30
      0.35     -3.83      6.30
      0.35     -3.83      5.82
      0.35     -4.31      5.82
      0.35     -4.80      5.34
      0.35     -4.80      5.34
      0.35     -5.28      4.87
      0.35     -5.76      4.87
      0.35     -5.76      4.39
      0.35     -5.76      4.39
      0.35     -6.24      3.91
     -0.13     -6.24      3.91
     -0.13     -6.24      3.43
     -0.13     -6.24      3.43
     -0.13     -6.24      2.96
     -0.13     -6.24      2.96
     -0.61     -5.76      2.48
     -0.61     -5.76      2.48
     -0.61     -5.28      2.48
     -0.13     -5.28      2.48
     -0.13     -4.80      2.00
     -0.13     -4.31      2.00
     -0.13     -3.83      1.53
     -0.13     -3.35      1.53
     -0.61     -2.87      1.05
     -0.61     -2.39      1.05
     -0.61     -1.91      0.57
     -0.61     -1.91      0.09
     -0.61     -1.43     -0.38
     -0.61     -0.95     -0.86
     -0.61     -0.47     -1.34
     -0.61      0.01     -1.81
     -0.61      0.01     -1.81
     -0.13      0.49     -2.77
     -0.13      0.49     -2.77
     -0.13      0.97     -3.25
     -0.13      0.97     -3.72
     -0.13      0.97     -4.20
     -0.13      0.97     -4.68
     -0.13      0.97     -5.15
     -0.13      0.49     -5.63
     -0.13      0.49     -5.63
     -0.13      0.01     -6.11
     -0.13      0.01     -6.58
     -0.13     -0.47     -7.06
     -0.13     -0.95     -7.54
     -0.13     -0.95     -8.49
     -0.13     -1.43     -8.97
     -0.13     -1.91     -9.45
     -0.13     -1.91    -10.40
     -0.13     -2.39    -10.88
     -0.61     -2.39    -11.83
     -0.61     -2.87    -12.31
     -0.61     -2.87    -13.26
     -0.61     -3.35    -13.74
     -1.09     -3.35    -14.22
     -1.09     -3.35    -15.17
     -1.09     -3.35    -15.65
     -1.57     -3.35    -16.12
     -1.57     -3.35    -16.60
     -2.05     -3.35    -17.08
     -2.05     -2.87    -17.08
     -2.05     -2.87    -17.55
     -2.53     -2.39    -18.03
     -2.53     -1.91    -18.51
     -3.01     -1.91    -18.51
     -3.01     -1.43    -18.98
     -3.01     -0.95    -18.98
     -3.49     -0.47    -19.46
     -3.49      0.01    -19.46
     -3.49      0.49    -19.94
     -3.96      0.49    -20.41
     -3.96      0.97    -20.41
     -4.44      1.45    -20.89
     -4.92      1.93    -20.89
     -4.92      1.93    -20.89
     -5.40      2.42    -21.37
     -5.40      2.90    -21.37
     -5.88      2.90    -21.85
     -6.36      3.38    -21.85
     -6.84      3.86    -21.85
     -7.80      3.86    -22.32
     -8.28      3.86    -22.32
     -8.75      3.86    -22.80
     -9.71      4.34    -22.80
    -10.19      4.34    -23.28
    -11.15      4.34    -23.28
    -12.11      4.34    -23.28
    -12.59      4.34    -23.28
    -13.54      4.82    -23.28
    -14.50      4.82    -23.28
    -14.98      4.82    -23.75
    -15.46      4.34    -23.75
    -16.42      4.34    -23.75
    -16.90      4.34    -23.75
    -17.37      4.34    -24.23
    -17.85      3.86    -24.23
    -18.33      3.86    -24.71
    -19.29      3.38    -24.71
    -19.77      2.90    -25.18
    -20.25      2.90    -25.18
    -20.73      2.42    -25.66
    -21.21      1.93    -25.66
    -21.68      1.93    -25.66
    -22.16      1.45    -25.66
    -22.64      0.97    -25.66
    -23.12      0.49    -25.66
    -23.12      0.49    -25.18
    -23.12      0.01    -25.18
    -23.12      0.01    -25.18
    -23.12     -0.47    -24.71
    -22.64     -0.47    -24.71
    -22.16     -0.95    -24.71
    -22.16     -1.43    -24.23
    -21.21     -1.43    -23.75
    -20.73     -1.91    -23.75
    -20.25     -1.91    -23.28
    -19.29     -2.39    -22.80
    -18.33     -2.39    -22.32
    -17.37     -2.39    -21.85
    -16.42     -2.39    -20.89
    -15.46     -2.39    -20.41
    -14.50     -2.39    -19.94
    -13.54     -2.39    -18.98
    -12.59     -2.39    -18.51
    -11.63     -2.39    -18.03
    -10.67     -2.87    -17.08
     -9.71     -2.87    -16.60
     -8.75     -2.87    -16.12
     -7.80     -2.87    -15.65
     -6.84     -3.35    -15.17
     -5.88     -3.35    -14.69
     -5.40     -3.35    -14.22
     -4.44     -3.35    -13.74
     -3.96     -3.83    -13.26
     -3.01     -3.83    -12.78
     -2.53     -3.83    -12.31
     -2.05     -3.83    -11.83
     -1.57     -3.83    -11.35
     -1.09     -3.83    -11.35
     -0.61     -3.83    -10.88
     -0.61     -3.83    -10.88
     -0.13     -3.83    -10.40
     -0.13     -3.83    -10.40
      0.35     -3.83    -10.40
      0.35     -3.83    -10.40
      0.35     -3.83    -10.40
      0.35     -3.83    -10.40
      0.83     -3.35    -10.40
      0.83     -3.35     -9.92
      0.83     -2.87     -9.92
      0.83     -2.87     -9.92
      0.83     -2.39     -9.92
      0.83     -2.39     -9.45
      0.83     -1.91     -9.45
      0.83     -1.91     -8.97
      1.31     -1.43     -8.49
      1.31     -1.43     -8.02
      1.78     -0.95     -8.02
      1.78     -0.95     -7.54
      1.78     -0.47     -7.54
      1.78     -0.47     -7.06
      1.78     -0.47     -7.06
      1.78     -0.47     -6.58
      1.78      0.01     -6.58
      1.31      0.01     -6.58
      1.31      0.01     -6.58
      1.31      0.01     -6.58
      0.83      0.01     -6.58
      0.83      0.01     -6.58
      0.83     -0.47     -6.58
      0.35     -0.47     -7.06
      0.35     -0.47     -7.06
     -0.13     -0.95     -7.06
     -0.13     -0.95     -7.54
     -0.13     -0.95     -7.54
     -0.13     -1.43     -8.02
      0.35     -1.43     -8.02
      0.35     -1.43     -8.02
      0.35     -1.43     -8.49
      0.35     -1.43     -8.49
      0.35     -1.43     -8.49
      0.35     -1.43     -8.49
      0.35     -1.43     -8.49
      0.35     -0.95     -8.49
      0.35     -0.95     -8.49
      0.35     -0.47     -8.97
      0.35     -0.47     -8.49
      0.35      0.01     -8.49
      0.35      0.49     -8.49
      0.35      0.49     -8.02
     -0.13      0.97     -8.02
     -0.13      1.45     -8.02
     -0.13      1.93     -7.54
     -0.13      2.42     -7.54
     -0.61      2.90     -7.06
     -0.61      2.90     -6.58
     -0.13      3.38     -6.11
     -0.13      3.86     -5.63
     -0.13      4.34     -5.15
     -0.61      4.34     -4.20
     -0.61      4.82     -3.72
     -0.13      4.82     -2.77
     -0.13      5.30     -2.29
     -0.13      5.30     -1.34
     -0.13      5.30     -0.86
     -0.13      5.30      0.09
     -0.13      4.82      1.05
     -0.13      4.82      1.53
     -0.13      4.82      2.48
     -0.13      4.34      2.96
     -0.61      3.86      3.91
     -0.61      3.86      4.39
     -0.13      3.38      5.34
     -0.13      3.38      5.82
     -0.13      2.90      6.77
     -0.13      2.90      7.73
     -0.13      2.90      8.21
     -0.13      2.42      8.68
     -0.13      2.42      9.16
     -0.13      2.42     10.11
     -0.13      2.42     10.59
     -0.13      2.42     11.07
      0.35      2.90     11.55
      0.35      2.90     12.02
      0.35      2.90     12.98
      0.35      2.90     13.45
      0.83      2.90     13.45
      0.83      2.42     13.93
      0.83      2.42     14.41
      1.31      2.42     14.89
      1.31      1.93     14.89
      1.31      1.93     15.36
      1.78      1.93     15.36
      1.78      1.45     15.84
      2.26      0.97     15.84
      2.26      0.97     16.32
      2.74      0.49     16.32
      2.74      0.49     16.32
      3.22      0.01     16.32
      3.70      0.01     16.32
      4.18     -0.47     16.79
      4.66     -0.47     16.79
      5.14     -0.95     16.79
      5.62     -0.95     16.79
      6.10     -1.43     16.79
      6.57     -1.91     16.79
      6.57     -2.39     16.32
      7.53     -2.39     16.32
