********************************************************************************
           RED INTERUNIVERSITARIA DE INSTRUMENTACION SISIMICA (RIIS)
 AREA DE ESTRUCTURAS, UNIVERSIDAD AUTONOMA METROPOLITANA - UNIDAD AZCAPOTZALCO
         AV. SAN PABLO 180; COL. REYNOSA TAMAULIPAS; MEXICO D.F. 02200.
       TELS: 7235859, 7235856; FAX: 7244285; e-mail: jac@hp9000a1.uam.mx
********************************************************************************
ARCHIVO ESTANDAR DE ACELERACION:
VERSION DEL FORMATO                    : 2.0
NOMBRE DEL ARCHIVO                     : RIDI9607.151
FECHA Y HORA DE CREACION               : 15 de julio 1996 /15:39
REF. CATALOGO ACELEROGRAMAS, SMIS 1996 : REGISTRO No.      /PAG.


================================================================================
DATOS DE LA ESTACION:
NOMBRE DE LA ESTACION                  : UAM IZTAPALAPA
CLAVE DE LA ESTACION                   : RIDI
LOCALIZACION DE LA ESTACION            : AVENIDA MICHOACAN ESQUINA LA PURISIMA,
                                       : COLONIA VICENTINA, PLANTEL IZTAPALAPA
                                       : FRENTE AL EDIFICIO "O", MEXICO, D.F.
                                       :
                                       :
COORDENADAS DE LA ESTACION             : 19.3600 LAT. N
                                       : 99.0600 LONG. W
ALTITUD (msnm)                         : 2235
TIPO DE SUELO                          : LIMOS Y ARENAS ARCILLOSAS
                                       : 
                                       : 
INSTITUCION RESPONSABLE                : RED INTERUNIVERSITARIA DE
                                       : INSTRUMENTACION SISMICA (RIIS)

================================================================================
DATOS DEL ACELEROGRAFO:
MODELO DEL ACELEROGRAFO                : SSA-2
NUMERO DE SERIE DEL ACELEROGRAFO       : 1009
NUMERO DE CANALES                      : 3
ORIENTACION C1-C6 (rumbo;orientacion)  : /N00E/+V/N90E
ORIENTACION C7-C12 (rumbo;orientacion) :
VEL. DE MUESTREO, C1-C6 (muestras/s)   : /200/200/200
VEL. DE MUESTREO, C7-C12 (muestras/s)  :
ESC. COMPLETA DE SENSORES, C1-C6, (g)  : /+1.0/+1.0/+1.0
ESC. COMPLETA DE SENSORES, C7-C12, (g) :
FREC. NAT. DE SENSORES, C1-C6, (Hz)    : /50.0/50.0/50.0
FREC. NAT. DE SENSORES, C7-C12, (Hz)   :
AMORTIGUAMIENTO DE SENSORES, C1-C6     : /0.7/0.7/0.7
AMORTIGUAMIENTO DE SENSORES, C7-C12    :
INTERVALO DE MUESTREO, C1-C6, (s)      : /0.005/0.005/0.005
INTERVALO DE MUESTREO, C7-C12, (s)     :
UMBRAL DE DISPARO, C1-C6, (Gal)        : /3/3/3
UMBRAL DE DISPARO, C7-C12, (Gal)       :
MEMORIA DE PREEVENTO (s)               : 15.36
TIEMPO DE POSEVENTO (s)                : 60


================================================================================
DATOS DEL SISMO:
FECHA DEL SISMO (GMT)                  : 15/JUL/96
HORA EPICENTRO (GMT)                   : 21:23
MAGNITUD(ES)                           : /Ms=6.50/Mw=6.60
COORDENADAS DEL EPICENTRO              : 17.600 LAT. N
                                       : 100.97 LONG. W
PROFUNDIDAD FOCAL (km)                 : 18
FUENTE DE LOS DATOS EPICENTRALES       : USGS
                                       :

================================================================================
DATOS DE ESTE REGISTRO:
HORA DE LA PRIMERA MUESTRA (GMT)       : 21:23:00.00
EXACTITUD DEL TIEMPO (s)               : CARECA DE TIEMPO ABSOLUTO
DURACION DEL REGISTRO (s), C1-C6       : /116.48/116.48/116.48
DURACION DEL REGISTRO (s), C7-C12      :
NUM. TOTAL DE MUESTRAS, C1-C6          : /23296/23296/23296
NUM. TOTAL DE MUESTRAS, C7-C12         :
ACEL. MAX. (Gal), C1-C6                : /6.50/4.54/-8.88
ACEL. MAX., C1-C6, EN LA MUESTRA       : /3266/4870/6145
ACEL. MAX. (Gal), C7-C12               :
ACEL. MAX., C7-C12, EN LA MUESTRA      :
UNIDADES DE LOS DATOS                  : Gal
FACTOR DE DECIMACION                   : 1
FORMATO DATOS (FORTRAN,10 campos/dato) : 3F10.2


================================================================================
CALIDAD DEL ACELEROGRAMA:
REGISTRO DIGITAL COMPLETO, CARECE DE TIEMPO ABSOLUTO.


================================================================================
COMENTARIOS:
CADA UNO DE LOS CANALES SE ENCUENTRA AJUSTADO POR LINEA BASE MEDIANTE LA
SUSTRACCION DEL PROMEDIO DE LAS ACELERACIONES EN EL TIEMPO.












================================================================================
DATOS DE ACELERACION:
---------+---------+---------+---------+---------+---------+---------+---------+
   CANAL-1   CANAL-2   CANAL-3   CANAL-4   CANAL-5   CANAL-6   CANAL-7   CANAL-8
      N00E        +V      N90E
---------+---------+---------+---------+---------+---------+---------+---------+
[...]
     -2.29     -1.76      3.32
     -2.29     -1.76      3.32
     -2.29     -1.27      3.32
     -2.29     -1.27      3.32
     -2.29     -1.27      3.32
     -2.78     -1.27      2.83
     -2.78      -.79      2.83
     -2.78      -.79      2.83
     -2.78      -.79      2.83
     -2.78      -.30      2.83
     -2.78      -.30      2.83
     -2.78      -.30      2.83
     -2.78      -.30      2.83
     -2.78       .18      2.83
     -2.78       .18      2.83
     -2.78       .18      2.83
     -2.78       .18      2.83
     -2.78       .67      2.83
     -2.78       .67      2.34
     -2.78       .67      2.34
     -2.29       .67      2.34
     -2.29      1.15      2.34
     -2.29      1.15      2.34
     -2.29      1.15      2.34
     -1.80      1.15      1.85
     -1.80      1.15      1.85
     -1.80      1.63      1.85
     -1.80      1.63      1.85
     -1.80      1.63      1.37
     -1.31      1.63      1.37
     -1.31      1.63      1.37
     -1.31      1.63       .88
     -1.31      1.63       .88
      -.82      1.63       .88
      -.82      2.12       .39
      -.82      2.12       .39
      -.82      2.12      -.10
      -.82      2.12      -.10
      -.82      1.63      -.10
      -.82      1.63      -.59
      -.82      1.63      -.59
      -.82      1.63     -1.07
      -.82      1.63     -1.07
      -.82      1.63     -1.56
      -.82      1.63     -1.56
      -.82      1.63     -2.05
      -.34      1.63     -1.56
      -.34      1.63     -2.05
      -.34      1.15     -2.05
      -.34      1.15     -2.05
      -.34      1.15     -2.05
      -.34      1.15     -2.05
      -.34      1.15     -2.05
      -.34      1.15     -2.54
      -.34      1.15     -2.54
      -.34      1.15     -2.54
      -.34       .67     -2.54
      -.34       .67     -2.54
      -.82       .67     -2.54
      -.34       .67     -2.54
      -.82       .67     -2.54
      -.82       .18     -2.54
      -.82       .18     -2.54
      -.82       .18     -2.54
     -1.31       .18     -2.54
     -1.31      -.30     -2.54
     -1.31      -.30     -2.54
     -1.80      -.30     -2.54
     -1.80      -.30     -2.54
     -1.80      -.79     -2.54
     -1.80      -.79     -2.54
     -2.29      -.79     -2.54
     -2.29     -1.27     -2.54
     -2.29     -1.27     -2.54
     -2.29     -1.27     -2.54
     -2.29     -1.27     -3.03
     -2.78     -1.76     -2.54
     -2.78     -1.76     -2.54
     -2.78     -1.76     -3.03
     -2.78     -1.76     -2.54
     -2.78     -2.24     -3.03
     -2.78     -1.76     -3.03
     -3.27     -2.24     -3.03
     -3.27     -2.24     -3.03
     -3.27     -2.24     -3.03
     -3.27     -2.24     -3.03
     -3.27     -2.72     -3.03
     -3.27     -2.24     -3.03
     -3.27     -2.72     -3.51
     -3.27     -2.72     -3.51
     -3.27     -2.72     -3.51
     -3.27     -2.72     -3.51
     -3.27     -2.72     -3.51
     -3.27     -2.72     -3.51
     -3.27     -2.72     -3.51
     -3.27     -2.72     -4.00
     -3.27     -2.72     -4.00
     -3.27     -2.72     -4.00
     -3.27     -2.72     -4.00
     -3.27     -2.72     -4.00
     -3.27     -2.72     -4.00
     -3.27     -2.72     -4.00
     -3.27     -2.72     -4.00
     -3.27     -2.72     -4.00
     -2.78     -2.72     -4.00
     -2.78     -2.72     -4.00
     -2.78     -2.72     -4.00
     -2.78     -2.24     -4.00
     -2.78     -2.24     -4.00
     -2.29     -2.24     -4.00
     -2.29     -2.24     -4.00
     -1.80     -2.24     -4.00
     -1.80     -1.76     -4.00
     -1.80     -1.76     -4.00
     -1.31     -1.76     -4.00
     -1.31     -1.76     -4.00
      -.82     -1.27     -4.00
      -.82     -1.27     -4.00
      -.34     -1.27     -3.51
      -.34     -1.27     -3.51
       .15      -.79     -3.51
       .15      -.79     -3.51
       .64      -.79     -3.51
       .64      -.79     -3.51
      1.13      -.30     -3.51
      1.13      -.30     -3.03
      1.13      -.30     -3.03
      1.13      -.30     -3.03
      1.62      -.30     -3.03
      1.62      -.30     -3.03
      1.62      -.30     -3.03
      1.62      -.30     -3.03
      1.62       .18     -3.03
      1.62       .18     -3.03
      1.62       .18     -2.54
      1.62       .18     -2.54
      1.62       .18     -2.54
      2.11       .18     -2.54
      1.62       .18     -2.05
      1.62       .67     -2.05
      2.11       .67     -2.05
      2.11       .67     -2.05
      1.62       .67     -2.05
      2.11       .67     -2.05
      1.62      1.15     -1.56
      1.62      1.15     -1.56
      1.62      1.15     -1.56
      1.62      1.15     -1.56
      1.62      1.15     -1.56
      1.62      1.63     -1.56
      1.62      1.63     -1.56
      1.62      1.63     -1.56
      1.62      2.12     -1.56
      1.62      2.12     -1.56
      1.13      2.12     -1.56
      1.13      2.12     -1.56
      1.13      2.12     -1.56
      1.13      2.12     -1.56
      1.13      2.60     -1.56
      1.13      2.60     -1.07
      1.13      2.60     -1.56
      1.13      2.60     -1.56
      1.13      2.60     -1.07
      1.13      2.60     -1.07
      1.13      2.60     -1.07
      1.13      2.60     -1.07
      1.13      2.60     -1.07
      1.13      2.60     -1.07
      1.13      2.12     -1.07
      1.13      2.12     -1.07
      1.13      2.12     -1.07
      1.13      2.12      -.59
       .64      2.12      -.59
       .64      1.63      -.59
       .64      1.63      -.59
       .64      1.63      -.59
       .64      1.63      -.10
       .64      1.63      -.10
       .64      1.63      -.10
       .64      1.15      -.10
       .64      1.15       .39
       .64      1.15       .39
       .15      1.15       .39
       .15      1.15       .88
       .15       .67       .88
       .64       .67       .88
       .64       .67      1.37
       .64       .67      1.37
       .64       .67      1.37
       .64       .67      1.85
       .64       .18      1.85
       .64       .18      2.34
       .64       .18      2.34
      1.13       .18      2.83
      1.13       .18      2.83
      1.13       .18      2.83
      1.13      -.30      3.32
      1.13      -.30      3.32
      1.13      -.30      3.81
      1.13      -.79      3.81
      1.13      -.79      4.30
      1.13      -.79      4.30
      1.13      -.79      4.78
      1.13     -1.27      4.78
      1.13     -1.27      5.27
      1.13     -1.27      5.27
      1.13     -1.27      5.76
      1.13     -1.76      5.76
       .64     -1.76      5.76
      1.13     -1.76      6.25
       .64     -1.76      6.25
      1.13     -1.76      6.25
      1.13     -1.76      6.74
      1.13     -2.24      6.74
      1.13     -2.24      6.74
      1.13     -2.24      6.74
      1.13     -2.24      6.74
      1.13     -2.24      6.74
      1.13     -2.24      6.74
      1.13     -2.24      6.74
      1.13     -2.24      6.74
      1.13     -2.24      6.74
      1.13     -2.24      6.74
      1.13     -2.24      6.25
      1.13     -2.24      6.25
      1.62     -2.24      6.25
      1.62     -1.76      6.25
      1.62     -1.76      5.76
      1.62     -1.76      5.76
      1.62     -1.27      5.76
      1.62     -1.27      5.76
      1.62     -1.27      5.27
      1.62      -.79      5.27
      1.62      -.79      4.78
      1.13      -.79      4.78
      1.13      -.30      4.30
      1.13      -.30      4.30
      1.13      -.30      4.30
      1.13       .18      3.81
      1.13       .18      3.81
      1.13       .18      3.81
      1.13       .67      3.81
       .64       .67      3.32
       .64       .67      3.32
       .64      1.15      2.83
       .15      1.15      2.83
       .15      1.15      2.83
       .15      1.15      2.83
       .15      1.15      2.83
      -.34      1.63      2.34
      -.34      1.63      2.34
      -.34      1.63      2.34
      -.82      1.63      2.34
      -.82      1.63      2.34
      -.82      1.63      2.34
      -.82      1.63      2.34
      -.82      1.63      2.34
     -1.31      1.63      2.34
     -1.31      1.63      1.85
     -1.31      1.63      1.85
      -.82      1.63      1.85
      -.82      1.63      1.85
      -.82      1.63      1.85
      -.82      1.63      1.85
      -.82      1.63      1.85
      -.82      1.63      1.85
      -.82      1.63      1.85
      -.82      1.63      1.85
      -.82      1.63      1.85
      -.82      1.63      1.85
      -.82      1.63      2.34
      -.82      1.63      2.34
      -.82      1.15      2.34
      -.82      1.15      2.34
      -.34      1.15      2.34
      -.34      1.15      2.34
      -.34      1.15      2.34
       .15      1.15      2.34
       .15      1.15      2.34
       .15      1.15      2.34
       .15       .67      2.34
       .15       .67      2.34
       .15       .67      2.34
       .15       .67      2.34
       .15       .18      2.34
       .64       .18      2.34
       .64       .18      2.34
       .64       .18      2.34
       .64       .18      2.34
       .64       .18      2.34
       .64       .18      2.34
       .64       .18      2.34
       .64      -.30      2.34
       .64      -.30      2.34
       .64      -.30      2.34
       .64      -.30      1.85
       .64      -.30      1.85
       .64      -.30      1.85
       .64      -.30      1.85
       .64      -.30      1.85
       .64      -.30      1.37
       .64       .18      1.37
       .64       .18       .88
       .64       .18       .88
       .64       .18       .88
       .64       .18       .39
       .64       .18      -.10
       .64       .18      -.10
       .64       .18      -.59
       .64       .18      -.59
       .64       .18     -1.07
       .64       .18     -1.07
       .64       .18     -1.56
       .64       .18     -1.56
       .64       .18     -2.05
       .64       .18     -2.54
       .64       .18     -3.03
       .64       .18     -3.03
       .64       .18     -3.51
       .15       .18     -3.51
       .15       .18     -4.00
       .15       .18     -4.49
       .15       .18     -4.49
       .15       .18     -4.98
      -.34       .18     -5.47
      -.34       .18     -5.47
      -.34      -.30     -5.95
      -.82      -.30     -6.44
      -.82      -.30     -6.44
      -.82      -.30     -6.93
      -.82      -.30     -6.93
     -1.31      -.30     -6.93
     -1.31      -.30     -7.42
     -1.31      -.30     -7.42
     -1.80      -.30     -7.42
     -1.80      -.30     -7.91
     -1.80      -.30     -7.91
     -1.80      -.30     -7.91
     -1.80      -.30     -7.91
     -2.29      -.30     -7.91
     -2.29      -.30     -8.40
     -2.29      -.30     -8.40
     -2.29      -.30     -8.40
     -2.29      -.30     -8.40
     -2.29      -.30     -8.88
     -2.29      -.30     -8.88
     -2.29      -.30     -8.88
     -2.29      -.30     -8.88
     -2.29      -.30     -8.88
     -2.29      -.30     -8.88
     -2.29      -.30     -8.88
     -1.80      -.30     -8.88
     -1.80      -.30     -8.88
     -1.80      -.79     -8.88
     -1.80      -.79     -8.88
     -1.80      -.79     -8.88
     -1.80      -.79     -8.40
     -1.31      -.79     -8.40
     -1.31      -.79     -8.40
     -1.31      -.79     -7.91
     -1.31      -.79     -7.91
     -1.31      -.79     -7.91
     -1.31      -.79     -7.42
      -.82      -.79     -7.42
      -.82      -.79     -6.93
      -.82      -.79     -6.93
      -.82      -.79     -6.93
      -.34      -.79     -6.44
      -.34      -.79     -6.44
      -.34      -.79     -6.44
      -.34      -.79     -5.95
       .15      -.79     -5.95
       .15      -.30     -5.47
       .15      -.30     -5.47
       .15      -.30     -4.98
       .64      -.30     -4.98
       .64      -.30     -4.49
       .64      -.30     -4.49
       .64      -.30     -4.49
      1.13      -.30     -4.00
      1.13      -.30     -4.00
      1.13      -.30     -3.51
      1.13      -.30     -3.51
      1.13      -.30     -3.51
      1.13      -.30     -3.03
      1.13      -.30     -3.03
      1.13       .18     -2.54
      1.13       .18     -2.54
      1.13       .18     -2.05
      1.13       .18     -2.05
      1.13       .18     -2.05
      1.13       .18     -2.05
      1.13       .18     -1.56
      1.13       .18     -1.56
       .64       .18     -1.07
       .64       .18     -1.07
       .64       .18     -1.07
       .64       .18      -.59
       .64       .67      -.59
       .64       .67      -.59
       .64       .67      -.59
       .64       .67      -.10
       .64       .67      -.10
       .64       .67      -.10
       .15       .67      -.10
       .15       .67      -.10
       .15      1.15      -.10
       .15      1.15       .39
       .15      1.15       .39
       .15      1.15       .39
       .15      1.15       .39
       .15      1.15       .88
       .15      1.15       .88
       .15      1.15       .88
      -.34      1.15       .88
      -.34      1.15       .88
      -.34      1.63       .88
      -.34      1.63       .88
      -.34      1.63       .88
      -.82      1.63       .88
      -.82      1.63       .88
      -.82      1.63       .88
      -.82      1.63       .88
      -.82      1.63       .88
      -.82      1.63       .88
      -.82      2.12      1.37
      -.82      2.12      1.37
     -1.31      2.12      1.37
     -1.31      2.12       .88
     -1.31      2.12       .88
     -1.31      2.12       .88
     -1.31      2.12       .88
     -1.31      2.12       .88
     -1.31      2.12       .88
     -1.31      2.12       .88
     -1.31      2.12       .88
     -1.31      2.12       .88
     -1.31      2.12       .88
     -1.31      2.12       .88
     -1.80      2.12       .88
     -1.80      2.12       .88
     -1.80      2.12       .88
     -1.80      2.12       .88
     -1.80      2.12       .88
     -1.80      1.63       .88
     -1.80      1.63       .88
     -1.80      1.63       .88
     -1.31      1.63       .88
     -1.31      1.63       .88
     -1.31      1.63      1.37
     -1.31      1.63      1.37
     -1.31      1.63      1.37
     -1.31      1.63      1.37
     -1.31      1.63      1.85
     -1.31      1.15      1.85
     -1.31      1.15      1.85
     -1.31      1.15      1.85
     -1.31      1.15      2.34
     -1.31      1.15      2.34
      -.82      1.15      2.83
     -1.31      1.15      2.83
      -.82      1.15      3.32
      -.82       .67      3.32
      -.82       .67      3.81
      -.82       .67      3.81
      -.82       .67      3.81
      -.82       .18      4.30
      -.82       .18      4.30
      -.82       .18      4.78
      -.82       .18      4.78
      -.82       .18      5.27
      -.82       .18      5.27
      -.82      -.30      5.76
      -.82      -.30      5.76
      -.82      -.30      6.25
      -.82      -.30      6.25
      -.82      -.30      6.74
      -.82      -.79      6.74
      -.82      -.79      7.23
      -.82      -.79      7.23
      -.82      -.79      7.23
      -.82      -.79      7.71
     -1.31     -1.27      7.71
     -1.31     -1.27      7.71
     -1.31     -1.27      8.20
     -1.31     -1.27      8.20
     -1.31     -1.27      8.20
     -1.31     -1.27      8.20
     -1.31     -1.27      8.20
     -1.31     -1.27      8.20
     -1.31     -1.27      8.20
     -1.31     -1.27      8.20
