********************************************************************************
           RED INTERUNIVERSITARIA DE INSTRUMENTACION SISIMICA (RIIS)
 AREA DE ESTRUCTURAS, UNIVERSIDAD AUTONOMA METROPOLITANA - UNIDAD AZCAPOTZALCO
         AV. SAN PABLO 180; COL. REYNOSA TAMAULIPAS; MEXICO D.F. 02200.                                                                               
       TELS: 7235859, 7235856; FAX: 7244285; e-mail: esz@hp9000a1.uam.mx
********************************************************************************
ARCHIVO ESTANDAR DE ACELERACION:
VERSION DEL FORMATO                    : 2.0
NOMBRE DEL ARCHIVO                     : RIDI9309.101
FECHA Y HORA DE CREACION               : 10 de septiembre 1993 /20:18
REF. CATALOGO ACELEROGRAMAS, SMIS 1996 : REGISTRO No. 19 /PAG. 33


================================================================================
DATOS DE LA ESTACION:
NOMBRE DE LA ESTACION                  : UAM IZTAPALAPA
CLAVE DE LA ESTACION                   : RIDI
LOCALIZACION DE LA ESTACION            : AVENIDA MICHOACAN ESQUINA LA PURISIMA,
                                       : COLONIA VICENTINA, PLANTEL IZTAPALAPA
                                       : FRENTE AL EDIFICIO "O", MEXICO, D.F.
                                       :
                                       :
COORDENADAS DE LA ESTACION             : 19.360 LAT. N 
                                       : 99.060 LONG. W 
ALTITUD (msnm)                         : 2235
TIPO DE SUELO                          : LIMOS Y ARENAS ARCILLOSAS
                                       : 
                                       : 
INSTITUCION RESPONSABLE                : RED INTERUNIVERSITARIA DE 
                                       : INSTRUMENTACION SISMICA (RIIS)

================================================================================
DATOS DEL ACELEROGRAFO:
MODELO DEL ACELEROGRAFO                : SSA-2 (KINEMETRICS)
NUMERO DE SERIE DEL ACELEROGRAFO       : 1009
NUMERO DE CANALES                      : 3
ORIENTACION C1-C6 (rumbo;orientacion)  : /N00E/+V/N90E
ORIENTACION C7-C12 (rumbo;orientacion) :
VEL. DE MUESTREO, C1-C6 (muestras/s)   : /200/200/200
VEL. DE MUESTREO, C7-C12 (muestras/s)  :
ESC. COMPLETA DE SENSORES, C1-C6, (g)  : /+1.0/+1.0/+1.0
ESC. COMPLETA DE SENSORES, C7-C12, (g) :
FREC. NAT. DE SENSORES, C1-C6, (Hz)    : /50.0/50.0/50.0
FREC. NAT. DE SENSORES, C7-C12, (Hz)   :
AMORTIGUAMIENTO DE SENSORES, C1-C6     : /0.7/0.7/0.7
AMORTIGUAMIENTO DE SENSORES, C7-C12    :
INTERVALO DE MUESTREO, C1-C6, (s)      : /0.005/0.005/0.005
INTERVALO DE MUESTREO, C7-C12, (s)     :
UMBRAL DE DISPARO, C1-C6, (Gal)        : Ajustable de 1 a 10
UMBRAL DE DISPARO, C7-C12, (Gal)       :
MEMORIA DE PREEVENTO (s)               : 0 a 15
TIEMPO DE POSEVENTO (s)                : 0 a 90


================================================================================
DATOS DEL SISMO:
FECHA DEL SISMO (GMT)                  : 10/SEP/93
HORA EPICENTRO (GMT)                   : 19:12
MAGNITUD(ES)                           : /Ms=7.30/Mb=6.30
COORDENADAS DEL EPICENTRO              : 14.140 LAT. N 
                                       : 92.820 LONG. W 
PROFUNDIDAD FOCAL (km)                 : 14 
FUENTE DE LOS DATOS EPICENTRALES       : IG, UNAM
                                       :

================================================================================
DATOS DE ESTE REGISTRO:
HORA DE LA PRIMERA MUESTRA (GMT)       : 19:18:00.00
EXACTITUD DEL TIEMPO (s)               : CARECE DE TIEMPO ABSOLUTO    
DURACION DEL REGISTRO (s), C1-C6       : /78.08/78.08/78.08
DURACION DEL REGISTRO (s), C7-C12      :
NUM. TOTAL DE MUESTRAS, C1-C6          : /15616/15616/15616
NUM. TOTAL DE MUESTRAS, C7-C12         :
ACEL. MAX.(Gal), C1-C6                 : /-2.22/1.03/2.18
ACEL. MAX., C1-C6, EN LA MUESTRA       : /3050/2032/6209
ACEL. MAX.(Gal), C7-C12                :
ACEL. MAX., C7-C12, EN LA MUESTRA      :
UNIDADES DE LOS DATOS                  : Gal 
FACTOR DE DECIMACION                   : 1
FORMATO DATOS (FORTRAN,10 campos/dato) : 3F10.3


===============================================================================
CALIDAD DEL ACELEROGRAMA:
REGISTRO DIGITAL COMPLETO, CARECE DE TIEMPO ABSOLUTO.


===============================================================================
COMENTARIOS:
CADA UNO DE LOS CANALES SE ENCUENTRA AJUSTADO POR LINEA BASE MEDIANTE LA
SUSTRACCION DEL PROMEDIO DE LAS ACELERACIONES EN EL TIEMPO.












===============================================================================
DATOS DE ACELERACION:
---------+---------+---------+---------+---------+---------+---------+---------+
   CANAL-1   CANAL-2   CANAL-3   CANAL-4   CANAL-5   CANAL-6   CANAL-7   CANAL-8
      N00E        +V      N90E
---------+---------+---------+---------+---------+---------+---------+---------+
[...]
      .225      .539     -.742
      .714      .539     -.742
      .714      .048     -.742
      .225      .539     -.742
      .225      .539     -.255
      .225      .539     -.255
      .225      .048     -.255
      .225      .539     -.255
      .225      .539     -.255
      .225      .539     -.255
      .225      .539     -.742
      .225      .539     -.742
      .225      .048     -.742
      .225      .048     -.742
      .225      .048     -.255
      .225      .048     -.742
      .714      .048     -.742
      .714      .048     -.742
      .714     -.442    -1.228
      .714      .048     -.742
      .714     -.442    -1.228
      .714      .048     -.742
      .714     -.442     -.742
      .225      .048     -.742
      .225      .048     -.255
      .225      .048     -.742
      .225      .048     -.255
      .225      .048     -.255
      .225      .048     -.742
      .225      .048     -.742
      .225      .048     -.742
      .225     -.442     -.742
      .225      .048     -.742
      .225      .048     -.742
      .225     -.442     -.742
      .714     -.442     -.742
      .714     -.442     -.255
      .225     -.442     -.255
      .714      .048     -.742
      .714      .048     -.742
      .714      .048     -.742
      .225      .048     -.742
      .225      .048     -.742
      .225      .048     -.742
      .225      .539     -.742
      .225      .539    -1.228
      .225      .539     -.742
      .225      .539    -1.228
      .225      .539     -.742
      .225      .539    -1.228
      .225      .539     -.742
      .225      .539    -1.228
      .225      .048    -1.228
      .225      .048     -.742
      .225      .048     -.742
      .225      .048     -.742
      .225      .048     -.742
      .225      .048    -1.228
      .225      .048     -.742
      .714      .539    -1.228
      .714      .048    -1.228
      .225      .539     -.742
      .714      .539     -.742
      .225      .539     -.742
      .225      .539    -1.228
      .714      .539    -1.228
      .225      .048    -1.228
      .225      .539    -1.228
      .225      .048    -1.228
      .225      .048    -1.228
     -.263      .048    -1.228
      .225      .048    -1.228
      .225      .048    -1.228
      .225     -.442    -1.228
      .225     -.442     -.742
      .225     -.442    -1.228
      .225     -.442    -1.228
      .225     -.442    -1.228
      .225     -.442     -.742
      .225     -.442     -.742
      .225     -.442     -.742
      .225      .048     -.742
      .225      .048     -.742
      .225      .048     -.742
     -.263      .048     -.742
      .225      .048     -.742
      .225      .048    -1.228
     -.263      .048     -.742
     -.263      .048     -.742
     -.263     -.442     -.742
     -.263     -.442     -.742
     -.263      .048     -.742
     -.263     -.442     -.255
     -.263      .048     -.255
     -.263      .048     -.255
     -.263      .048     -.742
     -.263     -.442     -.742
     -.263     -.442     -.742
     -.263      .048     -.742
     -.263      .048     -.742
     -.263      .048     -.742
      .225      .048     -.742
      .225      .048     -.742
     -.263      .048     -.742
     -.263      .048     -.742
     -.263      .048     -.742
     -.263      .048     -.255
     -.263      .048     -.742
     -.263      .048     -.255
     -.263      .048     -.255
     -.263     -.442     -.255
     -.263     -.442     -.255
     -.263      .048     -.255
     -.263      .048     -.255
     -.263     -.442     -.255
     -.263     -.442     -.742
     -.751     -.442     -.255
     -.263      .048     -.255
     -.263     -.442     -.255
     -.263      .048     -.255
     -.263      .048     -.255
     -.263      .048     -.255
     -.263      .048     -.255
     -.263      .048     -.255
     -.263      .048     -.255
     -.263      .048     -.255
     -.263      .048     -.255
     -.263      .048     -.255
     -.751      .048     -.255
     -.751      .048     -.255
     -.751      .048     -.255
     -.751      .048     -.255
     -.751     -.442     -.255
     -.751     -.442     -.255
     -.751     -.442     -.255
     -.751     -.442     -.255
     -.751     -.442     -.255
     -.751     -.442     -.255
     -.751     -.442     -.255
     -.263      .048      .231
     -.263      .048     -.255
     -.751      .048      .231
     -.263      .048     -.255
     -.751      .048     -.255
     -.751      .048     -.255
     -.751      .048      .231
     -.751      .048      .231
     -.751      .048      .231
     -.751      .048      .231
     -.751      .048     -.255
     -.751      .048     -.255
     -.751      .048     -.255
     -.751      .048     -.255
     -.751      .048     -.255
     -.751      .048     -.255
     -.751      .048     -.255
     -.751     -.442     -.255
     -.751      .048     -.255
     -.751     -.442      .231
     -.751      .048     -.255
     -.751      .048      .231
     -.751      .048      .231
     -.751      .048     -.255
     -.751      .048     -.255
     -.751      .048      .231
     -.751      .048      .231
     -.751      .048      .231
     -.751      .048      .231
     -.751      .048      .231
     -.751      .048      .231
     -.751      .048      .231
     -.751      .048      .231
     -.751      .048      .718
     -.751      .048      .231
     -.751     -.442      .231
     -.751      .048      .231
     -.751      .048      .718
     -.751      .048      .718
     -.751      .048      .231
     -.751      .048      .718
     -.751      .539      .231
     -.751      .539     -.255
     -.751      .539     -.255
     -.751      .539      .231
     -.751      .539      .231
     -.751      .539      .718
     -.751      .539      .718
     -.751      .539      .231
     -.751      .539      .231
    -1.240      .539      .231
     -.751      .539      .231
     -.751      .539      .231
     -.751      .539      .231
     -.751      .539      .231
    -1.240      .048      .718
    -1.240      .048      .718
     -.751      .048      .231
    -1.240     -.442      .718
     -.751      .048      .718
     -.751      .048      .718
     -.751      .048      .718
     -.751      .048      .718
     -.751     -.442      .718
     -.751     -.442      .718
     -.751      .048      .718
     -.751      .048      .718
     -.751      .048      .718
     -.751      .048      .718
     -.751      .048     1.204
     -.751      .048      .718
     -.751     -.442      .718
     -.751     -.442      .718
     -.751     -.442      .718
     -.751     -.442      .718
     -.751     -.442      .718
     -.751     -.932     1.204
     -.751     -.442     1.204
     -.751     -.442     1.204
     -.263     -.442     1.204
     -.751     -.932     1.204
     -.751     -.932     1.204
     -.263     -.442     1.204
     -.263     -.442     1.204
     -.263     -.442     1.204
     -.263     -.442     1.204
     -.263     -.442     1.204
     -.263      .048     1.204
     -.263      .048     1.204
     -.263      .048     1.204
     -.263      .048     1.204
     -.263      .048      .718
     -.263      .048     1.204
     -.263      .048     1.204
     -.263      .048     1.204
     -.751      .048     1.204
     -.263      .048     1.204
     -.263      .048      .718
     -.263      .048     1.204
     -.263      .539      .718
     -.263      .048      .718
     -.263      .048     1.204
     -.263      .048      .718
     -.263      .539     1.204
     -.263      .048     1.204
     -.263      .539      .718
     -.263      .048      .718
     -.263      .539      .718
     -.263      .048      .718
     -.263      .539      .718
     -.263      .539      .718
     -.263      .539      .718
     -.263      .048     1.204
     -.263      .539      .718
     -.263      .539      .718
     -.263      .048      .718
     -.263      .048      .718
     -.263      .539      .231
     -.263      .048      .718
      .225      .048      .718
      .225      .048      .718
      .225      .048     1.204
      .225      .048      .718
      .714      .048      .718
      .714      .539      .231
      .714      .048      .231
      .714      .539     -.255
      .714      .539      .231
      .225      .048      .718
      .714      .048      .231
      .714      .048      .231
      .714      .048      .718
      .225      .048      .718
      .714      .048      .231
      .225      .048      .718
      .225      .048      .718
      .225     -.442      .718
      .714      .048      .718
      .714     -.442      .718
      .714      .048      .718
      .714      .048      .718
      .714      .048      .231
     1.202      .048      .718
     1.202      .048      .231
     1.202      .048      .231
      .714      .048      .231
      .714      .048      .231
      .714      .048      .231
      .714      .048      .231
      .714      .048      .718
      .714      .048      .231
      .714      .048      .718
      .714      .048      .231
      .714      .048      .231
      .714      .048      .231
      .714      .048      .718
      .714      .048      .231
      .714      .048      .231
     1.202     -.442      .718
     1.202      .048      .718
     1.202     -.442      .231
     1.691      .048      .231
     1.691     -.442      .231
     1.202      .048      .718
     1.202      .048      .718
     1.691      .048      .231
     1.202      .048      .231
     1.202      .048      .718
     1.202      .048      .718
     1.202      .048      .718
     1.202      .048      .718
     1.202      .539      .718
     1.202      .048      .231
     1.202      .048      .718
     1.691      .048      .231
     1.202      .539      .718
     1.691      .048      .231
     1.691      .539      .231
     1.691      .048      .231
     1.691      .048      .231
     1.691      .048      .231
     1.691      .539      .718
     1.691      .539      .231
     1.691      .048      .718
     1.691      .539      .231
     1.691      .048      .231
     1.691      .539     -.255
     1.691      .539      .231
     1.691      .539      .231
     1.691      .539      .231
     1.691      .539      .231
     1.691      .539     -.255
     1.691      .539     -.255
     1.691      .539      .231
     1.691      .048     -.255
     1.691      .048      .231
     1.691      .048      .231
     1.691      .048      .231
     1.691      .048     -.255
     1.691      .048      .231
     1.691      .048     -.255
     1.691      .048     -.255
     2.179      .048     -.255
     1.691      .048     -.255
     1.691      .048      .231
     2.179      .048     -.255
     1.691      .048     -.255
     1.691      .048     -.255
     1.691      .048     -.255
     1.691      .048     -.255
     1.691      .048     -.255
     1.691      .048     -.255
     1.691      .048     -.255
     1.691      .048     -.255
     1.691      .048     -.255
     1.691      .048     -.255
     1.691     -.442     -.255
     1.691     -.442     -.255
     1.691     -.442     -.255
     1.691     -.442     -.255
     1.691     -.442     -.255
     2.179     -.442     -.255
     2.179     -.442     -.255
     1.691     -.442     -.255
     1.691     -.442     -.255
     1.691     -.442     -.255
     1.691      .048     -.255
     1.691     -.442     -.255
     1.691      .048     -.255
     1.691      .048     -.255
     1.691      .048     -.255
     1.202     -.442     -.255
     1.202      .048     -.255
     1.202     -.442     -.255
     1.691      .048     -.742
     1.202     -.442     -.255
     1.202     -.442     -.742
     1.202     -.442     -.742
     1.691     -.442     -.255
     1.691     -.442     -.742
     1.202     -.442     -.255
     1.691     -.442     -.742
     1.691     -.442     -.255
     1.691     -.442     -.255
     1.691     -.442     -.255
     1.691     -.442     -.255
     1.691     -.442     -.255
     1.691     -.442     -.742
     1.202     -.442     -.742
     1.202     -.442     -.742
     1.202     -.442     -.742
     1.202     -.442     -.742
     1.202     -.442     -.255
     1.202     -.442     -.742
      .714     -.442     -.255
     1.202     -.442     -.742
      .714     -.442     -.742
      .714     -.442     -.742
      .714     -.442     -.255
      .714     -.442     -.255
      .714     -.442     -.255
      .714     -.442     -.742
     1.202     -.442     -.255
     1.202     -.442    -1.228
     1.202     -.442     -.742
     1.202      .048     -.742
     1.202      .048     -.742
      .714      .048     -.742
      .714      .048    -1.228
      .714      .048     -.742
      .714      .048     -.742
      .225      .048     -.742
      .225     -.442     -.255
      .225      .048     -.742
      .225     -.442     -.255
      .225     -.442     -.742
      .225      .048     -.255
      .225     -.442     -.255
      .225     -.442     -.742
      .225     -.442     -.742
      .714      .048     -.742
      .714     -.442     -.742
      .714      .048     -.742
      .225      .048     -.742
      .225      .048    -1.228
      .225      .048     -.742
      .225      .048     -.742
      .225      .048     -.742
     -.263      .048     -.742
     -.263     -.442     -.742
     -.263      .048     -.742
     -.263      .048     -.742
     -.263      .048     -.742
     -.263      .048     -.255
     -.263      .048     -.742
     -.263      .048     -.742
     -.263      .048     -.255
     -.263     -.442     -.742
     -.263     -.442     -.742
     -.263     -.442     -.255
     -.263     -.442     -.255
     -.263     -.442     -.742
     -.263     -.442     -.742
     -.263     -.442     -.742
     -.263     -.442    -1.228
     -.263     -.442     -.742
     -.263     -.442     -.742
     -.263      .048     -.742
     -.751     -.442     -.742
     -.263      .048     -.742
     -.751      .048     -.742
     -.751      .048     -.742
     -.751      .048     -.742
     -.751      .048     -.742
    -1.240      .048     -.742
    -1.240      .048     -.742
    -1.240      .048     -.742
    -1.240     -.442     -.742
    -1.240      .048     -.742
    -1.240      .048     -.742
    -1.240     -.442     -.742
    -1.240      .048     -.742
    -1.240      .048     -.742
    -1.240      .048     -.255
     -.751      .048     -.742
     -.751      .048     -.742
    -1.240      .048     -.255
    -1.240      .048     -.742
    -1.240      .048     -.742
    -1.240      .048     -.742
    -1.240      .048     -.742
    -1.240      .048    -1.228
    -1.240      .539     -.742
    -1.728      .048     -.742
    -1.728      .048     -.742
    -1.728      .048     -.742
    -1.728      .048     -.742
    -1.728      .048     -.742
    -1.728      .048    -1.228
    -1.728     -.442     -.742
    -1.240     -.442     -.742
    -1.240      .048     -.742
    -1.240     -.442     -.742
    -1.240      .048     -.742
    -1.240      .048     -.742
    -1.240      .048     -.742
    -1.240      .048     -.742
    -1.240      .048     -.742
    -1.240      .048    -1.228
