********************************************************************************
           RED INTERUNIVERSITARIA DE INSTRUMENTACION SISIMICA (RIIS)
 AREA DE ESTRUCTURAS, UNIVERSIDAD AUTONOMA METROPOLITANA - UNIDAD AZCAPOTZALCO
         AV. SAN PABLO 180; COL. REYNOSA TAMAULIPAS; MEXICO D.F. 02200.                                                                               
       TELS: 7235859, 7235856; FAX: 7244285; e-mail: esz@hp9000a1.uam.mx
********************************************************************************
ARCHIVO ESTANDAR DE ACELERACION:
VERSION DEL FORMATO                    : 2.0
NOMBRE DEL ARCHIVO                     : RIDI9412.101
FECHA Y HORA DE CREACION               : 10 de diciembre 1994 /16:18
REF. CATALOGO ACELEROGRAMAS, SMIS 1996 : REGISTRO No. 1191 /PAG. 132


================================================================================
DATOS DE LA ESTACION:
NOMBRE DE LA ESTACION                  : UAM IZTAPALAPA
CLAVE DE LA ESTACION                   : RIDI
LOCALIZACION DE LA ESTACION            : AVENIDA MICHOACAN ESQUINA LA PURISIMA,
                                       : COLONIA VICENTINA, PLANTEL IZTAPALAPA
                                       : FRENTE AL EDIFICIO "O", MEXICO, D.F.
                                       :
                                       :
COORDENADAS DE LA ESTACION             : 19.360 LAT. N 
                                       : 99.060 LONG. W 
ALTITUD (msnm)                         : 2235
TIPO DE SUELO                          : LIMOS Y ARENAS ARCILLOSAS
                                       : 
                                       : 
INSTITUCION RESPONSABLE                : RED INTERUNIVERSITARIA DE 
                                       : INSTRUMENTACION SISMICA (RIIS)

================================================================================
DATOS DEL ACELEROGRAFO:
MODELO DEL ACELEROGRAFO                : SSA-2
NUMERO DE SERIE DEL ACELEROGRAFO       : 1009
NUMERO DE CANALES                      : 3
ORIENTACION C1-C6 (rumbo;orientacion)  : /N00E/+V/N90E
ORIENTACION C7-C12 (rumbo;orientacion) :
VEL. DE MUESTREO, C1-C6 (muestras/s)   : /200/200/200
VEL. DE MUESTREO, C7-C12 (muestras/s)  :
ESC. COMPLETA DE SENSORES, C1-C6, (g)  : /1.0/1.0/1.0
ESC. COMPLETA DE SENSORES, C7-C12, (g) :
FREC. NAT. DE SENSORES, C1-C6, (Hz)    : /50.0/50.0/50.0
FREC. NAT. DE SENSORES, C7-C12, (Hz)   :
AMORTIGUAMIENTO DE SENSORES, C1-C6     : /0.7/0.7/0.7
AMORTIGUAMIENTO DE SENSORES, C7-C12    :
INTERVALO DE MUESTREO, C1-C6, (s)      : /0.005/0.005/0.005
INTERVALO DE MUESTREO, C7-C12, (s)     :
UMBRAL DE DISPARO, C1-C6, (Gal)        : /3/3/3
UMBRAL DE DISPARO, C7-C12, (Gal)       :
MEMORIA DE PREEVENTO (s)               : 15
TIEMPO DE POSEVENTO (s)                : 60


================================================================================
DATOS DEL SISMO:
FECHA DEL SISMO (GMT)                  : 10/DIC/94
HORA EPICENTRO (GMT)                   : 16:17:40,9
MAGNITUD(ES)                           : /Mc=6.30
COORDENADAS DEL EPICENTRO              : 18.020 LAT. N 
                                       : 101.560 LONG. W
PROFUNDIDAD FOCAL (km)                 : 20 
FUENTES DE LOS DATOS EPICENTRALES      : SSN
                                       : INSTITUTO DE GEOFISICA, UNAM

================================================================================
DATOS DE ESTE REGISTRO:
HORA DE LA PRIMERA MUESTRA (GMT)       : 16:18:00.00
EXACTITUD DEL TIEMPO (s)               :     
DURACION DEL REGISTRO (s), C1-C6       : /138.24/138.24/138.24
DURACION DEL REGISTRO (s), C7-C12      :
NUM. TOTAL DE MUESTRAS, C1-C6          : /27648/27648/27648
NUM. TOTAL DE MUESTRAS, C7-C12         :
ACEL. MAX.(Gal), C1-C6                 : /-12.22/3.84/-12.58
ACEL. MAX., C1-C6, EN LA MUESTRA       : /6204/6063/4621
ACEL. MAX.(Gal), C7-C12                : 
ACEL. MAX., C7-C12, EN LA MUESTRA      :
UNIDADES DE LOS DATOS                  : Gal
FACTOR DE DECIMACION                   : 1
FORMATO DATOS (FORTRAN,10 campos/dato) : 3F10.3


===============================================================================
CALIDAD DEL ACELEROGRAMA:
REGISTRO DIGITAL COMPLETO, CARECE DE TIEMPO ABSOLUTO.


===============================================================================
COMENTARIOS:
CADA UNO DE LOS CANALES SE ENCUENTRA AJUSTADO POR LINEA BASE MEDIANTE LA
SUSTRACCION DEL PROMEDIO DE LAS ACELERACIONES EN EL TIEMPO.











MODELO DEL ACELEROGRAFO : SSA-2 (KINEMETRICS)
===============================================================================
DATOS DE ACELERACION:
---------+---------+---------+---------+---------+---------+---------+---------+
   CANAL-1   CANAL-2   CANAL-3   CANAL-4   CANAL-5   CANAL-6   CANAL-7   CANAL-8
      N00E        +V      N90E
---------+---------+---------+---------+---------+---------+---------+---------+
[...]
     2.915     -.523    -2.812
     2.915     -.523    -3.300
     2.915     -.523    -3.300
     2.427     -.523    -3.300
     2.427     -.523    -3.300
     2.427     -.523    -3.788
     2.427     -.523    -3.788
     2.427     -.523    -3.788
     2.427     -.523    -4.276
     1.938     -.523    -4.276
     1.938     -.523    -4.276
     1.938     -.523    -4.765
     1.938     -.523    -4.765
     1.938     -.523    -5.253
     1.450     -.523    -5.253
     1.450     -.523    -5.253
     1.450     -.039    -5.253
      .961     -.523    -5.741
      .961     -.039    -5.741
      .961     -.039    -6.229
      .473     -.523    -6.229
      .473     -.523    -6.229
      .473     -.523    -6.229
      .473     -.523    -6.718
     -.015     -.523    -6.718
     -.015     -.523    -6.718
     -.015     -.523    -6.718
     -.015     -.523    -7.206
     -.015     -.523    -7.206
     -.504     -.523    -7.206
     -.504     -.523    -7.206
     -.504     -.523    -7.206
     -.504     -.523    -7.206
     -.992     -.523    -7.206
     -.992     -.523    -7.206
     -.992    -1.008    -7.694
    -1.480    -1.008    -7.694
    -1.480     -.523    -7.206
    -1.480    -1.008    -7.206
    -1.480    -1.008    -7.206
    -1.480    -1.008    -7.206
    -1.480    -1.008    -7.206
    -1.480    -1.008    -7.206
    -1.480    -1.008    -7.206
    -1.480    -1.008    -7.206
    -1.480    -1.008    -7.206
    -1.480    -1.008    -7.206
    -1.480    -1.008    -7.206
    -1.480    -1.008    -7.206
    -1.480    -1.008    -7.206
    -1.480    -1.008    -7.206
    -1.480    -1.008    -7.206
    -1.480    -1.008    -7.206
    -1.480    -1.008    -7.206
    -1.480    -1.008    -7.206
    -1.480    -1.008    -7.206
    -1.480    -1.008    -7.206
    -1.480    -1.008    -6.718
    -1.480    -1.008    -7.206
    -1.480    -1.008    -6.718
    -1.480    -1.008    -6.718
    -1.480    -1.008    -6.718
    -1.480    -1.008    -6.718
    -1.480    -1.008    -6.718
    -1.480    -1.008    -6.718
    -1.480     -.523    -6.718
    -1.968    -1.008    -6.718
    -1.968     -.523    -6.718
    -1.968     -.523    -6.718
    -1.968    -1.008    -6.718
    -1.968     -.523    -6.718
    -1.968     -.523    -6.718
    -1.968     -.523    -6.718
    -1.968     -.523    -6.718
    -1.968     -.523    -7.206
    -1.968     -.523    -7.206
    -1.968     -.523    -7.206
    -1.968     -.523    -7.206
    -1.968     -.523    -7.206
    -1.480     -.523    -7.206
    -1.480    -1.008    -7.206
    -1.480     -.523    -6.718
    -1.480     -.523    -6.718
     -.992    -1.008    -6.718
     -.992    -1.008    -6.718
     -.992    -1.008    -6.229
     -.992    -1.008    -6.229
     -.992    -1.008    -6.229
     -.992    -1.008    -6.229
     -.992    -1.008    -6.229
     -.992    -1.008    -6.229
     -.992    -1.008    -5.741
     -.992    -1.008    -5.741
     -.992     -.523    -5.741
     -.992     -.523    -5.741
     -.992     -.523    -5.741
    -1.480     -.523    -5.741
    -1.480     -.523    -5.741
    -1.480     -.523    -5.741
    -1.480     -.523    -5.741
    -1.480     -.039    -5.253
    -1.480     -.039    -5.253
    -1.968     -.039    -5.253
    -1.968     -.039    -5.253
    -1.968     -.039    -4.765
    -1.968     -.039    -4.765
    -1.968     -.039    -4.765
    -1.968     -.039    -4.276
    -2.457     -.039    -4.276
    -2.457      .446    -4.276
    -2.457      .446    -3.788
    -2.457      .446    -3.788
    -2.457      .446    -3.788
    -2.457      .446    -3.300
    -2.457      .446    -3.300
    -2.457      .446    -3.300
    -2.457      .446    -2.812
    -2.457      .446    -2.812
    -2.457      .446    -2.323
    -2.457      .446    -2.323
    -2.457      .446    -2.323
    -2.457      .446    -1.835
    -2.457      .446    -1.835
    -2.457      .446    -1.347
    -2.457      .446    -1.347
    -2.457      .446    -1.347
    -2.457      .446     -.858
    -2.457      .446     -.858
    -2.457      .446     -.370
    -1.968      .446     -.370
    -1.968      .931     -.370
    -1.968      .931     -.370
    -1.968      .931      .118
    -1.968      .931      .118
    -1.968      .931      .606
    -1.968      .931      .606
    -1.968      .931      .606
    -1.968      .931     1.095
    -1.968      .931     1.095
    -1.968      .931     1.583
    -1.480      .931     1.583
    -1.480      .931     1.583
    -1.480      .931     2.071
    -1.480      .446     2.071
    -1.480      .446     2.560
    -1.480      .446     2.560
    -1.480      .446     3.048
    -1.480      .446     3.048
    -1.480      .446     3.536
    -1.480      .446     3.536
    -1.480     -.039     4.024
    -1.480     -.039     4.024
    -1.480     -.039     4.513
    -1.480     -.039     4.513
     -.992     -.039     5.001
     -.992     -.039     5.001
     -.992     -.039     5.489
     -.992     -.039     5.489
     -.992     -.039     5.977
     -.992     -.039     5.977
     -.992     -.039     6.466
     -.992     -.039     6.466
     -.992     -.039     6.954
     -.992     -.039     6.954
     -.992     -.039     7.442
     -.992     -.039     7.442
     -.992     -.039     7.931
     -.992      .446     7.931
     -.992      .446     8.419
     -.992      .446     8.419
     -.992      .446     8.907
     -.992      .446     8.907
    -1.480      .446     9.396
    -1.480      .931     9.396
    -1.480      .931     9.396
    -1.480      .931     9.396
    -1.480      .931     9.884
    -1.480      .931     9.884
    -1.480      .931     9.884
    -1.968      .931    10.373
    -1.480      .931    10.373
    -1.480      .931    10.373
    -1.480      .931    10.373
    -1.480      .931    10.861
    -1.480      .931    10.861
     -.992      .446    10.861
     -.992      .446    11.350
     -.992      .446    11.350
     -.504      .446    11.350
     -.504      .446    11.838
     -.504      .446    11.838
     -.015     -.039    11.838
     -.015     -.039    11.838
     -.015     -.039    12.327
     -.015     -.039    12.327
     -.015     -.523    12.327
     -.015     -.523    12.327
     -.015     -.523    12.327
     -.015     -.523    12.327
     -.015     -.523    12.327
     -.015    -1.008    12.327
     -.015    -1.008    11.838
     -.015    -1.008    11.838
     -.015    -1.008    11.838
     -.015    -1.008    11.838
     -.015    -1.008    11.838
     -.015    -1.008    11.838
     -.015    -1.008    11.838
     -.015    -1.008    11.838
     -.015    -1.008    11.350
     -.015     -.523    11.350
     -.015    -1.008    11.350
     -.015     -.523    11.350
     -.015     -.523    11.350
     -.015     -.523    11.350
     -.015    -1.008    11.350
     -.015     -.523    11.350
     -.015     -.523    10.861
     -.015     -.523    10.861
     -.015     -.523    10.373
     -.015     -.523    10.373
     -.504     -.523    10.373
     -.504     -.523     9.884
     -.504     -.523     9.884
     -.504     -.523     9.396
     -.504    -1.008     9.396
     -.992     -.523     9.396
     -.992    -1.008     9.396
     -.992    -1.008     8.907
     -.992    -1.008     8.907
     -.992    -1.008     8.907
     -.992    -1.008     8.907
     -.992    -1.008     8.907
     -.992    -1.008     8.907
     -.992    -1.008     8.907
    -1.480    -1.008     8.419
    -1.480    -1.008     8.419
    -1.480    -1.008     8.419
    -1.480    -1.008     8.419
    -1.968    -1.008     8.419
    -1.968    -1.008     8.419
    -1.968    -1.008     7.931
    -1.968    -1.008     7.931
    -1.968    -1.008     7.931
    -2.457    -1.008     7.442
    -2.457    -1.008     7.442
    -2.457    -1.008     7.442
    -2.457    -1.008     6.954
    -2.457    -1.008     6.954
    -2.457     -.523     6.466
    -2.457     -.523     6.466
    -2.457     -.523     6.466
    -2.457     -.523     6.466
    -2.457     -.523     5.977
    -1.968     -.523     5.977
    -1.968     -.523     5.977
    -1.968     -.523     5.977
    -1.968     -.523     5.977
    -1.968     -.523     5.489
    -1.480     -.523     5.489
    -1.480     -.523     5.489
    -1.480     -.523     5.489
     -.992     -.523     5.489
     -.992     -.523     5.001
     -.992     -.523     5.001
     -.992     -.523     4.513
     -.504     -.523     4.513
     -.504     -.523     4.513
     -.504     -.523     4.024
     -.504     -.523     4.024
     -.504     -.523     3.536
     -.015     -.523     3.536
     -.015     -.523     3.536
     -.015     -.523     3.536
     -.015     -.523     3.048
     -.015     -.523     3.048
     -.015     -.523     2.560
     -.015     -.523     2.560
     -.015     -.523     2.560
     -.015     -.523     2.560
     -.015     -.523     2.071
     -.015     -.039     2.071
     -.015     -.039     2.071
     -.015     -.039     1.583
     -.015     -.039     1.583
     -.015     -.039     1.583
     -.015     -.039     1.095
     -.015      .446      .606
     -.015      .446      .606
      .473      .446      .118
     -.015      .446      .118
      .473      .446     -.370
      .473      .446     -.858
      .473      .931     -.858
      .473      .931    -1.347
      .473      .931    -1.835
      .473      .931    -2.323
      .473      .931    -2.323
      .473      .931    -2.812
      .473      .931    -3.300
     -.015      .446    -3.788
     -.015      .446    -3.788
     -.015      .931    -4.276
     -.015      .446    -4.765
     -.015      .446    -5.253
     -.504      .446    -5.741
     -.504      .446    -5.741
     -.504      .446    -6.229
     -.504      .446    -6.718
     -.504      .446    -7.206
     -.504      .446    -7.694
     -.504      .446    -7.694
     -.992      .446    -8.183
     -.992      .446    -8.671
     -.504      .931    -8.671
     -.992      .931    -9.159
     -.992      .931    -9.159
     -.504      .931    -9.647
     -.992      .931    -9.647
     -.992      .931    -9.647
     -.992      .931   -10.136
     -.504      .931   -10.136
     -.504     1.415   -10.136
     -.504     1.415   -10.624
     -.504     1.415   -10.624
     -.504     1.415   -11.112
     -.504     1.415   -11.112
     -.504     1.415   -11.112
     -.015     1.415   -11.112
     -.015     1.415   -11.112
     -.015     1.900   -11.601
     -.015     1.900   -11.601
     -.015     1.900   -11.601
      .473     1.900   -11.601
      .473     1.900   -12.089
      .473     1.900   -12.089
      .961     1.900   -12.089
      .961     1.900   -12.089
     1.450     1.900   -12.089
     1.450     1.900   -12.089
     1.450     1.900   -12.577
     1.450     1.900   -12.577
     1.450     1.900   -12.577
     1.938     1.900   -12.577
     1.938     1.900   -12.577
     1.938     1.900   -12.577
     1.938     1.900   -12.577
     1.938     1.415   -12.089
     2.427     1.415   -12.089
     2.427     1.415   -12.089
     2.427     1.415   -12.089
     2.427     1.415   -12.089
     2.427     1.415   -12.089
     2.427     1.415   -11.601
     2.427     1.415   -11.601
     2.427     1.900   -11.601
     2.427     1.900   -11.601
     2.427     1.900   -11.601
     2.915     1.900   -11.601
     2.915     1.900   -11.112
     2.915     1.900   -11.112
     2.915     1.900   -11.112
     3.404     1.900   -11.112
     3.404     2.385   -11.112
     3.404     2.385   -11.112
     3.892     2.385   -11.112
     3.892     2.385   -11.112
     4.381     2.385   -11.112
     4.381     2.385   -11.112
     4.381     2.385   -11.112
     4.869     2.385   -11.112
     4.869     2.385   -11.112
     4.869     2.385   -11.112
     5.358     2.385   -11.112
     5.358     2.385   -11.112
     5.358     2.385   -11.112
     5.846     2.385   -11.112
     5.846     1.900   -11.112
     5.846     1.900   -10.624
     5.846     1.900   -10.624
     5.846     1.900   -10.624
     6.335     1.900   -10.136
     5.846     1.900   -10.136
     6.335     1.900   -10.136
     6.335     1.900    -9.647
     6.335     1.900    -9.647
     6.335     1.900    -9.647
     6.335     1.900    -9.159
     6.335     1.900    -9.159
     5.846     1.900    -9.159
     5.846     1.900    -8.671
     5.846     1.900    -8.671
     5.846     1.900    -8.671
     5.846     1.900    -8.183
     5.846     1.900    -8.183
     5.846     1.415    -8.183
     5.358     1.900    -7.694
     5.358     1.900    -7.694
     5.358     1.900    -7.694
     5.358     1.900    -7.206
     5.358     1.415    -7.206
     5.358     1.415    -7.206
     4.869     1.415    -7.206
     4.869     1.415    -6.718
     4.869     1.415    -6.718
     4.869     1.415    -6.718
     4.869     1.415    -6.718
     4.869     1.415    -6.229
     4.869     1.415    -6.229
     4.869     1.415    -6.229
     4.381     1.415    -6.229
     4.381     1.415    -5.741
     4.381     1.415    -5.741
     4.381     1.415    -5.741
     3.892      .931    -5.741
     3.892      .931    -5.253
     3.892      .931    -5.253
     3.892      .931    -4.765
     3.404      .446    -4.765
     3.404      .446    -4.765
     3.404      .446    -4.276
     2.915      .446    -4.276
     2.915      .446    -4.276
     2.915     -.039    -4.276
     2.915     -.039    -3.788
     2.915     -.039    -3.788
     2.915     -.039    -3.788
     2.427     -.039    -3.788
     2.427     -.039    -3.788
     2.427     -.039    -3.788
     2.427     -.039    -3.300
     2.427     -.039    -3.300
     2.427     -.523    -3.300
     2.427     -.523    -3.300
     1.938     -.523    -3.300
     1.938     -.523    -3.300
     1.938     -.523    -3.300
     1.938     -.523    -3.300
     1.938    -1.008    -3.300
     1.938    -1.008    -2.812
     1.938    -1.008    -2.812
     1.938    -1.008    -2.812
     1.938    -1.008    -2.812
     1.938    -1.008    -2.812
     1.938    -1.008    -2.812
     1.938    -1.008    -2.323
     1.938    -1.008    -2.323
     1.938    -1.493    -2.323
     1.938    -1.493    -1.835
     1.938    -1.493    -1.835
     1.938    -1.493    -1.835
     1.938    -1.493    -1.347
     1.938    -1.493    -1.347
     1.938    -1.493     -.858
     1.938    -1.493     -.858
     1.938    -1.493     -.858
     1.938    -1.493     -.370
     1.450    -1.977     -.370
     1.450    -1.493      .118
     1.450    -1.977      .118
     1.450    -1.977      .606
      .961    -1.977      .606
      .961    -1.977     1.095
      .961    -1.977     1.095
      .473    -1.977     1.583
      .473    -1.977     1.583
      .473    -1.977     2.071
      .473    -1.493     2.560
     -.015    -1.493     2.560
     -.015    -1.493     3.048
     -.015    -1.493     3.536
     -.015    -1.493     3.536
     -.015    -1.493     4.024
     -.015    -1.493     4.024
     -.504    -1.493     4.513
     -.015    -1.493     4.513
     -.504    -1.008     5.001
     -.504    -1.008     5.001
     -.504    -1.008     5.489
     -.504    -1.008     5.489
     -.504    -1.008     5.977
     -.992    -1.008     5.977
     -.992    -1.008     6.466
     -.992    -1.008     6.466
     -.992    -1.008     6.466
    -1.480    -1.008     6.954
    -1.480    -1.008     7.442
