********************************************************************************
           RED INTERUNIVERSITARIA DE INSTRUMENTACION SISIMICA (RIIS)
 AREA DE ESTRUCTURAS, UNIVERSIDAD AUTONOMA METROPOLITANA - UNIDAD AZCAPOTZALCO
         AV. SAN PABLO 180; COL. REYNOSA TAMAULIPAS; MEXICO D.F. 02200.                                                                               
       TELS: 7235859, 7235856; FAX: 7244285; e-mail: esz@hp9000a1.uam.mx
********************************************************************************
ARCHIVO ESTANDAR DE ACELERACION:
VERSION DEL FORMATO                    : 2.0
NOMBRE DEL ARCHIVO                     : RIDI9305.151
FECHA Y HORA DE CREACION               : 15 de mayo 1993 /03:14
REF. CATALOGO ACELEROGRAMAS, SMIS 1996 : REGISTRO No. 14 /PAG. 33


================================================================================
DATOS DE LA ESTACION:
NOMBRE DE LA ESTACION                  : UAM IZTAPALAPA
CLAVE DE LA ESTACION                   : RIDI
LOCALIZACION DE LA ESTACION            : AVENIDA MICHOACAN ESQUINA LA PURISIMA,
                                       : COLONIA VICENTINA, PLANTEL IZTAPALAPA
                                       : FRENTE AL EDIFICIO "O", MEXICO, D.F.
                                       :
                                       :
COORDENADAS DE LA ESTACION             : 19.360 LAT. N 
                                       : 99.060 LONG. W 
ALTITUD (msnm)                         : 2235
TIPO DE SUELO                          : LIMOS Y ARENAS ARCILLOSAS
                                       : 
                                       : 
INSTITUCION RESPONSABLE                : RED INTERUNIVERSITARIA DE
                                       : INSTRUMENTACION SISMICA (RIIS)

================================================================================
DATOS DEL ACELEROGRAFO:
MODELO DEL ACELEROGRAFO                : SSA-2
NUMERO DE SERIE DEL ACELEROGRAFO       : 167
NUMERO DE CANALES                      : 3
ORIENTACION C1-C6 (rumbo;orientacion)  : /N00E/+V/N90E
ORIENTACION C7-C12 (rumbo;orientacion) :
VEL. DE MUESTREO, C1-C6 (muestras/s)   : /200/200/200
VEL. DE MUESTREO, C7-C12 (muestras/s)  :
ESC. COMPLETA DE SENSORES, C1-C6, (g)  : /1.0/1.0/1.0
ESC. COMPLETA DE SENSORES, C7-C12, (g) :
FREC. NAT. DE SENSORES, C1-C6, (Hz)    : /50.0/50.0/50.0
FREC. NAT. DE SENSORES, C7-C12, (Hz)   :
AMORTIGUAMIENTO DE SENSORES, C1-C6     : /0.7/0.7/0.7
AMORTIGUAMIENTO DE SENSORES, C7-C12    :
INTERVALO DE MUESTREO, C1-C6, (s)      : /0.005/0.005/0.005
INTERVALO DE MUESTREO, C7-C12, (s)     :
UMBRAL DE DISPARO, C1-C6, (Gal)        : /2/2/2
UMBRAL DE DISPARO, C7-C12, (Gal)       :
MEMORIA DE PREEVENTO (s)               : 15
TIEMPO DE POSEVENTO (s)                : 60


================================================================================
DATOS DEL SISMO:
FECHA DEL SISMO (GMT)                  : 15/MAY/93
HORA EPICENTRO (GMT)                   : 03:11:56,0
MAGNITUD(ES)                           : /Mb=5.90/Ms=5.90/Mc=6.00
COORDENADAS DEL EPICENTRO              : 16.470 LAT. N 
                                       : 98.720 LONG. W 
PROFUNDIDAD FOCAL (km)                 : 15 
FUENTES DE LOS DATOS EPICENTRALES      : SSN
                                       : INSTITUTO DE GEOFISICA, UNAM

================================================================================
DATOS DE ESTE REGISTRO:
HORA DE LA PRIMERA MUESTRA (GMT)       : 03:14:00.00
EXACTITUD DEL TIEMPO (s)               : 
DURACION DEL REGISTRO (s), C1-C6       : /47.36/47.36/47.36
DURACION DEL REGISTRO (s), C7-C12      :
NUM. TOTAL DE MUESTRAS, C1-C6          : /9472/9472/9472
NUM. TOTAL DE MUESTRAS, C7-C12         :
ACEL. MAX.(Gal), C1-C6                 : /-8.21/4.01/8.57
ACEL. MAX., C1-C6, EN LA MUESTRA       : /4009/4082/4431
ACEL. MAX.(Gal), C7-C12                :
ACEL. MAX., C7-C12, EN LA MUESTRA      :
UNIDADES DE LOS DATOS                  : Gal
FACTOR DE DECIMACION                   : 1
FORMATO DATOS (FORTRAN,10 campos/dato) : 3F10.3


===============================================================================
CALIDAD DEL ACELEROGRAMA:
REGISTRO DIGITAL AL QUE FALTA UNA PARTE AL FINAL, NO TIENE TIEMPO
ABSOLUTO.

===============================================================================
COMENTARIOS:
CADA UNO DE LOS CANALES SE ENCUENTRA AJUSTADO POR LINEA BASE MEDIANTE LA
SUSTRACCION DEL PROMEDIO DE LAS ACELERACIONES EN EL TIEMPO.











MODELO DEL ACELEROGRAFO : SSA-2 (KINEMETRICS)
===============================================================================
DATOS DE ACELERACION:
---------+---------+---------+---------+---------+---------+---------+---------+
   CANAL-1   CANAL-2   CANAL-3   CANAL-4   CANAL-5   CANAL-6   CANAL-7   CANAL-8
      N00E        +V      N90E
---------+---------+---------+---------+---------+---------+---------+---------+
[...]
     5.466     4.014     1.273
     5.466     3.523     1.273
     5.466     3.033     1.760
     5.466     3.523     1.760
     4.977     3.033     1.273
     4.977     3.033     1.760
     4.977     3.033     1.760
     4.489     2.543     2.246
     4.489     2.543     1.760
     4.977     2.543     2.246
     4.489     2.053     2.732
     4.489     2.053     2.732
     4.489     2.053     2.732
     4.489     2.053     3.219
     4.000     1.562     3.219
     4.000     1.562     3.219
     3.512     1.562     3.219
     3.512     1.072     3.705
     3.512     1.072     3.705
     3.512     1.072     3.705
     3.512      .582     3.219
     3.023      .092     3.705
     3.023      .092     3.705
     3.023      .092     3.705
     3.023     -.399     3.705
     3.023     -.399     3.705
     3.023     -.889     3.705
     3.023    -1.379     3.705
     2.535    -1.379     3.705
     2.535    -1.379     3.705
     2.535    -1.869     3.705
     2.535    -1.869     4.191
     2.535    -1.869     3.705
     2.535    -1.869     4.191
     2.046    -1.869     4.191
     2.046    -2.360     4.191
     2.046    -1.869     4.191
     1.558    -2.360     3.705
     1.558    -2.360     3.705
     1.558    -2.850     3.705
     1.558    -2.850     3.705
     1.558    -2.850     3.705
     1.069    -2.850     3.219
     1.069    -2.850     3.705
     1.069    -2.850     3.219
     1.069    -3.340     3.219
     1.069    -3.340     3.219
     1.558    -3.340     3.219
     1.558    -3.340     3.219
     1.558    -2.850     3.219
     1.558    -3.340     3.219
     1.558    -3.340     3.219
     1.558    -2.850     2.732
     1.558    -2.850     2.732
     2.046    -2.850     2.246
     2.046    -2.850     2.732
     2.046    -2.850     2.246
     2.046    -2.850     2.732
     2.535    -2.850     2.732
     2.535    -2.850     2.246
     2.535    -2.850     2.732
     2.535    -2.850     2.732
     3.023    -2.360     2.246
     3.023    -2.850     2.732
     3.023    -2.360     2.732
     3.023    -2.360     2.732
     3.023    -2.360     2.732
     3.512    -2.360     2.732
     3.512    -2.360     2.732
     3.512    -2.360     2.732
     3.512    -2.360     2.732
     3.512    -1.869     2.732
     4.000    -1.869     2.732
     4.000    -1.869     3.219
     4.000    -1.869     2.732
     4.000    -1.869     2.732
     4.000    -1.869     3.219
     4.000    -1.869     2.732
     4.000    -1.869     2.732
     4.000    -1.869     2.732
     4.000    -1.869     2.732
     4.000    -1.869     3.219
     4.000    -1.869     3.219
     4.000    -1.869     3.219
     4.000    -1.869     3.219
     4.000    -1.869     3.219
     4.000    -1.869     3.219
     4.000    -1.869     3.219
     4.000    -1.379     2.732
     4.000    -1.379     3.219
     3.512    -1.379     3.219
     3.512     -.889     3.219
     3.512     -.889     3.219
     3.023     -.889     3.219
     3.023     -.889     3.219
     2.535     -.889     3.705
     2.046     -.399     3.705
     2.046     -.889     3.705
     1.558     -.399     3.705
     1.558      .092     3.705
     1.069      .092     3.705
     1.069      .092     3.705
      .581      .092     3.705
      .581      .092     3.705
      .093      .092     3.705
     -.396      .092     3.705
     -.396      .582     3.705
     -.884      .582     3.219
    -1.372      .582     3.705
    -1.372      .582     3.705
    -1.860      .582     3.705
    -2.349      .582     3.705
    -2.837      .582     3.705
    -2.837      .582     3.705
    -3.325      .582     3.705
    -3.325     1.072     3.705
    -3.813     1.072     3.705
    -3.813      .582     3.705
    -4.302     1.072     3.705
    -4.790     1.072     3.705
    -4.790      .582     3.219
    -5.278      .582     3.219
    -5.278      .582     3.219
    -5.278      .582     2.732
    -5.278      .092     3.219
    -5.767      .092     3.219
    -5.767      .092     2.732
    -5.767      .092     2.732
    -5.767      .092     2.732
    -5.767      .092     2.732
    -5.767      .092     2.732
    -5.767      .092     2.732
    -5.767     -.399     2.246
    -5.767      .092     2.246
    -5.278     -.399     1.760
    -5.767     -.399     1.760
    -5.278      .092     1.273
    -5.278     -.399     1.760
    -5.278     -.399     1.273
    -5.278     -.399     1.273
    -4.790     -.399      .787
    -4.790     -.399      .787
    -4.790     -.399      .787
    -4.302     -.889      .787
    -4.302     -.889      .787
    -4.302     -.889      .301
    -3.813     -.399      .301
    -3.813     -.399      .301
    -2.837     -.399     -.186
    -2.837     -.399     -.186
    -2.837     -.399     -.186
    -2.349     -.399     -.672
    -2.349     -.399    -1.158
    -1.860     -.399     -.672
    -1.860     -.399    -1.158
    -1.860     -.399    -1.158
    -1.372     -.399    -2.131
    -1.372     -.399    -1.645
     -.884     -.399    -2.131
     -.884     -.399    -2.131
     -.884     -.399    -2.617
     -.884     -.399    -2.617
     -.396     -.399    -3.104
     -.396     -.399    -3.104
     -.396     -.889    -3.104
     -.396     -.889    -3.104
      .093     -.399    -3.590
      .093     -.399    -4.076
      .093     -.399    -4.076
      .581     -.399    -4.563
      .581     -.399    -4.563
      .581     -.399    -5.049
      .581     -.889    -5.049
      .581     -.399    -5.535
      .581     -.399    -5.049
      .093     -.399    -5.049
      .581     -.399    -5.049
      .093     -.399    -5.535
      .093     -.399    -5.535
      .093     -.399    -5.535
      .093     -.399    -5.535
      .093     -.399    -5.535
     -.396     -.399    -5.535
     -.396     -.399    -5.535
     -.396     -.399    -5.535
     -.396     -.399    -5.535
     -.396     -.399    -5.535
     -.396     -.889    -5.535
     -.396     -.889    -5.535
     -.396     -.399    -6.022
     -.884     -.399    -5.535
     -.884     -.399    -5.535
     -.884     -.399    -5.535
     -.884     -.399    -5.049
     -.884     -.399    -5.049
    -1.372     -.399    -5.049
    -1.372     -.399    -5.535
    -1.372     -.399    -5.049
    -1.860     -.399    -5.049
    -1.860     -.889    -5.049
    -1.860     -.399    -4.563
    -2.349     -.399    -4.563
    -2.349     -.399    -4.563
    -2.349     -.399    -4.563
    -2.349     -.399    -4.563
    -2.837     -.399    -4.563
    -2.837     -.399    -4.563
    -2.837     -.399    -4.076
    -2.837     -.399    -4.563
    -3.325     -.399    -4.563
    -2.837     -.399    -4.076
    -2.837     -.399    -4.076
    -3.325     -.399    -4.563
    -3.325     -.399    -4.076
    -3.325     -.399    -4.076
    -3.813     -.399    -4.076
    -3.813     -.399    -4.076
    -3.813     -.399    -4.076
    -3.813     -.399    -4.076
    -3.813     -.399    -4.076
    -3.813     -.399    -4.076
    -4.302     -.399    -4.076
    -4.302     -.399    -4.076
    -4.302     -.399    -4.563
    -3.813      .092    -4.076
    -4.302      .092    -4.563
    -3.813      .092    -4.076
    -3.813      .092    -4.563
    -3.813      .092    -4.563
    -3.813      .092    -4.563
    -3.325      .092    -4.563
    -3.325      .092    -5.049
    -3.325      .582    -4.563
    -3.325      .582    -5.049
    -3.325      .092    -4.563
    -3.325      .582    -4.563
    -2.837      .582    -5.049
    -2.837      .582    -5.049
    -2.837     1.072    -5.049
    -2.837     1.072    -5.049
    -2.349     1.072    -5.049
    -2.349     1.072    -4.563
    -2.349     1.072    -4.563
    -2.349     1.072    -4.563
    -1.860     1.072    -4.563
    -1.860     1.072    -4.563
    -1.860     1.072    -4.563
    -1.372     1.072    -4.076
    -1.372     1.072    -4.076
    -1.372     1.072    -4.076
     -.884     1.072    -3.590
     -.884     1.072    -3.590
     -.884     1.072    -3.590
     -.396     1.072    -3.104
     -.396     1.072    -3.104
     -.396     1.072    -3.104
     -.396     1.072    -3.104
      .093     1.562    -3.104
      .093     1.562    -3.104
      .093     1.562    -2.617
      .093     1.562    -2.617
      .581     1.562    -2.131
      .093     1.562    -2.131
      .581     1.562    -2.131
     1.069     1.562    -1.645
     1.069     1.562    -1.645
     1.558     1.562    -1.645
     1.558     1.562    -1.645
     1.558     1.562    -1.158
     2.046     2.053    -1.158
     2.535     2.053     -.672
     2.535     2.053     -.672
     3.023     2.053     -.672
     3.023     2.053     -.186
     3.023     2.053     -.186
     3.023     2.053     -.186
     3.512     2.053     -.186
     3.512     2.053      .301
     3.512     2.543      .301
     3.512     2.053      .787
     4.000     2.543      .787
     4.000     2.053     1.273
     4.000     2.053     1.273
     4.000     2.053     1.273
     4.000     2.053     1.760
     4.489     2.053     1.760
     4.489     2.053     1.760
     4.489     2.053     1.760
     4.489     2.053     1.760
     4.489     2.053     2.246
     4.489     2.053     2.246
     4.489     2.053     2.732
     4.489     1.562     2.732
     4.489     1.562     2.732
     4.489     1.562     2.732
     4.489     1.562     2.732
     4.489     1.072     2.732
     4.489     1.562     3.219
     4.000     1.072     3.705
     4.000     1.072     3.705
     4.000     1.072     3.219
     4.000     1.072     3.219
     4.000     1.072     3.705
     3.512      .582     3.705
     3.512      .582     3.705
     3.512      .582     4.191
     3.512      .582     3.705
     3.512      .092     4.191
     3.512      .092     4.191
     3.512      .092     4.191
     3.023      .092     4.191
     3.023      .092     4.678
     3.023      .092     4.678
     3.023     -.399     4.678
     3.023     -.399     4.678
     2.535     -.399     4.678
     2.535     -.889     5.164
     2.046     -.889     5.164
     2.046     -.889     5.164
     2.046     -.889     5.164
     1.558    -1.379     5.651
     1.558    -1.379     5.651
     1.558    -1.379     5.651
     1.558    -1.379     5.651
     1.069    -1.869     6.138
     1.069    -1.869     6.138
     1.069    -1.869     6.624
     1.069    -1.869     6.624
     1.069    -1.869     6.624
     1.069    -1.869     6.624
     1.069    -1.869     6.624
     1.069    -2.360     7.111
     1.069    -2.850     7.597
     1.069    -2.360     7.597
     1.069    -2.360     7.597
     1.069    -2.360     7.597
     1.069    -2.360     7.597
     1.069    -2.360     8.084
     1.069    -2.360     8.084
     1.069    -2.360     8.084
     1.069    -2.360     8.570
     1.069    -2.360     8.570
     1.069    -2.360     8.084
     1.558    -1.869     8.084
     1.558    -2.360     8.570
     1.558    -1.869     8.570
     2.046    -1.869     8.084
     2.046    -1.869     8.084
     2.535    -1.869     8.084
     2.535    -1.869     8.084
     2.535    -1.869     8.084
     3.023    -1.869     7.597
     3.023    -1.379     8.084
     3.023    -1.379     7.597
     3.512    -1.379     7.597
     3.512     -.889     7.597
     3.512     -.889     7.111
     3.512     -.889     6.624
     3.512     -.889     6.624
     4.000     -.889     6.624
     4.000     -.889     6.138
     4.000     -.889     5.651
     4.000     -.889     5.651
     4.000     -.889     5.651
     4.000     -.889     5.164
     4.000     -.889     5.164
     4.000    -1.379     4.678
     4.000     -.889     4.678
     4.000     -.889     4.678
     4.000     -.889     4.191
     4.000     -.889     4.191
     4.000     -.889     3.705
     4.000     -.889     3.705
     4.000     -.889     3.705
     4.000     -.889     3.219
     4.000     -.889     3.219
     4.000     -.889     2.732
     3.512     -.889     2.246
     3.512     -.889     2.246
     3.512     -.889     2.246
     3.023     -.889     2.246
     3.023     -.889     2.246
     3.023     -.889     2.246
     3.023     -.889     1.760
     2.535     -.889     1.760
     2.535     -.889     1.760
     2.535     -.889     1.760
     2.535     -.889     1.273
     2.535     -.889     1.273
     2.535     -.889     1.273
     2.535     -.889     1.273
     2.535     -.399      .787
     2.535     -.399      .787
     2.535     -.399      .787
     2.046     -.399      .787
     2.046     -.399      .301
     2.046     -.399      .301
     1.558     -.399      .301
     1.558     -.399      .301
     1.558      .092      .301
     1.558      .092     -.186
     1.069      .092     -.186
     1.069     -.399     -.186
     1.069     -.399     -.186
     1.069      .092     -.186
      .581      .092     -.672
      .581      .092     -.672
      .581     -.399    -1.158
      .581      .092    -1.158
      .581      .092    -1.158
      .581      .092    -1.645
      .581     -.399    -1.645
      .581      .092    -1.645
      .093      .092    -1.645
      .093      .092    -1.645
     -.396     -.399    -2.131
     -.396      .092    -2.131
     -.396      .092    -2.131
     -.884      .092    -2.131
     -.884      .092    -2.617
     -.884      .092    -2.617
    -1.372      .092    -2.617
    -1.372      .582    -3.104
    -1.372      .582    -2.617
    -1.860      .582    -3.104
    -1.860      .582    -2.617
    -1.860      .582    -3.104
    -2.349      .582    -3.104
    -2.349      .092    -2.617
    -2.349      .092    -2.617
    -2.349      .582    -3.104
    -2.837      .582    -2.617
    -2.837      .582    -2.617
    -3.325      .582    -2.617
    -3.325      .582    -2.617
    -3.813      .582    -2.617
    -3.813      .582    -2.617
    -3.813      .582    -2.617
    -4.302      .582    -2.617
    -4.302      .582    -2.617
    -4.302      .582    -2.617
    -4.790      .582    -3.104
    -4.790      .092    -2.617
    -4.790      .092    -2.617
    -4.790      .092    -2.617
    -4.790      .092    -2.131
    -5.278     -.399    -2.131
    -5.278     -.399    -2.131
    -5.278     -.399    -2.131
    -5.278     -.399    -2.131
    -5.278     -.399    -2.131
    -5.278     -.399    -2.131
    -4.790     -.399    -1.645
    -5.278     -.399    -2.131
    -5.278     -.399    -2.131
    -5.278     -.399    -1.645
    -4.790     -.399    -1.645
    -4.790     -.399    -1.645
    -4.790     -.399    -1.645
    -4.790     -.399    -1.645
    -4.790     -.399    -2.131
    -4.790     -.889    -2.131
    -4.302     -.399    -2.131
    -4.302     -.399    -1.645
    -4.302     -.399    -1.645
    -3.813     -.399    -1.645
    -3.813      .092    -2.131
    -3.325      .092    -2.131
    -3.325     -.399    -2.131
    -2.837     -.399    -2.131
    -2.837     -.399    -2.131
    -2.349      .092    -2.131
    -2.349      .092    -2.131
    -1.860      .092    -2.131
    -1.860      .582    -2.131
    -1.372      .092    -2.617
    -1.372      .092    -2.617
    -1.372      .582    -2.617
     -.884      .092    -3.104
     -.884      .582    -3.104
     -.884      .582    -3.104
     -.396      .582    -3.590
     -.396      .582    -4.076
      .093      .092    -4.076
      .093      .092    -4.076
      .093      .092    -4.076
      .581      .092    -4.563
