********************************************************************************
           RED INTERUNIVERSITARIA DE INSTRUMENTACION SISIMICA (RIIS)
 AREA DE ESTRUCTURAS, UNIVERSIDAD AUTONOMA METROPOLITANA - UNIDAD AZCAPOTZALCO
         AV. SAN PABLO 180; COL. REYNOSA TAMAULIPAS; MEXICO D.F. 02200.                                                                               
       TELS: 7235859, 7235856; FAX: 7244285; e-mail: esz@hp9000a1.uam.mx
********************************************************************************
ARCHIVO ESTANDAR DE ACELERACION:
VERSION DEL FORMATO                    : 2.0
NOMBRE DEL ARCHIVO                     : RIDI9509.141
FECHA Y HORA DE CREACION               : 14 de septiembre 1995 /14:05
REF. CATALOGO ACELEROGRAMAS, SMIS 1996 : REGISTRO No. 1505 /PAG. 158


================================================================================
DATOS DE LA ESTACION:
NOMBRE DE LA ESTACION                  : UAM IZTAPALAPA
CLAVE DE LA ESTACION                   : RIDI
LOCALIZACION DE LA ESTACION            : AVENIDA MICHOACAN ESQUINA LA PURISIMA,
                                       : COLONIA VICENTINA, PLANTEL IZTAPALAPA
                                       : FRENTE AL EDIFICIO "O", MEXICO, D.F.
                                       :
                                       :
COORDENADAS DE LA ESTACION             : 19.360 LAT. N 
                                       : 99.060 LONG. W 
ALTITUD (msnm)                         : 2235
TIPO DE SUELO                          : LIMOS Y ARENAS ARCILLOSAS
                                       : 
                                       : 
INSTITUCION RESPONSABLE                : RED INTERUNIVERSITARIA DE 
                                       : INSTRUMENTACION SISMICA (RIIS)

================================================================================
DATOS DEL ACELEROGRAFO:
MODELO DEL ACELEROGRAFO                : SSA-2
NUMERO DE SERIE DEL ACELEROGRAFO       : 1009
NUMERO DE CANALES                      : 3
ORIENTACION C1-C6 (rumbo;orientacion)  : /N00E/+V/N90E
ORIENTACION C7-C12 (rumbo;orientacion) :
VEL. DE MUESTREO, C1-C6 (muestras/s)   : /200/200/200
VEL. DE MUESTREO, C7-C12 (muestras/s)  :
ESC. COMPLETA DE SENSORES, C1-C6, (g)  : /1.0/1.0/1.0
ESC. COMPLETA DE SENSORES, C7-C12, (g) :
FREC. NAT. DE SENSORES, C1-C6, (Hz)    : /50.0/50.0/50.0
FREC. NAT. DE SENSORES, C7-C12, (Hz)   :
AMORTIGUAMIENTO DE SENSORES, C1-C6     : /0.7/0.7/0.7
AMORTIGUAMIENTO DE SENSORES, C7-C12    :
INTERVALO DE MUESTREO, C1-C6, (s)      : /0.005/0.005/0.005
INTERVALO DE MUESTREO, C7-C12, (s)     :
UMBRAL DE DISPARO, C1-C6, (Gal)        : /3/3/3
UMBRAL DE DISPARO, C7-C12, (Gal)       :
MEMORIA DE PREEVENTO (s)               : 15
TIEMPO DE POSEVENTO (s)                : 60


================================================================================
DATOS DEL SISMO:
FECHA DEL SISMO (GMT)                  : 14/SEP/95
HORA EPICENTRO (GMT)                   : 14:04:30,5
MAGNITUD(ES)                           : /Mb=6.40/Ms=7.20/Mc=7.30
COORDENADAS DEL EPICENTRO              : 16.310 LAT. N 
                                       : 98.880 LONG. W 
PROFUNDIDAD FOCAL (km)                 : 22 
FUENTES DE LOS DATOS EPICENTRALES      : SSN
                                       : INSTITUTO DE GEOFISICA, UNAM

================================================================================
DATOS DE ESTE REGISTRO:
HORA DE LA PRIMERA MUESTRA (GMT)       : 14:05:00.00
EXACTITUD DEL TIEMPO (s)               : 
DURACION DEL REGISTRO (s), C1-C6       : /58.88/58.88/58.88
DURACION DEL REGISTRO (s), C7-C12      :
NUM. TOTAL DE MUESTRAS, C1-C6          : /11776/11776/11776
NUM. TOTAL DE MUESTRAS, C7-C12         :
ACEL. MAX.(Gal), C1-C6                 : /24.62/22.29/32.77
ACEL. MAX., C1-C6, EN LA MUESTRA       : /10837/10806/9419
ACEL. MAX.(Gal), C7-C12                :
ACEL. MAX., C7-C12, EN LA MUESTRA      :
UNIDADES DE LOS DATOS                  : Gal 
FACTOR DE DECIMACION                   : 1
FORMATO DATOS (FORTRAN,10 campos/dato) : 3F10.3


===============================================================================
CALIDAD DEL ACELEROGRAMA:
REGISTRO INCOMPLETO EN SU PARTE INTENSA, O CON MUCHOS GLITCHES, O
PELICULA ATORADA, O DUDOSO POR ALGUNA FALLA DEL APARATO. EN GENERAL UN
ACELEROGRAMA NO CONFIABLE QUE SOLO PERMITE TENER UNA IDEA APROXIMADA
===============================================================================
COMENTARIOS:
CADA UNO DE LOS CANALES SE ENCUENTRA AJUSTADO POR LINEA BASE MEDIANTE LA
SUSTRACCION DEL PROMEDIO DE LAS ACELERACIONES EN EL TIEMPO.











MODELO DEL ACELEROGRAFO : SSA-2 (KINEMETRICS)
===============================================================================
DATOS DE ACELERACION:
---------+---------+---------+---------+---------+---------+---------+---------+
   CANAL-1   CANAL-2   CANAL-3   CANAL-4   CANAL-5   CANAL-6   CANAL-7   CANAL-8
      N00E        +V      N90E
---------+---------+---------+---------+---------+---------+---------+---------+
[...]
     3.615     2.422     3.954
     4.104     2.422     4.442
     4.592     2.422     4.442
     5.081     2.422     4.931
     5.569     2.907     5.419
     6.058     2.907     5.907
     6.546     2.907     6.396
     7.035     2.907     6.884
     7.523     2.907     7.372
     8.012     2.907     7.372
     8.500     2.907     7.860
     8.500     2.907     8.349
     8.989     2.907     8.837
     9.477     3.392     9.325
     9.966     3.392     9.814
     9.966     3.392    10.302
    10.455     3.392    10.791
    10.455     3.392    10.791
    10.943     3.876    11.280
    10.943     3.876    11.768
    11.432     3.876    11.768
    11.432     3.876    12.257
    11.920     3.876    12.745
    11.920     3.876    13.234
    11.920     3.876    13.234
    11.920     4.361    13.234
    11.920     4.361    13.722
    12.409     4.361    13.722
    11.920     4.361    14.211
    11.920     3.876    14.211
    11.920     3.876    14.211
    11.920     3.876    14.211
    11.920     3.392    14.211
    11.432     3.392    14.211
    11.432     3.392    14.211
    10.943     2.907    14.211
    10.943     2.907    14.211
    10.943     2.907    13.722
    10.455     2.422    13.722
    10.455     2.422    13.234
     9.966     1.938    12.745
     9.966     1.938    12.745
     9.477     1.938    12.257
     8.989     1.453    11.768
     8.500     1.453    11.280
     8.012     1.453    10.791
     7.523     1.453    10.302
     7.523      .968     9.814
     6.546      .968     9.325
     6.058      .968     8.837
     5.569      .968     8.349
     5.081      .968     7.372
     4.592      .968     6.884
     4.104      .968     6.396
     3.615      .968     5.907
     3.127      .484     4.931
     2.638      .968     4.442
     2.638      .484     3.466
     2.638      .484     2.978
     2.638      .484     2.489
     2.150      .484     2.001
     2.150     -.001     1.024
     2.150     -.001      .536
     2.150     -.001     -.440
     2.150     -.001     -.929
     2.150     -.485    -1.417
     2.150     -.485    -2.394
     2.150     -.485    -2.882
     1.661     -.970    -3.370
     1.661     -.970    -4.347
     1.661    -1.454    -4.835
     1.661    -1.454    -5.323
     1.661    -1.938    -5.811
     1.661    -1.938    -6.300
     1.661    -2.423    -6.788
     2.150    -2.423    -7.276
     2.150    -2.907    -7.765
     2.150    -2.907    -7.765
     2.638    -3.392    -7.765
     2.638    -3.392    -8.253
     2.638    -3.392    -8.253
     2.638    -3.876    -8.741
     2.638    -3.876    -8.741
     3.127    -3.876    -9.229
     3.127    -3.876    -9.229
     3.127    -3.876    -9.718
     3.127    -3.876    -9.718
     3.127    -3.876   -10.206
     3.127    -3.392   -10.206
     3.127    -3.392   -10.206
     3.127    -3.392   -10.206
     2.638    -3.392   -10.206
     2.638    -3.392   -10.206
     2.638    -2.907   -10.206
     2.638    -2.907   -10.206
     3.127    -2.907   -10.206
     3.127    -2.907   -10.206
     3.127    -2.423    -9.718
     3.127    -2.423    -9.718
     3.127    -2.423    -9.718
     3.127    -1.938    -9.229
     3.127    -1.938    -9.229
     3.127    -1.938    -9.229
     3.127    -1.454    -9.229
     2.638    -1.454    -9.229
     2.638     -.970    -9.229
     2.638     -.970    -8.741
     2.638     -.970    -8.741
     2.638     -.485    -8.741
     2.150     -.485    -8.741
     1.661     -.485    -8.741
     1.661     -.001    -8.741
     1.173     -.001    -8.741
     1.173     -.001    -8.741
      .684     -.001    -8.741
      .684     -.001    -8.741
      .684     -.001    -8.741
      .196     -.001    -8.741
     -.293     -.001    -8.741
     -.781     -.001    -9.229
    -1.269     -.001    -9.229
    -1.269     -.001    -9.229
    -1.758     -.001    -9.229
    -2.246     -.001    -9.229
    -2.734     -.001    -9.229
    -3.222     -.001    -9.229
    -3.222     -.001    -9.718
    -3.711      .484    -9.718
    -4.199      .484   -10.206
    -4.687      .484   -10.206
    -5.175      .484   -10.206
    -5.664      .484   -10.206
    -5.664      .484   -10.206
    -6.152      .484   -10.694
    -6.640      .484   -10.694
    -6.640     -.001   -11.183
    -7.129     -.001   -11.183
    -7.129      .484   -11.183
    -7.129      .484   -11.671
    -7.617      .484   -11.671
    -7.617     -.001   -12.159
    -7.617     -.001   -12.159
    -7.617     -.001   -12.159
    -7.617     -.001   -12.647
    -7.617     -.001   -12.647
    -8.105     -.001   -12.647
    -8.105     -.001   -13.136
    -8.105     -.001   -13.136
    -8.105     -.001   -13.624
    -8.105     -.001   -13.624
    -8.105     -.001   -14.112
    -7.617     -.001   -14.112
    -7.617     -.485   -14.601
    -7.617     -.485   -14.601
    -7.129     -.485   -15.089
    -7.129     -.970   -15.577
    -6.640     -.970   -15.577
    -6.640     -.970   -16.065
    -6.152     -.970   -16.554
    -6.152     -.970   -17.042
    -5.664    -1.454   -17.042
    -5.175    -1.454   -17.530
    -5.175    -1.454   -18.019
    -4.687    -1.454   -18.019
    -4.687    -1.454   -18.995
    -4.687    -1.454   -19.483
    -4.687    -1.454   -19.972
    -4.687    -1.454   -19.972
    -4.199    -1.454   -20.948
    -4.199    -1.938   -21.436
    -4.199    -1.938   -21.436
    -3.711    -1.938   -21.925
    -3.711    -1.938   -22.413
    -3.711    -1.938   -22.901
    -3.711    -1.938   -22.901
    -3.222    -1.938   -23.390
    -3.222    -1.938   -23.878
    -3.222    -1.938   -24.366
    -3.222    -1.938   -24.854
    -3.222    -1.938   -25.343
    -3.222    -1.938   -25.343
    -3.222    -1.938   -25.831
    -3.222    -1.938   -25.831
    -3.222    -1.454   -25.831
    -3.222    -1.454   -26.319
    -3.222    -1.454   -26.319
    -3.222    -1.454   -26.808
    -3.711     -.970   -26.808
    -3.711     -.970   -27.296
    -3.711     -.970   -27.296
    -3.711     -.970   -27.296
    -4.199     -.970   -27.296
    -4.199     -.970   -27.784
    -4.199     -.485   -27.784
    -4.687     -.485   -27.784
    -4.687     -.485   -27.784
    -4.687     -.485   -27.784
    -4.687     -.001   -27.784
    -4.687     -.001   -27.784
    -4.687     -.001   -27.784
    -4.687     -.001   -27.784
    -4.687     -.001   -27.784
    -4.687      .484   -27.296
    -5.175      .484   -27.296
    -5.175      .484   -26.808
    -5.175      .484   -26.808
    -5.175      .968   -26.319
    -5.175      .968   -26.319
    -5.175      .968   -25.831
    -5.175      .968   -25.343
    -5.175      .968   -24.854
    -5.175      .968   -24.366
    -5.175      .968   -23.878
    -5.175      .968   -22.901
    -5.175      .968   -22.413
    -5.175      .968   -21.436
    -5.175      .968   -20.948
    -4.687      .968   -19.972
    -4.687      .968   -19.483
    -4.687      .968   -18.507
    -4.687      .968   -17.530
    -4.199      .968   -16.554
    -4.199      .968   -16.065
    -4.199      .968   -15.089
    -3.711      .968   -14.112
    -3.711      .968   -13.136
    -3.222      .968   -12.159
    -3.222      .968   -11.671
    -3.222      .968   -10.694
    -3.222      .484   -10.206
    -3.222      .484    -9.229
    -3.222      .484    -8.253
    -3.222      .484    -7.765
    -2.734      .484    -7.276
    -2.734      .484    -6.300
    -2.734      .484    -5.811
    -2.734     -.001    -5.323
    -2.734     -.001    -4.347
    -2.246     -.001    -3.858
    -2.246     -.001    -3.370
    -2.246     -.001    -2.882
    -2.246     -.001    -2.394
    -2.734     -.001    -1.905
    -2.734     -.001    -1.417
    -2.734      .484     -.929
    -2.734      .484     -.440
    -2.734      .484      .048
    -2.734      .484      .536
    -3.222      .484     1.024
    -3.222      .484     1.513
    -3.222      .484     2.001
    -3.222      .484     2.001
    -3.222      .968     2.489
    -2.734      .968     2.978
    -2.734      .968     2.978
    -2.734      .968     3.466
    -2.734      .968     3.466
    -2.734      .968     3.954
    -2.734      .968     3.954
    -2.246      .968     3.954
    -2.246      .968     4.442
    -2.246      .968     4.442
    -2.246      .968     4.442
    -2.246      .968     4.931
    -2.246      .968     4.931
    -2.246      .968     4.931
    -2.246      .968     5.419
    -2.246      .968     5.419
    -2.246      .484     5.419
    -2.246      .484     5.419
    -2.246      .484     5.907
    -2.246      .484     5.907
    -2.246     -.001     5.907
    -2.246     -.001     6.396
    -2.246     -.001     6.396
    -2.246     -.001     6.884
    -1.758     -.001     6.884
    -1.758     -.001     7.372
    -1.758     -.485     7.372
    -1.758     -.485     7.860
    -1.758     -.485     8.349
    -1.758     -.485     8.349
    -1.758     -.485     9.325
    -1.758     -.485     9.814
    -1.758     -.485     9.814
    -1.758     -.970    10.302
    -1.758     -.970    10.791
    -2.246     -.970    11.280
    -2.246     -.970    12.257
    -2.246    -1.454    12.257
    -2.246    -1.454    13.234
    -2.246    -1.454    13.722
    -2.734    -1.938    14.211
    -2.734    -1.938    14.699
    -2.734    -1.938    15.676
    -2.734    -1.938    16.165
    -2.734    -2.423    16.653
    -2.734    -2.423    17.142
    -2.734    -2.423    17.630
    -3.222    -2.423    18.119
    -3.222    -2.423    19.096
    -3.222    -2.423    19.584
    -3.222    -2.423    20.561
    -3.711    -2.423    21.050
    -3.711    -2.423    21.538
    -4.199    -2.423    22.027
    -4.199    -2.907    23.004
    -4.199    -2.907    23.493
    -4.687    -2.907    23.981
    -4.199    -2.907    24.469
    -4.687    -2.907    24.958
    -4.199    -2.907    25.447
    -4.199    -2.907    25.935
    -4.199    -2.907    26.424
    -4.199    -2.907    26.912
    -4.199    -2.907    27.401
    -4.199    -2.907    27.401
    -4.199    -2.907    27.889
    -3.711    -2.907    28.378
    -3.711    -2.907    28.866
    -3.711    -2.907    28.866
    -3.711    -2.907    29.355
    -3.711    -2.907    29.843
    -3.711    -2.907    29.843
    -3.711    -2.423    30.332
    -3.711    -2.907    30.820
    -3.711    -2.423    30.820
    -3.711    -2.907    30.820
    -3.711    -2.423    31.309
    -3.711    -2.907    31.309
    -3.711    -2.907    31.309
    -3.222    -2.907    31.797
    -3.711    -2.907    31.797
    -3.711    -2.907    31.797
    -3.222    -2.907    32.286
    -3.222    -2.907    32.286
    -3.222    -2.907    32.286
    -2.734    -2.907    32.774
    -2.734    -2.907    32.774
    -2.734    -2.907    32.774
    -2.734    -2.907    32.774
    -2.734    -2.907    32.774
    -2.734    -2.907    32.774
    -2.734    -2.907    32.774
    -2.246    -2.907    32.774
    -2.246    -2.907    32.774
    -2.246    -2.907    32.774
    -2.246    -2.907    32.774
    -2.246    -2.907    32.774
    -1.758    -2.907    32.774
    -1.758    -2.907    32.774
    -1.758    -2.907    32.774
    -1.269    -2.907    32.774
    -1.269    -2.907    32.774
     -.781    -2.907    32.286
     -.781    -2.423    32.286
     -.293    -2.423    31.797
      .196    -2.423    31.797
      .196    -2.423    31.797
      .684    -1.938    31.309
     1.173    -1.938    31.309
     1.173    -1.938    30.820
     1.661    -1.938    30.820
     1.661    -1.454    30.332
     2.150    -1.454    30.332
     2.150    -1.454    29.843
     2.638    -1.454    29.355
     2.638     -.970    28.866
     3.127     -.970    28.866
     3.127     -.970    27.889
     3.615     -.970    27.401
     3.615     -.970    26.912
     4.104     -.970    26.424
     4.104     -.970    25.447
     4.592     -.970    24.958
     5.081     -.485    23.981
     5.081     -.485    23.004
     5.569     -.485    22.027
     5.569     -.485    21.050
     6.058     -.001    20.561
     6.058     -.001    19.096
     6.058     -.001    18.607
     6.546     -.001    17.630
     6.546     -.001    16.165
     6.546     -.001    15.188
     6.546      .484    14.211
     7.035      .484    13.234
     7.035      .484    12.257
     7.035      .484    11.280
     7.523      .484     9.814
     7.523      .484     8.837
     7.523      .484     7.372
     8.012      .484     6.396
     8.012     -.001     5.419
     8.500     -.001     3.954
     8.500     -.001     2.978
     8.500     -.001     1.513
     8.500     -.001      .536
     8.500     -.001     -.929
     8.500     -.001    -1.905
     8.500     -.485    -2.882
     8.500     -.485    -3.858
     8.012     -.485    -4.835
     8.012     -.485    -5.811
     8.012     -.970    -6.788
     7.523     -.970    -7.276
     7.523     -.970    -8.253
     7.035     -.970    -9.229
     6.546     -.970    -9.718
     6.546    -1.454   -10.206
     6.546    -1.454   -11.183
     6.058    -1.454   -11.671
     6.058    -1.454   -12.159
     5.569    -1.454   -12.647
     5.081    -1.454   -13.136
     5.081    -1.454   -13.624
     4.592    -1.454   -13.624
     4.592    -1.454   -14.112
     4.104    -1.454   -14.112
     3.615    -1.454   -14.601
     3.127    -1.454   -15.089
     2.638    -1.454   -15.089
     2.638    -1.454   -15.089
     2.150    -1.454   -15.089
     2.150    -1.454   -15.089
     1.661    -1.454   -15.089
     1.661    -1.454   -15.577
     1.661    -1.454   -15.089
     1.173    -1.454   -15.089
     1.173    -1.454   -15.089
     1.173     -.970   -15.089
     1.173     -.970   -15.089
     1.173     -.970   -15.089
     1.173     -.970   -15.089
     1.173     -.970   -15.089
     1.173     -.970   -15.089
     1.173     -.970   -15.089
     1.173     -.970   -15.089
     1.173     -.970   -15.089
     1.173     -.485   -15.089
     1.173     -.485   -15.089
     1.173     -.485   -15.089
     1.661     -.485   -15.089
     1.661     -.485   -15.089
     1.661     -.485   -15.577
     1.661     -.001   -15.577
     1.661     -.001   -15.577
     2.150     -.001   -15.577
     2.150     -.001   -16.065
     2.638     -.001   -16.065
     2.638      .484   -16.065
     3.127      .484   -16.554
     3.127      .484   -16.554
     3.615      .484   -17.042
     3.615      .484   -17.042
     4.104      .968   -17.042
     4.104      .968   -17.530
     4.592      .968   -18.019
     5.081     1.453   -18.019
     5.081     1.453   -18.019
     5.569     1.453   -18.507
     5.569     1.453   -18.507
     5.569     1.938   -18.995
     5.569     1.938   -19.483
     5.569     1.938   -19.483
     5.569     1.938   -19.972
     5.569     2.422   -19.972
     6.058     2.422   -19.972
     6.058     2.422   -19.972
     6.058     2.422   -20.460
     6.546     2.422   -20.460
     6.546     2.907   -20.460
     6.546     2.907   -20.948
     6.058     2.907   -20.948
     6.058     2.907   -20.948
     6.058     2.907   -21.436
     6.058     3.392   -21.436
     6.058     3.392   -21.436
     6.058     3.392   -21.436
     5.569     3.876   -21.925
     6.058     3.876   -21.925
     6.058     3.876   -21.925
