********************************************************************************
           RED INTERUNIVERSITARIA DE INSTRUMENTACION SISIMICA (RIIS)
 AREA DE ESTRUCTURAS, UNIVERSIDAD AUTONOMA METROPOLITANA - UNIDAD AZCAPOTZALCO
         AV. SAN PABLO 180; COL. REYNOSA TAMAULIPAS; MEXICO D.F. 02200.                                                                               
       TELS: 7235859, 7235856; FAX: 7244285; e-mail: jac@hp9000a1.uam.mx
********************************************************************************
ARCHIVO ESTANDAR DE ACELERACION:
VERSION DEL FORMATO                    : 2.0
NOMBRE DEL ARCHIVO                     : RIDI9701.111
FECHA Y HORA DE CREACION               : 11 de enero 1997 /15:39
REF. CATALOGO ACELEROGRAMAS, SMIS 1996 : REGISTRO No.      /PAG.


================================================================================
DATOS DE LA ESTACION:
NOMBRE DE LA ESTACION                  : UAM IZTAPALAPA
CLAVE DE LA ESTACION                   : RIDI
LOCALIZACION DE LA ESTACION            : AVENIDA MICHOACAN ESQUINA LA PURISIMA,
                                       : COLONIA VICENTINA, PLANTEL IZTAPALAPA
                                       : FRENTE AL EDIFICIO "O", MEXICO, D.F.
                                       :
                                       :
COORDENADAS DE LA ESTACION             : 19.3600 LAT. N 
                                       : 99.0600 LONG. W 
ALTITUD (msnm)                         : 2235
TIPO DE SUELO                          : LIMOS Y ARENAS ARCILLOSAS
                                       : 
                                       : 
INSTITUCION RESPONSABLE                : RED INTERUNIVERSITARIA DE
                                       : INSTRUMENTACION SISMICA (RIIS)

================================================================================
DATOS DEL ACELEROGRAFO:
MODELO DEL ACELEROGRAFO                : SSA-2
NUMERO DE SERIE DEL ACELEROGRAFO       : 1009
NUMERO DE CANALES                      : 3
ORIENTACION C1-C6 (rumbo;orientacion)  : /N00E/+V/N90E
ORIENTACION C7-C12 (rumbo;orientacion) :
VEL. DE MUESTREO, C1-C6 (muestras/s)   : /200/200/200
VEL. DE MUESTREO, C7-C12 (muestras/s)  :
ESC. COMPLETA DE SENSORES, C1-C6, (g)  : /+1.0/+1.0/+1.0
ESC. COMPLETA DE SENSORES, C7-C12, (g) :
FREC. NAT. DE SENSORES, C1-C6, (Hz)    : /50.0/50.0/50.0
FREC. NAT. DE SENSORES, C7-C12, (Hz)   :
AMORTIGUAMIENTO DE SENSORES, C1-C6     : /0.7/0.7/0.7
AMORTIGUAMIENTO DE SENSORES, C7-C12    :
INTERVALO DE MUESTREO, C1-C6, (s)      : /0.005/0.005/0.005
INTERVALO DE MUESTREO, C7-C12, (s)     :
UMBRAL DE DISPARO, C1-C6, (Gal)        : /3/3/3
UMBRAL DE DISPARO, C7-C12, (Gal)       :
MEMORIA DE PREEVENTO (s)               : 15.36
TIEMPO DE POSEVENTO (s)                : 60


================================================================================
DATOS DEL SISMO:
FECHA DEL SISMO (GMT)                  : 11/ENE/97
HORA EPICENTRO (GMT)                   : 20:28
MAGNITUD(ES)                           : /Ms=6.90/Mw=7.10
COORDENADAS DEL EPICENTRO              : 18.220 LAT. N 
                                       : 102.76 LONG. W 
PROFUNDIDAD FOCAL (km)                 : 33 
FUENTE DE LOS DATOS EPICENTRALES       : USGS
                                       :

================================================================================
DATOS DE ESTE REGISTRO:
HORA DE LA PRIMERA MUESTRA (GMT)       : 20:28:00.00
EXACTITUD DEL TIEMPO (s)               : CARECA DE TIEMPO ABSOLUTO
DURACION DEL REGISTRO (s), C1-C6       : /188.16/188.16/188.16
DURACION DEL REGISTRO (s), C7-C12      :
NUM. TOTAL DE MUESTRAS, C1-C6          : /37632/37632/37632
NUM. TOTAL DE MUESTRAS, C7-C12         :
ACEL. MAX. (Gal), C1-C6                : /11.13/3.48/-17.16
ACEL. MAX., C1-C6, EN LA MUESTRA       : /12950/10289/12663
ACEL. MAX. (Gal), C7-C12               :
ACEL. MAX., C7-C12, EN LA MUESTRA      :
UNIDADES DE LOS DATOS                  : Gal 
FACTOR DE DECIMACION                   : 1
FORMATO DATOS (FORTRAN,10 campos/dato) : 3F10.2


================================================================================
CALIDAD DEL ACELEROGRAMA:
REGISTRO DIGITAL COMPLETO, CARECE DE TIEMPO ABSOLUTO.


================================================================================
COMENTARIOS:
CADA UNO DE LOS CANALES SE ENCUENTRA AJUSTADO POR LINEA BASE MEDIANTE LA
SUSTRACCION DEL PROMEDIO DE LAS ACELERACIONES EN EL TIEMPO.












================================================================================
DATOS DE ACELERACION:
---------+---------+---------+---------+---------+---------+---------+---------+
   CANAL-1   CANAL-2   CANAL-3   CANAL-4   CANAL-5   CANAL-6   CANAL-7   CANAL-8
      N00E        +V      N90E
---------+---------+---------+---------+---------+---------+---------+---------+
[...]
      1.85       .58     -8.38
      1.85       .09     -8.38
      1.85       .09     -8.87
      1.85       .58     -8.87
      2.34       .09     -8.87
      2.34       .09     -9.35
      2.34       .09     -9.35
      2.34       .09     -9.35
      2.34       .09     -9.84
      2.34       .09     -9.84
      2.34       .09     -9.84
      2.34       .09     -9.84
      2.34       .09     -9.84
      2.34       .09    -10.33
      2.34       .09    -10.33
      2.83       .09    -10.33
      2.83       .09    -10.33
      2.83       .09    -10.33
      2.83       .09    -10.33
      2.83       .09    -10.82
      2.83       .09    -10.82
      2.83       .09    -10.82
      2.83       .09    -10.82
      2.34       .09    -10.82
      2.34       .09    -10.82
      2.34       .09    -11.31
      2.34       .09    -11.31
      2.34       .09    -11.31
      2.34       .09    -11.31
      2.34       .09    -11.31
      2.34       .09    -11.31
      2.34       .09    -11.31
      2.34       .09    -11.79
      2.34       .09    -11.79
      2.34       .09    -11.79
      2.83       .09    -11.79
      2.83       .09    -11.79
      2.83       .09    -11.79
      2.83       .09    -11.79
      2.83       .09    -11.79
      2.83       .09    -12.28
      2.83       .09    -12.28
      2.83       .09    -12.28
      2.83       .09    -12.28
      2.83       .09    -12.28
      2.83       .09    -12.28
      2.83       .09    -12.28
      3.32       .09    -12.28
      3.32       .09    -12.28
      3.32       .09    -12.28
      3.32       .58    -12.28
      3.32       .58    -12.28
      3.80       .58    -12.28
      3.80       .58    -12.28
      3.80       .58    -11.79
      3.80       .58    -11.79
      3.80       .58    -11.79
      3.80       .58    -11.79
      3.80       .58    -11.79
      3.80       .58    -11.31
      4.29       .58    -11.31
      4.29       .58    -11.31
      4.29       .58    -10.82
      4.29       .58    -10.82
      4.29       .58    -10.82
      4.29       .58    -10.33
      4.29       .58    -10.33
      4.29       .58     -9.84
      4.29       .58     -9.84
      4.29       .58     -9.35
      4.29       .58     -9.35
      4.29       .58     -8.87
      4.29       .58     -8.87
      4.29       .58     -8.38
      4.29       .58     -7.89
      4.29       .58     -7.89
      4.29       .09     -7.40
      4.29       .09     -6.91
      4.29       .09     -6.91
      4.29       .09     -6.43
      4.29       .09     -6.43
      4.29       .09     -5.94
      3.80       .09     -5.45
      3.80       .09     -5.45
      3.80       .09     -4.96
      3.80       .09     -4.47
      3.80       .09     -4.47
      3.80       .09     -3.99
      3.32       .58     -3.99
      3.32       .58     -3.50
      3.32       .58     -3.01
      3.32       .58     -3.01
      3.32       .58     -2.52
      2.83       .58     -2.03
      2.83       .58     -2.03
      2.83       .58     -1.54
      2.83       .58     -1.54
      2.83       .58     -1.06
      2.34       .58     -1.06
      2.34       .58      -.57
      2.34       .58      -.08
      2.34       .58      -.08
      1.85       .58       .41
      1.85      1.06       .41
      1.85      1.06       .90
      1.85      1.06       .90
      1.36      1.06      1.39
      1.36      1.06      1.39
      1.36      1.06      1.87
      1.36      1.06      1.87
      1.36      1.06      2.36
       .87      1.06      2.36
       .87      1.06      2.36
       .87      1.06      2.85
       .87      1.06      2.85
       .87      1.06      2.85
       .87      1.06      3.34
       .39      1.06      3.34
       .39      1.06      3.83
       .39      1.06      3.83
       .39      1.06      3.83
       .39      1.06      4.32
       .39      1.06      4.32
       .39      1.06      4.80
       .39      1.06      4.80
      -.10      1.06      4.80
      -.10      1.06      5.29
      -.10      1.06      5.29
      -.10      1.06      5.29
      -.10      1.06      5.78
      -.10      1.06      5.78
      -.10      1.06      5.78
      -.59      1.06      5.78
      -.59      1.06      6.27
      -.59      1.06      6.27
      -.59       .58      6.27
      -.59      1.06      6.27
     -1.08      1.06      6.76
     -1.08       .58      6.76
     -1.08       .58      6.76
     -1.08       .58      6.76
     -1.08       .58      6.76
     -1.08       .58      6.76
     -1.08       .58      7.25
     -1.57       .58      7.25
     -1.57       .58      7.25
     -1.57       .58      7.73
     -1.57       .58      7.73
     -2.06       .58      7.73
     -2.06       .58      8.22
     -2.06       .58      8.22
     -2.06       .58      8.71
     -2.54       .58      8.71
     -2.54       .58      8.71
     -2.54       .58      8.71
     -2.54       .58      9.20
     -2.54       .58      9.20
     -3.03       .58      9.69
     -3.03       .58      9.69
     -3.03       .58     10.17
     -3.03       .58     10.17
     -3.03      1.06     10.66
     -3.03      1.06     10.66
     -3.03      1.06     11.15
     -3.52      1.06     11.64
     -3.52      1.06     11.64
     -3.52      1.06     11.64
     -3.52      1.06     12.13
     -4.01      1.06     12.13
     -4.01      1.06     12.62
     -4.01      1.06     12.62
     -4.01      1.06     13.10
     -4.01      1.06     13.10
     -4.01      1.06     13.59
     -4.50      1.06     13.59
     -4.50      1.54     13.59
     -4.50      1.54     14.08
     -4.50      1.54     14.08
     -4.50      1.54     14.57
     -4.50      1.54     14.57
     -4.50      1.54     14.57
     -4.99      1.54     14.57
     -4.50      1.54     14.57
     -4.99      1.54     15.06
     -4.99      1.54     15.06
     -4.99      1.54     15.06
     -4.99      1.54     15.06
     -4.99      1.54     15.06
     -4.99      1.54     15.06
     -4.99      1.54     15.06
     -5.47      1.54     15.55
     -5.47      1.06     15.06
     -5.47      1.06     15.06
     -5.47      1.06     15.06
     -5.47      1.06     15.06
     -5.47      1.06     15.06
     -5.96      1.06     15.06
     -5.96       .58     15.06
     -5.96       .58     15.06
     -5.96       .58     15.06
     -5.96       .58     15.06
     -5.96       .58     14.57
     -5.96       .58     14.57
     -5.96       .58     14.57
     -6.45       .58     14.57
     -6.45       .58     14.57
     -6.45       .58     14.57
     -6.45       .58     14.08
     -6.45       .58     14.08
     -6.45       .58     14.08
     -6.45       .58     14.08
     -6.45       .58     13.59
     -6.45       .09     13.59
     -6.45       .09     13.10
     -6.45       .09     13.10
     -6.45       .09     12.62
     -6.94       .09     12.13
     -6.94       .09     12.13
     -6.94      -.39     11.64
     -6.94      -.39     11.64
     -6.94      -.39     11.15
     -6.94      -.39     11.15
     -6.94      -.39     10.66
     -6.94      -.88     10.66
     -6.94      -.88     10.17
     -6.94      -.88     10.17
     -6.94      -.88      9.69
     -6.94      -.88      9.20
     -6.94      -.88      9.20
     -6.94      -.88      8.71
     -6.94     -1.36      8.22
     -6.94     -1.36      8.22
     -6.94     -1.36      7.73
     -6.94     -1.36      7.73
     -6.94     -1.36      7.25
     -6.45     -1.36      6.76
     -6.45     -1.36      6.27
     -6.45     -1.36      6.27
     -6.45     -1.36      5.78
     -6.45     -1.36      5.78
     -6.45     -1.36      5.29
     -6.45     -1.36      4.80
     -6.45     -1.36      4.80
     -6.45     -1.36      4.32
     -6.45     -1.36      3.83
     -6.45     -1.36      3.34
     -6.45     -1.36      2.85
     -5.96     -1.36      2.85
     -5.96     -1.36      2.36
     -5.96     -1.36      1.87
     -5.96     -1.36      1.87
     -5.96     -1.36      1.39
     -5.96     -1.36      1.39
     -5.96     -1.36       .90
     -5.96     -1.36       .90
     -5.47     -1.36       .41
     -5.47     -1.36      -.08
     -5.47     -1.36      -.08
     -5.47     -1.36      -.57
     -5.47     -1.36     -1.06
     -5.47     -1.36     -1.06
     -5.47     -1.36     -1.54
     -5.47     -1.36     -2.03
     -4.99     -1.36     -2.52
     -4.99     -1.36     -2.52
     -4.99     -1.36     -3.01
     -4.99     -1.36     -3.50
     -4.99     -1.36     -3.50
     -4.50     -1.36     -3.99
     -4.50     -1.36     -4.47
     -4.50     -1.36     -4.47
     -4.01     -1.36     -4.96
     -4.01     -1.36     -4.96
     -4.01     -1.36     -5.45
     -4.01      -.88     -5.45
     -4.01     -1.36     -5.94
     -3.52      -.88     -6.43
     -3.52      -.88     -6.91
     -3.52      -.88     -6.91
     -3.03      -.88     -7.40
     -3.03      -.88     -7.40
     -2.54      -.88     -7.40
     -2.54      -.88     -7.89
     -2.54      -.88     -7.89
     -2.54      -.88     -8.38
     -2.06      -.88     -8.38
     -2.06      -.88     -8.87
     -2.06      -.39     -8.87
     -1.57      -.39     -9.35
     -1.57      -.39     -9.35
     -1.57      -.39     -9.35
     -1.57      -.39     -9.35
     -1.08      -.39     -9.84
     -1.08      -.39     -9.84
     -1.08      -.39    -10.33
      -.59      -.39    -10.33
      -.59      -.39    -10.82
      -.59      -.39    -10.82
      -.59       .09    -10.82
      -.10       .09    -10.82
      -.10       .09    -10.82
      -.10       .09    -10.82
      -.10       .09    -11.31
       .39       .09    -11.31
       .39       .09    -11.31
       .87       .09    -11.31
       .87       .09    -11.31
       .87       .09    -11.79
       .87       .09    -11.79
       .87       .09    -11.79
      1.36       .58    -11.79
      1.36       .09    -12.28
      1.85       .09    -12.28
      1.85       .58    -12.28
      1.85       .09    -12.77
      1.85       .09    -12.77
      2.34       .58    -12.77
      2.34       .58    -12.77
      2.83       .58    -13.26
      2.83       .09    -13.26
      2.83       .58    -13.26
      2.83       .58    -13.75
      3.32       .58    -13.75
      3.32       .58    -13.75
      3.80       .58    -14.23
      3.80       .09    -14.23
      3.80       .09    -14.72
      3.80       .09    -14.72
      3.80       .09    -14.72
      4.29       .09    -15.21
      4.29       .09    -15.21
      4.29       .09    -15.70
      4.29       .09    -15.70
      4.29       .09    -16.19
      4.29       .09    -16.19
      4.29       .09    -16.19
      4.29       .09    -16.68
      4.78       .09    -16.68
      4.78       .09    -16.68
      4.78       .09    -16.68
      4.78      -.39    -16.68
      4.78      -.39    -16.68
      4.78      -.39    -17.16
      4.78      -.39    -17.16
      4.78      -.39    -17.16
      4.78      -.39    -16.68
      5.27      -.39    -16.68
      5.27      -.39    -16.68
      5.27      -.39    -16.68
      5.27      -.39    -16.68
      5.27      -.39    -16.68
      5.76      -.39    -16.68
      5.76      -.39    -16.19
      5.76      -.39    -16.19
      5.76      -.39    -16.19
      5.76      -.39    -15.70
      5.76      -.39    -15.70
      6.25      -.39    -15.21
      6.25      -.39    -15.21
      6.25      -.39    -14.72
      6.25      -.39    -14.72
      6.25      -.39    -14.23
      6.25      -.39    -14.23
      6.25      -.39    -13.75
      6.73      -.39    -13.75
      6.73       .09    -13.26
      6.73      -.39    -12.77
      6.73      -.39    -12.77
      6.73      -.39    -12.28
      6.73      -.39    -11.79
      6.73       .09    -11.79
      6.73      -.39    -11.79
      6.25       .09    -11.31
      6.25      -.39    -10.82
      6.25       .09    -10.33
      6.25      -.39     -9.84
      6.25      -.39     -9.84
      6.25      -.39     -9.35
      6.25       .09     -8.87
      5.76       .09     -8.87
      5.76      -.39     -8.38
      5.76       .09     -7.89
      5.76      -.39     -7.40
      5.76      -.39     -7.40
      5.27      -.39     -6.91
      5.27      -.39     -6.43
      5.27      -.39     -6.43
      5.27      -.39     -5.94
      5.27      -.39     -5.45
      4.78      -.39     -4.96
      4.78      -.39     -4.96
      4.78      -.39     -4.47
      4.78      -.39     -3.99
      4.78      -.88     -3.50
      4.29      -.39     -3.01
      4.29      -.39     -3.01
      3.80      -.88     -2.52
      3.80      -.88     -2.03
      3.80      -.88     -1.54
      3.80      -.88     -1.06
      3.32      -.88     -1.06
      3.32      -.88      -.57
      3.32      -.39      -.08
      2.83      -.39       .41
      2.83      -.39       .41
      2.83      -.39       .90
      2.83      -.39      1.39
      2.83      -.39      1.87
      2.34      -.39      2.36
      2.34      -.39      2.85
      2.34      -.39      2.85
      1.85      -.39      3.34
      1.85      -.39      3.34
      1.85      -.39      3.83
      1.36      -.39      3.83
      1.36      -.39      4.32
      1.36      -.88      4.80
      1.36      -.88      4.80
       .87      -.88      5.29
       .87      -.88      5.29
       .87      -.88      5.78
       .87      -.88      5.78
       .87      -.88      6.27
       .39      -.88      6.27
       .39      -.88      6.76
       .39      -.88      6.76
       .39      -.88      6.76
       .39      -.88      7.25
       .39      -.88      7.73
      -.10      -.88      7.73
      -.10     -1.36      8.22
      -.10     -1.36      8.22
      -.10     -1.36      8.71
      -.10     -1.36      8.71
      -.10     -1.36      8.71
      -.10     -1.36      9.20
      -.10     -1.36      9.20
      -.10     -1.36      9.69
      -.10     -1.36      9.69
      -.10     -1.36      9.69
      -.10     -1.36     10.17
      -.59     -1.36     10.17
      -.59     -1.36     10.17
      -.59     -1.36     10.66
      -.59     -1.36     10.66
      -.59     -1.36     10.66
      -.59     -1.36     10.66
      -.59     -1.36     11.15
      -.59     -1.36     11.15
      -.59     -1.36     11.15
      -.59     -1.36     11.15
     -1.08     -1.36     11.15
      -.59     -1.36     11.15
     -1.08     -1.36     11.15
     -1.08      -.88     11.15
     -1.08     -1.36     11.15
     -1.08     -1.36     11.15
     -1.08     -1.36     11.15
     -1.08      -.88     11.15
     -1.08      -.88     11.15
     -1.57      -.88     11.15
     -1.57      -.88     11.15
     -1.57      -.88     11.64
     -1.57     -1.36     11.64
     -1.57      -.88     11.64
     -1.57      -.88     11.64
     -1.57      -.88     11.64
     -1.57      -.88     11.64
     -1.57      -.88     11.64
     -2.06      -.88     12.13
     -2.06      -.88     12.13
     -2.06      -.88     12.13
     -2.06      -.88     12.13
     -2.06      -.88     12.13
     -2.06      -.88     12.13
     -2.54      -.88     12.13
     -2.54      -.88     12.13
     -2.54      -.88     12.13
     -2.54      -.39     12.13
     -2.54      -.39     12.13
     -3.03      -.39     12.13
     -3.03      -.39     12.62
     -3.03      -.39     12.62
     -3.03      -.39     12.62
     -3.03      -.39     12.62
     -3.52      -.39     12.62
     -3.52       .09     12.62
     -3.52       .09     12.62
     -4.01       .09     12.62
