*******************************************************************************
           RED INTERUNIVERSITARIA DE INSTRUMENTACION SISMICA (RIIS)
 AREA DE ESTRUCTURAS, UNIVERSIDAD AUTONOMA METROPOLITANA - UNIDAD AZCAPOTZALCO
         AV. SAN PABLO 180; COL. REYNOSA TAMAULIPAS; MEXICO D.F. 02200.        
       TELS:53189458,53189456; FAX:53189085; e-mail: mrc@hp9000a1.uam.mx
********************************************************************************
ARCHIVO ESTANDAR DE ACELERACION:
VERSION DEL FORMATO                    : 2.0
NOMBRE DEL ARCHIVO                     : RIDX9909.301
FECHA Y HORA DE CREACION               : MAYO 2000
REF. CATALOGO ACELEROGRAMAS, SMIS 1996 : 


================================================================================
DATOS DE LA ESTACION:
NOMBRE DE LA ESTACION                  : UAM XOCHIMILCO
CLAVE DE LA ESTACION                   : RIDX
LOCALIZACION DE LA ESTACION            : CALZADA DEL HUESO 1100, COLONIA VILLA
                                       : QUIETUD, PLANTEL XOCHIMILCO, FRENTE A
                                       : LA BIBLIOTECA, MEXICO, D.F.
                                       :
                                       :
COORDENADAS DE LA ESTACION             : 19.310 LAT. N 
                                       : 99.100 LONG. W 
ALTITUD (msnm)                         : 2235
TIPO DE SUELO                          : LIMOS Y ARENAS ARCILLOSAS
                                       : 
                                       : 
INSTITUCION RESPONSABLE                : RED INTERUNIVERSITARIA DE
                                       : INSTRUMENTACION SISMICA (RIIS)

================================================================================
DATOS DEL ACELEROGRAFO:
MODELO DEL ACELEROGRAFO                : SSA-2
NUMERO DE SERIE DEL ACELEROGRAFO       : 1320
NUMERO DE CANALES                      : 3
ORIENTACION C1-C6 (rumbo;orientacion)  : /N00E/+V/N90E
ORIENTACION C7-C12 (rumbo;orientacion) :
VEL. DE MUESTREO, C1-C6 (muestras/s)   : /200/200/200
VEL. DE MUESTREO, C7-C12 (muestras/s)  :
ESC. COMPLETA DE SENSORES, C1-C6, (g)  : /1.0/1.0/1.0
ESC. COMPLETA DE SENSORES, C7-C12, (g) :
FREC. NAT. DE SENSORES, C1-C6, (Hz)    : /51.7/54.4/51.5
FREC. NAT. DE SENSORES, C7-C12, (Hz)   :
AMORTIGUAMIENTO DE SENSORES, C1-C6     : /0.64/0.65/0.64
AMORTIGUAMIENTO DE SENSORES, C7-C12    :
INTERVALO DE MUESTREO, C1-C6, (s)      : /0.005/0.005/0.005
INTERVALO DE MUESTREO, C7-C12, (s)     :
UMBRAL DE DISPARO, C1-C6, (Gal)        : /11/11/11
UMBRAL DE DISPARO, C7-C12, (Gal)       :
MEMORIA DE PREEVENTO (s)               : 15.4
TIEMPO DE POSEVENTO (s)                : 60.0


================================================================================
DATOS DEL SISMO:
FECHA DEL SISMO (GMT)                  : 30/SEP/99
HORA EPICENTRO (GMT)                   : 16:31:14.8
MAGNITUD(ES)                           : /Mb=6.5/Ms=7.5/Mc=5.2/Ma=7.1/Me=7.6
COORDENADAS DEL EPICENTRO              : 15.95 LAT. N 
                                       : 97.03 LONG. W 
PROFUNDIDAD FOCAL (km)                 : 16
FUENTES DE LOS DATOS EPICENTRALES      : SSN
                                       : INSTITUTO DE GEOFISICA, UNAM

================================================================================
DATOS DE ESTE REGISTRO:
HORA DE LA PRIMERA MUESTRA (GMT)       : 16:32:50
EXACTITUD DEL TIEMPO (s)               :    
DURACION DEL REGISTRO (s), C1-C6       : /229.19/229.19/229.19
DURACION DEL REGISTRO (s), C7-C12      :
NUM. TOTAL DE MUESTRAS, C1-C6          : /45824/45824/45824
NUM. TOTAL DE MUESTRAS, C7-C12         :
ACEL. MAX.(Gal), C1-C6                 : /57.34/11.16/33.12
ACEL. MAX., C1-C6, EN LA MUESTRA       : /10841/11127/9229
ACEL. MAX.(Gal), C7-C12                :
ACEL. MAX., C7-C12, EN LA MUESTRA      :
UNIDADES DE LOS DATOS                  : Gal
FACTOR DE DECIMACION                   : 1
FORMATO DATOS (FORTRAN,10 campos/dato) : 3F10.3


===============================================================================
CALIDAD DEL ACELEROGRAMA:
REGISTRO DIGITAL COMPLETO, CARECE DE TIEMPO ABSOLUTO.


===============================================================================
COMENTARIOS:
CADA UNO DE LOS CANALES SE ENCUENTRA AJUSTADO POR LINEA BASE MEDIANTE LA
SUSTRACCION DEL PROMEDIO DE LAS ACELERACIONES EN EL TIEMPO.











MODELO DEL ACELEROGRAFO : SSA-2 (KINEMETRICS)
===============================================================================
DATOS DE ACELERACION:
---------+---------+---------+---------+---------+---------+---------+---------+
   CANAL-1   CANAL-2   CANAL-3   CANAL-4   CANAL-5   CANAL-6   CANAL-7   CANAL-8
      N00E        +V      N90E
---------+---------+---------+---------+---------+---------+---------+---------+
[...]
     -9.51      4.91    -15.06
    -10.47      4.91    -15.06
    -11.43      4.91    -15.06
    -12.40      5.39    -15.06
    -13.36      5.39    -15.06
    -14.32      5.39    -14.59
    -15.28      5.39    -14.59
    -16.24      5.39    -14.59
    -17.20      5.39    -14.11
    -18.16      5.39    -14.11
    -19.13      5.39    -14.11
    -20.09      5.39    -14.11
    -21.05      5.39    -14.11
    -22.01      5.39    -13.63
    -22.97      4.91    -13.63
    -23.93      4.91    -13.63
    -24.41      4.91    -13.63
    -25.38      4.91    -13.63
    -26.34      4.91    -13.16
    -26.82      4.91    -13.16
    -27.78      4.91    -13.16
    -28.26      4.91    -13.16
    -29.22      4.91    -12.68
    -29.70      4.91    -12.68
    -30.66      4.91    -12.68
    -31.14      4.91    -12.68
    -32.11      4.91    -12.68
    -32.59      4.91    -12.68
    -33.07      4.91    -12.68
    -33.55      4.91    -12.20
    -34.03      4.91    -12.20
    -34.51      4.91    -11.72
    -34.99      4.91    -11.72
    -35.47      4.91    -11.72
    -35.95      4.43    -11.72
    -36.43      4.43    -11.72
    -36.43      4.43    -11.72
    -36.91      4.43    -11.25
    -36.91      4.43    -11.25
    -37.39      3.95    -11.25
    -37.39      3.95    -11.25
    -37.87      3.95    -11.25
    -37.87      3.95    -11.25
    -38.36      3.46    -11.25
    -38.36      3.46    -11.25
    -38.36      3.46    -11.72
    -38.36      2.98    -11.25
    -38.84      2.98    -11.72
    -38.84      2.50    -11.72
    -38.84      2.50    -11.72
    -38.84      2.50    -11.72
    -38.84      2.02    -11.72
    -39.32      1.54    -11.72
    -39.32      1.54    -11.72
    -39.32      1.06    -11.72
    -39.32      1.06    -11.72
    -39.80      0.58    -11.72
    -39.80      0.10    -11.72
    -39.80      0.10    -11.72
    -39.80     -0.38    -11.72
    -40.28     -0.38    -11.72
    -40.28     -0.86    -11.72
    -40.28     -1.34    -11.72
    -40.28     -1.34    -11.72
    -40.28     -1.82    -11.72
    -40.28     -2.31    -11.72
    -40.28     -2.31    -11.25
    -41.24     -2.79    -11.25
    -40.76     -2.79    -11.25
    -40.76     -3.27    -11.25
    -41.24     -3.27    -10.77
    -41.24     -3.75    -10.77
    -41.24     -3.75    -10.77
    -41.24     -4.23    -10.29
    -41.72     -4.23    -10.29
    -41.72     -4.23     -9.82
    -41.72     -4.71     -9.82
    -41.72     -4.71     -9.34
    -42.20     -4.71     -9.34
    -42.20     -4.71     -8.86
    -42.20     -5.19     -8.86
    -42.68     -5.19     -8.39
    -42.68     -5.19     -8.39
    -42.68     -5.19     -7.91
    -43.16     -5.67     -7.43
    -43.64     -5.67     -6.96
    -43.64     -5.67     -6.96
    -43.64     -6.15     -6.48
    -44.12     -6.15     -6.48
    -44.12     -6.15     -6.00
    -44.12     -6.15     -5.52
    -44.61     -6.15     -5.05
    -44.61     -6.15     -5.05
    -45.09     -6.15     -4.57
    -45.09     -6.15     -4.57
    -45.57     -6.15     -4.09
    -45.57     -6.15     -4.09
    -46.05     -6.63     -4.09
    -46.05     -6.63     -3.62
    -46.05     -6.63     -3.14
    -46.53     -6.63     -3.14
    -46.53     -6.63     -3.14
    -46.53     -6.63     -2.66
    -47.01     -6.63     -2.66
    -47.01     -6.63     -2.66
    -47.01     -6.63     -2.66
    -47.01     -6.15     -2.19
    -47.01     -6.15     -2.19
    -47.01     -6.15     -2.19
    -47.01     -6.15     -2.19
    -47.01     -6.15     -1.71
    -47.49     -5.67     -1.71
    -47.49     -5.67     -1.71
    -47.49     -5.19     -1.71
    -47.49     -5.19     -2.19
    -47.49     -5.19     -2.19
    -47.49     -4.71     -2.19
    -47.49     -4.71     -2.19
    -47.49     -4.71     -2.19
    -47.49     -4.23     -2.66
    -47.49     -4.23     -2.66
    -47.49     -3.75     -2.66
    -47.01     -3.75     -2.66
    -47.01     -3.75     -3.14
    -47.01     -3.27     -3.14
    -47.01     -3.27     -3.14
    -46.53     -2.79     -3.14
    -46.53     -2.79     -3.14
    -46.05     -2.31     -3.62
    -46.05     -2.31     -3.62
    -45.57     -1.82     -3.62
    -45.57     -1.82     -3.62
    -45.09     -1.34     -3.62
    -45.09     -1.34     -3.62
    -44.61     -0.86     -3.62
    -44.61     -0.86     -3.62
    -44.12     -0.38     -4.09
    -44.12     -0.38     -4.09
    -43.64     -0.38     -4.57
    -43.16     -0.38     -4.57
    -43.16      0.10     -4.57
    -42.68      0.10     -4.57
    -42.20      0.58     -5.05
    -42.20      0.58     -5.05
    -41.72      1.06     -5.52
    -41.24      1.06     -5.52
    -41.24      1.06     -6.00
    -41.24      1.06     -6.48
    -40.76      1.54     -6.48
    -40.28      1.54     -6.48
    -39.80      2.02     -6.48
    -39.32      2.02     -6.48
    -38.84      2.50     -6.48
    -38.36      2.50     -6.48
    -37.87      2.98     -6.48
    -37.39      2.98     -6.48
    -37.39      2.98     -6.48
    -36.91      3.46     -6.48
    -36.91      3.46     -6.96
    -36.91      3.46     -6.96
    -36.91      3.46     -6.96
    -36.43      3.95     -6.96
    -35.95      3.95     -6.96
    -35.95      3.95     -6.96
    -35.47      3.95     -6.96
    -34.99      3.95     -6.48
    -34.51      3.95     -6.00
    -34.03      3.95     -5.52
    -33.55      3.95     -5.52
    -32.59      3.95     -5.05
    -32.11      4.43     -5.05
    -31.63      4.43     -5.05
    -31.63      4.43     -5.05
    -31.14      4.43     -4.57
    -31.14      4.43     -4.57
    -31.14      4.43     -4.57
    -30.66      4.43     -4.57
    -30.18      4.91     -4.57
    -30.18      4.91     -5.05
    -29.70      5.39     -5.05
    -29.22      5.39     -5.52
    -28.74      5.87     -6.00
    -28.26      5.87     -6.48
    -27.78      6.35     -7.43
    -27.78      6.35     -7.91
    -27.30      6.35     -8.39
    -27.30      6.35     -8.86
    -27.30      6.35     -9.34
    -27.30      6.35     -9.34
    -26.82      6.35     -9.82
    -26.34      6.35     -9.82
    -26.34      5.87     -9.82
    -26.34      5.87     -9.82
    -25.86      5.87     -9.34
    -25.86      5.87     -9.34
    -25.38      5.87     -9.82
    -25.38      5.87     -9.82
    -24.90      5.39     -9.82
    -24.41      5.39    -10.29
    -24.41      4.91    -10.29
    -23.93      4.91    -10.29
    -23.45      4.43    -10.29
    -22.97      4.43    -10.29
    -22.49      4.43    -10.29
    -21.53      4.43    -10.77
    -21.05      4.43    -10.77
    -20.57      4.43    -10.77
    -20.09      4.43    -10.29
    -19.13      4.43    -10.29
    -18.65      4.43     -9.82
    -18.16      4.43     -9.34
    -17.68      4.43     -8.86
    -17.20      4.43     -8.39
    -16.72      4.91     -7.43
    -16.24      4.91     -6.96
    -15.76      4.91     -6.48
    -15.28      4.91     -6.00
    -14.80      4.91     -5.05
    -14.32      4.91     -4.57
    -13.84      4.43     -4.09
    -12.88      4.43     -4.09
    -12.88      4.43     -3.62
    -12.40      4.43     -3.14
    -11.92      4.43     -3.14
    -10.95      4.43     -2.66
     -9.99      4.43     -2.19
     -9.51      4.43     -1.71
     -8.55      4.43     -1.23
     -8.07      4.43     -0.75
     -7.11      4.43     -0.28
     -6.63      4.43      0.20
     -6.15      3.95      0.68
     -5.19      3.95      1.15
     -4.22      3.95      2.11
     -3.26      3.95      2.59
     -2.30      3.95      3.06
     -1.82      3.95      4.02
     -0.86      3.95      4.49
      0.10      4.43      5.45
      0.58      3.95      5.93
      1.55      3.95      6.40
      2.03      3.95      7.36
      2.99      3.46      7.83
      3.47      3.46      8.31
      4.43      3.46      8.79
      4.91      3.46      9.74
      5.39      2.98     10.22
      6.36      2.98     10.70
      7.32      2.98     11.65
      8.28      2.50     12.13
      8.76      2.50     12.61
      9.72      2.50     13.08
     10.69      2.02     13.56
     11.17      2.02     14.04
     12.13      1.54     14.99
     13.09      1.54     15.47
     13.57      1.06     16.42
     14.53      1.06     16.90
     15.49      0.58     17.38
     16.46      0.58     18.33
     17.42      0.10     18.81
     17.90      0.10     19.29
     18.86     -0.38     19.76
     19.82     -0.38     20.24
     20.79     -0.86     20.72
     21.75     -0.86     21.19
     22.71     -1.34     21.19
     23.67     -1.34     21.67
     24.63     -1.82     22.15
     25.60     -2.31     22.63
     26.08     -2.31     22.63
     27.04     -2.31     23.10
     28.00     -2.79     23.58
     28.48     -3.27     24.06
     29.44     -3.27     24.53
     29.92     -3.27     25.01
     30.89     -3.75     25.49
     31.85     -4.23     25.97
     32.33     -4.23     26.44
     33.29     -4.23     26.92
     33.77     -4.71     27.40
     34.73     -4.71     27.87
     35.21     -5.19     27.87
     35.70     -5.19     28.35
     36.18     -5.67     28.35
     36.66     -5.67     28.35
     37.14     -6.15     28.35
     38.10     -6.15     28.35
     38.58     -6.15     28.83
     39.06     -6.63     28.35
     39.54     -6.63     28.83
     40.02     -6.63     28.83
     40.99     -7.11     28.83
     41.47     -7.11     28.83
     41.95     -7.59     28.83
     42.43     -7.59     28.83
     42.91     -8.07     28.83
     43.39     -8.07     28.83
     43.87     -8.07     28.83
     44.35     -8.55     28.83
     44.83     -8.55     28.83
     45.31     -8.55     28.83
     45.80     -9.04     28.83
     46.28     -9.04     28.83
     46.76     -9.04     28.83
     47.24     -9.04     28.83
     47.72     -9.52     28.35
     47.72     -9.52     28.35
     48.20     -9.52     28.35
     48.68     -9.52     28.35
     48.68     -9.52     27.87
     49.16     -9.52     27.87
     49.64     -9.52     27.40
     49.64     -9.52     27.40
     50.12     -9.52     26.92
     50.61     -9.52     26.92
     50.61     -9.52     26.44
     51.09     -9.04     26.44
     51.09     -9.04     25.97
     51.57     -9.04     25.97
     52.05     -9.04     25.49
     52.05     -9.04     25.49
     52.53     -9.04     25.01
     52.53     -8.55     25.01
     53.01     -8.55     24.53
     53.01     -8.07     24.06
     53.49     -8.07     24.06
     53.49     -7.59     24.06
     53.97     -7.11     23.58
     53.97     -7.11     23.58
     54.45     -6.63     23.10
     54.45     -6.15     23.10
     54.93     -6.15     22.63
     54.93     -6.15     22.63
     55.42     -5.67     22.15
     55.42     -5.19     22.15
     55.90     -5.19     21.67
     56.38     -4.71     21.67
     56.38     -4.71     21.67
     56.38     -4.71     21.67
     56.86     -4.23     21.67
     56.86     -3.75     21.19
     57.34     -3.75     20.72
     57.34     -3.75     20.24
     57.34     -3.27     19.76
     57.34     -3.27     19.76
     57.34     -2.79     19.29
     57.34     -2.79     19.29
     57.34     -2.31     18.81
     57.34     -2.31     18.81
     56.86     -2.31     18.33
     56.86     -1.82     18.33
     57.34     -1.82     18.33
     57.34     -1.34     17.85
     57.34     -0.86     17.85
     57.34     -0.86     17.85
     57.34     -0.86     17.38
     56.86     -0.38     17.38
     56.86     -0.38     16.90
     56.38      0.10     16.90
     56.38      0.10     16.90
     55.90      0.10     16.42
     55.90      0.58     16.42
     55.42      0.58     16.42
     55.42      1.06     15.95
     54.93      1.06     15.95
     54.93      1.54     15.47
     54.93      2.02     15.47
     54.45      2.02     14.99
     53.97      2.50     14.51
     53.97      2.98     14.51
     53.49      2.98     14.04
     53.49      3.46     13.56
     53.01      3.46     13.08
     52.53      3.95     12.61
     52.05      3.95     12.61
     51.57      3.95     12.13
     51.09      3.95     12.13
     50.61      3.95     12.13
     50.12      4.43     11.65
     49.64      4.43     11.65
     48.68      4.43     11.65
     48.20      4.43     11.17
     47.24      4.43     11.17
     46.76      4.43     10.70
     46.28      4.43     10.70
     45.80      4.43     10.22
     45.31      4.43      9.74
     44.83      4.43      9.27
     44.35      4.43      9.27
     43.87      4.43      8.79
     43.39      4.43      8.79
     42.43      4.43      8.79
     41.47      4.43      8.31
     40.99      4.43      8.31
     40.02      4.43      7.83
     39.06      4.43      7.36
     38.58      3.95      6.88
     37.62      3.95      6.40
     37.14      3.95      6.40
     36.66      3.95      5.93
     36.18      3.95      5.45
     35.70      3.95      4.97
     35.21      3.95      4.49
     34.73      3.95      4.49
     34.25      3.95      4.02
     33.77      3.95      3.54
     33.29      3.95      3.06
     32.33      3.95      2.59
     31.85      3.95      1.63
     31.37      3.95      1.63
     30.40      3.95      1.15
     29.92      3.95      0.68
     29.44      3.95      0.20
     28.96      3.95      0.20
     28.48      3.95     -0.28
     27.52      3.95     -0.28
     26.56      4.43     -0.75
     26.56      4.43     -0.75
     26.08      4.91     -1.23
     25.11      4.91     -1.71
     24.63      4.91     -2.19
     24.15      4.91     -2.66
     23.67      4.91     -3.14
     23.19      4.91     -3.62
     22.71      4.91     -4.57
     21.75      4.43     -5.05
     21.27      4.43     -5.52
     20.30      4.91     -6.00
     19.82      4.91     -6.96
     18.86      4.91     -7.43
     18.38      4.91     -8.39
     17.90      4.91     -8.86
     16.94      4.91     -9.34
     16.46      4.91    -10.29
     15.49      4.91    -10.77
     15.01      4.91    -11.72
     14.53      5.39    -12.20
     13.57      5.39    -12.68
     12.61      5.39    -13.16
     12.13      5.39    -14.11
     11.17      5.39    -14.59
     10.69      5.39    -15.06
      9.72      5.39    -16.02
      8.76      5.39    -16.49
      8.28      5.39    -16.97
      7.32      5.39    -17.45
      6.84      5.39    -17.92
      5.88      5.39    -18.40
      5.39      5.39    -19.35
      4.43      5.39    -19.83
      3.95      5.39    -20.31
      3.47      5.39    -20.79
      2.99      5.39    -21.26
      2.51      5.39    -21.74
      2.03      4.91    -22.22
      1.55      4.91    -22.69
      1.07      4.91    -23.17
      0.58      4.91    -23.65
     -0.38      4.91    -24.12
     -0.86      4.91    -24.60
     -1.34      4.91    -25.08
     -1.82      4.43    -25.55
     -2.30      4.43    -26.03
     -3.26      4.43    -26.51
     -3.74      4.43    -26.99
     -4.22      3.95    -26.99
     -4.70      3.95    -27.46
     -5.19      3.95    -27.94
     -6.15      3.95    -27.94
     -6.63      3.95    -27.94
     -7.11      3.46    -28.42
     -7.59      3.46    -28.42
     -8.07      3.46    -28.42
     -9.03      2.98    -28.42
     -9.51      2.98    -28.42
     -9.99      2.98    -28.42
    -10.47      2.50    -28.42
    -10.95      2.50    -28.42
    -11.43      2.02    -28.42
    -11.92      2.02    -27.94
    -12.40      1.54    -27.94
    -13.36      1.54    -27.46
    -13.84      1.06    -27.46
    -14.32      0.58    -27.46
    -14.32      0.58    -27.46
    -14.80      0.58    -26.99
    -15.28      0.10    -26.99
    -15.76      0.10    -26.99
    -16.24      0.10    -26.51
