********************************************************************************
           RED INTERUNIVERSITARIA DE INSTRUMENTACION SISIMICA (RIIS)
 AREA DE ESTRUCTURAS, UNIVERSIDAD AUTONOMA METROPOLITANA - UNIDAD AZCAPOTZALCO
         AV. SAN PABLO 180; COL. REYNOSA TAMAULIPAS; MEXICO D.F. 02200.                                                                               
       TELS: 7235859, 7235856; FAX: 7244285; e-mail: esz@hp9000a1.uam.mx
********************************************************************************
ARCHIVO ESTANDAR DE ACELERACION:
VERSION DEL FORMATO                    : 2.0
NOMBRE DEL ARCHIVO                     : RIDX9309.031
FECHA Y HORA DE CREACION               : 3 de septiembre 1993 /12:40
REF. CATALOGO ACELEROGRAMAS, SMIS 1996 : REGISTRO No. 16 /PAG. 33


================================================================================
DATOS DE LA ESTACION:
NOMBRE DE LA ESTACION                  : UAM XOCHIMILCO
CLAVE DE LA ESTACION                   : RIDX
LOCALIZACION DE LA ESTACION            : CALZADA DEL HUESO 1100, COLONIA VILLA
                                       : QUIETUD, PLANTEL XOCHIMILCO, FRENTE A
                                       : LA BIBLIOTECA, MEXICO, D.F.
                                       :
                                       :
COORDENADAS DE LA ESTACION             : 19.310 LAT. N 
                                       : 99.100 LONG. W 
ALTITUD (msnm)                         : 2235
TIPO DE SUELO                          : LIMOS Y ARENAS ARCILLOSAS
                                       : 
                                       : 
INSTITUCION RESPONSABLE                : RED INTERUNIVERSITARIA DE
                                       : INSTRUMENTACION SISMICA (RIIS)

================================================================================
DATOS DEL ACELEROGRAFO:
MODELO DEL ACELEROGRAFO                : SSA-2
NUMERO DE SERIE DEL ACELEROGRAFO       : 1320
NUMERO DE CANALES                      : 3
ORIENTACION C1-C6 (rumbo;orientacion)  : /N00E/+V/N90E
ORIENTACION C7-C12 (rumbo;orientacion) :
VEL. DE MUESTREO, C1-C6 (muestras/s)   : /200/200/200
VEL. DE MUESTREO, C7-C12 (muestras/s)  :
ESC. COMPLETA DE SENSORES, C1-C6, (g)  : /1.0/1.0/1.0
ESC. COMPLETA DE SENSORES, C7-C12, (g) :
FREC. NAT. DE SENSORES, C1-C6, (Hz)    : /50.0/50.0/50.0
FREC. NAT. DE SENSORES, C7-C12, (Hz)   :
AMORTIGUAMIENTO DE SENSORES, C1-C6     : /0.7/0.7/0.7
AMORTIGUAMIENTO DE SENSORES, C7-C12    :
INTERVALO DE MUESTREO, C1-C6, (s)      : /0.005/0.005/0.005
INTERVALO DE MUESTREO, C7-C12, (s)     :
UMBRAL DE DISPARO, C1-C6, (Gal)        : /4/4/4
UMBRAL DE DISPARO, C7-C12, (Gal)       :
MEMORIA DE PREEVENTO (s)               : 15
TIEMPO DE POSEVENTO (s)                : 60


================================================================================
DATOS DEL SISMO:
FECHA DEL SISMO (GMT)                  : 03/SEP/93
HORA EPICENTRO (GMT)                   : 12:35:00,6
MAGNITUD(ES)                           : /Mb=5.80/Ms=6.80/Mc=6.50
COORDENADAS DEL EPICENTRO              : 13.980 LAT. N 
                                       : 92.790 LONG. W 
PROFUNDIDAD FOCAL (km)                 : 69 
FUENTES DE LOS DATOS EPICENTRALES      : SSN
                                       : INSTITUTO DE GEOFISICA, UNAM

================================================================================
DATOS DE ESTE REGISTRO:
HORA DE LA PRIMERA MUESTRA (GMT)       : 12:40:00.00
EXACTITUD DEL TIEMPO (s)               :    
DURACION DEL REGISTRO (s), C1-C6       : /78.08/78.08/78.08
DURACION DEL REGISTRO (s), C7-C12      :
NUM. TOTAL DE MUESTRAS, C1-C6          : /15616/15616/15616
NUM. TOTAL DE MUESTRAS, C7-C12         :
ACEL. MAX.(Gal), C1-C6                 : /4.55/1.30/-3.34
ACEL. MAX., C1-C6, EN LA MUESTRA       : /3099/1325/4361
ACEL. MAX.(Gal), C7-C12                :
ACEL. MAX., C7-C12, EN LA MUESTRA      :
UNIDADES DE LOS DATOS                  : Gal
FACTOR DE DECIMACION                   : 1
FORMATO DATOS (FORTRAN,10 campos/dato) : 3F10.3


===============================================================================
CALIDAD DEL ACELEROGRAMA:
REGISTRO DIGITAL COMPLETO, CARECE DE TIEMPO ABSOLUTO.


===============================================================================
COMENTARIOS:
CADA UNO DE LOS CANALES SE ENCUENTRA AJUSTADO POR LINEA BASE MEDIANTE LA
SUSTRACCION DEL PROMEDIO DE LAS ACELERACIONES EN EL TIEMPO.











MODELO DEL ACELEROGRAFO : SSA-2 (KINEMETRICS)
===============================================================================
DATOS DE ACELERACION:
---------+---------+---------+---------+---------+---------+---------+---------+
   CANAL-1   CANAL-2   CANAL-3   CANAL-4   CANAL-5   CANAL-6   CANAL-7   CANAL-8
      N00E        +V      N90E
---------+---------+---------+---------+---------+---------+---------+---------+
[...]
      .169      .324     -.434
      .169      .324     -.434
      .169      .324     -.434
      .169      .324     -.434
      .169      .324     -.434
      .169      .324     -.434
      .169      .324     -.434
      .169      .324     -.434
      .169      .324     -.434
      .169      .324     -.434
      .169      .324     -.919
     -.317      .324      .050
      .169      .324     -.434
     -.317      .324     -.434
     -.317      .324      .050
     -.804      .324      .050
     -.317      .324     -.434
     -.317      .324      .050
     -.317      .324      .050
     -.317      .324      .050
     -.317      .324      .050
     -.317      .324      .050
     -.317      .324      .050
     -.317      .324      .050
     -.317      .324      .050
     -.317      .324      .050
     -.317      .324      .050
     -.317      .324      .050
     -.804      .324      .050
     -.804      .324      .050
     -.804      .324      .050
     -.804      .324      .535
     -.804      .324      .535
     -.804      .324      .535
     -.804      .324      .050
     -.804     -.164      .535
     -.804     -.164      .535
     -.804     -.164      .050
     -.804      .324      .050
     -.804      .324      .535
     -.804      .324      .535
     -.804     -.164      .050
     -.804     -.164      .535
     -.804      .324      .535
     -.804     -.164      .535
     -.804     -.164      .050
     -.804      .324      .535
     -.804     -.164      .535
     -.804      .324      .535
    -1.291     -.164      .535
     -.804     -.164      .535
    -1.291     -.164      .535
    -1.291     -.164      .535
    -1.291     -.164      .535
    -1.291     -.164      .535
    -1.291     -.164      .535
    -1.291     -.164     1.019
    -1.291     -.164      .535
    -1.291     -.164      .535
    -1.291     -.164      .535
    -1.291     -.164      .535
    -1.291     -.164     1.019
    -1.291     -.164     1.019
    -1.291     -.164      .535
    -1.291     -.164      .535
    -1.777     -.164      .535
    -1.777     -.164     1.019
    -1.777     -.164     1.019
    -1.777     -.164      .535
    -1.777     -.164     1.019
    -1.777     -.164      .535
    -1.777     -.164     1.019
    -1.777     -.164     1.019
    -1.777     -.164     1.019
    -1.777     -.164     1.019
    -1.777     -.164     1.019
    -1.777     -.164     1.019
    -1.777     -.164     1.019
    -1.777     -.164     1.019
    -1.777     -.164     1.019
    -1.777     -.164      .535
    -1.777     -.164     1.019
    -1.777     -.164     1.019
    -2.264     -.164      .535
    -2.264     -.164     1.019
    -2.264     -.164     1.019
    -1.777     -.164     1.019
    -2.264     -.164      .535
    -2.264     -.164     1.019
    -2.264     -.164     1.019
    -2.264     -.164      .535
    -2.264     -.164      .535
    -2.264     -.164      .535
    -2.264     -.164     1.019
    -2.264     -.164      .535
    -2.264     -.164     1.019
    -2.264     -.164     1.019
    -2.264     -.164     1.019
    -2.264     -.164     1.019
    -2.264     -.164     1.019
    -2.264     -.653      .535
    -2.264     -.164      .535
    -2.264     -.164      .535
    -2.264     -.164     1.019
    -2.750     -.164      .535
    -2.750     -.164      .535
    -2.750     -.164     1.019
    -2.750     -.164     1.019
    -2.750     -.164      .535
    -2.750     -.164     1.019
    -2.750     -.164      .535
    -2.750     -.653      .535
    -2.750     -.164      .535
    -2.750     -.164      .535
    -2.750     -.164      .535
    -2.750     -.164      .535
    -2.750     -.164      .535
    -2.750     -.164     1.019
    -2.750     -.164      .535
    -2.750     -.653      .535
    -2.750     -.653      .535
    -2.750     -.164      .535
    -2.750     -.164      .535
    -2.750     -.164      .535
    -3.237     -.164      .535
    -2.750     -.164      .535
    -2.750     -.164      .535
    -2.750     -.164      .535
    -2.750     -.164      .535
    -3.237     -.164      .535
    -3.237     -.164      .535
    -3.237     -.164      .535
    -3.237     -.164      .535
    -3.237     -.653      .535
    -3.237     -.164      .050
    -3.237     -.164      .535
    -3.237     -.164      .050
    -3.237     -.164      .050
    -3.237     -.164      .535
    -3.237     -.164      .535
    -3.237     -.164      .535
    -3.237     -.164      .535
    -3.237     -.164      .535
    -3.723     -.653      .050
    -3.237     -.164      .050
    -3.237     -.164      .050
    -3.237     -.164      .535
    -3.723     -.164      .050
    -3.723     -.164      .535
    -3.723     -.164      .050
    -3.723     -.164      .050
    -3.723     -.164      .050
    -3.723     -.653      .050
    -3.723     -.164      .050
    -3.723     -.164      .050
    -3.723     -.164      .050
    -3.723     -.653      .535
    -3.237     -.164      .050
    -3.723     -.164      .050
    -3.723     -.164      .050
    -3.723     -.164      .050
    -3.723     -.653      .050
    -3.723     -.164     -.434
    -3.723     -.164      .050
    -3.723     -.164     -.434
    -3.723     -.164      .050
    -3.723     -.164      .050
    -3.723     -.164      .050
    -3.723     -.164      .050
    -3.723     -.164      .050
    -3.723     -.164      .050
    -3.723     -.653      .050
    -3.723     -.164      .050
    -3.723     -.164      .050
    -3.723     -.164      .050
    -3.723     -.164      .050
    -3.723     -.164      .050
    -3.723     -.653      .050
    -3.723     -.164      .050
    -3.723     -.653      .050
    -3.723     -.164      .050
    -3.723     -.164      .050
    -3.723     -.164      .050
    -3.723     -.164     -.434
    -3.723     -.164      .050
    -3.237     -.164      .050
    -3.723     -.164      .050
    -3.237     -.164      .050
    -3.723     -.164      .050
    -3.237     -.164      .050
    -3.237     -.164      .050
    -3.237     -.164      .050
    -3.237     -.164      .535
    -3.237     -.164      .050
    -3.237     -.164     -.434
    -3.237     -.164      .050
    -3.237     -.164      .535
    -3.237     -.164      .535
    -3.237     -.164      .050
    -3.237     -.164      .050
    -3.237     -.164      .050
    -2.750     -.164      .535
    -2.750     -.164      .050
    -3.237     -.164      .535
    -2.750     -.164      .535
    -2.750     -.164      .535
    -2.750     -.164      .535
    -2.750     -.164      .535
    -2.750     -.164      .535
    -2.750     -.164      .535
    -2.750     -.164      .535
    -2.750     -.164      .535
    -2.750     -.164      .535
    -2.750     -.164      .050
    -2.750      .324      .535
    -2.750     -.164      .535
    -2.750     -.164      .535
    -2.264      .324      .050
    -2.264     -.164      .535
    -2.264      .324      .535
    -2.264     -.164      .050
    -2.264      .324      .050
    -2.264     -.164      .535
    -1.777     -.164      .535
    -1.777     -.164      .535
    -1.777     -.164      .535
    -1.777      .324      .535
    -1.777     -.164      .535
    -1.777      .324      .535
    -1.777      .324      .535
    -1.777     -.164      .535
    -1.777      .324      .535
    -1.777      .324      .535
    -1.291      .324      .535
    -1.291      .324      .535
    -1.291     -.164      .535
    -1.291      .324      .535
    -1.291      .324      .535
    -1.291      .324      .535
     -.804      .324      .535
    -1.291      .324      .535
     -.804      .324      .535
     -.804      .324      .535
     -.804      .324      .535
     -.804      .324      .535
     -.804      .324      .535
     -.804     -.164      .535
     -.804      .324      .535
     -.317      .324      .535
     -.317      .324      .535
     -.317      .324      .535
     -.317      .324      .050
     -.317     -.164      .535
      .169      .324     1.019
     -.317      .324      .535
      .169      .324      .535
      .169      .324      .535
      .169      .324      .535
      .169      .324      .535
      .169      .324      .535
      .169      .324      .535
      .656      .324      .535
      .169      .324     1.019
      .169      .324      .535
      .656      .324      .535
      .656      .324      .535
      .656      .324      .535
     1.142      .324      .535
     1.142      .324      .535
     1.142      .324      .535
     1.142      .324      .535
     1.142      .324      .535
     1.142      .324      .535
     1.142      .324      .535
     1.142      .324      .535
     1.142      .324      .535
     1.629      .324      .535
     1.629      .324      .535
     1.629      .324      .535
     1.629      .324      .535
     1.629      .324      .535
     2.115      .324      .535
     1.629      .324      .535
     2.115      .324      .535
     2.115      .324      .535
     2.115      .324      .535
     2.115      .324      .535
     2.115      .324      .050
     2.115      .324      .050
     2.115      .324      .050
     2.115      .324      .535
     2.602      .324      .535
     2.602      .324      .535
     2.602     -.164      .535
     2.602      .324      .535
     2.602      .324      .050
     2.602      .324      .535
     3.089     -.164      .050
     2.602      .324     -.434
     3.089      .324      .050
     3.089     -.164      .050
     3.089      .324      .050
     3.089     -.164      .050
     3.089      .324     -.434
     3.089      .324      .050
     3.089      .324      .050
     3.089      .324      .050
     3.089      .324     -.434
     3.089     -.164      .050
     3.575     -.164      .050
     3.575     -.164      .050
     3.575     -.164     -.434
     3.575     -.164      .050
     3.575      .324     -.434
     3.575     -.164      .050
     3.575     -.164      .050
     3.575     -.164      .050
     3.575     -.164      .050
     3.575     -.164      .050
     3.575     -.164     -.434
     4.062      .324      .050
     4.062      .324      .050
     3.575      .324     -.434
     4.062     -.164     -.434
     4.062      .324     -.434
     4.062      .324     -.434
     4.062     -.164     -.434
     4.062      .324      .050
     4.062     -.164     -.434
     4.062      .324      .050
     4.062     -.164     -.434
     4.062     -.164     -.434
     4.062     -.164     -.434
     4.062     -.164     -.434
     4.062     -.164     -.434
     4.062     -.164     -.434
     4.062     -.164     -.434
     4.062     -.164     -.434
     4.062     -.164     -.434
     4.062     -.164     -.434
     4.548     -.164     -.434
     4.062     -.164     -.434
     4.062     -.164     -.434
     4.062     -.164     -.434
     4.062      .324     -.434
     4.062     -.164     -.434
     4.062     -.164     -.434
     4.062     -.164     -.434
     4.062     -.164     -.434
     4.062     -.164     -.434
     4.062     -.164     -.434
     4.062     -.164     -.434
     4.062     -.164     -.434
     4.062     -.164     -.434
     4.062     -.164     -.434
     4.062     -.164     -.434
     4.062     -.164      .050
     4.062     -.164     -.434
     4.062     -.164     -.434
     4.062     -.164     -.434
     4.062     -.164     -.434
     4.062     -.164     -.434
     4.062     -.164     -.434
     4.062     -.164     -.434
     4.062     -.164     -.434
     4.062     -.164     -.434
     4.062     -.164     -.434
     4.062     -.164     -.434
     4.062     -.164     -.434
     4.062      .324     -.919
     4.062     -.164     -.434
     4.062     -.164     -.434
     4.062     -.164     -.434
     3.575     -.164     -.434
     3.575      .324      .050
     3.575     -.164      .050
     4.062     -.164     -.434
     3.575     -.164     -.434
     3.575     -.164     -.434
     3.575     -.164     -.434
     3.575     -.164     -.434
     3.575     -.164     -.434
     3.575     -.164     -.434
     3.575     -.164     -.434
     3.575     -.164     -.434
     3.575     -.164     -.434
     3.089     -.164     -.434
     3.089     -.164     -.434
     3.089     -.164      .050
     3.089     -.164      .050
     3.089     -.164     -.434
     3.089     -.164     -.434
     3.089     -.164     -.434
     3.089     -.164     -.434
     3.089     -.164     -.434
     3.089     -.164     -.434
     3.089     -.164     -.434
     3.089     -.164     -.434
     3.089     -.164      .050
     3.089     -.164      .050
     2.602     -.164      .050
     2.602     -.164      .050
     2.602     -.164      .050
     2.602     -.164      .050
     2.602     -.164      .050
     2.602     -.164      .050
     2.602     -.164     -.434
     2.602     -.164      .050
     2.602     -.164      .050
     2.602     -.164      .050
     2.602     -.164      .050
     2.115     -.164      .050
     2.115     -.164      .050
     2.115     -.164      .050
     2.115     -.164      .050
     2.115     -.164      .050
     2.115     -.164      .050
     2.115     -.164      .050
     2.115     -.164      .050
     2.115     -.164      .050
     2.115     -.164      .050
     2.115     -.164      .050
     2.115     -.164      .050
     1.629     -.164      .050
     1.629     -.164      .050
     1.629     -.164      .050
     1.629     -.164      .050
     1.629     -.653      .050
     1.629     -.164      .535
     1.629     -.164      .050
     1.629     -.164      .050
     1.629     -.164      .050
     1.629     -.164      .050
     1.629     -.164      .050
     1.142     -.164     -.434
     1.629     -.164      .535
     1.142     -.653     -.434
     1.142     -.164      .050
     1.142     -.164      .050
     1.142     -.164      .050
     1.142     -.653      .050
     1.142     -.164      .535
     1.142     -.164      .050
     1.142     -.653      .050
      .656     -.164      .050
     1.142     -.164      .535
     1.142     -.653      .050
     1.142     -.164      .050
     1.142     -.164      .535
     1.142     -.164      .050
      .656     -.653      .535
      .656     -.164      .050
      .656     -.164      .535
      .656     -.164      .535
      .656     -.164      .050
      .656     -.164      .050
      .656     -.164      .050
      .656     -.164      .050
      .169     -.164      .050
      .656     -.164      .535
      .169     -.164      .050
      .656     -.164      .535
      .169     -.653      .050
      .169     -.164      .050
      .169     -.164      .050
      .169     -.164      .050
      .169     -.164      .535
      .169     -.164      .535
      .169     -.164      .535
      .169     -.164      .535
      .169     -.164      .050
      .169     -.653      .535
      .169     -.164      .050
      .169     -.164      .535
      .169     -.164      .050
     -.317     -.164      .050
     -.317     -.164      .535
     -.317     -.164      .535
     -.317     -.653      .535
     -.317     -.164      .535
     -.317     -.164      .050
     -.317     -.164      .050
     -.317     -.653      .050
     -.317     -.164      .535
     -.317      .324      .535
     -.804     -.164      .535
     -.317     -.164      .050
