********************************************************************************
           RED INTERUNIVERSITARIA DE INSTRUMENTACION SISIMICA (RIIS)
 AREA DE ESTRUCTURAS, UNIVERSIDAD AUTONOMA METROPOLITANA - UNIDAD AZCAPOTZALCO
         AV. SAN PABLO 180; COL. REYNOSA TAMAULIPAS; MEXICO D.F. 02200.                                                                               
       TELS: 7235859, 7235856; FAX: 7244285; e-mail: esz@hp9000a1.uam.mx
********************************************************************************
ARCHIVO ESTANDAR DE ACELERACION:
VERSION DEL FORMATO                    : 2.0
NOMBRE DEL ARCHIVO                     : RIDX9509.141
FECHA Y HORA DE CREACION               : 14 de septiembre 1995 /14:05
REF. CATALOGO ACELEROGRAMAS, SMIS 1996 : REGISTRO No. 1506 /PAG. 158


================================================================================
DATOS DE LA ESTACION:
NOMBRE DE LA ESTACION                  : UAM XOCHIMILCO
CLAVE DE LA ESTACION                   : RIDX
LOCALIZACION DE LA ESTACION            : CALZADA DEL HUESO 1100, COLONIA VILLA
                                       : QUIETUD, PLANTEL XOCHIMILCO, FRENTE A
                                       : LA BIBLIOTECA, MEXICO, D.F.
                                       :
                                       :
COORDENADAS DE LA ESTACION             : 19.310 LAT. N 
                                       : 99.100 LONG. W 
ALTITUD (msnm)                         : 2235
TIPO DE SUELO                          : LIMOS Y ARENAS ARCILLOSAS
                                       : 
                                       : 
INSTITUCION RESPONSABLE                : RED INTERUNIVERSITARIA DE
                                       : INSTRUMENTACION SISMICA (RIIS)

================================================================================
DATOS DEL ACELEROGRAFO:
MODELO DEL ACELEROGRAFO                : SSA-2
NUMERO DE SERIE DEL ACELEROGRAFO       : 1320
NUMERO DE CANALES                      : 3
ORIENTACION C1-C6 (rumbo;orientacion)  : /N00E/+V/N90E
ORIENTACION C7-C12 (rumbo;orientacion) :
VEL. DE MUESTREO, C1-C6 (muestras/s)   : /200/200/200
VEL. DE MUESTREO, C7-C12 (muestras/s)  :
ESC. COMPLETA DE SENSORES, C1-C6, (g)  : /1.0/1.0/1.0
ESC. COMPLETA DE SENSORES, C7-C12, (g) :
FREC. NAT. DE SENSORES, C1-C6, (Hz)    : /50.0/50.0/50.0
FREC. NAT. DE SENSORES, C7-C12, (Hz)   :
AMORTIGUAMIENTO DE SENSORES, C1-C6     : /0.7/0.7/0.7
AMORTIGUAMIENTO DE SENSORES, C7-C12    :
INTERVALO DE MUESTREO, C1-C6, (s)      : /0.005/0.005/0.005
INTERVALO DE MUESTREO, C7-C12, (s)     :
UMBRAL DE DISPARO, C1-C6, (Gal)        : /6/6/6
UMBRAL DE DISPARO, C7-C12, (Gal)       :
MEMORIA DE PREEVENTO (s)               : 15
TIEMPO DE POSEVENTO (s)                : 60 


================================================================================
DATOS DEL SISMO:
FECHA DEL SISMO (GMT)                  : 14/SEP/95
HORA EPICENTRO (GMT)                   : 14:04:30,5
MAGNITUD(ES)                           : /Mb=6.40/Ms=7.20/Mc=7.30
COORDENADAS DEL EPICENTRO              : 16.310 LAT. N 
                                       : 98.880 LONG. W 
PROFUNDIDAD FOCAL (km)                 : 22 
FUENTES DE LOS DATOS EPICENTRALES      : SSN
                                       : INSTITUTO DE GEOFISICA, UNAM

================================================================================
DATOS DE ESTE REGISTRO:
HORA DE LA PRIMERA MUESTRA (GMT)       : 14:05:00.00
EXACTITUD DEL TIEMPO (s)               : 
DURACION DEL REGISTRO (s), C1-C6       : /227.84/227.84/227.84
DURACION DEL REGISTRO (s), C7-C12      :
NUM. TOTAL DE MUESTRAS, C1-C6          : /45568/45568/45568
NUM. TOTAL DE MUESTRAS, C7-C12         :
ACEL. MAX.(Gal), C1-C6                 : /45.92/-14.52/45.19
ACEL. MAX., C1-C6, EN LA MUESTRA       : /5989/9462/6399
ACEL. MAX.(Gal), C7-C12                :
ACEL. MAX., C7-C12, EN LA MUESTRA      :
UNIDADES DE LOS DATOS                  : Gal 
FACTOR DE DECIMACION                   : 1
FORMATO DATOS (FORTRAN,10 campos/dato) : 3F10.3


===============================================================================
CALIDAD DEL ACELEROGRAMA:
REGISTRO DIGITAL COMPLETO, CARECE DE TIEMPO ABSOLUTO.


===============================================================================
COMENTARIOS:
CADA UNO DE LOS CANLES SE ENCUENTRA AJUSTADO POR LINEA BASE MEDIANTE LA
SUSTRACCION DEL PROMEDIO DE LAS ACELERACIONES EN EL TIEMPO.











MODELO DEL ACELEROGRAFO : SSA-2 (KINEMETRICS)
===============================================================================
DATOS DE ACELERACION:
---------+---------+---------+---------+---------+---------+---------+---------+
   CANAL-1   CANAL-2   CANAL-3   CANAL-4   CANAL-5   CANAL-6   CANAL-7   CANAL-8
      N00E        +V      N90E
---------+---------+---------+---------+---------+---------+---------+---------+
[...]
     5.210     3.132     -.422
     5.210     2.642     -.422
     5.210     2.642     -.422
     5.210     2.152     -.422
     5.210     2.152     -.422
     4.719     1.662     -.422
     4.719     1.662     -.422
     4.719     1.172     -.422
     4.719      .681     -.422
     4.719      .681     -.913
     4.719      .191     -.913
     4.719     -.299     -.913
     4.719     -.299    -1.403
     4.229     -.789    -1.403
     4.229    -1.280    -1.894
     3.738    -1.770    -1.894
     3.738    -1.770    -2.384
     3.248    -2.260    -2.875
     2.757    -2.260    -2.875
     2.757    -2.750    -3.365
     2.267    -3.241    -3.856
     1.776    -3.241    -4.346
     1.286    -3.731    -4.836
      .795    -3.731    -5.327
      .305    -3.731    -5.817
     -.185    -4.221    -5.817
     -.676    -4.221    -6.797
    -1.166    -4.221    -6.797
    -2.147    -4.221    -7.288
    -2.638    -4.711    -7.778
    -3.128    -4.711    -8.758
    -3.619    -4.711    -9.249
    -4.109    -4.711    -9.739
    -4.599    -4.711   -10.229
    -5.090    -5.202   -10.229
    -5.580    -5.202   -10.719
    -6.070    -5.202   -11.210
    -6.560    -5.202   -11.700
    -7.051    -5.202   -12.190
    -7.051    -5.202   -12.190
    -7.541    -5.202   -12.680
    -8.031    -5.202   -12.680
    -8.521    -5.202   -13.171
    -9.012    -5.202   -13.171
    -9.012    -5.202   -13.171
    -9.502    -5.202   -13.661
    -9.992    -5.692   -14.151
   -10.482    -5.692   -13.661
   -10.972    -5.692   -13.661
   -11.463    -5.692   -13.661
   -11.463    -5.692   -13.661
   -11.953    -5.692   -13.661
   -12.443    -5.692   -13.661
   -12.933    -5.692   -13.171
   -13.424    -5.202   -13.171
   -13.914    -5.202   -12.680
   -13.914    -5.202   -12.680
   -14.404    -5.202   -12.190
   -14.895    -5.202   -12.190
   -15.385    -5.202   -11.700
   -15.385    -5.202   -11.700
   -15.875    -5.202   -11.210
   -16.365    -5.202   -10.719
   -16.855    -4.711   -10.719
   -16.855    -4.711   -10.229
   -16.855    -4.711    -9.739
   -17.346    -4.711    -9.249
   -17.836    -4.221    -8.758
   -17.836    -4.221    -8.268
   -18.326    -4.221    -7.778
   -18.326    -3.731    -7.288
   -18.326    -3.731    -6.797
   -18.816    -3.731    -6.797
   -18.816    -3.731    -5.817
   -19.307    -3.731    -5.327
   -19.307    -3.731    -5.327
   -19.797    -3.731    -4.346
   -19.797    -3.731    -4.346
   -20.287    -3.731    -3.365
   -20.287    -3.731    -2.875
   -20.777    -3.731    -2.384
   -21.268    -3.731    -1.894
   -21.758    -3.731    -1.403
   -22.248    -3.731     -.422
   -22.738    -3.731      .068
   -23.229    -3.731      .559
   -23.229    -3.731     1.540
   -24.209    -3.731     2.030
   -24.699    -3.731     2.521
   -25.190    -3.731     3.011
   -25.680    -3.731     3.992
   -26.170    -3.241     4.482
   -26.660    -3.241     4.973
   -27.150    -3.241     5.954
   -27.641    -3.241     6.444
   -28.621    -3.241     6.935
   -28.621    -3.241     7.916
   -29.111    -3.241     8.406
   -29.602    -3.241     8.897
   -30.092    -3.241     9.387
   -30.582    -3.241     9.878
   -31.072    -3.241    10.368
   -31.072    -3.241    10.859
   -31.563    -3.241    11.349
   -31.563    -3.241    11.349
   -32.053    -3.241    11.840
   -32.053    -2.750    12.330
   -32.543    -2.750    12.330
   -32.543    -2.260    12.330
   -32.543    -2.260    12.821
   -33.033    -1.770    12.821
   -33.033    -1.770    13.311
   -33.033    -1.280    13.311
   -33.033    -1.280    13.311
   -33.033    -1.280    13.802
   -33.033     -.789    13.802
   -33.524     -.789    13.802
   -33.524     -.789    13.802
   -33.524     -.789    13.802
   -33.524     -.789    14.292
   -33.524     -.789    14.292
   -33.524    -1.280    14.783
   -34.014    -1.280    14.783
   -34.014    -1.280    14.783
   -34.014    -1.770    15.273
   -34.014    -1.770    15.273
   -34.014    -2.260    15.273
   -34.504    -2.260    15.763
   -34.504    -2.260    15.763
   -34.504    -2.260    16.254
   -34.504    -2.750    16.254
   -34.504    -2.750    16.744
   -34.994    -2.750    16.744
   -34.994    -2.750    16.744
   -34.994    -2.750    17.235
   -34.994    -2.750    17.725
   -34.994    -2.750    17.725
   -35.485    -2.750    17.725
   -35.485    -2.750    18.216
   -35.485    -2.750    18.706
   -35.975    -2.750    18.706
   -35.975    -2.750    19.197
   -35.975    -2.750    19.197
   -36.465    -2.750    19.197
   -36.465    -2.260    19.687
   -36.465    -2.260    19.687
   -36.955    -2.260    19.687
   -36.955    -2.260    19.687
   -36.955    -2.260    19.687
   -37.446    -1.770    19.687
   -37.446    -1.770    19.687
   -37.936    -1.770    19.687
   -37.936    -1.770    19.687
   -38.426    -1.770    19.197
   -38.426    -1.770    19.197
   -38.426    -1.770    19.197
   -38.916    -1.770    18.706
   -39.407    -1.280    18.216
   -39.407    -1.280    18.216
   -39.897    -1.280    17.725
   -40.387    -1.280    17.235
   -40.877    -1.280    17.235
   -40.877    -1.280    16.744
   -41.367    -1.280    16.254
   -41.858    -1.280    15.763
   -42.348    -1.280    15.273
   -42.348    -1.280    15.273
   -42.838    -1.280    14.292
   -42.838     -.789    14.292
   -43.328     -.789    13.802
   -43.819     -.789    13.311
   -44.309     -.789    12.821
   -44.309     -.789    12.330
   -44.799     -.789    11.840
   -44.799    -1.280    10.859
   -44.799    -1.280    10.368
   -45.289     -.789     9.878
   -45.289     -.789     9.387
   -45.289     -.789     8.897
   -45.289     -.789     7.916
   -45.289     -.789     7.425
   -45.289     -.789     6.935
   -45.289     -.789     6.444
   -45.289     -.789     5.463
   -45.289     -.789     4.973
   -45.289     -.789     4.482
   -44.799     -.789     3.501
   -44.799     -.789     3.011
   -44.309     -.789     2.521
   -44.309     -.789     2.030
   -43.819     -.789     1.540
   -43.328     -.789     1.049
   -43.328     -.789      .068
   -42.838     -.789     -.422
   -42.348     -.789     -.913
   -42.348     -.789    -1.403
   -41.858    -1.280    -1.894
   -41.858    -1.280    -2.384
   -41.367    -1.280    -2.875
   -40.877    -1.280    -3.365
   -40.877    -1.280    -3.365
   -40.387    -1.770    -3.856
   -40.387    -1.770    -3.856
   -39.897    -1.770    -4.346
   -39.897    -2.260    -4.346
   -39.407    -2.260    -4.836
   -39.407    -2.260    -4.836
   -38.916    -2.750    -4.836
   -38.916    -2.750    -4.836
   -38.916    -3.241    -4.346
   -38.426    -3.241    -4.346
   -38.426    -3.731    -4.346
   -38.426    -3.731    -3.856
   -37.936    -3.731    -3.856
   -37.936    -3.731    -3.365
   -37.936    -3.731    -2.875
   -37.446    -3.731    -2.384
   -37.446    -3.731    -1.894
   -37.446    -3.731    -1.403
   -36.955    -3.731     -.913
   -36.955    -3.731     -.422
   -36.465    -3.731      .068
   -36.465    -3.731     1.049
   -36.465    -3.731     1.540
   -35.975    -3.731     2.030
   -35.975    -3.731     3.011
   -35.485    -3.731     3.501
   -35.485    -3.731     4.482
   -34.994    -3.731     4.973
   -34.994    -3.241     5.954
   -34.994    -3.241     6.444
   -34.504    -3.241     7.425
   -34.504    -3.241     7.916
   -34.014    -3.241     8.406
   -34.014    -3.241     9.387
   -33.524    -2.750     9.878
   -33.524    -2.750    10.368
   -33.033    -2.260    10.859
   -32.543    -2.260    11.840
   -32.543    -2.260    12.330
   -32.053    -2.260    12.821
   -31.563    -1.770    13.311
   -31.563    -1.770    13.311
   -31.072    -1.770    13.802
   -30.582    -1.280    14.292
   -30.582    -1.280    14.783
   -30.092     -.789    14.783
   -29.111     -.789    15.273
   -28.621     -.789    15.763
   -28.131     -.299    15.763
   -27.641     -.299    16.254
   -27.150      .191    16.254
   -26.170      .191    16.744
   -25.680      .191    16.744
   -24.699      .191    17.235
   -24.209      .191    17.235
   -23.229      .681    17.725
   -22.248      .681    18.216
   -21.758      .681    18.216
   -20.777      .681    18.706
   -19.797     1.172    19.197
   -18.816     1.172    19.197
   -18.326     1.172    19.687
   -17.346     1.172    19.687
   -16.365     1.662    20.178
   -15.385     1.662    20.178
   -14.404     1.662    20.668
   -13.424     1.662    20.668
   -12.933     2.152    20.668
   -11.953     2.152    21.159
   -10.972     2.152    21.159
    -9.992     2.642    21.649
    -9.502     2.642    21.649
    -8.521     3.132    21.649
    -8.031     3.132    21.649
    -7.051     3.132    21.649
    -6.560     3.623    22.140
    -5.580     3.623    22.140
    -5.090     3.623    22.140
    -4.109     4.113    22.140
    -3.619     4.113    21.649
    -2.638     4.604    21.649
    -2.147     4.604    21.649
    -1.657     4.604    21.159
     -.676     5.094    21.159
     -.185     5.094    20.668
      .305     5.094    20.178
      .795     5.585    19.687
     1.776     5.585    19.197
     2.757     5.585    19.197
     3.248     5.585    18.216
     4.229     5.585    17.725
     5.210     5.585    17.235
     5.700     5.094    16.744
     6.681     5.094    16.254
     7.662     4.604    15.763
     8.643     4.604    14.783
     9.134     4.604    14.292
    10.115     4.113    13.311
    11.096     4.113    12.821
    12.077     4.113    11.840
    12.567     3.623    11.349
    13.548     3.623    10.368
    14.529     3.623     9.878
    15.510     3.623     8.897
    16.491     3.623     8.406
    17.472     3.623     7.425
    18.453     3.623     6.444
    19.434     3.623     5.954
    20.415     3.132     4.973
    21.396     3.132     4.482
    22.377     3.132     3.501
    23.358     3.132     3.011
    24.339     2.642     2.030
    25.320     2.642     1.540
    26.301     2.642      .559
    27.281     2.152      .068
    28.262     2.152     -.913
    29.243     2.152    -1.403
    30.224     1.662    -2.384
    31.696     1.662    -2.875
    32.677     1.662    -3.856
    33.658     1.662    -4.836
    34.639     1.172    -5.327
    35.620     1.172    -6.307
    36.601     1.172    -6.797
    37.582     1.172    -7.778
    38.563     1.662    -8.268
    39.543     1.172    -9.249
    40.525     1.662    -9.739
    41.015     1.662   -10.719
    41.996     1.662   -11.210
    42.486     1.662   -11.700
    43.467     2.152   -12.680
    43.958     2.152   -13.171
    44.448     2.152   -13.661
    44.939     2.152   -14.151
    44.939     2.152   -14.641
    45.429     2.152   -15.132
    45.429     2.152   -15.622
    45.920     2.152   -16.112
    45.920     2.152   -16.602
    45.920     2.152   -16.602
    45.920     1.662   -17.093
    45.429     1.662   -17.093
    45.429     1.662   -17.093
    45.429     1.662   -17.583
    44.939     1.662   -17.583
    44.939     1.662   -17.583
    44.448     1.662   -17.583
    44.448     1.662   -17.583
    43.958     1.172   -17.583
    43.958     1.662   -17.583
    43.467     1.662   -17.583
    42.977     1.172   -17.583
    42.977     1.172   -18.073
    42.486     1.172   -18.073
    41.996     1.172   -18.073
    41.996      .681   -18.073
    41.505      .681   -18.073
    41.015      .191   -18.073
    40.525     -.299   -18.563
    40.034     -.299   -18.563
    40.034     -.299   -18.563
    39.543     -.789   -19.054
    39.053     -.789   -19.054
    38.563    -1.280   -19.544
    38.072    -1.280   -19.544
    37.582    -1.280   -20.034
    37.091    -1.770   -20.524
    36.601    -1.770   -20.524
    36.110    -1.770   -21.014
    35.620    -1.770   -21.014
    35.129    -1.770   -21.505
    34.639    -1.770   -21.505
    34.148    -1.770   -21.505
    33.658    -1.770   -21.995
    33.167    -1.770   -21.995
    32.677    -1.770   -21.995
    32.186    -2.260   -21.995
    32.186    -2.260   -21.995
    31.696    -2.260   -21.505
    31.696    -2.260   -21.505
    31.205    -2.260   -21.505
    31.205    -2.260   -21.014
    30.715    -2.750   -21.014
    30.715    -2.260   -20.524
    30.715    -2.750   -20.034
    30.224    -2.750   -19.544
    30.224    -2.750   -19.544
    30.224    -2.750   -19.054
    30.224    -2.750   -18.563
    30.224    -2.750   -18.073
    30.224    -2.750   -17.583
    30.224    -2.750   -16.602
    30.224    -2.750   -16.112
    30.224    -2.750   -15.132
    29.734    -2.750   -14.641
    29.734    -2.750   -13.661
    29.734    -2.750   -13.171
    29.734    -2.750   -12.190
    29.243    -2.750   -11.210
    29.243    -2.750   -10.719
    29.243    -2.750    -9.739
    28.753    -2.750    -8.758
    28.753    -2.750    -7.778
    28.262    -2.750    -6.797
    28.262    -2.260    -5.817
    27.772    -2.260    -4.836
    27.772    -2.260    -3.856
    27.281    -2.260    -2.875
    26.791    -2.260    -2.384
    26.301    -1.770    -1.403
    26.301    -1.770     -.422
    25.810    -1.770      .559
    25.320    -1.280     1.540
    24.829    -1.280     2.521
    24.339    -1.280     3.501
    23.848     -.789     3.992
    23.358     -.789     4.973
    22.867     -.789     5.463
    22.377     -.789     6.444
    21.886     -.299     6.935
    21.396     -.299     7.916
    20.905     -.299     8.406
    20.415     -.299     8.897
    19.924     -.299     9.387
    18.943     -.299     9.878
    18.453     -.299     9.878
    18.453     -.299    10.368
    17.962     -.299    10.859
    17.472     -.299    10.859
    16.981      .191    11.349
    16.491      .191    11.349
    16.000     -.299    11.349
    16.000      .191    11.349
    15.510      .191    11.349
    15.019      .191    10.859
    15.019      .191    10.859
    14.529      .191    10.859
    14.529      .191    10.859
    14.529      .191    10.368
    14.529      .191     9.878
    14.529      .191     9.878
    14.529      .191     9.878
    14.529     -.299     9.387
    14.529     -.299     8.897
    14.529     -.299     8.897
    14.529     -.299     8.406
    15.019     -.299     8.406
    15.019     -.299     7.916
    15.019     -.299     7.425
    15.510     -.299     7.425
    16.000      .191     6.935
    16.000      .191     6.444
    16.491      .191     5.954
    16.491      .191     5.954
    16.981      .681     5.463
    17.472      .681     5.463
    17.472     1.172     4.973
    17.962     1.172     4.482
    18.453     1.172     3.992
    18.453     1.172     3.992
    18.943     1.172     3.501
    19.434     1.172     3.011
    19.434     1.172     2.521
    19.924     1.172     2.030
    20.415     1.172     1.540
    20.415     1.172     1.540
    20.905     1.172     1.049
    21.396     1.172      .559
    21.396     1.172      .068
    21.886     1.172     -.422
    22.377     1.172     -.913
    22.867     1.662    -1.403
    22.867     1.662    -1.894
    23.358     1.662    -2.384
    23.848     2.152    -2.875
    24.339     2.152    -3.365
    24.339     2.152    -3.856
    24.829     2.152    -4.346
    25.320     2.152    -4.836
    25.810     2.152    -5.327
    25.810     2.152    -5.817
    26.301     2.152    -6.307
    26.791     2.152    -6.797
    27.281     2.152    -7.288
