********************************************************************************
           RED INTERUNIVERSITARIA DE INSTRUMENTACION SISIMICA (RIIS)
 AREA DE ESTRUCTURAS, UNIVERSIDAD AUTONOMA METROPOLITANA - UNIDAD AZCAPOTZALCO
         AV. SAN PABLO 180; COL. REYNOSA TAMAULIPAS; MEXICO D.F. 02200.                                                                               
       TELS: 7235859, 7235856; FAX: 7244285; e-mail: esz@hp9000a1.uam.mx
********************************************************************************
ARCHIVO ESTANDAR DE ACELERACION:
VERSION DEL FORMATO                    : 2.0
NOMBRE DEL ARCHIVO                     : RIDX9309.101
FECHA Y HORA DE CREACION               : 10 de septiembre 1993 /20:18
REF. CATALOGO ACELEROGRAMAS, SMIS 1996 : REGISTRO No. 20 /PAG. 33


================================================================================
DATOS DE LA ESTACION:
NOMBRE DE LA ESTACION                  : UAM XOCHIMILCO
CLAVE DE LA ESTACION                   : RIDX
LOCALIZACION DE LA ESTACION            : CALZADA DEL HUESO 1100, COLONIA VILLA
                                       : QUIETUD, PLANTEL XOCHIMILCO, FRENTE A
                                       : LA BIBLIOTECA, MEXICO, D.F.
                                       :
                                       :
COORDENADAS DE LA ESTACION             : 19.310 LAT. N 
                                       : 99.100 LONG. W 
ALTITUD (msnm)                         : 2235
TIPO DE SUELO                          : LIMOS Y ARENAS ARCILLOSAS
                                       : 
                                       : 
INSTITUCION RESPONSABLE                : RED INTERUNIVERSITARIA DE
                                       : INSTRUMENTACION SISMICA (RIIS)

================================================================================
DATOS DEL ACELEROGRAFO:
MODELO DEL ACELEROGRAFO                : SSA-2 (KINEMETRICS)
NUMERO DE SERIE DEL ACELEROGRAFO       : 1320
NUMERO DE CANALES                      : 3
ORIENTACION C1-C6 (rumbo;orientacion)  : /N00E/+V/N90E
ORIENTACION C7-C12 (rumbo;orientacion) :
VEL. DE MUESTREO, C1-C6 (muestras/s)   : /200/200/200
VEL. DE MUESTREO, C7-C12 (muestras/s)  :
ESC. COMPLETA DE SENSORES, C1-C6, (g)  : /+1.0/+1.0/+1.0
ESC. COMPLETA DE SENSORES, C7-C12, (g) :
FREC. NAT. DE SENSORES, C1-C6, (Hz)    : /0.7/0.7/0.7
FREC. NAT. DE SENSORES, C7-C12, (Hz)   :
AMORTIGUAMIENTO DE SENSORES, C1-C6     : /50.0/50.0/50.0
AMORTIGUAMIENTO DE SENSORES, C7-C12    :
INTERVALO DE MUESTREO, C1-C6, (s)      : /0.005/0.005/0.005
INTERVALO DE MUESTREO, C7-C12, (s)     :
UMBRAL DE DISPARO, C1-C6, (Gal)        : Ajustable de 1 a 10
UMBRAL DE DISPARO, C7-C12, (Gal)       :
MEMORIA DE PREEVENTO (s)               : de 0 a 15
TIEMPO DE POSEVENTO (s)                : de 0 a 90


================================================================================
DATOS DEL SISMO:
FECHA DEL SISMO (GMT)                  : 10/SEP/93
HORA EPICENTRO (GMT)                   : 19:12
MAGNITUD(ES)                           : /Ms=7.30/Mb=6.30
COORDENADAS DEL EPICENTRO              : 14.140 LAT. N 
                                       : 92.820 LONG. W 
PROFUNDIDAD FOCAL (km)                 : 14 
FUENTE DE LOS DATOS EPICENTRALES       : IG, UNAM
                                       :

================================================================================
DATOS DE ESTE REGISTRO:
HORA DE LA PRIMERA MUESTRA (GMT)       : 19:18:00.00
EXACTITUD DEL TIEMPO (s)               :     
DURACION DEL REGISTRO (s), C1-C6       : /111.36/111.36/111.36
DURACION DEL REGISTRO (s), C7-C12      :
NUM. TOTAL DE MUESTRAS, C1-C6          : /22272/22272/22272
NUM. TOTAL DE MUESTRAS, C7-C12         :
ACEL. MAX.(Gal), C1-C6                 : /6.04/-1.58/4.42
ACEL. MAX., C1-C6, EN LA MUESTRA       : /10157/1979/11858
ACEL. MAX.(Gal), C7-C12                :
ACEL. MAX., C7-C12, EN LA MUESTRA      :
UNIDADES DE LOS DATOS                  : Gal
FACTOR DE DECIMACION                   : 1
FORMATO DATOS (FORTRAN,10 campos/dato) : 3F10.3


===============================================================================
CALIDAD DEL ACELEROGRAMA:
REGISTRO DIGITAL COMPLETO, CARECE DE TIEMPO ABSOLUTO.


===============================================================================
COMENTARIOS:
CADA UNO DE LOS CANALES SE ENCUENTRA AJUSTADO POR LINEA BASE MEDIANTE LA
SUSTRACCION DEL PROMEDIO DE LAS ACELERACIONES EN EL TIEMPO.












===============================================================================
DATOS DE ACELERACION:
---------+---------+---------+---------+---------+---------+---------+---------+
   CANAL-1   CANAL-2   CANAL-3   CANAL-4   CANAL-5   CANAL-6   CANAL-7   CANAL-8
      N00E        +V      N90E
---------+---------+---------+---------+---------+---------+---------+---------+
[...]
     2.143     -.111     2.848
     2.143     -.111     2.363
     2.143     -.600     2.848
     2.143     -.111     2.848
     2.143     -.111     3.332
     2.143     -.111     2.848
     2.143     -.111     3.332
     2.143     -.111     3.332
     2.143     -.111     2.848
     2.143     -.111     3.332
     2.143     -.111     3.332
     2.143     -.111     3.332
     2.143     -.111     2.848
     2.629     -.111     2.848
     2.629     -.111     2.848
     2.629     -.111     3.332
     2.629     -.111     3.332
     2.629     -.111     3.332
     2.143     -.111     2.848
     2.629     -.111     3.332
     2.629     -.111     3.332
     2.629     -.111     2.848
     2.629     -.111     2.848
     2.629     -.111     2.848
     3.116     -.111     2.848
     2.629     -.111     2.848
     2.629     -.111     3.332
     2.629     -.111     2.363
     3.116     -.111     2.848
     2.629      .377     2.848
     3.116     -.111     2.363
     3.116      .377     2.848
     3.116      .377     2.848
     3.116     -.111     2.848
     3.116     -.111     2.848
     3.116     -.111     2.848
     3.116     -.111     3.332
     3.116     -.111     2.848
     3.116     -.111     2.848
     3.116     -.111     2.363
     3.116     -.111     2.848
     3.116      .377     2.363
     3.116      .377     2.363
     3.116      .377     2.363
     3.116      .377     2.363
     3.603      .377     2.363
     3.603      .377     2.363
     3.603      .377     2.363
     3.603      .377     2.848
     3.603      .377     2.363
     3.603      .377     2.363
     3.603      .377     2.363
     3.603     -.111     2.363
     3.603      .377     2.363
     3.603      .377     1.879
     3.603     -.111     1.879
     3.603      .377     2.363
     3.603      .377     1.879
     3.603      .377     1.879
     3.603      .377     1.879
     3.603     -.111     1.879
     3.603      .377     1.879
     3.603      .377     1.879
     3.603     -.111     1.879
     3.603      .377     1.879
     3.603      .377     1.879
     3.603      .377     1.394
     4.089      .377     1.879
     4.089      .377     1.879
     4.089      .377     1.879
     4.089      .377     1.879
     4.089     -.111     1.394
     4.089      .377     1.394
     4.089      .377     1.394
     4.089     -.111     1.394
     3.603      .377     1.394
     4.089      .377     1.394
     4.089      .377     1.394
     4.089      .377     1.394
     4.089      .377     1.394
     4.089      .377      .909
     4.089      .377     1.394
     4.089      .377      .909
     4.089      .377      .425
     4.089      .377     1.394
     4.089      .377     1.394
     4.089      .865      .909
     4.089      .865      .909
     4.089      .377      .425
     4.089      .865      .425
     4.089      .377      .425
     4.089      .865      .425
     3.603      .865      .425
     3.603      .377      .425
     4.089      .865      .425
     4.089      .865      .425
     4.089      .865      .425
     4.089      .865      .425
     4.089      .377      .425
     4.089      .865      .425
     3.603      .865      .425
     4.089      .865      .425
     4.089      .377      .425
     3.603      .865      .425
     3.603      .865      .425
     4.089      .865      .425
     3.603      .865     -.060
     3.603      .865      .425
     4.089      .865      .425
     4.089      .865      .425
     3.603      .865      .425
     3.603      .865      .425
     4.089      .865      .425
     3.603      .865      .425
     4.089      .865      .425
     4.089      .865      .425
     4.089      .865      .425
     3.603      .865     -.060
     3.603      .865      .425
     3.603      .865      .425
     3.603      .865      .425
     3.603      .865     -.060
     3.603      .865      .425
     3.603      .865     -.060
     3.603      .865      .425
     3.603      .865      .425
     3.603      .865     -.060
     3.603      .865      .425
     3.603      .865      .425
     4.089      .865     -.060
     3.603      .865      .425
     3.603      .865      .425
     3.603      .865      .425
     3.603      .865      .425
     3.603      .865     -.060
     3.603      .865      .425
     3.603      .865     -.060
     3.603      .865      .425
     3.603      .865      .425
     3.603      .865     -.060
     3.603      .865     -.060
     3.603      .865      .425
     3.603      .865     -.060
     3.603      .865      .425
     3.603      .865      .425
     3.603      .865      .425
     3.603      .865      .425
     3.603      .865      .425
     3.603      .865      .425
     3.603      .865      .425
     3.603      .865      .425
     3.116      .865      .425
     3.603      .865      .425
     3.603      .377      .425
     3.116      .865      .425
     3.603      .865      .425
     3.116      .865      .425
     3.603      .377      .425
     3.116      .865     -.060
     3.603      .865     -.060
     3.116      .865      .425
     3.116      .865      .425
     3.603      .865      .425
     3.116      .865      .425
     3.116      .865      .425
     3.116      .865     -.060
     3.116      .865      .425
     3.116      .865      .425
     3.116      .865      .425
     3.116      .377      .425
     3.116      .377      .425
     3.116      .377      .909
     3.116      .377      .425
     3.116      .377      .425
     3.116      .377      .909
     3.116      .377      .425
     2.629      .377      .425
     2.629      .377      .425
     2.629      .377      .425
     2.143      .377      .425
     2.629      .377     -.060
     2.629     -.111      .425
     2.629      .377      .425
     2.629      .377      .909
     2.629      .377      .909
     2.629      .377      .909
     2.143      .377      .909
     2.629      .377      .909
     2.143      .377      .909
     2.143     -.111      .909
     2.629      .377      .909
     2.143     -.111      .909
     2.143     -.111      .425
     2.143     -.111      .909
     2.143     -.111      .909
     2.143     -.111      .909
     2.143     -.111      .909
     2.143     -.111      .909
     2.143     -.111      .909
     2.143     -.111      .909
     2.143     -.111      .909
     2.143     -.111      .909
     2.143     -.111      .909
     1.656     -.111      .909
     1.656     -.111      .909
     1.656     -.111      .909
     1.656     -.111      .909
     1.656     -.111      .909
     1.656     -.111      .909
     1.656     -.111      .909
     1.656     -.111      .909
     1.656     -.111      .909
     1.656     -.111     1.394
     1.656     -.111      .909
     1.656     -.111      .909
     1.656     -.600     1.394
     1.170     -.111     1.394
     1.170     -.111     1.394
     1.170     -.111      .909
     1.170     -.111     1.394
     1.170     -.111      .909
      .683     -.111      .909
      .683     -.111      .425
      .683     -.600      .909
      .683     -.111      .909
      .683     -.111      .909
      .683     -.111      .909
      .683     -.111     1.394
      .683     -.111      .909
      .683     -.111      .909
      .683     -.600      .909
      .683     -.111      .909
      .197     -.111      .909
      .197     -.111      .909
      .197     -.111      .909
      .197     -.111      .425
      .197     -.111      .909
      .197     -.600      .909
      .197     -.111      .909
      .197     -.600      .425
      .197     -.600      .909
      .197     -.600      .425
     -.290     -.600      .909
     -.290     -.111      .425
     -.290     -.111      .425
     -.290     -.600      .425
     -.290     -.111      .425
     -.290     -.111      .425
     -.290     -.111      .425
     -.290     -.111      .425
     -.290     -.111      .909
     -.777     -.111      .425
     -.777     -.111      .425
     -.777     -.111      .425
     -.777     -.111      .425
     -.777     -.600      .425
     -.777     -.600      .425
     -.777     -.111      .425
     -.777     -.111      .425
    -1.263     -.600      .425
    -1.263     -.111      .425
    -1.263     -.111     -.060
    -1.263     -.111     -.060
    -1.263     -.111     -.060
    -1.263     -.111     -.545
    -1.263     -.111     -.060
    -1.263     -.111     -.060
    -1.263     -.111     -.545
    -1.750     -.111     -.060
    -1.263     -.111     -.060
    -1.750     -.111     -.060
    -1.750     -.111     -.060
    -1.750     -.111     -.060
    -1.750     -.111     -.060
    -1.750     -.111     -.545
    -1.750     -.111     -.545
    -2.236     -.111     -.545
    -2.236     -.111     -.545
    -2.236     -.111     -.545
    -2.236     -.111     -.545
    -2.236     -.111     -.545
    -2.236     -.111     -.545
    -2.236     -.111     -.545
    -2.236     -.111     -.545
    -2.236     -.111     -.545
    -2.723     -.111     -.545
    -2.723     -.111     -.545
    -2.723     -.111    -1.029
    -2.723     -.111    -1.029
    -2.723     -.111    -1.029
    -2.723     -.111    -1.514
    -2.723     -.111    -1.514
    -3.209     -.111    -1.514
    -3.209     -.111    -1.514
    -3.209     -.111    -1.029
    -3.209     -.111    -1.514
    -3.209     -.111    -1.999
    -3.209     -.111    -1.514
    -3.209      .377    -1.514
    -3.209     -.111    -1.514
    -3.209     -.111    -1.514
    -3.696      .377    -1.514
    -3.696      .377    -1.514
    -3.696      .377    -1.514
    -3.696     -.111    -1.514
    -3.696      .377    -1.999
    -3.696      .377    -1.999
    -3.696      .377    -1.999
    -3.696      .377    -1.999
    -4.183      .377    -1.999
    -3.696     -.111    -1.999
    -4.183     -.111    -1.999
    -4.183     -.111    -1.999
    -4.183      .377    -2.483
    -4.183     -.111    -1.999
    -4.669      .377    -2.483
    -4.669     -.111    -1.999
    -4.669      .377    -2.483
    -4.669     -.111    -1.999
    -4.669     -.111    -2.483
    -4.669     -.111    -2.483
    -4.669     -.111    -2.483
    -4.669     -.111    -2.483
    -4.669     -.111    -2.483
    -4.669     -.111    -2.483
    -4.669     -.111    -2.483
    -4.669      .377    -2.483
    -5.156      .377    -2.483
    -5.156     -.111    -2.483
    -5.156      .377    -2.483
    -5.156     -.111    -2.967
    -5.156     -.111    -2.483
    -5.156     -.111    -2.483
    -5.156     -.111    -2.483
    -5.156     -.111    -2.967
    -5.156     -.111    -2.483
    -5.156     -.111    -2.967
    -5.156     -.111    -2.483
    -5.156     -.111    -2.483
    -5.156     -.111    -2.967
    -5.156     -.111    -2.967
    -5.642     -.111    -3.452
    -5.156     -.111    -2.967
    -5.642     -.111    -2.967
    -5.156     -.111    -2.967
    -5.642     -.111    -3.452
    -5.642     -.111    -3.452
    -5.642     -.111    -2.967
    -5.642     -.111    -2.483
    -5.642     -.111    -2.967
    -5.642     -.111    -2.483
    -5.642     -.111    -2.967
    -5.642     -.111    -2.967
    -5.156     -.111    -2.483
    -5.156     -.111    -2.967
    -5.642     -.600    -2.967
    -5.642     -.111    -2.967
    -5.156     -.111    -2.967
    -5.642     -.600    -2.967
    -5.642     -.111    -2.967
    -5.156     -.600    -2.967
    -5.642     -.111    -2.967
    -5.642     -.111    -2.967
    -5.156     -.600    -2.967
    -5.156     -.600    -2.967
    -5.156     -.600    -2.967
    -5.156     -.600    -2.483
    -5.156     -.600    -2.967
    -5.156    -1.088    -2.967
    -5.156     -.111    -2.483
    -5.156     -.600    -2.967
    -5.156     -.600    -2.483
    -5.642     -.600    -2.967
    -5.156     -.600    -2.483
    -5.156     -.600    -2.483
    -5.156     -.600    -2.483
    -5.156     -.600    -2.967
    -5.156     -.600    -2.483
    -5.156     -.600    -2.967
    -5.156     -.600    -2.483
    -5.156     -.600    -2.483
    -5.156    -1.088    -2.483
    -4.669     -.600    -2.967
    -5.156     -.600    -2.483
    -4.669     -.600    -2.483
    -4.669     -.600    -2.483
    -4.669     -.600    -2.483
    -4.669     -.600    -2.483
    -5.156     -.600    -2.483
    -4.669     -.600    -2.483
    -4.669     -.600    -2.483
    -4.669     -.600    -2.483
    -4.669     -.600    -2.483
    -4.183     -.600    -1.999
    -4.183     -.600    -1.999
    -4.669     -.600    -1.999
    -4.183     -.600    -1.999
    -4.183     -.600    -1.999
    -4.183     -.600    -2.483
    -4.183     -.600    -1.999
    -4.183     -.600    -1.999
    -4.183    -1.088    -1.999
    -3.696    -1.088    -1.999
    -3.696     -.600    -1.999
    -3.696     -.600    -1.999
    -3.696    -1.088    -1.999
    -3.696     -.600    -1.999
    -3.696    -1.576    -1.999
    -3.696     -.600    -1.999
    -3.209     -.600    -1.999
    -3.209     -.600    -1.514
    -3.209     -.600    -1.514
    -3.209     -.600    -1.514
    -3.209     -.600    -1.514
    -3.209    -1.088    -1.514
    -3.209     -.600    -1.514
    -3.209     -.600    -1.999
    -3.209     -.600    -1.514
    -3.209     -.600    -1.514
    -3.209     -.600    -1.514
    -2.723     -.600    -1.514
    -2.723     -.600    -1.999
    -2.723     -.600    -1.514
    -2.723     -.600    -1.514
    -2.723     -.600    -1.514
    -2.236     -.600    -1.514
    -2.236    -1.088    -1.514
    -2.236     -.600    -1.029
    -2.236    -1.088    -1.029
    -2.236     -.600    -1.029
    -2.236     -.600    -1.029
    -2.236     -.600    -1.029
    -2.236     -.600    -1.514
    -1.750     -.600    -1.029
    -1.750     -.600    -1.029
    -1.750     -.600    -1.514
    -1.750     -.600    -1.029
    -1.750     -.600    -1.029
    -1.263     -.111    -1.029
    -1.263     -.600    -1.029
    -1.263     -.111    -1.029
    -1.263     -.111    -1.029
    -1.263     -.600     -.545
    -1.263     -.111     -.545
    -1.263     -.600     -.545
    -1.263     -.111     -.545
    -1.263     -.111     -.545
    -1.263     -.111    -1.029
    -1.263     -.600     -.545
     -.777     -.111     -.545
     -.777     -.111     -.545
     -.777     -.111     -.545
     -.290     -.111     -.545
     -.777     -.111     -.060
     -.290     -.111     -.545
     -.777     -.111     -.060
     -.290     -.111     -.545
     -.290     -.111     -.545
     -.290     -.111     -.060
     -.290     -.111     -.060
     -.290     -.111     -.545
     -.290     -.111     -.545
      .197     -.111     -.060
      .197     -.111     -.060
      .197     -.111     -.060
      .197     -.111     -.060
      .197     -.111     -.060
      .197     -.111     -.060
      .197     -.111     -.060
      .197     -.111     -.060
      .197     -.111     -.060
      .683     -.111     -.060
      .683      .377     -.060
      .683     -.111     -.060
      .683     -.111     -.060
      .683      .377     -.060
      .683      .377      .425
      .683      .377     -.060
      .683      .377      .425
      .683      .377      .425
      .683      .377     -.060
      .683      .377     -.060
      .683      .377     -.060
      .683      .377     -.060
      .683      .377      .425
      .683      .377     -.060
      .683      .377     -.060
      .683      .377      .425
