********************************************************************************
           RED INTERUNIVERSITARIA DE INSTRUMENTACION SISIMICA (RIIS)
 AREA DE ESTRUCTURAS, UNIVERSIDAD AUTONOMA METROPOLITANA - UNIDAD AZCAPOTZALCO
         AV. SAN PABLO 180; COL. REYNOSA TAMAULIPAS; MEXICO D.F. 02200.                                                                               
       TELS: 7235859, 7235856; FAX: 7244285; e-mail: esz@hp9000a1.uam.mx
********************************************************************************
ARCHIVO ESTANDAR DE ACELERACION:
VERSION DEL FORMATO                    : 2.0
NOMBRE DEL ARCHIVO                     : RIDX9403.141
FECHA Y HORA DE CREACION               : 14 de marzo 1994 /20:56
REF. CATALOGO ACELEROGRAMAS, SMIS 1996 : REGISTRO No. 297 /PAG. 56


================================================================================
DATOS DE LA ESTACION:
NOMBRE DE LA ESTACION                  : UAM XOCHIMILCO
CLAVE DE LA ESTACION                   : RIDX
LOCALIZACION DE LA ESTACION            : CALZADA DEL HUESO 1100, COLONIA VILLA
                                       : QUIETUD, PLANTEL XOCHIMILCO, FRENTE A
                                       : LA BIBLIOTECA, MEXICO, D.F.
                                       :
                                       :
COORDENADAS DE LA ESTACION             : 19.310 LAT. N 
                                       : 99.100 LONG. W 
ALTITUD (msnm)                         : 2235
TIPO DE SUELO                          : LIMOS Y ARENAS ARCILLOSAS
                                       : 
                                       : 
INSTITUCION RESPONSABLE                : RED INTERUNIVERSITARIA DE
                                       : INSTRUMENTACION SISMICA (RIIS)

================================================================================
DATOS DEL ACELEROGRAFO:
MODELO DEL ACELEROGRAFO                : SSA-2
NUMERO DE SERIE DEL ACELEROGRAFO       : 1320
NUMERO DE CANALES                      : 3
ORIENTACION C1-C6 (rumbo;orientacion)  : /N00E/+V/N90E
ORIENTACION C7-C12 (rumbo;orientacion) :
VEL. DE MUESTREO, C1-C6 (muestras/s)   : /200/200/200
VEL. DE MUESTREO, C7-C12 (muestras/s)  :
ESC. COMPLETA DE SENSORES, C1-C6, (g)  : /1.0/1.0/1.0
ESC. COMPLETA DE SENSORES, C7-C12, (g) :
FREC. NAT. DE SENSORES, C1-C6, (Hz)    : /50.0/50.0/50.0
FREC. NAT. DE SENSORES, C7-C12, (Hz)   :
AMORTIGUAMIENTO DE SENSORES, C1-C6     : /0.7/0.7/0.7
AMORTIGUAMIENTO DE SENSORES, C7-C12    :
INTERVALO DE MUESTREO, C1-C6, (s)      : /0.005/0.005/0.005
INTERVALO DE MUESTREO, C7-C12, (s)     :
UMBRAL DE DISPARO, C1-C6, (Gal)        : /4/4/4
UMBRAL DE DISPARO, C7-C12, (Gal)       :
MEMORIA DE PREEVENTO (s)               : 15
TIEMPO DE POSEVENTO (s)                : 60


================================================================================
DATOS DEL SISMO:
FECHA DEL SISMO (GMT)                  : 14/MAR/94
HORA EPICENTRO (GMT)                   : 20:51:32,5
MAGNITUD(ES)                           : /Mc=6.50
COORDENADAS DEL EPICENTRO              : 15.670 LAT. N 
                                       : 93.010 LONG. W 
PROFUNDIDAD FOCAL (km)                 : 95 
FUENTES DE LOS DATOS EPICENTRALES      : SSN
                                       : INSTITUTO DE GEOFISICA, UNAM

================================================================================
DATOS DE ESTE REGISTRO:
HORA DE LA PRIMERA MUESTRA (GMT)       : 20:56:00.00
EXACTITUD DEL TIEMPO (s)               :   
DURACION DEL REGISTRO (s), C1-C6       : /116.48/116.48/116.48
DURACION DEL REGISTRO (s), C7-C12      :
NUM. TOTAL DE MUESTRAS, C1-C6          : /23296/23296/23296
NUM. TOTAL DE MUESTRAS, C7-C12         :
ACEL. MAX.(Gal), C1-C6                 : /7.64/-1.79/-4.44
ACEL. MAX., C1-C6, EN LA MUESTRA       : /4092/1089/4322
ACEL. MAX.(Gal), C7-C12                :
ACEL. MAX., C7-C12, EN LA MUESTRA      :
UNIDADES DE LOS DATOS                  : Gal
FACTOR DE DECIMACION                   : 1
FORMATO DATOS (FORTRAN,10 campos/dato) : 3F10.3


===============================================================================
CALIDAD DEL ACELEROGRAMA:
REGISTRO DIGITAL COMPLETO, CARECE DE TIEMPO ABSOLUTO.


===============================================================================
COMENTARIOS:
CADA UNO DE LOS CANALES SE ENCUENTRA AJUSTADO POR LINEA BASE MEDIANTE LA
SUSTRACCION DEL PROMEDIO DE LAS ACELERACIONES EN EL TIEMPO.











MODELO DEL ACELEROGRAFO : SSA-2 (KINEMETRICS)
===============================================================================
DATOS DE ACELERACION:
---------+---------+---------+---------+---------+---------+---------+---------+
   CANAL-1   CANAL-2   CANAL-3   CANAL-4   CANAL-5   CANAL-6   CANAL-7   CANAL-8
      N00E        +V      N90E
---------+---------+---------+---------+---------+---------+---------+---------+
[...]
     -.149      .655    -1.047
     -.149      .167    -1.047
     -.149      .167    -1.532
     -.149      .167    -1.047
     -.149      .167    -1.047
     -.149      .167    -1.047
     -.149      .167    -1.532
     -.635      .167    -1.047
     -.635      .167    -1.047
     -.635      .167    -1.532
     -.635      .167    -1.047
     -.635      .167    -1.047
     -.635      .167    -1.047
     -.635      .167    -1.047
     -.635     -.322    -1.047
    -1.122      .167    -1.047
     -.635      .167    -1.532
     -.635      .167    -1.532
    -1.122      .167    -1.047
    -1.122      .167    -1.532
    -1.122      .167    -1.532
    -1.122      .167    -1.047
    -1.122     -.322    -1.047
    -1.122     -.322    -1.047
    -1.122     -.322    -1.047
    -1.608     -.322    -1.047
    -1.122     -.322    -1.047
    -1.608     -.322    -1.047
    -1.608     -.322    -1.047
    -1.608     -.322    -1.532
    -1.608     -.322    -1.047
    -1.608     -.322    -1.047
    -1.608     -.322    -1.532
    -1.608     -.322    -1.047
    -1.608     -.322    -1.047
    -1.608     -.322    -1.047
    -2.095     -.322    -1.047
    -1.608     -.322    -1.047
    -2.095     -.322    -1.047
    -2.095     -.322    -1.047
    -2.095     -.322    -1.047
    -2.095     -.810    -1.047
    -2.095     -.322    -1.047
    -2.095     -.322    -1.047
    -2.095     -.322    -1.047
    -2.095     -.322    -1.047
    -2.095     -.810    -1.047
    -2.095     -.322    -1.047
    -2.581     -.810    -1.047
    -2.581     -.322    -1.047
    -2.581     -.322    -1.047
    -2.581     -.322    -1.047
    -2.581     -.322    -1.047
    -2.581     -.322    -1.047
    -2.581     -.322    -1.047
    -2.581     -.322    -1.532
    -2.581     -.322    -1.047
    -2.581     -.322    -1.047
    -2.581     -.322    -1.532
    -2.581     -.322    -1.047
    -2.581     -.322    -1.532
    -2.581     -.322    -1.047
    -2.581     -.322    -1.047
    -3.068     -.322    -1.532
    -3.068     -.322    -1.532
    -3.068     -.322    -1.047
    -3.068     -.322    -1.047
    -3.068     -.322    -1.047
    -3.068     -.322    -1.047
    -3.068     -.322    -1.532
    -3.068     -.322    -1.532
    -3.068      .167    -1.532
    -3.068     -.322    -1.047
    -3.068      .167    -1.532
    -3.068      .167    -1.532
    -3.555      .167    -1.532
    -3.555      .167    -1.532
    -3.068      .167    -1.532
    -3.555      .167    -2.017
    -3.555      .167    -2.017
    -3.555      .167    -1.532
    -3.555      .167    -2.017
    -3.555      .167    -1.532
    -3.555      .167    -2.017
    -3.555      .655    -2.017
    -3.555      .167    -2.501
    -3.555      .167    -2.017
    -3.555      .167    -2.017
    -3.555      .167    -2.017
    -3.555      .655    -2.017
    -3.555      .655    -2.017
    -3.555      .655    -2.017
    -3.555      .655    -2.501
    -4.041      .655    -2.017
    -3.555      .655    -2.501
    -4.041      .167    -2.017
    -4.041      .655    -2.017
    -4.041      .655    -2.501
    -4.041      .655    -2.017
    -4.041      .655    -2.501
    -4.041      .655    -2.501
    -4.041      .655    -2.501
    -4.041      .655    -2.501
    -4.041     1.144    -2.501
    -4.041     1.144    -2.501
    -4.041      .655    -2.501
    -4.041     1.144    -2.501
    -4.041      .655    -2.501
    -4.528     1.144    -2.986
    -4.528     1.144    -2.986
    -4.528      .655    -2.501
    -4.528      .655    -2.501
    -4.528      .655    -2.501
    -4.528     1.144    -2.986
    -4.528     1.144    -2.986
    -4.528     1.144    -2.501
    -4.528     1.144    -2.986
    -4.528     1.144    -2.986
    -4.528      .655    -2.986
    -4.528      .655    -2.986
    -4.528     1.144    -2.986
    -4.528      .655    -2.986
    -4.528     1.144    -2.986
    -4.528     1.144    -2.986
    -4.528      .655    -2.986
    -4.528      .655    -2.986
    -4.528     1.144    -2.986
    -4.528      .655    -2.986
    -4.528     1.144    -2.986
    -4.528     1.144    -2.986
    -4.528     1.144    -2.986
    -4.528     1.144    -2.986
    -4.528      .655    -2.986
    -4.528      .655    -2.986
    -5.014     1.144    -2.986
    -5.014     1.144    -2.986
    -4.528     1.144    -2.986
    -4.528      .655    -2.986
    -4.528     1.144    -2.986
    -4.528     1.144    -2.986
    -4.528     1.144    -2.986
    -4.528      .655    -3.471
    -4.528      .655    -2.986
    -4.528      .655    -2.986
    -5.014     1.144    -2.986
    -4.528      .655    -3.955
    -5.014      .655    -3.471
    -4.528      .655    -2.986
    -4.528     1.144    -2.986
    -4.528      .655    -2.986
    -4.528      .655    -2.986
    -4.528      .655    -2.986
    -5.014      .655    -2.986
    -4.528      .655    -2.986
    -4.528      .655    -2.986
    -4.528      .655    -2.986
    -4.528      .655    -2.986
    -4.528      .655    -2.986
    -4.528      .655    -2.986
    -4.528      .655    -2.986
    -4.528      .655    -2.501
    -4.528      .167    -2.501
    -4.528      .655    -2.986
    -4.528      .167    -2.501
    -4.528      .655    -2.501
    -4.528      .167    -2.501
    -4.528      .167    -2.501
    -4.528      .167    -2.986
    -4.528     -.322    -2.501
    -4.528      .167    -2.501
    -4.528      .167    -2.017
    -4.528      .167    -2.017
    -4.528      .167    -2.501
    -4.041      .167    -2.017
    -4.041      .167    -2.017
    -4.041      .167    -2.501
    -4.041      .167    -2.017
    -4.041      .167    -2.017
    -4.041     -.322    -2.017
    -4.041      .167    -2.017
    -4.041      .167    -2.017
    -4.041     -.322    -2.017
    -4.041     -.322    -1.532
    -4.041      .167    -2.017
    -3.555      .167    -2.017
    -3.555     -.322    -1.532
    -3.555     -.322    -2.017
    -3.555     -.322    -1.532
    -3.555     -.322    -1.532
    -3.555     -.322    -2.017
    -3.555     -.322    -1.532
    -3.555     -.810    -1.532
    -3.555     -.322    -1.532
    -3.555     -.322    -1.532
    -3.555     -.322    -1.047
    -3.555     -.322    -1.532
    -3.555     -.322    -1.047
    -3.555     -.322    -1.047
    -3.555     -.322    -1.047
    -3.068     -.322    -1.047
    -3.068     -.322    -1.047
    -3.068     -.322     -.563
    -3.068     -.322    -1.047
    -3.068     -.322    -1.047
    -3.068     -.810     -.563
    -3.068     -.322     -.563
    -3.068     -.322     -.563
    -3.068     -.322     -.563
    -2.581     -.322     -.563
    -3.068     -.322     -.563
    -2.581     -.322     -.563
    -2.581     -.322     -.563
    -2.581     -.322     -.563
    -2.581     -.322     -.563
    -2.581     -.322     -.078
    -2.581     -.322     -.078
    -2.581     -.322     -.563
    -2.581     -.322     -.078
    -2.581     -.322     -.078
    -2.581     -.322     -.078
    -2.095     -.322     -.078
    -2.095     -.322     -.078
    -2.095     -.322     -.078
    -2.095     -.322     -.078
    -2.095     -.322      .407
    -2.095     -.322     -.078
    -2.095     -.810      .407
    -2.095     -.322      .407
    -1.608     -.322     -.078
    -1.608     -.322      .891
    -1.608     -.322      .407
    -1.608     -.322      .891
    -1.608     -.322      .891
    -1.608     -.322      .891
    -1.608     -.322      .891
    -1.122     -.322      .891
    -1.608     -.322      .891
    -1.122     -.322     1.376
    -1.122     -.322     1.376
    -1.122     -.322     1.376
    -1.122     -.322     1.376
    -1.122     -.322     1.376
     -.635     -.322     1.861
     -.635     -.322     1.861
     -.635     -.322     1.861
     -.635     -.322     1.376
     -.635     -.322     1.376
     -.149     -.322     1.861
     -.149      .167     1.861
     -.149     -.322     1.861
     -.149     -.322     1.861
     -.149     -.322     1.861
      .338     -.322     1.861
      .338     -.322     1.861
      .338      .167     1.861
      .338      .167     1.861
      .338     -.322     2.345
      .338     -.322     2.345
      .825      .167     2.345
      .825      .167     2.345
      .825     -.322     2.345
      .825      .167     2.345
      .825     -.322     2.345
     1.311      .167     2.345
      .825     -.322     2.345
     1.311      .167     2.345
     1.311     -.322     2.830
     1.311     -.322     2.830
     1.311     -.322     2.830
     1.311     -.322     2.830
     1.798     -.322     2.830
     1.798     -.322     2.830
     1.798     -.322     2.830
     2.284     -.322     2.830
     2.284     -.322     3.314
     2.284     -.322     2.830
     2.284     -.322     3.314
     2.284     -.322     3.314
     2.284     -.322     3.314
     2.284     -.322     3.314
     2.771     -.322     3.314
     2.771     -.322     3.799
     2.771     -.322     3.799
     2.771     -.322     3.799
     2.771     -.322     3.799
     3.258     -.322     3.799
     3.258     -.322     3.799
     3.258     -.322     3.799
     3.258     -.810     3.799
     3.258     -.322     3.799
     3.258     -.322     3.799
     3.258     -.322     3.799
     3.744     -.322     3.314
     3.744     -.322     4.284
     3.744     -.322     3.799
     3.744     -.322     4.284
     3.744     -.322     4.284
     4.231     -.322     4.284
     4.231     -.322     3.799
     4.231     -.322     4.284
     4.231     -.322     3.799
     4.231     -.322     4.284
     4.717     -.322     4.284
     4.717     -.322     4.284
     4.717     -.322     4.284
     4.717     -.322     4.284
     4.717     -.322     4.284
     5.204     -.322     4.284
     5.204     -.322     4.284
     5.204     -.322     4.284
     5.204     -.322     4.284
     5.204     -.322     3.799
     5.204     -.322     4.284
     5.690     -.322     3.799
     5.690     -.322     4.284
     5.690     -.322     4.284
     5.690     -.322     3.799
     6.177     -.322     3.799
     6.177     -.322     3.799
     6.177     -.322     3.799
     6.177     -.322     3.799
     6.177     -.322     3.799
     6.663     -.322     3.799
     6.663     -.322     3.799
     6.663     -.322     3.314
     6.663     -.322     3.799
     6.663     -.322     3.799
     6.663     -.322     3.799
     7.150     -.322     3.799
     7.150     -.322     3.799
     7.150     -.322     3.799
     7.150     -.322     3.314
     7.150     -.322     3.314
     7.150      .167     3.314
     7.150     -.810     3.314
     7.150     -.322     3.314
     7.150     -.322     3.314
     7.150     -.322     2.830
     7.150     -.322     2.830
     7.150     -.322     3.314
     7.150     -.322     3.314
     7.637     -.322     2.830
     7.150     -.322     3.314
     7.150     -.322     2.830
     7.150     -.322     2.830
     7.150     -.322     2.830
     7.150     -.322     2.830
     7.637     -.322     2.830
     7.150     -.322     2.830
     7.150     -.322     2.830
     7.637     -.322     2.830
     7.637     -.322     2.830
     7.637     -.322     2.830
     7.637     -.322     2.830
     7.637     -.322     2.345
     7.637     -.322     2.830
     7.150     -.322     2.830
     7.150     -.322     2.830
     7.150     -.322     2.345
     7.637     -.322     2.345
     7.637     -.322     2.830
     7.150     -.322     1.861
     7.150     -.322     2.345
     7.150     -.322     2.345
     7.150     -.810     2.345
     7.637     -.322     2.345
     7.150     -.322     2.345
     7.150     -.322     2.830
     7.150     -.322     2.345
     7.150     -.322     2.345
     7.150     -.322     1.861
     7.150     -.322     2.345
     7.150     -.322     2.345
     7.150     -.322     1.861
     7.150     -.322     2.345
     7.150     -.322     2.345
     7.150     -.322     1.861
     7.150     -.322     2.345
     6.663     -.322     2.345
     7.150     -.322     2.345
     7.150     -.322     2.345
     6.663     -.322     1.861
     6.663     -.810     2.345
     6.663     -.322     2.345
     6.663     -.322     2.345
     6.663     -.322     2.345
     6.177     -.322     1.861
     6.177     -.322     1.861
     6.177     -.810     1.861
     6.177     -.322     2.345
     6.177     -.322     2.345
     6.177     -.322     1.861
     6.177     -.322     1.861
     6.177     -.322     2.345
     5.690     -.322     1.861
     5.690     -.322     1.861
     5.690     -.322     1.861
     5.690     -.322     1.861
     5.690     -.322     1.861
     5.204     -.322     1.861
     5.204     -.322     1.861
     5.204     -.322     1.861
     5.204     -.322     1.861
     5.204     -.322     1.861
     4.717     -.322     1.861
     4.717     -.810     1.861
     4.717     -.322     1.861
     4.231     -.322     1.861
     4.231     -.322     1.861
     4.231     -.322     1.861
     4.231     -.322     1.376
     3.744     -.322     1.861
     3.744     -.322     1.376
     3.744     -.322     1.861
     3.258     -.322     1.376
     3.258     -.322     1.376
     3.258     -.322     1.376
     3.258     -.322     1.861
     3.258     -.322     1.376
     2.771     -.322     1.861
     2.771     -.322     1.861
     2.771     -.322     1.861
     2.771     -.322     1.376
     2.284     -.322     1.376
     2.284     -.322     1.376
     2.284     -.322     1.376
     2.284     -.322     1.376
     1.798     -.322     1.861
     1.798     -.322     1.376
     1.798      .167     1.376
     1.798     -.322     1.861
     1.311     -.322     1.376
     1.311     -.322     1.376
     1.311     -.322     1.376
     1.311     -.322     1.861
     1.311      .167     1.376
      .825     -.322     1.861
      .825     -.322     1.861
      .825      .167     1.376
      .825     -.322     1.376
      .825      .167     1.376
      .338      .167     1.376
      .825     -.322     1.376
      .338      .167     1.376
      .338     -.322     1.376
      .338     -.322     1.376
      .338      .167     1.376
     -.149      .167     1.376
      .338      .167     1.376
     -.149      .167     1.376
     -.149      .167     1.376
     -.635      .167     1.376
     -.635     -.322     1.376
     -.635      .167     1.376
     -.635      .167     1.861
     -.635      .167     1.376
     -.635      .167     1.376
     -.635      .167     1.376
    -1.122     -.322     1.376
    -1.122      .167     1.376
    -1.122      .167     1.376
    -1.122     -.322     1.376
    -1.608     -.322     1.376
    -1.608      .167     1.376
    -1.608      .167      .891
    -1.608      .167     1.376
    -1.608      .167     1.376
    -1.608      .167      .891
    -1.608      .167      .891
    -2.095      .167     1.376
    -2.095     -.322     1.376
    -2.581      .167      .891
    -2.095      .167     1.376
    -2.095      .167      .891
    -2.581      .167     1.376
    -2.581      .167      .891
    -2.581      .167      .891
    -2.581      .167      .891
    -2.581      .167      .891
    -2.581      .167      .891
    -2.581      .167      .891
    -2.581      .167      .891
    -2.581      .167      .891
    -3.068      .167      .891
    -3.068      .167      .407
    -3.068      .167      .407
    -3.068      .167      .891
    -3.068      .167      .891
