********************************************************************************
           RED INTERUNIVERSITARIA DE INSTRUMENTACION SISIMICA (RIIS)
 AREA DE ESTRUCTURAS, UNIVERSIDAD AUTONOMA METROPOLITANA - UNIDAD AZCAPOTZALCO
         AV. SAN PABLO 180; COL. REYNOSA TAMAULIPAS; MEXICO D.F. 02200.                                                                               
       TELS: 7235859, 7235856; FAX: 7244285; e-mail: esz@hp9000a1.uam.mx
********************************************************************************
ARCHIVO ESTANDAR DE ACELERACION:
VERSION DEL FORMATO                    : 2.0
NOMBRE DEL ARCHIVO                     : RIDX9412.101
FECHA Y HORA DE CREACION               : 10 de diciembre 1994 /16:18
REF. CATALOGO ACELEROGRAMAS, SMIS 1996 : REGISTRO No. 1192 /PAG. 132


================================================================================
DATOS DE LA ESTACION:
NOMBRE DE LA ESTACION                  : UAM XOCHIMILCO
CLAVE DE LA ESTACION                   : RIDX
LOCALIZACION DE LA ESTACION            : CALZADA DEL HUESO 1100, COLONIA VILLA
                                       : QUIETUD, PLANTEL XOCHIMILCO, FRENTE A
                                       : LA BIBLIOTECA, MEXICO, D.F.
                                       :
                                       :
COORDENADAS DE LA ESTACION             : 19.310 LAT. N 
                                       : 99.100 LONG. W 
ALTITUD (msnm)                         : 2235
TIPO DE SUELO                          : LIMOS Y ARENAS ARCILLOSAS
                                       : 
                                       : 
INSTITUCION RESPONSABLE                : RED INTERUNIVERSITARIA DE 
                                       : INSTRUMENTACION SISMICA (RIIS)

================================================================================
DATOS DEL ACELEROGRAFO:
MODELO DEL ACELEROGRAFO                : SSA-2
NUMERO DE SERIE DEL ACELEROGRAFO       : 1320
NUMERO DE CANALES                      : 3
ORIENTACION C1-C6 (rumbo;orientacion)  : /N00E/+V/N90E
ORIENTACION C7-C12 (rumbo;orientacion) :
VEL. DE MUESTREO, C1-C6 (muestras/s)   : /200/200/200
VEL. DE MUESTREO, C7-C12 (muestras/s)  :
ESC. COMPLETA DE SENSORES, C1-C6, (g)  : /1.0/1.0/1.0
ESC. COMPLETA DE SENSORES, C7-C12, (g) :
FREC. NAT. DE SENSORES, C1-C6, (Hz)    : /50.0/50.0/50.0
FREC. NAT. DE SENSORES, C7-C12, (Hz)   :
AMORTIGUAMIENTO DE SENSORES, C1-C6     : /0.7/0.7/0.7
AMORTIGUAMIENTO DE SENSORES, C7-C12    :
INTERVALO DE MUESTREO, C1-C6, (s)      : /0.005/0.005/0.005
INTERVALO DE MUESTREO, C7-C12, (s)     :
UMBRAL DE DISPARO, C1-C6, (Gal)        : /4/4/4
UMBRAL DE DISPARO, C7-C12, (Gal)       :
MEMORIA DE PREEVENTO (s)               : 15
TIEMPO DE POSEVENTO (s)                : 60 


================================================================================
DATOS DEL SISMO:
FECHA DEL SISMO (GMT)                  : 10/DIC/94
HORA EPICENTRO (GMT)                   : 16:17:40,9
MAGNITUD(ES)                           : /Mc=6.30
COORDENADAS DEL EPICENTRO              : 18.020 LAT. N 
                                       : 101.560 LONG. W
PROFUNDIDAD FOCAL (km)                 : 20 
FUENTES DE LOS DATOS EPICENTRALES      : SSN
                                       : INSTITUTO DE GEOFISICA, UNAM

================================================================================
DATOS DE ESTE REGISTRO:
HORA DE LA PRIMERA MUESTRA (GMT)       : 16:18:00.00
EXACTITUD DEL TIEMPO (s)               : 
DURACION DEL REGISTRO (s), C1-C6       : /197.12/197.12/197.12
DURACION DEL REGISTRO (s), C7-C12      :
NUM. TOTAL DE MUESTRAS, C1-C6          : /39424/39424/39424
NUM. TOTAL DE MUESTRAS, C7-C12         :
ACEL. MAX.(Gal), C1-C6                 : /-21.23/6.60/18.29
ACEL. MAX., C1-C6, EN LA MUESTRA       : /9557/8000/6737
ACEL. MAX.(Gal), C7-C12                :
ACEL. MAX., C7-C12, EN LA MUESTRA      :
UNIDADES DE LOS DATOS                  : Gal 
FACTOR DE DECIMACION                   : 1
FORMATO DATOS (FORTRAN,10 campos/dato) : 3F10.3


===============================================================================
CALIDAD DEL ACELEROGRAMA:
REGISTRO DIGITAL COMPLETO, CARECE DE TIEMPO ABSOLUTO.


===============================================================================
COMENTARIOS:
CADA UNO DE LOS CANALES SE ENCUENTRA AJUSTADO POR LINEA BASE MEDIANTE LA
SUSTRACCION DEL PROMEDIO DE LAS ACELERACIONES EN EL TIEMPO.











MODELO DEL ACELEROGRAFO : SSA-2 (KINEMETRICS)
===============================================================================
DATOS DE ACELERACION:
---------+---------+---------+---------+---------+---------+---------+---------+
   CANAL-1   CANAL-2   CANAL-3   CANAL-4   CANAL-5   CANAL-6   CANAL-7   CANAL-8
      N00E        +V      N90E
---------+---------+---------+---------+---------+---------+---------+---------+
[...]
     2.300     5.126    -9.657
     1.810     5.126    -9.167
     1.810     5.126    -9.167
     1.320     5.126    -9.167
     1.320     5.126    -9.167
      .829     5.126    -9.167
      .829     5.126    -9.167
      .339     5.126    -9.167
      .339     5.126    -9.167
     -.151     5.126    -9.167
     -.151     4.636    -9.167
     -.641     4.636    -9.167
    -1.132     4.636    -9.167
    -1.132     4.636    -8.677
    -1.132     4.636    -8.677
    -1.622     4.636    -8.677
    -1.622     4.145    -8.677
    -2.112     4.145    -8.186
    -2.112     4.145    -8.186
    -2.112     3.655    -8.186
    -2.602     3.655    -8.186
    -2.602     3.165    -8.186
    -2.602     3.165    -8.186
    -3.093     3.165    -8.186
    -3.093     2.675    -7.696
    -3.093     2.675    -7.696
    -3.093     2.675    -7.696
    -3.583     2.675    -7.696
    -3.583     2.184    -7.206
    -3.583     2.184    -7.206
    -3.583     2.184    -7.206
    -3.583     2.184    -6.715
    -3.583     1.694    -6.715
    -3.583     1.694    -6.715
    -4.073     1.694    -6.225
    -4.073     1.694    -6.225
    -4.073     1.694    -6.225
    -4.073     1.204    -6.225
    -4.073     1.204    -5.735
    -4.073     1.204    -5.735
    -4.073     1.204    -5.735
    -4.563     1.204    -5.735
    -4.073     1.204    -5.735
    -4.073     1.204    -5.735
    -4.073     1.204    -5.245
    -4.563     1.204    -5.245
    -4.563     1.204    -5.245
    -4.563     1.204    -5.245
    -4.563     1.204    -5.245
    -4.563     1.204    -5.245
    -4.563     1.204    -5.245
    -4.563      .714    -5.245
    -4.563      .714    -5.245
    -4.563      .714    -5.245
    -4.563      .714    -5.245
    -4.563      .714    -5.245
    -4.563      .714    -5.245
    -4.563      .714    -5.245
    -4.563      .714    -5.245
    -4.563      .224    -5.245
    -4.563      .224    -5.245
    -5.053      .224    -4.755
    -5.053      .224    -4.755
    -4.563      .224    -4.755
    -5.053      .224    -4.264
    -4.563      .224    -4.264
    -5.053      .224    -4.264
    -5.053      .224    -3.774
    -5.053     -.267    -3.774
    -5.053     -.267    -3.284
    -5.053     -.267    -3.284
    -5.053     -.267    -3.284
    -5.053     -.757    -3.284
    -5.544     -.757    -2.794
    -5.053     -.757    -2.794
    -5.053     -.757    -2.303
    -5.053     -.757    -1.813
    -5.053     -.757    -1.813
    -5.053     -.757    -1.323
    -5.053     -.757    -1.323
    -5.053     -.757    -1.323
    -4.563    -1.247     -.833
    -4.563     -.757     -.833
    -4.563     -.757     -.342
    -4.563     -.757     -.342
    -4.563     -.757      .148
    -4.563     -.757      .638
    -4.563     -.757      .638
    -4.073     -.757     1.128
    -4.073     -.757     1.128
    -4.073     -.757     1.619
    -4.073     -.757     1.619
    -4.073     -.757     2.109
    -4.073     -.757     2.599
    -4.073     -.757     2.599
    -4.073     -.757     3.089
    -4.073     -.267     3.089
    -4.073     -.267     3.580
    -4.073     -.267     3.580
    -4.073     -.267     4.070
    -4.073     -.267     4.070
    -4.073     -.267     4.560
    -4.563     -.267     5.050
    -4.563     -.267     5.050
    -4.563      .224     5.541
    -4.563      .224     5.541
    -5.053      .224     5.541
    -5.053      .224     6.031
    -5.053      .224     6.031
    -5.544      .224     6.521
    -5.544      .224     6.521
    -5.544      .224     6.521
    -6.034     -.267     6.521
    -6.524     -.267     6.521
    -6.524     -.267     6.521
    -7.014     -.267     6.521
    -7.014     -.267     6.521
    -7.505      .224     7.012
    -7.505      .224     7.012
    -7.505      .224     7.012
    -7.995      .224     7.012
    -7.995      .224     7.502
    -7.995      .224     7.502
    -8.485      .224     7.502
    -8.485      .224     7.993
    -8.485      .224     7.993
    -8.975      .224     7.993
    -8.975      .224     8.483
    -8.975      .224     8.483
    -9.466      .224     8.483
    -9.466      .224     8.483
    -9.466     -.267     8.974
    -9.466     -.267     8.974
    -9.956     -.267     8.974
    -9.956     -.267     9.464
    -9.956     -.267     9.464
   -10.446     -.267     9.464
    -9.956     -.267     9.464
   -10.446     -.757     9.464
   -10.446     -.757     9.955
   -10.446     -.757     9.464
   -10.446     -.757     9.464
   -10.446     -.757     9.464
   -10.446     -.757     9.464
   -10.446    -1.247     9.464
   -10.446    -1.247     9.464
   -10.446    -1.247     9.464
    -9.956    -1.247     9.464
    -9.956    -1.247     9.464
    -9.956    -1.247     9.464
    -9.956    -1.737     9.464
    -9.956    -1.737     8.974
    -9.956    -1.737     8.974
    -9.466    -1.737     8.974
    -9.466    -1.737     8.974
    -9.466    -2.228     8.483
    -8.975    -2.228     8.483
    -8.975    -2.228     8.483
    -8.975    -2.228     8.483
    -8.485    -2.228     7.993
    -8.485    -2.228     7.993
    -8.485    -2.718     7.993
    -8.485    -2.718     7.502
    -7.995    -2.718     7.502
    -7.995    -2.718     7.012
    -7.995    -3.208     7.012
    -7.995    -3.208     6.521
    -7.505    -3.208     6.521
    -7.505    -3.208     6.031
    -7.505    -3.208     5.541
    -7.505    -3.208     5.541
    -7.014    -3.208     5.050
    -7.014    -3.208     4.560
    -7.014    -3.208     4.560
    -6.524    -3.208     4.070
    -6.524    -3.208     3.580
    -6.524    -3.208     3.089
    -6.034    -3.208     3.089
    -6.034    -2.718     2.599
    -6.034    -2.718     2.109
    -6.034    -2.718     2.109
    -5.544    -2.718     1.619
    -5.544    -2.718     1.128
    -5.544    -2.718     1.128
    -5.544    -2.718      .638
    -5.053    -2.228      .638
    -5.053    -2.718      .148
    -5.053    -2.228      .148
    -5.053    -2.228     -.342
    -5.053    -2.228     -.342
    -5.053    -2.228     -.833
    -5.053    -2.228     -.833
    -5.053    -2.228    -1.323
    -5.053    -2.228    -1.323
    -5.053    -2.228    -1.323
    -5.053    -2.228    -1.323
    -5.053    -2.228    -1.323
    -5.053    -2.228    -1.813
    -5.053    -2.228    -1.813
    -5.053    -2.228    -1.813
    -5.053    -2.228    -1.813
    -5.053    -2.228    -1.813
    -5.053    -2.228    -1.813
    -4.563    -2.228    -1.813
    -4.563    -2.228    -1.813
    -4.563    -1.737    -1.813
    -4.563    -1.737    -1.813
    -4.563    -1.737    -1.813
    -4.073    -1.737    -1.323
    -4.073    -1.737    -1.323
    -3.583    -1.247    -1.323
    -3.583    -1.247    -1.323
    -3.583    -1.247     -.833
    -3.093     -.757     -.833
    -3.093     -.757     -.833
    -2.602     -.757     -.342
    -2.602     -.267     -.342
    -2.112     -.267     -.342
    -2.112     -.267     -.342
    -2.112      .224     -.342
    -1.622      .224      .148
    -1.622      .224      .148
    -1.622      .224      .148
    -1.132      .224      .148
    -1.132      .714      .148
    -1.132      .714      .148
    -1.132      .714      .148
    -1.132      .714      .148
     -.641      .714      .148
     -.641      .714      .148
     -.641     1.204      .148
     -.641     1.204      .148
     -.641     1.204     -.342
     -.641     1.204     -.342
     -.641     1.204     -.342
     -.641     1.204     -.342
     -.641     1.204     -.342
     -.641     1.204     -.342
     -.641     1.204     -.833
     -.151     1.204     -.833
     -.151     1.694     -.833
     -.151     1.694    -1.323
     -.151     1.694    -1.323
     -.151     1.694    -1.323
     -.151     1.694    -1.323
     -.151     1.694    -1.813
     -.151     1.694    -1.813
     -.151     1.694    -1.813
     -.151     1.694    -1.813
      .339     1.694    -2.303
      .339     1.694    -2.303
      .339     1.694    -2.303
      .339     1.694    -2.794
      .339     1.694    -2.794
      .339     1.694    -2.794
      .339     1.694    -3.284
      .339     1.694    -3.284
      .339     1.694    -3.284
      .339     1.694    -3.284
      .339     1.694    -3.284
      .829     1.694    -3.284
      .829     1.694    -3.774
      .829     1.694    -3.774
      .829     1.694    -3.774
      .339     1.694    -3.774
      .339     1.204    -3.774
      .339     1.204    -3.774
      .339     1.204    -3.774
      .339     1.204    -3.774
      .339     1.204    -3.774
      .339     1.204    -3.284
      .829     1.204    -3.284
      .829     1.204    -3.284
      .829     1.204    -3.284
      .829     1.204    -3.284
     1.320     1.204    -2.794
     1.320     1.204    -2.794
     1.320     1.204    -2.303
     1.810     1.204    -2.303
     1.810     1.204    -2.303
     2.300     1.204    -1.813
     2.300      .714    -1.813
     2.300      .714    -1.813
     2.790      .714    -1.323
     3.281      .714    -1.323
     3.281      .714    -1.323
     3.771      .224    -1.323
     3.771      .224    -1.323
     4.261      .224     -.833
     4.751      .224     -.833
     4.751      .224     -.833
     5.242     -.267     -.833
     5.242     -.267     -.833
     5.732     -.267     -.833
     5.732     -.267     -.833
     6.222     -.267     -.833
     6.222     -.267     -.833
     6.713     -.757     -.833
     6.713     -.757     -.833
     7.203     -.757     -.833
     7.203     -.757     -.833
     7.694     -.757     -.833
     8.184    -1.247     -.833
     8.184    -1.247     -.833
     8.675    -1.247     -.833
     9.165    -1.247     -.833
     9.656    -1.247     -.833
     9.656    -1.247     -.833
    10.146    -1.247    -1.323
    10.637    -1.737    -1.323
    10.637    -1.737    -1.323
    11.127    -1.737    -1.323
    11.618    -1.737    -1.323
    12.108    -1.737    -1.323
    12.599    -1.737    -1.813
    13.089    -2.228    -1.813
    13.580    -2.228    -1.813
    14.070    -2.228    -1.813
    14.561    -2.228    -1.813
    15.051    -2.228    -1.813
    15.541    -2.228    -1.813
    16.032    -2.228    -1.813
    16.522    -2.228    -1.813
    17.013    -1.737    -1.813
    17.503    -1.737    -1.813
    17.503    -1.737    -1.813
    17.994    -1.737    -1.813
    17.994    -1.737    -1.813
    18.484    -1.737    -1.813
    18.975    -1.247    -1.813
    18.975    -1.247    -1.323
    19.465    -1.247    -1.323
    19.465    -1.247    -1.323
    19.956    -1.247    -1.323
    19.956    -1.247    -1.323
    19.956    -1.247    -1.323
    20.446    -1.247     -.833
    20.446     -.757     -.833
    20.446     -.757     -.833
    20.446     -.757     -.833
    20.446     -.757     -.833
    20.937     -.757     -.833
    20.937     -.267     -.342
    20.937     -.267     -.342
    20.937     -.267     -.342
    20.937     -.267     -.342
    20.937     -.267     -.342
    20.937      .224     -.342
    20.937      .224     -.342
    20.937      .224     -.342
    20.937      .224     -.342
    20.937      .714     -.342
    20.446      .714     -.342
    20.446      .714     -.342
    20.446      .714     -.342
    20.446      .714     -.342
    20.446     1.204     -.342
    19.956     1.204     -.342
    19.956     1.204     -.342
    19.956     1.204     -.342
    19.465     1.204     -.342
    19.465     1.204     -.342
    19.465     1.204     -.342
    18.975     1.694     -.342
    18.975     1.694     -.342
    18.484     1.694     -.342
    17.994     1.694     -.342
    17.994     1.694     -.342
    17.503     1.694     -.342
    17.503     1.694      .148
    17.013     1.694      .148
    16.522     1.694      .148
    16.032     1.694      .148
    15.541     2.184      .148
    15.541     1.694      .148
    15.051     2.184      .148
    14.561     2.184      .148
    14.070     2.184      .148
    13.580     2.184      .148
    13.089     2.184      .148
    12.599     2.184      .148
    12.108     2.184      .148
    11.618     2.184      .148
    11.127     2.184      .148
    10.637     2.184      .638
    10.146     2.184      .638
     9.656     2.184      .638
     9.165     2.184      .638
     8.675     2.184      .638
     8.184     2.184     1.128
     7.694     1.694     1.128
     7.203     1.694     1.128
     6.713     1.694     1.128
     6.222     1.694     1.619
     6.222     1.204     1.619
     5.732     1.204     2.109
     5.242     1.204     2.109
     4.751      .714     2.599
     4.261      .714     2.599
     4.261      .714     3.089
     3.771      .714     3.089
     3.281      .714     3.580
     3.281      .714     3.580
     2.790      .714     4.070
     2.300      .714     4.070
     2.300      .714     4.560
     2.300      .714     5.050
     1.810      .714     5.050
     1.810      .714     5.541
     1.320      .714     6.031
     1.320      .714     6.521
      .829      .714     6.521
      .339      .714     6.521
      .339      .714     7.012
     -.151      .714     7.012
     -.151      .714     7.502
     -.641      .714     7.502
     -.641      .714     7.502
    -1.132      .714     7.502
    -1.622      .714     7.993
    -1.622      .224     7.993
    -2.112      .714     7.993
    -2.112      .714     7.993
    -2.602      .714     7.993
    -3.093      .224     7.993
    -3.093      .224     7.993
    -3.583      .224     7.993
    -4.073      .224     7.993
    -4.073      .224     7.502
    -4.563      .224     7.502
    -5.053      .224     7.502
    -5.053      .224     7.502
    -5.544      .224     7.502
    -5.544      .224     7.012
    -6.034      .224     7.012
    -6.524      .224     7.012
    -6.524     -.267     6.521
    -7.014     -.267     6.521
    -7.014     -.267     6.521
    -7.505     -.267     6.521
    -7.505     -.267     6.031
    -7.995     -.267     6.031
    -7.995     -.267     6.031
    -7.995     -.267     5.541
    -8.485     -.267     5.541
    -8.485     -.267     5.050
    -8.485     -.267     5.050
    -8.485     -.267     5.050
    -8.975     -.267     4.560
    -8.975     -.267     4.560
    -8.975     -.267     4.560
    -8.975     -.267     4.070
    -9.466     -.267     4.070
    -9.466     -.267     3.580
    -9.466      .224     3.580
    -9.466      .224     3.580
    -9.466      .224     3.580
    -9.466      .224     3.580
    -9.466      .224     3.089
    -9.956      .224     3.089
    -9.956      .224     2.599
    -9.956      .224     2.599
   -10.446      .224     2.109
   -10.446     -.267     2.109
   -10.446      .224     2.109
   -10.936      .224     1.619
   -10.936      .224     1.619
   -11.427      .224     1.128
   -11.427     -.267     1.128
   -11.427     -.267      .638
   -11.427     -.267      .638
   -11.917     -.267      .638
   -11.917     -.267      .148
   -12.407     -.267      .148
   -12.407     -.267     -.342
   -12.407     -.757     -.342
   -12.407     -.757     -.833
   -12.897     -.757     -.833
   -12.897     -.757     -.833
   -12.897    -1.247    -1.323
   -13.388    -1.247    -1.323
   -13.388    -1.247    -1.813
   -13.388    -1.247    -1.813
   -13.388    -1.247    -2.303
   -13.388    -1.247    -2.303
   -13.878    -1.247    -2.794
   -13.878    -1.247    -2.794
   -13.878    -1.247    -2.794
