**************************************************************************************
            UNIVERSIDAD AUTONOMA METROPOLITANA - AZCAPOTZALCO
                        Departamento de Materiales
                           Area de Estructuras
     AV. SAN PABLO 180,COL.REYNOSA, AZCAPOTZALCO, C.P.02200 CIUDAD DE MEXICO.
**************************************************************************************
ARCHIVO ESTANDAR DE ACELERACION:
VERSION DEL FORMATO                    : 2.0
NOMBRE DEL ARCHIVO                     : RIDA201405101
FECHA Y HORA DE CREACION               : MON JUL 18 12:30:07 2018
REF. CATALOGO ACELEROGRAMAS, SMIS 1995 : REGISTRO NO.      /PAG.    


================================================================================
DATOS DE LA ESTACION:
NOMBRE DE LA ESTACION                  : UAM-AZCAPOTZALCO.
CLAVE DE LA ESTACION                   : RIDA
LOCALIZACION DE LA ESTACION            : AV. SAN PABLO 180,COL.REYNOSA, AZCAPOTZALCO,
                                       : C.P.02200 CIUDAD DE MEXICO.
                                       :
                                       : 
                                       : 
COORDENADAS DE LA ESTACION             : 19.498596 LAT. N
                                       : 99.195595 LONG. W
ALTITUD (msnm)                         : 2246
TIPO DE SUELO                          : TRANSICION 
                                       : 
                                       : 
INSTITUCION RESPONSABLE                : UNIVERSIDAD AUTONOMA METROPOLITANA
                                       : 

================================================================================
DATOS DEL ACELEROGRAFO: 
MODELO DEL ACELEROGRAFO                : BASALT KINEMETRICS
NUMERO DE SERIE DEL ACELEROGRAFO       : 1730
NUMERO DE CANALES                      : 3
ORIENTACION C1-C6 (rumbo;orientacion)  : /V/N00E/N90E
ORIENTACION C7-C12 (rumbo;orientacion) : 
VEL. DE MUESTREO, C1-C6 (muestras/s)   : /250/250/250
VEL. DE MUESTREO, C7-C12 (muestras/s)  : 
ESC. COMPLETA DE SENSORES, C1-C6, (g)  : /2/2/2
ESC. COMPLETA DE SENSORES, C7-C12 (g)  : 
FREC. NAT. DE SENSORES, C1-C6, (Hz)    : /210/106/212
FREC. NAT. DE SENSORES, C7-C12 (Hz)    : 
AMORTIGUAMIENTO DE SENSORES, C1-C6     : /0.7/0.7/0.7   
AMORTIGUAMIENTO DE SENSORES, C7-C12    : 
INTERVALO DE MUESTREO, C1-C6 (s)       : /0.004/0.004/0.004
INTERVALO DE MUESTREO, C7-C12 (s)      : 
UMBRAL DE DISPARO, C1-C6 (Gal)         : /2/2/2
UMBRAL DE DISPARO, C7-C12 (Gal)        : 
MEMORIA DE PREEVENTO (s)               : 30
TIEMPO DE POSEVENTO (s)                : 60


================================================================================
DATOS DEL SISMO:
FECHA DEL SISMO [GMT]                  : 2014/05/10
HORA EPICENTRO (GMT)                   : 07:36:00
MAGNITUD(ES)                           : /M=6.1
COORDENADAS DEL EPICENTRO              : 17.036 LAT. N
                                       : 100.893 LONG. W
PROFUNDIDAD FOCAL (Km)                 : 10
FUENTE DE LOS DATOS EPICENTRALES       : SSN
                                       : INSTITUTO DE GEOFISICA, UNAM

================================================================================
DATOS DE ESTE REGISTRO:
HORA DE LA PRIMERA MUESTRA (GMT)       : 07:36:32.00
EXACTITUD DEL TIEMPO (s)               : 
DURACION DEL REGISTRO (s), C1-C6       : /172.00/172.00/172.00
DURACION DEL REGISTRO (s), C7-C12      : 
NUM. TOTAL DE MUESTRAS, C1-C6          : /43000/43000/43000
NUM. TOTAL DE MUESTRAS, C7-C12         : 
ACEL. MAX.(Gal), C1-C6                 : /1.970/-5.799/-4.596
ACEL. MAX., C1-C6, EN LA MUESTRA       : /6014/15488/13677
ACEL. MAX.(Gal), C7-C12                : 
ACEL. MAX., C7-C12,EN LA MUESTRA       : 
UNIDADES DE LOS DATOS                  : Gal (cm/s/s)
FACTOR DE DECIMACION                   : 1
FORMATO DATOS (FORTRAN,16 campos/dato) : 3E16.7


================================================================================
CALIDAD DEL ACELEROGRAMA:
REGISTRO DIGITAL COMPLETO CON TIEMPO ABSOLUTO CORRECTO


================================================================================
COMENTARIOS:














================================================================================
DATOS DE ACELERACION:
---------+---------+---------+---------+---------+---------+---------+---------+
   CANAL-1          CANAL-2         CANAL-3
         V            N00E            N90E
---------+---------+---------+---------+---------+---------+---------+---------+ 
[...]
 -7.4412859e-001  7.2552547e-001 -5.4769283e-001
 -6.9828646e-001  7.4610763e-001 -4.7963144e-001
 -6.4998869e-001  7.8832477e-001 -4.0852935e-001
 -5.9818208e-001  8.1101177e-001 -3.3228132e-001
 -5.3257633e-001  8.4527653e-001 -2.5533207e-001
 -4.6813993e-001  9.0281297e-001 -1.9440412e-001
 -4.0171564e-001  9.4374382e-001 -1.5312286e-001
 -3.5295013e-001  9.9976010e-001 -8.4476400e-002
 -2.9354234e-001  1.0679384e+000 -2.3080712e-002
 -2.2898901e-001  1.1363510e+000  1.1885660e-002
 -1.9086499e-001  1.2068684e+000  7.3047478e-002
 -1.5882239e-001  1.2865076e+000  1.5046447e-001
 -1.3367936e-001  1.3670822e+000  2.1373151e-001
 -1.1356494e-001  1.4666015e+000  2.7512720e-001
 -9.9531537e-002  1.5653027e+000  3.3757570e-001
 -8.7135621e-002  1.6463450e+000  4.0423386e-001
 -8.7954167e-002  1.7539337e+000  4.8480849e-001
 -9.3801320e-002  1.8407066e+000  5.5509204e-001
 -8.6667880e-002  1.9185914e+000  6.4069528e-001
 -8.8772714e-002  2.0210349e+000  7.4044885e-001
 -8.3042496e-002  2.0933063e+000  8.0722395e-001
 -7.2868349e-002  2.1497903e+000  8.9025422e-001
 -6.5384104e-002  2.2180860e+000  9.9035860e-001
 -4.3515260e-002  2.2640450e+000  1.0459071e+000
 -2.9715729e-002  2.2940997e+000  1.0977138e+000
 -8.8996937e-003  2.3207629e+000  1.1758323e+000
  2.1973554e-002  2.3126936e+000  1.2353571e+000
  5.2495995e-002  2.3015840e+000  1.2723113e+000
  9.8571996e-002  2.2918776e+000  1.3105523e+000
  1.3646214e-001  2.2523503e+000  1.3521844e+000
  1.6698458e-001  2.2059235e+000  1.3763919e+000
  1.9879331e-001  2.1462819e+000  1.3835254e+000
  2.4697454e-001  2.0682802e+000  1.3944011e+000
  3.1702382e-001  1.9957749e+000  1.4049265e+000
  3.6462037e-001  1.9058447e+000  1.4059789e+000
  4.1443869e-001  1.7904206e+000  1.3997805e+000
  4.8530692e-001  1.6905501e+000  1.4172054e+000
  5.4436390e-001  1.5848324e+000  1.4299522e+000
  5.8085043e-001  1.4827401e+000  1.4326421e+000
  6.1862325e-001  1.4006450e+000  1.4646847e+000
  6.7849878e-001  1.3111829e+000  1.4842144e+000
  7.2656307e-001  1.2430041e+000  1.4978970e+000
  7.6223105e-001  1.1731883e+000  1.5138014e+000
  7.7942170e-001  1.1076995e+000  1.5349682e+000
  7.8316402e-001  1.0673537e+000  1.5636197e+000
  7.9345511e-001  1.0295809e+000  1.5737938e+000
  7.7965557e-001  1.0042040e+000  1.5934405e+000
  7.4819765e-001  9.9028756e-001  1.6163614e+000
  7.0130310e-001  9.9063837e-001  1.6429080e+000
  6.5803355e-001  9.8467428e-001  1.6742490e+000
  6.0786442e-001  9.8525895e-001  1.7033682e+000
  5.2916115e-001  9.8408960e-001  1.7246520e+000
  4.4016640e-001  9.7344732e-001  1.7342415e+000
  3.4204992e-001  9.6514453e-001  1.7652317e+000
  2.6638696e-001  9.4128779e-001  1.7878021e+000
  1.8569539e-001  9.3193219e-001  1.7903747e+000
  8.9801071e-002  9.0807544e-001  1.7903747e+000
 -1.3226688e-002  8.9041705e-001  1.8161024e+000
 -1.1625484e-001  8.7743607e-001  1.8458063e+000
 -1.8525171e-001  8.4270396e-001  1.8276798e+000
 -2.6886705e-001  8.2644840e-001  1.8251072e+000
 -3.5341787e-001  7.8294536e-001  1.8325914e+000
 -4.0662731e-001  7.3219156e-001  1.8186754e+000
 -4.5246944e-001  6.7933253e-001  1.8020690e+000
 -4.9597286e-001  6.1571468e-001  1.7943509e+000
 -5.3959323e-001  5.5969841e-001  1.7765752e+000
 -5.7502734e-001  4.9888739e-001  1.7388024e+000
 -5.9069783e-001  4.5573517e-001  1.7129577e+000
 -5.9607724e-001  3.9293586e-001  1.6707406e+000
 -6.1420338e-001  3.2183377e-001  1.6243138e+000
 -6.2016786e-001  2.5388931e-001  1.5795241e+000
 -6.0929210e-001  1.8419044e-001  1.5451424e+000
 -5.9455709e-001  1.3519067e-001  1.5225723e+000
 -5.8028981e-001  8.5255415e-002  1.4784842e+000
 -5.7011567e-001  5.6370066e-002  1.4511194e+000
 -5.3070537e-001  3.4969355e-002  1.4313558e+000
 -4.7889915e-001  2.2924244e-002  1.4083176e+000
 -4.3258888e-001  3.1343971e-002  1.3627093e+000
 -3.9914306e-001  4.4091085e-002  1.3251704e+000
 -3.6710007e-001  7.8940522e-002  1.3148793e+000
 -3.0663986e-001  1.0922909e-001  1.2737146e+000
 -2.4080025e-001  1.5179664e-001  1.2436599e+000
 -1.8244526e-001  2.0594196e-001  1.2212067e+000
 -1.3578420e-001  2.4769096e-001  1.1954790e+000
 -9.2865838e-002  3.0990559e-001  1.1623836e+000
 -4.1761232e-002  3.6101020e-001  1.1030932e+000
  3.0284815e-003  4.1562325e-001  1.0556135e+000
  3.0744478e-002  4.9549627e-001  9.9912953e-001
  6.6763267e-002  5.6694917e-001  9.2545447e-001
  1.1517797e-001  6.5091493e-001  8.5411850e-001
  1.6113704e-001  7.0506024e-001  7.8757727e-001
  1.9259535e-001  7.6060878e-001  7.2559691e-001
  2.1539929e-001  8.4211889e-001  6.3204129e-001
  2.5153501e-001  9.1018067e-001  5.3158611e-001
  2.7773085e-001  1.0038532e+000  4.4364416e-001
  3.2181856e-001  1.0671199e+000  3.2786929e-001
  3.5222406e-001  1.1527231e+000  2.2180082e-001
  3.5643412e-001  1.2589085e+000  1.2461983e-001
  3.8426706e-001  1.3212401e+000  2.9427117e-002
  3.8964647e-001  1.4234493e+000 -4.3545941e-002
  3.9900207e-001  1.5173553e+000 -1.3312537e-001
  3.9642910e-001  1.6237750e+000 -2.0984074e-001
  3.7526226e-001  1.7490220e+000 -2.6269977e-001
  3.7491146e-001  1.8502961e+000 -3.2959181e-001
  3.5315994e-001  1.9831447e+000 -3.8490647e-001
  3.3035561e-001  2.1031296e+000 -4.1613053e-001
  3.0322468e-001  2.2073271e+000 -4.4864126e-001
  2.5995513e-001  2.3226339e+000 -4.7460283e-001
  2.1551622e-001  2.4379410e+000 -4.9378178e-001
  1.6534710e-001  2.5488042e+000 -5.1050469e-001
  1.1903723e-001  2.6413074e+000 -5.1728732e-001
  7.4130577e-002  2.7375525e+000 -5.5190289e-001
  2.8639252e-002  2.8212844e+000 -5.9575712e-001
 -2.5037928e-002  2.8928547e+000 -6.1014133e-001
 -6.9126030e-002  2.9700378e+000 -6.3996216e-001
 -1.1216172e-001  3.0234815e+000 -6.8825993e-001
 -1.5145508e-001  3.0658152e+000 -7.2346017e-001
 -1.6852880e-001  3.0880344e+000 -7.5772493e-001
 -1.9577666e-001  3.1063948e+000 -8.0345012e-001
 -2.0910845e-001  3.1332919e+000 -8.6601516e-001
 -2.1296771e-001  3.1369173e+000 -9.1653549e-001
 -2.0396291e-001  3.1382035e+000 -9.5559459e-001
 -1.7180338e-001  3.1226500e+000 -1.0314914e+000
 -1.5484620e-001  3.1104879e+000 -1.1092596e+000
 -1.0877020e-001  3.0860465e+000 -1.1658606e+000
 -3.4276594e-002  3.0471040e+000 -1.2308816e+000
  2.7937641e-002  3.0375145e+000 -1.3141458e+000
  8.5825274e-002  2.9890998e+000 -1.3917970e+000
  1.4605122e-001  2.9410355e+000 -1.4262957e+000
  2.2288392e-001  2.8873583e+000 -1.4765817e+000
  3.0965651e-001  2.8046785e+000 -1.5628866e+000
  3.7841990e-001  2.7444521e+000 -1.6035832e+000
  4.3724263e-001  2.6435292e+000 -1.6297786e+000
  4.9583187e-001  2.5671646e+000 -1.6718788e+000
  5.5091267e-001  2.5093939e+000 -1.7185395e+000
  6.0926765e-001  2.4207504e+000 -1.7600546e+000
  6.3850380e-001  2.3698796e+000 -1.7545583e+000
  6.7475646e-001  2.2969062e+000 -1.7825077e+000
  7.0855348e-001  2.2357444e+000 -1.8187608e+000
  7.1182806e-001  2.1815990e+000 -1.8101068e+000
  7.2866790e-001  2.0981010e+000 -1.8173572e+000
  7.1440063e-001  2.0385763e+000 -1.8144338e+000
  7.0948896e-001  1.9698129e+000 -1.8305720e+000
  6.9557289e-001  1.9182406e+000 -1.8336127e+000
  6.6013877e-001  1.8357950e+000 -1.8263620e+000
  6.2903126e-001  1.7514780e+000 -1.8277652e+000
  5.7091015e-001  1.6897315e+000 -1.8123286e+000
  5.3231840e-001  1.5888086e+000 -1.8163048e+000
  4.5209457e-001  1.5178234e+000 -1.7846130e+000
  3.7760096e-001  1.4094159e+000 -1.7875363e+000
  3.1667302e-001  1.3055692e+000 -1.8036750e+000
  2.4288141e-001  1.2080378e+000 -1.7920972e+000
  1.9446632e-001  1.0679384e+000 -1.8041427e+000
  1.0605663e-001  9.7508481e-001 -1.7912787e+000
  5.2963736e-002  8.5790671e-001 -1.8087036e+000
  4.5486391e-003  7.4996689e-001 -1.8007512e+000
 -4.0241074e-002  6.4810848e-001 -1.7973597e+000
 -5.7665596e-002  5.3584206e-001 -1.8326769e+000
 -1.0198757e-001  4.5421462e-001 -1.8416817e+000
 -1.0947181e-001  3.4042803e-001 -1.8706839e+000
 -1.1800887e-001  2.4839258e-001 -1.8798057e+000
 -1.2677979e-001  1.6103531e-001 -1.9020249e+000
 -1.2935237e-001  5.0172108e-002 -1.9165261e+000
 -1.2210199e-001 -3.5898870e-002 -1.9141874e+000
 -9.8829926e-002 -1.1553802e-001 -1.9450606e+000
 -9.4853736e-002 -2.0242754e-001 -1.9539485e+000
 -7.0880451e-002 -2.8838159e-001 -1.9513755e+000
 -4.6555967e-002 -3.6603284e-001 -1.9568719e+000
 -2.4219382e-002 -4.3339261e-001 -1.9689170e+000
  9.8111155e-003 -4.9864756e-001 -1.9640057e+000
  4.2438783e-002 -5.7220529e-001 -1.9469316e+000
  9.4128066e-002 -6.4763438e-001 -1.9435401e+000
  1.4558348e-001 -7.2388241e-001 -1.9290393e+000
  1.8253814e-001 -7.9463370e-001 -1.8922016e+000
  2.3972377e-001 -8.7216762e-001 -1.8389922e+000
  3.0357549e-001 -9.4128182e-001 -1.7862501e+000
  3.5526477e-001 -1.0129686e+000 -1.7550260e+000
  4.2040278e-001 -1.1023141e+000 -1.7040383e+000
  4.8273395e-001 -1.1769247e+000 -1.6374971e+000
  5.3524217e-001 -1.2711815e+000 -1.5946953e+000
  6.0061405e-001 -1.3754960e+000 -1.5473330e+000
  6.7031292e-001 -1.4853067e+000 -1.4980994e+000
  7.2118366e-001 -1.6083320e+000 -1.4450065e+000
  7.7123585e-001 -1.7365032e+000 -1.3901599e+000
  8.3017550e-001 -1.8812799e+000 -1.3474751e+000
  8.8116318e-001 -2.0188067e+000 -1.3218643e+000
  9.2981214e-001 -2.1784354e+000 -1.2956688e+000
  9.7834418e-001 -2.3566588e+000 -1.2702919e+000
  1.0160001e+000 -2.5148843e+000 -1.2711105e+000
  1.0444177e+000 -2.6832843e+000 -1.2824540e+000
  1.0845296e+000 -2.8730847e+000 -1.3092341e+000
  1.1150520e+000 -3.0480335e+000 -1.3326231e+000
  1.1357511e+000 -3.2191230e+000 -1.3615085e+000
  1.1515385e+000 -3.4071693e+000 -1.4069998e+000
  1.1565672e+000 -3.5818843e+000 -1.4498012e+000
  1.1661566e+000 -3.7443198e+000 -1.4896792e+000
  1.1591401e+000 -3.9101469e+000 -1.5246456e+000
  1.1510708e+000 -4.0752723e+000 -1.5695523e+000
  1.1352834e+000 -4.2246103e+000 -1.6029985e+000
  1.1144673e+000 -4.3734802e+000 -1.6327024e+000
  1.1020710e+000 -4.5308876e+000 -1.6539861e+000
  1.0784486e+000 -4.6678293e+000 -1.6509454e+000
  1.0597374e+000 -4.7961170e+000 -1.6683704e+000
  1.0352959e+000 -4.9230015e+000 -1.6802985e+000
  9.9810779e-001 -5.0193640e+000 -1.6570269e+000
  9.5624146e-001 -5.0847358e+000 -1.6339887e+000
  9.0326589e-001 -5.1582936e+000 -1.6132896e+000
  8.3730934e-001 -5.2345412e+000 -1.5480346e+000
  7.8000638e-001 -5.3088009e+000 -1.4581044e+000
  7.1755827e-001 -5.3779151e+000 -1.3668879e+000
  6.5218640e-001 -5.4430531e+000 -1.2495928e+000
  6.0084792e-001 -5.5162601e+000 -1.1390804e+000
  5.4518245e-001 -5.5571905e+000 -1.0277495e+000
  4.9197262e-001 -5.5889997e+000 -9.1419639e-001
  4.1654353e-001 -5.6150782e+000 -8.0122835e-001
  3.4661078e-001 -5.6336724e+000 -6.8404987e-001
  2.8767113e-001 -5.6537869e+000 -5.8359468e-001
  2.1610090e-001 -5.6627913e+000 -4.7191293e-001
  1.5493908e-001 -5.6915597e+000 -3.5134332e-001
  9.4478871e-002 -5.7050084e+000 -2.1253065e-001
  5.2028254e-002 -5.7229007e+000 -8.0032470e-002
  1.9049781e-002 -5.7447695e+000  3.6444014e-002
 -2.2114548e-002 -5.7267599e+000  1.6940954e-001
 -6.0940174e-002 -5.7232515e+000  2.6413451e-001
 -8.9357390e-002 -5.7184567e+000  3.4143456e-001
 -9.9180731e-002 -5.6950681e+000  4.3042931e-001
 -1.0561256e-001 -5.6667675e+000  5.0574146e-001
 -1.1637178e-001 -5.6367128e+000  5.9684105e-001
 -1.2011370e-001 -5.6127391e+000  7.0700264e-001
 -1.0935488e-001 -5.5596466e+000  8.0804250e-001
 -9.4970672e-002 -5.4967303e+000  9.0417069e-001
 -9.3918255e-002 -5.4234065e+000  1.0125783e+000
 -9.1111810e-002 -5.3340609e+000  1.1064843e+000
 -8.3627172e-002 -5.2514984e+000  1.1909182e+000
 -8.2574756e-002 -5.1533819e+000  1.2935951e+000
 -6.7839743e-002 -5.0559674e+000  1.3975588e+000
 -5.8834948e-002 -4.9420635e+000  1.5145030e+000
 -5.6613179e-002 -4.8138927e+000  1.6279391e+000
 -4.2228972e-002 -4.7011582e+000  1.7361124e+000
 -3.1353214e-002 -4.5801208e+000  1.8405438e+000
 -1.4863781e-002 -4.4678544e+000  1.9289539e+000
 -4.5726989e-003 -4.3703230e+000  2.0315139e+000
  6.5369299e-003 -4.2663593e+000  2.1098668e+000
  3.0042475e-002 -4.1514030e+000  2.1792145e+000
  4.3725070e-002 -4.0393705e+000  2.2652854e+000
  5.9746370e-002 -3.9272210e+000  2.3463278e+000
  7.0856391e-002 -3.7951909e+000  2.4228097e+000
  8.1147474e-002 -3.6752060e+000  2.4610503e+000
  7.9743859e-002 -3.5635243e+000  2.5171835e+000
  5.6004444e-002 -3.4403817e+000  2.5840759e+000
  4.5479491e-002 -3.3315064e+000  2.6064121e+000
  1.3553434e-002 -3.2119896e+000  2.6485119e+000
 -2.6441543e-002 -3.0909522e+000  2.7024233e+000
 -5.6963985e-002 -2.9714350e+000  2.7585566e+000
 -1.2023064e-001 -2.8170684e+000  2.8249812e+000
 -1.6993202e-001 -2.6884299e+000  2.8711742e+000
 -2.0407985e-001 -2.5609603e+000  2.9193550e+000
 -2.5343042e-001 -2.4068279e+000  2.9683548e+000
 -3.0628906e-001 -2.2724588e+000  3.0069465e+000
 -3.6476137e-001 -2.1178583e+000  3.0442516e+000
 -4.1224059e-001 -1.9591651e+000  3.0747741e+000
 -4.6170810e-001 -1.7956767e+000  3.1103251e+000
 -5.1702277e-001 -1.6204944e+000  3.1589741e+000
 -5.6801044e-001 -1.4396985e+000  3.2098448e+000
 -6.1853037e-001 -1.2398405e+000  3.2441096e+000
 -6.4963788e-001 -1.0760018e+000  3.2752167e+000
 -6.9173769e-001 -8.9310059e-001  3.3267890e+000
 -7.2904277e-001 -6.9873938e-001  3.3547389e+000
 -7.5640796e-001 -5.3127483e-001  3.3539204e+000
 -7.9616907e-001 -3.3878458e-001  3.3629248e+000
 -7.9008765e-001 -1.6219870e-001  3.3625740e+000
 -7.8774895e-001  2.1520630e-002  3.3781275e+000
 -7.8997072e-001  2.0079642e-001  3.4002302e+000
 -7.5804505e-001  3.7059967e-001  3.3900561e+000
 -7.3126493e-001  5.4905652e-001  3.3818698e+000
 -6.9033447e-001  6.9079297e-001  3.3700586e+000
 -6.5513423e-001  8.5077288e-001  3.3708771e+000
 -6.0835622e-001  1.0091157e+000  3.3540373e+000
 -5.4333515e-001  1.1612602e+000  3.3186032e+000
 -4.9620673e-001  1.3186671e+000  3.3367293e+000
 -4.4369891e-001  1.4626257e+000  3.3592998e+000
 -3.8581127e-001  1.6175766e+000  3.3605861e+000
 -3.2207649e-001  1.7393160e+000  3.3587151e+000
 -2.5892677e-001  1.8754392e+000  3.3700586e+000
 -2.0443065e-001  2.0052470e+000  3.3854952e+000
 -1.5706836e-001  2.0945926e+000  3.3915762e+000
 -1.0572989e-001  2.2070929e+000  3.4056096e+000
 -4.6439032e-002  2.3109396e+000  3.4176548e+000
 -1.4980716e-002  2.4184113e+000  3.4479433e+000
 -2.5848005e-003  2.5210886e+000  3.4976447e+000
  2.9925540e-002  2.5965177e+000  3.5250099e+000
  6.3605624e-002  2.6737008e+000  3.5351840e+000
  7.0154388e-002  2.7363832e+000  3.5645367e+000
  7.5768062e-002  2.7795354e+000  3.5855870e+000
  9.0970815e-002  2.8199981e+000  3.5800903e+000
  9.9273607e-002  2.8589407e+000  3.5665250e+000
  1.0745986e-001  2.8803414e+000  3.5606779e+000
  1.1833561e-001  2.8970643e+000  3.5641859e+000
  1.1775094e-001  2.9238448e+000  3.5551815e+000
  1.2383196e-001  2.9370593e+000  3.5438376e+000
  1.5119715e-001  2.9367085e+000  3.5210337e+000
  1.6675071e-001  2.9333174e+000  3.4850149e+000
  1.7949743e-001  2.9100453e+000  3.4319220e+000
  2.0545901e-001  2.8874752e+000  3.3688892e+000
  2.4136086e-001  2.8708689e+000  3.2975529e+000
  2.7773085e-001  2.8366041e+000  3.2117158e+000
  2.9959930e-001  2.8035091e+000  3.1516064e+000
  3.4614304e-001  2.7557956e+000  3.0745402e+000
  3.9596136e-001  2.7237530e+000  2.9763072e+000
  4.2800396e-001  2.7091349e+000  2.8932765e+000
  4.6519249e-001  2.6611880e+000  2.8070886e+000
  4.8437144e-001  2.6361619e+000  2.7345833e+000
  5.1185317e-001  2.6151116e+000  2.6453547e+000
  5.4541632e-001  2.5818996e+000  2.5298137e+000
  5.4565019e-001  2.5672816e+000  2.4453798e+000
  5.3863329e-001  2.5217902e+000  2.3708862e+000
