**************************************************************************************
  RED ACELEROGRÁFICA DE LA UNIVERSIDAD AUTONOMA METROPOLITANA (RAUAM)
				UNIDAD AZCAPOTZALCO
                        DIVISIÓN CBI-DEPARTAMENTO DE MATERIALES
     Av. San Pablo 180, Col. Reynosa, Azcapotzalco, C.P. 02200, Ciudad de México
**************************************************************************************
ARCHIVO ESTANDAR DE ACELERACION:
VERSION DEL FORMATO                    : 2.0
NOMBRE DEL ARCHIVO                     : RIDA201405.081
FECHA Y HORA DE CREACION               : 16/MAY/2014, 12:38
REF. CATALOGO ACELEROGRAMAS, SMIS 1995 : REGISTRO NO.      /PAG.    


================================================================================
DATOS DE LA ESTACION:
NOMBRE DE LA ESTACION                  : UAM-AZCAPOTZALCO.
CLAVE DE LA ESTACION                   : RIDA
LOCALIZACION DE LA ESTACION            : AV. SAN PABLO 180, COL.REYNOSA, AZCAPOTZALCO,
                                       : C.P.02200 CIUDAD DE MEXICO.
                                       :
                                       : 
                                       : 
COORDENADAS DE LA ESTACION             : 19.498596 LAT. N
                                       : 99.195595 LONG. W
ALTITUD (msnm)                         : 2246
TIPO DE SUELO                          : ZONA DE TRANSICION 
                                       : 
                                       : 
INSTITUCION RESPONSABLE                : UAM-AZCAPOTZALCO
                                       : 

================================================================================
DATOS DEL ACELEROGRAFO: 
MODELO DEL ACELEROGRAFO                : BASALT KINEMETRICS
NUMERO DE SERIE DEL ACELEROGRAFO       : 1730
NUMERO DE CANALES                      : 3
ORIENTACION C1-C6 (rumbo;orientacion)  : /V/N00E/N90E
ORIENTACION C7-C12 (rumbo;orientacion) : 
VEL. DE MUESTREO, C1-C6 (muestras/s)   : /250/250/250
VEL. DE MUESTREO, C7-C12 (muestras/s)  : 
ESC. COMPLETA DE SENSORES, C1-C6, (g)  : /2/2/2
ESC. COMPLETA DE SENSORES, C7-C12 (g)  : 
FREC. NAT. DE SENSORES, C1-C6, (Hz)    : /210/206/212
FREC. NAT. DE SENSORES, C7-C12 (Hz)    : 
AMORTIGUAMIENTO DE SENSORES, C1-C6     : /0.70/0.70/0.70   
AMORTIGUAMIENTO DE SENSORES, C7-C12    : 
INTERVALO DE MUESTREO, C1-C6 (s)       : /0.004/0.004/0.004
INTERVALO DE MUESTREO, C7-C12 (s)      : 
UMBRAL DE DISPARO, C1-C6 (Gal)         : /2/2/2
UMBRAL DE DISPARO, C7-C12 (Gal)        : 
MEMORIA DE PREEVENTO (s)               : 30
TIEMPO DE POSEVENTO (s)                : 60


================================================================================
DATOS DEL SISMO:
FECHA DEL SISMO [GMT]                  : 2014/05/08
HORA EPICENTRO (GMT)                   : 17:00:14
MAGNITUD(ES)                           : /M=6.5
COORDENADAS DEL EPICENTRO              : 16.986 LAT. N
                                       : 100.916 LONG. W
PROFUNDIDAD FOCAL (Km)                 : 10.0
FUENTE DE LOS DATOS EPICENTRALES       : SSN
                                       : INSTITUTO DE GEOFISICA, UNAM

================================================================================
DATOS DE ESTE REGISTRO:
HORA DE LA PRIMERA MUESTRA (GMT)       : 17:00:14.00
EXACTITUD DEL TIEMPO (s)               : 
DURACION DEL REGISTRO (s), C1-C6       : /234.00/234.00/234.00
DURACION DEL REGISTRO (s), C7-C12      : 
NUM. TOTAL DE MUESTRAS, C1-C6          : /58500/58500/58500
NUM. TOTAL DE MUESTRAS, C7-C12         : 
ACEL. MAX.(Gal), C1-C6                 : /-4.024/15.200/-15.766
ACEL. MAX., C1-C6, EN LA MUESTRA       : /19066/17329/18074
ACEL. MAX.(Gal), C7-C12                : 
ACEL. MAX., C7-C12,EN LA MUESTRA       : 
UNIDADES DE LOS DATOS                  : Gal (cm/s/s)
FACTOR DE DECIMACION                   : 1
FORMATO DATOS (FORTRAN,16 campos/dato) : 3E16.7


================================================================================
CALIDAD DEL ACELEROGRAMA:
REGISTRO DIGITAL COMPLETO CON TIEMPO ABSOLUTO CORRECTO


================================================================================
COMENTARIOS:














================================================================================
DATOS DE ACELERACION:
---------+---------+---------+---------+---------+---------+---------+---------+
   CANAL-1  	    CANAL-2 	     CANAL-3
       V     	     N00E              N90E
---------+---------+---------+---------+---------+---------+---------+---------+  
[...]
 -1.4401627e+000 -2.7206896e+000  5.5879818e+000
 -1.5810806e+000 -3.0316446e+000  5.8315766e+000
 -1.7243376e+000 -3.3079841e+000  6.1164531e+000
 -1.8243250e+000 -3.5052691e+000  6.3786422e+000
 -1.9095774e+000 -3.7045423e+000  6.5991993e+000
 -1.9705054e+000 -3.8510735e+000  6.8399877e+000
 -2.0258201e+000 -3.9947979e+000  7.0117789e+000
 -2.0874496e+000 -4.2010877e+000  7.0999547e+000
 -2.1183229e+000 -4.3877308e+000  7.1798277e+000
 -2.1449861e+000 -4.5873548e+000  7.1874293e+000
 -2.1659190e+000 -4.7713084e+000  7.1379618e+000
 -2.1577332e+000 -4.9503500e+000  7.1003055e+000
 -2.1626448e+000 -5.1024944e+000  7.0521246e+000
 -2.1535231e+000 -5.2912427e+000  6.9708484e+000
 -2.1144636e+000 -5.5057184e+000  6.9337768e+000
 -2.0958697e+000 -5.7103711e+000  6.9210301e+000
 -2.0695570e+000 -5.9881137e+000  6.8694577e+000
 -2.0352926e+000 -6.2112438e+000  6.8404555e+000
 -1.9895670e+000 -6.4227960e+000  6.7737973e+000
 -1.9078230e+000 -6.6194963e+000  6.6649220e+000
 -1.8155541e+000 -6.7388962e+000  6.5563975e+000
 -1.7249222e+000 -6.8616880e+000  6.3832031e+000
 -1.6372138e+000 -6.9973434e+000  6.1660376e+000
 -1.5288066e+000 -7.1541657e+000  5.9557716e+000
 -1.4115116e+000 -7.2843247e+000  5.7342791e+000
 -1.2937484e+000 -7.3834933e+000  5.4448421e+000
 -1.1637063e+000 -7.4103907e+000  5.1405528e+000
 -1.0565854e+000 -7.3920303e+000  4.8594186e+000
 -9.6057414e-001 -7.3444341e+000  4.5525567e+000
 -8.6619997e-001 -7.2294778e+000  4.2714229e+000
 -7.8363744e-001 -7.1317121e+000  4.0196418e+000
 -7.3229897e-001 -7.0107917e+000  3.7737078e+000
 -7.0048985e-001 -6.9090503e+000  3.5165473e+000
 -6.7639963e-001 -6.8358433e+000  3.2163511e+000
 -7.1464018e-001 -6.7525788e+000  2.9283173e+000
 -7.6141819e-001 -6.6649877e+000  2.6496391e+000
 -8.2035784e-001 -6.5081654e+000  2.3702590e+000
 -9.0982034e-001 -6.3374267e+000  2.0886570e+000
 -9.9238287e-001 -6.1432989e+000  1.7883443e+000
 -1.1064037e+000 -5.9789920e+000  1.4717760e+000
 -1.2247516e+000 -5.8267306e+000  1.1353271e+000
 -1.3538578e+000 -5.6352928e+000  8.0612865e-001
 -1.4823798e+000 -5.4845515e+000  4.4933188e-001
 -1.6010781e+000 -5.3270277e+000  8.2009775e-002
 -1.7352133e+000 -5.2187370e+000 -3.0004735e-001
 -1.8505205e+000 -5.1297427e+000 -7.1870793e-001
 -1.9616175e+000 -5.0517406e+000 -1.1356145e+000
 -2.0600844e+000 -5.0005191e+000 -1.5823419e+000
 -2.1428812e+000 -4.9402927e+000 -2.0384245e+000
 -2.1966757e+000 -4.9318726e+000 -2.5001207e+000
 -2.2247421e+000 -4.9038062e+000 -2.9595949e+000
 -2.2553815e+000 -4.8959708e+000 -3.4730973e+000
 -2.2466106e+000 -4.8923458e+000 -4.0055449e+000
 -2.2138664e+000 -4.8718805e+000 -4.4611601e+000
 -2.1523538e+000 -4.9118755e+000 -5.0191012e+000
 -2.0501442e+000 -4.9836792e+000 -5.5557588e+000
 -1.9234935e+000 -5.0373564e+000 -5.9758226e+000
 -1.7712321e+000 -5.0669434e+000 -6.4818408e+000
 -1.6071595e+000 -5.1228427e+000 -6.9831809e+000
 -1.4165402e+000 -5.0998049e+000 -7.3661735e+000
 -1.2362120e+000 -5.0898646e+000 -7.7501019e+000
 -1.0424351e+000 -5.0972319e+000 -8.1838484e+000
 -8.1310747e-001 -4.9830946e+000 -8.4800684e+000
 -6.2903695e-001 -4.9048586e+000 -8.7918419e+000
 -4.5923409e-001 -4.8357444e+000 -9.1797462e+000
 -2.6615877e-001 -4.7389146e+000 -9.3994843e+000
 -9.5420034e-002 -4.6280514e+000 -9.6937164e+000
  4.8772055e-002 -4.5323910e+000 -1.0068289e+001
  1.9577137e-001 -4.4184875e+000 -1.0301359e+001
  3.0031929e-001 -4.2424862e+000 -1.0554427e+001
  3.8323302e-001 -4.1257755e+000 -1.0872866e+001
  4.9070471e-001 -3.9546860e+000 -1.1061029e+001
  5.4052303e-001 -3.7736561e+000 -1.1203701e+001
  5.8098574e-001 -3.6446668e+000 -1.1467995e+001
  6.4600682e-001 -3.4529951e+000 -1.1663059e+001
  6.9138121e-001 -3.2933660e+000 -1.1861630e+001
  7.3663866e-001 -3.1832044e+000 -1.2134812e+001
  7.6108008e-001 -3.0385442e+000 -1.2276666e+001
  7.6926594e-001 -2.8723663e+000 -1.2390920e+001
  7.5850711e-001 -2.7486395e+000 -1.2492896e+001
  7.4470797e-001 -2.6188312e+000 -1.2461437e+001
  7.2354074e-001 -2.5027055e+000 -1.2429745e+001
  6.8798969e-001 -2.4429469e+000 -1.2416648e+001
  6.7629539e-001 -2.3802649e+000 -1.2304966e+001
  6.4366772e-001 -2.3559405e+000 -1.2213048e+001
  6.0601184e-001 -2.3572267e+000 -1.2157382e+001
  5.9653930e-001 -2.3613199e+000 -1.1973195e+001
  5.8659903e-001 -2.3760549e+000 -1.1733342e+001
  5.8578048e-001 -2.4055249e+000 -1.1521556e+001
  6.0110017e-001 -2.4158160e+000 -1.1209782e+001
  6.3220729e-001 -2.4087991e+000 -1.0825269e+001
  6.7956997e-001 -2.4304341e+000 -1.0484728e+001
  7.2108510e-001 -2.3743008e+000 -1.0083141e+001
  7.5160754e-001 -2.2757166e+000 -9.6514993e+000
  7.8739246e-001 -2.1780683e+000 -9.2772776e+000
  8.2750437e-001 -2.0360976e+000 -8.8658674e+000
  8.6855177e-001 -1.8667624e+000 -8.4553931e+000
  9.1731767e-001 -1.6984794e+000 -8.0939181e+000
  9.8865364e-001 -1.5176834e+000 -7.6545584e+000
  1.0560134e+000 -1.2460221e+000 -7.1525164e+000
  1.1123809e+000 -9.7704999e-001 -6.7198224e+000
  1.1886285e+000 -6.7276106e-001 -6.2300597e+000
  1.2725943e+000 -3.4987786e-001 -5.6786671e+000
  1.3455677e+000 -9.6927007e-002 -5.2284316e+000
  1.4162021e+000  1.6678227e-001 -4.7880191e+000
  1.4939699e+000  3.4781209e-001 -4.3277265e+000
  1.5729074e+000  5.1083232e-001 -3.9063760e+000
  1.6850569e+000  6.8309160e-001 -3.4863122e+000
  1.7939322e+000  8.5535049e-001 -3.0587637e+000
  1.8801201e+000  1.0412920e+000 -2.6675849e+000
  1.9942579e+000  1.1672410e+000 -2.2829552e+000
  2.0930756e+000  1.3304951e+000 -1.8824208e+000
  2.1839413e+000  1.4530526e+000 -1.5356812e+000
  2.2876711e+000  1.5535078e+000 -1.1862514e+000
  2.3853194e+000  1.6886955e+000 -8.2746630e-001
  2.4798105e+000  1.7919575e+000 -5.1662821e-001
  2.5840080e+000  1.9089017e+000 -1.9760426e-001
  2.6801362e+000  2.0261967e+000  1.2258943e-001
  2.7389593e+000  2.1397499e+000  4.2442272e-001
  2.8069038e+000  2.2425437e+000  7.5935103e-001
  2.8838530e+000  2.3787838e+000  1.1593008e+000
  2.9618551e+000  2.5125683e+000  1.5510639e+000
  3.0489785e+000  2.6108013e+000  1.9563931e+000
  3.1023052e+000  2.7237698e+000  2.4200773e+000
  3.1286176e+000  2.7857501e+000  2.8234182e+000
  3.1524744e+000  2.8404801e+000  3.2345945e+000
  3.1644025e+000  2.9197685e+000  3.6812046e+000
  3.1570352e+000  2.9692360e+000  4.0769443e+000
  3.1458083e+000  3.0429106e+000  4.5302205e+000
  3.1279160e+000  3.1439505e+000  4.9831458e+000
  3.0710812e+000  3.2063990e+000  5.3619284e+000
  3.0115565e+000  3.2730572e+000  5.7722861e+000
  2.9486402e+000  3.3522286e+000  6.1724694e+000
  2.8606983e+000  3.4021638e+000  6.4797990e+000
  2.8053836e+000  3.4310488e+000  6.7679497e+000
  2.7353339e+000  3.4474213e+000  7.0970313e+000
  2.6730024e+000  3.4658982e+000  7.3626115e+000
  2.6692605e+000  3.4777099e+000  7.6072592e+000
  2.6537069e+000  3.5303346e+000  7.8889781e+000
  2.6507831e+000  3.5719667e+000  8.1000626e+000
  2.6699621e+000  3.5587522e+000  8.3171112e+000
  2.7056301e+000  3.5614417e+000  8.5423461e+000
  2.7631665e+000  3.5109218e+000  8.6906313e+000
  2.8375432e+000  3.4564257e+000  8.8549382e+000
  2.9318004e+000  3.4176005e+000  9.0281325e+000
  3.0094512e+000  3.3335174e+000  9.1340841e+000
  3.0916634e+000  3.2634677e+000  9.2544198e+000
  3.1770327e+000  3.1846471e+000  9.3955716e+000
  3.2422877e+000  3.0850108e+000  9.4817595e+000
  3.3173656e+000  2.9417538e+000  9.5836183e+000
  3.3766564e+000  2.7966259e+000  9.7067605e+000
  3.3992269e+000  2.6322024e+000  9.7756408e+000
  3.4236683e+000  2.4217026e+000  9.8219507e+000
  3.4322050e+000  2.2880351e+000  9.8767976e+000
  3.4134941e+000  2.1273535e+000  9.8741077e+000
  3.3856612e+000  1.9610587e+000  9.8701315e+000
  3.3352582e+000  1.8242340e+000  9.8930528e+000
  3.2724593e+000  1.6523259e+000  9.8442869e+000
  3.2089584e+000  1.5531570e+000  9.8076834e+000
  3.1420664e+000  1.4924629e+000  9.7572804e+000
  3.0464059e+000  1.4503631e+000  9.6294604e+000
  2.9246666e+000  1.4203084e+000  9.4940389e+000
  2.7745104e+000  1.4080294e+000  9.3324219e+000
  2.5796810e+000  1.4172677e+000  9.1085902e+000
  2.4046153e+000  1.4254539e+000  8.8641768e+000
  2.2224161e+000  1.4648642e+000  8.6575362e+000
  2.0281715e+000  1.4743368e+000  8.4182680e+000
  1.8767286e+000  1.4817041e+000  8.1600551e+000
  1.7167491e+000  1.4908258e+000  7.9288561e+000
  1.5670603e+000  1.4819379e+000  7.6362615e+000
  1.4214646e+000  1.4928137e+000  7.2987602e+000
  1.2785588e+000  1.4945681e+000  6.9460562e+000
  1.1658242e+000  1.4882528e+000  6.5444693e+000
  1.0577678e+000  1.4882528e+000  6.1636985e+000
  9.9192821e-001  1.4985443e+000  5.8183621e+000
  9.2842730e-001  1.4925798e+000  5.4406320e+000
  8.8293597e-001  1.4334063e+000  5.0769353e+000
  8.7942753e-001  1.3406692e+000  4.7549876e+000
  8.6890257e-001  1.2501543e+000  4.3821691e+000
  8.9205771e-001  1.1525060e+000  3.9343893e+000
  9.0726046e-001  1.0877188e+000  3.5271892e+000
  9.3053213e-001  1.0635112e+000  3.0969508e+000
  9.8900444e-001  1.0404734e+000  2.6025103e+000
  1.0391736e+000  1.0349767e+000  2.1053800e+000
  1.0937866e+000  9.9930871e-001  1.5669687e+000
  1.1291038e+000  9.5650729e-001  1.0445784e+000
  1.1811439e+000  9.1569376e-001  4.7962045e-001
  1.2532988e+000  8.3172762e-001 -9.6681337e-002
  1.3128231e+000  7.6951338e-001 -6.4362965e-001
  1.3750378e+000  7.3466395e-001 -1.2691651e+000
  1.4205291e+000  7.0683101e-001 -1.9213633e+000
  1.4695285e+000  7.1431565e-001 -2.5706382e+000
  1.5132658e+000  7.3232485e-001 -3.2229537e+000
  1.5208673e+000  7.3384540e-001 -3.9123405e+000
  1.5225044e+000  7.5395982e-001 -4.5804431e+000
  1.4985307e+000  7.7208596e-001 -5.2165035e+000
  1.4330419e+000  7.5407676e-001 -5.8878806e+000
  1.3774934e+000  7.4577358e-001 -6.5425349e+000
  1.3004272e+000  7.5360902e-001 -7.1852610e+000
  1.2080413e+000  7.5805256e-001 -7.8332492e+000
  1.1213853e+000  7.9068022e-001 -8.4810038e+000
  9.9391611e-001  8.3628848e-001 -9.1151929e+000
  8.9275932e-001  8.5733839e-001 -9.7518376e+000
  8.1627781e-001  8.7745281e-001 -1.0357843e+001
  7.4307049e-001  8.7569879e-001 -1.0919410e+001
  6.9851465e-001  8.6341941e-001 -1.1467762e+001
  6.5454387e-001  8.6470609e-001 -1.1982901e+001
  6.2261781e-001  8.6330248e-001 -1.2447053e+001
  5.9724091e-001  8.7850523e-001 -1.2881618e+001
  5.8227203e-001  8.7990884e-001 -1.3336064e+001
  5.8390952e-001  8.6669399e-001 -1.3740457e+001
  6.2238394e-001  8.4248644e-001 -1.4112808e+001
  6.8284415e-001  7.9395480e-001 -1.4445047e+001
  7.4751442e-001  7.7267063e-001 -1.4689227e+001
  8.1990280e-001  7.9348706e-001 -1.4926974e+001
  8.5919617e-001  8.4716424e-001 -1.5121102e+001
  8.9848953e-001  9.3463883e-001 -1.5271375e+001
  9.1509551e-001  1.0464375e+000 -1.5410539e+001
  9.0036050e-001  1.1429165e+000 -1.5555316e+001
  8.8539161e-001  1.2360040e+000 -1.5661735e+001
  8.4294100e-001  1.3672155e+000 -1.5706876e+001
  7.8493682e-001  1.4797162e+000 -1.5774353e+001
  6.9091347e-001  1.5854338e+000 -1.5771195e+001
  5.6461364e-001  1.7237788e+000 -1.5700795e+001
  4.0346438e-001  1.8512483e+000 -1.5646182e+001
  2.1705515e-001  1.9775482e+000 -1.5552042e+001
  2.6669732e-002  2.0970650e+000 -1.5399429e+001
 -1.8219302e-001  2.1745993e+000 -1.5213956e+001
 -3.8205058e-001  2.2237160e+000 -1.5020764e+001
 -6.1675797e-001  2.2665174e+000 -1.4793892e+001
 -8.7695880e-001  2.3027701e+000 -1.4550414e+001
 -1.1283891e+000  2.3435836e+000 -1.4300738e+001
 -1.3775976e+000  2.3881394e+000 -1.4017966e+001
 -1.6094982e+000  2.4110607e+000 -1.3741159e+001
 -1.8470120e+000  2.4202994e+000 -1.3455581e+001
 -2.0624235e+000  2.4257957e+000 -1.3111414e+001
 -2.2576037e+000  2.4157385e+000 -1.2742338e+001
 -2.4160630e+000  2.3843971e+000 -1.2352562e+001
 -2.5355802e+000  2.3686097e+000 -1.1902560e+001
 -2.6546297e+000  2.3460396e+000 -1.1461447e+001
 -2.7294737e+000  2.2866318e+000 -1.1026414e+001
 -2.7668961e+000  2.2369305e+000 -1.0546240e+001
 -2.7817481e+000  2.1837210e+000 -1.0088637e+001
 -2.7730941e+000  2.1348382e+000 -9.6257716e+000
 -2.7423378e+000  2.1072391e+000 -9.0818636e+000
 -2.6934549e+000  2.1063036e+000 -8.5110585e+000
 -2.6287846e+000  2.1343704e+000 -7.9360434e+000
 -2.5312532e+000  2.1478188e+000 -7.3043100e+000
 -2.4213255e+000  2.1650098e+000 -6.6440425e+000
 -2.3051998e+000  2.1708570e+000 -6.0103212e+000
 -2.1923487e+000  2.1530816e+000 -5.3988196e+000
 -2.1099027e+000  2.1335519e+000 -4.7681390e+000
 -2.0242995e+000  2.0932061e+000 -4.1435394e+000
 -1.9065367e+000  2.0707526e+000 -3.5465385e+000
 -1.7998836e+000  2.0680631e+000 -2.9598287e+000
 -1.7081993e+000  2.0577720e+000 -2.3977946e+000
 -1.6272739e+000  2.0430370e+000 -1.8220775e+000
 -1.5741810e+000  2.0199988e+000 -1.2893964e+000
 -1.5319643e+000  1.9835123e+000 -8.0162166e-001
 -1.4820290e+000  1.9201283e+000 -2.7244868e-001
 -1.4281176e+000  1.8653983e+000  2.3871511e-001
 -1.3920988e+000  1.8020147e+000  7.3748258e-001
 -1.3576001e+000  1.7339529e+000  1.2555459e+000
 -1.3333926e+000  1.6784044e+000  1.7813274e+000
 -1.3311708e+000  1.5925673e+000  2.3081617e+000
 -1.3366672e+000  1.5354986e+000  2.8196759e+000
 -1.3568985e+000  1.4572627e+000  3.3228873e+000
 -1.3791178e+000  1.3459317e+000  3.8222394e+000
 -1.4075354e+000  1.2406818e+000  4.3125872e+000
 -1.4488167e+000  1.0913442e+000  4.7801306e+000
 -1.5134869e+000  9.8586038e-001  5.2650986e+000
 -1.5986224e+000  8.9908739e-001  5.7604745e+000
 -1.6850442e+000  8.0331001e-001  6.2476646e+000
 -1.7624612e+000  7.3209098e-001  6.7224584e+000
 -1.8104086e+000  6.7490535e-001  7.1802954e+000
 -1.8588233e+000  6.5408932e-001  7.6690057e+000
 -1.9213887e+000  5.9900852e-001  8.1050912e+000
 -1.9758848e+000  5.3924992e-001  8.5319380e+000
 -2.0404381e+000  4.8779451e-001  9.0033403e+000
 -2.1111894e+000  3.9517438e-001  9.3832926e+000
 -2.1785492e+000  3.2617751e-001  9.7644139e+000
 -2.2490666e+000  2.8629947e-001  1.0190325e+001
 -2.3175961e+000  2.4022347e-001  1.0578697e+001
 -2.3816813e+000  2.0864822e-001  1.0968824e+001
 -2.4331371e+000  1.9543375e-001  1.1333339e+001
 -2.5010816e+000  1.6151980e-001  1.1638564e+001
 -2.5977945e+000  1.2865826e-001  1.1929989e+001
 -2.6687796e+000  8.4453615e-002  1.2199779e+001
 -2.7277197e+000  1.3000714e-002  1.2395076e+001
 -2.7964831e+000 -3.8104285e-002  1.2574703e+001
 -2.8579957e+000 -7.8800873e-002  1.2788009e+001
 -2.9290978e+000 -9.4705238e-002  1.2968805e+001
 -2.9841786e+000 -7.1667041e-002  1.3136269e+001
 -3.0137655e+000  3.6451135e-003  1.3316598e+001
 -3.0331784e+000  1.3041268e-001  1.3443833e+001
 -3.0418320e+000  2.5156697e-001  1.3497394e+001
 -3.0644024e+000  3.4687661e-001  1.3524408e+001
 -3.1017075e+000  3.9377116e-001  1.3515754e+001
 -3.1301251e+000  3.8698852e-001  1.3466053e+001
 -3.1427549e+000  3.8827481e-001  1.3468157e+001
 -3.1571391e+000  4.2639882e-001  1.3480904e+001
 -3.1634544e+000  4.8966548e-001  1.3487804e+001
 -3.1356214e+000  5.9503233e-001  1.3536336e+001
 -3.0742257e+000  6.9689074e-001  1.3504527e+001
 -3.0104910e+000  7.6705735e-001  1.3407463e+001
 -2.9607896e+000  8.1453697e-001  1.3337414e+001
 -2.9050072e+000  8.0202372e-001  1.3257424e+001
 -2.8431437e+000  7.6425091e-001  1.3182228e+001
 -2.7659606e+000  7.2179990e-001  1.3157904e+001
 -2.6795384e+000  6.7607470e-001  1.3136036e+001
 -2.6063315e+000  6.3619666e-001  1.3102122e+001
 -2.5270432e+000  6.1982456e-001  1.3090544e+001
 -2.4489246e+000  6.2520397e-001  1.3035814e+001
 -2.4012111e+000  5.9187469e-001  1.2964712e+001
 -2.3615669e+000  5.6953850e-001  1.2899106e+001
 -2.3316292e+000  5.5024262e-001  1.2749301e+001
