**************************************************************************************
            UNIVERSIDAD AUTONOMA METROPOLITANA - AZCAPOTZALCO
                        Departamento de Materiales
                           Area de Estructuras
     AV. SAN PABLO 180,COL.REYNOSA, AZCAPOTZALCO, C.P.02200 CIUDAD DE MEXICO.
**************************************************************************************
ARCHIVO ESTANDAR DE ACELERACION:
VERSION DEL FORMATO                    : 2.0
NOMBRE DEL ARCHIVO                     : RIDA201407291
FECHA Y HORA DE CREACION               : MON JUL 18 12:30:07 2018
REF. CATALOGO ACELEROGRAMAS, SMIS 1995 : REGISTRO NO.      /PAG.    


================================================================================
DATOS DE LA ESTACION:
NOMBRE DE LA ESTACION                  : UAM-AZCAPOTZALCO.
CLAVE DE LA ESTACION                   : RIDA
LOCALIZACION DE LA ESTACION            : AV. SAN PABLO 180,COL.REYNOSA, AZCAPOTZALCO,
                                       : C.P.02200 CIUDAD DE MEXICO.
                                       :
                                       : 
                                       : 
COORDENADAS DE LA ESTACION             : 19.498596 LAT. N
                                       : 99.195595 LONG. W
ALTITUD (msnm)                         : 2246
TIPO DE SUELO                          : TRANSICION 
                                       : 
                                       : 
INSTITUCION RESPONSABLE                : UNIVERSIDAD AUTONOMA METROPOLITANA
                                       : 

================================================================================
DATOS DEL ACELEROGRAFO: 
MODELO DEL ACELEROGRAFO                : BASALT KINEMETRICS
NUMERO DE SERIE DEL ACELEROGRAFO       : 1730
NUMERO DE CANALES                      : 3
ORIENTACION C1-C6 (rumbo;orientacion)  : /V/N00E/N90E
ORIENTACION C7-C12 (rumbo;orientacion) : 
VEL. DE MUESTREO, C1-C6 (muestras/s)   : /250/250/250
VEL. DE MUESTREO, C7-C12 (muestras/s)  : 
ESC. COMPLETA DE SENSORES, C1-C6, (g)  : /2/2/2
ESC. COMPLETA DE SENSORES, C7-C12 (g)  : 
FREC. NAT. DE SENSORES, C1-C6, (Hz)    : /210/106/212
FREC. NAT. DE SENSORES, C7-C12 (Hz)    : 
AMORTIGUAMIENTO DE SENSORES, C1-C6     : /0.7/0.7/0.7   
AMORTIGUAMIENTO DE SENSORES, C7-C12    : 
INTERVALO DE MUESTREO, C1-C6 (s)       : /0.004/0.004/0.004
INTERVALO DE MUESTREO, C7-C12 (s)      : 
UMBRAL DE DISPARO, C1-C6 (Gal)         : /2/2/2
UMBRAL DE DISPARO, C7-C12 (Gal)        : 
MEMORIA DE PREEVENTO (s)               : 30
TIEMPO DE POSEVENTO (s)                : 60


================================================================================
DATOS DEL SISMO:
FECHA DEL SISMO [GMT]                  : 2014/07/29
HORA EPICENTRO (GMT)                   : 10:46:15
MAGNITUD(ES)                           : /M=6.4
COORDENADAS DEL EPICENTRO              : 17.6988 LAT. N
                                       : 95.6373 LONG. W
PROFUNDIDAD FOCAL (Km)                 : 117.2
FUENTE DE LOS DATOS EPICENTRALES       : SSN
                                       : INSTITUTO DE GEOFISICA, UNAM

================================================================================
DATOS DE ESTE REGISTRO:
HORA DE LA PRIMERA MUESTRA (GMT)       : 10:47:27.00
EXACTITUD DEL TIEMPO (s)               : 
DURACION DEL REGISTRO (s), C1-C6       : /147.00/147.00/147.00
DURACION DEL REGISTRO (s), C7-C12      : 
NUM. TOTAL DE MUESTRAS, C1-C6          : /36750/36750/36750
NUM. TOTAL DE MUESTRAS, C7-C12         : 
ACEL. MAX.(Gal), C1-C6                 : /1.373/4.224/-3.813
ACEL. MAX., C1-C6, EN LA MUESTRA       : /7492/13524/13304
ACEL. MAX.(Gal), C7-C12                : 
ACEL. MAX., C7-C12,EN LA MUESTRA       : 
UNIDADES DE LOS DATOS                  : Gal (cm/s/s)
FACTOR DE DECIMACION                   : 1
FORMATO DATOS (FORTRAN,16 campos/dato) : 3E16.7


================================================================================
CALIDAD DEL ACELEROGRAMA:
REGISTRO DIGITAL COMPLETO CON TIEMPO ABSOLUTO CORRECTO


================================================================================
COMENTARIOS:














================================================================================
DATOS DE ACELERACION:
---------+---------+---------+---------+---------+---------+---------+---------+
   CANAL-1            CANAL-2       CANAL-3
         V             N00E           N90E
---------+---------+---------+---------+---------+---------+---------+---------+ 
[...]
  3.7010645e-001 -1.7239715e+000 -3.8007807e+000
  3.7922818e-001 -1.7554294e+000 -3.8187903e+000
  3.7946205e-001 -1.7597564e+000 -3.8117734e+000
  3.8308744e-001 -1.7557802e+000 -3.8081484e+000
  3.7665561e-001 -1.7656035e+000 -3.7901388e+000
  3.6355769e-001 -1.7475943e+000 -3.7514301e+000
  3.7384877e-001 -1.7399928e+000 -3.7432442e+000
  3.5560531e-001 -1.7198783e+000 -3.7219601e+000
  3.4531423e-001 -1.6835087e+000 -3.6936598e+000
  3.3151509e-001 -1.6598859e+000 -3.6765857e+000
  3.0543619e-001 -1.6152131e+000 -3.6495717e+000
  3.0099265e-001 -1.5797790e+000 -3.6119158e+000
  2.7304278e-001 -1.5508940e+000 -3.5488826e+000
  2.5608600e-001 -1.5179155e+000 -3.4915801e+000
  2.4439130e-001 -1.4917201e+000 -3.4067954e+000
  2.1667570e-001 -1.4764004e+000 -3.2917221e+000
  1.9679514e-001 -1.4555844e+000 -3.1936060e+000
  1.7726540e-001 -1.4319615e+000 -3.0698788e+000
  1.5937274e-001 -1.4346514e+000 -2.9282593e+000
  1.2709627e-001 -1.4102100e+000 -2.8062864e+000
  8.4060979e-002 -1.3991000e+000 -2.6873539e+000
  4.3714803e-002 -1.4047136e+000 -2.5488920e+000
  1.0035111e-002 -1.3851839e+000 -2.4073891e+000
 -1.8265561e-002 -1.3925512e+000 -2.2905618e+000
 -5.2764192e-002 -1.3934867e+000 -2.1653144e+000
 -8.7496693e-002 -1.3998020e+000 -1.9998381e+000
 -1.1755139e-001 -1.4118471e+000 -1.8543597e+000
 -1.3906904e-001 -1.3919665e+000 -1.7240837e+000
 -1.5965121e-001 -1.3841315e+000 -1.5549821e+000
 -1.8280594e-001 -1.3758283e+000 -1.4123101e+000
 -2.0256956e-001 -1.3408619e+000 -1.2888168e+000
 -2.2303479e-001 -1.3070649e+000 -1.1282522e+000
 -2.3320933e-001 -1.2733852e+000 -9.8908869e-001
 -2.5063385e-001 -1.2172516e+000 -8.5401794e-001
 -2.7355512e-001 -1.1698893e+000 -6.9836503e-001
 -2.7764785e-001 -1.1215911e+000 -5.5066449e-001
 -2.8408007e-001 -1.0504891e+000 -3.9349102e-001
 -2.7495834e-001 -9.9458971e-001 -2.4438726e-001
 -2.6034026e-001 -9.2699606e-001 -8.1015840e-002
 -2.5238788e-001 -8.4911094e-001  7.9431418e-002
 -2.2876540e-001 -7.6526213e-001  2.1836142e-001
 -2.1204210e-001 -6.5685456e-001  3.7378047e-001
 -1.8783455e-001 -5.5125384e-001  5.1013751e-001
 -1.5392099e-001 -4.2284918e-001  6.3784055e-001
 -1.3415737e-001 -2.9315784e-001  7.8121449e-001
 -1.2445096e-001 -1.8592002e-001  9.2762874e-001
 -1.0211438e-001 -6.8039920e-002  1.0506540e+000
 -7.6269737e-002  5.2061948e-002  1.1882977e+000
 -5.8026669e-002  1.4795627e-001  1.3331914e+000
 -4.7501716e-002  2.3519660e-001  1.4417159e+000
 -5.8143604e-002  3.2231999e-001  1.5731613e+000
 -4.0835625e-002  3.8032456e-001  1.6965377e+000
 -2.3411103e-002  4.6850037e-001  1.8058804e+000
 -2.5165131e-002  5.4065528e-001  1.8996699e+000
 -2.3761908e-002  5.7889583e-001  1.9899509e+000
 -3.6157824e-002  6.5198622e-001  2.1092342e+000
 -2.9375190e-002  6.9057797e-001  2.1795178e+000
 -2.9492125e-002  7.4799747e-001  2.2528416e+000
 -4.1069495e-002  8.0857462e-001  2.3507242e+000
 -4.8203327e-002  8.2903985e-001  2.4148094e+000
 -6.0248437e-002  8.9090328e-001  2.4762051e+000
 -6.3990756e-002  9.4189095e-001  2.5408754e+000
 -7.0071779e-002  9.9147540e-001  2.5956054e+000
 -6.7499205e-002  1.0685420e+000  2.6446052e+000
 -7.2644746e-002  1.1167228e+000  2.6981658e+000
 -8.5157597e-002  1.1718036e+000  2.7298576e+000
 -7.8608833e-002  1.2474666e+000  2.7443587e+000
 -7.7673352e-002  1.3076929e+000  2.7824823e+000
 -7.6854413e-002  1.3797305e+000  2.8036492e+000
 -7.0539520e-002  1.4507156e+000  2.7980359e+000
 -6.3523015e-002  1.5052118e+000  2.8057544e+000
 -4.5630360e-002  1.5759630e+000  2.8072746e+000
 -2.5515936e-002  1.6491704e+000  2.7880956e+000
 -1.7765210e-003  1.7103322e+000  2.7683320e+000
  1.2023010e-002  1.7695061e+000  2.7731267e+000
  2.4068513e-002  1.8172192e+000  2.7504398e+000
  5.2251858e-002  1.8540569e+000  2.7109125e+000
  7.2950958e-002  1.8875027e+000  2.7144210e+000
  9.8444793e-002  1.9021208e+000  2.6729054e+000
  1.1844228e-001  1.9007176e+000  2.6157198e+000
  1.3118940e-001  1.8953382e+000  2.5876534e+000
  1.6054249e-001  1.8839947e+000  2.5288303e+000
  1.7597911e-001  1.8844624e+000  2.4611193e+000
  1.9737982e-001  1.8732355e+000  2.3975018e+000
  2.2755146e-001  1.8424792e+000  2.3253469e+000
  2.4906910e-001  1.8439997e+000  2.2481638e+000
  2.9198785e-001  1.8196752e+000  2.1699283e+000
  3.2367965e-001  1.7750025e+000  2.0870146e+000
  3.4578197e-001  1.7498594e+000  1.9824663e+000
  3.7127620e-001  1.7068237e+000  1.8870397e+000
  3.8612775e-001  1.6842537e+000  1.8104412e+000
  4.0437121e-001  1.6520937e+000  1.6965377e+000
  4.2928037e-001  1.6043807e+000  1.5939773e+000
  4.5758105e-001  1.5701159e+000  1.5066200e+000
  4.4986254e-001  1.5443882e+000  1.3934177e+000
  4.4296297e-001  1.5083694e+000  1.2862969e+000
  4.5664517e-001  1.4640474e+000  1.1991735e+000
  4.5769798e-001  1.4392552e+000  1.1169613e+000
  4.6237578e-001  1.3743511e+000  1.0017715e+000
  4.4518474e-001  1.3134231e+000  9.2213239e-001
  4.2284854e-001  1.2503903e+000  8.6073670e-001
  4.0986756e-001  1.1721544e+000  7.7770604e-001
  3.9220917e-001  1.1185942e+000  7.2180670e-001
  3.7080806e-001  1.0279623e+000  6.7046822e-001
  3.4496342e-001  9.4013692e-001  6.3035631e-001
  3.2438126e-001  8.5266272e-001  5.7913477e-001
  3.0368216e-001  7.5185673e-001  5.3797044e-001
  2.7795445e-001  6.6391439e-001  5.1212540e-001
  2.4649653e-001  5.5667658e-001  4.6429538e-001
  2.1784505e-001  4.3786099e-001  4.3061529e-001
  1.9293589e-001  3.2290467e-001  3.9260861e-001
  1.6709125e-001  2.1017050e-001  3.4735115e-001
  1.4264983e-001  8.5624704e-002  3.0244450e-001
  1.1996283e-001 -3.0150169e-002  2.4654516e-001
  7.9500114e-002 -1.4323514e-001  1.9076275e-001
  4.4884548e-002 -2.6918416e-001  1.2468887e-001
  2.2898768e-002 -3.7747479e-001  5.3820648e-002
 -1.6628076e-002 -4.9886294e-001 -1.9737087e-002
 -4.2005369e-002 -6.2609825e-001 -9.4113760e-002
 -6.7265334e-002 -7.4538157e-001 -1.6568360e-001
 -9.1706361e-002 -8.8922286e-001 -2.4298404e-001
 -1.0375186e-001 -1.0275682e+000 -3.0636763e-001
 -1.1965623e-001 -1.1663809e+000 -3.6741251e-001
 -1.2304774e-001 -1.3048431e+000 -4.2962714e-001
 -1.2749167e-001 -1.4162910e+000 -4.8330432e-001
 -1.4362991e-001 -1.5362759e+000 -5.3370732e-001
 -1.4748877e-001 -1.6492440e+000 -5.8025145e-001
 -1.3836743e-001 -1.7409282e+000 -6.2656132e-001
 -1.4889238e-001 -1.8384600e+000 -6.5755150e-001
 -1.4596861e-001 -1.9278052e+000 -6.9778035e-001
 -1.4117387e-001 -2.0108359e+000 -7.1766090e-001
 -1.4479926e-001 -2.1136298e+000 -7.1871332e-001
 -1.3018118e-001 -2.2036769e+000 -7.4350555e-001
 -1.5509034e-001 -2.2730250e+000 -7.4186845e-001
 -1.7076083e-001 -2.3462323e+000 -7.2900440e-001
 -1.7695879e-001 -2.4033010e+000 -7.1789477e-001
 -2.0654575e-001 -2.4596681e+000 -7.1029320e-001
 -2.2245012e-001 -2.5126440e+000 -6.9450577e-001
 -2.4490364e-001 -2.5670228e+000 -6.7275426e-001
 -2.6852651e-001 -2.6166073e+000 -6.6152769e-001
 -2.9565744e-001 -2.6563684e+000 -6.4398584e-001
 -3.0477917e-001 -2.7222080e+000 -6.3416250e-001
 -3.1249728e-001 -2.7726110e+000 -6.1767346e-001
 -3.2676456e-001 -2.8044201e+000 -6.2024603e-001
 -3.2957139e-001 -2.8279257e+000 -6.1007189e-001
 -3.4185037e-001 -2.8506131e+000 -5.8972359e-001
 -3.3284558e-001 -2.8565772e+000 -5.9861145e-001
 -3.2512746e-001 -2.8506131e+000 -5.7943251e-001
 -3.2173595e-001 -2.8655819e+000 -5.7183133e-001
 -3.1553799e-001 -2.8580973e+000 -5.8609860e-001
 -3.2582907e-001 -2.8688561e+000 -5.8481192e-001
 -3.1308196e-001 -2.8863980e+000 -5.7393616e-001
 -2.9133044e-001 -2.8874504e+000 -5.8071919e-001
 -2.8033775e-001 -2.9037056e+000 -5.9755904e-001
 -2.6642128e-001 -2.9183236e+000 -5.8539699e-001
 -2.5776729e-001 -2.9255744e+000 -5.7767848e-001
 -2.5496085e-001 -2.9086172e+000 -5.8492886e-001
 -2.4899676e-001 -2.8847609e+000 -5.7311762e-001
 -2.4618992e-001 -2.8520163e+000 -5.4049034e-001
 -2.4642379e-001 -2.8092149e+000 -5.2622307e-001
 -2.5203708e-001 -2.7498071e+000 -5.1768602e-001
 -2.5963865e-001 -2.6815114e+000 -4.8494181e-001
 -2.6361484e-001 -2.6242089e+000 -4.7125921e-001
 -2.8934254e-001 -2.5409443e+000 -4.6166974e-001
 -3.1109406e-001 -2.4604866e+000 -4.3255052e-001
 -3.2688149e-001 -2.3848237e+000 -4.0845991e-001
 -3.6290028e-001 -2.3023781e+000 -3.8881362e-001
 -3.9342272e-001 -2.1967774e+000 -3.5139121e-001
 -4.2499797e-001 -2.0753892e+000 -2.8835843e-001
 -4.6089982e-001 -1.9625377e+000 -2.4017720e-001
 -4.9434565e-001 -1.8258299e+000 -1.7971700e-001
 -5.1738384e-001 -1.7033893e+000 -9.4815371e-002
 -5.2954589e-001 -1.5558057e+000 -4.4529311e-002
 -5.5737882e-001 -1.3845992e+000 -4.8851393e-003
 -5.8287266e-001 -1.2371322e+000  5.6276679e-002
 -6.0181773e-001 -1.0745797e+000  9.8493426e-002
 -6.1795596e-001 -9.1050663e-001  1.0691354e-001
 -6.1140720e-001 -7.4269167e-001  1.3919001e-001
 -6.2052854e-001 -5.6856182e-001  1.6807536e-001
 -6.2929946e-001 -4.0355330e-001  1.6269595e-001
 -6.1304429e-001 -2.4462581e-001  1.8386279e-001
 -5.9503470e-001 -7.6693910e-002  2.0888889e-001
 -5.7082755e-001  7.9075941e-002  2.0093690e-001
 -5.6883925e-001  2.3484579e-001  2.1122798e-001
 -5.4650306e-001  3.8979710e-001  2.2584606e-001
 -5.0253190e-001  5.3048113e-001  2.2549486e-001
 -4.6873488e-001  6.9467071e-001  2.3578634e-001
 -4.1213392e-001  8.4646437e-001  2.3262869e-001
 -3.7015105e-001  9.9989551e-001  2.3917746e-001
 -3.3588629e-001  1.1684121e+000  2.4549235e-001
 -2.9717760e-001  1.3342392e+000  2.4373832e-001
 -2.5075079e-001  1.5006509e+000  2.6209872e-001
 -2.0221876e-001  1.6677646e+000  2.7624906e-001
 -1.6339352e-001  1.8258732e+000  2.9121794e-001
 -1.1556310e-001  1.9553307e+000  3.3530565e-001
 -7.8608833e-002  2.0908691e+000  3.8313607e-001
 -3.5339278e-002  2.2055912e+000  4.0266582e-001
  8.0468206e-003  2.3137649e+000  4.5517365e-001
  3.6113623e-002  2.4391292e+000  5.0358874e-001
  5.7748205e-002  2.5524481e+000  5.0686293e-001
  7.1664671e-002  2.6772278e+000  5.4147849e-001
  8.7802905e-002  2.8130001e+000  5.7539245e-001
  1.0967175e-001  2.9506434e+000  5.7925170e-001
  1.1376448e-001  3.0861819e+000  6.0626570e-001
  1.0464314e-001  3.2047636e+000  6.3269501e-001
  1.0908668e-001  3.3034644e+000  6.4988606e-001
  8.9323455e-002  3.4270747e+000  6.8333188e-001
  8.3358975e-002  3.5237876e+000  6.7783553e-001
  7.5056184e-002  3.5863530e+000  6.7771860e-001
  4.2662387e-002  3.6849369e+000  6.8789274e-001
  4.8743409e-002  3.7439938e+000  6.4053046e-001
  3.0968082e-002  3.8133419e+000  6.0685037e-001
  1.4946782e-002  3.8983605e+000  5.6767394e-001
  5.7081166e-003  3.9443195e+000  4.8955534e-001
 -2.1305877e-002  4.0066507e+000  4.3342213e-001
 -1.3587761e-002  4.0501541e+000  3.7611917e-001
 -2.0253460e-002  4.0954116e+000  3.1203397e-001
 -2.8907449e-002  4.1274542e+000  2.6595758e-001
 -3.3468315e-002  4.1474517e+000  2.2549486e-001
 -4.8671068e-002  4.1736471e+000  1.7813258e-001
 -4.2239239e-002  4.1695540e+000  1.4047669e-001
 -3.4754602e-002  4.1814826e+000  1.2199936e-001
 -1.9084108e-002  4.1718931e+000  8.1068904e-002
 -1.2535344e-002  4.1557549e+000  5.3119036e-002
 -1.2535344e-002  4.1301441e+000  3.9670704e-002
  6.2927926e-003  4.0721395e+000  1.0083744e-002
  2.3015703e-002  4.0440727e+000  4.2365911e-003
  3.6113623e-002  3.9992834e+000 -6.1718189e-003
  4.0791423e-002  3.9285321e+000 -1.9152411e-002
  4.7457122e-002  3.8536877e+000 -2.0204828e-002
  6.3829227e-002  3.7811820e+000 -3.0028169e-002
  8.2891235e-002  3.6994380e+000 -4.0670057e-002
  1.0452621e-001  3.6040114e+000 -5.7627231e-002
  1.1084110e-001  3.5131457e+000 -7.5519494e-002
  1.2113218e-001  3.3958507e+000 -1.0767942e-001
  1.4112967e-001  3.2851044e+000 -1.4369821e-001
  1.5563081e-001  3.1693295e+000 -1.7655935e-001
  1.9118186e-001  3.0342588e+000 -2.2497445e-001
  2.0965880e-001  2.9229278e+000 -2.5654931e-001
  2.1772811e-001  2.7886756e+000 -2.9946806e-001
  2.5070659e-001  2.6538388e+000 -3.3700701e-001
  2.7467987e-001  2.5488231e+000 -3.5361337e-001
  3.1175147e-001  2.4304753e+000 -3.9758415e-001
  3.4215698e-001  2.3193782e+000 -4.2459853e-001
  3.6262221e-001  2.2038372e+000 -4.4939076e-001
  3.9127369e-001  2.0721579e+000 -5.0213246e-001
  4.0086276e-001  1.9619964e+000 -5.3440893e-001
  4.2191306e-001  1.8386199e+000 -5.7194827e-001
  4.4752383e-001  1.6951294e+000 -6.3275928e-001
  4.5360486e-001  1.5608772e+000 -6.7497602e-001
  4.5664517e-001  1.3993772e+000 -7.2549595e-001
  4.6763826e-001  1.2460633e+000 -7.7285863e-001
  4.8681681e-001  1.1079519e+000 -8.1741448e-001
  4.8892203e-001  9.3639460e-001 -8.7740694e-001
  4.8658294e-001  7.6086113e-001 -9.1623218e-001
  5.0295543e-001  5.7234707e-001 -9.7037749e-001
  5.1593603e-001  3.7681611e-001 -1.0346970e+000
  5.2938475e-001  1.9005608e-001 -1.0988995e+000
  5.4014357e-001 -4.1881999e-003 -1.1629847e+000
  5.3932503e-001 -2.0591751e-001 -1.2262517e+000
  5.5838704e-001 -4.1559841e-001 -1.3053062e+000
  5.8364700e-001 -6.1007695e-001 -1.3628426e+000
  5.9475663e-001 -7.9309467e-001 -1.4223674e+000
  6.1335090e-001 -9.7915309e-001 -1.4941711e+000
  6.2644842e-001 -1.1615861e+000 -1.5493688e+000
  6.3919554e-001 -1.3386398e+000 -1.6106475e+000
  6.5837448e-001 -1.4996721e+000 -1.6728622e+000
  6.6375389e-001 -1.6440984e+000 -1.7130910e+000
  6.7720222e-001 -1.7885248e+000 -1.7691073e+000
  6.8117841e-001 -1.9249988e+000 -1.8321401e+000
  6.7123814e-001 -2.0507139e+000 -1.8734213e+000
  6.8000906e-001 -2.1827439e+000 -1.9197316e+000
  6.7533126e-001 -2.3050676e+000 -1.9776188e+000
  6.5264387e-001 -2.4166328e+000 -2.0421722e+000
  6.2106901e-001 -2.5280807e+000 -2.0777232e+000
  5.7768291e-001 -2.6298221e+000 -2.1062578e+000
  5.4926531e-001 -2.7234943e+000 -2.1407560e+000
  5.2061383e-001 -2.8048879e+000 -2.1354935e+000
  4.7219912e-001 -2.8821879e+000 -2.1351427e+000
  4.0717805e-001 -2.9496646e+000 -2.1370141e+000
  3.4402794e-001 -3.0031083e+000 -2.1066086e+000
  2.9795194e-001 -3.0615806e+000 -2.0856756e+000
  2.4216953e-001 -3.1027450e+000 -2.0836873e+000
  1.8545165e-001 -3.1388807e+000 -2.0670813e+000
  1.3118940e-001 -3.1752503e+000 -2.0436923e+000
  7.1430800e-002 -3.1897514e+000 -2.0363250e+000
  2.4302383e-002 -3.1940784e+000 -2.0164445e+000
 -7.6236734e-003 -3.1892837e+000 -1.9786713e+000
 -4.1069495e-002 -3.1867107e+000 -1.9475641e+000
 -8.2234217e-002 -3.1606322e+000 -1.9083877e+000
 -1.0351799e-001 -3.1292912e+000 -1.8576339e+000
 -1.3041505e-001 -3.1144393e+000 -1.7999805e+000
 -1.5368712e-001 -3.0757306e+000 -1.7416252e+000
 -1.6783745e-001 -3.0373731e+000 -1.6782416e+000
 -2.0292037e-001 -2.9987813e+000 -1.5957956e+000
 -2.2666018e-001 -2.9539916e+000 -1.5370898e+000
 -2.5297256e-001 -2.8968060e+000 -1.4526559e+000
 -2.6864344e-001 -2.8338898e+000 -1.3359456e+000
 -2.8887480e-001 -2.7687518e+000 -1.2626213e+000
 -3.2992220e-001 -2.6911009e+000 -1.1626339e+000
 -3.5798861e-001 -2.6233903e+000 -1.0276801e+000
 -3.9038241e-001 -2.5276129e+000 -9.0442094e-001
 -4.1739640e-001 -2.4252864e+000 -8.0829275e-001
 -4.5236277e-001 -2.3217909e+000 -6.9649406e-001
 -4.8931704e-001 -2.2161902e+000 -5.6306041e-001
 -5.1504475e-001 -2.1184245e+000 -4.9464821e-001
 -5.4065591e-001 -1.9811320e+000 -4.2097315e-001
 -5.5620947e-001 -1.8673450e+000 -3.4226948e-001
 -5.8357427e-001 -1.7525060e+000 -3.0847285e-001
 -6.1421364e-001 -1.6104183e+000 -2.6953029e-001
 -6.2356924e-001 -1.4880947e+000 -2.2134907e-001
 -6.3374339e-001 -1.3392248e+000 -1.8907260e-001
 -6.5350701e-001 -1.1794788e+000 -1.7141381e-001
 -6.7303676e-001 -1.0380931e+000 -1.0265081e-001
 -6.8590042e-001 -9.0033248e-001 -4.6049469e-002
 -6.9127983e-001 -7.5953152e-001 -9.5629397e-003
