**************************************************************************************
  RED ACELEROGRÁFICA DE LA UNIVERSIDAD AUTONOMA METROPOLITANA (RAUAM)
				UNIDAD AZCAPOTZALCO
                        DIVISIÓN CBI-DEPARTAMENTO DE MATERIALES
     Av. San Pablo 180, Col. Reynosa, Azcapotzalco, C.P. 02200, Ciudad de México
**************************************************************************************
ARCHIVO ESTANDAR DE ACELERACION:
VERSION DEL FORMATO                    : 2.0
NOMBRE DEL ARCHIVO                     : RIDA201408131
FECHA Y HORA DE CREACION               : 12:19 p. m. 15/10/2014
REF. CATALOGO ACELEROGRAMAS, SMIS 1995 : REGISTRO NO.      /PAG.    


================================================================================
DATOS DE LA ESTACION:
NOMBRE DE LA ESTACION                  : UAM-AZCAPOTZALCO.
CLAVE DE LA ESTACION                   : RIDA
LOCALIZACION DE LA ESTACION            : AV. SAN PABLO 180, COL.REYNOSA, AZCAPOTZALCO,
                                       : C.P.02200 CIUDAD DE MEXICO.
                                       :
                                       : 
                                       : 
COORDENADAS DE LA ESTACION             : 19.498596 LAT. N
                                       : 99.195595 LONG. W
ALTITUD (msnm)                         : 2246
TIPO DE SUELO                          : ZONA DE TRANSICION 
                                       : 
                                       : 
INSTITUCION RESPONSABLE                : UAM-AZCAPOTZALCO
                                       : 

================================================================================
DATOS DEL ACELEROGRAFO: 
MODELO DEL ACELEROGRAFO                : BASALT KINEMETRICS
NUMERO DE SERIE DEL ACELEROGRAFO       : 1730
NUMERO DE CANALES                      : 3
ORIENTACION C1-C6 (rumbo;orientacion)  : /V/N00E/N90E
ORIENTACION C7-C12 (rumbo;orientacion) : 
VEL. DE MUESTREO, C1-C6 (muestras/s)   : /250/250/250
VEL. DE MUESTREO, C7-C12 (muestras/s)  : 
ESC. COMPLETA DE SENSORES, C1-C6, (g)  : /2/2/2
ESC. COMPLETA DE SENSORES, C7-C12 (g)  : 
FREC. NAT. DE SENSORES, C1-C6, (Hz)    : /210/206/212
FREC. NAT. DE SENSORES, C7-C12 (Hz)    : 
AMORTIGUAMIENTO DE SENSORES, C1-C6     : /0.70/0.70/0.70   
AMORTIGUAMIENTO DE SENSORES, C7-C12    : 
INTERVALO DE MUESTREO, C1-C6 (s)       : /0.004/0.004/0.004
INTERVALO DE MUESTREO, C7-C12 (s)      : 
UMBRAL DE DISPARO, C1-C6 (Gal)         : /2/2/2
UMBRAL DE DISPARO, C7-C12 (Gal)        : 
MEMORIA DE PREEVENTO (s)               : 30
TIEMPO DE POSEVENTO (s)                : 60


================================================================================
DATOS DEL SISMO:
FECHA DEL SISMO [GMT]                  : 2014/08/13
HORA EPICENTRO (GMT)                   : 06:48:10
MAGNITUD(ES)                           : /M=5.4
COORDENADAS DEL EPICENTRO              : 16.1732 LAT. N
                                       : 98.2863 LONG. W
PROFUNDIDAD FOCAL (Km)                 : 15.0
FUENTE DE LOS DATOS EPICENTRALES       : SSN
                                       : INSTITUTO DE GEOFISICA, UNAM

================================================================================
DATOS DE ESTE REGISTRO:
HORA DE LA PRIMERA MUESTRA (GMT)       : 06:49:28.00
EXACTITUD DEL TIEMPO (s)               : 
DURACION DEL REGISTRO (s), C1-C6       : /112.00/112.00/112.00
DURACION DEL REGISTRO (s), C7-C12      : 
NUM. TOTAL DE MUESTRAS, C1-C6          : /28000/28000/28000
NUM. TOTAL DE MUESTRAS, C7-C12         : 
ACEL. MAX.(Gal), C1-C6                 : /-0.556/-2.308/-2.839
ACEL. MAX., C1-C6, EN LA MUESTRA       : /10998/11807/8144
ACEL. MAX.(Gal), C7-C12                : 
ACEL. MAX., C7-C12,EN LA MUESTRA       : 
UNIDADES DE LOS DATOS                  : Gal (cm/s/s)
FACTOR DE DECIMACION                   : 1
FORMATO DATOS (FORTRAN,16 campos/dato) : 3E16.7


================================================================================
CALIDAD DEL ACELEROGRAMA:
REGISTRO DIGITAL COMPLETO CON TIEMPO ABSOLUTO CORRECTO


================================================================================
COMENTARIOS:














================================================================================
DATOS DE ACELERACION:
---------+---------+---------+---------+---------+---------+---------+---------+
   CANAL-1  	    CANAL-2 	     CANAL-3
       V     	     N00E              N90E
---------+---------+---------+---------+---------+---------+---------+---------+ 
[...]
   1.1921632e-02   8.6587671e-01   1.2270128e+00
   2.2991410e-02   8.2550185e-01   1.2074939e+00
   2.2525347e-02   8.0162792e-01   1.1997798e+00
   2.4273083e-02   7.8594614e-01   1.2065590e+00
   3.3012546e-02   7.6289173e-01   1.1993123e+00
   2.4855662e-02   7.5575276e-01   1.1953387e+00
   3.3595125e-02   7.3808165e-01   1.1921828e+00
   2.5438632e-02   7.3644298e-01   1.2022344e+00
   1.9262515e-02   7.4440109e-01   1.2028188e+00
   2.2175800e-02   7.3796463e-01   1.1955724e+00
   2.9491382e-03   7.4955034e-01   1.2041043e+00
   1.6674650e-03   7.4966736e-01   1.2017669e+00
  -4.5082604e-03   7.5586978e-01   1.2004814e+00
  -1.2082566e-02   7.6324279e-01   1.1892607e+00
  -1.5927976e-02   7.5586978e-01   1.1737158e+00
  -3.0843164e-02   7.6148711e-01   1.1693913e+00
  -3.4804700e-02   7.5727401e-01   1.1492881e+00
  -3.3872574e-02   7.5013543e-01   1.1227567e+00
  -3.7601468e-02   7.4007098e-01   1.0945891e+00
  -4.0281722e-02   7.1561195e-01   1.0548503e+00
  -3.8184047e-02   6.9162100e-01   1.0107869e+00
  -3.2008322e-02   6.6131060e-01   9.5643811e-01
  -1.7675712e-02   6.1414823e-01   8.8514207e-01
  -1.6627071e-02   5.6347488e-01   8.2775471e-01
  -7.3050292e-03   5.1128027e-01   7.6347124e-01
   1.7398263e-02   4.4316945e-01   6.8072079e-01
   2.4622630e-02   3.7587816e-01   6.1678833e-01
   4.1052914e-02   3.0975707e-01   5.4899838e-01
   6.3075954e-02   2.3485872e-01   4.7536495e-01
   7.8340689e-02   1.6499261e-01   4.1435384e-01
   9.3954972e-02   8.9275136e-02   3.4317467e-01
   1.0222837e-01   1.7302674e-02   2.8298204e-01
   1.2063903e-01  -5.9000293e-02   2.4020457e-01
   1.3497164e-01  -1.3331314e-01   1.9169970e-01
   1.3427255e-01  -1.9229566e-01   1.5605168e-01
   1.4767303e-01  -2.7561979e-01   1.2835159e-01
   1.5443133e-01  -3.4525187e-01   1.1315735e-01
   1.5711159e-01  -4.0751132e-01   9.6443404e-02
   1.5990797e-01  -4.6427008e-01   9.0482654e-02
   1.4965380e-01  -5.0663426e-01   9.1300743e-02
   1.4977031e-01  -5.6339341e-01   7.1898795e-02
   1.4510929e-01  -5.8843753e-01   7.9846722e-02
   1.3567074e-01  -6.1945005e-01   6.7574222e-02
   1.2891243e-01  -6.5432459e-01   4.7354186e-02
   1.1096783e-01  -6.7398543e-01   5.1328150e-02
   8.9760014e-02  -7.0862555e-01   2.9588807e-02
   6.4357627e-02  -7.2863744e-01   1.8017917e-02
   4.6179998e-02  -7.5777764e-01   3.5248911e-03
   2.8118494e-02  -7.9604615e-01  -1.5409578e-02
   7.3533905e-04  -8.2062219e-01  -2.1954676e-02
  -1.7675712e-02  -8.4894287e-01  -4.5330587e-02
  -4.2145973e-02  -8.9048831e-01  -7.8874952e-02
  -7.1859834e-02  -9.2501140e-01  -1.0751000e-01
  -9.2950747e-02  -9.5192823e-01  -1.3766475e-01
  -1.1241044e-01  -9.8738787e-01  -1.8570214e-01
  -1.2953943e-01  -1.0171132e+00  -2.2579160e-01
  -1.4818351e-01  -1.0587752e+00  -2.6307580e-01
  -1.6449689e-01  -1.0986820e+00  -3.0199657e-01
  -1.6694411e-01  -1.1392909e+00  -3.3180071e-01
  -1.7125558e-01  -1.1863363e+00  -3.6920177e-01
  -1.8640380e-01  -1.2219129e+00  -3.9538295e-01
  -1.8791851e-01  -1.2724693e+00  -4.2097939e-01
  -1.8209233e-01  -1.3088654e+00  -4.5639367e-01
  -1.7393544e-01  -1.3375372e+00  -4.9660000e-01
  -1.6659456e-01  -1.3663263e+00  -5.2324826e-01
  -1.6030232e-01  -1.3893811e+00  -5.4428639e-01
  -1.4340597e-01  -1.4104462e+00  -5.7818136e-01
  -1.3245271e-01  -1.4201596e+00  -5.9197317e-01
  -1.2080036e-01  -1.4370116e+00  -6.0892046e-01
  -1.0938064e-01  -1.4288194e+00  -6.1756961e-01
  -9.6796158e-02  -1.4226170e+00  -6.1266068e-01
  -8.1764454e-02  -1.4246067e+00  -6.2785493e-01
  -7.5472213e-02  -1.4099781e+00  -6.3907521e-01
  -6.9063065e-02  -1.3876254e+00  -6.3416629e-01
  -5.0302857e-02  -1.3652731e+00  -6.4503596e-01
  -3.7368437e-02  -1.3502935e+00  -6.6513913e-01
  -4.2961584e-02  -1.3151849e+00  -6.6607408e-01
  -3.5387669e-02  -1.2977474e+00  -6.8407359e-01
  -3.7951016e-02  -1.2639264e+00  -6.8267116e-01
  -4.7040026e-02  -1.2162956e+00  -6.8372298e-01
  -5.1934078e-02  -1.1870384e+00  -7.0698163e-01
  -6.4635076e-02  -1.1484192e+00  -6.9728105e-01
  -6.3120371e-02  -1.1168212e+00  -7.1235804e-01
  -7.2558928e-02  -1.0614667e+00  -7.2614984e-01
  -7.2908476e-02  -1.0320928e+00  -7.3655204e-01
  -8.4444316e-02  -9.9511155e-01  -7.5536963e-01
  -1.0483614e-01  -9.4490628e-01  -7.6951205e-01
  -8.7590632e-02  -9.2255399e-01  -7.9709527e-01
  -9.9476020e-02  -8.5233682e-01  -8.0247167e-01
  -1.0192324e-01  -8.0868503e-01  -8.3297703e-01
  -9.0969980e-02  -7.6515065e-01  -8.4934037e-01
  -1.0099112e-01  -7.0101889e-01  -8.4653510e-01
  -8.8289727e-02  -6.5631392e-01  -8.7610550e-01
  -8.7590632e-02  -5.8516060e-01  -8.7844329e-01
  -8.2813096e-02  -5.2571000e-01  -8.7844329e-01
  -5.8692382e-02  -4.6544027e-01  -8.8183251e-01
  -4.2961584e-02  -3.9803196e-01  -8.7330023e-01
  -2.8512458e-02  -3.2453785e-01  -8.5728790e-01
  -6.6324086e-04  -2.5736358e-01  -8.3882130e-01
   2.5555147e-02  -1.8176312e-01  -8.1135456e-01
   4.4431871e-02  -8.9427707e-02  -7.8026485e-01
   7.6010374e-02  -2.5881038e-02  -7.5910986e-01
   9.4421035e-02   6.2475718e-02  -7.0686476e-01
   1.2448444e-01   1.4217186e-01  -6.6712630e-01
   1.5920887e-01   2.1566596e-01  -6.2563401e-01
   1.7156071e-01   3.0308617e-01  -5.6322086e-01
   1.8950531e-01   3.6019638e-01  -5.2102735e-01
   2.0174064e-01   4.3240288e-01  -4.5802984e-01
   2.1852008e-01   5.0297111e-01  -3.9865530e-01
   2.2819166e-01   5.5797457e-01  -3.5295570e-01
   2.2061736e-01   6.1485034e-01  -2.8808789e-01
   2.1735492e-01   6.6095954e-01  -2.2181764e-01
   2.0931455e-01   7.0145141e-01  -1.6536524e-01
   2.0022554e-01   7.3714510e-01  -1.1054901e-01
   1.8577642e-01   7.6523212e-01  -4.4863108e-02
   1.6328731e-01   7.8934009e-01   2.1173400e-02
   1.5186799e-01   8.1005411e-01   7.4002843e-02
   1.3229178e-01   8.3615141e-01   1.4038996e-01
   1.0700591e-01   8.6131255e-01   2.0479029e-01
   9.1624657e-02   8.7863300e-01   2.6217766e-01
   7.5427404e-02   9.0168741e-01   3.3768140e-01
   6.2260343e-02   9.2181632e-01   4.0044555e-01
   4.2567619e-02   9.4393496e-01   4.5537865e-01
   3.1847388e-02   9.5633981e-01   5.0785709e-01
   1.8446905e-02   9.7307477e-01   5.6769911e-01
   7.0275802e-03   9.9378879e-01   6.1176254e-01
   4.2308114e-03   1.0120454e+00   6.4518964e-01
  -5.6738088e-03   1.0410686e+00   7.0503166e-01
  -1.1293038e-03   1.0607294e+00   7.5014692e-01
  -9.6353441e-03   1.1026255e+00   7.9608026e-01
  -5.5572931e-03   1.1262654e+00   8.4213047e-01
  -5.3242616e-03   1.1575120e+00   9.0454402e-01
  -1.1383471e-02   1.2099406e+00   9.6181451e-01
   2.3665595e-03   1.2303036e+00   9.9863123e-01
  -7.3050292e-03   1.2670508e+00   1.0623303e+00
  -3.5761344e-03   1.2855411e+00   1.1005499e+00
  -8.5867024e-03   1.3200645e+00   1.1539633e+00
  -5.4407773e-03   1.3517792e+00   1.2131041e+00
   8.4257691e-03   1.3593862e+00   1.2372981e+00
  -8.7032181e-03   1.3933246e+00   1.2891922e+00
  -5.9068403e-03   1.3893456e+00   1.3355930e+00
  -9.5188283e-03   1.4054954e+00   1.3676181e+00
  -1.7442681e-02   1.4242201e+00   1.4033829e+00
  -1.8025260e-02   1.4132195e+00   1.4359920e+00
  -3.0493617e-02   1.4191879e+00   1.4628744e+00
  -3.7601468e-02   1.4051444e+00   1.4836787e+00
  -4.6690478e-02   1.4013994e+00   1.5097427e+00
  -5.7876772e-02   1.3865367e+00   1.5211967e+00
  -7.2558928e-02   1.3593862e+00   1.5382612e+00
  -8.2114001e-02   1.3394913e+00   1.5556760e+00
  -8.6075928e-02   1.2939672e+00   1.5531049e+00
  -9.7495252e-02   1.2630718e+00   1.5628058e+00
  -1.0635123e-01   1.2233990e+00   1.5619874e+00
  -1.0914761e-01   1.1679275e+00   1.5543904e+00
  -1.1310954e-01   1.1298930e+00   1.5515852e+00
  -1.1905223e-01   1.0891671e+00   1.5351054e+00
  -1.2173248e-01   1.0417707e+00   1.5249369e+00
  -1.1998435e-01   1.0019809e+00   1.5119632e+00
  -1.1404166e-01   9.7073438e-01   1.4841462e+00
  -1.1648888e-01   9.2614644e-01   1.4598354e+00
  -1.2184900e-01   8.8916554e-01   1.4447580e+00
  -1.2348022e-01   8.5651436e-01   1.4174085e+00
  -1.2487841e-01   8.2058664e-01   1.3835135e+00
  -1.1998435e-01   7.9601059e-01   1.3552287e+00
  -1.2289764e-01   7.5668892e-01   1.3056720e+00
  -1.2720911e-01   7.3187883e-01   1.2624270e+00
  -1.2243158e-01   7.1093078e-01   1.2190648e+00
  -1.1881920e-01   6.7476902e-01   1.1476519e+00
  -1.2511144e-01   6.5440606e-01   1.0859400e+00
  -1.2522835e-01   6.1906344e-01   1.0204878e+00
  -1.1812010e-01   5.7950772e-01   9.4568531e-01
  -1.1497379e-01   5.4510125e-01   8.6199990e-01
  -1.0670078e-01   4.9454492e-01   7.6896451e-01
  -1.0646775e-01   4.4457369e-01   6.8714941e-01
  -9.5980548e-02   3.9144293e-01   5.8897098e-01
  -8.3279159e-02   3.4100362e-01   4.7980600e-01
  -6.8946549e-02   2.7909561e-01   3.7695277e-01
  -4.4243257e-02   2.1133585e-01   2.7211237e-01
  -3.1309227e-02   1.5996038e-01   1.5698664e-01
  -3.3431030e-03   9.5360540e-02   3.6017036e-02
   1.9029484e-02   3.0526658e-02  -7.7355253e-02
   3.3478609e-02  -2.7519311e-02  -2.0335065e-01
   6.0745639e-02  -8.9310687e-02  -3.2922918e-01
   9.0809047e-02  -1.5098465e-01  -4.5019879e-01
   1.1807569e-01  -2.1195650e-01  -5.9138843e-01
   1.4161382e-01  -2.7409854e-01  -7.2416306e-01
   1.7260935e-01  -3.4302850e-01  -8.4314549e-01
   1.9521497e-01  -3.9569118e-01  -9.7440081e-01
   2.2026781e-01  -4.4987551e-01  -1.1061232e+00
   2.4170866e-01  -5.1002822e-01  -1.2177425e+00
   2.5289496e-01  -5.5508424e-01  -1.3225829e+00
   2.7491800e-01  -6.0060834e-01  -1.4342021e+00
   2.9111486e-01  -6.3677010e-01  -1.5226796e+00
   3.0276761e-01  -6.7351696e-01  -1.6008713e+00
   3.0964243e-01  -7.1166844e-01  -1.6878291e+00
   3.0789469e-01  -7.3121226e-01  -1.7486061e+00
   3.0812772e-01  -7.5695851e-01  -1.8116039e+00
   3.0113599e-01  -7.7673636e-01  -1.8781079e+00
   2.9251344e-01  -7.8691784e-01  -1.9281321e+00
   2.8680378e-01  -8.0096136e-01  -1.9820134e+00
   2.7340329e-01  -7.9487595e-01  -2.0202325e+00
   2.6233351e-01  -7.9768442e-01  -2.0699061e+00
   2.4054312e-01  -8.0107837e-01  -2.1147876e+00
   2.1549028e-01  -7.8387494e-01  -2.1329040e+00
   2.0290579e-01  -7.7240625e-01  -2.1787205e+00
   1.7482315e-01  -7.5766062e-01  -2.2213811e+00
   1.5501391e-01  -7.5333051e-01  -2.2525880e+00
   1.4382762e-01  -7.4244692e-01  -2.2979370e+00
   1.1376421e-01  -7.1857298e-01  -2.3405976e+00
   9.4421035e-02  -7.1377479e-01  -2.3843104e+00
   7.9855394e-02  -7.1283864e-01  -2.4367889e+00
   5.9347059e-02  -7.1365777e-01  -2.4965140e+00
   5.0258049e-02  -7.1646663e-01  -2.5451358e+00
   3.4993314e-02  -7.2278608e-01  -2.5923547e+00
   2.0078125e-02  -7.3928739e-01  -2.6586249e+00
   1.3203306e-02  -7.5859678e-01  -2.7078310e+00
  -1.7118825e-03  -7.7463001e-01  -2.7406742e+00
  -1.2315597e-02  -7.9159901e-01  -2.7821661e+00
  -2.0006418e-02  -8.1324918e-01  -2.8097493e+00
  -2.3268859e-02  -8.3864437e-01  -2.8230736e+00
  -2.6182144e-02  -8.6755053e-01  -2.8348782e+00
  -2.8162911e-02  -8.9212658e-01  -2.8394366e+00
  -2.4783564e-02  -9.2442630e-01  -2.8353457e+00
  -2.9328069e-02  -9.5988595e-01  -2.8181647e+00
  -2.3734922e-02  -9.8645172e-01  -2.7861400e+00
  -1.1266955e-02  -1.0205067e+00  -2.7532969e+00
  -5.4407773e-03  -1.0485938e+00  -2.7023378e+00
  -6.6324086e-04  -1.0711801e+00  -2.6311586e+00
   1.1339054e-02  -1.0945859e+00  -2.5599794e+00
   1.7864326e-02  -1.1017245e+00  -2.4603985e+00
   1.7281748e-02  -1.1019586e+00  -2.3560256e+00
   2.9516683e-02  -1.1002033e+00  -2.2496659e+00
   3.4876798e-02  -1.0949370e+00  -2.1159563e+00
   4.7345155e-02  -1.0759783e+00  -1.9989607e+00
   6.2376859e-02  -1.0516363e+00  -1.8770561e+00
   6.2726406e-02  -1.0296350e+00  -1.7332949e+00
   7.2980574e-02  -9.9581367e-01  -1.6046115e+00
   7.9738878e-02  -9.5789662e-01  -1.4744084e+00
   8.3817320e-02  -9.0546758e-01  -1.3216479e+00
   9.0925562e-02  -8.5397509e-01  -1.1808089e+00
   9.5586192e-02  -8.0084434e-01  -1.0472162e+00
   1.0385959e-01  -7.3366967e-01  -8.8884548e-01
   1.0467520e-01  -6.7129359e-01  -7.5116193e-01
   9.8033414e-02  -6.0388528e-01  -6.3486751e-01
   9.1042078e-02  -5.3893438e-01  -4.9975548e-01
   8.5798479e-02  -4.7328136e-01  -3.7738344e-01
   7.8923268e-02  -4.1254355e-01  -2.8762041e-01
   6.4823690e-02  -3.5391209e-01  -1.8511779e-01
   5.2472239e-02  -3.0593058e-01  -8.3433264e-02
   3.5925830e-02  -2.5654445e-01   2.2389316e-03
   2.1360190e-02  -1.9604068e-01   9.9599279e-02
   4.3473271e-03  -1.6069805e-01   1.8690765e-01
  -2.8628974e-02  -1.1318423e-01   2.8017717e-01
  -4.5641837e-02  -7.3745529e-02   3.6877111e-01
  -6.5218046e-02  -3.4307224e-02   4.5830040e-01
  -9.4931515e-02   1.5195932e-02   5.4888151e-01
  -1.1054619e-01   3.7782650e-02   6.2251534e-01
  -1.3396742e-01   7.3593351e-02   7.2455048e-01
  -1.5400969e-01   1.0390375e-01   8.1407977e-01
  -1.6193354e-01   1.3035211e-01   9.0010257e-01
  -1.7510060e-01   1.5340690e-01   1.0063454e+00
  -1.8640380e-01   1.7283370e-01   1.1160947e+00
  -1.9525939e-01   2.0934652e-01   1.2298176e+00
  -2.0469795e-01   2.3684806e-01   1.3262430e+00
  -2.1064103e-01   2.7382934e-01   1.4412515e+00
  -2.1588463e-01   3.1923643e-01   1.5612861e+00
  -2.0947548e-01   3.5364250e-01   1.6504648e+00
  -2.0236763e-01   3.9261312e-01   1.7373057e+00
  -2.0784426e-01   4.4726553e-01   1.8398087e+00
  -2.0225112e-01   4.9278963e-01   1.9294545e+00
  -1.8523825e-01   5.3726055e-01   2.0104519e+00
  -1.7510060e-01   5.9788134e-01   2.1041885e+00
  -1.6461340e-01   6.4551180e-01   2.1843674e+00
  -1.4049308e-01   7.0110036e-01   2.2671179e+00
  -1.1392515e-01   7.5984883e-01   2.3476474e+00
  -8.6308959e-02   8.1110728e-01   2.4053854e+00
  -6.6732750e-02   8.7231317e-01   2.4599679e+00
  -4.5059258e-02   9.1690111e-01   2.4960834e+00
  -1.4995850e-02   9.5996781e-01   2.5267056e+00
   4.4638428e-03   1.0070132e+00   2.5422505e+00
   3.0215777e-02   1.0411856e+00   2.5457569e+00
   4.6063482e-02   1.0652936e+00   2.5693666e+00
   6.3775048e-02   1.0835498e+00   2.5672625e+00
   8.4865962e-02   1.1107006e+00   2.5692497e+00
   9.0809047e-02   1.1262654e+00   2.5818724e+00
   9.6402193e-02   1.1495539e+00   2.5748599e+00
   1.0141276e-01   1.1713214e+00   2.5595487e+00
   1.0991880e-01   1.1786941e+00   2.5408480e+00
   9.8149929e-02   1.2050254e+00   2.5239007e+00
   9.4304519e-02   1.2053765e+00   2.4673311e+00
   9.8615992e-02   1.1950780e+00   2.4274753e+00
   8.5332025e-02   1.1941418e+00   2.4039829e+00
   8.4749446e-02   1.1819710e+00   2.3481149e+00
   8.1487005e-02   1.1634803e+00   2.3211156e+00
   8.0321457e-02   1.1397234e+00   2.3021812e+00
   8.8012278e-02   1.1184243e+00   2.2660657e+00
   8.5565056e-02   1.1025085e+00   2.2491184e+00
   8.5914994e-02   1.0826136e+00   2.2321711e+00
   8.6381057e-02   1.0526543e+00   2.1955877e+00
   7.2514511e-02   1.0448136e+00   2.1815626e+00
   7.6126890e-02   1.0190670e+00   2.1440442e+00
   6.8203037e-02   9.9308667e-01   2.1011499e+00
   5.1074050e-02   9.8232009e-01   2.0845528e+00
   5.6084618e-02   9.4358351e-01   2.0485542e+00
   4.1752009e-02   9.2181632e-01   2.0257630e+00
   4.5713935e-02   8.8038830e-01   1.9777256e+00
   3.4643766e-02   8.4001344e-01   1.9460516e+00
   2.4273083e-02   7.9846840e-01   1.9165980e+00
   4.7461671e-02   7.3656000e-01   1.8449514e+00
   3.2779514e-02   7.0121738e-01   1.7999530e+00
   3.1497841e-02   6.4644795e-01   1.7357864e+00
   4.0936398e-02   5.9507248e-01   1.6660097e+00
   4.0120397e-02   5.4884627e-01   1.5976354e+00
   4.0003882e-02   5.0051370e-01   1.5256381e+00
   4.3033682e-02   4.4948890e-01   1.4529396e+00
   4.8044250e-02   3.8980465e-01   1.3748644e+00
