**************************************************************************************
            UNIVERSIDAD AUTONOMA METROPOLITANA - AZCAPOTZALCO
                        Departamento de Materiales
                           Area de Estructuras
     AV. SAN PABLO 180,COL.REYNOSA, AZCAPOTZALCO, C.P.02200 CIUDAD DE MEXICO.
**************************************************************************************
ARCHIVO ESTANDAR DE ACELERACION:
VERSION DEL FORMATO                    : 2.0
NOMBRE DEL ARCHIVO                     : RIDX201405081
FECHA Y HORA DE CREACION               : MON JUL 18 12:30:07 2018
REF. CATALOGO ACELEROGRAMAS, SMIS 1995 : REGISTRO NO.      /PAG.    


================================================================================
DATOS DE LA ESTACION:
NOMBRE DE LA ESTACION                  : UAM-XOCHIMILCO.
CLAVE DE LA ESTACION                   : RIDX
LOCALIZACION DE LA ESTACION            : CALZADA DEL HUESO 1100, COL. VILLA
                                       : QUIETUD, DEL. COYOACAN, C.P.04960, 
                                       : CIUDAD DE MEXICO.
                                       : 
                                       : 
COORDENADAS DE LA ESTACION             : 19.301345 LAT. N
                                       : 99.10268 LONG. W
ALTITUD (msnm)                         : 2232
TIPO DE SUELO                          : LAGO
                                       : 
                                       : 
INSTITUCION RESPONSABLE                : UNIVERSIDAD AUTONOMA METROPOLITANA
                                       : 

================================================================================
DATOS DEL ACELEROGRAFO: 
MODELO DEL ACELEROGRAFO                : BASALT KINEMETRICS
NUMERO DE SERIE DEL ACELEROGRAFO       : 1729
NUMERO DE CANALES                      : 3
ORIENTACION C1-C6 (rumbo;orientacion)  : /V/N00E/N90E
ORIENTACION C7-C12 (rumbo;orientacion) : 
VEL. DE MUESTREO, C1-C6 (muestras/s)   : /250/250/250
VEL. DE MUESTREO, C7-C12 (muestras/s)  : 
ESC. COMPLETA DE SENSORES, C1-C6, (g)  : /2/2/2
ESC. COMPLETA DE SENSORES, C7-C12 (g)  : 
FREC. NAT. DE SENSORES, C1-C6, (Hz)    : /208/210/200   
FREC. NAT. DE SENSORES, C7-C12 (Hz)    : 
AMORTIGUAMIENTO DE SENSORES, C1-C6     : /0.7/0.7/0.7      
AMORTIGUAMIENTO DE SENSORES, C7-C12    : 
INTERVALO DE MUESTREO, C1-C6 (s)       : /0.004/0.004/0.004
INTERVALO DE MUESTREO, C7-C12 (s)      : 
UMBRAL DE DISPARO, C1-C6 (Gal)         : /2/2/2
UMBRAL DE DISPARO, C7-C12 (Gal)        : 
MEMORIA DE PREEVENTO (s)               : 30
TIEMPO DE POSEVENTO (s)                : 60


================================================================================
DATOS DEL SISMO:
FECHA DEL SISMO [GMT]                  : 2014/05/08
HORA EPICENTRO (GMT)                   : 17:00:14
MAGNITUD(ES)                           : /M=6.5
COORDENADAS DEL EPICENTRO              : 16.986 LAT. N
                                       : 100.916 LONG. W
PROFUNDIDAD FOCAL (Km)                 : 10
FUENTE DE LOS DATOS EPICENTRALES       : SSN
                                       : INSTITUTO DE GEOFISICA, UNAM

================================================================================
DATOS DE ESTE REGISTRO:
HORA DE LA PRIMERA MUESTRA (GMT)       : 17:05:22.00
EXACTITUD DEL TIEMPO (s)               : 
DURACION DEL REGISTRO (s), C1-C6       : /141.00/141.00/141.00
DURACION DEL REGISTRO (s), C7-C12      : 
NUM. TOTAL DE MUESTRAS, C1-C6          : /35250/35250/35250
NUM. TOTAL DE MUESTRAS, C7-C12         : 
ACEL. MAX.(Gal), C1-C6                 : /21.976/-65.332/-50.790
ACEL. MAX., C1-C6, EN LA MUESTRA       : /10116/13579/10528
ACEL. MAX.(Gal), C7-C12                : 
ACEL. MAX., C7-C12,EN LA MUESTRA       : 
UNIDADES DE LOS DATOS                  : Gal (cm/s/s)
FACTOR DE DECIMACION                   : 1
FORMATO DATOS (FORTRAN,16 campos/dato) : 3E16.7


================================================================================
CALIDAD DEL ACELEROGRAMA:
REGISTRO DIGITAL COMPLETO CON TIEMPO ABSOLUTO CORRECTO


================================================================================
COMENTARIOS:














================================================================================
DATOS DE ACELERACION:
---------+---------+---------+---------+---------+---------+---------+---------+
   CANAL-1   		CANAL-2   CANAL-3
         V      	N00E      N90E
---------+---------+---------+---------+---------+---------+---------+---------+  
[...]
  -2.3459075e+00   1.5810284e+01   1.1396658e+01
  -2.0492100e+00   1.5345382e+01   1.1422993e+01
  -1.7252324e+00   1.4872064e+01   1.1551394e+01
  -1.4137291e+00   1.4217204e+01   1.1768751e+01
  -1.1047908e+00   1.3543523e+01   1.2001324e+01
  -8.0704368e-01   1.2755985e+01   1.2213063e+01
  -5.3634354e-01   1.1954301e+01   1.2521131e+01
  -2.8487927e-01   1.1263904e+01   1.2909845e+01
  -5.2417706e-02   1.0565558e+01   1.3352284e+01
   2.0044543e-01   9.9982544e+00   1.3891755e+01
   5.0099022e-01   9.4162214e+00   1.4465989e+01
   7.9570604e-01   9.0115222e+00   1.5059770e+01
   1.0497353e+00   8.6494904e+00   1.5629439e+01
   1.2964197e+00   8.2888613e+00   1.6156152e+01
   1.5363427e+00   8.0834723e+00   1.6539951e+01
   1.7925868e+00   7.7161801e+00   1.6758829e+01
   2.0072113e+00   7.4586549e+00   1.6899052e+01
   2.1368490e+00   7.0986106e+00   1.6804244e+01
   2.2878208e+00   6.6573222e+00   1.6632769e+01
   2.4147770e+00   6.3006677e+00   1.6449239e+01
   2.4478860e+00   5.8244269e+00   1.6118229e+01
   2.4749325e+00   5.5299622e+00   1.5930017e+01
   2.5217982e+00   5.1665278e+00   1.5893030e+01
   2.5470962e+00   4.7432418e+00   1.5906725e+01
   2.6038708e+00   4.3546744e+00   1.6095522e+01
   2.6588968e+00   3.9413243e+00   1.6310655e+01
   2.6579643e+00   3.5456263e+00   1.6455091e+01
   2.7037804e+00   3.0456552e+00   1.6657115e+01
   2.7677832e+00   2.5984055e+00   1.6859256e+01
   2.7762937e+00   2.0519093e+00   1.6998659e+01
   2.7122909e+00   1.5036597e+00   1.7131391e+01
   2.6004898e+00   9.8931054e-01   1.7252066e+01
   2.5285597e+00   4.2539675e-01   1.7379297e+01
   2.5047772e+00  -5.5286187e-02   1.7510858e+01
   2.5066427e+00  -5.4157977e-01   1.7643122e+01
   2.4741165e+00  -9.0676791e-01   1.7777843e+01
   2.3993883e+00  -1.2180662e+00   1.7896061e+01
   2.2927172e+00  -1.4911387e+00   1.7942645e+01
   2.1537534e+00  -1.8240629e+00   1.7887985e+01
   2.0921986e+00  -2.2374126e+00   1.7836952e+01
   2.1399968e+00  -2.6570751e+00   1.7803359e+01
   2.2491159e+00  -3.2188845e+00   1.7824896e+01
   2.3155672e+00  -3.5138172e+00   1.7977994e+01
   2.2682352e+00  -3.6699923e+00   1.8190201e+01
   2.1186627e+00  -3.7756677e+00   1.8470763e+01
   1.8907474e+00  -3.6245192e+00   1.8794516e+01
   1.6596847e+00  -3.6366763e+00   1.9053308e+01
   1.4056554e+00  -3.7237649e+00   1.9343702e+01
   1.1501112e+00  -3.8342331e+00   1.9695078e+01
   9.3630222e-01  -4.1288151e+00   2.0019884e+01
   7.5047278e-01  -4.5170319e+00   2.0342584e+01
   6.5615901e-01  -4.9507217e+00   2.0625955e+01
   6.1757071e-01  -5.3962185e+00   2.0871638e+01
   5.7105517e-01  -5.9132561e+00   2.1074715e+01
   5.4575719e-01  -6.2934071e+00   2.1197965e+01
   5.1649540e-01  -6.5823777e+00   2.1248062e+01
   4.6076992e-01  -7.0065992e+00   2.1193166e+01
   3.9443566e-01  -7.2766323e+00   2.1136867e+01
   2.3938344e-01  -7.4702149e+00   2.1047091e+01
   9.7634224e-04  -7.8468589e+00   2.0917637e+01
  -2.4267725e-01  -8.1725352e+00   2.0898793e+01
  -4.9076057e-01  -8.5350345e+00   2.0869414e+01
  -7.2462138e-01  -9.1188209e+00   2.0897856e+01
  -9.4845586e-01  -9.6296634e+00   2.1036206e+01
  -1.1670446e+00  -1.0122620e+01   2.1068160e+01
  -1.3654650e+00  -1.0769414e+01   2.1133239e+01
  -1.5242475e+00  -1.1350395e+01   2.1219385e+01
  -1.6549343e+00  -1.1933714e+01   2.1153371e+01
  -1.7488983e+00  -1.2620137e+01   2.1132185e+01
  -1.7702325e+00  -1.3235368e+01   2.1138740e+01
  -1.7569426e+00  -1.3843820e+01   2.1127386e+01
  -1.6937557e+00  -1.4545322e+01   2.1238932e+01
  -1.6204264e+00  -1.5186389e+01   2.1397414e+01
  -1.5934964e+00  -1.5753458e+01   2.1571112e+01
  -1.5558407e+00  -1.6390784e+01   2.1761314e+01
  -1.5343900e+00  -1.6970596e+01   2.1918977e+01
  -1.5313591e+00  -1.7505285e+01   2.2023149e+01
  -1.5382372e+00  -1.8140390e+01   2.2029587e+01
  -1.5732114e+00  -1.8694134e+01   2.2009337e+01
  -1.6247399e+00  -1.9173647e+01   2.1967786e+01
  -1.7435357e+00  -1.9658188e+01   2.1836576e+01
  -1.8955566e+00  -2.0099359e+01   2.1716953e+01
  -2.0624999e+00  -2.0555025e+01   2.1549459e+01
  -2.2620860e+00  -2.1050321e+01   2.1280484e+01
  -2.4327599e+00  -2.1565137e+01   2.1062308e+01
  -2.5887447e+00  -2.2089774e+01   2.0772733e+01
  -2.7285249e+00  -2.2605876e+01   2.0405204e+01
  -2.8115305e+00  -2.3107834e+01   2.0140443e+01
  -2.8826446e+00  -2.3628496e+01   1.9827458e+01
  -2.9398855e+00  -2.4172070e+01   1.9506281e+01
  -2.9388363e+00  -2.4725346e+01   1.9340074e+01
  -2.9574893e+00  -2.5296273e+01   1.9137230e+01
  -2.9848856e+00  -2.5879709e+01   1.8981909e+01
  -2.9815046e+00  -2.6429011e+01   1.8938952e+01
  -3.0310514e+00  -2.7002978e+01   1.8752496e+01
  -3.1105594e+00  -2.7569697e+01   1.8588864e+01
  -3.2224767e+00  -2.8071655e+01   1.8427339e+01
  -3.3756638e+00  -2.8588459e+01   1.8056884e+01
  -3.4782545e+00  -2.9068675e+01   1.7716510e+01
  -3.5398093e+00  -2.9584660e+01   1.7337394e+01
  -3.5828273e+00  -3.0080189e+01   1.6795816e+01
  -3.5856255e+00  -3.0560287e+01   1.6329499e+01
  -3.5925036e+00  -3.1149334e+01   1.5868801e+01
  -3.6209494e+00  -3.1664151e+01   1.5356485e+01
  -3.6307421e+00  -3.2216726e+01   1.4942489e+01
  -3.6507940e+00  -3.2850544e+01   1.4539027e+01
  -3.7107164e+00  -3.3423342e+01   1.4125030e+01
  -3.7362476e+00  -3.4058563e+01   1.3732688e+01
  -3.7308849e+00  -3.4751883e+01   1.3270234e+01
  -3.7062863e+00  -3.5391546e+01   1.2787297e+01
  -3.5979828e+00  -3.6030859e+01   1.2318990e+01
  -3.4745242e+00  -3.6711086e+01   1.1804099e+01
  -3.3376583e+00  -3.7304809e+01   1.1237707e+01
  -3.1730468e+00  -3.7854695e+01   1.0659610e+01
  -3.0323341e+00  -3.8397099e+01   1.0074842e+01
  -2.8840434e+00  -3.8847388e+01   9.4331887e+00
  -2.7411158e+00  -3.9319421e+01   8.8296927e+00
  -2.5742887e+00  -3.9805481e+01   8.2944354e+00
  -2.4001176e+00  -4.0244782e+01   7.7376415e+00
  -2.2683812e+00  -4.0657664e+01   7.2626632e+00
  -2.1583295e+00  -4.1086327e+01   6.8308759e+00
  -2.0220465e+00  -4.1535916e+01   6.3264020e+00
  -1.8454270e+00  -4.1955227e+01   5.8397191e+00
  -1.6820978e+00  -4.2422584e+01   5.3373519e+00
  -1.5095583e+00  -4.2856390e+01   4.7735354e+00
  -1.3498428e+00  -4.3289613e+01   4.2584098e+00
  -1.1535212e+00  -4.3771698e+01   3.7737170e+00
  -9.3691450e-01  -4.4173358e+01   3.3076347e+00
  -7.4245799e-01  -4.4597696e+01   2.9548541e+00
  -4.9717278e-01  -4.5042725e+01   2.6341443e+00
  -2.8837680e-01  -4.5457127e+01   2.3034855e+00
  -8.0980070e-02  -4.5855397e+01   2.0730196e+00
   7.2207003e-02  -4.6228183e+01   1.8405637e+00
   1.6407238e-01  -4.6562744e+01   1.5710036e+00
   2.9802360e-01  -4.6871821e+01   1.3805675e+00
   3.9560137e-01  -4.7169209e+01   1.1515061e+00
   4.9574411e-01  -4.7370623e+01   9.1366601e-01
   5.7222088e-01  -4.7526798e+01   7.2685852e-01
   6.3132732e-01  -4.7722602e+01   4.4009256e-01
   7.0827077e-01  -4.7942720e+01   1.2031908e-01
   8.1214380e-01  -4.8174411e+01  -2.0600854e-01
   9.3490336e-01  -4.8450172e+01  -6.1005620e-01
   1.0460046e+00  -4.8717400e+01  -9.9619505e-01
   1.1938286e+00  -4.9000993e+01  -1.3578713e+00
   1.3353574e+00  -4.9357063e+01  -1.7142805e+00
   1.5509149e+00  -4.9705184e+01  -1.9957794e+00
   1.8100737e+00  -5.0121924e+01  -2.2688507e+00
   1.9962528e+00  -5.0474487e+01  -2.5404005e+00
   2.1572506e+00  -5.0802384e+01  -2.7270910e+00
   2.3434297e+00  -5.1274767e+01  -2.8970434e+00
   2.5164355e+00  -5.1651996e+01  -3.0634846e+00
   2.6067855e+00  -5.1975569e+01  -3.1989084e+00
   2.7511119e+00  -5.2323222e+01  -3.3541133e+00
   2.9234183e+00  -5.2676252e+01  -3.5205545e+00
   3.0105039e+00  -5.2969431e+01  -3.6873469e+00
   3.1070325e+00  -5.3223801e+01  -3.9058745e+00
   3.2306081e+00  -5.3497224e+01  -4.1290836e+00
   3.2743259e+00  -5.3642761e+01  -4.3410563e+00
   3.2900642e+00  -5.3835175e+01  -4.5934103e+00
   3.3552328e+00  -5.3971828e+01  -4.8182583e+00
   3.3795982e+00  -5.4065229e+01  -5.0165363e+00
   3.3926549e+00  -5.4242797e+01  -5.2025246e+00
   3.3630434e+00  -5.4339471e+01  -5.3880446e+00
   3.2712946e+00  -5.4518558e+01  -5.5831622e+00
   3.1696365e+00  -5.4654860e+01  -5.7618937e+00
   3.0747398e+00  -5.4827752e+01  -6.0018404e+00
   3.0119027e+00  -5.5063885e+01  -6.2653142e+00
   2.9381075e+00  -5.5238647e+01  -6.5422482e+00
   2.9035996e+00  -5.5506108e+01  -6.8823875e+00
   2.8792342e+00  -5.5723187e+01  -7.2211223e+00
   2.8624467e+00  -5.6016483e+01  -7.5288397e+00
   2.8720064e+00  -5.6292361e+01  -7.8050714e+00
   2.8476410e+00  -5.6517272e+01  -8.0479445e+00
   2.8291045e+00  -5.6817582e+01  -8.2163759e+00
   2.7969284e+00  -5.7005203e+01  -8.3764967e+00
   2.7725630e+00  -5.7225788e+01  -8.5600267e+00
   2.7227831e+00  -5.7394822e+01  -8.7227224e+00
   2.6608789e+00  -5.7539892e+01  -8.9590409e+00
   2.6809308e+00  -5.7727629e+01  -9.2286011e+00
   2.7150886e+00  -5.7855399e+01  -9.4906700e+00
   2.7820061e+00  -5.8007015e+01  -9.7886725e+00
   2.8233921e+00  -5.8092701e+01  -1.0069703e+01
   2.8180294e+00  -5.8272723e+01  -1.0299701e+01
   2.7806069e+00  -5.8436964e+01  -1.0492244e+01
   2.6360473e+00  -5.8537145e+01  -1.0657866e+01
   2.4412410e+00  -5.8770940e+01  -1.0791183e+01
   2.1811497e+00  -5.8893566e+01  -1.0916306e+01
   1.9316671e+00  -5.9011281e+01  -1.1037099e+01
   1.7127290e+00  -5.9164184e+01  -1.1149816e+01
   1.4955391e+00  -5.9273716e+01  -1.1269789e+01
   1.3505128e+00  -5.9381847e+01  -1.1420780e+01
   1.2193597e+00  -5.9461103e+01  -1.1576804e+01
   1.1482456e+00  -5.9609329e+01  -1.1724869e+01
   1.1284269e+00  -5.9708108e+01  -1.1894471e+01
   1.1272612e+00  -5.9829448e+01  -1.2044759e+01
   1.1613028e+00  -6.0014146e+01  -1.2215765e+01
   1.1691135e+00  -6.0172425e+01  -1.2400934e+01
   1.1654998e+00  -6.0431236e+01  -1.2553096e+01
   1.1471965e+00  -6.0698347e+01  -1.2701980e+01
   1.1323907e+00  -6.1004852e+01  -1.2819847e+01
   1.1648000e+00  -6.1382899e+01  -1.2870879e+01
   1.2012900e+00  -6.1743996e+01  -1.2894523e+01
   1.2214584e+00  -6.2120640e+01  -1.2943566e+01
   1.2599297e+00  -6.2463032e+01  -1.2986990e+01
   1.2825466e+00  -6.2809400e+01  -1.3030181e+01
   1.2754353e+00  -6.3086447e+01  -1.3078638e+01
   1.2549168e+00  -6.3293356e+01  -1.3084842e+01
   1.2039711e+00  -6.3512188e+01  -1.3078170e+01
   1.1627017e+00  -6.3635398e+01  -1.3123116e+01
   1.1153701e+00  -6.3797769e+01  -1.3180938e+01
   1.0329474e+00  -6.3937929e+01  -1.3259008e+01
   9.3443708e-01  -6.4000703e+01  -1.3375588e+01
   8.4956638e-01  -6.4140512e+01  -1.3450497e+01
   7.7343932e-01  -6.4277984e+01  -1.3535357e+01
   6.9101662e-01  -6.4458240e+01  -1.3656852e+01
   6.2258368e-01  -6.4630313e+01  -1.3726612e+01
   5.2500590e-01  -6.4789878e+01  -1.3767228e+01
   4.2148220e-01  -6.4962069e+01  -1.3837573e+01
   3.2961682e-01  -6.5087382e+01  -1.3883456e+01
   2.1536775e-01  -6.5231634e+01  -1.3938468e+01
   7.2207003e-02  -6.5297915e+01  -1.4035149e+01
  -9.5086004e-02  -6.5331582e+01  -1.4110293e+01
  -2.4827308e-01  -6.5313345e+01  -1.4204165e+01
  -3.7814390e-01  -6.5226841e+01  -1.4316180e+01
  -4.7070871e-01  -6.5131336e+01  -1.4421990e+01
  -5.3296297e-01  -6.4964289e+01  -1.4575674e+01
  -5.7446555e-01  -6.4824480e+01  -1.4761545e+01
  -6.0640849e-01  -6.4643756e+01  -1.4936062e+01
  -6.0454335e-01  -6.4496232e+01  -1.5172849e+01
  -5.6502248e-01  -6.4387283e+01  -1.5404485e+01
  -5.1897322e-01  -6.4257059e+01  -1.5626992e+01
  -4.4296273e-01  -6.4230173e+01  -1.5926634e+01
  -3.6147300e-01  -6.4122627e+01  -1.6206728e+01
  -2.7893373e-01  -6.4052722e+01  -1.6481906e+01
  -2.2320825e-01  -6.3979895e+01  -1.6715298e+01
  -1.8939978e-01  -6.3807354e+01  -1.6878463e+01
  -1.6538409e-01  -6.3687417e+01  -1.7002064e+01
  -1.9732742e-01  -6.3457480e+01  -1.7063280e+01
  -2.8662823e-01  -6.3207787e+01  -1.7130231e+01
  -4.2640802e-01  -6.2900697e+01  -1.7184307e+01
  -5.9136959e-01  -6.2546848e+01  -1.7184307e+01
  -7.8804136e-01  -6.2250279e+01  -1.7192383e+01
  -9.8634473e-01  -6.1930447e+01  -1.7190745e+01
  -1.1459436e+00  -6.1672922e+01  -1.7186765e+01
  -1.2106459e+00  -6.1408500e+01  -1.7242714e+01
  -1.1852313e+00  -6.1147701e+01  -1.7315517e+01
  -1.1232102e+00  -6.0888422e+01  -1.7440641e+01
  -9.8401330e-01  -6.0592321e+01  -1.7620894e+01
  -8.0681054e-01  -6.0264423e+01  -1.7809222e+01
  -6.3427142e-01  -5.9879830e+01  -1.8010895e+01
  -4.7782035e-01  -5.9491263e+01  -1.8149128e+01
  -3.3873960e-01  -5.9066691e+01  -1.8189158e+01
  -2.4675765e-01  -5.8647847e+01  -1.8118930e+01
  -1.8846721e-01  -5.8244200e+01  -1.7942071e+01
  -1.1327272e-01  -5.7837981e+01  -1.7726353e+01
  -6.6524031e-02  -5.7442867e+01  -1.7487693e+01
  -1.1731124e-02  -5.7018879e+01  -1.7250556e+01
   6.0782214e-02  -5.6590917e+01  -1.7053682e+01
   1.4460338e-01  -5.6140628e+01  -1.6909597e+01
   2.2084701e-01  -5.5645801e+01  -1.6843348e+01
   2.8519956e-01  -5.5141271e+01  -1.6807531e+01
   4.1670238e-01  -5.4659653e+01  -1.6785293e+01
   5.4972102e-01  -5.4220001e+01  -1.6777802e+01
   6.6863333e-01  -5.3761178e+01  -1.6786346e+01
   7.2972149e-01  -5.3243907e+01  -1.6825557e+01
   6.7259676e-01  -5.2625636e+01  -1.6815023e+01
   5.9600342e-01  -5.1907417e+01  -1.6724428e+01
   4.8396961e-01  -5.1173067e+01  -1.6600124e+01
   3.7729847e-01  -5.0438249e+01  -1.6526267e+01
   3.0665067e-01  -4.9704132e+01  -1.6433097e+01
   2.6619684e-01  -4.8932725e+01  -1.6244885e+01
   2.8788109e-01  -4.8145888e+01  -1.6061472e+01
   3.2378785e-01  -4.7360453e+01  -1.5879697e+01
   4.6181907e-01  -4.6648079e+01  -1.5746264e+01
   6.6874990e-01  -4.6021742e+01  -1.5632845e+01
   9.0354289e-01  -4.5371324e+01  -1.5412328e+01
   1.2242561e+00  -4.4766964e+01  -1.5194268e+01
   1.5068477e+00  -4.4025249e+01  -1.4995873e+01
   1.7014204e+00  -4.3127826e+01  -1.4818781e+01
   1.7773147e+00  -4.2227715e+01  -1.4808832e+01
   1.7228715e+00  -4.1217136e+01  -1.4868058e+01
   1.5855394e+00  -4.0198841e+01  -1.4891233e+01
   1.3991271e+00  -3.9205446e+01  -1.4934307e+01
   1.2187769e+00  -3.8272954e+01  -1.4925528e+01
   1.0557974e+00  -3.7438422e+01  -1.4832007e+01
   9.6474801e-01  -3.6658131e+01  -1.4741764e+01
   9.6451487e-01  -3.5922612e+01  -1.4610671e+01
   1.0432065e+00  -3.5199601e+01  -1.4494443e+01
   1.1689969e+00  -3.4543688e+01  -1.4427726e+01
   1.2799816e+00  -3.3852122e+01  -1.4361945e+01
   1.3598393e+00  -3.3204860e+01  -1.4385003e+01
   1.3346579e+00  -3.2589278e+01  -1.4420703e+01
   1.1614194e+00  -3.1885905e+01  -1.4516916e+01
   8.9351696e-01  -3.1205795e+01  -1.4730878e+01
   5.7863310e-01  -3.0363782e+01  -1.4946479e+01
   2.3098951e-01  -2.9412704e+01  -1.5151078e+01
  -7.5034141e-02  -2.8430414e+01  -1.5314359e+01
  -3.2171899e-01  -2.7356944e+01  -1.5400038e+01
  -5.3389554e-01  -2.6298670e+01  -1.5395356e+01
  -6.6295036e-01  -2.5199833e+01  -1.5248930e+01
  -7.5073535e-01  -2.4110465e+01  -1.4984988e+01
  -8.2394811e-01  -2.2980884e+01  -1.4699978e+01
  -8.5763962e-01  -2.1811441e+01  -1.4319808e+01
  -8.5845602e-01  -2.0710266e+01  -1.3975338e+01
  -8.6883166e-01  -1.9613416e+01  -1.3721111e+01
  -8.9506220e-01  -1.8596641e+01  -1.3441368e+01
  -9.1942760e-01  -1.7690919e+01  -1.3293654e+01
  -9.5486808e-01  -1.6804134e+01  -1.3199548e+01
  -9.5766579e-01  -1.5941898e+01  -1.3131193e+01
  -9.4507529e-01  -1.5090533e+01  -1.3158230e+01
  -9.3516593e-01  -1.4159561e+01  -1.3153431e+01
  -9.0858567e-01  -1.3201351e+01  -1.3131778e+01
  -8.8013988e-01  -1.2251442e+01  -1.3121009e+01
  -8.4528226e-01  -1.1239460e+01  -1.3072669e+01
  -8.1380561e-01  -1.0254948e+01  -1.3056750e+01
  -7.9107221e-01  -9.3396404e+00  -1.3097249e+01
