**************************************************************************************
            UNIVERSIDAD AUTONOMA METROPOLITANA - AZCAPOTZALCO
                        Departamento de Materiales
                           Area de Estructuras
     AV. SAN PABLO 180,COL.REYNOSA, AZCAPOTZALCO, C.P.02200 CIUDAD DE MEXICO.
**************************************************************************************
ARCHIVO ESTANDAR DE ACELERACION:
VERSION DEL FORMATO                    : 2.0
NOMBRE DEL ARCHIVO                     : RIDX201404181
FECHA Y HORA DE CREACION               : MON JUL 18 12:30:07 2018
REF. CATALOGO ACELEROGRAMAS, SMIS 1995 : REGISTRO NO.      /PAG.    


================================================================================
DATOS DE LA ESTACION:
NOMBRE DE LA ESTACION                  : UAM-XOCHIMILCO.
CLAVE DE LA ESTACION                   : RIDX
LOCALIZACION DE LA ESTACION            : CALZADA DEL HUESO 1100, COL. VILLA
                                       : QUIETUD, DEL. COYOACAN, C.P.04960, 
                                       : CIUDAD DE MEXICO.
                                       : 
                                       : 
COORDENADAS DE LA ESTACION             : 19.301345 LAT. N
                                       : 99.10268 LONG. W
ALTITUD (msnm)                         : 2232
TIPO DE SUELO                          : LAGO
                                       : 
                                       : 
INSTITUCION RESPONSABLE                : UNIVERSIDAD AUTONOMA METROPOLITANA
                                       : 

================================================================================
DATOS DEL ACELEROGRAFO: 
MODELO DEL ACELEROGRAFO                : BASALT KINEMETRICS
NUMERO DE SERIE DEL ACELEROGRAFO       : 1729
NUMERO DE CANALES                      : 3
ORIENTACION C1-C6 (rumbo;orientacion)  : /V/N00E/N90E
ORIENTACION C7-C12 (rumbo;orientacion) : 
VEL. DE MUESTREO, C1-C6 (muestras/s)   : /250/250/250
VEL. DE MUESTREO, C7-C12 (muestras/s)  : 
ESC. COMPLETA DE SENSORES, C1-C6, (g)  : /2/2/2
ESC. COMPLETA DE SENSORES, C7-C12 (g)  : 
FREC. NAT. DE SENSORES, C1-C6, (Hz)    : /208/210/200   
FREC. NAT. DE SENSORES, C7-C12 (Hz)    : 
AMORTIGUAMIENTO DE SENSORES, C1-C6     : /0.7/0.7/0.7      
AMORTIGUAMIENTO DE SENSORES, C7-C12    : 
INTERVALO DE MUESTREO, C1-C6 (s)       : /0.004/0.004/0.004
INTERVALO DE MUESTREO, C7-C12 (s)      : 
UMBRAL DE DISPARO, C1-C6 (Gal)         : /2/2/2
UMBRAL DE DISPARO, C7-C12 (Gal)        : 
MEMORIA DE PREEVENTO (s)               : 30
TIEMPO DE POSEVENTO (s)                : 60


================================================================================
DATOS DEL SISMO:
FECHA DEL SISMO [GMT]                  : 2014/04/18
HORA EPICENTRO (GMT)                   : 14:27:21
MAGNITUD(ES)                           : /M=7.2
COORDENADAS DEL EPICENTRO              : 17.011 LAT. N
                                       : 101.46 LONG. W
PROFUNDIDAD FOCAL (Km)                 : 18
FUENTE DE LOS DATOS EPICENTRALES       : SSN
                                       : INSTITUTO DE GEOFISICA, UNAM

================================================================================
DATOS DE ESTE REGISTRO:
HORA DE LA PRIMERA MUESTRA (GMT)       : 14:28:07.00
EXACTITUD DEL TIEMPO (s)               : 
DURACION DEL REGISTRO (s), C1-C6       : /158.00/158.00/158.00
DURACION DEL REGISTRO (s), C7-C12      : 
NUM. TOTAL DE MUESTRAS, C1-C6          : /39500/39500/39500
NUM. TOTAL DE MUESTRAS, C7-C12         : 
ACEL. MAX.(Gal), C1-C6                 : /15.143/-41.230/35.729
ACEL. MAX., C1-C6, EN LA MUESTRA       : /10310/10929/13281
ACEL. MAX.(Gal), C7-C12                : 
ACEL. MAX., C7-C12,EN LA MUESTRA       : 
UNIDADES DE LOS DATOS                  : Gal (cm/s/s)
FACTOR DE DECIMACION                   : 1
FORMATO DATOS (FORTRAN,16 campos/dato) : 3E16.7


================================================================================
CALIDAD DEL ACELEROGRAMA:
REGISTRO DIGITAL COMPLETO CON TIEMPO ABSOLUTO CORRECTO


================================================================================
COMENTARIOS:














================================================================================
DATOS DE ACELERACION:
---------+---------+---------+---------+---------+---------+---------+---------+
   CANAL-1   	     CANAL-2       CANAL-3
         V             N00E           N90E
---------+---------+---------+---------+---------+---------+---------+---------+  
[...]
 -8.9833832e+000  2.7497719e+001  5.3554550e+000
 -9.4776436e+000  2.6634122e+001  5.3857601e+000
 -9.9456818e+000  2.5788756e+001  5.3864625e+000
 -1.0357546e+001  2.4957179e+001  5.3460947e+000
 -1.0712304e+001  2.4143248e+001  5.3240970e+000
 -1.1004595e+001  2.3385059e+001  5.2946109e+000
 -1.1223464e+001  2.2644516e+001  5.3072480e+000
 -1.1377767e+001  2.1969999e+001  5.3780378e+000
 -1.1484638e+001  2.1337903e+001  5.4592412e+000
 -1.1538481e+001  2.0751732e+001  5.6404866e+000
 -1.1507713e+001  2.0224810e+001  5.8533240e+000
 -1.1419373e+001  1.9728154e+001  6.0988068e+000
 -1.1275792e+001  1.9287941e+001  6.4485435e+000
 -1.1085710e+001  1.8876126e+001  6.8099812e+000
 -1.0857401e+001  1.8510471e+001  7.1941182e+000
 -1.0558234e+001  1.8188872e+001  7.6498645e+000
 -1.0197416e+001  1.7902447e+001  8.0977710e+000
 -9.7630584e+000  1.7683919e+001  8.5680259e+000
 -9.2748582e+000  1.7528845e+001  9.1234626e+000
 -8.7337471e+000  1.7424606e+001  9.6594763e+000
 -8.1369283e+000  1.7385107e+001  1.0252004e+001
 -7.5181995e+000  1.7390483e+001  1.0857170e+001
 -6.8414319e+000  1.7422619e+001  1.1422084e+001
 -6.1326150e+000  1.7532234e+001  1.2059544e+001
 -5.4171549e+000  1.7609596e+001  1.2645519e+001
 -4.6816493e+000  1.7750880e+001  1.3234186e+001
 -3.9506894e+000  1.7962280e+001  1.3843681e+001
 -3.2200786e+000  1.8070375e+001  1.4423806e+001
 -2.4921485e+000  1.8282827e+001  1.5034588e+001
 -1.7768053e+000  1.8492240e+001  1.5613192e+001
 -1.0743982e+000  1.8665077e+001  1.6210518e+001
 -3.6872775e-001  1.8955124e+001  1.6803515e+001
  3.2214167e-001  1.9249728e+001  1.7374864e+001
  9.7105522e-001  1.9604749e+001  1.8008229e+001
  1.5874534e+000  2.0001606e+001  1.8661484e+001
  2.1644598e+000  2.0433989e+001  1.9352182e+001
  2.7199053e+000  2.0900495e+001  2.0075408e+001
  3.2335124e+000  2.1317686e+001  2.0773361e+001
  3.7027159e+000  2.1744927e+001  2.1490971e+001
  4.1740175e+000  2.2179763e+001  2.2207176e+001
  4.6068600e+000  2.2598473e+001  2.2887110e+001
  5.0012426e+000  2.3024312e+001  2.3564469e+001
  5.3708019e+000  2.3480534e+001  2.4228957e+001
  5.6801078e+000  2.3961297e+001  2.4846525e+001
  5.9668050e+000  2.4340976e+001  2.5385230e+001
  6.2298433e+000  2.4702657e+001  2.5907085e+001
  6.4446328e+000  2.5159814e+001  2.6358268e+001
  6.6251586e+000  2.5434787e+001  2.6723216e+001
  6.7707213e+000  2.5743414e+001  2.7133914e+001
  6.8645384e+000  2.6180238e+001  2.7419530e+001
  6.9116222e+000  2.6299669e+001  2.7633187e+001
  6.9560253e+000  2.6469934e+001  2.7897976e+001
  6.9362129e+000  2.6695007e+001  2.8011122e+001
  6.8796891e+000  2.6639498e+001  2.8151532e+001
  6.8257298e+000  2.6682736e+001  2.8357466e+001
  6.7089530e+000  2.6716392e+001  2.8433872e+001
  6.6075603e+000  2.6540050e+001  2.8599790e+001
  6.5034870e+000  2.6392923e+001  2.8767462e+001
  6.3701615e+000  2.6261689e+001  2.8797299e+001
  6.2221512e+000  2.6015348e+001  2.8929752e+001
  6.0397609e+000  2.5779641e+001  2.9022071e+001
  5.8587690e+000  2.5623983e+001  2.9076246e+001
  5.6655399e+000  2.5355906e+001  2.9246609e+001
  5.4719615e+000  2.5043655e+001  2.9321378e+001
  5.2534425e+000  2.4811805e+001  2.9384913e+001
  5.0064871e+000  2.4495698e+001  2.9448916e+001
  4.7594151e+000  2.4121746e+001  2.9429493e+001
  4.4997563e+000  2.3911397e+001  2.9456873e+001
  4.2073490e+000  2.3616676e+001  2.9386902e+001
  3.8527073e+000  2.3224493e+001  2.9253630e+001
  3.4704450e+000  2.3057500e+001  2.9107136e+001
  3.0802576e+000  2.2681912e+001  2.8837082e+001
  2.6873899e+000  2.2243686e+001  2.8641912e+001
  2.2614237e+000  2.1992086e+001  2.8394908e+001
  1.7921037e+000  2.1517867e+001  2.8034407e+001
  1.3108959e+000  2.1096353e+001  2.7735920e+001
  8.1045841e-001  2.0732450e+001  2.7231381e+001
  3.6071727e-001  2.0250986e+001  2.6682731e+001
  3.0783186e-002  1.9844430e+001  2.6249802e+001
 -1.8260797e-001  1.9554616e+001  2.5791599e+001
 -3.4693427e-001  1.9192116e+001  2.5687812e+001
 -5.3526820e-001  1.8597648e+001  2.5926625e+001
 -8.2196493e-001  1.8021762e+001  2.6296956e+001
 -1.2109870e+000  1.7384990e+001  2.6874858e+001
 -1.6144601e+000  1.6830956e+001  2.7394140e+001
 -2.0081439e+000  1.6634631e+001  2.7717433e+001
 -2.3443717e+000  1.6440526e+001  2.7953672e+001
 -2.6387600e+000  1.6308241e+001  2.8078870e+001
 -2.8254629e+000  1.6253083e+001  2.8194591e+001
 -2.8448087e+000  1.6046123e+001  2.8380282e+001
 -2.7389874e+000  1.5827712e+001  2.8550295e+001
 -2.4310798e+000  1.5595160e+001  2.8691758e+001
 -2.0690961e+000  1.5146300e+001  2.8852293e+001
 -1.7189996e+000  1.4639478e+001  2.9013764e+001
 -1.3293949e+000  1.4242737e+001  2.9007211e+001
 -9.8675736e-001  1.3780088e+001  2.8887980e+001
 -6.5705596e-001  1.3424365e+001  2.8704395e+001
 -3.6966003e-001  1.3198241e+001  2.8292176e+001
 -1.3832141e-001  1.2874421e+001  2.7846375e+001
  9.0803054e-002  1.2576545e+001  2.7385130e+001
  3.4242021e-001  1.2268735e+001  2.6899664e+001
  6.0044714e-001  1.1812864e+001  2.6545949e+001
  8.3434990e-001  1.1311767e+001  2.6214582e+001
  1.0499552e+000  1.0927414e+001  2.5919254e+001
  1.2525075e+000  1.0438004e+001  2.5597248e+001
  1.5065723e+000  9.8292791e+000  2.5285188e+001
  1.7471179e+000  9.5195995e+000  2.4978978e+001
  1.9837009e+000  9.2808543e+000  2.4651122e+001
  2.3047780e+000  8.9442970e+000  2.4427637e+001
  2.6042943e+000  8.8430961e+000  2.4017640e+001
  2.8877281e+000  8.7360519e+000  2.3558852e+001
  3.1670827e+000  8.5758365e+000  2.3252058e+001
  3.3459766e+000  8.6517960e+000  2.2865580e+001
  3.4478358e+000  8.5843675e+000  2.2598685e+001
  3.5917667e+000  8.4218151e+000  2.2659178e+001
  3.7330172e+000  8.2677932e+000  2.2999320e+001
  3.8747343e+000  7.8257111e+000  2.3572542e+001
  4.1607318e+000  7.3554660e+000  2.4246274e+001
  4.5202679e+000  6.8759888e+000  2.4849918e+001
  4.8858647e+000  6.3858770e+000  2.5401494e+001
  5.2145173e+000  5.9984855e+000  2.5815351e+001
  5.4995821e+000  5.6799248e+000  2.5958686e+001
  5.6998037e+000  5.4665383e+000  2.5765037e+001
  5.6590136e+000  5.3777244e+000  2.5166659e+001
  5.4212652e+000  5.6010440e+000  2.4389609e+001
  5.0377206e+000  5.8813917e+000  2.3441142e+001
  4.5936904e+000  6.0954797e+000  2.2330737e+001
  4.1733183e+000  6.2884157e+000  2.1193536e+001
  3.6705501e+000  6.3068798e+000  1.9925170e+001
  3.0407494e+000  6.2838581e+000  1.8542487e+001
  2.4050054e+000  6.0687185e+000  1.7085621e+001
  1.9107446e+000  5.6213777e+000  1.5634722e+001
  1.6019048e+000  5.0917675e+000  1.4314287e+001
  1.4991133e+000  4.4018251e+000  1.3038315e+001
  1.4948011e+000  3.5616004e+000  1.1621583e+001
  1.4995794e+000  2.9914397e+000  1.0210350e+001
  1.4625188e+000  2.6164352e+000  8.8857025e+000
  1.2746510e+000  1.9961416e+000  7.6231864e+000
  1.1156857e+000  1.5391013e+000  6.5037712e+000
  9.4658106e-001  1.0197748e+000  5.3910254e+000
  5.9030787e-001  3.8241929e-001  4.4879580e+000
  1.5595082e-001  1.7348327e-002  3.7854424e+000
 -3.8970550e-001 -6.4069140e-001  3.0505153e+000
 -1.0134457e+000 -1.2893823e+000  2.4985886e+000
 -1.6406823e+000 -1.7805457e+000  1.9824666e+000
 -2.2733968e+000 -2.5272821e+000  1.3837368e+000
 -2.8413127e+000 -3.2858216e+000  9.9995071e-001
 -3.3603969e+000 -3.9706221e+000  4.7224468e-001
 -3.8808798e+000 -4.5895136e+000 -3.3346597e-002
 -4.4270023e+000 -5.3473516e+000 -3.1732518e-001
 -4.9973654e+000 -5.8345417e+000 -8.0758843e-001
 -5.5525784e+000 -6.4777402e+000 -1.1607184e+000
 -6.1299344e+000 -7.3541914e+000 -1.7252818e+000
 -6.7407384e+000 -7.8312148e+000 -2.1859420e+000
 -7.3254365e+000 -8.6019075e+000 -2.6239029e+000
 -7.8541942e+000 -9.1820017e+000 -2.8911491e+000
 -8.2435655e+000 -9.8281215e+000 -2.8643544e+000
 -8.5296795e+000 -1.0237833e+001 -3.0350690e+000
 -8.6919082e+000 -1.0887810e+001 -2.5978102e+000
 -8.8303615e+000 -1.1581141e+001 -2.9342082e+000
 -8.8653246e+000 -1.1858333e+001 -2.4967153e+000
 -8.7336306e+000 -1.4120045e+001 -4.2326457e+000
 -8.3985682e+000 -1.5552167e+001 -1.0472797e+001
 -7.1464261e+000 -1.5315057e+001 -1.3490901e+001
 -7.4628414e+000 -1.4141197e+001 -1.3991344e+001
 -1.0291699e+001 -1.2777789e+001 -1.5615180e+001
 -1.0785843e+001 -1.3016535e+001 -1.7203680e+001
 -8.8446964e+000 -1.2162520e+001 -1.6135047e+001
 -8.4954157e+000 -1.1097690e+001 -1.1811018e+001
 -1.0380855e+001 -1.0974286e+001 -7.2151787e+000
 -1.1575192e+001 -1.1899118e+001 -3.5655830e+000
 -9.9233056e+000 -1.4458589e+001 -1.5210598e-002
 -7.4374350e+000 -1.7800439e+001  4.1475821e+000
 -6.1991612e+000 -2.1130721e+001  6.6158652e+000
 -6.0208496e+000 -2.3537689e+001  7.1385394e+000
 -5.5409241e+000 -2.5790987e+001  6.4862202e+000
 -4.5663879e+000 -2.7640300e+001  5.0265457e+000
 -3.8369429e+000 -2.8178090e+001  4.2683343e+000
 -3.5655133e+000 -2.7452973e+001  3.6368421e+000
 -3.9980058e+000 -2.6270932e+001  2.3619233e+000
 -4.4448332e+000 -2.5586249e+001  3.3066509e-001
 -4.7153305e+000 -2.5422644e+001 -1.3027660e+000
 -5.0634459e+000 -2.5704628e+001 -1.9700627e+000
 -5.3331270e+000 -2.6435354e+001 -2.5473797e+000
 -5.4582947e+000 -2.7483240e+001 -3.3944004e+000
 -5.2077263e+000 -2.8675213e+001 -4.2813207e+000
 -4.8424792e+000 -3.0029974e+001 -5.0235025e+000
 -4.4920335e+000 -3.1144936e+001 -6.0889769e+000
 -3.9357718e+000 -3.1760088e+001 -7.3888184e+000
 -3.1389644e+000 -3.1886765e+001 -8.4864701e+000
 -2.5352697e+000 -3.1455317e+001 -9.5752292e+000
 -2.5715146e+000 -3.0531771e+001 -1.0597996e+001
 -3.0318612e+000 -2.9419379e+001 -1.1289630e+001
 -3.6401011e+000 -2.8560574e+001 -1.1807858e+001
 -4.2793416e+000 -2.7846441e+001 -1.2006655e+001
 -4.9387444e+000 -2.7546344e+001 -1.2029237e+001
 -5.5265892e+000 -2.7987491e+001 -1.2189187e+001
 -5.8032632e+000 -2.8958716e+001 -1.2230725e+001
 -5.5983799e+000 -3.0435478e+001 -1.2353349e+001
 -5.0876866e+000 -3.2014960e+001 -1.2838347e+001
 -4.6287388e+000 -3.3466013e+001 -1.3344992e+001
 -4.2231677e+000 -3.4807217e+001 -1.3632012e+001
 -3.7029178e+000 -3.5988907e+001 -1.3854561e+001
 -3.1322051e+000 -3.6882304e+001 -1.4196108e+001
 -2.9340811e+000 -3.7358859e+001 -1.4789689e+001
 -3.2346466e+000 -3.7685250e+001 -1.5381984e+001
 -3.7171362e+000 -3.7769856e+001 -1.5627583e+001
 -4.1265533e+000 -3.7659657e+001 -1.5568026e+001
 -4.3393614e+000 -3.7441012e+001 -1.5088410e+001
 -4.3701288e+000 -3.7240013e+001 -1.4124733e+001
 -4.1611668e+000 -3.7277174e+001 -1.2854144e+001
 -3.6214541e+000 -3.7369844e+001 -1.1419626e+001
 -2.7572848e+000 -3.7613614e+001 -1.0152196e+001
 -1.7305373e+000 -3.7998201e+001 -9.3409795e+000
 -7.5623449e-001 -3.8524072e+001 -9.1702648e+000
  1.5865620e-002 -3.9161661e+001 -9.6686018e+000
  4.7597871e-001 -3.9797965e+001 -1.0628418e+001
  6.6151582e-001 -4.0471664e+001 -1.1938790e+001
  5.7096161e-001 -4.0962593e+001 -1.3333876e+001
  2.2913985e-001 -4.1207298e+001 -1.4622602e+001
 -2.9728674e-001 -4.1246914e+001 -1.5730901e+001
 -9.7906571e-001 -4.1018803e+001 -1.6404282e+001
 -1.6508215e+000 -4.0622647e+001 -1.6665210e+001
 -2.2545167e+000 -4.0123070e+001 -1.6637596e+001
 -2.7471456e+000 -3.9569152e+001 -1.6194604e+001
 -3.0827906e+000 -3.9051930e+001 -1.5394152e+001
 -3.2770686e+000 -3.8606458e+001 -1.4371620e+001
 -3.2614514e+000 -3.8235077e+001 -1.3163512e+001
 -3.1158887e+000 -3.7919321e+001 -1.2038715e+001
 -2.8927083e+000 -3.7755716e+001 -1.1071644e+001
 -2.6125379e+000 -3.7604733e+001 -1.0175831e+001
 -2.3141869e+000 -3.7452347e+001 -9.5652835e+000
 -1.9935760e+000 -3.7359093e+001 -9.3209711e+000
 -1.7071123e+000 -3.7138110e+001 -9.3790068e+000
 -1.4871948e+000 -3.6944239e+001 -9.8320617e+000
 -1.3375530e+000 -3.6717998e+001 -1.0412889e+001
 -1.1753248e+000 -3.6377935e+001 -1.0939893e+001
 -1.0283632e+000 -3.6063347e+001 -1.1551845e+001
 -9.2522255e-001 -3.5654687e+001 -1.2025961e+001
 -8.5587915e-001 -3.5199634e+001 -1.2407290e+001
 -8.7685689e-001 -3.4725532e+001 -1.2739476e+001
 -8.7872183e-001 -3.4220463e+001 -1.2846421e+001
 -8.7627422e-001 -3.3769733e+001 -1.2936868e+001
 -8.9795117e-001 -3.3299838e+001 -1.3086404e+001
 -8.9830116e-001 -3.2917121e+001 -1.3268235e+001
 -9.2429027e-001 -3.2500164e+001 -1.3593517e+001
 -8.9655276e-001 -3.2027932e+001 -1.3991110e+001
 -8.1450634e-001 -3.1657836e+001 -1.4456334e+001
 -7.2954617e-001 -3.1174034e+001 -1.4988603e+001
 -6.0810802e-001 -3.0682754e+001 -1.5505310e+001
 -4.7921089e-001 -3.0162259e+001 -1.6036175e+001
 -3.4868229e-001 -2.9595137e+001 -1.6453308e+001
 -2.0883015e-001 -2.9046712e+001 -1.6751796e+001
 -7.1775230e-002 -2.8553562e+001 -1.6916894e+001
  9.4066015e-002 -2.8163015e+001 -1.6834286e+001
  2.9976513e-001 -2.7772936e+001 -1.6598983e+001
  5.0849452e-001 -2.7550902e+001 -1.6214495e+001
  7.2235143e-001 -2.7293459e+001 -1.5676493e+001
  9.3143042e-001 -2.7074463e+001 -1.5184591e+001
  1.1456373e+000 -2.6907586e+001 -1.4761256e+001
  1.3626410e+000 -2.6608541e+001 -1.4397244e+001
  1.5337267e+000 -2.6398894e+001 -1.4356058e+001
  1.6560975e+000 -2.6077178e+001 -1.4513433e+001
  1.7199630e+000 -2.5751138e+001 -1.4826430e+001
  1.7619189e+000 -2.5400324e+001 -1.5386430e+001
  1.7595878e+000 -2.5010011e+001 -1.5949238e+001
  1.6845339e+000 -2.4724054e+001 -1.6515908e+001
  1.5602985e+000 -2.4382472e+001 -1.7071462e+001
  1.4030816e+000 -2.4158685e+001 -1.7488829e+001
  1.2638121e+000 -2.3893061e+001 -1.7774680e+001
  1.1309528e+000 -2.3653615e+001 -1.7936385e+001
  1.0015896e+000 -2.3484051e+001 -1.7882561e+001
  8.8073408e-001 -2.3249045e+001 -1.7641173e+001
  8.1558631e-001 -2.3110800e+001 -1.7263355e+001
  7.8004061e-001 -2.2895426e+001 -1.6700780e+001
  7.4624292e-001 -2.2701789e+001 -1.6088244e+001
  7.4670906e-001 -2.2486065e+001 -1.5483313e+001
  7.3377296e-001 -2.2248488e+001 -1.4870659e+001
  7.5917940e-001 -2.2008574e+001 -1.4328444e+001
  7.7689379e-001 -2.1658812e+001 -1.3843680e+001
  7.2421637e-001 -2.1333005e+001 -1.3417771e+001
  5.9776685e-001 -2.0880640e+001 -1.3091553e+001
  4.0255661e-001 -2.0463449e+001 -1.2858707e+001
  2.3892952e-001 -2.0055841e+001 -1.2688694e+001
  7.4719754e-002 -1.9620537e+001 -1.2526287e+001
 -1.1011776e-001 -1.9263879e+001 -1.2380378e+001
 -2.8236917e-001 -1.8900912e+001 -1.2200537e+001
 -4.1697687e-001 -1.8621967e+001 -1.1997645e+001
 -4.6254531e-001 -1.8330400e+001 -1.1844482e+001
 -4.4832695e-001 -1.8138983e+001 -1.1639367e+001
 -4.0089357e-001 -1.7962291e+001 -1.1420679e+001
 -3.0835828e-001 -1.7794363e+001 -1.1255230e+001
 -1.4682920e-001 -1.7702511e+001 -1.1032680e+001
  7.8915380e-002 -1.7458156e+001 -1.0798197e+001
  3.1141973e-001 -1.7217424e+001 -1.0653107e+001
  5.0837799e-001 -1.6871051e+001 -1.0543002e+001
  6.8703879e-001 -1.6428501e+001 -1.0577753e+001
  8.8423050e-001 -1.5984900e+001 -1.0813759e+001
  1.0739632e+000 -1.5409363e+001 -1.1110140e+001
  1.1908562e+000 -1.4814311e+001 -1.1540027e+001
  1.2163791e+000 -1.4178241e+001 -1.2060361e+001
  1.1803673e+000 -1.3564609e+001 -1.2517278e+001
  1.1063621e+000 -1.2962311e+001 -1.2953249e+001
  1.0117288e+000 -1.2373336e+001 -1.3292104e+001
  8.6232010e-001 -1.1806097e+001 -1.3535832e+001
  6.5160962e-001 -1.1175052e+001 -1.3768327e+001
  4.7597871e-001 -1.0580818e+001 -1.3858189e+001
  3.7843205e-001 -9.9066517e+000 -1.3879718e+001
  3.3484470e-001 -9.1814171e+000 -1.3811503e+001
  2.9685177e-001 -8.3952988e+000 -1.3558766e+001
  2.6293754e-001 -7.5187307e+000 -1.3322994e+001
  2.5547856e-001 -6.6182062e+000 -1.3042760e+001
  2.9521990e-001 -5.6518894e+000 -1.2762994e+001
  3.7435296e-001 -4.7165405e+000 -1.2592046e+001
  4.3495550e-001 -3.7321103e+000 -1.2423554e+001
