**************************************************************************************
            UNIVERSIDAD AUTONOMA METROPOLITANA - AZCAPOTZALCO
                        Departamento de Materiales
                           Area de Estructuras
     AV. SAN PABLO 180,COL.REYNOSA, AZCAPOTZALCO, C.P.02200 CIUDAD DE MEXICO.
**************************************************************************************
ARCHIVO ESTANDAR DE ACELERACION:
VERSION DEL FORMATO                    : 2.0
NOMBRE DEL ARCHIVO                     : RIML201404181
FECHA Y HORA DE CREACION               : MON JUL 18 12:30:07 2018
REF. CATALOGO ACELEROGRAMAS, SMIS 1995 : REGISTRO NO.      /PAG.    


================================================================================
DATOS DE LA ESTACION:
NOMBRE DE LA ESTACION                  : UAM-LERMA.
CLAVE DE LA ESTACION                   : RIML
LOCALIZACION DE LA ESTACION            : AV. DE LAS GARZAS 10, EL PANTEON, C.P.52005,
                                       : LERMA DE VILLADA, ESTADO DE MEXICO. 
                                       :
                                       : 
                                       : 
COORDENADAS DE LA ESTACION             : 19.291481 LAT. N
                                       : 99.502060 LONG. W
ALTITUD (msnm)                         : 2570
TIPO DE SUELO                          : DEPOSITOS LACUSTRES
                                       : 
                                       : 
INSTITUCION RESPONSABLE                : UNIVERSIDAD AUTONOMA METROPOLITANA
                                       : 

================================================================================
DATOS DEL ACELEROGRAFO: 
MODELO DEL ACELEROGRAFO                : BASALT KINEMETRICS
NUMERO DE SERIE DEL ACELEROGRAFO       : 978
NUMERO DE CANALES                      : 3
ORIENTACION C1-C6 (rumbo;orientacion)  : /V/N00E/N90E
ORIENTACION C7-C12 (rumbo;orientacion) : 
VEL. DE MUESTREO, C1-C6 (muestras/s)   : /250/250/250
VEL. DE MUESTREO, C7-C12 (muestras/s)  : 
ESC. COMPLETA DE SENSORES, C1-C6, (g)  : /2/2/2
ESC. COMPLETA DE SENSORES, C7-C12 (g)  : 
FREC. NAT. DE SENSORES, C1-C6, (Hz)    : /210/212/212
FREC. NAT. DE SENSORES, C7-C12 (Hz)    : 
AMORTIGUAMIENTO DE SENSORES, C1-C6     : /0.7/0.7/0.7
AMORTIGUAMIENTO DE SENSORES, C7-C12    : 
INTERVALO DE MUESTREO, C1-C6 (s)       : /0.004/0.004/0.004
INTERVALO DE MUESTREO, C7-C12 (s)      : 
UMBRAL DE DISPARO, C1-C6 (Gal)         : /2/2/2
UMBRAL DE DISPARO, C7-C12 (Gal)        : 
MEMORIA DE PREEVENTO (s)               : 20
TIEMPO DE POSEVENTO (s)                : 30


================================================================================
DATOS DEL SISMO:
FECHA DEL SISMO [GMT]                  : 2014/04/18
HORA EPICENTRO (GMT)                   : 14:27:21
MAGNITUD(ES)                           : /M=7.2
COORDENADAS DEL EPICENTRO              : 17.011 LAT. N
                                       : 101.46 LONG. W
PROFUNDIDAD FOCAL (Km)                 : 18
FUENTE DE LOS DATOS EPICENTRALES       : SSN
                                       : INSTITUTO DE GEOFISICA, UNAM

================================================================================
DATOS DE ESTE REGISTRO:
HORA DE LA PRIMERA MUESTRA (GMT)       : 14:27:48.00
EXACTITUD DEL TIEMPO (s)               : 
DURACION DEL REGISTRO (s), C1-C6       : /304.00/304.00/304.00
DURACION DEL REGISTRO (s), C7-C12      : 
NUM. TOTAL DE MUESTRAS, C1-C6          : /76000/76000/76000
NUM. TOTAL DE MUESTRAS, C7-C12         : 
ACEL. MAX.(Gal), C1-C6                 : /22.678/51.033/61.887
ACEL. MAX., C1-C6, EN LA MUESTRA       : /18207/18035/21288
ACEL. MAX.(Gal), C7-C12                : 
ACEL. MAX., C7-C12,EN LA MUESTRA       : 
UNIDADES DE LOS DATOS                  : Gal (cm/s/s)
FACTOR DE DECIMACION                   : 1
FORMATO DATOS (FORTRAN,16 campos/dato) : 3E16.7


================================================================================
CALIDAD DEL ACELEROGRAMA:
REGISTRO DIGITAL COMPLETO CON TIEMPO ABSOLUTO CORRECTO


================================================================================
COMENTARIOS:














================================================================================
DATOS DE ACELERACION:
---------+---------+---------+---------+---------+---------+---------+---------+
   CANAL-1        CANAL-2   	     CANAL-3
         V          N00E               N90E
---------+---------+---------+---------+---------+---------+---------+---------+ 
[...]
 -1.2510473e+001  8.6583230e-001 -3.0656010e+001
 -1.2811868e+001  4.1335801e-001 -3.1520442e+001
 -1.3091319e+001 -2.7277564e-001 -3.2202445e+001
 -1.2250750e+001 -1.2556888e+000 -3.2959290e+001
 -1.2579227e+001 -1.7731530e+000 -3.3804777e+001
 -1.1906981e+001 -2.8563559e+000 -3.4324933e+001
 -1.1456289e+001 -3.6693132e+000 -3.4962732e+001
 -1.1823636e+001 -4.2382081e+000 -3.5672333e+001
 -1.1071665e+001 -5.2958125e+000 -3.6156003e+001
 -1.0787195e+001 -6.0077788e+000 -3.6714282e+001
 -1.0394050e+001 -6.8591925e+000 -3.7164156e+001
 -9.7651110e+000 -7.6949431e+000 -3.7673787e+001
 -9.4005649e+000 -8.3982596e+000 -3.8070920e+001
 -8.9822060e+000 -9.1455257e+000 -3.8425136e+001
 -8.8304577e+000 -9.6996926e+000 -3.8789643e+001
 -8.4910084e+000 -1.0344214e+001 -3.8940848e+001
 -8.0691478e+000 -1.0916850e+001 -3.9225718e+001
 -7.8125764e+000 -1.1399247e+001 -3.9362773e+001
 -7.5424641e+000 -1.1960778e+001 -3.9407445e+001
 -7.2082677e+000 -1.2406940e+001 -3.9562275e+001
 -6.8218929e+000 -1.2921716e+001 -3.9753591e+001
 -6.3085164e+000 -1.3500897e+001 -4.0149205e+001
 -5.7468138e+000 -1.3964593e+001 -4.0396185e+001
 -5.4979463e+000 -1.4363065e+001 -4.0599546e+001
 -5.1764732e+000 -1.4798473e+001 -4.1017261e+001
 -4.7660524e+000 -1.5306119e+001 -4.1238281e+001
 -4.5160176e+000 -1.5540597e+001 -4.1432053e+001
 -4.1807703e+000 -1.5786763e+001 -4.1435093e+001
 -3.9285179e+000 -1.6019487e+001 -4.1196065e+001
 -3.5469290e+000 -1.6096634e+001 -4.1133735e+001
 -3.2852214e+000 -1.6265420e+001 -4.0993172e+001
 -2.9210254e+000 -1.6303058e+001 -4.1053981e+001
 -2.3878046e+000 -1.6410595e+001 -4.1058074e+001
 -2.1256301e+000 -1.6404634e+001 -4.1038194e+001
 -1.3752928e+000 -1.6310539e+001 -4.1192323e+001
 -1.1399660e+000 -1.6230354e+001 -4.0989546e+001
 -1.2329996e+000 -1.5969459e+001 -4.1009660e+001
 -6.8798924e-001 -1.5884949e+001 -4.1157357e+001
 -4.3305223e-001 -1.5822414e+001 -4.1274533e+001
 -2.0998185e-001 -1.5578001e+001 -4.1403519e+001
  1.4153045e-003 -1.5484256e+001 -4.1573552e+001
  4.1347056e-001 -1.5683551e+001 -4.2195681e+001
  9.8030924e-001 -1.5796231e+001 -4.2672919e+001
  1.2996810e+000 -1.5879105e+001 -4.2882946e+001
  1.9571018e+000 -1.6046605e+001 -4.3134605e+001
  2.4396617e+000 -1.6054788e+001 -4.3341708e+001
  2.8071262e+000 -1.6121414e+001 -4.3469525e+001
  3.2411265e+000 -1.6193067e+001 -4.3617924e+001
  3.5343513e+000 -1.6307266e+001 -4.3729369e+001
  4.1067930e+000 -1.6466702e+001 -4.3845141e+001
  4.6089635e+000 -1.6429180e+001 -4.4112469e+001
  5.1263088e+000 -1.6562083e+001 -4.4169303e+001
  5.5131501e+000 -1.6595045e+001 -4.4324484e+001
  5.9517032e+000 -1.6535783e+001 -4.4572985e+001
  6.4274925e+000 -1.6676048e+001 -4.4528197e+001
  6.5350006e+000 -1.6512405e+001 -4.4887675e+001
  6.7090441e+000 -1.6520354e+001 -4.5090919e+001
  6.9575615e+000 -1.6509132e+001 -4.5246568e+001
  7.4382535e+000 -1.6338241e+001 -4.5738892e+001
  7.2888400e+000 -1.6462494e+001 -4.5512727e+001
  7.5225323e+000 -1.6287629e+001 -4.5793387e+001
  8.0838847e+000 -1.6262030e+001 -4.5980493e+001
  7.7908937e+000 -1.6320825e+001 -4.5701003e+001
  8.3091728e+000 -1.6177637e+001 -4.6165845e+001
  8.5391301e+000 -1.6253498e+001 -4.6035105e+001
  8.5630593e+000 -1.6195170e+001 -4.6036274e+001
  8.8132108e+000 -1.6230471e+001 -4.6015108e+001
  8.7589315e+000 -1.6286694e+001 -4.5659722e+001
  9.1965505e+000 -1.6096634e+001 -4.5811512e+001
  9.2961208e+000 -1.6031059e+001 -4.5398475e+001
  9.4500872e+000 -1.5962212e+001 -4.4915741e+001
  9.6896160e+000 -1.5830479e+001 -4.4517321e+001
  9.8029605e+000 -1.5691616e+001 -4.3914371e+001
  1.0216416e+001 -1.5466957e+001 -4.3489639e+001
  1.0238945e+001 -1.5238791e+001 -4.2989831e+001
  1.0186300e+001 -1.4963052e+001 -4.2482422e+001
  1.0235443e+001 -1.4676559e+001 -4.1948116e+001
  1.0282602e+001 -1.4328115e+001 -4.1471463e+001
  1.0450576e+001 -1.4031687e+001 -4.0982764e+001
  1.0397230e+001 -1.3726842e+001 -4.0281466e+001
  1.0472521e+001 -1.3250406e+001 -3.9742248e+001
  1.0581663e+001 -1.2973731e+001 -3.9071355e+001
  1.0521431e+001 -1.2579468e+001 -3.8201661e+001
  1.0616565e+001 -1.2166502e+001 -3.7504105e+001
  1.0390577e+001 -1.1895789e+001 -3.6547406e+001
  1.0267310e+001 -1.1479549e+001 -3.5599011e+001
  1.0396297e+001 -1.1144899e+001 -3.4715752e+001
  1.0228440e+001 -1.0732868e+001 -3.3676726e+001
  1.0113811e+001 -1.0329604e+001 -3.2698510e+001
  9.9631135e+000 -9.9472622e+000 -3.1590373e+001
  9.8937761e+000 -9.4792418e+000 -3.0544682e+001
  9.8710136e+000 -8.9760380e+000 -2.9502031e+001
  9.7179814e+000 -8.4364818e+000 -2.8279057e+001
  9.5644819e+000 -7.9380705e+000 -2.7048715e+001
  9.2597013e+000 -7.5578333e+000 -2.5700614e+001
  9.0214561e+000 -7.3235892e+000 -2.4253112e+001
  8.7799427e+000 -7.0830336e+000 -2.2834611e+001
  8.4885858e+000 -6.9110907e+000 -2.1437277e+001
  8.3523625e+000 -6.8511270e+000 -2.0036435e+001
  8.3412733e+000 -6.9290917e+000 -1.8616999e+001
  8.1023281e+000 -6.6148959e+000 -1.7363503e+001
  7.7856409e+000 -6.4992939e+000 -1.5993183e+001
  8.1138842e+000 -6.9292085e+000 -1.4580763e+001
  8.1334948e+000 -6.6627034e+000 -1.3544193e+001
  7.5440108e+000 -6.5239569e+000 -1.2207552e+001
  7.3500062e+000 -6.6290395e+000 -1.0828344e+001
  7.2121484e+000 -6.5155412e+000 -9.6118013e+000
  6.9840590e+000 -6.5968954e+000 -8.1464072e+000
  6.9116869e+000 -6.5039690e+000 -6.8103507e+000
  6.7397443e+000 -6.5315549e+000 -5.4364049e+000
  6.4407998e+000 -6.6456379e+000 -3.9334728e+000
  6.4278427e+000 -6.7013935e+000 -2.4345164e+000
  6.3652758e+000 -6.8090474e+000 -9.7532024e-001
  6.0138032e+000 -6.8833884e+000  4.7931520e-001
  5.8829494e+000 -7.0335898e+000  2.0084421e+000
  5.6731863e+000 -6.9800549e+000  3.4005140e+000
  5.5340450e+000 -7.0388498e+000  4.7811253e+000
  5.3496122e+000 -7.0603571e+000  6.1292271e+000
  4.7886099e+000 -6.9363385e+000  7.4484443e+000
  4.7468209e+000 -7.1468543e+000  8.8589927e+000
  4.7977149e+000 -7.0183943e+000  1.0017883e+001
  4.5462795e+000 -7.1016185e+000  1.1261439e+001
  4.8776747e+000 -7.4430490e+000  1.2483010e+001
  5.1992645e+000 -7.2795226e+000  1.3282305e+001
  5.0754144e+000 -7.2538069e+000  1.4449264e+001
  5.1546738e+000 -7.2867695e+000  1.5641834e+001
  5.1845566e+000 -7.2812758e+000  1.6512931e+001
  5.3052549e+000 -7.2744964e+000  1.7458988e+001
  5.5382469e+000 -7.3346939e+000  1.8321782e+001
  5.6434202e+000 -7.5213643e+000  1.9317773e+001
  5.9988618e+000 -7.5522228e+000  2.0242313e+001
  6.1699873e+000 -7.6362651e+000  2.0987698e+001
  6.3537197e+000 -7.7987400e+000  2.1816930e+001
  6.5928983e+000 -7.8807954e+000  2.2650606e+001
  6.5417708e+000 -7.9640200e+000  2.3453877e+001
  6.6777607e+000 -8.0708557e+000  2.4185814e+001
  6.8590416e+000 -8.1213514e+000  2.4868051e+001
  6.9873276e+000 -8.0598683e+000  2.5472638e+001
  7.0539800e+000 -7.8430407e+000  2.6029514e+001
  7.0209454e+000 -7.7194897e+000  2.6566860e+001
  7.0693883e+000 -7.5614570e+000  2.7193667e+001
  7.2486850e+000 -7.1816870e+000  2.7788197e+001
  7.2769333e+000 -6.9671970e+000  2.8338641e+001
  7.0601666e+000 -6.7745653e+000  2.9068005e+001
  6.9205580e+000 -6.4706561e+000  2.9646982e+001
  6.7555028e+000 -6.2092941e+000  3.0251102e+001
  6.4726668e+000 -5.9965576e+000  3.0925855e+001
  6.2787793e+000 -5.8206409e+000  3.1373741e+001
  6.0550086e+000 -5.5395247e+000  3.1983942e+001
  5.7494106e+000 -5.2954619e+000  3.2605369e+001
  5.6220588e+000 -5.1431567e+000  3.3199899e+001
  5.3778609e+000 -4.8514037e+000  3.3890907e+001
  5.1957625e+000 -4.5823272e+000  3.4310259e+001
  4.9961553e+000 -4.3796428e+000  3.4951917e+001
  4.5697423e+000 -4.0587850e+000  3.5633335e+001
  4.3526254e+000 -3.7061333e+000  3.6166705e+001
  3.9147726e+000 -3.3919375e+000  3.7055344e+001
  3.4951301e+000 -3.0512083e+000  3.7759799e+001
  3.3126820e+000 -2.7395847e+000  3.8456186e+001
  2.9923760e+000 -2.4219991e+000  3.9200285e+001
  2.6573622e+000 -1.9794607e+000  3.9715763e+001
  2.6852607e+000 -1.6493682e+000  4.0089508e+001
  2.6114875e+000 -1.3475629e+000  4.0489097e+001
  2.0779169e+000 -9.9748252e-001  4.1043868e+001
  2.1024301e+000 -8.2472188e-001  4.1304764e+001
  2.1370988e+000 -5.0024040e-001  4.1646350e+001
  1.6524376e+000 -1.3741944e-001  4.2004542e+001
  1.3989012e+000  7.1459977e-002  4.2268129e+001
  1.2171534e+000  4.3357966e-001  4.2664326e+001
  1.0289852e+000  5.6893625e-001  4.3298149e+001
  9.5707992e-001  6.4047175e-001  4.4164686e+001
  6.7424437e-001  1.0937642e+000  4.4517381e+001
  4.8747719e-001  1.3837640e+000  4.5101036e+001
  4.8199054e-001  1.5794349e+000  4.6106733e+001
  2.6137208e-001  1.9066050e+000  4.6584206e+001
  1.7872735e-001  2.2869590e+000  4.7112314e+001
  1.7242406e-001  2.7466805e+000  4.7773618e+001
  1.6833845e-001  2.9847817e+000  4.8048664e+001
  7.8806828e-002  3.1829071e+000  4.8391420e+001
 -2.4009807e-001  3.3384853e+000  4.8656643e+001
 -2.7033102e-001  3.2664823e+000  4.8894619e+001
 -2.4138200e-001  3.3209523e+000  4.9218547e+001
 -3.8052372e-001  3.2992108e+000  4.9200421e+001
 -2.6741301e-001  3.1024880e+000  4.9366010e+001
 -1.8150011e-001  3.0234718e+000  4.9413255e+001
 -1.5336813e-001  2.8601788e+000  4.9531365e+001
 -9.6404253e-002  2.7037824e+000  4.9829332e+001
 -1.5511894e-001  2.5054233e+000  5.0180625e+001
 -7.9011342e-002  2.2541136e+000  5.0670610e+001
 -1.4274579e-001  2.1323158e+000  5.0499992e+001
 -5.2397124e-002  1.7025180e+000  5.0856780e+001
  8.4176359e-002  1.5607327e+000  5.1425116e+001
 -1.5043452e-002  1.5045095e+000  5.1763311e+001
  4.8690606e-002  1.1844694e+000  5.2328490e+001
 -1.7144811e-002  1.2058599e+000  5.2545299e+001
  1.5539652e-002  9.2532846e-001  5.3095392e+001
  7.4604500e-002  7.2942380e-001  5.3607713e+001
  1.0110239e-001  6.2691259e-001  5.4177569e+001
  2.3475747e-001  3.7910969e-001  5.4757014e+001
  2.9767488e-001  3.3387395e-001  5.5118948e+001
  3.7459952e-001  1.4720352e-001  5.5713829e+001
  4.4755566e-001  6.7485695e-002  5.6180894e+001
  6.7576174e-001 -3.1167716e-002  5.6757181e+001
  8.3556455e-001  5.2874631e-002  5.7313706e+001
  9.9606768e-001  2.7332587e-001  5.7738437e+001
  1.2344292e+000  3.5339432e-001  5.8097915e+001
  1.3422875e+000  6.6010900e-001  5.8660053e+001
  1.5374590e+000  8.3181773e-001  5.9256689e+001
  1.6650446e+000  9.8821412e-001  5.9657681e+001
  1.6566399e+000  1.3137479e+000  6.0291972e+001
  1.6170686e+000  1.5447190e+000  6.0712377e+001
  1.8096726e+000  1.7738197e+000  6.0957837e+001
  1.9380748e+000  2.1186401e+000  6.1185054e+001
  1.7584280e+000  2.5152419e+000  6.1276503e+001
  1.7977659e+000  2.7805778e+000  6.1395900e+001
  1.7344987e+000  3.0089776e+000  6.1463141e+001
  1.8081548e+000  3.2533907e+000  6.1488752e+001
  1.9992410e+000  3.4968690e+000  6.1659135e+001
  1.8334851e+000  3.9347323e+000  6.1753156e+001
  1.7999840e+000  4.3962066e+000  6.1776545e+001
  1.8755080e+000  4.7910552e+000  6.1908688e+001
  1.9733271e+000  5.3278056e+000  6.1830572e+001
  2.0490846e+000  5.8464386e+000  6.1814200e+001
  1.9809148e+000  6.3422785e+000  6.1474017e+001
  1.9353903e+000  6.7781544e+000  6.1042736e+001
  1.7263275e+000  7.2339017e+000  6.0893519e+001
  1.3833762e+000  7.6474521e+000  6.0390671e+001
  1.3386688e+000  7.9312569e+000  5.9994707e+001
  1.1300729e+000  8.4067580e+000  5.9395615e+001
  9.8883023e-001  8.6545609e+000  5.8778398e+001
  1.0677395e+000  8.8088534e+000  5.8344194e+001
  8.6054468e-001  9.0822548e+000  5.7680902e+001
  8.3929999e-001  9.2991993e+000  5.7151859e+001
  6.9864090e-001  9.4932339e+000  5.6494764e+001
  6.6724036e-001  9.5685099e+000  5.5810306e+001
  7.4579948e-001  9.7595053e+000  5.5147130e+001
  5.4117250e-001  9.9001218e+000  5.4355086e+001
  3.7401592e-001  1.0146990e+001  5.3444696e+001
  2.7654691e-001  1.0381467e+001  5.2466363e+001
  3.3246031e-001  1.0426469e+001  5.1566615e+001
  4.7523401e-002  1.0752938e+001  5.0480112e+001
 -2.1138250e-001  1.1048665e+001  4.9371623e+001
 -4.8814858e-001  1.1373965e+001  4.8402880e+001
 -9.2938590e-001  1.1744150e+001  4.7267729e+001
 -9.9977381e-001  1.1985290e+001  4.6056332e+001
 -1.2382525e+000  1.2340280e+001  4.4975441e+001
 -1.5088316e+000  1.2564471e+001  4.3863327e+001
 -1.7342360e+000  1.2814963e+001  4.2635091e+001
 -2.0007295e+000  1.3141782e+001  4.1459361e+001
 -2.1516607e+000  1.3295490e+001  4.0357187e+001
 -2.4418505e+000  1.3435172e+001  3.9139943e+001
 -2.7351920e+000  1.3499460e+001  3.7942228e+001
 -3.1151464e+000  1.3583269e+001  3.6783572e+001
 -3.6383281e+000  1.3631778e+001  3.5560013e+001
 -3.8698028e+000  1.3540488e+001  3.4335167e+001
 -4.1581250e+000  1.3536981e+001  3.3025423e+001
 -4.5939928e+000  1.3524708e+001  3.1738599e+001
 -4.6964815e+000  1.3391806e+001  3.0430374e+001
 -4.9749980e+000  1.3287776e+001  2.9143198e+001
 -5.1462402e+000  1.3121678e+001  2.7874734e+001
 -5.0710664e+000  1.2865342e+001  2.6497865e+001
 -5.2629697e+000  1.2711750e+001  2.5250099e+001
 -5.2826970e+000  1.2491417e+001  2.3994030e+001
 -5.4703983e+000  1.2315850e+001  2.2656921e+001
 -5.6555314e+000  1.2087567e+001  2.1442834e+001
 -5.7129622e+000  1.1829011e+001  2.0242196e+001
 -5.8891070e+000  1.1676472e+001  1.9058046e+001
 -5.7869688e+000  1.1323820e+001  1.7918802e+001
 -5.9570438e+000  1.1122305e+001  1.6745879e+001
 -5.9922961e+000  1.0891684e+001  1.5629321e+001
 -5.8666951e+000  1.0552825e+001  1.4498263e+001
 -5.9098848e+000  1.0312387e+001  1.3339022e+001
 -5.7862685e+000  1.0071129e+001  1.2216968e+001
 -5.7534673e+000  9.8379370e+000  1.1041472e+001
 -5.4544064e+000  9.5484051e+000  9.8611814e+000
 -5.3541358e+000  9.3603322e+000  8.7172596e+000
 -5.2804793e+000  9.0909047e+000  7.5389570e+000
 -4.9293568e+000  8.8392444e+000  6.3514159e+000
 -4.7367532e+000  8.6426384e+000  5.1873803e+000
 -4.3806113e+000  8.4029006e+000  3.8789217e+000
 -4.0844685e+000  8.1256418e+000  2.6081181e+000
 -3.6684444e+000  7.9189834e+000  1.4485262e+000
 -3.4056863e+000  7.8430061e+000  1.2591765e-001
 -3.0650694e+000  7.5365252e+000 -1.1565796e+000
 -2.6767104e+000  7.3191132e+000 -2.3165226e+000
 -2.6197465e+000  7.1097663e+000 -3.5452270e+000
 -2.2052397e+000  6.8133378e+000 -4.7416554e+000
 -2.2059401e+000  6.6134592e+000 -5.8413735e+000
 -1.9762166e+000  6.2626776e+000 -6.9942998e+000
 -1.6817079e+000  5.9265070e+000 -8.0785814e+000
 -1.7972701e+000  5.6633918e+000 -9.2460085e+000
 -1.3037377e+000  5.2942590e+000 -1.0468398e+001
 -1.5164188e+000  4.9381005e+000 -1.1518883e+001
 -1.6044330e+000  4.7540014e+000 -1.2823483e+001
 -1.1825725e+000  4.4878469e+000 -1.4114634e+001
 -1.5094152e+000  4.2351347e+000 -1.5365324e+001
 -1.4913219e+000  4.0332688e+000 -1.6784993e+001
 -1.3445930e+000  3.7043455e+000 -1.8034513e+001
 -1.4104284e+000  3.4589971e+000 -1.9400039e+001
 -1.3053718e+000  3.1836083e+000 -2.0734342e+001
 -1.2122218e+000  2.8567889e+000 -2.1984681e+001
 -9.4024168e-001  2.5590747e+000 -2.3394411e+001
 -6.6172519e-001  2.3013363e+000 -2.4757130e+001
 -4.2044525e-001  2.1369913e+000 -2.6137624e+001
 -3.5869544e-001  2.0122719e+000 -2.7419186e+001
 -3.3966844e-001  1.9505547e+000 -2.8812076e+001
  2.6862318e-002  1.8737592e+000 -3.0220754e+001
  1.3950615e-001  1.8465244e+000 -3.1442559e+001
  3.1390019e-001  1.9026307e+000 -3.2887488e+001
  6.8381623e-001  1.8571612e+000 -3.4109293e+001
  1.0027211e+000  1.8971370e+000 -3.5270756e+001
  1.4760593e+000  1.9902967e+000 -3.6549160e+001
  1.6719315e+000  2.0277011e+000 -3.7602803e+001
  2.0612247e+000  2.1920457e+000 -3.8864252e+001
  2.4518014e+000  2.2529444e+000 -3.9994491e+001
