**************************************************************************************
            UNIVERSIDAD AUTONOMA METROPOLITANA - AZCAPOTZALCO
                        Departamento de Materiales
                           Area de Estructuras
     AV. SAN PABLO 180,COL.REYNOSA, AZCAPOTZALCO, C.P.02200 CIUDAD DE MEXICO.
**************************************************************************************
ARCHIVO ESTANDAR DE ACELERACION:
VERSION DEL FORMATO                    : 2.0
NOMBRE DEL ARCHIVO                     : RIML201405211
FECHA Y HORA DE CREACION               : 07:56 p. m. 13/09/2014
REF. CATALOGO ACELEROGRAMAS, SMIS 1995 : REGISTRO NO.      /PAG.    


================================================================================
DATOS DE LA ESTACION:
NOMBRE DE LA ESTACION                  : UAM-LERMA.
CLAVE DE LA ESTACION                   : RIML
LOCALIZACION DE LA ESTACION            : AV. DE LAS GARZAS 10, EL PANTEON, C.P.52005,
                                       : LERMA DE VILLADA, ESTADO DE MEXICO. 
                                       :
                                       : 
                                       : 
COORDENADAS DE LA ESTACION             : 19.291481 LAT. N
                                       : 99.502060 LONG. W
ALTITUD (msnm)                         : 2570
TIPO DE SUELO                          : DEPOSITOS LACUSTRES
                                       : 
                                       : 
INSTITUCION RESPONSABLE                : UNIVERSIDAD AUTONOMA METROPOLITANA
                                       : 

================================================================================
DATOS DEL ACELEROGRAFO: 
MODELO DEL ACELEROGRAFO                : BASALT KINEMETRICS
NUMERO DE SERIE DEL ACELEROGRAFO       : 978
NUMERO DE CANALES                      : 3
ORIENTACION C1-C6 (rumbo;orientacion)  : /V/N00E/N90E
ORIENTACION C7-C12 (rumbo;orientacion) : 
VEL. DE MUESTREO, C1-C6 (muestras/s)   : /250/250/250
VEL. DE MUESTREO, C7-C12 (muestras/s)  : 
ESC. COMPLETA DE SENSORES, C1-C6, (g)  : /2/2/2
ESC. COMPLETA DE SENSORES, C7-C12 (g)  : 
FREC. NAT. DE SENSORES, C1-C6, (Hz)    : /210/212/212
FREC. NAT. DE SENSORES, C7-C12 (Hz)    : 
AMORTIGUAMIENTO DE SENSORES, C1-C6     : /0.7/0.7/0.7
AMORTIGUAMIENTO DE SENSORES, C7-C12    : 
INTERVALO DE MUESTREO, C1-C6 (s)       : /0.004/0.004/0.004
INTERVALO DE MUESTREO, C7-C12 (s)      : 
UMBRAL DE DISPARO, C1-C6 (Gal)         : /2/2/2
UMBRAL DE DISPARO, C7-C12 (Gal)        : 
MEMORIA DE PREEVENTO (s)               : 20
TIEMPO DE POSEVENTO (s)                : 30


================================================================================
DATOS DEL SISMO:
FECHA DEL SISMO [GMT]                  : 2014/05/21
HORA EPICENTRO (GMT)                   : 10:06:15
MAGNITUD(ES)                           : /M=5.8
COORDENADAS DEL EPICENTRO              : 17.1215 LAT. N
                                       : 95.0733 LONG. W
PROFUNDIDAD FOCAL (Km)                 : 120.3
FUENTE DE LOS DATOS EPICENTRALES       : SSN
                                       : INSTITUTO DE GEOFISICA, UNAM

================================================================================
DATOS DE ESTE REGISTRO:
HORA DE LA PRIMERA MUESTRA (GMT)       : 10:08:11.000
EXACTITUD DEL TIEMPO (s)               : 
DURACION DEL REGISTRO (s), C1-C6       : /99.00/99.00/99.00
DURACION DEL REGISTRO (s), C7-C12      : 
NUM. TOTAL DE MUESTRAS, C1-C6          : /24750/24750/24750
NUM. TOTAL DE MUESTRAS, C7-C12         : 
ACEL. MAX.(Gal), C1-C6                 : /-0.900/2.432/-1.992
ACEL. MAX., C1-C6, EN LA MUESTRA       : /7789/11985/11766
ACEL. MAX.(Gal), C7-C12                : 
ACEL. MAX., C7-C12,EN LA MUESTRA       : 
UNIDADES DE LOS DATOS                  : Gal (cm/s/s)
FACTOR DE DECIMACION                   : 1
FORMATO DATOS (FORTRAN,16 campos/dato) : 3E16.7


================================================================================
CALIDAD DEL ACELEROGRAMA:
REGISTRO DIGITAL COMPLETO CON TIEMPO ABSOLUTO CORRECTO


================================================================================
COMENTARIOS:














================================================================================
DATOS DE ACELERACION:
---------+---------+---------+---------+---------+---------+---------+---------+
   CANAL-1   	   CANAL-2   	      CANAL-3
         V           N00E              N90E
---------+---------+---------+---------+---------+---------+---------+---------+
[...]
   1.6214650e-01   2.0651577e-01  -1.9551632e+00
   1.0529934e-01   6.3444378e-02  -1.9916414e+00
  -8.1584570e-02   7.8522959e-02  -1.9757408e+00
  -2.4862444e-01   1.6630622e-01  -1.9245312e+00
  -1.2699234e-01   1.7460503e-01  -1.8970561e+00
  -7.1110576e-03  -2.2351547e-02  -1.9400810e+00
  -8.0183925e-02  -1.1562813e-01  -1.8972899e+00
  -8.8238026e-02  -1.4286197e-03  -1.8661902e+00
  -3.4425989e-02  -1.9546057e-02  -1.8405856e+00
   1.9938345e-01  -1.4052534e-01  -1.8414039e+00
   1.1977385e-01  -2.4081545e-01  -1.8830260e+00
  -1.9516256e-01  -1.0429007e-01  -1.8027045e+00
  -1.7053259e-01  -3.7663886e-02  -1.7842320e+00
  -1.4520230e-01  -1.6589006e-01  -1.7603810e+00
  -1.5780889e-01  -2.6232316e-01  -1.7595627e+00
  -2.6379927e-01  -2.6442699e-01  -1.7470524e+00
  -3.5753322e-01  -1.8330662e-01  -1.6317730e+00
  -1.4613606e-01  -2.4163360e-01  -1.6414770e+00
   1.3316585e-02  -4.5366915e-01  -1.6190293e+00
  -7.3063195e-02  -4.6676039e-01  -1.5903847e+00
  -1.5827577e-01  -3.1293573e-01  -1.5520360e+00
  -6.5475975e-02  -3.9101685e-01  -1.4628292e+00
  -1.3998347e-02  -4.6874773e-01  -1.5108816e+00
  -1.4543574e-01  -5.5068625e-01  -1.4537097e+00
  -3.5881714e-01  -3.8470499e-01  -1.3857811e+00
  -3.9383602e-01  -3.3011814e-01  -1.3381964e+00
  -2.4080378e-01  -5.9089580e-01  -1.2605638e+00
  -2.1068755e-01  -5.9370090e-01  -1.2820766e+00
  -2.4115394e-01  -6.2491036e-01  -1.1690184e+00
  -2.4990875e-01  -4.9656692e-01  -1.0968812e+00
   8.0637739e-03  -6.5319707e-01  -1.0787590e+00
   7.9735604e-02  -7.8948868e-01  -1.0584156e+00
  -2.6531703e-01  -6.3250790e-01  -9.9142272e-01
  -2.2702959e-01  -6.2175424e-01  -8.8619805e-01
  -1.7706933e-01  -5.7932398e-01  -8.8771784e-01
  -2.0695211e-01  -7.9135914e-01  -8.2399874e-01
  -2.6636751e-01  -7.5442221e-01  -7.9348363e-01
  -4.4776517e-01  -6.2105296e-01  -6.6662957e-01
  -2.6811832e-01  -7.0310836e-01  -6.0513131e-01
  -1.4170029e-01  -8.4769918e-01  -6.0139028e-01
  -1.5699185e-01  -9.2355960e-01  -5.0692186e-01
  -1.4648622e-01  -7.7382571e-01  -4.8388919e-01
  -1.6469618e-01  -7.7967006e-01  -3.7188352e-01
  -5.0768025e-02  -9.1105236e-01  -3.6416686e-01
  -8.1818011e-02  -9.4682050e-01  -3.5925637e-01
  -3.5905058e-01  -8.0351535e-01  -2.5695477e-01
  -3.8006183e-01  -7.6307205e-01  -1.7768545e-01
  -2.3788537e-01  -8.8896064e-01  -1.6739684e-01
  -3.0395423e-01  -1.0036281e+00  -1.3734935e-01
  -2.9088076e-01  -9.5208045e-01  -4.3933483e-02
  -2.5352709e-01  -8.6546598e-01   2.9498119e-03
  -1.4485214e-01  -9.8258825e-01   7.8828824e-02
  -1.0262901e-02  -1.1257761e+00   5.6497598e-02
  -1.1753721e-01  -1.0817092e+00   1.1238353e-01
  -2.4430539e-01  -8.9737672e-01   1.8510565e-01
  -1.8722479e-01  -9.9883562e-01   2.0579979e-01
  -3.2441350e-02  -1.1368804e+00   2.2333704e-01
  -3.0640575e-01  -1.0646437e+00   2.3304111e-01
  -4.8220044e-01  -9.8656214e-01   3.5498468e-01
  -2.1115444e-01  -1.0154336e+00   3.4832058e-01
  -1.4333438e-01  -1.1819993e+00   3.9976364e-01
  -1.0808207e-01  -1.2620677e+00   4.2115961e-01
  -1.3026091e-01  -1.1812980e+00   4.3647563e-01
  -9.3140676e-02  -1.1097625e+00   5.3211312e-01
   4.6000657e-02  -1.2196375e+00   4.8031894e-01
   1.2266101e-02  -1.3566304e+00   5.4170029e-01
  -7.9133441e-02  -1.2481580e+00   5.3912794e-01
  -2.1617381e-01  -1.0799560e+00   5.3889413e-01
  -1.7508508e-01  -1.2163645e+00   6.3383018e-01
  -9.5358756e-02  -1.3594359e+00   6.0460104e-01
  -1.3282876e-01  -1.3331357e+00   6.1512347e-01
  -1.6061057e-01  -1.2455866e+00   6.8585778e-01
  -1.3064191e-02  -1.2752763e+00   7.1087787e-01
   1.4066837e-01  -1.4765578e+00   6.7159394e-01
   6.2693246e-02  -1.4950258e+00   7.2362193e-01
   1.3880084e-01  -1.3988269e+00   7.3893794e-01
   1.2164137e-01  -1.3156027e+00   7.1099478e-01
   9.0824829e-02  -1.4416082e+00   7.7740314e-01
   3.6545518e-02  -1.5463401e+00   7.3309219e-01
  -1.7998773e-01  -1.3949699e+00   7.6758215e-01
  -1.0729783e-02  -1.3375775e+00   8.1376440e-01
   1.1685544e-01  -1.5068318e+00   7.9692820e-01
   7.8801841e-02  -1.6467471e+00   8.4439642e-01
   1.2677746e-01  -1.5447034e+00   8.0511248e-01
   1.6389770e-01  -1.4991170e+00   8.6883158e-01
   2.8226122e-01  -1.5503140e+00   8.8601850e-01
   3.6887484e-01  -1.7022689e+00   8.4088882e-01
   2.7023824e-01  -1.6787743e+00   8.8005585e-01
   1.1160263e-01  -1.4677910e+00   8.7257301e-01
   1.4405366e-01  -1.5148968e+00   9.1466311e-01
   1.9541456e-01  -1.6548121e+00   9.0519284e-01
   9.7128516e-02  -1.7081133e+00   9.1770269e-01
   3.0242223e-02  -1.5828091e+00   9.6446908e-01
   1.4953991e-01  -1.5500802e+00   9.8785247e-01
   3.6572299e-01  -1.7521802e+00   9.8633268e-01
   4.0260939e-01  -1.8528210e+00   9.7113357e-01
   3.0549055e-01  -1.6986453e+00   1.0149773e+00
   3.0992632e-01  -1.6073557e+00   1.0256166e+00
   4.4066339e-01  -1.7362831e+00   1.0432708e+00
   3.4004254e-01  -1.7967143e+00   1.0240964e+00
   6.8179498e-02  -1.7072951e+00   1.0634973e+00
   1.3144667e-01  -1.5953159e+00   1.0878159e+00
   2.3977185e-01  -1.6815798e+00   1.1003258e+00
   2.3580297e-01  -1.8089878e+00   1.1325949e+00
   2.3078360e-01  -1.7867788e+00   1.1191494e+00
   2.1864389e-01  -1.6977103e+00   1.1949111e+00
   3.2930348e-01  -1.6965411e+00   1.1774908e+00
   4.9540958e-01  -1.8441711e+00   1.1815829e+00
   5.2260740e-01  -1.8643928e+00   1.1925730e+00
   2.4152266e-01  -1.6502534e+00   1.1935082e+00
   2.2132846e-01  -1.5796530e+00   1.2306874e+00
   3.3152117e-01  -1.7338287e+00   1.2187621e+00
   1.6097929e-01  -1.7401405e+00   1.2454189e+00
   1.6132945e-01  -1.6358761e+00   1.2434315e+00
   1.7043443e-01  -1.5589638e+00   1.2937055e+00
   2.5576373e-01  -1.6701244e+00   1.2981483e+00
   3.9385497e-01  -1.7913375e+00   1.2771035e+00
   3.6689020e-01  -1.6836836e+00   1.3154518e+00
   3.7459453e-01  -1.5650419e+00   1.3083201e+00
   4.0482747e-01  -1.5748605e+00   1.3136982e+00
   3.7762926e-01  -1.6826317e+00   1.3006034e+00
   2.2576423e-01  -1.5905235e+00   1.2814291e+00
   1.0938494e-01  -1.4158928e+00   1.3105413e+00
   1.8549254e-01  -1.4086455e+00   1.3151011e+00
   2.5704765e-01  -1.5408464e+00   1.3064491e+00
   1.5794456e-01  -1.5411970e+00   1.2986160e+00
   1.2771162e-01  -1.3793065e+00   1.3008372e+00
   2.8144418e-01  -1.3720596e+00   1.3364966e+00
   4.2817313e-01  -1.4551673e+00   1.2776880e+00
   4.2373775e-01  -1.4977144e+00   1.2671656e+00
   2.8996556e-01  -1.3226158e+00   1.2781557e+00
   2.1876061e-01  -1.1818824e+00   1.2410930e+00
   2.1665925e-01  -1.2480411e+00   1.2341950e+00
   1.9844969e-01  -1.2774970e+00   1.1929237e+00
   1.2280897e-01  -1.2018703e+00   1.2145531e+00
   3.8530157e-02  -1.0349540e+00   1.1843887e+00
   1.5829472e-01  -1.0883721e+00   1.1744508e+00
   2.5307916e-01  -1.2395085e+00   1.1972496e+00
   1.7265251e-01  -1.1196980e+00   1.1621748e+00
   2.8634683e-01  -9.8597774e-01   1.1642791e+00
   3.1996506e-01  -9.7405529e-01   1.1379730e+00
   2.3463576e-01  -1.0342527e+00   1.1309582e+00
   2.8226122e-01  -1.0101737e+00   1.1035996e+00
   1.6331409e-01  -7.6330580e-01   1.0671218e+00
  -1.4932110e-02  -6.9726402e-01   1.0848929e+00
   6.7829336e-02  -8.1169767e-01   1.0560148e+00
   1.3424836e-01  -8.1041161e-01   1.0149773e+00
  -3.1741028e-02  -6.6675622e-01   1.0421017e+00
   9.4793715e-02  -5.7301173e-01   1.0139247e+00
   2.7455728e-01  -6.7996473e-01   9.8048693e-01
   2.9101604e-01  -7.2566799e-01   9.6762597e-01
   2.3510264e-01  -5.5349135e-01   9.3804610e-01
   9.6194360e-02  -3.7675643e-01   9.5651900e-01
   2.0323562e-01  -4.2795339e-01   9.1103859e-01
   1.5759440e-01  -4.9200824e-01   9.0636192e-01
   7.2148384e-02  -3.5431407e-01   8.8216018e-01
  -9.7926606e-02  -1.3608354e-01   8.8134183e-01
  -1.0387974e-01  -1.7407238e-01   9.1384436e-01
   1.3798380e-01  -2.8254481e-01   8.2557280e-01
   4.3432807e-02  -2.1626887e-01   8.6403839e-01
   1.2292569e-01  -6.2210457e-02   8.6696107e-01
   1.5689369e-01   1.6922968e-02   8.3679667e-01
   2.3755377e-01  -1.0919938e-01   8.2510517e-01
   2.2331310e-01  -6.1041758e-03   7.7003760e-01
  -3.3756120e-03   1.5076012e-01   8.3621214e-01
   4.4366571e-02   2.7945382e-01   7.9038101e-01
  -8.5117028e-03   2.3468559e-01   7.6594545e-01
   1.0748344e-02   1.7822867e-01   7.8114456e-01
  -5.0184423e-02   4.1095300e-01   7.4408225e-01
  -6.0456605e-02   4.5548747e-01   8.1902561e-01
   1.2059089e-01   4.3000586e-01   7.6793287e-01
   1.5199104e-01   3.2819632e-01   7.2584316e-01
   1.5712713e-01   5.1825664e-01   7.5133088e-01
   7.3782470e-02   7.2491497e-01   7.4852511e-01
   1.5094055e-01   6.4332669e-01   7.2666151e-01
   2.0580347e-01   6.3923592e-01   6.5043217e-01
   1.2600100e-04   7.4759108e-01   6.7977822e-01
  -1.5313968e-01   1.0177199e+00   6.8819632e-01
  -7.3880238e-02   9.7704279e-01   6.7498463e-01
   8.2303845e-02   8.4940062e-01   6.2763371e-01
  -1.3647794e-02   9.0492250e-01   5.9103864e-01
  -5.2168670e-02   1.1127500e+00   6.4259900e-01
   1.0728398e-01   1.1897792e+00   6.0074271e-01
   2.0370250e-01   1.0457728e+00   5.6216061e-01
   1.4463726e-01   1.0922946e+00   5.2731954e-01
   2.7557653e-02   1.2927576e+00   5.2065505e-01
   4.2615764e-02   1.4499725e+00   5.0335161e-01
   6.2926687e-02   1.3658129e+00   4.3904758e-01
  -3.4923325e-03   1.3619555e+00   4.2104271e-01
  -1.6726403e-01   1.5236118e+00   4.0397269e-01
  -1.6562994e-01   1.6553448e+00   4.1496275e-01
   6.0358445e-02   1.5824067e+00   3.6889781e-01
   1.0214789e-01   1.5025720e+00   3.2622356e-01
   6.4677493e-02   1.6057845e+00   3.1745474e-01
   3.6428798e-02   1.7468685e+00   2.9103176e-01
   1.2105777e-01   1.7891819e+00   2.6764837e-01
   2.0101754e-01   1.6830475e+00   2.0498144e-01
  -4.8199784e-02   1.8089360e+00   1.8218258e-01
  -1.5664168e-01   1.9543450e+00   1.5926721e-01
  -8.6020338e-02   2.0278675e+00   1.1986637e-01
  -8.7537704e-02   1.9223178e+00   1.1881421e-01
  -5.0768025e-02   1.8680816e+00   6.5032604e-02
  -1.3096123e-01   2.0707656e+00   3.7206351e-02
  -8.4619693e-02   2.0777788e+00   6.7955283e-02
   1.4685495e-01   2.0192180e+00  -4.2988233e-03
   8.0085765e-02   1.9530593e+00  -4.0425876e-02
   6.4292961e-03   2.0759087e+00  -5.8197331e-02
  -1.5632433e-02   2.2344093e+00  -8.6140100e-02
  -6.9678302e-02   2.2140704e+00  -8.2983607e-02
  -2.8239023e-02   2.1287424e+00  -1.6096656e-01
  -2.6426615e-01   2.1753807e+00  -1.6482488e-01
  -2.9228140e-01   2.3448683e+00  -1.6774756e-01
  -1.3971605e-01   2.3245298e+00  -1.7569803e-01
  -1.0247909e-01   2.1839132e+00  -1.8025780e-01
  -3.6526957e-02   2.1426518e+00  -2.5672096e-01
  -1.9784713e-01   2.3265171e+00  -2.2737491e-01
  -3.9795521e-02   2.3405438e+00  -2.2597203e-01
   5.1253468e-02   2.2247076e+00  -2.8536556e-01
  -1.4368454e-01   2.2249413e+00  -2.7811654e-01
  -1.9994849e-01   2.3283872e+00  -3.1155472e-01
  -3.2765044e-01   2.4315996e+00  -3.0301972e-01
  -2.1722429e-01   2.3536350e+00  -3.0956730e-01
  -2.7477177e-01   2.2626960e+00  -3.5107248e-01
  -4.2266831e-01   2.3163478e+00  -3.0605970e-01
  -2.8270955e-01   2.4054168e+00  -3.3236576e-01
  -1.5535776e-01   2.2991650e+00  -3.0874856e-01
  -9.2790515e-02   2.2075248e+00  -3.5060485e-01
  -1.9364480e-01   2.2104471e+00  -3.8275667e-01
  -1.7753621e-01   2.3453362e+00  -3.2757218e-01
  -1.7613556e-01   2.3829740e+00  -3.9655289e-01
  -2.8714531e-01   2.2254088e+00  -3.5680132e-01
  -3.2169730e-01   2.2652677e+00  -4.1221962e-01
  -4.3749298e-01   2.3559730e+00  -4.1257034e-01
  -4.6574129e-01   2.3696486e+00  -3.4592817e-01
  -3.0582215e-01   2.2093952e+00  -4.1385632e-01
  -2.8481051e-01   2.1228976e+00  -3.8988879e-01
  -3.5613257e-01   2.2354612e+00  -4.1537650e-01
  -1.9387824e-01   2.2299675e+00  -4.0567243e-01
  -1.6668043e-01   2.1585485e+00  -4.1654558e-01
  -2.3508408e-01   2.0768437e+00  -4.5162046e-01
  -2.4033689e-01   2.0961303e+00  -4.5582951e-01
  -3.9617082e-01   2.2596571e+00  -4.9137203e-01
  -3.3979015e-01   2.1705882e+00  -4.6950843e-01
  -3.7305821e-01   2.0242442e+00  -4.9207347e-01
  -5.4523417e-01   2.0863117e+00  -5.1218307e-01
  -4.4391300e-01   2.1075853e+00  -5.0867547e-01
  -3.5309745e-01   2.0799999e+00  -5.0025737e-01
  -1.7275028e-01   1.8731078e+00  -5.3135741e-01
  -1.9796385e-01   1.8676141e+00  -5.8408646e-01
  -3.6920605e-01   1.9999314e+00  -5.5123320e-01
  -1.6691387e-01   1.9344740e+00  -5.8209904e-01
  -2.0951996e-01   1.8854977e+00  -6.3962166e-01
  -4.0375804e-01   1.7972474e+00  -6.3856950e-01
  -4.0107347e-01   1.8575617e+00  -6.6709720e-01
  -4.9258934e-01   1.9142524e+00  -6.4464906e-01
  -3.9231865e-01   1.7783114e+00  -6.6429103e-01
  -2.9263157e-01   1.6289281e+00  -7.1117433e-01
  -4.4391300e-01   1.6482147e+00  -6.8451754e-01
  -3.1772842e-01   1.7126202e+00  -7.1900789e-01
  -1.3072779e-01   1.5716530e+00  -7.1362977e-01
  -1.4356782e-01   1.4139710e+00  -7.5291371e-01
  -1.9457857e-01   1.4744022e+00  -8.1090397e-01
  -3.6640476e-01   1.5903553e+00  -7.6109760e-01
  -3.3862294e-01   1.5106374e+00  -8.0564275e-01
  -2.9683389e-01   1.3688521e+00  -8.4048383e-01
  -4.6492424e-01   1.3343700e+00  -8.2692142e-01
  -4.5126717e-01   1.4012300e+00  -8.3580715e-01
  -3.6535388e-01   1.3245514e+00  -8.1125469e-01
  -1.8278902e-01   1.1628951e+00  -8.5883982e-01
  -1.5430688e-01   1.0603839e+00  -8.6211322e-01
  -3.2788388e-01   1.1534271e+00  -8.3826259e-01
  -2.2119318e-01   1.2028709e+00  -8.8128756e-01
  -6.5942857e-02   9.5635362e-01  -8.5708582e-01
  -1.2220641e-01   9.2643022e-01  -9.3214609e-01
  -3.7889463e-01   1.0118755e+00  -9.0712600e-01
  -4.2558632e-01   1.0592151e+00  -8.4223743e-01
  -2.5971366e-01   9.2724837e-01  -9.2290964e-01
  -2.2271054e-01   7.3636990e-01  -8.9145926e-01
  -3.2800060e-01   7.9224243e-01  -8.9169308e-01
  -3.6605459e-01   8.1760715e-01  -8.4679721e-01
  -4.1896489e-02   6.9557596e-01  -8.5147388e-01
   1.0631623e-02   5.4397200e-01  -9.0233241e-01
  -1.0738174e-01   5.5390751e-01  -8.6304887e-01
  -1.4391798e-01   6.4519715e-01  -8.7965086e-01
  -2.8340987e-01   6.5980821e-01  -8.5217533e-01
  -1.0983327e-01   4.5840984e-01  -8.7111585e-01
  -1.8944248e-01   4.1504416e-01  -8.9157617e-01
  -4.1169581e-01   5.4023148e-01  -8.4270506e-01
  -2.4337163e-01   4.8950203e-01  -8.2294658e-01
  -1.0866567e-01   3.1568908e-01  -8.2809089e-01
  -1.1485264e-01   1.8383926e-01  -8.3721004e-01
  -1.6469618e-01   3.0739027e-01  -8.1289178e-01
  -8.1467850e-02   2.7524578e-01  -7.6893116e-01
   2.6740610e-02   1.6326697e-01  -7.9593868e-01
   1.5300833e-02   6.5782353e-02  -8.2177712e-01
  -1.7753621e-01   1.2516125e-01  -7.8179173e-01
  -2.5492812e-01   2.4953041e-01  -7.7314021e-01
  -1.6026041e-01   8.4133548e-02  -7.4087110e-01
  -2.5247660e-01   8.5068881e-03  -7.6226706e-01
  -2.0391699e-01  -6.1859820e-02  -7.5805802e-01
  -2.2072629e-01   2.1949161e-02  -6.9129854e-01
  -1.1543624e-01  -4.2337181e-03  -7.0065190e-01
   1.3261427e-01  -2.6805063e-01  -6.8615424e-01
  -5.7304761e-02  -2.3497110e-01  -6.8744061e-01
  -1.0434701e-01  -1.1983617e-01  -6.8510207e-01
   1.3433306e-02  -1.5700686e-01  -6.4277855e-01
  -1.1663546e-02  -2.9224617e-01  -6.6779864e-01
  -1.2255658e-01  -3.3771606e-01  -6.7528109e-01
  -2.1197148e-01  -2.4560788e-01  -6.2185060e-01
  -2.4558971e-01  -2.2176258e-01  -6.1167890e-01
  -1.5348984e-01  -3.9884854e-01  -5.9156930e-01
   3.8063276e-02  -5.4764700e-01  -5.8864623e-01
  -1.0831551e-01  -4.9329391e-01  -5.6678302e-01
  -9.8276767e-02  -4.2117401e-01  -5.4059347e-01
   1.3588244e-01  -5.6284246e-01  -5.4316582e-01
