**************************************************************************************
            UNIVERSIDAD AUTONOMA METROPOLITANA - AZCAPOTZALCO
                        Departamento de Materiales
                           Area de Estructuras
     AV. SAN PABLO 180,COL.REYNOSA, AZCAPOTZALCO, C.P.02200 CIUDAD DE MEXICO.
**************************************************************************************
ARCHIVO ESTANDAR DE ACELERACION:
VERSION DEL FORMATO                    : 2.0
NOMBRE DEL ARCHIVO                     : RIML201407071
FECHA Y HORA DE CREACION               : 11:03 p. m. 13/08/2014
REF. CATALOGO ACELEROGRAMAS, SMIS 1995 : REGISTRO NO.      /PAG.    


================================================================================
DATOS DE LA ESTACION:
NOMBRE DE LA ESTACION                  : UAM-LERMA.
CLAVE DE LA ESTACION                   : RIML
LOCALIZACION DE LA ESTACION            : AV. DE LAS GARZAS 10, EL PANTEON, C.P.52005,
                                       : LERMA DE VILLADA, ESTADO DE MEXICO. 
                                       :
                                       : 
                                       : 
COORDENADAS DE LA ESTACION             : 19.291481 LAT. N
                                       : 99.502060 LONG. W
ALTITUD (msnm)                         : 2570
TIPO DE SUELO                          : DEPOSITOS LACUSTRES
                                       : 
                                       : 
INSTITUCION RESPONSABLE                : UNIVERSIDAD AUTONOMA METROPOLITANA
                                       : 

================================================================================
DATOS DEL ACELEROGRAFO: 
MODELO DEL ACELEROGRAFO                : BASALT KINEMETRICS
NUMERO DE SERIE DEL ACELEROGRAFO       : 978
NUMERO DE CANALES                      : 3
ORIENTACION C1-C6 (rumbo;orientacion)  : /V/N00E/N90E
ORIENTACION C7-C12 (rumbo;orientacion) : 
VEL. DE MUESTREO, C1-C6 (muestras/s)   : /250/250/250
VEL. DE MUESTREO, C7-C12 (muestras/s)  : 
ESC. COMPLETA DE SENSORES, C1-C6, (g)  : /2/2/2
ESC. COMPLETA DE SENSORES, C7-C12 (g)  : 
FREC. NAT. DE SENSORES, C1-C6, (Hz)    : /210/212/212
FREC. NAT. DE SENSORES, C7-C12 (Hz)    : 
AMORTIGUAMIENTO DE SENSORES, C1-C6     : /0.7/0.7/0.7
AMORTIGUAMIENTO DE SENSORES, C7-C12    : 
INTERVALO DE MUESTREO, C1-C6 (s)       : /0.004/0.004/0.004
INTERVALO DE MUESTREO, C7-C12 (s)      : 
UMBRAL DE DISPARO, C1-C6 (Gal)         : /2/2/2
UMBRAL DE DISPARO, C7-C12 (Gal)        : 
MEMORIA DE PREEVENTO (s)               : 20
TIEMPO DE POSEVENTO (s)                : 30


================================================================================
DATOS DEL SISMO:
FECHA DEL SISMO [GMT]                  : 2014/07/07
HORA EPICENTRO (GMT)                   : 11:23:59
MAGNITUD(ES)                           : /M=6.9
COORDENADAS DEL EPICENTRO              : 14.6502 LAT. N
                                       : 92.5572 LONG. W
PROFUNDIDAD FOCAL (Km)                 : 56.7
FUENTE DE LOS DATOS EPICENTRALES       : SSN
                                       : INSTITUTO DE GEOFISICA, UNAM

================================================================================
DATOS DE ESTE REGISTRO:
HORA DE LA PRIMERA MUESTRA (GMT)       : 11:27:26.000
EXACTITUD DEL TIEMPO (s)               : 
DURACION DEL REGISTRO (s), C1-C6       : /150.00/150.00/150.00
DURACION DEL REGISTRO (s), C7-C12      : 
NUM. TOTAL DE MUESTRAS, C1-C6          : /37500/37500/37500
NUM. TOTAL DE MUESTRAS, C7-C12         : 
ACEL. MAX.(Gal), C1-C6                 : /1.298/-6.796/5.154
ACEL. MAX., C1-C6, EN LA MUESTRA       : /13058/16020/11247
ACEL. MAX.(Gal), C7-C12                : 
ACEL. MAX., C7-C12,EN LA MUESTRA       : 
UNIDADES DE LOS DATOS                  : Gal (cm/s/s)
FACTOR DE DECIMACION                   : 1
FORMATO DATOS (FORTRAN,16 campos/dato) : 3E16.7


================================================================================
CALIDAD DEL ACELEROGRAMA:
REGISTRO DIGITAL COMPLETO CON TIEMPO ABSOLUTO CORRECTO


================================================================================
COMENTARIOS:














================================================================================
DATOS DE ACELERACION:
---------+---------+---------+---------+---------+---------+---------+---------+
   CANAL-1   	   CANAL-2   	      CANAL-3
         V           N00E              N90E
---------+---------+---------+---------+---------+---------+---------+---------+
[...]
   1.4545347e-01   3.7282121e+00   2.0543726e+00
   4.9501828e-02   3.7886433e+00   2.0569449e+00
   1.3109568e-01   3.6980550e+00   2.0147379e+00
   2.6136587e-01   3.7273940e+00   2.0120490e+00
  -3.4310103e-02   3.9882885e+00   2.0436163e+00
   2.0202649e-02   4.0738507e+00   2.0662983e+00
  -4.8942031e-03   4.0023148e+00   2.0254941e+00
  -2.2317865e-01   4.0621616e+00   1.9994219e+00
  -8.8355972e-02   4.1959987e+00   2.0376537e+00
  -1.0481473e-01   4.2962889e+00   2.0502804e+00
  -9.7227509e-02   4.1950637e+00   2.0500466e+00
   1.6599783e-01   4.1269177e+00   2.0102950e+00
   1.5070628e-01   4.3054062e+00   2.0236236e+00
   9.8527935e-02   4.4301256e+00   2.0563604e+00
   1.4206818e-01   4.4030077e+00   2.0383551e+00
   3.8178771e-02   4.4040596e+00   1.9988373e+00
   2.4595760e-03   4.5182595e+00   1.9632948e+00
  -1.8792634e-01   4.6795652e+00   2.0119321e+00
  -2.2201105e-01   4.6776952e+00   1.9974345e+00
  -2.0886078e-02   4.5778726e+00   1.9465759e+00
  -1.7613640e-01   4.6607461e+00   1.9456407e+00
  -1.2325812e-01   4.7571788e+00   1.9666855e+00
   1.1265228e-01   4.7396458e+00   1.9748694e+00
   5.6272005e-02   4.7075017e+00   1.9199187e+00
   1.0413091e-01   4.6988518e+00   1.8863640e+00
   1.4463603e-01   4.8439102e+00   1.8925605e+00
  -7.4581786e-02   4.9901373e+00   1.8998091e+00
  -1.0761641e-01   4.9263162e+00   1.8429880e+00
  -1.4753793e-01   4.8980291e+00   1.7827761e+00
  -3.0115377e-01   5.0377106e+00   1.7979752e+00
  -1.3306342e-01   5.0851675e+00   1.8183186e+00
  -1.1940596e-01   5.0130472e+00   1.7788008e+00
  -1.1076786e-01   4.9529666e+00   1.7111065e+00
   4.0163410e-02   4.9890854e+00   1.7216289e+00
   1.2615037e-02   5.1385851e+00   1.7370619e+00
   4.9851989e-02   5.1118179e+00   1.6877231e+00
  -2.3263535e-03   5.0090733e+00   1.6154690e+00
  -9.9211756e-02   5.1222209e+00   1.5927871e+00
  -2.2049369e-01   5.2855135e+00   1.6065833e+00
  -2.5878112e-01   5.2703181e+00   1.5512819e+00
  -2.3496820e-01   5.1460662e+00   1.5025281e+00
  -2.9006455e-01   5.1673397e+00   1.4763385e+00
  -2.0952118e-01   5.2477588e+00   1.4690899e+00
  -1.5255730e-01   5.2330309e+00   1.4640625e+00
  -2.0302475e-02   5.1297015e+00   1.3918084e+00
  -1.3182137e-02   5.0914793e+00   1.3463280e+00
  -6.9445695e-02   5.2263684e+00   1.3303101e+00
  -1.0831673e-01   5.3017613e+00   1.3168650e+00
  -2.7267203e-01   5.2504471e+00   1.2612129e+00
  -2.1220615e-01   5.1747035e+00   1.1771500e+00
  -3.5391572e-01   5.2357195e+00   1.1580926e+00
  -4.1846721e-01   5.3357755e+00   1.1525975e+00
  -2.4477350e-01   5.2223941e+00   1.1197443e+00
  -2.9286623e-01   5.1330914e+00   1.0327583e+00
  -2.4780862e-01   5.1405725e+00   1.0063353e+00
  -1.5851044e-01   5.1714309e+00   1.0236388e+00
  -8.8005811e-02   5.1734179e+00   9.5325517e-01
  -1.2792733e-01   5.0506854e+00   8.8579465e-01
  -2.3356755e-01   5.0595690e+00   8.2979181e-01
  -2.9683473e-01   5.1841715e+00   8.1658013e-01
  -3.8753355e-01   5.2147962e+00   8.0009505e-01
  -4.5570377e-01   5.1035187e+00   7.0995258e-01
  -4.4321351e-01   4.9461872e+00   6.4950688e-01
  -3.8846771e-01   5.0371262e+00   6.3921826e-01
  -4.0504319e-01   5.1017655e+00   6.3723084e-01
  -2.2738098e-01   4.8817818e+00   5.6637962e-01
  -1.3995032e-01   4.7839465e+00   4.7869220e-01
  -2.5492896e-01   4.8631968e+00   4.7612025e-01
  -2.7033723e-01   4.9347323e+00   4.5308758e-01
  -2.7115427e-01   4.8536119e+00   3.7288300e-01
  -3.5041371e-01   4.7163849e+00   3.0904660e-01
  -5.1616966e-01   4.7763486e+00   2.6298166e-01
  -4.4566503e-01   4.8109475e+00   2.4895202e-01
  -4.4601519e-01   4.7532049e+00   2.2790677e-01
  -5.2562480e-01   4.6151597e+00   1.4559786e-01
  -3.5193108e-01   4.4772318e+00   9.2283892e-02
  -2.8562878e-01   4.5214156e+00   9.6259127e-02
  -2.3204979e-01   4.5230520e+00   5.7910838e-02
  -2.3298395e-01   4.3922540e+00  -8.8486324e-03
  -2.9333311e-01   4.2851846e+00  -7.2450825e-02
  -3.1574500e-01   4.3478365e+00  -1.1395639e-01
  -5.3437961e-01   4.4343337e+00  -1.0705809e-01
  -5.1126701e-01   4.2703397e+00  -1.6656853e-01
  -4.5348608e-01   4.0953580e+00  -2.6279056e-01
  -6.5671203e-01   4.1412950e+00  -2.7495008e-01
  -4.4659879e-01   4.1402431e+00  -2.6033551e-01
  -3.2006405e-01   3.9976396e+00  -3.0873860e-01
  -3.7282560e-01   3.8219566e+00  -3.9221697e-01
  -1.8722601e-01   3.7452776e+00  -4.2226446e-01
  -2.6636834e-01   3.8253461e+00  -4.3699593e-01
  -3.4002481e-01   3.7865395e+00  -4.7242154e-01
  -3.4457730e-01   3.6307275e+00  -5.2164337e-01
  -4.7461405e-01   3.5518278e+00  -5.9518346e-01
  -5.5889286e-01   3.6192722e+00  -5.9915869e-01
  -6.1410554e-01   3.6143629e+00  -5.8524557e-01
  -5.2258967e-01   3.3504295e+00  -6.4884815e-01
  -4.1531537e-01   3.1950850e+00  -7.1934865e-01
  -3.7481024e-01   3.2072416e+00  -7.4857779e-01
  -3.5870165e-01   3.1948512e+00  -7.0847550e-01
  -2.4722502e-01   3.0347143e+00  -7.4553781e-01
  -1.8150593e-01   2.8432514e+00  -8.4199366e-01
  -3.9185260e-01   2.9018126e+00  -8.6140181e-01
  -4.3480925e-01   2.9161899e+00  -8.7040445e-01
  -4.5745458e-01   2.7932233e+00  -8.6970301e-01
  -6.5869627e-01   2.6803094e+00  -9.2640728e-01
  -5.4430163e-01   2.5306924e+00  -9.9012678e-01
  -4.6901108e-01   2.5184193e+00  -9.6592504e-01
  -5.4791997e-01   2.4810149e+00  -9.5107665e-01
  -3.1434436e-01   2.2143929e+00  -1.0200574e+00
  -2.2796458e-01   2.0495808e+00  -1.0983910e+00
  -2.5971489e-01   2.0738932e+00  -1.0780476e+00
  -2.4745846e-01   2.0865173e+00  -1.0637838e+00
  -3.8461554e-01   1.9459008e+00  -1.1058739e+00
  -3.3990809e-01   1.7224107e+00  -1.1763744e+00
  -5.1103357e-01   1.7667110e+00  -1.1985883e+00
  -7.1367591e-01   1.8338051e+00  -1.1261004e+00
  -4.8266815e-01   1.5515201e+00  -1.1788294e+00
  -5.0157843e-01   1.3341077e+00  -1.2595016e+00
  -4.6655956e-01   1.2960024e+00  -1.2345984e+00
  -2.3216691e-01   1.2520523e+00  -1.2267653e+00
  -2.4115477e-01   1.1352811e+00  -1.2414967e+00
  -2.1582448e-01   8.8584149e-01  -1.3134001e+00
  -2.7045395e-01   8.0320169e-01  -1.3338605e+00
  -2.8773014e-01   8.6994476e-01  -1.3247409e+00
  -3.9535461e-01   8.2494278e-01  -1.3171416e+00
  -6.1644034e-01   6.2377816e-01  -1.3173754e+00
  -4.2045146e-01   3.9771633e-01  -1.4056469e+00
  -4.6737660e-01   4.6060239e-01  -1.4014379e+00
  -5.8480676e-01   4.1349619e-01  -1.3401738e+00
  -2.8632910e-01   6.2130557e-02  -1.3639079e+00
  -1.6983310e-01  -8.7603334e-02  -1.4548688e+00
  -1.4391921e-01  -9.9058270e-02  -1.4515950e+00
  -1.4135097e-01  -1.1472125e-01  -1.3932540e+00
  -2.3730300e-01  -2.5615633e-01  -1.4153510e+00
  -2.5644632e-01  -4.6690542e-01  -1.4673786e+00
  -3.4084186e-01  -4.8619204e-01  -1.5234987e+00
  -4.8255143e-01  -4.8069833e-01  -1.4490230e+00
  -4.9153969e-01  -6.0237889e-01  -1.4058807e+00
  -3.8975163e-01  -8.6292279e-01  -1.4983617e+00
  -2.7745796e-01  -1.0299560e+00  -1.5281750e+00
  -2.6975363e-01  -1.0050588e+00  -1.4742769e+00
  -2.1605792e-01  -1.1102582e+00  -1.4341746e+00
  -3.4193382e-02  -1.3644902e+00  -1.5100532e+00
  -1.6684142e-02  -1.5120030e+00  -1.5639518e+00
  -1.7660328e-01  -1.4722610e+00  -1.5043244e+00
  -3.0687347e-01  -1.4458443e+00  -1.4658588e+00
  -2.5002631e-01  -1.6720231e+00  -1.4996477e+00
  -2.7734085e-01  -1.8797333e+00  -1.5523768e+00
  -4.6317427e-01  -1.8543686e+00  -1.5285261e+00
  -3.4562779e-01  -1.9000718e+00  -1.4553364e+00
  -1.7508591e-01  -2.1294067e+00  -1.4687819e+00
  -1.1240234e-01  -2.3744041e+00  -1.5377622e+00
   2.4988578e-02  -2.4353032e+00  -1.5204588e+00
   5.8448602e-03  -2.4104060e+00  -1.4663264e+00
  -7.3297861e-02  -2.5108130e+00  -1.4703017e+00
  -6.3842723e-02  -2.7493816e+00  -1.4920480e+00
  -4.0613398e-02  -2.8482692e+00  -1.5308643e+00
  -1.8103905e-01  -2.7279912e+00  -1.4809410e+00
  -3.9150244e-01  -2.8094622e+00  -1.3992166e+00
  -2.4979287e-01  -3.0815779e+00  -1.4544011e+00
  -1.5839372e-01  -3.2507153e+00  -1.4770827e+00
  -1.6819902e-01  -3.2442862e+00  -1.4460999e+00
   1.2731758e-02  -3.3152373e+00  -1.3925525e+00
   1.2899432e-01  -3.5626899e+00  -1.3986321e+00
   1.9646421e-01  -3.7141770e+00  -1.4611821e+00
   8.5337743e-02  -3.6854224e+00  -1.4065822e+00
   7.1680277e-02  -3.6542133e+00  -1.3822635e+00
  -9.7968530e-03  -3.8052329e+00  -1.3609849e+00
  -1.9224538e-01  -3.9892147e+00  -1.3891618e+00
  -6.9445695e-02  -4.0319960e+00  -1.4192093e+00
  -2.0601918e-01  -3.9909683e+00  -1.2945765e+00
  -9.3258622e-02  -4.1382473e+00  -1.2838203e+00
   1.2409167e-01  -4.4270779e+00  -1.3333928e+00
   1.3809930e-01  -4.5042244e+00  -1.3274302e+00
   3.0163755e-01  -4.4728981e+00  -1.2709593e+00
   1.6681487e-01  -4.5406934e+00  -1.2106305e+00
   2.7140461e-01  -4.7321563e+00  -1.2646459e+00
   2.4210543e-01  -4.8441351e+00  -1.2713100e+00
  -1.4115901e-02  -4.7306369e+00  -1.2098122e+00
  -4.6607622e-03  -4.7290002e+00  -1.1624612e+00
  -1.1625411e-01  -4.9671017e+00  -1.1563817e+00
  -1.2014933e-02  -5.1232644e+00  -1.2030312e+00
   8.6271506e-02  -5.1267707e+00  -1.1529910e+00
   2.3521814e-01  -5.1641752e+00  -1.0782814e+00
   3.4015804e-01  -5.3190521e+00  -1.0834257e+00
   2.8342760e-01  -5.4699544e+00  -1.0944158e+00
   4.1778339e-01  -5.4636426e+00  -1.0899729e+00
   2.9428338e-01  -5.4166536e+00  -1.0171343e+00
   2.7584038e-01  -5.5172944e+00  -9.9386781e-01
   2.3521814e-01  -5.6333644e+00  -1.0387637e+00
   2.4171143e-02  -5.6367542e+00  -1.0100026e+00
   5.0318871e-02  -5.6323124e+00  -9.3681280e-01
   1.2327463e-01  -5.7044323e+00  -8.9156621e-01
   2.7350558e-01  -5.8826871e+00  -9.0711604e-01
   3.0654020e-01  -6.0245893e+00  -9.1541723e-01
   4.2747197e-01  -6.0238880e+00  -8.9028023e-01
   5.0206220e-01  -5.9861329e+00  -8.2235169e-01
   4.4311368e-01  -6.0995147e+00  -7.9978704e-01
   4.7054494e-01  -6.2540406e+00  -8.5052866e-01
   3.1961367e-01  -6.1721021e+00  -8.1872757e-01
   2.5833074e-01  -6.0805787e+00  -7.4799286e-01
   1.2654319e-01  -6.1879988e+00  -7.0017431e-01
   1.3553145e-01  -6.3692924e+00  -7.2753254e-01
   3.5696734e-01  -6.4141775e+00  -7.5956785e-01
   3.6268704e-01  -6.3190305e+00  -6.4545745e-01
   4.5898884e-01  -6.4029563e+00  -5.9658634e-01
   5.0661430e-01  -6.5965230e+00  -6.4966650e-01
   5.5202247e-01  -6.6211865e+00  -6.4931578e-01
   6.4540586e-01  -6.5335205e+00  -6.1190236e-01
   5.3112755e-01  -6.4850117e+00  -5.4280514e-01
   3.9653871e-01  -6.5841331e+00  -5.3988206e-01
   3.1587862e-01  -6.6418757e+00  -5.5964094e-01
   2.6451732e-01  -6.5473134e+00  -5.3672557e-01
   3.2813505e-01  -6.5622751e+00  -4.6716033e-01
   3.6572177e-01  -6.6765915e+00  -4.0975422e-01
   3.8696685e-01  -6.7543224e+00  -4.8469758e-01
   5.7688549e-01  -6.7658942e+00  -4.5500081e-01
   6.8882939e-01  -6.7227623e+00  -3.6088350e-01
   6.0618466e-01  -6.7116580e+00  -3.5538808e-01
   5.4233389e-01  -6.7826091e+00  -3.5842806e-01
   6.5264331e-01  -6.7955838e+00  -3.9443820e-01
   5.5412343e-01  -6.6709809e+00  -3.2919892e-01
   2.2693060e-01  -6.6043547e+00  -2.5367102e-01
   3.0000307e-01  -6.6790463e+00  -3.0148996e-01
   4.3424215e-01  -6.7674136e+00  -2.9108444e-01
   3.9046846e-01  -6.6810333e+00  -2.2900165e-01
   5.4711982e-01  -6.6419925e+00  -1.9579767e-01
   6.8812907e-01  -6.7669461e+00  -1.9322532e-01
   6.4050321e-01  -6.7855314e+00  -2.1766087e-01
   7.0692223e-01  -6.7177361e+00  -1.8130001e-01
   7.5968418e-01  -6.5959386e+00  -1.2377698e-01
   5.5178863e-01  -6.5643789e+00  -1.1769742e-01
   4.4591497e-01  -6.6479542e+00  -1.3336415e-01
   4.7019478e-01  -6.5772364e+00  -1.3663795e-01
   3.4727877e-01  -6.3929040e+00  -5.0470713e-02
   3.6268704e-01  -6.4287886e+00  -1.4811289e-02
   5.3801484e-01  -6.6073936e+00  -7.2684640e-02
   5.3789812e-01  -6.5260395e+00  -3.1062559e-02
   6.2416118e-01  -6.3858904e+00   3.0786027e-02
   7.4450935e-01  -6.4162817e+00   4.3062454e-02
   7.2711643e-01  -6.4767129e+00   3.8970312e-02
   7.4042374e-01  -6.4201388e+00   1.6755993e-02
   5.2377377e-01  -6.2126623e+00   6.3990402e-02
   4.3984512e-01  -6.1177490e+00   1.1519965e-01
   4.9132275e-01  -6.1791152e+00   1.0444341e-01
   3.4179251e-01  -6.1731540e+00   1.0783411e-01
   4.8268504e-01  -6.0785914e+00   1.0853555e-01
   5.2739250e-01  -6.0120821e+00   1.7248847e-01
   5.0976614e-01  -6.0300830e+00   2.1528001e-01
   7.4976216e-01  -6.0745006e+00   1.5050836e-01
   7.2618267e-01  -5.9812236e+00   1.8850632e-01
   6.9758381e-01  -5.8105668e+00   2.6122805e-01
   6.7972441e-01  -5.7822801e+00   2.4637967e-01
   5.1256783e-01  -5.7891764e+00   2.2650388e-01
   5.1560256e-01  -5.6966010e+00   2.1855381e-01
   3.8311468e-01  -5.5285156e+00   2.6882741e-01
   3.0887461e-01  -5.4562788e+00   3.3161164e-01
   5.5867592e-01  -5.5592571e+00   2.9221080e-01
   4.6424165e-01  -5.5245413e+00   2.7385481e-01
   5.5050471e-01  -5.3888341e+00   3.2950731e-01
   7.8349710e-01  -5.3451181e+00   3.7089558e-01
   5.9100983e-01  -5.3077137e+00   3.6224367e-01
   8.1302933e-01  -5.3485076e+00   3.0998225e-01
   6.6349910e-01  -5.1600840e+00   3.5043526e-01
   3.2276552e-01  -4.8900721e+00   4.2070195e-01
   5.8272229e-01  -4.9938690e+00   3.8586087e-01
   3.7762843e-01  -4.9952715e+00   3.4447261e-01
   3.3490522e-01  -4.8398102e+00   3.6703725e-01
   4.5163506e-01  -4.6871543e+00   4.2795058e-01
   3.6315392e-01  -4.6553609e+00   4.5226923e-01
   6.9711693e-01  -4.8055619e+00   4.0234596e-01
   7.4042374e-01  -4.7015316e+00   4.0293049e-01
   5.4303421e-01  -4.4519751e+00   4.5519230e-01
   6.6770142e-01  -4.4003107e+00   4.7179429e-01
   5.8867542e-01  -4.4137529e+00   4.5308758e-01
   4.5513667e-01  -4.3253853e+00   4.1064715e-01
   4.5840524e-01  -4.1461955e+00   4.6127186e-01
   2.3276701e-01  -3.9425764e+00   5.0230941e-01
   3.1984711e-01  -4.0234630e+00   4.8453795e-01
   4.8875490e-01  -4.1050509e+00   4.4829399e-01
   3.8229764e-01  -3.8906782e+00   4.5390593e-01
   4.9027226e-01  -3.7549710e+00   5.5293412e-01
   6.2649559e-01  -3.7493604e+00   5.1329946e-01
   6.8089162e-01  -3.8132979e+00   4.7951055e-01
   5.9264431e-01  -3.6263938e+00   4.9190389e-01
   4.8070041e-01  -3.3632785e+00   5.0277704e-01
   3.6887361e-01  -3.3407189e+00   5.4416530e-01
   3.3081962e-01  -3.3695904e+00   4.6641617e-01
   2.8973089e-01  -3.2640403e+00   4.5226923e-01
   1.9459629e-01  -2.9996394e+00   5.2393880e-01
   3.4797909e-01  -2.9930934e+00   5.4627003e-01
   3.8790061e-01  -3.0698892e+00   4.9973706e-01
   5.6731402e-01  -3.0468621e+00   4.7331408e-01
   5.3439611e-01  -2.8482692e+00   5.0347848e-01
   4.0832825e-01  -2.6358830e+00   5.2347117e-01
   5.9346135e-01  -2.7283418e+00   5.1785924e-01
   4.2467029e-01  -2.6586764e+00   4.5507500e-01
   3.3140361e-01  -2.4244322e+00   4.7740623e-01
   1.2619303e-01  -2.2188262e+00   5.1061060e-01
   1.0378075e-01  -2.2475804e+00   4.8629195e-01
   2.6871965e-01  -2.3275320e+00   4.6583163e-01
   1.6226238e-01  -2.1315105e+00   4.5519230e-01
   3.4576101e-01  -2.0124017e+00   5.1493616e-01
   3.9618854e-01  -1.9841146e+00   5.1318256e-01
   4.3751071e-01  -1.9832964e+00   4.7869220e-01
   4.9856020e-01  -1.9039292e+00   4.6232403e-01
   3.6805657e-01  -1.6783349e+00   4.7892602e-01
   2.3148309e-01  -1.5139904e+00   5.0230941e-01
   2.0054982e-01  -1.5256790e+00   4.5297067e-01
   1.8549171e-01  -1.4956388e+00   4.4431876e-01
  -1.8201508e-02  -1.2659533e+00   4.6267475e-01
   7.4948841e-02  -1.1280254e+00   4.8547360e-01
   1.3973338e-01  -1.1870540e+00   4.6735143e-01
   2.5167729e-01  -1.2639664e+00   4.4046082e-01
   3.1611206e-01  -1.0728541e+00   4.6828668e-01
