**************************************************************************************
            UNIVERSIDAD AUTONOMA METROPOLITANA - AZCAPOTZALCO
                        Departamento de Materiales
                           Area de Estructuras
     AV. SAN PABLO 180,COL.REYNOSA, AZCAPOTZALCO, C.P.02200 CIUDAD DE MEXICO.
**************************************************************************************
ARCHIVO ESTANDAR DE ACELERACION:
VERSION DEL FORMATO                    : 2.0
NOMBRE DEL ARCHIVO                     : RIML201405241
FECHA Y HORA DE CREACION               : 08:22 p. m. 13/09/2014
REF. CATALOGO ACELEROGRAMAS, SMIS 1995 : REGISTRO NO.      /PAG.    


================================================================================
DATOS DE LA ESTACION:
NOMBRE DE LA ESTACION                  : UAM-LERMA.
CLAVE DE LA ESTACION                   : RIML
LOCALIZACION DE LA ESTACION            : AV. DE LAS GARZAS 10, EL PANTEON, C.P.52005,
                                       : LERMA DE VILLADA, ESTADO DE MEXICO. 
                                       :
                                       : 
                                       : 
COORDENADAS DE LA ESTACION             : 19.291481 LAT. N
                                       : 99.502060 LONG. W
ALTITUD (msnm)                         : 2570
TIPO DE SUELO                          : DEPOSITOS LACUSTRES
                                       : 
                                       : 
INSTITUCION RESPONSABLE                : UNIVERSIDAD AUTONOMA METROPOLITANA
                                       : 

================================================================================
DATOS DEL ACELEROGRAFO: 
MODELO DEL ACELEROGRAFO                : BASALT KINEMETRICS
NUMERO DE SERIE DEL ACELEROGRAFO       : 978
NUMERO DE CANALES                      : 3
ORIENTACION C1-C6 (rumbo;orientacion)  : /V/N00E/N90E
ORIENTACION C7-C12 (rumbo;orientacion) : 
VEL. DE MUESTREO, C1-C6 (muestras/s)   : /250/250/250
VEL. DE MUESTREO, C7-C12 (muestras/s)  : 
ESC. COMPLETA DE SENSORES, C1-C6, (g)  : /2/2/2
ESC. COMPLETA DE SENSORES, C7-C12 (g)  : 
FREC. NAT. DE SENSORES, C1-C6, (Hz)    : /210/212/212
FREC. NAT. DE SENSORES, C7-C12 (Hz)    : 
AMORTIGUAMIENTO DE SENSORES, C1-C6     : /0.7/0.7/0.7
AMORTIGUAMIENTO DE SENSORES, C7-C12    : 
INTERVALO DE MUESTREO, C1-C6 (s)       : /0.004/0.004/0.004
INTERVALO DE MUESTREO, C7-C12 (s)      : 
UMBRAL DE DISPARO, C1-C6 (Gal)         : /2/2/2
UMBRAL DE DISPARO, C7-C12 (Gal)        : 
MEMORIA DE PREEVENTO (s)               : 20
TIEMPO DE POSEVENTO (s)                : 30


================================================================================
DATOS DEL SISMO:
FECHA DEL SISMO [GMT]                  : 2014/05/24
HORA EPICENTRO (GMT)                   : 08:24:46
MAGNITUD(ES)                           : /M=5.7
COORDENADAS DEL EPICENTRO              : 16.2002 LAT. N
                                       : 98.4073 LONG. W
PROFUNDIDAD FOCAL (Km)                 : 4.5
FUENTE DE LOS DATOS EPICENTRALES       : SSN
                                       : INSTITUTO DE GEOFISICA, UNAM

================================================================================
DATOS DE ESTE REGISTRO:
HORA DE LA PRIMERA MUESTRA (GMT)       : 08:26:07.000
EXACTITUD DEL TIEMPO (s)               : 
DURACION DEL REGISTRO (s), C1-C6       : /97.00/97.00/97.00
DURACION DEL REGISTRO (s), C7-C12      : 
NUM. TOTAL DE MUESTRAS, C1-C6          : /24250/24250/24250
NUM. TOTAL DE MUESTRAS, C7-C12         : 
ACEL. MAX.(Gal), C1-C6                 : /-2.425/6.598/-6.105
ACEL. MAX., C1-C6, EN LA MUESTRA       : /7029/16376/6920
ACEL. MAX.(Gal), C7-C12                : 
ACEL. MAX., C7-C12,EN LA MUESTRA       : 
UNIDADES DE LOS DATOS                  : Gal (cm/s/s)
FACTOR DE DECIMACION                   : 1
FORMATO DATOS (FORTRAN,16 campos/dato) : 3E16.7


================================================================================
CALIDAD DEL ACELEROGRAMA:
REGISTRO DIGITAL COMPLETO CON TIEMPO ABSOLUTO CORRECTO


================================================================================
COMENTARIOS:














================================================================================
DATOS DE ACELERACION:
---------+---------+---------+---------+---------+---------+---------+---------+
   CANAL-1   	   CANAL-2   	      CANAL-3
         V           N00E              N90E
---------+---------+---------+---------+---------+---------+---------+---------+
[...]
   4.2482424e-01  -4.9129573e+00  -2.2492006e+00
   4.4723652e-01  -4.9016193e+00  -2.2151779e+00
   3.6809380e-01  -5.0203779e+00  -2.2338846e+00
   3.2887260e-01  -5.2026065e+00  -2.1425727e+00
   4.4350107e-01  -5.2131264e+00  -2.1537969e+00
   4.3871514e-01  -5.2376730e+00  -2.0872713e+00
   5.4155368e-01  -5.3750165e+00  -2.0786197e+00
   6.4964542e-01  -5.5863504e+00  -2.0513780e+00
   7.0135649e-01  -5.6172088e+00  -1.9956090e+00
   7.3882688e-01  -5.5987407e+00  -2.0161862e+00
   8.3431164e-01  -5.6847704e+00  -1.9073374e+00
   8.9197584e-01  -5.8169709e+00  -1.9323575e+00
   7.2540286e-01  -5.8397643e+00  -1.8950610e+00
   7.2015005e-01  -5.8053991e+00  -1.7950976e+00
   7.3497472e-01  -5.8273739e+00  -1.7580353e+00
   7.8038249e-01  -5.9662373e+00  -1.7028508e+00
   8.2672403e-01  -6.1324523e+00  -1.7071767e+00
   8.1096559e-01  -6.0269022e+00  -1.5847655e+00
   9.8057370e-01  -6.0627868e+00  -1.4942723e+00
   1.0645020e+00  -6.1938185e+00  -1.5229166e+00
   1.0593659e+00  -6.2775102e+00  -1.4845683e+00
   1.0349693e+00  -6.2259626e+00  -1.3636769e+00
   1.0496773e+00  -6.1173737e+00  -1.2914224e+00
   9.9049572e-01  -6.2387036e+00  -1.2679225e+00
   9.1800646e-01  -6.3116417e+00  -1.1998770e+00
   9.2069142e-01  -6.2913031e+00  -1.1346377e+00
   8.7014755e-01  -6.2000135e+00  -1.0143309e+00
   9.3960170e-01  -6.2632502e+00  -9.4406418e-01
   9.6072966e-01  -6.4090098e+00  -9.3260649e-01
   9.7695498e-01  -6.4351927e+00  -8.3229232e-01
   1.1179642e+00  -6.3344350e+00  -7.4261748e-01
   1.1724770e+00  -6.3112910e+00  -6.5586571e-01
   1.0451252e+00  -6.4209322e+00  -6.1915412e-01
   9.7765530e-01  -6.4072562e+00  -5.5800698e-01
   9.6820016e-01  -6.2925888e+00  -4.0718500e-01
   8.8777352e-01  -6.1954548e+00  -3.5398793e-01
   8.2473978e-01  -6.3140965e+00  -2.7553735e-01
   7.9240548e-01  -6.3496305e+00  -1.7650916e-01
   8.5649009e-01  -6.2749389e+00  -8.9640482e-02
   8.3863030e-01  -6.2063254e+00   1.3479856e-02
   9.3143048e-01  -6.2673409e+00   9.4152061e-02
   9.8676028e-01  -6.3583972e+00   1.7049831e-01
   8.5835762e-01  -6.2333268e+00   2.3211308e-01
   8.6466130e-01  -6.1458942e+00   3.4715873e-01
   8.4586775e-01  -6.1253219e+00   4.2654496e-01
   8.7458332e-01  -6.2455999e+00   4.8278161e-01
   6.9190135e-01  -6.1377122e+00   5.4521473e-01
   4.9299446e-01  -5.9524443e+00   6.6213129e-01
   6.1065766e-01  -6.0038751e+00   7.7507222e-01
   6.5653232e-01  -6.1174906e+00   8.0067684e-01
   6.9423615e-01  -6.1321016e+00   8.7901091e-01
   6.1626063e-01  -5.8853506e+00   9.9382274e-01
   6.3680500e-01  -5.8714409e+00   1.1058284e+00
   7.7886512e-01  -5.9909007e+00   1.1099206e+00
   6.1824527e-01  -5.9220534e+00   1.1704832e+00
   4.8599045e-01  -5.7394742e+00   1.3138223e+00
   4.7793634e-01  -5.5985070e+00   1.3894671e+00
   5.2813005e-01  -5.6782244e+00   1.4376368e+00
   4.2599144e-01  -5.7020697e+00   1.4683857e+00
   2.4797907e-01  -5.5288415e+00   1.5965257e+00
   3.7486398e-01  -5.3986280e+00   1.7051411e+00
   4.4245059e-01  -5.4246940e+00   1.7230291e+00
   4.0999957e-01  -5.5390108e+00   1.7465294e+00
   4.0836548e-01  -5.4267979e+00   1.8384255e+00
   4.2307343e-01  -5.1718649e+00   1.9444685e+00
   4.4478500e-01  -5.1789949e+00   1.9641104e+00
   3.5525338e-01  -5.2327636e+00   1.9713595e+00
   2.7541033e-01  -5.1752544e+00   2.0471212e+00
   1.6031497e-01  -4.9314258e+00   2.1431094e+00
   7.7320479e-02  -4.8303175e+00   2.1864855e+00
   1.8482822e-01  -4.9777135e+00   2.2090501e+00
   2.3350456e-01  -4.9688299e+00   2.2520755e+00
   1.4233885e-01  -4.7870687e+00   2.3186007e+00
   1.0638622e-01  -4.6062427e+00   2.3733176e+00
   2.1903005e-01  -4.6926234e+00   2.4065216e+00
   3.0575999e-01  -4.7268713e+00   2.3948301e+00
   1.8634598e-01  -4.5586693e+00   2.4369198e+00
   9.8681885e-02  -4.3352961e+00   2.5173582e+00
   8.3973935e-02  -4.3038529e+00   2.5420276e+00
   6.2495809e-02  -4.4042599e+00   2.5388707e+00
  -3.5089916e-02  -4.2341879e+00   2.5512640e+00
  -1.7983461e-01  -4.0244903e+00   2.6602301e+00
  -4.7346737e-02  -4.0175936e+00   2.6899269e+00
   6.1562045e-02  -4.1457033e+00   2.6615161e+00
  -1.8981321e-02  -4.0315034e+00   2.6916805e+00
  -4.8397221e-02  -3.7978441e+00   2.7674422e+00
  -3.2228877e-03  -3.7213992e+00   2.7890716e+00
   3.7982559e-02  -3.7693232e+00   2.7628824e+00
  -2.9020062e-02  -3.7544784e+00   2.8077783e+00
  -1.6407618e-01  -3.4903112e+00   2.8228605e+00
  -2.7882138e-01  -3.3094851e+00   2.8794479e+00
  -2.4882187e-01  -3.3686307e+00   2.8785126e+00
  -2.5407469e-01  -3.4128141e+00   2.8955822e+00
  -2.7018328e-01  -3.2183124e+00   2.9363860e+00
  -2.5232388e-01  -3.0495256e+00   2.9415303e+00
  -2.5068940e-01  -3.0653055e+00   3.0025609e+00
  -1.4971839e-01  -3.1202430e+00   2.9517024e+00
  -2.1076788e-01  -3.0007831e+00   2.9821006e+00
  -2.9563029e-01  -2.7272649e+00   3.0292177e+00
  -2.9901558e-01  -2.6616906e+00   3.0082897e+00
  -3.4220566e-01  -2.7166281e+00   3.0158891e+00
  -3.9286625e-01  -2.6171561e+00   3.0398570e+00
  -5.2161868e-01  -2.3826786e+00   3.0690861e+00
  -5.5010082e-01  -2.2740893e+00   3.0667476e+00
  -4.4411044e-01  -2.3412999e+00   3.0807776e+00
  -4.7212530e-01  -2.3196757e+00   3.0861558e+00
  -4.7726139e-01  -2.1068224e+00   3.1249721e+00
  -3.7640710e-01  -1.9497247e+00   3.0956260e+00
  -4.6477152e-01  -1.9480880e+00   3.1096561e+00
  -4.4866292e-01  -1.9589585e+00   3.1101237e+00
  -4.9021853e-01  -1.7424816e+00   3.0707228e+00
  -6.4278389e-01  -1.4687296e+00   3.1494076e+00
  -6.1080014e-01  -1.4890681e+00   3.1101237e+00
  -6.7838637e-01  -1.4914061e+00   3.0810115e+00
  -7.0208257e-01  -1.3408540e+00   3.0927034e+00
  -7.1620692e-01  -1.1270653e+00   3.1060316e+00
  -6.1208407e-01  -1.0746995e+00   3.1207630e+00
  -5.1496522e-01  -1.1080124e+00   3.0577454e+00
  -6.0648109e-01  -9.4214804e-01   3.0314389e+00
  -6.0122828e-01  -7.1608661e-01   3.0476906e+00
  -5.9434139e-01  -5.8797692e-01   3.0687354e+00
  -5.3866143e-01  -6.0644539e-01   3.0188122e+00
  -6.4698622e-01  -5.1912964e-01   2.9734487e+00
  -7.8426002e-01  -2.9844504e-01   2.9857247e+00
  -7.5624516e-01  -9.3773656e-02   2.9942597e+00
  -7.4550610e-01  -1.0674802e-01   2.9794113e+00
  -6.3893212e-01  -1.4403559e-01   2.9193163e+00
  -5.8208457e-01   6.0986429e-02   2.9007265e+00
  -6.0531389e-01   2.7009922e-01   2.9134706e+00
  -5.5815492e-01   3.5028455e-01   2.8657685e+00
  -5.0889537e-01   3.1977675e-01   2.8271864e+00
  -5.4368080e-01   4.8879727e-01   2.8105841e+00
  -5.9060594e-01   7.4408122e-01   2.7862658e+00
  -5.7904983e-01   8.3209785e-01   2.7570367e+00
  -6.0134500e-01   8.5722881e-01   2.7116732e+00
  -6.5130527e-01   9.6605188e-01   2.7010338e+00
  -5.4519817e-01   1.1556443e+00   2.6555534e+00
  -4.7772827e-01   1.2703117e+00   2.6203616e+00
  -5.0982913e-01   1.3092356e+00   2.6359114e+00
  -4.2718441e-01   1.3735242e+00   2.5673984e+00
  -3.8597896e-01   1.5586748e+00   2.5193460e+00
  -3.0963792e-01   1.7095775e+00   2.4958457e+00
  -3.3730301e-01   1.7979451e+00   2.4380889e+00
  -4.2099783e-01   1.8634025e+00   2.4538729e+00
  -3.3893710e-01   2.0217859e+00   2.3768248e+00
  -4.4702845e-01   2.2562638e+00   2.3195360e+00
  -4.7481026e-01   2.3024345e+00   2.3377751e+00
  -3.6181587e-01   2.2979927e+00   2.2630655e+00
  -3.3076589e-01   2.4425836e+00   2.2580381e+00
  -2.0201345e-01   2.6169809e+00   2.1876546e+00
  -1.4645022e-01   2.7080368e+00   2.1503580e+00
  -1.5952369e-01   2.7551426e+00   2.1322362e+00
  -1.1831824e-01   2.8599914e+00   2.0560069e+00
  -9.0302990e-02   3.1072099e+00   2.0376509e+00
  -9.6489957e-02   3.2154486e+00   1.9706580e+00
  -1.4399870e-01   3.2489952e+00   1.9437670e+00
  -2.3960018e-01   3.3700914e+00   1.8955978e+00
  -2.0481475e-01   3.5326831e+00   1.8676546e+00
  -7.9213766e-02   3.6769229e+00   1.8004279e+00
  -8.6567936e-02   3.6510907e+00   1.7623130e+00
  -4.1043442e-02   3.7330292e+00   1.7495694e+00
   1.5453948e-02   3.8701394e+00   1.6526455e+00
   6.5764373e-02   4.0132104e+00   1.6415385e+00
   1.6159929e-01   4.0867332e+00   1.5654261e+00
   1.1572464e-01   4.0985388e+00   1.5132816e+00
   1.7788357e-02   4.2922227e+00   1.4694379e+00
  -1.6763633e-02   4.4502554e+00   1.4003403e+00
  -3.6490953e-02   4.5132580e+00   1.3788278e+00
  -5.2832989e-02   4.5127905e+00   1.3220066e+00
   2.1640523e-02   4.5860795e+00   1.2718495e+00
   9.5997315e-02   4.7341767e+00   1.2180679e+00
   1.1747544e-01   4.8039591e+00   1.1800703e+00
   1.7082099e-01   4.7934391e+00   1.1150649e+00
   2.0292146e-01   4.8590134e+00   1.0516961e+00
   2.0712379e-01   5.0368003e+00   1.0052804e+00
   2.0502243e-01   5.1278565e+00   9.3688426e-01
   1.3031547e-01   5.1460908e+00   8.9970504e-01
   4.0550800e-02   5.2147044e+00   8.3364741e-01
   6.1155304e-03   5.3672434e+00   7.7577366e-01
   5.5608911e-02   5.4175053e+00   7.6560196e-01
   1.3661916e-01   5.3985693e+00   6.6645725e-01
   6.0278120e-02   5.4106090e+00   6.4704909e-01
   1.4245557e-01   5.5057561e+00   6.2635496e-01
   3.1136336e-01   5.6051108e+00   5.0289121e-01
   2.6537159e-01   5.5902659e+00   5.0078688e-01
   2.1961366e-01   5.6167998e+00   4.3811955e-01
   1.7303868e-01   5.7072713e+00   3.7428354e-01
   1.6941995e-01   5.8497579e+00   3.3897484e-01
   1.1759216e-01   5.8746551e+00   2.6134222e-01
   4.5803612e-02   5.8384199e+00   2.4345425e-01
   3.4130393e-02   5.8990848e+00   2.1247111e-01
   8.5141531e-02   5.9758803e+00   1.5974207e-01
   1.9171551e-01   5.9964526e+00   1.0818210e-01
   1.9953617e-01   5.9347357e+00   7.1236300e-02
   2.5066364e-01   5.9562430e+00   2.6925354e-02
   3.0342559e-01   6.0555981e+00  -4.7592273e-03
   2.9852294e-01   6.1308741e+00  -6.5088020e-02
   2.3992458e-01   6.1201205e+00  -1.1793397e-01
   1.4770838e-01   6.1049250e+00  -1.5406102e-01
   8.5725134e-02   6.2310473e+00  -1.7019578e-01
   7.8954565e-02   6.2983748e+00  -1.9217589e-01
   1.3580212e-01   6.2096569e+00  -2.8161692e-01
   9.9849089e-02   6.1814867e+00  -2.8266908e-01
   1.2961515e-01   6.2510352e+00  -2.9892035e-01
   2.4167578e-01   6.3008297e+00  -3.3376143e-01
   3.0786135e-01   6.2519703e+00  -3.8695849e-01
   3.1533185e-01   6.1975003e+00  -4.5114522e-01
   2.2953568e-01   6.2883224e+00  -4.6482453e-01
   1.7128787e-01   6.4066135e+00  -4.9487202e-01
   2.0992508e-01   6.3856902e+00  -5.0679733e-01
   2.0000306e-01   6.3297008e+00  -5.9799236e-01
   5.8820895e-03   6.3797289e+00  -6.0968386e-01
   5.1255784e-04   6.4458876e+00  -5.7916874e-01
   1.4887559e-01   6.4619016e+00  -6.4277093e-01
   1.9136535e-01   6.3405717e+00  -6.7387098e-01
   2.1716253e-01   6.3145053e+00  -7.1537615e-01
   2.0654018e-01   6.4498619e+00  -7.3373214e-01
   2.7330936e-01   6.4617847e+00  -7.6541633e-01
   2.4074162e-01   6.4291727e+00  -8.0341390e-01
   2.0887459e-01   6.3733002e+00  -8.4000897e-01
   1.3159979e-01   6.4875001e+00  -8.8174796e-01
  -5.8202521e-02   6.5976088e+00  -8.6023548e-01
   8.2339849e-02   6.4756941e+00  -9.1237999e-01
   8.9927069e-02   6.4153798e+00  -9.3272340e-01
   2.2807728e-02   6.4509138e+00  -9.2839744e-01
   1.1444032e-01   6.5134492e+00  -9.8697263e-01
   1.0335109e-01   6.4774477e+00  -9.8030853e-01
   2.4155906e-01   6.3591566e+00  -1.0466000e+00
   2.4319314e-01   6.3642997e+00  -1.0738413e+00
   8.9810349e-02   6.5219822e+00  -1.0808565e+00
   7.5219511e-02   6.5316835e+00  -1.1291427e+00
   1.4303918e-01   6.3699103e+00  -1.1425882e+00
   9.9615649e-02   6.3776251e+00  -1.2010461e+00
  -8.7268259e-02   6.5073711e+00  -1.1756753e+00
  -2.8436460e-02   6.4821233e+00  -1.1871333e+00
   1.0101669e-01   6.3251421e+00  -1.2425516e+00
   1.3171651e-01   6.2552433e+00  -1.2653501e+00
   8.2806731e-02   6.3273632e+00  -1.2607903e+00
   6.9149265e-02   6.3701441e+00  -1.2642979e+00
   2.4517739e-01   6.2181895e+00  -1.3393582e+00
   2.3152031e-01   6.1314585e+00  -1.3787591e+00
   1.8488680e-02   6.2183064e+00  -1.3796943e+00
  -4.9330984e-02   6.2675164e+00  -1.3399428e+00
   7.7670640e-02   6.1631351e+00  -1.4072864e+00
   6.6698136e-02   5.9997256e+00  -1.4540531e+00
  -8.2365609e-02   6.0040505e+00  -1.4041299e+00
  -4.6996576e-02   6.0390001e+00  -1.4127814e+00
   8.5841854e-02   5.9370733e+00  -1.4489088e+00
   1.5027623e-01   5.7675856e+00  -1.4911155e+00
   1.8739647e-01   5.6768804e+00  -1.4786056e+00
   1.1840921e-01   5.7698063e+00  -1.4947400e+00
   3.1971278e-03   5.7662996e+00  -1.4865557e+00
   1.4689134e-01   5.5260946e+00  -1.5217475e+00
   1.1362328e-01   5.4551435e+00  -1.5742431e+00
  -9.5555802e-02   5.5035350e+00  -1.5243198e+00
  -8.2132168e-02   5.4662478e+00  -1.5072498e+00
  -4.9214264e-02   5.3135915e+00  -1.5196432e+00
   2.0706760e-02   5.0916209e+00  -1.5481705e+00
   5.8410202e-02   5.0515282e+00  -1.5272425e+00
   1.7671637e-02   5.0698798e+00  -1.5294641e+00
   6.2612529e-02   4.9420042e+00  -1.5329714e+00
   1.9941945e-01   4.6863697e+00  -1.5360113e+00
   7.2417829e-02   4.6652130e+00  -1.5785687e+00
  -1.3185899e-01   4.7290337e+00  -1.5551857e+00
  -1.0185949e-01   4.5812871e+00  -1.5173046e+00
  -2.6452213e-02   4.3387442e+00  -1.5251382e+00
  -3.1588303e-02   4.1981276e+00  -1.5744769e+00
  -2.4053394e-01   4.2618318e+00  -1.5250213e+00
  -1.6792835e-01   4.0824083e+00  -1.4987152e+00
   3.0045178e-02   3.8385793e+00  -1.5266580e+00
   3.0628780e-02   3.6792609e+00  -1.5239691e+00
  -3.3572551e-02   3.6429088e+00  -1.5478197e+00
  -1.5660568e-01   3.6339083e+00  -1.5035084e+00
  -4.3900921e-03   3.3460127e+00  -1.5360113e+00
   2.6193012e-02   3.1669398e+00  -1.5707355e+00
  -1.9512617e-01   3.1293016e+00  -1.5294641e+00
  -3.3531837e-01   3.1197171e+00  -1.5321530e+00
  -3.2434587e-01   2.8972786e+00  -1.5074836e+00
  -1.9314192e-01   2.5774726e+00  -1.5445463e+00
  -2.2839423e-01   2.4981055e+00  -1.5438445e+00
  -2.3995034e-01   2.4438692e+00  -1.5163694e+00
  -1.7224739e-01   2.2612900e+00  -1.5658250e+00
  -1.5146959e-01   1.9910443e+00  -1.5540162e+00
  -1.2263729e-01   1.8415446e+00  -1.5909620e+00
  -2.7170065e-01   1.8356998e+00  -1.6012506e+00
  -3.3158293e-01   1.7244223e+00  -1.5810241e+00
  -2.6037798e-01   1.4361761e+00  -1.6442756e+00
  -4.0512268e-01   1.2574542e+00  -1.6417036e+00
  -4.4889637e-01   1.1851002e+00  -1.6304798e+00
  -4.6033575e-01   1.1031617e+00  -1.6448605e+00
  -4.4142547e-01   8.4764394e-01  -1.6732709e+00
  -2.6598095e-01   5.1743500e-01  -1.7061246e+00
  -3.1862618e-01   4.8073182e-01  -1.7023831e+00
  -3.7068741e-01   4.2766479e-01  -1.7430700e+00
  -3.0543559e-01   1.8582311e-01  -1.7940454e+00
  -2.9948246e-01  -5.6720236e-02  -1.8051524e+00
  -3.8446159e-01  -1.3328193e-01  -1.8556602e+00
  -5.7403046e-01  -1.4590566e-01  -1.8605707e+00
  -6.1873791e-01  -3.4134280e-01  -1.8419813e+00
  -5.0749433e-01  -6.4548575e-01  -1.9343450e+00
  -5.1333114e-01  -8.1427250e-01  -1.9448674e+00
  -5.6259069e-01  -8.5705378e-01  -1.9259269e+00
  -4.9687199e-01  -9.7990313e-01  -1.9632234e+00
  -4.3407170e-01  -1.2674481e+00  -1.9963104e+00
  -3.8142647e-01  -1.5048479e+00  -2.0768657e+00
  -4.5018029e-01  -1.4803014e+00  -2.0793212e+00
  -5.3550959e-01  -1.5596686e+00  -2.0768657e+00
  -4.8671653e-01  -1.8013934e+00  -2.1388316e+00
  -5.5313555e-01  -2.0147146e+00  -2.1881700e+00
  -6.9612944e-01  -2.0438194e+00  -2.1990435e+00
  -7.8110857e-01  -2.0469756e+00  -2.1541476e+00
  -6.4920430e-01  -2.3451573e+00  -2.2045385e+00
  -5.0212480e-01  -2.5956488e+00  -2.2621781e+00
  -5.6457532e-01  -2.6685868e+00  -2.2421854e+00
  -5.7122878e-01  -2.6847177e+00  -2.2753898e+00
  -5.0621041e-01  -2.8440361e+00  -2.2727005e+00
