**************************************************************************************
            UNIVERSIDAD AUTONOMA METROPOLITANA - AZCAPOTZALCO
                        Departamento de Materiales
                           Area de Estructuras
     AV. SAN PABLO 180,COL.REYNOSA, AZCAPOTZALCO, C.P.02200 CIUDAD DE MEXICO.
**************************************************************************************
ARCHIVO ESTANDAR DE ACELERACION:
VERSION DEL FORMATO                    : 2.0
NOMBRE DEL ARCHIVO                     : RIML201408111
FECHA Y HORA DE CREACION               : 11:49 a. m. 15/09/2014
REF. CATALOGO ACELEROGRAMAS, SMIS 1995 : REGISTRO NO.      /PAG.    


================================================================================
DATOS DE LA ESTACION:
NOMBRE DE LA ESTACION                  : UAM-LERMA.
CLAVE DE LA ESTACION                   : RIML
LOCALIZACION DE LA ESTACION            : AV. DE LAS GARZAS 10, EL PANTEON, C.P.52005,
                                       : LERMA DE VILLADA, ESTADO DE MEXICO. 
                                       :
                                       : 
                                       : 
COORDENADAS DE LA ESTACION             : 19.291481 LAT. N
                                       : 99.502060 LONG. W
ALTITUD (msnm)                         : 2570
TIPO DE SUELO                          : DEPOSITOS LACUSTRES
                                       : 
                                       : 
INSTITUCION RESPONSABLE                : UNIVERSIDAD AUTONOMA METROPOLITANA
                                       : 

================================================================================
DATOS DEL ACELEROGRAFO: 
MODELO DEL ACELEROGRAFO                : BASALT KINEMETRICS
NUMERO DE SERIE DEL ACELEROGRAFO       : 978
NUMERO DE CANALES                      : 3
ORIENTACION C1-C6 (rumbo;orientacion)  : /V/N00E/N90E
ORIENTACION C7-C12 (rumbo;orientacion) : 
VEL. DE MUESTREO, C1-C6 (muestras/s)   : /250/250/250
VEL. DE MUESTREO, C7-C12 (muestras/s)  : 
ESC. COMPLETA DE SENSORES, C1-C6, (g)  : /2/2/2
ESC. COMPLETA DE SENSORES, C7-C12 (g)  : 
FREC. NAT. DE SENSORES, C1-C6, (Hz)    : /210/212/212
FREC. NAT. DE SENSORES, C7-C12 (Hz)    : 
AMORTIGUAMIENTO DE SENSORES, C1-C6     : /0.7/0.7/0.7
AMORTIGUAMIENTO DE SENSORES, C7-C12    : 
INTERVALO DE MUESTREO, C1-C6 (s)       : /0.004/0.004/0.004
INTERVALO DE MUESTREO, C7-C12 (s)      : 
UMBRAL DE DISPARO, C1-C6 (Gal)         : /2/2/2
UMBRAL DE DISPARO, C7-C12 (Gal)        : 
MEMORIA DE PREEVENTO (s)               : 20
TIEMPO DE POSEVENTO (s)                : 30


================================================================================
DATOS DEL SISMO:
FECHA DEL SISMO [GMT]                  : 2014/08/11
HORA EPICENTRO (GMT)                   : 01:09:40
MAGNITUD(ES)                           : /M=5.2
COORDENADAS DEL EPICENTRO              : 16.2375 LAT. N
                                       : 98.1947 LONG. W
PROFUNDIDAD FOCAL (Km)                 : 8.5
FUENTE DE LOS DATOS EPICENTRALES       : SSN
                                       : INSTITUTO DE GEOFISICA, UNAM

================================================================================
DATOS DE ESTE REGISTRO:
HORA DE LA PRIMERA MUESTRA (GMT)       : 01:11:03.000
EXACTITUD DEL TIEMPO (s)               : 
DURACION DEL REGISTRO (s), C1-C6       : /62.00/62.00/62.00
DURACION DEL REGISTRO (s), C7-C12      : 
NUM. TOTAL DE MUESTRAS, C1-C6          : /15500/15500/15500
NUM. TOTAL DE MUESTRAS, C7-C12         : 
ACEL. MAX.(Gal), C1-C6                 : /0.983/1.422/-1.492
ACEL. MAX., C1-C6, EN LA MUESTRA       : /7578/6666/7237
ACEL. MAX.(Gal), C7-C12                : 
ACEL. MAX., C7-C12,EN LA MUESTRA       : 
UNIDADES DE LOS DATOS                  : Gal (cm/s/s)
FACTOR DE DECIMACION                   : 1
FORMATO DATOS (FORTRAN,16 campos/dato) : 3E16.7


================================================================================
CALIDAD DEL ACELEROGRAMA:
REGISTRO DIGITAL COMPLETO CON TIEMPO ABSOLUTO CORRECTO


================================================================================
COMENTARIOS:














================================================================================
DATOS DE ACELERACION:
---------+---------+---------+---------+---------+---------+---------+---------+
   CANAL-1   	   CANAL-2   	      CANAL-3
         V           N00E              N90E
---------+---------+---------+---------+---------+---------+---------+---------+
[...]
  -6.3843472e-01   1.6574567e-01   5.3793369e-01
  -5.6909729e-01   2.8635899e-02   5.3442608e-01
  -4.2692084e-01  -8.7784704e-02   4.6883607e-01
  -3.4684435e-01   1.7999117e-02   3.9786795e-01
  -3.6236935e-01   1.7112250e-01   4.7479912e-01
  -3.7894482e-01   1.5931693e-01   4.8847804e-01
  -3.8758292e-01   5.0727617e-02   3.5741494e-01
  -3.9820526e-01   1.5277091e-01   3.5075084e-01
  -6.5360955e-01   3.6013091e-01   3.6443015e-01
  -6.2197596e-01   3.5159795e-01   3.7869400e-01
  -3.8361403e-01   2.3237186e-01   3.1368853e-01
  -5.2065479e-01   1.8362974e-01   2.5838713e-01
  -4.4431336e-01   3.4154556e-01   2.9860633e-01
  -2.6303242e-01   3.9028807e-01   2.6738938e-01
  -2.3128211e-01   2.2676127e-01   2.4950141e-01
  -1.2821014e-01   1.7229129e-01   1.7841637e-01
  -1.8108841e-01   3.4738991e-01   1.1598286e-01
  -2.8964703e-01   5.1979991e-01   1.5678659e-01
  -3.0003593e-01   3.9496362e-01   1.4462746e-01
  -2.6945283e-01   3.2377837e-01   5.3315921e-02
  -2.4493958e-01   4.2664021e-01  -6.9949411e-04
  -3.4334235e-01   5.5404823e-01   4.5949986e-02
  -2.3863628e-01   4.8707141e-01   4.9223779e-02
   1.7818485e-02   2.5984080e-01  -2.6070306e-02
   6.6728264e-02   3.4294811e-01  -9.3297012e-02
   5.8907603e-02   4.6556409e-01  -8.3008399e-02
   3.9279701e-03   4.6883670e-01  -4.1386318e-02
   8.1552934e-02   3.7988504e-01  -1.0580725e-01
   1.2194134e-01   3.2705138e-01  -2.1290243e-01
  -1.7992121e-01   5.5661997e-01  -1.8951904e-01
  -2.1855880e-01   6.1050515e-01  -1.2626757e-01
  -6.3442115e-03   4.3949770e-01  -1.8729781e-01
   2.8207779e-02   3.4119492e-01  -2.3289512e-01
   1.5717517e-02   4.0361307e-01  -2.3090770e-01
   8.2603418e-02   5.2704720e-01  -2.4657444e-01
   1.8229050e-01   4.3049761e-01  -2.1746221e-01
   2.4112230e-01   2.6393196e-01  -2.2810154e-01
   2.6703620e-01   3.4493545e-01  -3.4688861e-01
   6.8596183e-02   5.5545078e-01  -3.4396554e-01
  -5.3736625e-02   5.5884067e-01  -2.1956653e-01
   5.8090560e-02   3.9332692e-01  -2.8375365e-01
   4.0347487e-02   3.7743019e-01  -4.2241651e-01
  -5.6438889e-03   5.2576153e-01  -3.5448797e-01
  -5.0602867e-03   5.5919131e-01  -2.5382307e-01
   9.9646168e-02   4.0770423e-01  -3.4373173e-01
   2.7053820e-01   2.6767209e-01  -4.1165988e-01
   3.0205507e-01   3.9811936e-01  -3.6594565e-01
   1.4493722e-01   5.5813940e-01  -3.4653789e-01
   1.4598771e-01   4.4464077e-01  -3.7249324e-01
   1.6594847e-01   3.5042916e-01  -4.2124705e-01
   1.9433310e-03   4.7059028e-01  -4.2124705e-01
  -5.1285104e-02   6.5176700e-01  -3.9786405e-01
  -1.3147831e-01   5.6071074e-01  -3.7237633e-01
   4.8285260e-02   3.6691029e-01  -3.9856549e-01
   1.1867317e-01   4.0863926e-01  -4.6766310e-01
   8.3637382e-03   5.5381448e-01  -4.2031179e-01
   2.8816416e-01   5.2377419e-01  -3.5331890e-01
   2.2127826e-01   3.5300050e-01  -4.3212059e-01
   9.5327120e-02   4.0209364e-01  -5.0612830e-01
   1.7762129e-01   5.8256909e-01  -4.2849607e-01
  -1.0217913e-01   6.9676860e-01  -3.8956286e-01
  -1.2552518e-01   5.5112626e-01  -4.1785674e-01
   8.7039186e-02   4.2780900e-01  -4.7689916e-01
  -1.0264601e-01   6.3949352e-01  -4.6766310e-01
  -9.1906948e-02   6.8414487e-01  -3.4443317e-01
   8.0852612e-02   5.6971121e-01  -3.7155759e-01
   6.4043694e-02   4.3190016e-01  -4.3527708e-01
   1.9081188e-01   4.8146082e-01  -4.3597852e-01
   7.9101805e-02   7.2166580e-01  -3.6816728e-01
   4.4666535e-02   6.4229901e-01  -3.3788598e-01
   7.1630914e-02   5.1746233e-01  -4.2545610e-01
  -1.8505730e-01   6.1857060e-01  -3.6805037e-01
  -1.4140033e-01   7.6818761e-01  -3.3239095e-01
  -1.7898744e-01   7.7870751e-01  -3.3472909e-01
  -2.1120463e-01   5.8630961e-01  -2.6878836e-01
   4.5250137e-02   4.9805883e-01  -3.1894545e-01
   3.8246520e-02   6.7865116e-01  -3.1976380e-01
  -2.0251638e-03   7.1430203e-01  -2.1033008e-01
   1.0770027e-01   5.3464474e-01  -2.0635524e-01
   1.0443210e-01   5.0811122e-01  -2.8796270e-01
   5.9122174e-03   6.4101295e-01  -2.6890527e-01
  -1.6649718e-01   7.8805862e-01  -1.4965057e-01
  -1.9171075e-01   6.8519678e-01  -1.4497389e-01
  -8.0701003e-02   5.1979991e-01  -2.1278553e-01
  -1.5657516e-01   5.9998525e-01  -1.4403864e-01
  -1.4023313e-01   7.1593834e-01  -8.2306956e-02
  -2.6538413e-02   6.3423357e-01  -6.4652801e-02
   6.9529946e-02   4.0489913e-01  -2.5251956e-02
   2.1205656e-01   3.9706745e-01  -7.7513371e-02
   3.7078924e-02   5.8175093e-01  -6.2080451e-02
  -4.5565411e-02   5.9379027e-01   8.3947946e-02
   3.0542188e-02   4.3026386e-01   8.7221738e-02
  -1.5260627e-01   4.1179539e-01  -1.4495714e-02
  -1.1245131e-01   5.3020294e-01   7.2139540e-02
  -1.4455217e-01   5.7999736e-01   1.8122214e-01
  -2.3746869e-01   4.3751075e-01   1.6251582e-01
   9.9179286e-02   1.9870832e-01   1.5538370e-01
   1.8030626e-01   2.9069923e-01   1.6321727e-01
   8.2470178e-03   4.2383472e-01   2.5511334e-01
   2.2104482e-01   2.5715219e-01   3.1275288e-01
   2.3108356e-01   1.5101773e-01   2.3804372e-01
  -8.2101649e-02   2.4160609e-01   2.4552617e-01
   7.3615553e-02   3.4715615e-01   3.4432055e-01
  -7.4981310e-02   3.6585837e-01   3.8921643e-01
  -2.1925913e-01   2.1226708e-01   3.7705691e-01
   1.4341946e-01   6.1130641e-02   3.6068873e-01
  -6.0156640e-02   2.6755521e-01   4.2510966e-01
  -2.2803359e-02   2.8450425e-01   4.9900047e-01
   2.3341797e-01  -5.3786641e-03   4.8356755e-01
   2.3073340e-01  -2.1158519e-02   4.8099559e-01
   2.7614117e-01   1.0075579e-01   4.7795562e-01
   8.6572304e-02   2.1974813e-01   5.4635179e-01
   1.2567678e-01   1.0134019e-01   6.1112344e-01
   9.7077927e-02  -3.7423567e-03   5.2624219e-01
  -1.2669238e-01   1.7568118e-01   5.2308530e-01
  -3.5643391e-02   2.0560458e-01   6.3298665e-01
   5.9374485e-02   1.0928875e-01   6.9202946e-01
   1.0524914e-01  -1.4262260e-02   5.9756104e-01
   2.7474053e-01  -4.7458277e-02   5.7710072e-01
   3.3579002e-01   9.0352769e-02   7.1132071e-01
   2.6213355e-01   1.2951040e-01   6.7238749e-01
   2.9049896e-01  -3.7522769e-02   6.2106133e-01
   2.5162792e-01  -3.2964092e-02   6.5625313e-01
   1.6244646e-01   1.8316183e-01   6.5473295e-01
   8.9607427e-02   2.3389168e-01   6.6759391e-01
   8.4704778e-02   1.0180771e-01   6.9354925e-01
   1.6653207e-01  -1.8587179e-02   6.6876298e-01
   1.5415892e-01   1.3640666e-01   5.9709341e-01
   2.1205656e-01   2.2512496e-01   6.7402419e-01
   3.7115905e-01   4.1142747e-02   7.3821131e-01
   4.6781101e-01  -6.0199275e-02   6.2117824e-01
   3.7267641e-01   4.6168940e-02   5.5932926e-01
   3.2995360e-01   2.2769630e-01   6.3076541e-01
   3.1804694e-01   1.9227919e-01   6.6408630e-01
   1.5719365e-01   9.5262084e-02   5.7265785e-01
   2.2933275e-01   1.1980866e-01   5.1723955e-01
   2.0003358e-01   2.5516524e-01   5.5360042e-01
   1.1505444e-01   2.7924430e-01   6.0866800e-01
   3.9894047e-01   6.5104923e-02   5.5184681e-01
   4.2578852e-01   2.7583987e-02   4.7012244e-01
   3.9613918e-01   1.5288779e-01   4.9993612e-01
   5.8162244e-01   1.8281120e-01   5.1712265e-01
   4.4224728e-01   1.1139258e-01   4.8672444e-01
   3.6520592e-01   6.4520528e-02   4.1552249e-01
   3.7349346e-01   1.7392799e-01   4.2931871e-01
   2.0727063e-01   3.4236372e-01   4.4931140e-01
   2.0423590e-01   2.4078793e-01   4.3972423e-01
   2.9796946e-01   2.4778496e-02   4.2978634e-01
   3.3579002e-01   1.2448421e-01   3.3543482e-01
   3.5505045e-01   2.2757942e-01   3.9681578e-01
   4.8730489e-01   1.2389982e-01   4.7643582e-01
   5.5500783e-01  -2.9574598e-02   3.8933333e-01
   5.1730439e-01  -3.1795301e-02   2.9147421e-01
   4.9535938e-01   1.4458899e-01   3.5004939e-01
   3.9193685e-01   1.9251295e-01   4.5889818e-01
   3.4291035e-01   5.5052536e-02   3.4350220e-01
   3.4524515e-01  -4.2198325e-02   2.6610340e-01
   2.5851482e-01   1.2495173e-01   3.5870131e-01
   2.4614167e-01   2.0922823e-01   3.9938813e-01
   4.3582726e-01  -4.2548963e-02   3.5776566e-01
   5.4076716e-01  -1.8410092e-01   3.1906665e-01
   5.6259545e-01  -6.9550388e-02   3.1894974e-01
   5.5290687e-01   3.4012730e-02   3.6127326e-01
   5.3668155e-01  -5.6926268e-02   3.6548231e-01
   5.2699297e-01  -1.8678914e-01   3.0725785e-01
   3.4209331e-01  -9.2577139e-02   2.8749897e-01
   2.8956520e-01   3.7519495e-02   2.9755377e-01
   2.8991536e-01  -3.6587737e-02   3.6279306e-01
   2.5314529e-01  -1.8152919e-01   3.2327570e-01
   3.8376564e-01  -2.5084399e-01   2.2529967e-01
   3.9193685e-01  -1.3465714e-01   3.0129519e-01
   3.3543985e-01  -1.0753884e-01   3.3543482e-01
   4.9150722e-01  -3.4634166e-01   2.5324283e-01
   5.4893798e-01  -3.9064237e-01   1.8297614e-01
   3.1419478e-01  -2.1414081e-01   2.0203318e-01
   2.3201732e-01  -1.3313732e-01   2.3137923e-01
   2.2839860e-01  -2.5972758e-01   1.8285923e-01
   1.1201932e-01  -3.9473314e-01   1.1680160e-01
   1.0291434e-01  -2.9233921e-01   6.9801005e-02
   4.6884223e-02  -1.6352824e-01   1.1306018e-01
   5.9257764e-02  -3.0578148e-01   1.2475168e-01
   2.1812642e-01  -5.2950533e-01   3.5267017e-04
   2.3925477e-01  -4.7374969e-01  -7.7162650e-02
   1.5030675e-01  -3.2588625e-01  -2.2679606e-02
   1.0840098e-01  -3.3231500e-01  -3.4020383e-02
   3.6845483e-02  -4.9058145e-01  -1.4579263e-01
  -7.8600036e-02  -4.9397134e-01  -2.1103192e-01
  -1.4420201e-01  -3.0905409e-01  -2.4201467e-01
  -2.7050331e-01  -2.8941684e-01  -2.2740010e-01
  -2.8462766e-01  -4.0513616e-01  -2.5966882e-01
  -1.8680810e-01  -5.5557133e-01  -3.7705301e-01
  -1.9206091e-01  -4.5130733e-01  -4.2498847e-01
  -1.8610778e-01  -3.7486212e-01  -4.0125436e-01
  -7.2646902e-02  -5.2833654e-01  -4.4544879e-01
  -1.0661490e-01  -5.7158533e-01  -5.8352711e-01
  -2.3711853e-01  -5.3289522e-01  -6.1930344e-01
  -2.7318788e-01  -3.2693816e-01  -6.2748733e-01
  -5.0337860e-01  -3.1162583e-01  -6.9845546e-01
  -4.4629800e-01  -5.1828415e-01  -7.3376416e-01
  -3.5781686e-01  -4.8462023e-01  -8.4308097e-01
  -5.6384448e-01  -2.7527368e-01  -8.7371299e-01
  -4.3649270e-01  -3.0180720e-01  -8.3174019e-01
  -3.3692233e-01  -5.4844131e-01  -9.1252930e-01
  -2.3361691e-01  -5.2599856e-01  -1.0102711e+00
  -2.6104818e-01  -3.5393920e-01  -1.0826425e+00
  -3.9552069e-01  -2.9011850e-01  -1.0043085e+00
  -3.1812878e-01  -3.7918704e-01  -1.0509580e+00
  -5.2520728e-01  -3.8374572e-01  -1.2396610e+00
  -5.8088723e-01  -2.3868739e-01  -1.1903223e+00
  -5.3326138e-01  -1.4985260e-01  -1.1677576e+00
  -7.1699383e-01  -1.6691813e-01  -1.2141733e+00
  -5.5602382e-01  -3.4680918e-01  -1.2818676e+00
  -3.4976276e-01  -3.2962638e-01  -1.3080572e+00
  -3.9587085e-01  -1.1537052e-01  -1.3033805e+00
  -3.8875012e-01  -1.3395587e-01  -1.3259451e+00
  -3.2641671e-01  -3.1606762e-01  -1.3054848e+00
  -3.2536623e-01  -2.7480616e-01  -1.4240381e+00
  -4.5061704e-01  -1.1106132e-02  -1.4483563e+00
  -6.5314267e-01   9.5612721e-02  -1.3658136e+00
  -6.1719003e-01  -9.1525227e-02  -1.3545897e+00
  -4.1769914e-01  -1.7054177e-01  -1.4568913e+00
  -5.7820227e-01   5.5052536e-02  -1.4918493e+00
  -5.3384498e-01   7.6326101e-02  -1.3617215e+00
  -3.0353755e-01  -5.5523719e-02  -1.3945751e+00
  -3.6762216e-01  -1.2647482e-01  -1.4052144e+00
  -1.5797581e-01  -8.3927693e-02  -1.4745459e+00
  -2.8416078e-01   1.2132808e-01  -1.4602820e+00
  -4.9007168e-01   9.2456593e-02  -1.3032636e+00
  -2.7633973e-01  -5.0263768e-02  -1.4145678e+00
  -4.4804880e-01   3.5882795e-02  -1.4739609e+00
  -6.0411617e-01   2.2231947e-01  -1.3737641e+00
  -4.9835923e-01   1.7568118e-01  -1.2921562e+00
  -3.7964554e-01  -3.0158994e-02  -1.3527188e+00
  -2.9244832e-01  -7.3758427e-02  -1.3835851e+00
  -2.4984223e-01   4.6870215e-02  -1.3015096e+00
  -1.9789733e-01   1.1548374e-01  -1.2929750e+00
  -1.6031061e-01  -5.8095059e-02  -1.2567306e+00
  -2.1517352e-01  -1.1279879e-01  -1.2747359e+00
  -2.9758441e-01   4.9091310e-02  -1.3330769e+00
  -3.5793358e-01   1.5487513e-01  -1.2512356e+00
  -4.6976076e-01   8.6378488e-02  -1.1176005e+00
  -3.9143508e-01  -1.1794186e-01  -1.1947651e+00
  -3.5116340e-01  -5.5406840e-02  -1.2590691e+00
  -3.7836122e-01   7.9482229e-02  -1.0998291e+00
  -2.4423926e-01  -5.2718229e-02  -1.0217292e+00
  -1.4315153e-01  -2.2758309e-01  -1.0895404e+00
  -1.3486359e-01  -2.4301230e-01  -1.1395806e+00
  -2.2742995e-01  -6.8030567e-02  -1.0044254e+00
  -2.1458992e-01  -4.5821970e-02  -9.4889017e-01
  -2.5381112e-01  -2.1472560e-01  -1.0105049e+00
  -4.4221239e-01  -2.0736143e-01  -9.7309191e-01
  -4.3345757e-01  -9.0940831e-02  -9.6198495e-01
  -4.0660992e-01  -6.1601825e-02  -8.6985467e-01
  -3.3377049e-01  -2.4675283e-01  -8.2004869e-01
  -1.5272299e-01  -4.1004548e-01  -8.8996426e-01
  -2.1015415e-01  -2.4429797e-01  -8.5617575e-01
  -1.5785909e-01  -1.9333477e-01  -7.3212746e-01
  -1.8484312e-02  -3.5580965e-01  -7.3809012e-01
  -1.6988247e-01  -3.9859054e-01  -8.1630727e-01
  -2.0723575e-01  -3.0391102e-01  -7.4720966e-01
  -2.6886923e-01  -1.4272219e-01  -6.9436371e-01
  -3.7637697e-01  -2.1846573e-01  -6.4221881e-01
  -2.4365566e-01  -3.8164190e-01  -6.6080861e-01
  -2.9723425e-01  -3.1150895e-01  -6.8349017e-01
  -2.7015315e-01  -2.3880426e-01  -5.6891254e-01
  -1.7433828e-02  -2.8065051e-01  -5.3559125e-01
   8.0135769e-03  -4.2594260e-01  -5.3196674e-01
   2.2934923e-03  -4.6439857e-01  -5.7043233e-01
  -1.0429818e-02  -2.8065051e-01  -5.0484232e-01
  -2.6421693e-02  -1.8480220e-01  -4.1961035e-01
  -1.2692582e-01  -2.8836492e-01  -4.6789692e-01
  -2.1587384e-01  -3.6971905e-01  -4.4053829e-01
  -1.0206241e-01  -2.2816748e-01  -4.3352347e-01
  -2.4937535e-01  -6.5108590e-02  -3.6863491e-01
  -2.2602930e-01  -2.2395944e-01  -2.9918657e-01
   1.8194034e-01  -4.2641012e-01  -3.3987340e-01
   1.3559880e-01  -2.5435036e-01  -3.4045793e-01
  -1.0429818e-02  -1.0368183e-01  -2.9836822e-01
   2.5069416e-01  -2.4067472e-01  -2.1208408e-01
   2.4077214e-01  -2.7936445e-01  -2.4774351e-01
   6.6378103e-02  -1.5651510e-01  -3.2794809e-01
   3.4511074e-02  -2.1041640e-02  -1.9852168e-01
  -5.1751986e-02   3.3077697e-02  -1.3480219e-01
  -8.4455710e-03  -8.5330243e-02  -1.8390711e-01
   4.0230767e-02  -1.1583804e-01  -1.7139726e-01
   5.7039685e-02   2.0453578e-02  -1.4158359e-01
   1.2859519e-01   4.0207714e-02  -6.2431173e-02
   3.3555658e-01  -6.1952462e-02  -4.5712275e-02
   4.2333700e-01  -1.6271009e-01  -9.0491241e-02
   2.1217328e-01   2.2089885e-02  -7.0381643e-02
   1.7341897e-01   2.0969574e-01  -2.9109891e-02
   2.2699795e-01   7.9599108e-02   2.4320596e-02
   1.4435362e-01   5.9728092e-02   2.2099360e-02
   9.8945846e-02   1.0718454e-01  -3.4956033e-02
   8.4588057e-02   2.6977630e-01   3.5895188e-02
   5.3286153e-03   2.7901015e-01   1.8367758e-01
   2.4252295e-01   1.6946813e-02   1.2650528e-01
   4.5730539e-01   5.3649987e-02   3.2621788e-02
   2.2256219e-01   2.1028014e-01   1.5468226e-01
   2.7929302e-01   2.4850235e-01   2.3792681e-01
   4.7423103e-01   1.2273063e-01   1.7981926e-01
   1.9711517e-01   1.2892601e-01   1.4486127e-01
   7.7817489e-02   2.8497176e-01   2.1793412e-01
   2.0225126e-01   3.4458481e-01   2.8036725e-01
  -4.2764120e-02   3.4446793e-01   2.9580016e-01
   4.3382610e-02   1.3897840e-01   2.9100658e-01
   2.6470179e-01   1.5955069e-01   2.7908127e-01
   5.0386228e-02   3.8549563e-01   3.9868669e-01
   2.3260093e-01   2.1998189e-01   4.4065949e-01
   4.7936712e-01  -5.0280268e-03   3.6828809e-01
   1.7155144e-01   1.5721271e-01   3.9471145e-01
   1.3733270e-02   3.3651937e-01   4.6591340e-01
   2.0808768e-01   2.6884088e-01   5.1127690e-01
   4.7000944e-02   1.4365395e-01   5.1490141e-01
  -9.9494560e-02   1.3804297e-01   4.9911738e-01
  -5.2569420e-02   2.9934907e-01   5.2986670e-01
