**************************************************************************************
            UNIVERSIDAD AUTONOMA METROPOLITANA - AZCAPOTZALCO
                        Departamento de Materiales
                           Area de Estructuras
     AV. SAN PABLO 180,COL.REYNOSA, AZCAPOTZALCO, C.P.02200 CIUDAD DE MEXICO.
**************************************************************************************
ARCHIVO ESTANDAR DE ACELERACION:
VERSION DEL FORMATO                    : 2.0
NOMBRE DEL ARCHIVO                     : RIML201408041
FECHA Y HORA DE CREACION               : 11:08 a. m. 15/09/2014
REF. CATALOGO ACELEROGRAMAS, SMIS 1995 : REGISTRO NO.      /PAG.    


================================================================================
DATOS DE LA ESTACION:
NOMBRE DE LA ESTACION                  : UAM-LERMA.
CLAVE DE LA ESTACION                   : RIML
LOCALIZACION DE LA ESTACION            : AV. DE LAS GARZAS 10, EL PANTEON, C.P.52005,
                                       : LERMA DE VILLADA, ESTADO DE MEXICO. 
                                       :
                                       : 
                                       : 
COORDENADAS DE LA ESTACION             : 19.291481 LAT. N
                                       : 99.502060 LONG. W
ALTITUD (msnm)                         : 2570
TIPO DE SUELO                          : DEPOSITOS LACUSTRES
                                       : 
                                       : 
INSTITUCION RESPONSABLE                : UNIVERSIDAD AUTONOMA METROPOLITANA
                                       : 

================================================================================
DATOS DEL ACELEROGRAFO: 
MODELO DEL ACELEROGRAFO                : BASALT KINEMETRICS
NUMERO DE SERIE DEL ACELEROGRAFO       : 978
NUMERO DE CANALES                      : 3
ORIENTACION C1-C6 (rumbo;orientacion)  : /V/N00E/N90E
ORIENTACION C7-C12 (rumbo;orientacion) : 
VEL. DE MUESTREO, C1-C6 (muestras/s)   : /250/250/250
VEL. DE MUESTREO, C7-C12 (muestras/s)  : 
ESC. COMPLETA DE SENSORES, C1-C6, (g)  : /2/2/2
ESC. COMPLETA DE SENSORES, C7-C12 (g)  : 
FREC. NAT. DE SENSORES, C1-C6, (Hz)    : /210/212/212
FREC. NAT. DE SENSORES, C7-C12 (Hz)    : 
AMORTIGUAMIENTO DE SENSORES, C1-C6     : /0.7/0.7/0.7
AMORTIGUAMIENTO DE SENSORES, C7-C12    : 
INTERVALO DE MUESTREO, C1-C6 (s)       : /0.004/0.004/0.004
INTERVALO DE MUESTREO, C7-C12 (s)      : 
UMBRAL DE DISPARO, C1-C6 (Gal)         : /2/2/2
UMBRAL DE DISPARO, C7-C12 (Gal)        : 
MEMORIA DE PREEVENTO (s)               : 20
TIEMPO DE POSEVENTO (s)                : 30


================================================================================
DATOS DEL SISMO:
FECHA DEL SISMO [GMT]                  : 2014/08/04
HORA EPICENTRO (GMT)                   : 00:21:50
MAGNITUD(ES)                           : /M=5.0
COORDENADAS DEL EPICENTRO              : 17.1147 LAT. N
                                       : 100.823 LONG. W
PROFUNDIDAD FOCAL (Km)                 : 16.2
FUENTE DE LOS DATOS EPICENTRALES       : SSN
                                       : INSTITUTO DE GEOFISICA, UNAM

================================================================================
DATOS DE ESTE REGISTRO:
HORA DE LA PRIMERA MUESTRA (GMT)       : 0:22:46.000
EXACTITUD DEL TIEMPO (s)               : 
DURACION DEL REGISTRO (s), C1-C6       : /61.00/61.00/61.00
DURACION DEL REGISTRO (s), C7-C12      : 
NUM. TOTAL DE MUESTRAS, C1-C6          : /15250/15250/15250
NUM. TOTAL DE MUESTRAS, C7-C12         : 
ACEL. MAX.(Gal), C1-C6                 : /1.002/-1.546/1.935
ACEL. MAX., C1-C6, EN LA MUESTRA       : /7363/7384/6179
ACEL. MAX.(Gal), C7-C12                : 
ACEL. MAX., C7-C12,EN LA MUESTRA       : 
UNIDADES DE LOS DATOS                  : Gal (cm/s/s)
FACTOR DE DECIMACION                   : 1
FORMATO DATOS (FORTRAN,16 campos/dato) : 3E16.7


================================================================================
CALIDAD DEL ACELEROGRAMA:
REGISTRO DIGITAL COMPLETO CON TIEMPO ABSOLUTO CORRECTO


================================================================================
COMENTARIOS:














================================================================================
DATOS DE ACELERACION:
---------+---------+---------+---------+---------+---------+---------+---------+
   CANAL-1   	   CANAL-2   	      CANAL-3
         V           N00E              N90E
---------+---------+---------+---------+---------+---------+---------+---------+
[...]
  -1.4373233e-01  -9.3586325e-02  -2.2207142e-01
   1.3350064e-01  -1.9703256e-01  -2.7094214e-01
   2.8303087e-01  -8.0962598e-02  -2.8204949e-01
  -3.4532419e-01   5.7433236e-02  -2.4218102e-01
  -4.3520597e-01  -1.9750008e-01  -2.6369350e-01
  -2.4892437e-03  -3.7902744e-01  -3.2776372e-01
   5.7859921e-02  -2.6120429e-01  -3.5266690e-01
  -1.5540515e-01  -1.9703256e-01  -2.8508908e-01
  -4.7909599e-01  -2.8551671e-01  -3.3068639e-01
  -2.2322482e-01  -6.1163488e-01  -4.1381404e-01
   2.0342166e-01  -5.7037343e-01  -4.1767198e-01
  -7.9414277e-02  -3.8604058e-01  -4.0621429e-01
  -4.5563361e-01  -4.9883793e-01  -3.7862225e-01
  -3.2828144e-01  -7.2712045e-01  -5.1319257e-01
   1.0350787e-02  -7.9211033e-01  -5.8872046e-01
  -1.0159273e-01  -5.6698354e-01  -5.0851628e-01
  -5.0139155e-01  -5.9433560e-01  -4.9916292e-01
  -5.5006749e-01  -7.9164282e-01  -6.1479311e-01
  -2.7575332e-01  -9.3576612e-01  -6.6728834e-01
  -6.1437763e-02  -8.2016367e-01  -6.5816880e-01
  -3.9971982e-01  -6.9532699e-01  -6.4495751e-01
  -6.0808225e-01  -9.2980450e-01  -6.7079595e-01
  -1.7349800e-01  -1.0879545e+00  -8.2185174e-01
  -1.5563107e-02  -9.9701547e-01  -8.0279431e-01
  -3.7672433e-01  -8.0976064e-01  -7.9928670e-01
  -6.6399565e-01  -9.0958285e-01  -8.2547587e-01
  -4.3905774e-01  -1.1295666e+00  -9.1935976e-01
  -2.1003463e-01  -1.0930975e+00  -1.0308978e+00
  -2.1715496e-01  -9.6124772e-01  -9.2590695e-01
  -4.9368722e-01  -9.2372639e-01  -9.9114623e-01
  -6.6189468e-01  -1.0933313e+00  -1.0637515e+00
  -1.2353813e-01  -1.2269343e+00  -1.1356548e+00
  -2.3150719e-02  -1.0303284e+00  -1.1907224e+00
  -4.7279269e-01  -9.2851883e-01  -1.0969554e+00
  -4.9788954e-01  -1.1232547e+00  -1.1865134e+00
  -1.4793426e-01  -1.1843872e+00  -1.3120814e+00
  -1.7338128e-01  -1.0186397e+00  -1.2955964e+00
  -3.4730843e-01  -8.9064726e-01  -1.2608722e+00
  -4.8925145e-01  -9.7281954e-01  -1.3015590e+00
  -4.9181969e-01  -1.0794215e+00  -1.3769700e+00
   1.1949301e-01  -1.0777852e+00  -1.3742811e+00
  -3.5874030e-02  -8.7171127e-01  -1.3673828e+00
  -5.1061325e-01  -8.4646343e-01  -1.3463380e+00
  -2.6886603e-01  -1.0925131e+00  -1.3545223e+00
   9.7314170e-02  -1.0361731e+00  -1.4623189e+00
   4.8754944e-02  -8.4143723e-01  -1.3934551e+00
  -2.9979969e-01  -8.0087705e-01  -1.3133674e+00
  -3.1287316e-01  -9.3401254e-01  -1.3873755e+00
  -2.0279718e-01  -9.8322256e-01  -1.3789574e+00
   1.9688453e-01  -9.0058276e-01  -1.3631738e+00
   2.8560742e-02  -7.8498031e-01  -1.3373354e+00
  -5.2380344e-01  -8.2963166e-01  -1.3196812e+00
   7.5494971e-03  -1.0664471e+00  -1.3240072e+00
   3.9217310e-01  -9.7656006e-01  -1.3283327e+00
   1.2206086e-01  -7.8720102e-01  -1.3291515e+00
  -9.8908156e-02  -8.8491979e-01  -1.2786436e+00
  -1.3497751e-01  -9.8953442e-01  -1.3169919e+00
   2.0960824e-01  -9.2945386e-01  -1.3096264e+00
   2.7077444e-01  -8.5137274e-01  -1.2577153e+00
  -1.2867422e-01  -7.8860357e-01  -1.2902182e+00
  -1.6194189e-01  -9.2980450e-01  -1.2886984e+00
   2.3400477e-01  -1.0112759e+00  -1.2810987e+00
   4.5847539e-01  -8.5452887e-01  -1.2696410e+00
   1.5999813e-01  -8.4997019e-01  -1.2295387e+00
  -9.7740560e-02  -8.9882918e-01  -1.2485962e+00
   2.2466635e-01  -1.0102236e+00  -1.2814494e+00
   5.3878532e-01  -9.1963523e-01  -1.2485962e+00
   2.3844053e-01  -7.7504481e-01  -1.1951653e+00
  -8.8869415e-02  -8.5569766e-01  -1.2087277e+00
  -4.1593723e-02  -9.0256971e-01  -1.2370212e+00
   2.3785654e-01  -8.7065936e-01  -1.1578692e+00
   3.9053901e-01  -7.5914807e-01  -1.1378765e+00
  -5.8745279e-03  -8.0344839e-01  -1.1378765e+00
  -1.0193576e-02  -8.9462115e-01  -1.1355379e+00
   3.2855537e-01  -8.7849065e-01  -1.1100502e+00
   3.8808749e-01  -7.5657634e-01  -1.0321842e+00
   3.5633718e-01  -7.6148565e-01  -1.0493707e+00
   4.1867655e-02  -8.1338390e-01  -1.0664403e+00
   7.7353409e-02  -7.3354920e-01  -1.0538136e+00
   4.4470160e-01  -7.3495214e-01  -9.5443464e-01
   3.9193966e-01  -6.2940208e-01  -9.6823086e-01
  -8.4433647e-02  -6.3361012e-01  -9.7735041e-01
   6.8949146e-02  -7.6452490e-01  -9.0778516e-01
   5.9014623e-01  -6.4763639e-01  -9.4554892e-01
   3.4069547e-01  -5.4863234e-01  -8.6300620e-01
   2.4871272e-01  -6.5126004e-01  -8.4979451e-01
   2.0061998e-01  -6.6423479e-01  -8.9504111e-01
   3.4583156e-01  -6.1619356e-01  -8.4862544e-01
   6.2026245e-01  -5.2431953e-01  -8.1015985e-01
   2.0995840e-01  -4.9731850e-01  -8.1086169e-01
   2.1440012e-02  -5.7142534e-01  -8.5505573e-01
   2.1953026e-01  -5.2034525e-01  -8.1062787e-01
   4.8065424e-01  -4.6494024e-01  -7.8654304e-01
   4.3139430e-01  -4.3630251e-01  -8.2021465e-01
   1.8217658e-01  -4.9252606e-01  -8.1319983e-01
   2.4205887e-01  -4.8691508e-01  -8.3705085e-01
   6.4232457e-01  -4.6856389e-01  -8.1401818e-01
   7.7668037e-01  -4.0345713e-01  -8.4441639e-01
   2.0879119e-01  -3.5342895e-01  -9.1211112e-01
   1.7844153e-01  -4.0637911e-01  -8.7083976e-01
   6.1921197e-01  -3.5892266e-01  -8.8861082e-01
   5.9096366e-01  -3.4197402e-01  -9.1935976e-01
   4.1832043e-01  -3.0047841e-01  -9.4835508e-01
   2.4556087e-01  -3.5693572e-01  -9.9664126e-01
   4.0407936e-01  -3.0795946e-01  -9.7021829e-01
   7.8706927e-01  -3.1766120e-01  -9.6215130e-01
   7.1212887e-01  -3.8007935e-01  -1.0287935e+00
   2.8629944e-01  -3.0071217e-01  -1.0753260e+00
   2.6879020e-01  -3.5927330e-01  -1.0489031e+00
   8.1216612e-01  -3.2514186e-01  -1.0399004e+00
   7.1352952e-01  -3.4033732e-01  -1.0843287e+00
   1.9980294e-01  -3.5611717e-01  -1.1551799e+00
   3.0789428e-01  -3.6897505e-01  -1.1630135e+00
   4.8999265e-01  -3.4571415e-01  -1.1053735e+00
   5.0236580e-01  -3.3203851e-01  -1.1367070e+00
   3.4244627e-01  -4.4109495e-01  -1.1888519e+00
   1.4797515e-01  -4.4109495e-01  -1.2308247e+00
   3.3906138e-01  -4.2706867e-01  -1.2058046e+00
   6.4932819e-01  -4.6587528e-01  -1.1614933e+00
   4.4411761e-01  -5.2911197e-01  -1.2571308e+00
  -9.9725199e-02  -4.2928937e-01  -1.3056512e+00
   1.6070480e-02  -4.4717344e-01  -1.2642629e+00
   3.9812623e-01  -4.9147376e-01  -1.2559617e+00
   2.1847977e-01  -4.7849939e-01  -1.2888154e+00
  -1.2283741e-01  -5.2759254e-01  -1.3392063e+00
  -1.9135779e-01  -4.6938204e-01  -1.3512485e+00
   1.4540691e-01  -5.3589135e-01  -1.2833199e+00
   4.3606350e-01  -5.6768521e-01  -1.3031957e+00
   1.1051110e-02  -5.6873712e-01  -1.3664476e+00
  -2.6396338e-01  -5.1754015e-01  -1.3722933e+00
   7.7003247e-02  -4.6178411e-01  -1.3234222e+00
   1.2404550e-01  -5.1941022e-01  -1.2676532e+00
   1.5253437e-02  -5.3250185e-01  -1.3380368e+00
  -2.4948927e-01  -4.8259056e-01  -1.3459873e+00
  -2.3408060e-01  -4.1467831e-01  -1.2809818e+00
   1.6606799e-01  -4.5009542e-01  -1.2079089e+00
   1.3373408e-01  -5.3180019e-01  -1.2232250e+00
  -4.1943884e-02  -5.1508530e-01  -1.2532724e+00
  -1.4174769e-01  -3.9200219e-01  -1.1575180e+00
   2.2081418e-01  -4.4834223e-01  -1.0895899e+00
   4.3034381e-01  -5.0363036e-01  -1.0550995e+00
   5.0272309e-02  -4.9322734e-01  -1.0652712e+00
  -1.1700100e-01  -3.8194981e-01  -1.0239999e+00
   2.3191210e-02  -2.8727029e-01  -8.7352862e-01
   3.1676582e-01  -4.7242129e-01  -8.1588909e-01
   2.3050276e-01  -4.5325155e-01  -8.5306831e-01
  -2.3909997e-01  -3.4512975e-01  -7.4959725e-01
  -6.1787924e-02  -3.0807633e-01  -6.0777790e-01
   5.3189842e-01  -4.4880975e-01  -5.6194677e-01
   4.1867059e-01  -5.1789079e-01  -5.6241440e-01
   7.9921650e-02  -3.9001486e-01  -5.2161067e-01
   9.4162718e-02  -3.5179265e-01  -3.8809251e-01
   3.9077245e-01  -3.0866073e-01  -3.0999226e-01
   4.9781331e-01  -4.3221174e-01  -2.8052931e-01
   1.7669033e-01  -3.7809241e-01  -2.9713169e-01
  -2.6769052e-02  -2.3233280e-01  -2.1493930e-01
   2.1988042e-01  -2.6529505e-01  -3.9097227e-02
   7.2076658e-01  -3.7879368e-01  -5.2308911e-02
   4.0407936e-01  -4.0053476e-01  -8.3759287e-02
   1.0034929e-01  -2.1479936e-01  -4.7237815e-03
   5.5220935e-01  -2.4145015e-01   1.0798333e-01
   6.7104015e-01  -3.0258262e-01   1.4948851e-01
   5.1485606e-01  -2.8925723e-01   1.1757050e-01
   2.3972446e-01  -2.1316305e-01   1.2446842e-01
   1.3221632e-01  -1.1297164e-02   2.3436976e-01
   3.4478107e-01  -1.0831427e-01   3.6777140e-01
   6.2656614e-01  -2.8902347e-01   2.7575803e-01
   3.9439118e-01  -1.3321148e-01   2.3553883e-01
  -1.1606723e-01   9.1564286e-02   3.8250249e-01
   3.3054001e-01   1.4885715e-02   4.9731433e-01
   7.5380120e-01  -1.9224013e-01   4.7954326e-01
   3.2715472e-01  -7.5936404e-02   3.6671885e-01
  -1.4162462e-02   1.0839645e-01   4.7206042e-01
   2.0318822e-01   1.1938386e-01   6.1516614e-01
   4.7131582e-01   1.6873052e-02   6.1504923e-01
   2.7089116e-01  -7.0910211e-02   5.8605391e-01
   1.1167831e-02   1.3118944e-01   5.6489215e-01
  -4.0426518e-02   2.3416816e-01   7.0565933e-01
   1.5894765e-01   1.1611086e-01   8.2456292e-01
   3.5365222e-01  -1.7609028e-02   7.6762482e-01
   3.8716203e-02   3.5341126e-02   7.4213710e-01
  -2.3699901e-01   2.7531274e-01   8.5180463e-01
   9.3462395e-02   1.4521611e-01   1.0192286e+00
   3.7431369e-01  -4.2389357e-02   9.5843219e-01
   2.1556733e-02   7.9408076e-02   8.7214805e-01
  -3.9003164e-01   2.4562310e-01   1.0026266e+00
  -1.3847913e-01   2.3124579e-01   1.1342743e+00
   1.5287740e-01   4.2705293e-02   1.1515777e+00
  -1.0777178e-02   4.3523447e-02   1.0395720e+00
  -2.4400262e-01   1.9454301e-01   1.0884431e+00
  -3.4450675e-01   2.5953289e-01   1.2375111e+00
   7.9571489e-02   7.0290722e-02   1.2778472e+00
   2.9225257e-01  -5.1857349e-02   1.2161155e+00
  -2.8544190e-01   1.8133449e-01   1.2004488e+00
  -3.9785230e-01   2.5684427e-01   1.3350195e+00
  -3.0854659e-02   1.5643728e-01   1.3986217e+00
  -3.0732375e-03   5.4627746e-02   1.3675221e+00
  -2.0886703e-01   1.0605847e-01   1.3275367e+00
  -4.8773408e-01   3.3609458e-01   1.4239925e+00
  -3.8291091e-01   2.6397468e-01   1.5569265e+00
   1.5299452e-01   1.7574326e-02   1.5204484e+00
   1.2906487e-01   4.6211666e-02   1.4228234e+00
  -4.9438754e-01   3.3001647e-01   1.5094583e+00
  -2.8077269e-01   3.3025023e-01   1.6750118e+00
   2.0995840e-01   8.3265478e-02   1.6404045e+00
  -5.5834791e-02   1.4065743e-01   1.5635906e+00
  -2.1762185e-01   3.0815851e-01   1.5928198e+00
  -4.7104189e-01   4.4059273e-01   1.7242336e+00
  -2.4248526e-01   3.1669108e-01   1.8163635e+00
   3.1104613e-01   7.9057438e-02   1.7069302e+00
  -1.5131955e-01   3.2148351e-01   1.6504593e+00
  -5.9547527e-01   5.7957257e-01   1.8172987e+00
  -1.5820645e-01   3.4638072e-01   1.9112995e+00
   3.6567560e-01   1.3282614e-01   1.8075951e+00
  -8.5515757e-04   3.4731576e-01   1.7042409e+00
  -4.0158774e-01   5.6028634e-01   1.7946172e+00
  -2.5100663e-01   5.6449398e-01   1.9227572e+00
  -9.8441274e-02   4.2200738e-01   1.8496848e+00
  -5.6410871e-03   3.5409553e-01   1.7532289e+00
  -3.7147152e-01   6.5017303e-01   1.7466813e+00
  -6.9212762e-01   7.8389331e-01   1.8736527e+00
  -2.5450864e-01   5.3153173e-01   1.9346829e+00
   1.0338442e-01   4.4912569e-01   1.7413032e+00
  -4.0894152e-01   6.8640869e-01   1.7126590e+00
  -7.0286669e-01   8.6396177e-01   1.8402145e+00
  -2.0162997e-01   6.9961681e-01   1.8757570e+00
  -9.3538624e-02   5.7442949e-01   1.7775476e+00
  -3.5116060e-01   7.6390541e-01   1.6724398e+00
  -6.7298390e-01   9.5782313e-01   1.7349898e+00
  -7.2387793e-01   9.7839542e-01   1.8036198e+00
  -2.4890527e-01   7.4613862e-01   1.7846793e+00
  -2.1983993e-01   7.3059213e-01   1.6503424e+00
  -5.7142929e-01   1.0319300e+00   1.6695167e+00
  -7.4850790e-01   1.0807894e+00   1.7937988e+00
  -3.1439053e-01   8.0820612e-01   1.7626992e+00
   7.8637725e-02   6.8909691e-01   1.6511608e+00
  -4.9940691e-01   1.0457229e+00   1.5924691e+00
  -8.2041317e-01   1.1621435e+00   1.7604776e+00
  -4.4711224e-01   9.3783524e-01   1.7898236e+00
  -2.7306836e-01   8.2363534e-01   1.6273101e+00
  -4.8971833e-01   9.4554965e-01   1.6316361e+00
  -6.8138817e-01   1.2039893e+00   1.6950045e+00
  -7.3368323e-01   1.0861662e+00   1.7616466e+00
  -3.9143228e-01   8.1685596e-01   1.7423558e+00
  -7.6612595e-02   8.3544091e-01   1.5931705e+00
  -5.8742117e-01   1.1226352e+00   1.6664772e+00
  -6.5419035e-01   1.1343243e+00   1.7939157e+00
  -1.6591078e-01   8.0621879e-01   1.7109050e+00
  -2.1213559e-01   8.7775468e-01   1.6312854e+00
  -5.2030143e-01   1.1510392e+00   1.6352602e+00
  -6.3376270e-01   1.1439092e+00   1.7555671e+00
  -3.0120034e-01   9.5747250e-01   1.7747414e+00
  -9.1203824e-02   8.4151902e-01   1.6183075e+00
  -2.6116209e-01   9.8412289e-01   1.6160859e+00
  -4.2411635e-01   1.1900799e+00   1.7451615e+00
  -3.9691853e-01   1.0396448e+00   1.7601268e+00
   7.0466511e-02   7.5595685e-01   1.6677631e+00
   2.5338153e-01   8.5963685e-01   1.5870909e+00
  -3.8991452e-01   1.1728971e+00   1.6668279e+00
  -4.9882331e-01   1.1103621e+00   1.7961370e+00
   1.5392828e-01   7.4017700e-01   1.6821439e+00
   1.6583455e-01   8.1603741e-01   1.5535358e+00
  -3.9049852e-01   1.1631954e+00   1.6315192e+00
  -5.7119585e-01   1.1121153e+00   1.7466813e+00
  -1.7313914e-02   7.6928225e-01   1.7126590e+00
   3.8505276e-01   6.6618704e-01   1.5370507e+00
   8.0738693e-02   8.8359902e-01   1.5488592e+00
  -2.7306836e-01   1.0345017e+00   1.6581760e+00
  -1.6240877e-01   8.3310333e-01   1.6497579e+00
   3.3194065e-01   5.4602591e-01   1.5274636e+00
   1.7715721e-01   7.9593264e-01   1.4119503e+00
  -4.4687880e-01   1.0090201e+00   1.5472225e+00
  -2.3349700e-01   7.9593264e-01   1.5886107e+00
   3.1746614e-01   5.4251915e-01   1.4619905e+00
   2.0388854e-01   5.5853276e-01   1.3263676e+00
  -3.8325550e-02   8.2597292e-01   1.3795647e+00
  -1.5061923e-01   7.3526768e-01   1.5064187e+00
   4.1984375e-02   4.8851669e-01   1.2983075e+00
   5.2244328e-01   3.8974640e-01   1.2322499e+00
  -5.6410871e-03   6.4736793e-01   1.2276901e+00
  -4.4676208e-01   8.1685596e-01   1.2245336e+00
  -1.0543737e-02   4.5298270e-01   1.2742231e+00
   9.0077111e-02   3.3469203e-01   1.0641245e+00
   6.1244814e-02   4.9038715e-01   1.0043802e+00
  -3.4754187e-01   6.6408282e-01   1.0545373e+00
  -4.5551689e-01   5.1855697e-01   1.0533682e+00
   2.4614447e-01   1.5655416e-01   9.4440215e-01
   2.8419847e-01   2.7519586e-01   7.5137355e-01
  -2.8158974e-01   5.6624756e-01   7.8352537e-01
  -4.1419433e-01   4.8933523e-01   8.0223208e-01
   8.0855413e-02   1.4708656e-01   6.7607947e-01
   2.7357613e-01   1.5176173e-01   5.0164028e-01
  -1.9287516e-01   4.4047585e-01   4.5767967e-01
  -5.1656638e-01   4.5473628e-01   5.0397882e-01
  -1.7629968e-01   2.0003672e-01   3.9092059e-01
   1.8824683e-01   5.1237860e-02   2.2899164e-01
  -1.2668958e-01   2.9927492e-01   1.5919259e-01
  -3.5828094e-01   3.9839584e-01   1.8994152e-01
  -2.1341952e-01   1.4030679e-01   1.2739149e-01
   1.5544565e-01  -4.7298672e-02  -2.0741629e-02
   2.3283717e-01   9.6006084e-02  -1.1637913e-01
  -3.8734668e-01   4.0459122e-01  -1.2947351e-01
  -5.5170197e-01   2.7005279e-01  -1.0690886e-01
  -1.1991940e-01  -7.3228826e-03  -2.1949907e-01
   1.0291753e-01   4.3757205e-02  -3.4693766e-01
  -1.7314784e-01   3.0769060e-01  -3.2776372e-01
  -5.5205213e-01   3.4135453e-01  -2.8462145e-01
  -1.5412123e-01  -6.8553662e-03  -3.6868435e-01
   2.5945178e-01  -4.8350584e-02  -5.0138416e-01
   5.5875282e-02   2.0401100e-01  -4.7472737e-01
  -2.1050151e-01   3.1587293e-01  -4.0036854e-01
  -2.6945003e-01   1.5491786e-01  -4.3801578e-01
   1.6793552e-01  -8.1079477e-02  -5.4148645e-01
   2.3914086e-01   1.5748959e-01  -5.8872046e-01
  -2.8847663e-01   4.5134639e-01  -4.7811768e-01
  -3.7065448e-01   2.3253146e-01  -4.3252036e-01
