**************************************************************************************
            UNIVERSIDAD AUTONOMA METROPOLITANA - AZCAPOTZALCO
                        Departamento de Materiales
                           Area de Estructuras
     AV. SAN PABLO 180,COL.REYNOSA, AZCAPOTZALCO, C.P.02200 CIUDAD DE MEXICO.
**************************************************************************************
ARCHIVO ESTANDAR DE ACELERACION:
VERSION DEL FORMATO                    : 2.0
NOMBRE DEL ARCHIVO                     : RIML201408131
FECHA Y HORA DE CREACION               : 10:04 a. m. 18/09/2014
REF. CATALOGO ACELEROGRAMAS, SMIS 1995 : REGISTRO NO.      /PAG.    


================================================================================
DATOS DE LA ESTACION:
NOMBRE DE LA ESTACION                  : UAM-LERMA.
CLAVE DE LA ESTACION                   : RIML
LOCALIZACION DE LA ESTACION            : AV. DE LAS GARZAS 10, EL PANTEON, C.P.52005,
                                       : LERMA DE VILLADA, ESTADO DE MEXICO. 
                                       :
                                       : 
                                       : 
COORDENADAS DE LA ESTACION             : 19.291481 LAT. N
                                       : 99.502060 LONG. W
ALTITUD (msnm)                         : 2570
TIPO DE SUELO                          : DEPOSITOS LACUSTRES
                                       : 
                                       : 
INSTITUCION RESPONSABLE                : UNIVERSIDAD AUTONOMA METROPOLITANA
                                       : 

================================================================================
DATOS DEL ACELEROGRAFO: 
MODELO DEL ACELEROGRAFO                : BASALT KINEMETRICS
NUMERO DE SERIE DEL ACELEROGRAFO       : 978
NUMERO DE CANALES                      : 3
ORIENTACION C1-C6 (rumbo;orientacion)  : /V/N00E/N90E
ORIENTACION C7-C12 (rumbo;orientacion) : 
VEL. DE MUESTREO, C1-C6 (muestras/s)   : /250/250/250
VEL. DE MUESTREO, C7-C12 (muestras/s)  : 
ESC. COMPLETA DE SENSORES, C1-C6, (g)  : /2/2/2
ESC. COMPLETA DE SENSORES, C7-C12 (g)  : 
FREC. NAT. DE SENSORES, C1-C6, (Hz)    : /210/212/212
FREC. NAT. DE SENSORES, C7-C12 (Hz)    : 
AMORTIGUAMIENTO DE SENSORES, C1-C6     : /0.7/0.7/0.7
AMORTIGUAMIENTO DE SENSORES, C7-C12    : 
INTERVALO DE MUESTREO, C1-C6 (s)       : /0.004/0.004/0.004
INTERVALO DE MUESTREO, C7-C12 (s)      : 
UMBRAL DE DISPARO, C1-C6 (Gal)         : /2/2/2
UMBRAL DE DISPARO, C7-C12 (Gal)        : 
MEMORIA DE PREEVENTO (s)               : 20
TIEMPO DE POSEVENTO (s)                : 30


================================================================================
DATOS DEL SISMO:
FECHA DEL SISMO [GMT]                  : 2014/08/13
HORA EPICENTRO (GMT)                   : 06:48:10
MAGNITUD(ES)                           : /M=5.4
COORDENADAS DEL EPICENTRO              : 16.1732 LAT. N
                                       : 98.2863 LONG. W
PROFUNDIDAD FOCAL (Km)                 : 15.0
FUENTE DE LOS DATOS EPICENTRALES       : SSN
                                       : INSTITUTO DE GEOFISICA, UNAM

================================================================================
DATOS DE ESTE REGISTRO:
HORA DE LA PRIMERA MUESTRA (GMT)       : 06:49:33.000
EXACTITUD DEL TIEMPO (s)               : 
DURACION DEL REGISTRO (s), C1-C6       : /97.00/97.00/97.00
DURACION DEL REGISTRO (s), C7-C12      : 
NUM. TOTAL DE MUESTRAS, C1-C6          : /24250/24250/24250
NUM. TOTAL DE MUESTRAS, C7-C12         : 
ACEL. MAX.(Gal), C1-C6                 : /-2.029/-3.537/-4.950
ACEL. MAX., C1-C6, EN LA MUESTRA       : 6427/6673/5955
ACEL. MAX.(Gal), C7-C12                : 
ACEL. MAX., C7-C12,EN LA MUESTRA       : 
UNIDADES DE LOS DATOS                  : Gal (cm/s/s)
FACTOR DE DECIMACION                   : 1
FORMATO DATOS (FORTRAN,16 campos/dato) : 3E16.7


================================================================================
CALIDAD DEL ACELEROGRAMA:
REGISTRO DIGITAL COMPLETO CON TIEMPO ABSOLUTO CORRECTO


================================================================================
COMENTARIOS:














================================================================================
DATOS DE ACELERACION:
---------+---------+---------+---------+---------+---------+---------+---------+
   CANAL-1   	   CANAL-2   	      CANAL-3
         V           N00E              N90E
---------+---------+---------+---------+---------+---------+---------+---------+
[...]
   1.6037055e-01   7.5892075e-02   5.5131432e-01
  -1.8421480e-01   3.0990207e-01   5.9574257e-01
  -6.5617832e-02   3.2521441e-01   6.4531512e-01
   2.6365312e-02   1.7290918e-01   6.4414605e-01
  -1.2888501e-01   2.2305423e-01   5.6020005e-01
  -2.7631467e-01   3.9230850e-01   6.2941457e-01
  -5.3638777e-01   5.3771708e-01   7.1967394e-01
  -2.9230654e-01   3.5899521e-01   7.1195729e-01
  -1.9880603e-01   2.6419881e-01   6.8541741e-01
  -5.2903399e-01   4.7413015e-01   7.0704680e-01
  -5.6381942e-01   5.7664096e-01   8.1355744e-01
  -4.5981329e-01   4.6512967e-01   8.4828161e-01
  -3.0701449e-01   3.2416250e-01   8.3846062e-01
  -4.8876231e-01   4.4841478e-01   8.2711985e-01
  -8.0790065e-01   6.6980105e-01   9.3199379e-01
  -7.1370021e-01   6.0130441e-01   9.9816833e-01
  -5.5658197e-01   3.8459370e-01   9.8215088e-01
  -6.6233891e-01   4.9633874e-01   9.6332726e-01
  -9.9256687e-01   6.7342431e-01   1.0553402e+00
  -9.0653725e-01   6.5834573e-01   1.1719057e+00
  -7.7031393e-01   5.0370291e-01   1.0967285e+00
  -7.9097501e-01   3.8868486e-01   1.1357786e+00
  -8.5365859e-01   6.1088928e-01   1.1641894e+00
  -1.0829155e+00   6.4887813e-01   1.2241675e+00
  -7.9856223e-01   4.7015587e-01   1.2663741e+00
  -7.8046939e-01   3.9160684e-01   1.1655923e+00
  -1.0329553e+00   4.8640324e-01   1.2081500e+00
  -1.2413177e+00   7.1071188e-01   1.2449785e+00
  -1.2563758e+00   5.4496437e-01   1.2853146e+00
  -9.2287929e-01   3.0031720e-01   1.2157494e+00
  -1.0532662e+00   3.4625422e-01   1.1648909e+00
  -1.2103840e+00   5.0954726e-01   1.2398342e+00
  -1.1604238e+00   4.3941431e-01   1.2222966e+00
  -9.4062236e-01   1.5116810e-01   1.2009010e+00
  -9.6151689e-01   1.4053132e-01   1.0902982e+00
  -1.1898397e+00   2.7518623e-01   1.1094726e+00
  -1.2089834e+00   2.9388846e-01   1.1264253e+00
  -1.0900359e+00   4.8423134e-02   1.0334770e+00
  -1.0136948e+00  -9.5699776e-02   9.8250160e-01
  -1.2682821e+00   6.8644787e-02   8.9960777e-01
  -1.3293316e+00   9.2139447e-02   9.2848619e-01
  -1.1353269e+00  -1.6174196e-01   8.7832910e-01
  -9.4307349e-01  -3.8908945e-01   7.6562198e-01
  -1.0090256e+00  -3.0937163e-01   6.8740483e-01
  -1.1014757e+00  -2.3187451e-01   6.5805878e-01
  -1.0803477e+00  -3.6758174e-01   6.5268066e-01
  -8.2634405e-01  -6.5945159e-01   5.1588871e-01
  -8.2039091e-01  -6.1386522e-01   4.1230114e-01
  -1.2857913e+00  -4.0370052e-01   4.0820899e-01
  -1.0044731e+00  -6.0229340e-01   3.6717145e-01
  -9.3653675e-01  -7.6956033e-01   2.6218060e-01
  -8.5377531e-01  -9.0456628e-01   1.7367483e-01
  -7.5595614e-01  -7.6488478e-01   1.1404748e-01
  -1.1059114e+00  -6.5956847e-01   1.0446031e-01
  -6.9303874e-01  -9.8276467e-01   2.9868059e-02
  -5.5634853e-01  -1.0822362e+00  -1.2422772e-01
  -7.1264934e-01  -9.2630736e-01  -1.8432269e-01
  -7.6879656e-01  -7.6944345e-01  -2.0431539e-01
  -7.4568396e-01  -9.6184135e-01  -2.4780837e-01
  -4.5152536e-01  -1.1292256e+00  -4.0973732e-01
  -4.6751762e-01  -1.0130387e+00  -5.0023051e-01
  -6.3829293e-01  -8.3116072e-01  -5.0175030e-01
  -5.0241977e-01  -8.7405848e-01  -6.0919620e-01
  -3.0001048e-01  -1.1126272e+00  -6.7092827e-01
  -1.8223055e-01  -1.0249612e+00  -8.1999626e-01
  -1.3635590e-01  -8.5407059e-01  -8.6232017e-01
  -3.4962058e-01  -7.6827466e-01  -8.7880526e-01
  -6.5525924e-03  -9.6756921e-01  -1.0471645e+00
   1.8745205e-01  -9.7189374e-01  -1.1320457e+00
  -1.2981877e-01  -6.4261983e-01  -1.2224220e+00
  -9.2232050e-02  -6.4717850e-01  -1.2296711e+00
   7.8893424e-02  -7.3145500e-01  -1.3410922e+00
   2.5538843e-01  -7.9843182e-01  -1.4833792e+00
   1.9223797e-01  -6.2602182e-01  -1.5096852e+00
   1.6048727e-01  -4.3911763e-01  -1.5563351e+00
   1.6398928e-01  -5.7085057e-01  -1.6347857e+00
   4.0433545e-01  -6.5501019e-01  -1.7747345e+00
   5.3495580e-01  -5.2912159e-01  -1.8108616e+00
   7.8893424e-02  -2.2100397e-01  -1.8230207e+00
   9.5468901e-02  -2.8856558e-01  -1.8730609e+00
   3.2204089e-01  -4.7546977e-01  -1.9907958e+00
   3.1562087e-01  -3.4642505e-01  -2.0710004e+00
   2.5398778e-01  -1.8430119e-01  -2.0107885e+00
   1.1379558e-01  -1.0738886e-01  -2.0367438e+00
   3.4912238e-01  -3.1393031e-01  -2.0908761e+00
   4.3386807e-01  -2.9850109e-01  -2.1530755e+00
   2.5924060e-01  -8.7634726e-02  -2.1277046e+00
   3.1223598e-01  -5.1165702e-02  -2.0352240e+00
   2.3262638e-01  -1.1054460e-01  -2.0929805e+00
   3.8659238e-01  -2.4297921e-01  -2.1040874e+00
   4.0853778e-01  -6.3205033e-02  -2.0349902e+00
   6.5002517e-02   1.2159533e-01  -1.9287130e+00
   2.4593329e-01  -1.2943099e-02  -1.8854542e+00
   4.8476210e-01  -1.7436568e-01  -1.8801930e+00
   4.3235032e-01  -8.1907258e-02  -1.7844386e+00
   3.7095067e-01   1.1645226e-01  -1.6605072e+00
   3.6418049e-01   3.7318835e-02  -1.5190386e+00
   5.9985746e-01  -1.6945637e-01  -1.5011506e+00
   7.5930971e-01  -1.3848106e-01  -1.4212968e+00
   5.0927535e-01   1.4462208e-01  -1.2206684e+00
   4.1297355e-01   1.5385632e-01  -1.0624805e+00
   5.7931309e-01  -6.2036242e-02  -9.7128587e-01
   7.0316288e-01  -1.0727198e-01  -9.0394226e-01
   7.4763689e-01   6.5021535e-02  -6.8577666e-01
   4.4787570e-01   2.5718568e-01  -4.8853862e-01
   5.5398280e-01  -1.0839275e-02  -3.4578401e-01
   1.0033913e+00  -1.9809410e-01  -2.1273348e-01
   9.4596057e-01   2.8785877e-02  -8.1904192e-02
   7.4285096e-01   1.4251826e-01   1.8723723e-01
   7.9211090e-01   2.6798932e-02   3.6892506e-01
   9.8004529e-01  -1.3275359e-01   4.5287105e-01
   9.3171950e-01  -3.6554638e-02   6.5010870e-01
   8.8012476e-01   1.5923315e-01   8.8744864e-01
   7.0736520e-01   1.2030966e-01   1.0630569e+00
   7.2942732e-01  -9.0907341e-02   1.2317669e+00
   1.0674759e+00  -1.0773950e-01   1.3659868e+00
   9.0207016e-01   5.8592400e-02   1.5531697e+00
   7.1938858e-01   1.0032177e-01   1.8202064e+00
   9.1420987e-01  -1.0388210e-01   1.9060229e+00
   9.5599931e-01  -1.7401505e-01   2.0282007e+00
   9.3241983e-01   1.4057934e-02   2.2083683e+00
   8.8502741e-01  -1.8904325e-02   2.3778970e+00
   7.4261752e-01  -9.0673582e-02   2.4893181e+00
   8.8175924e-01  -1.2807803e-01   2.5690551e+00
   7.4110015e-01  -1.2690924e-01   2.8102534e+00
   7.9374498e-01   1.3707296e-02   2.7929495e+00
   8.8736221e-01   2.5279504e-02   2.8662562e+00
   5.7977998e-01  -1.2983122e-01   3.1232381e+00
   9.8121288e-01  -1.7962564e-01   3.0785760e+00
   9.8728274e-01  -2.0073116e-02   3.1958429e+00
   5.2164850e-01   4.1176238e-02   3.3685285e+00
   6.5915614e-01  -1.3181855e-01   3.3507571e+00
   8.3354978e-01  -1.2293496e-01   3.3127595e+00
   7.5370674e-01   6.7125358e-02   3.3743743e+00
   4.6515150e-01   1.5510857e-03   3.5629600e+00
   3.4690430e-01   3.4981253e-02   3.4832234e+00
   7.0818225e-01  -6.3321912e-02   3.4503698e+00
   7.8697481e-01  -8.5296752e-02   3.5242610e+00
   4.8803027e-01   2.2480742e-01   3.4985395e+00
   4.8231058e-01  -1.3410615e-02   3.5472933e+00
   5.4184270e-01  -5.6893170e-02   3.4506036e+00
   6.6697680e-01   9.9152585e-02   3.4562155e+00
   5.7861277e-01   1.5572677e-01   3.5102310e+00
   2.2118660e-01   2.8547238e-01   3.4800666e+00
   3.1211887e-01   1.0043865e-01   3.4373919e+00
   5.0308838e-01   2.1382000e-01   3.3428070e+00
   2.7044654e-01   4.3812864e-01   3.4378599e+00
   1.1636382e-01   4.1977705e-01   3.4495514e+00
   3.6814938e-01   3.5654036e-01   3.3177869e+00
   2.8947354e-01   4.4560929e-01   3.3340382e+00
   3.3266362e-01   6.5004692e-01   3.3236326e+00
   3.5227383e-01   7.4951887e-01   3.3020032e+00
  -8.5228432e-02   7.6646752e-01   3.3078490e+00
   2.2620597e-01   7.8739045e-01   3.2078855e+00
   3.3453115e-01   1.0090105e+00   3.2136144e+00
  -1.1102561e-01   1.2370592e+00   3.2989633e+00
  -1.5655010e-01   1.2675670e+00   3.2200447e+00
  -4.4372755e-02   1.1769787e+00   3.1355141e+00
  -7.0194741e-03   1.4639392e+00   3.1384372e+00
  -5.8263662e-02   1.7283405e+00   3.1639249e+00
  -1.7837839e-01   1.6902348e+00   3.1576116e+00
  -1.7114133e-01   1.7077682e+00   3.0069065e+00
   4.8427041e-02   1.8426573e+00   2.9350031e+00
  -8.3360513e-02   2.2123745e+00   2.9783788e+00
  -4.3845188e-01   2.3221326e+00   2.9222590e+00
  -5.2961759e-01   2.2909236e+00   2.8130591e+00
  -2.7958284e-01   2.3486661e+00   2.7157849e+00
  -3.0071080e-01   2.5992745e+00   2.6948570e+00
  -6.1156161e-01   2.7702820e+00   2.6825810e+00
  -4.9891777e-01   2.5912091e+00   2.5690551e+00
  -4.2934691e-01   2.6692906e+00   2.4564649e+00
  -4.3273219e-01   2.9367308e+00   2.3962530e+00
  -4.4160334e-01   3.0487096e+00   2.3522924e+00
  -6.7996526e-01   3.0095523e+00   2.2994460e+00
  -7.1778543e-01   3.0413458e+00   2.1129646e+00
  -5.6732104e-01   3.1659487e+00   2.0027126e+00
  -5.1397588e-01   3.3318131e+00   1.9793296e+00
  -7.6412736e-01   3.3375406e+00   1.8656868e+00
  -8.3381455e-01   3.1958721e+00   1.7355590e+00
  -4.2549474e-01   3.2412248e+00   1.5514161e+00
  -4.4183717e-01   3.4181934e+00   1.4611567e+00
  -6.2708660e-01   3.4413371e+00   1.3890195e+00
  -6.0665896e-01   3.2699790e+00   1.2161001e+00
  -5.2868383e-01   3.3105392e+00   1.0095091e+00
  -3.0432953e-01   3.4331551e+00   8.6628688e-01
  -4.8992951e-01   3.5005995e+00   8.0934839e-01
  -7.9237566e-01   3.4427400e+00   6.1409856e-01
  -5.5238004e-01   3.2822525e+00   4.0283087e-01
  -2.0312508e-01   3.3321637e+00   2.3809576e-01
  -3.2954310e-01   3.4520907e+00   9.0781388e-02
  -5.9171756e-01   3.3846464e+00  -2.7771870e-02
  -3.6339477e-01   3.1643120e+00  -2.9656218e-01
  -5.2427248e-02   3.1563639e+00  -5.2805637e-01
  -3.9119944e-02   3.2679920e+00  -6.6496523e-01
  -2.7386315e-01   3.2602772e+00  -8.4758870e-01
  -3.5674131e-01   3.0599312e+00  -1.0475152e+00
  -3.4450735e-02   3.0150460e+00  -1.3295172e+00
  -1.2622447e-02   3.1135826e+00  -1.5161159e+00
  -1.2176467e-01   3.0288386e+00  -1.6027508e+00
  -2.2647112e-01   2.9422245e+00  -1.8783221e+00
  -1.1896299e-01   2.7569566e+00  -2.1313292e+00
   2.5854027e-01   2.7681782e+00  -2.2923228e+00
   3.4536134e-02   2.8038290e+00  -2.4443139e+00
  -1.0962457e-01   2.6301330e+00  -2.6417854e+00
   3.3602371e-02   2.5275053e+00  -2.9451829e+00
   1.3515698e-01   2.5074005e+00  -3.0768310e+00
   1.9340518e-01   2.5135955e+00  -3.2422671e+00
  -1.1686202e-01   2.4018504e+00  -3.4276964e+00
  -1.3542214e-01   2.2315443e+00  -3.6003820e+00
   1.7472834e-01   2.1579046e+00  -3.8381895e+00
   2.3087518e-01   2.1718143e+00  -3.8932571e+00
   6.6520275e-02   2.0925640e+00  -4.0212802e+00
  -1.6367044e-01   1.9494930e+00  -4.2172319e+00
   4.4341434e-02   1.8264095e+00  -4.3848897e+00
   3.5344143e-01   1.8333062e+00  -4.4517661e+00
  -1.8108699e-02   1.8158896e+00  -4.4511815e+00
  -2.0452572e-01   1.6496746e+00  -4.6079662e+00
   1.8660980e-02   1.5659829e+00  -4.7550467e+00
   6.1967786e-02   1.6336610e+00  -4.8098805e+00
   1.0489766e-02   1.5835160e+00  -4.7302605e+00
  -2.7468019e-01   1.4234959e+00  -4.7589051e+00
  -7.3321773e-02   1.3622466e+00  -4.9500631e+00
   1.1262837e-01   1.3332586e+00  -4.8449554e+00
  -8.5228432e-02   1.3820007e+00  -4.7580863e+00
  -4.4956749e-02   1.2393972e+00  -4.8250796e+00
  -3.3502935e-01   1.1775635e+00  -4.7812359e+00
  -2.4269644e-01   1.2424361e+00  -4.7301435e+00
  -1.6892325e-01   1.2316824e+00  -4.6119410e+00
  -4.7487140e-01   1.2264225e+00  -4.5125625e+00
  -5.2132966e-01   1.0607918e+00  -4.4529351e+00
  -4.4393814e-01   1.0791434e+00  -4.3926063e+00
  -2.8378517e-01   1.1126905e+00  -4.2119707e+00
  -4.8712822e-01   1.0579867e+00  -4.0001185e+00
  -7.0085979e-01   9.8633436e-01  -3.9584964e+00
  -6.0817671e-01   8.8849871e-01  -3.8398262e+00
  -4.8701111e-01   9.8937322e-01  -3.6221283e+00
  -6.1389641e-01   9.8586645e-01  -3.4041965e+00
  -8.0965185e-01   8.2643120e-01  -3.2859939e+00
  -9.3140066e-01   8.1661257e-01  -3.1716497e+00
  -8.1677219e-01   8.2678184e-01  -2.9510291e+00
  -6.8545152e-01   7.9335167e-01  -2.7349678e+00
  -1.0294533e+00   7.5454507e-01  -2.5591257e+00
  -1.0780129e+00   5.8400513e-01  -2.4115772e+00
  -9.1750976e-01   6.3005902e-01  -2.2478946e+00
  -8.4642153e-01   6.0855170e-01  -2.0188555e+00
  -8.2132468e-01   4.0493223e-01  -1.7789436e+00
  -1.0050571e+00   3.8447682e-01  -1.7056369e+00
  -9.7307299e-01   3.1761688e-01  -1.5440587e+00
  -8.6369733e-01   3.5209896e-01  -1.2896491e+00
  -9.9198327e-01   2.7448496e-01  -1.1433865e+00
  -1.1492178e+00   1.0184120e-01  -1.0110374e+00
  -1.1134986e+00   5.7072972e-02  -8.9716125e-01
  -9.8579669e-01   4.9475046e-02  -6.8986841e-01
  -8.7665447e-01  -3.5736092e-02  -5.4313857e-01
  -9.5673096e-01  -2.2556265e-01  -4.5521773e-01
  -1.0284028e+00  -2.9487745e-01  -3.7489624e-01
  -7.7113097e-01  -3.0750117e-01  -2.8054473e-01
  -7.0611260e-01  -3.3871064e-01  -1.1569271e-01
  -7.8782317e-01  -5.5238210e-01  -4.1684997e-02
  -8.6661573e-01  -6.9907675e-01   4.2611722e-02
  -8.4922321e-01  -7.1462284e-01   1.2094578e-01
  -6.8731904e-01  -7.8218445e-01   2.5762083e-01
  -7.0261059e-01  -1.0076619e+00   3.6436529e-01
  -6.3875982e-01  -1.2594391e+00   3.6214405e-01
  -5.3557073e-01  -1.2533606e+00   4.0622118e-01
  -4.6810122e-01  -1.3023368e+00   4.7976166e-01
  -2.6008896e-01  -1.5157749e+00   5.6475982e-01
  -2.4981678e-01  -1.7197446e+00   5.0945843e-01
  -4.6004673e-01  -1.7106273e+00   4.9776693e-01
  -1.4067495e-01  -1.7703572e+00   5.9398896e-01
   2.3913791e-02  -1.8823360e+00   5.6698106e-01
  -2.6242376e-01  -2.0691233e+00   5.4768981e-01
  -1.1394362e-01  -2.2111428e+00   4.8315236e-01
  -4.7524598e-02  -2.1081641e+00   4.5298796e-01
   5.2512648e-02  -2.2680672e+00   5.2980184e-01
   2.5819011e-01  -2.4747256e+00   4.4468677e-01
   6.3718593e-02  -2.5782887e+00   3.4986762e-01
   8.9399047e-02  -2.5197276e+00   2.9316334e-01
   3.8600878e-01  -2.5988610e+00   2.7737970e-01
   3.5390831e-01  -2.7642578e+00   2.3564032e-01
   2.1721811e-01  -2.8010775e+00   8.8092131e-02
   1.7834707e-01  -2.8542614e+00   1.9345239e-02
   3.4620398e-01  -2.7968695e+00  -3.0343827e-02
   4.8686307e-01  -2.9646039e+00  -6.8809415e-02
   3.1807239e-01  -3.0319318e+00  -2.0384776e-01
   4.2581358e-01  -3.0818431e+00  -3.1047531e-01
   5.3028660e-01  -3.0495817e+00  -3.4695308e-01
   5.9798954e-01  -3.0408154e+00  -4.1698595e-01
   7.8370624e-01  -3.2793840e+00  -4.7789928e-01
   4.8873099e-01  -3.1529110e+00  -6.4473872e-01
   4.7238856e-01  -3.0685177e+00  -7.0834131e-01
   7.8755841e-01  -3.1063896e+00  -7.2143608e-01
   6.8285195e-01  -3.2004844e+00  -8.0538169e-01
   5.1581209e-01  -3.1665871e+00  -9.2872853e-01
   6.0277547e-01  -3.0883887e+00  -1.0041395e+00
   8.7825724e-01  -3.0641928e+00  -9.9420163e-01
   8.8806254e-01  -3.0890900e+00  -1.0694957e+00
   7.4857065e-01  -3.2079654e+00  -1.1562475e+00
   7.6047731e-01  -2.9812023e+00  -1.2459223e+00
   9.5308091e-01  -2.9318754e+00  -1.2186806e+00
   1.0345580e+00  -2.9344468e+00  -1.2369197e+00
   7.8288920e-01  -2.9369016e+00  -1.3223855e+00
   6.7409753e-01  -2.8319359e+00  -1.3709059e+00
   7.0129535e-01  -2.6058741e+00  -1.4188413e+00
   9.6568789e-01  -2.7169179e+00  -1.3298683e+00
   1.0198501e+00  -2.7504649e+00  -1.3911324e+00
   7.2604204e-01  -2.6858257e+00  -1.4415233e+00
   7.6141107e-01  -2.4435165e+00  -1.4519288e+00
   9.1082498e-01  -2.3580712e+00  -1.4207122e+00
   1.0407446e+00  -2.4859468e+00  -1.3741793e+00
   7.7588558e-01  -2.4073981e+00  -1.4822101e+00
   5.2841907e-01  -2.2021423e+00  -1.4526302e+00
   6.9545894e-01  -2.0216669e+00  -1.4401200e+00
   6.7993394e-01  -2.0822150e+00  -1.3938212e+00
   6.5495381e-01  -2.1574910e+00  -1.3934705e+00
   4.3246704e-01  -1.9452221e+00  -1.4615160e+00
