**************************************************************************************
            UNIVERSIDAD AUTONOMA METROPOLITANA - AZCAPOTZALCO
                        Departamento de Materiales
                           Area de Estructuras
     AV. SAN PABLO 180,COL.REYNOSA, AZCAPOTZALCO, C.P.02200 CIUDAD DE MEXICO.
**************************************************************************************
ARCHIVO ESTANDAR DE ACELERACION:
VERSION DEL FORMATO                    : 2.0
NOMBRE DEL ARCHIVO                     : RIML201404191
FECHA Y HORA DE CREACION               : 06:58 p. m. 07/09/2014
REF. CATALOGO ACELEROGRAMAS, SMIS 1995 : REGISTRO NO.      /PAG.    


================================================================================
DATOS DE LA ESTACION:
NOMBRE DE LA ESTACION                  : UAM-LERMA.
CLAVE DE LA ESTACION                   : RIML
LOCALIZACION DE LA ESTACION            : AV. DE LAS GARZAS 10, EL PANTEON, C.P.52005,
                                       : LERMA DE VILLADA, ESTADO DE MEXICO. 
                                       :
                                       : 
                                       : 
COORDENADAS DE LA ESTACION             : 19.291481 LAT. N
                                       : 99.502060 LONG. W
ALTITUD (msnm)                         : 2570
TIPO DE SUELO                          : DEPOSITOS LACUSTRES
                                       : 
                                       : 
INSTITUCION RESPONSABLE                : UNIVERSIDAD AUTONOMA METROPOLITANA
                                       : 

================================================================================
DATOS DEL ACELEROGRAFO: 
MODELO DEL ACELEROGRAFO                : BASALT KINEMETRICS
NUMERO DE SERIE DEL ACELEROGRAFO       : 978
NUMERO DE CANALES                      : 3
ORIENTACION C1-C6 (rumbo;orientacion)  : /V/N00E/N90E
ORIENTACION C7-C12 (rumbo;orientacion) : 
VEL. DE MUESTREO, C1-C6 (muestras/s)   : /250/250/250
VEL. DE MUESTREO, C7-C12 (muestras/s)  : 
ESC. COMPLETA DE SENSORES, C1-C6, (g)  : /2/2/2
ESC. COMPLETA DE SENSORES, C7-C12 (g)  : 
FREC. NAT. DE SENSORES, C1-C6, (Hz)    : /210/212/212
FREC. NAT. DE SENSORES, C7-C12 (Hz)    : 
AMORTIGUAMIENTO DE SENSORES, C1-C6     : /0.7/0.7/0.7
AMORTIGUAMIENTO DE SENSORES, C7-C12    : 
INTERVALO DE MUESTREO, C1-C6 (s)       : /0.004/0.004/0.004
INTERVALO DE MUESTREO, C7-C12 (s)      : 
UMBRAL DE DISPARO, C1-C6 (Gal)         : /2/2/2
UMBRAL DE DISPARO, C7-C12 (Gal)        : 
MEMORIA DE PREEVENTO (s)               : 20
TIEMPO DE POSEVENTO (s)                : 30


================================================================================
DATOS DEL SISMO:
FECHA DEL SISMO [GMT]                  : 2014/04/19
HORA EPICENTRO (GMT)                   : 14:58:15
MAGNITUD(ES)                           : /M=5.2
COORDENADAS DEL EPICENTRO              : 17.348 LAT. N
                                       : 101.31 LONG. W
PROFUNDIDAD FOCAL (Km)                 : 18.0
FUENTE DE LOS DATOS EPICENTRALES       : SSN
                                       : INSTITUTO DE GEOFISICA, UNAM

================================================================================
DATOS DE ESTE REGISTRO:
HORA DE LA PRIMERA MUESTRA (GMT)       : 14:59:25.000
EXACTITUD DEL TIEMPO (s)               : 
DURACION DEL REGISTRO (s), C1-C6       : /68.00/68.00/68.00
DURACION DEL REGISTRO (s), C7-C12      : 
NUM. TOTAL DE MUESTRAS, C1-C6          : /17000/17000/17000
NUM. TOTAL DE MUESTRAS, C7-C12         : 
ACEL. MAX.(Gal), C1-C6                 : /-0.720/-1.503/-2.547
ACEL. MAX., C1-C6, EN LA MUESTRA       : /5247/9190/6431
ACEL. MAX.(Gal), C7-C12                : 
ACEL. MAX., C7-C12,EN LA MUESTRA       : 
UNIDADES DE LOS DATOS                  : Gal (cm/s/s)
FACTOR DE DECIMACION                   : 1
FORMATO DATOS (FORTRAN,16 campos/dato) : 3E16.7


================================================================================
CALIDAD DEL ACELEROGRAMA:
REGISTRO DIGITAL COMPLETO CON TIEMPO ABSOLUTO CORRECTO


================================================================================
COMENTARIOS:














================================================================================
DATOS DE ACELERACION:
---------+---------+---------+---------+---------+---------+---------+---------+
   CANAL-1   	   CANAL-2   	      CANAL-3
         V           N00E              N90E
---------+---------+---------+---------+---------+---------+---------+---------+
[...]
   1.7092393e-01  -8.0044623e-01   1.4058788e+00
   4.0537020e-02  -6.8577881e-01   1.4568542e+00
   1.0683932e-01  -5.8548870e-01   1.4809391e+00
   2.0220736e-01  -6.2897126e-01   1.4888891e+00
   1.7699378e-01  -7.1745540e-01   1.5042051e+00
   7.0886683e-02  -6.8484378e-01   1.5481658e+00
  -7.6659304e-02  -5.2891490e-01   1.5873328e+00
   1.0275410e-01  -5.3674620e-01   1.5964519e+00
   4.9058395e-02  -6.3458185e-01   1.5916587e+00
  -1.4325892e-02  -6.5328407e-01   1.6623931e+00
   8.6178235e-02  -5.8350176e-01   1.6945449e+00
   7.2287720e-02  -5.0366706e-01   1.6740846e+00
   7.3221484e-02  -5.8993050e-01   1.7263460e+00
   9.5983535e-02  -6.3808861e-01   1.7252938e+00
   5.2793841e-02  -5.2131698e-01   1.7551075e+00
  -5.6348382e-02  -4.1997496e-01   1.7943914e+00
   4.5089509e-02  -4.7070441e-01   1.7559258e+00
  -4.3741792e-02  -5.5299396e-01   1.8003541e+00
  -1.3175566e-01  -4.8741969e-01   1.8368319e+00
  -3.5687299e-02  -3.9449335e-01   1.8532000e+00
  -7.1056332e-02  -3.8222026e-01   1.8636059e+00
   5.4661368e-02  -5.2833051e-01   1.8633721e+00
  -1.4559333e-02  -5.0506961e-01   1.9307157e+00
  -3.8722422e-02  -3.5311501e-01   1.9268574e+00
   1.5492618e-03  -3.4563436e-01   1.9115414e+00
  -1.0420768e-01  -4.0571453e-01   1.9344572e+00
  -4.7710287e-02  -4.6357439e-01   1.9703504e+00
  -1.8381689e-01  -3.0203493e-01   1.9887060e+00
  -1.6432340e-01  -2.6626718e-01   1.9773652e+00
  -4.2807637e-02  -3.6667417e-01   2.0020346e+00
  -1.7856408e-01  -4.1448125e-01   1.9954874e+00
  -1.2767005e-01  -3.8607766e-01   2.0500874e+00
  -3.8955862e-02  -2.6638406e-01   2.0726520e+00
  -1.6543581e-02  -3.1652911e-01   2.0022684e+00
   2.7696989e-02  -3.9963642e-01   2.0393307e+00
  -2.0984790e-01  -3.3184145e-01   2.0686768e+00
  -1.8545137e-01  -2.3085006e-01   2.0603760e+00
  -4.5726039e-02  -2.6615030e-01   2.0413185e+00
  -2.0938101e-01  -3.4458205e-01   2.0199230e+00
  -8.7865250e-02  -3.7836286e-01   2.0823561e+00
  -1.2078315e-01  -2.6989043e-01   2.0850453e+00
  -1.1751459e-01  -2.4920126e-01   2.0443581e+00
  -4.6192921e-02  -3.4633563e-01   2.0077634e+00
  -6.3468720e-02  -4.0010394e-01   2.0339526e+00
   3.1837396e-03  -3.4072504e-01   2.0680922e+00
  -1.1366242e-01  -2.0922547e-01   2.0044900e+00
  -6.2534957e-02  -3.2669838e-01   1.9751440e+00
  -1.2370116e-01  -3.6585601e-01   1.9662583e+00
  -1.7774703e-01  -3.4353014e-01   2.0064775e+00
  -1.2813693e-01  -2.7035834e-01   1.9945521e+00
  -7.1173052e-02  -3.1477553e-01   1.9247531e+00
  -1.1174049e-02  -4.6474318e-01   1.9159843e+00
  -1.1319554e-01  -3.4610188e-01   1.9308326e+00
  -8.2028836e-02  -3.1395738e-01   1.9415889e+00
  -1.2224533e-02  -3.4259511e-01   1.8698024e+00
   4.2755100e-02  -4.2827416e-01   1.8305185e+00
  -1.0782601e-01  -3.8596079e-01   1.8607998e+00
  -1.2054971e-01  -2.9654122e-01   1.8466528e+00
  -8.5180680e-02  -3.1150292e-01   1.8038617e+00
  -1.4541312e-01  -3.6223237e-01   1.7625899e+00
   2.4194984e-02  -4.6591197e-01   1.7622392e+00
  -1.8603497e-01  -3.0530793e-01   1.7844535e+00
  -9.7670549e-02  -2.9677497e-01   1.7539384e+00
   9.5399933e-02  -4.0922129e-01   1.6952463e+00
  -6.0900871e-02  -4.2874167e-01   1.6883484e+00
  -2.4131192e-02  -3.7321979e-01   1.6760720e+00
  -1.9175466e-01  -2.3108382e-01   1.6746691e+00
  -5.0511969e-02  -3.2903596e-01   1.6413478e+00
  -4.6309641e-02  -3.9192201e-01   1.5879173e+00
  -2.3762932e-01  -3.3488031e-01   1.6433356e+00
  -1.6070468e-01  -2.5668231e-01   1.6113003e+00
  -2.1440038e-01  -2.6451360e-01   1.5588051e+00
  -6.2068075e-02  -3.7754471e-01   1.5569346e+00
  -1.4529640e-01  -3.3160769e-01   1.5563500e+00
  -1.5265018e-01  -2.7070897e-01   1.5972707e+00
  -9.2534459e-02  -2.5656543e-01   1.5275885e+00
  -2.0996462e-01  -2.8041072e-01   1.4728717e+00
  -1.5603547e-01  -3.1769790e-01   1.5213921e+00
  -3.4116857e-01  -1.9964099e-01   1.5385786e+00
  -2.6120880e-01  -2.1261536e-01   1.5231457e+00
  -1.7821392e-01  -2.8017697e-01   1.4685457e+00
  -2.6412681e-01  -2.6930603e-01   1.4741577e+00
  -2.5257071e-01  -2.4627928e-01   1.5285238e+00
  -3.3218031e-01  -1.4423598e-01   1.5132078e+00
  -1.0035551e-01  -2.7702084e-01   1.4788343e+00
  -1.3945999e-01  -2.6731909e-01   1.4321848e+00
  -3.0253097e-01  -1.7614633e-01   1.5094664e+00
  -2.6109208e-01  -1.6445764e-01   1.5461783e+00
  -3.2307533e-01  -1.1571513e-01   1.4595431e+00
  -2.1906920e-01  -2.4943502e-01   1.4719364e+00
  -3.1256971e-01  -1.7263957e-01   1.4784836e+00
  -2.9400960e-01  -1.1466322e-01   1.5243147e+00
  -1.9478978e-01  -1.2097508e-01   1.5171830e+00
  -2.3260995e-01  -1.3488487e-01   1.4451623e+00
  -7.6192423e-02  -1.9741990e-01   1.4761455e+00
  -2.0576229e-01  -5.2712199e-02   1.5151952e+00
  -1.9992588e-01  -1.2502651e-02   1.5021008e+00
  -6.5803521e-02  -7.3869277e-02   1.4465656e+00
  -1.5241674e-01  -7.4921188e-02   1.4469163e+00
  -1.7552935e-01   5.2641482e-03   1.4905258e+00
  -2.4148148e-01   8.6384518e-02   1.4966058e+00
  -1.5124954e-01   5.3772896e-02   1.4312496e+00
  -7.8514689e-04  -3.7166102e-02   1.4121922e+00
  -6.1017591e-02   4.5824333e-02   1.4753267e+00
  -1.4144424e-01   1.7253108e-01   1.4448116e+00
   3.8840622e-03   9.6670663e-02   1.4024881e+00
   1.3806082e-02   1.0461923e-01   1.3664779e+00
  -3.0784649e-02   1.4856930e-01   1.3751298e+00
  -7.7709788e-02   2.4161212e-01   1.4120753e+00
  -1.9140450e-01   2.8182167e-01   1.3598134e+00
  -2.9384003e-02   2.0490934e-01   1.2794924e+00
  -6.4402875e-02   2.4207963e-01   1.2772707e+00
  -1.0222304e-01   3.0403066e-01   1.3335074e+00
  -6.7904489e-02   3.5686393e-01   1.2806614e+00
   1.3105760e-02   2.9432891e-01   1.2074717e+00
   7.1470286e-02   2.8532843e-01   1.1738001e+00
  -5.4947737e-02   3.9683972e-01   1.2155390e+00
  -6.3235279e-02   4.5890723e-01   1.1819840e+00
  -1.0047223e-01   4.2734752e-01   1.0768762e+00
  -6.7087445e-02   4.0841153e-01   1.0637818e+00
  -1.5988763e-01   4.9280491e-01   1.0443737e+00
  -1.0280664e-01   5.0355857e-01   1.0809683e+00
  -1.0525816e-01   5.2494902e-01   1.0033361e+00
  -7.6892745e-02   4.6662203e-01   8.9612363e-01
   7.5439172e-02   4.5107593e-01   9.2348225e-01
  -1.9420618e-01   6.0758921e-01   9.3318633e-01
  -4.4038720e-03   5.7123706e-01   8.7741731e-01
  -1.9928865e-02   5.5019686e-01   7.6681452e-01
  -1.5416794e-01   5.6480793e-01   7.5395356e-01
  -1.5230002e-01   6.4324008e-01   7.7488150e-01
  -3.3007934e-01   7.1874986e-01   7.2823202e-01
  -3.6504342e-02   5.5966485e-01   6.3072401e-01
  -8.2962600e-02   6.1226476e-01   5.7109666e-01
  -1.2556908e-01   6.5633171e-01   6.2955455e-01
  -1.1739787e-01   6.9093028e-01   5.8045002e-01
  -1.1039425e-01   6.7889095e-01   4.8656613e-01
   2.7696989e-02   6.0139422e-01   4.2740641e-01
  -1.8124904e-01   7.3488035e-01   3.9338408e-01
  -1.5988763e-01   7.2424357e-01   4.5277722e-01
  -1.9549011e-01   7.4703695e-01   3.5667209e-01
  -1.5451810e-01   6.8076101e-01   2.3379327e-01
  -7.0589450e-02   6.6486428e-01   2.7658443e-01
  -2.1953647e-01   7.8946720e-01   2.8663922e-01
  -1.6128828e-01   7.1489245e-01   2.3075329e-01
  -2.2146553e-02   6.4499326e-01   1.3336219e-01
  -1.2457974e-02   6.5796802e-01   9.6299881e-02
  -1.1903235e-01   7.5510200e-01   1.6387731e-01
  -1.8148248e-01   7.5159524e-01   1.1792927e-01
  -1.1751459e-01   6.7386475e-01  -3.5466646e-03
  -1.0006845e-02   6.5259119e-01  -2.3539355e-02
  -1.8801922e-01   7.5112772e-01   5.9235985e-03
  -2.6902946e-01   7.7614181e-01   1.1652441e-02
  -1.1307882e-01   6.6696849e-01  -6.4109272e-02
  -4.3741792e-02   6.3166826e-01  -1.6091623e-01
   1.0770959e-02   6.4569454e-01  -1.0631628e-01
  -1.2720317e-01   7.4247827e-01  -6.8552136e-02
  -9.7086947e-02   6.8648887e-01  -1.6535870e-01
   4.2054386e-02   6.1284916e-01  -2.4439421e-01
  -5.5648060e-02   6.7702088e-01  -2.6286711e-01
  -1.5300034e-01   7.5463449e-01  -2.3211817e-01
  -2.2128728e-01   7.5884252e-01  -2.4556328e-01
  -1.1553034e-01   6.4359071e-01  -3.3769356e-01
  -5.9212377e-03   6.5130552e-01  -4.1158437e-01
  -9.6153184e-02   7.2284102e-01  -3.3488740e-01
  -1.3677503e-01   7.3978966e-01  -3.4318859e-01
  -4.8644442e-02   6.5750050e-01  -4.9330913e-01
   9.3182245e-02   6.2442097e-01  -5.1973211e-01
  -3.1134810e-02   7.4890702e-01  -5.1762738e-01
  -2.3774604e-01   8.0337699e-01  -5.2277169e-01
  -1.4716393e-01   7.2400981e-01  -6.0005359e-01
  -7.8059950e-02   6.9022900e-01  -7.3567647e-01
  -1.2825365e-01   7.5194627e-01  -7.2819362e-01
  -2.2700697e-01   7.9835080e-01  -6.7967363e-01
  -1.9502323e-01   7.6562190e-01  -7.7601257e-01
  -1.8060946e-02   6.7047487e-01  -9.1514266e-01
   5.0512665e-03   7.2739969e-01  -9.3361556e-01
  -1.4214456e-01   8.3341727e-01  -9.0766021e-01
  -1.7506246e-01   7.9437652e-01  -9.8576007e-01
  -8.0628191e-02   7.3546474e-01  -1.1289827e+00
  -1.2778677e-01   7.8888281e-01  -1.2007692e+00
  -1.7599623e-01   8.5059968e-01  -1.1496768e+00
  -2.8817318e-01   8.5387268e-01  -1.1824132e+00
  -1.4552984e-01   7.4902390e-01  -1.3366259e+00
  -1.3975731e-02   7.2459420e-01  -1.4108678e+00
  -1.9035402e-01   8.4031353e-01  -1.4088800e+00
  -1.1833163e-01   8.0384451e-01  -1.4001115e+00
  -1.8358345e-01   8.0150653e-01  -1.5059207e+00
  -1.5843258e-02   7.0834683e-01  -1.6566258e+00
   3.6506213e-03   7.6386872e-01  -1.6691357e+00
  -3.0649986e-01   9.0273207e-01  -1.6147695e+00
  -1.6525716e-01   7.6585566e-01  -1.7173053e+00
  -1.6315580e-01   7.4879014e-01  -1.8518757e+00
  -1.0070567e-01   7.3897151e-01  -1.8585401e+00
  -1.1844835e-01   7.9133727e-01  -1.8567861e+00
  -2.5035302e-01   7.9016848e-01  -1.8536297e+00
  -8.8396402e-03   6.6357861e-01  -1.9986059e+00
   1.1652790e-01   6.7503354e-01  -2.1134173e+00
  -1.1751459e-01   7.7544053e-01  -2.0046854e+00
  -2.1510071e-01   7.7555741e-01  -2.0313422e+00
   4.9877789e-04   6.4090210e-01  -2.1769030e+00
  -6.1134312e-02   6.8157956e-01  -2.2490402e+00
  -6.9889128e-02   7.1699667e-01  -2.2179406e+00
  -1.3665831e-01   7.1945113e-01  -2.1600672e+00
  -1.8860282e-01   6.5820178e-01  -2.2434283e+00
   7.1120124e-02   5.5732727e-01  -2.3715687e+00
  -1.3392129e-02   6.3681133e-01  -2.3466655e+00
  -1.4854695e-03   6.2827837e-01  -2.2675131e+00
  -2.3025125e-03   5.8643252e-01  -2.3437424e+00
  -6.5103198e-02   5.4692425e-01  -2.4414847e+00
   3.7673417e-03   5.5580784e-01  -2.4447581e+00
  -6.8371370e-02   6.1962854e-01  -2.3915614e+00
  -1.3082189e-01   5.5989861e-01  -2.3934319e+00
  -1.3210582e-01   4.6510260e-01  -2.4628802e+00
   1.3222480e-02   4.7340141e-01  -2.5095297e+00
  -4.2574196e-02   5.2775451e-01  -2.4413678e+00
  -1.5498498e-01   5.2039073e-01  -2.3765961e+00
  -1.4325892e-02   4.0385286e-01  -2.4958504e+00
   8.1975908e-02   3.5627953e-01  -2.5320948e+00
   1.2405437e-02   4.8555801e-01  -2.4952659e+00
  -1.0327352e-01   4.8088246e-01  -2.4223103e+00
  -1.7622967e-01   4.2115253e-01  -2.4373925e+00
  -6.4402875e-02   3.4622715e-01  -2.5471770e+00
   2.3494662e-02   3.8269617e-01  -2.4875496e+00
  -1.9490650e-01   4.8088246e-01  -2.4054741e+00
  -1.6315580e-01   3.7311130e-01  -2.4099170e+00
  -1.7477344e-02   2.8848417e-01  -2.5071916e+00
   7.8124134e-02   2.8988711e-01  -2.4806513e+00
   5.0108879e-02   4.1238582e-01  -2.3976410e+00
  -2.1790200e-01   4.0069712e-01  -2.3785835e+00
  -5.5181178e-02   2.6721060e-01  -2.4329497e+00
   5.6528895e-02   3.0216020e-01  -2.5063728e+00
  -1.1109457e-01   3.9122913e-01  -2.3658399e+00
  -2.1976992e-01   3.9076161e-01  -2.3079661e+00
  -1.6012107e-01   2.6463926e-01  -2.3513422e+00
   5.6412174e-02   2.5084635e-01  -2.4140091e+00
  -3.9539465e-02   3.4108408e-01  -2.3555512e+00
  -4.9578205e-02   3.3582412e-01  -2.2068336e+00
  -1.2457974e-02   2.6206753e-01  -2.2983789e+00
   8.4365508e-03   2.2454659e-01  -2.3388320e+00
   6.2599141e-02   3.0543320e-01  -2.2706700e+00
  -9.8137431e-02   3.6282516e-01  -2.1638082e+00
  -1.1027753e-01   2.5762573e-01  -2.1613532e+00
  -1.6660301e-02   1.4716636e-01  -2.2490402e+00
   4.7424309e-02   2.1355917e-01  -2.2247220e+00
  -2.8333519e-02   2.7784738e-01  -2.1275643e+00
  -4.7243405e-02   1.8024589e-01  -2.0458399e+00
   1.8241851e-02   9.1293832e-02  -2.1265121e+00
   1.5224709e-01   8.3111903e-02  -2.1197311e+00
   1.6146879e-01   1.7755727e-01  -2.0126355e+00
  -2.7516085e-02   1.7977837e-01  -1.9393293e+00
   7.2053888e-02   4.3603630e-02  -1.9440059e+00
   6.0030900e-02   6.4643437e-02  -2.0002426e+00
   6.9135877e-02   1.0216437e-01  -1.9008637e+00
   1.6023771e-02   1.2437336e-01  -1.7929501e+00
   4.2342235e-03   3.2148694e-02  -1.7754125e+00
   1.9683782e-01  -8.5207333e-02  -1.8200746e+00
   1.3859002e-01   4.4889300e-02  -1.7945868e+00
   2.1329697e-01   3.0278236e-02  -1.6409591e+00
   1.0613900e-01  -3.4711641e-02  -1.6255262e+00
   2.1131233e-01  -1.0823408e-01  -1.6789567e+00
   3.1940407e-01  -7.5973100e-02  -1.6581456e+00
  -4.9874742e-03   7.6215252e-02  -1.5384233e+00
   6.3999786e-02  -6.1128278e-02  -1.4374077e+00
   7.4738849e-02  -1.3745621e-01  -1.5180799e+00
   2.3967775e-01  -1.5148288e-01  -1.5257965e+00
   2.5123385e-01  -7.7726287e-02  -1.4481639e+00
   5.1392804e-02  -6.3232102e-02  -1.3271556e+00
   2.9442394e-01  -2.5083796e-01  -1.3271556e+00
   2.8777009e-01  -2.3108382e-01  -1.4370569e+00
   3.0061052e-01  -1.3792373e-01  -1.3356906e+00
   2.1633170e-01  -1.1653329e-01  -1.2357272e+00
   9.3182245e-02  -2.3938263e-01  -1.2202942e+00
   1.5761662e-01  -2.7713772e-01  -1.2837799e+00
   1.4022410e-01  -1.9040676e-01  -1.2795709e+00
   2.3197342e-01  -1.9730302e-01  -1.1366990e+00
   9.1197606e-02  -2.7550141e-01  -1.1085224e+00
   2.2952229e-01  -4.3061174e-01  -1.1492092e+00
   3.5010390e-01  -3.4142632e-01  -1.1881424e+00
   1.9765487e-01  -2.6451360e-01  -1.0880621e+00
   2.4282920e-01  -3.8479160e-01  -9.8646190e-01
   9.6100256e-02  -4.2605345e-01  -1.0666665e+00
   1.8539844e-01  -4.6696428e-01  -1.0794101e+00
   2.0500904e-01  -3.8981780e-01  -1.0024794e+00
   3.1665484e-02  -3.9870139e-01  -9.1818264e-01
   6.1198104e-02  -5.6468265e-01  -9.1736429e-01
   1.4547692e-01  -6.1821759e-01  -9.7102898e-01
   2.1353041e-01  -5.4434412e-01  -9.2823744e-01
   1.2213087e-01  -5.2821363e-01  -8.0968418e-01
   1.1524397e-01  -6.8449314e-01  -7.7636329e-01
   2.0944481e-01  -7.7636717e-01  -8.5551570e-01
   2.4621448e-01  -7.0015612e-01  -8.3575683e-01
   6.5166990e-02  -6.1120406e-01  -7.0878547e-01
  -3.4169933e-02  -7.4305388e-01  -6.3770043e-01
   7.5789333e-02  -8.7817671e-01  -7.0282281e-01
   1.7197441e-01  -8.3749965e-01  -7.2071118e-01
   1.8936732e-01  -8.0184878e-01  -5.8836170e-01
   6.0847943e-02  -8.5631875e-01  -4.8559247e-01
   1.4034083e-01  -1.0017277e+00  -5.1435398e-01
   2.4306264e-01  -1.0140008e+00  -5.6942156e-01
   2.2345243e-01  -9.2352933e-01  -4.7284881e-01
   1.7956202e-01  -9.4608896e-01  -3.3897954e-01
   7.0769963e-02  -1.0639121e+00  -3.5639988e-01
   1.5469861e-01  -1.1210707e+00  -3.9989287e-01
   1.6905640e-01  -1.0124814e+00  -3.4412385e-01
   8.0341822e-02  -1.0025459e+00  -2.0335666e-01
   1.4757788e-01  -1.1735533e+00  -1.6348819e-01
   1.4372611e-01  -1.2236984e+00  -2.3363797e-01
   2.8660289e-01  -1.1649035e+00  -1.7108794e-01
   2.2006715e-01  -1.0881080e+00  -6.5395643e-02
   1.3403753e-01  -1.2044118e+00   1.4107491e-02
   3.1018237e-01  -1.3394177e+00  -1.8979584e-02
   1.2236431e-01  -1.1968142e+00  -5.3703752e-02
   2.2181796e-01  -1.1577735e+00   7.6891726e-02
   5.9914179e-02  -1.1747221e+00   1.7042450e-01
  -5.8045172e-03  -1.3092606e+00   1.7931023e-01
   3.2734145e-01  -1.3695749e+00   1.3418054e-01
