**************************************************************************************
            UNIVERSIDAD AUTONOMA METROPOLITANA - AZCAPOTZALCO
                        Departamento de Materiales
                           Area de Estructuras
     AV. SAN PABLO 180,COL.REYNOSA, AZCAPOTZALCO, C.P.02200 CIUDAD DE MEXICO.
**************************************************************************************
ARCHIVO ESTANDAR DE ACELERACION:
VERSION DEL FORMATO                    : 2.0
NOMBRE DEL ARCHIVO                     : RIML201404201
FECHA Y HORA DE CREACION               : 07:38 p. m. 07/09/2014
REF. CATALOGO ACELEROGRAMAS, SMIS 1995 : REGISTRO NO.      /PAG.    


================================================================================
DATOS DE LA ESTACION:
NOMBRE DE LA ESTACION                  : UAM-LERMA.
CLAVE DE LA ESTACION                   : RIML
LOCALIZACION DE LA ESTACION            : AV. DE LAS GARZAS 10, EL PANTEON, C.P.52005,
                                       : LERMA DE VILLADA, ESTADO DE MEXICO. 
                                       :
                                       : 
                                       : 
COORDENADAS DE LA ESTACION             : 19.291481 LAT. N
                                       : 99.502060 LONG. W
ALTITUD (msnm)                         : 2570
TIPO DE SUELO                          : DEPOSITOS LACUSTRES
                                       : 
                                       : 
INSTITUCION RESPONSABLE                : UNIVERSIDAD AUTONOMA METROPOLITANA
                                       : 

================================================================================
DATOS DEL ACELEROGRAFO: 
MODELO DEL ACELEROGRAFO                : BASALT KINEMETRICS
NUMERO DE SERIE DEL ACELEROGRAFO       : 978
NUMERO DE CANALES                      : 3
ORIENTACION C1-C6 (rumbo;orientacion)  : /V/N00E/N90E
ORIENTACION C7-C12 (rumbo;orientacion) : 
VEL. DE MUESTREO, C1-C6 (muestras/s)   : /250/250/250
VEL. DE MUESTREO, C7-C12 (muestras/s)  : 
ESC. COMPLETA DE SENSORES, C1-C6, (g)  : /2/2/2
ESC. COMPLETA DE SENSORES, C7-C12 (g)  : 
FREC. NAT. DE SENSORES, C1-C6, (Hz)    : /210/212/212
FREC. NAT. DE SENSORES, C7-C12 (Hz)    : 
AMORTIGUAMIENTO DE SENSORES, C1-C6     : /0.7/0.7/0.7
AMORTIGUAMIENTO DE SENSORES, C7-C12    : 
INTERVALO DE MUESTREO, C1-C6 (s)       : /0.004/0.004/0.004
INTERVALO DE MUESTREO, C7-C12 (s)      : 
UMBRAL DE DISPARO, C1-C6 (Gal)         : /2/2/2
UMBRAL DE DISPARO, C7-C12 (Gal)        : 
MEMORIA DE PREEVENTO (s)               : 20
TIEMPO DE POSEVENTO (s)                : 30


================================================================================
DATOS DEL SISMO:
FECHA DEL SISMO [GMT]                  : 2014/04/20
HORA EPICENTRO (GMT)                   : 12:40:36
MAGNITUD(ES)                           : /M=4.4
COORDENADAS DEL EPICENTRO              : 17.5038 LAT. N
                                       : 101.374 LONG. W
PROFUNDIDAD FOCAL (Km)                 : 15.7
FUENTE DE LOS DATOS EPICENTRALES       : SSN
                                       : INSTITUTO DE GEOFISICA, UNAM

================================================================================
DATOS DE ESTE REGISTRO:
HORA DE LA PRIMERA MUESTRA (GMT)       : 12:41:42.000
EXACTITUD DEL TIEMPO (s)               : 
DURACION DEL REGISTRO (s), C1-C6       : /55.00/55.00/55.00
DURACION DEL REGISTRO (s), C7-C12      : 
NUM. TOTAL DE MUESTRAS, C1-C6          : /13750/13750/13750
NUM. TOTAL DE MUESTRAS, C7-C12         : 
ACEL. MAX.(Gal), C1-C6                 : /0.733/1.197/1.415
ACEL. MAX., C1-C6, EN LA MUESTRA       : /5437/6061/5645
ACEL. MAX.(Gal), C7-C12                : 
ACEL. MAX., C7-C12,EN LA MUESTRA       : 
UNIDADES DE LOS DATOS                  : Gal (cm/s/s)
FACTOR DE DECIMACION                   : 1
FORMATO DATOS (FORTRAN,16 campos/dato) : 3E16.7


================================================================================
CALIDAD DEL ACELEROGRAMA:
REGISTRO DIGITAL COMPLETO CON TIEMPO ABSOLUTO CORRECTO


================================================================================
COMENTARIOS:














================================================================================
DATOS DE ACELERACION:
---------+---------+---------+---------+---------+---------+---------+---------+
   CANAL-1   	   CANAL-2   	      CANAL-3
         V           N00E              N90E
---------+---------+---------+---------+---------+---------+---------+---------+
[...]
   4.4040801e-01   3.0178467e-01   1.6088500e-01
   4.8371481e-01   2.8705712e-01   2.2285050e-01
   3.9815208e-01   3.5163052e-02   2.0882046e-01
   4.0095337e-01   2.6045698e-02   1.7199197e-01
   3.8426117e-01   2.0698866e-01   1.5141474e-01
   5.1885041e-01   2.4392520e-01   1.2627774e-01
   6.0873219e-01   4.4864409e-02   1.4533518e-01
   3.7293851e-01  -3.6957235e-02   1.3773543e-01
   4.8569906e-01   9.0100150e-02   6.4428765e-02
   6.7059872e-01   2.1423556e-01   1.9767098e-02
   7.3246525e-01   9.0333908e-02   3.4615482e-02
   4.1484427e-01  -8.6701401e-03   1.3804049e-02
   4.5628316e-01   3.5630568e-02  -5.1318329e-02
   7.3293213e-01   2.2545674e-01  -1.3082107e-01
   5.1161296e-01   2.2627489e-01  -8.2768704e-02
   5.5795489e-01  -9.0608663e-02  -8.4054683e-02
   4.2301549e-01   3.8318787e-02  -1.8892863e-01
   5.4488102e-01   2.2019678e-01  -1.9021461e-01
   7.0713496e-01   1.8618261e-01  -2.5299884e-01
   5.3624293e-01   1.9616563e-02  -2.3511048e-01
   6.1200036e-01  -3.1229767e-02  -2.8117542e-01
   4.4040801e-01   2.7303045e-01  -4.0452227e-01
   5.8667007e-01   2.8016047e-01  -3.5155902e-01
   6.7199937e-01   1.2715396e-01  -4.1200472e-01
   3.0651909e-01   5.7371649e-02  -3.8745226e-01
   4.3550536e-01   1.6958421e-01  -4.3912953e-01
   6.0406298e-01   3.4316340e-01  -5.4575708e-01
   5.4114558e-01   2.1189798e-01  -4.5795275e-01
   4.9795588e-01   5.3748005e-02  -5.3055797e-01
   3.3932028e-01   1.8396152e-01  -5.5405788e-01
   5.6075618e-01   3.8863290e-01  -6.0304590e-01
   6.3009360e-01   3.2516245e-01  -6.5390443e-01
   3.3978716e-01   1.3814138e-01  -5.6808791e-01
   3.8834678e-01   1.8209145e-01  -6.4501870e-01
   4.1005835e-01   4.0721785e-01  -6.9342218e-01
   4.2126429e-01   4.2217955e-01  -6.9751432e-01
   3.1375655e-01   2.1283301e-01  -6.5320298e-01
   2.6636413e-01   1.5801240e-01  -6.4244674e-01
   3.1667495e-01   3.8267167e-01  -7.4451452e-01
   3.7655684e-01   4.5549284e-01  -7.1926062e-01
   4.1017507e-01   3.1312312e-01  -7.1353178e-01
   1.5593838e-01   2.1633977e-01  -6.8313356e-01
   2.4967193e-01   3.2177256e-01  -7.0429533e-01
   3.1667495e-01   5.3579506e-01  -7.6392268e-01
   2.0543137e-01   3.7589190e-01  -6.8114614e-01
   1.5337013e-01   1.8419528e-01  -6.6407613e-01
   7.0842521e-02   2.9629096e-01  -6.5717822e-01
   1.7041249e-01   4.7653265e-01  -6.9388981e-01
   1.8021779e-01   3.9260718e-01  -6.8278284e-01
   9.8040340e-02   1.7274034e-01  -5.9860303e-01
   7.3993972e-02   2.4626278e-01  -6.3964058e-01
   1.9224117e-01   3.5835886e-01  -6.4104385e-01
   1.8675492e-01   4.0827016e-01  -6.5308608e-01
   1.2722280e-01   2.0476757e-01  -5.9930447e-01
   2.8936360e-02   1.1721845e-01  -5.6259289e-01
  -8.9310449e-02   3.3743593e-01  -5.9684942e-01
   1.1298173e-01   3.2878609e-01  -5.7825962e-01
   5.6484732e-02   1.8887083e-01  -5.9264037e-01
  -6.7598882e-02   8.9797803e-03  -5.1606031e-01
   5.6718173e-02   1.4246630e-01  -5.5955291e-01
   1.4181403e-01   2.9897957e-01  -5.9684942e-01
   1.3551034e-01   1.2504975e-01  -5.5008304e-01
   3.3488848e-02   5.4734074e-03  -5.4973232e-01
  -5.9626042e-04   5.9826110e-02  -5.1781392e-01
   6.2910286e-03   2.4614590e-01  -5.6680193e-01
   3.2905246e-02   1.6046686e-01  -5.4879667e-01
   4.5044955e-02  -7.4711929e-02  -4.9559999e-01
  -5.7093259e-02   5.6409307e-04  -5.0682386e-01
  -4.0050509e-02   1.3580380e-01  -5.1828155e-01
   1.3107496e-01   1.2481599e-01  -5.3827424e-01
   6.8974602e-02  -1.5683670e-02  -5.2354276e-01
  -4.7521400e-02  -9.1193451e-02  -4.7934872e-01
  -1.2035646e-02   8.1216946e-02  -5.0775912e-01
   6.9558204e-02   1.6222044e-01  -5.3102560e-01
  -5.2654695e-03   1.7045223e-02  -5.0951312e-01
  -2.3043642e-01  -1.1433708e-01  -4.7782854e-01
  -1.6903677e-01   7.6941103e-03  -4.6450034e-01
  -2.4992398e-02   1.3790762e-01  -5.2026936e-01
  -1.1218961e-01   1.7512739e-02  -5.0834366e-01
  -1.5969835e-01  -1.3864989e-01  -4.8437612e-01
  -1.0226759e-01  -7.9738123e-02  -4.8624664e-01
  -1.4242256e-01   1.2575141e-01  -5.1208508e-01
  -1.0436856e-01   3.7383754e-02  -5.6235907e-01
  -1.9518411e-01  -9.6570282e-02  -5.1477433e-01
  -3.7202967e-01  -7.6933024e-02  -4.8624664e-01
  -2.7129171e-01   3.4461385e-02  -5.1968483e-01
  -2.5494967e-01   8.9749512e-02  -5.6551596e-01
  -2.5985232e-01  -1.3537689e-01  -5.5499353e-01
  -3.6829422e-01  -1.6424838e-01  -5.2658274e-01
  -4.0506390e-01  -9.6051729e-03  -5.4400308e-01
  -2.3090330e-01   5.2579214e-02  -5.8153341e-01
  -2.9335383e-01  -9.4699824e-02  -6.1298379e-01
  -3.2475397e-01  -2.2187448e-01  -5.7732436e-01
  -3.7086207e-01  -5.4957793e-02  -5.9486200e-01
  -4.0074485e-01   4.4280013e-02  -6.0795639e-01
  -4.1393544e-01  -4.5723952e-02  -6.3589955e-01
  -5.5062564e-01  -2.1369216e-01  -6.1730974e-01
  -5.0416738e-01  -1.2731184e-01  -5.9486200e-01
  -4.6027697e-01   4.0704660e-03  -6.5682750e-01
  -4.1125047e-01  -9.4466066e-02  -6.5296917e-01
  -4.0961639e-01  -2.1322464e-01  -6.7506619e-01
  -5.1408940e-01  -2.1474407e-01  -6.4560363e-01
  -4.0903279e-01  -3.7892268e-02  -6.7915833e-01
  -3.6525910e-01  -4.3736615e-02  -7.1762392e-01
  -4.6191106e-01  -1.9557433e-01  -6.9716360e-01
  -6.1809514e-01  -2.0667902e-01  -7.1306415e-01
  -6.2113027e-01  -8.1141064e-02  -6.7682019e-01
  -4.3903229e-01  -3.2632316e-02  -7.3551189e-01
  -4.6401242e-01  -2.0714654e-01  -7.7362675e-01
  -4.3272899e-01  -3.1433291e-01  -7.2838016e-01
  -5.5634533e-01  -1.2614305e-01  -7.4089040e-01
  -4.3039419e-01  -7.6348629e-02  -7.5667404e-01
  -2.2319936e-01  -2.2000402e-01  -8.2612198e-01
  -5.2050942e-01  -2.6021357e-01  -8.1302760e-01
  -4.4860415e-01  -2.4010880e-01  -7.5164664e-01
  -5.3930297e-01  -6.0802532e-02  -8.3103248e-01
  -4.7031571e-01  -1.4905292e-01  -8.4319200e-01
  -3.6304141e-01  -3.3560647e-01  -8.6283397e-01
  -5.3031472e-01  -3.0042312e-01  -8.2167951e-01
  -2.5378247e-01  -2.1264025e-01  -8.3886604e-01
  -3.4039569e-01  -1.2836375e-01  -9.3812805e-01
  -2.7864588e-01  -3.4074954e-01  -8.8949076e-01
  -3.3409239e-01  -3.6412732e-01  -9.1076942e-01
  -3.7553128e-01  -1.8072951e-01  -8.9159508e-01
  -1.6751941e-01  -1.6494965e-01  -9.5496385e-01
  -4.3249555e-01  -2.5916166e-01  -9.8641423e-01
  -2.0720749e-01  -4.0667445e-01  -9.2854088e-01
  -2.8319837e-01  -2.5273292e-01  -9.5321025e-01
  -3.5253579e-01  -1.5115713e-01  -9.4911811e-01
  -7.9038268e-02  -3.0498179e-01  -1.0607731e+00
  -1.8981458e-01  -3.8937517e-01  -9.9097400e-01
  -1.2246179e-01  -3.2707351e-01  -9.4572741e-01
  -1.7090469e-01  -1.7020960e-01  -1.0426509e+00
  -1.1218603e-02  -2.5366795e-01  -1.0447556e+00
  -5.1487490e-03  -4.0094699e-01  -1.0752707e+00
  -1.9635170e-01  -3.3198283e-01  -9.9670284e-01
  -3.6082014e-02  -2.1684829e-01  -1.0123696e+00
  -4.2502030e-02  -2.1240649e-01  -1.0604223e+00
   4.5395508e-02  -4.2420789e-01  -1.0488477e+00
   9.5589211e-02  -4.7306688e-01  -1.0286212e+00
   6.6411899e-03  -2.6243466e-01  -9.8466062e-01
   1.4963469e-01  -2.6114860e-01  -1.0403127e+00
   1.5383702e-01  -4.0480439e-01  -1.0477952e+00
   1.5652198e-01  -4.7902850e-01  -9.9494924e-01
   1.5873967e-01  -3.4507446e-01  -9.5917290e-01
   2.7652435e-02  -2.4945991e-01  -9.7273531e-01
   2.2189051e-01  -3.9896004e-01  -1.0162279e+00
   2.1336914e-01  -5.2671870e-01  -9.3520498e-01
   1.3434314e-01  -4.6301449e-01  -8.6832899e-01
   2.3519743e-01  -3.3093091e-01  -8.9428434e-01
   1.9585951e-01  -4.1555805e-01  -8.7651289e-01
   3.0873717e-01  -5.4658972e-01  -8.7791616e-01
   3.3616844e-01  -5.6844768e-01  -7.8520135e-01
   2.4091712e-01  -3.5734755e-01  -7.4685306e-01
   1.8430340e-01  -3.4963314e-01  -7.8683844e-01
   2.5667594e-01  -5.8352626e-01  -7.3668135e-01
   2.6309596e-01  -5.3314744e-01  -6.5577533e-01
   1.5395374e-01  -4.4513081e-01  -5.6832173e-01
   2.9356234e-01  -4.1789563e-01  -6.0631969e-01
   3.3091562e-01  -5.6470754e-01  -5.8515793e-01
   2.6367956e-01  -6.0316351e-01  -4.9536618e-01
   3.0698637e-01  -4.7633989e-01  -4.0849711e-01
   3.1037126e-01  -4.3858519e-01  -3.9037533e-01
   2.9426267e-01  -4.8124920e-01  -4.3737553e-01
   3.0325092e-01  -5.9416343e-01  -3.3682754e-01
   2.8702561e-01  -5.1748447e-01  -2.3721481e-01
   2.3379678e-01  -4.1006434e-01  -1.9454056e-01
   3.2239464e-01  -4.7365167e-01  -2.1804086e-01
   3.3535139e-01  -6.0246224e-01  -1.8167960e-01
   2.3076166e-01  -5.7347387e-01  -5.0148866e-02
   3.0862045e-01  -4.5927436e-01   8.7766495e-03
   3.7118731e-01  -4.7622301e-01  -2.2134065e-03
   3.8589526e-01  -5.9299425e-01  -2.7233496e-02
   3.7083715e-01  -6.0304663e-01   9.6113346e-02
   3.2624642e-01  -4.6663814e-01   1.7783772e-01
   2.8445737e-01  -4.3250670e-01   1.5901410e-01
   3.0406797e-01  -5.4273231e-01   1.7678555e-01
   4.3200335e-01  -6.5576342e-01   2.2717645e-01
   2.9776467e-01  -5.0906878e-01   3.4210520e-01
   2.4021680e-01  -4.4945573e-01   3.8700107e-01
   4.3176991e-01  -5.7137005e-01   3.2585353e-01
   4.4064145e-01  -6.1298214e-01   3.5473195e-01
   3.7854148e-01  -5.3910906e-01   4.8100147e-01
   3.4352261e-01  -3.9218027e-01   5.0520321e-01
   3.7550636e-01  -4.7610613e-01   4.9655130e-01
   3.7807460e-01  -5.3571918e-01   4.8334001e-01
   3.2029328e-01  -5.1619880e-01   5.9943782e-01
   2.9706435e-01  -3.9124524e-01   6.7555026e-01
   2.5153985e-01  -3.6845224e-01   6.1674126e-01
   2.6893237e-01  -5.2157563e-01   6.4830854e-01
   3.5893088e-01  -4.7353479e-01   6.8841083e-01
   2.2620956e-01  -3.5875049e-01   8.0766553e-01
   2.1873867e-01  -3.0731977e-01   7.5867751e-01
   3.4900886e-01  -4.0772637e-01   7.0220705e-01
   2.3811583e-01  -4.0644070e-01   7.9644166e-01
   2.3262958e-01  -2.9972184e-01   8.6951412e-01
   1.3901235e-01  -2.1170521e-01   9.0049725e-01
   1.7122993e-01  -2.6395409e-01   8.1561600e-01
   2.4068368e-01  -3.8551777e-01   8.7150193e-01
   1.4426516e-01  -2.8651333e-01   9.6070875e-01
   1.8815557e-01  -1.6284583e-01   9.8958717e-01
   7.8196300e-02  -1.7301509e-01   9.5638318e-01
   1.1309845e-01  -2.8101962e-01   9.3007672e-01
   2.3916631e-01  -2.6769462e-01   1.0389259e+00
   1.9235789e-01  -1.3958493e-01   1.0609060e+00
   9.2670809e-02  -1.0545349e-01   1.0482793e+00
   9.6056093e-02  -2.0539296e-01   1.0202192e+00
   1.6060719e-01  -2.2806946e-01   1.0679212e+00
   2.7890239e-03  -9.8089710e-02   1.1991012e+00
  -6.7828351e-03  -7.0971798e-02   1.1568942e+00
   3.6407251e-02  -1.6810578e-01   1.1055681e+00
   8.9985847e-02  -2.2631589e-01   1.1717426e+00
   1.7543186e-01  -1.4613094e-01   1.2285642e+00
   5.5907060e-03  -3.3333591e-02   1.2544026e+00
   7.3293650e-02  -1.0779146e-01   1.1939569e+00
   1.1531614e-01  -1.8984686e-01   1.1752502e+00
  -6.8995556e-03  -8.6634774e-02   1.3184728e+00
  -1.6704855e-02  -1.5449912e-02   1.3351917e+00
  -7.3902177e-02  -7.3660017e-02   1.2760320e+00
   5.7074264e-03  -1.6132640e-01   1.2607160e+00
   7.5749533e-03  -8.3946162e-02   1.3196419e+00
  -6.5030640e-02   9.0966594e-03   1.4146949e+00
  -5.8960786e-02  -2.7021727e-02   1.3125098e+00
  -4.8571884e-02  -3.0645372e-02   1.2410740e+00
   3.6523971e-02  -6.6646879e-02   1.3484034e+00
  -1.9155985e-02   5.3748005e-02   1.3844136e+00
  -1.6436756e-01   1.2504975e-01   1.3396346e+00
  -1.8222736e-01   3.2941956e-02   1.2782537e+00
  -1.8666312e-01   5.0475390e-02   1.2604822e+00
  -2.1911376e-01   8.0281521e-02   1.3763462e+00
  -2.2623449e-01   1.8548095e-01   1.3362439e+00
  -2.5413263e-01   1.5181741e-01   1.2162878e+00
  -2.2740169e-01   6.9527860e-02   1.1879943e+00
  -1.3238381e-01   1.4936256e-01   1.2389697e+00
  -2.7619436e-01   2.6928993e-01   1.2574422e+00
  -3.7950017e-01   2.5561390e-01   1.1185459e+00
  -2.4351029e-01   1.4199878e-01   1.0711946e+00
  -3.0677785e-01   2.3539224e-01   1.0882646e+00
  -3.8136769e-01   3.0178467e-01   1.1406430e+00
  -4.2047217e-01   2.7361485e-01   1.0350676e+00
  -3.6572598e-01   2.2580737e-01   8.9313132e-01
  -2.7094155e-01   2.2756095e-01   9.3779338e-01
  -4.5058839e-01   3.5228075e-01   9.7251755e-01
  -3.1343131e-01   2.9091413e-01   9.1031785e-01
  -3.0129121e-01   2.6274430e-01   7.1845832e-01
  -4.1346855e-01   2.9114789e-01   7.3658049e-01
  -1.6051540e-01   2.6636756e-01   7.9515568e-01
  -4.6389570e-01   4.2545256e-01   7.0840352e-01
  -5.1642381e-01   3.2188944e-01   6.0598502e-01
  -3.3444255e-01   2.5783499e-01   5.2531281e-01
  -4.1907153e-01   3.6770997e-01   6.1861216e-01
  -1.6693580e-01   3.0669398e-01   5.6143986e-01
  -4.3272899e-01   3.3755281e-01   4.4265319e-01
  -3.9374123e-01   2.6648444e-01   3.7589371e-01
  -8.7676363e-02   3.2025314e-01   3.6455294e-01
  -3.8790482e-01   4.0265957e-01   4.5270798e-01
  -3.7611488e-01   3.4982590e-01   2.9720932e-01
  -3.5487020e-01   3.0096652e-01   2.1162663e-01
  -2.1024222e-01   2.6332870e-01   2.3582837e-01
  -2.8004652e-01   4.0780264e-01   2.6038043e-01
  -4.2234009e-01   3.5029342e-01   2.6143299e-01
  -2.1794655e-01   2.5736747e-01   6.7819464e-02
  -3.0315913e-01   2.9290147e-01   7.7055913e-02
  -1.1709226e-01   3.4421531e-01   1.5480505e-01
  -2.8856790e-01   3.9704859e-01   1.2779754e-01
  -3.4039569e-01   2.5970506e-01   3.5901460e-02
  -5.3821899e-03   2.5292568e-01  -7.8092026e-02
  -2.7922948e-01   3.8313919e-01   4.1162674e-02
  -3.4366425e-01   3.7612566e-01   7.0274906e-02
  -2.9008526e-01   2.4801636e-01  -2.8402568e-02
  -1.8993130e-01   2.3585976e-01  -1.2111699e-01
  -1.1160601e-01   3.0926572e-01  -9.2823503e-02
  -2.3498891e-01   3.0949947e-01   4.7709866e-02
  -1.7662438e-01   2.6402998e-01  -6.1840757e-02
  -1.1720898e-01   1.8700077e-01  -1.9512510e-01
  -8.7326202e-02   2.7022496e-01  -1.3199053e-01
  -8.2190111e-02   3.1335688e-01  -1.9516840e-02
  -2.0265500e-01   2.4567839e-01  -6.4997250e-02
  -2.1327734e-01   1.8781892e-01  -1.5782897e-01
  -2.1490785e-02   1.5929807e-01  -1.5747825e-01
  -2.0673742e-02   2.4579527e-01  -4.9096701e-02
  -1.8607952e-01   2.0792369e-01   3.8661572e-03
  -9.1995411e-02   7.4437174e-02  -1.3970680e-01
   5.8241468e-03   1.1149099e-01  -1.3958989e-01
  -2.2191108e-02   1.7519480e-01  -2.8519475e-02
   1.0492724e-01   1.1558175e-01   1.4037863e-02
  -1.1125585e-01   6.5904608e-02  -6.9206299e-02
  -1.0857089e-01   5.2696093e-02  -1.3351033e-01
   1.6737776e-01   5.5033675e-02  -2.6532054e-02
  -8.3707477e-02   8.9281996e-02   5.0983659e-02
  -7.8104504e-02  -6.8000745e-03   1.8787358e-03
   3.2559056e-03  -1.1083032e-01  -8.1365819e-02
   1.7484826e-01  -7.3192501e-02  -4.7226187e-02
   1.9130741e-01  -3.2515437e-02   3.9525974e-02
  -1.0273447e-01  -4.6542106e-02   4.0227417e-02
   7.6562214e-02  -1.9908109e-01  -5.6579543e-02
   9.0452729e-02  -1.4683222e-01  -9.9838324e-02
   1.3224217e-01  -5.1685178e-02   2.5379033e-02
   7.6916738e-03  -1.6389774e-01   4.2565560e-02
  -7.3201854e-02  -2.4104383e-01  -6.0086757e-02
   2.6683141e-01  -2.9177328e-01  -1.0217686e-01
   1.1216469e-01  -1.3584440e-01  -5.3773379e-02
   6.1743081e-03  -1.6530029e-01   6.3727322e-02
   1.3528087e-02  -3.0615059e-01  -3.2962339e-02
   1.4321467e-01  -2.8511078e-01  -1.5245085e-01
   2.6543037e-01  -2.3613451e-01  -6.3243642e-02
   8.2632068e-02  -1.5209217e-01   1.6449215e-03
   5.3799770e-02  -2.7599342e-01  -2.5830218e-02
   1.4461851e-02  -2.7950019e-01  -1.3000272e-01
   1.3551034e-01  -1.8692488e-01  -1.0790570e-01
   1.5768918e-01  -1.6027410e-01   8.8935566e-03
  -2.1957667e-02  -2.0995164e-01   4.2168786e-03
   8.0413988e-02  -3.1678737e-01  -6.1022014e-02
   1.8698836e-01  -1.5407911e-01  -1.1340073e-01
   2.4663720e-01  -8.4530558e-02   1.5674955e-02
   1.7940075e-01  -1.4145539e-01   6.8404000e-02
