**************************************************************************************
            UNIVERSIDAD AUTONOMA METROPOLITANA - AZCAPOTZALCO
                        Departamento de Materiales
                           Area de Estructuras
     AV. SAN PABLO 180,COL.REYNOSA, AZCAPOTZALCO, C.P.02200 CIUDAD DE MEXICO.
**************************************************************************************
ARCHIVO ESTANDAR DE ACELERACION:
VERSION DEL FORMATO                    : 2.0
NOMBRE DEL ARCHIVO                     : RIML201405081
FECHA Y HORA DE CREACION               : MON JUL 18 12:30:07 2018
REF. CATALOGO ACELEROGRAMAS, SMIS 1995 : REGISTRO NO.      /PAG.    


================================================================================
DATOS DE LA ESTACION:
NOMBRE DE LA ESTACION                  : UAM-LERMA.
CLAVE DE LA ESTACION                   : RIML
LOCALIZACION DE LA ESTACION            : AV. DE LAS GARZAS 10, EL PANTEON, C.P.52005,
                                       : LERMA DE VILLADA, ESTADO DE MEXICO. 
                                       :
                                       : 
                                       : 
COORDENADAS DE LA ESTACION             : 19.291481 LAT. N
                                       : 99.502060 LONG. W
ALTITUD (msnm)                         : 2570
TIPO DE SUELO                          : DEPOSITOS LACUSTRES
                                       : 
                                       : 
INSTITUCION RESPONSABLE                : UNIVERSIDAD AUTONOMA METROPOLITANA
                                       : 

================================================================================
DATOS DEL ACELEROGRAFO: 
MODELO DEL ACELEROGRAFO                : BASALT KINEMETRICS
NUMERO DE SERIE DEL ACELEROGRAFO       : 978
NUMERO DE CANALES                      : 3
ORIENTACION C1-C6 (rumbo;orientacion)  : /V/N00E/N90E
ORIENTACION C7-C12 (rumbo;orientacion) : 
VEL. DE MUESTREO, C1-C6 (muestras/s)   : /250/250/250
VEL. DE MUESTREO, C7-C12 (muestras/s)  : 
ESC. COMPLETA DE SENSORES, C1-C6, (g)  : /2/2/2
ESC. COMPLETA DE SENSORES, C7-C12 (g)  : 
FREC. NAT. DE SENSORES, C1-C6, (Hz)    : /210/212/212
FREC. NAT. DE SENSORES, C7-C12 (Hz)    : 
AMORTIGUAMIENTO DE SENSORES, C1-C6     : /0.7/0.7/0.7
AMORTIGUAMIENTO DE SENSORES, C7-C12    : 
INTERVALO DE MUESTREO, C1-C6 (s)       : /0.004/0.004/0.004
INTERVALO DE MUESTREO, C7-C12 (s)      : 
UMBRAL DE DISPARO, C1-C6 (Gal)         : /2/2/2
UMBRAL DE DISPARO, C7-C12 (Gal)        : 
MEMORIA DE PREEVENTO (s)               : 20
TIEMPO DE POSEVENTO (s)                : 30


================================================================================
DATOS DEL SISMO:
FECHA DEL SISMO [GMT]                  : 2014/05/08
HORA EPICENTRO (GMT)                   : 17:00:14
MAGNITUD(ES)                           : /M=6.5
COORDENADAS DEL EPICENTRO              : 16.986 LAT. N
                                       : 100.916 LONG. W
PROFUNDIDAD FOCAL (Km)                 : 10
FUENTE DE LOS DATOS EPICENTRALES       : SSN
                                       : INSTITUTO DE GEOFISICA, UNAM

================================================================================
DATOS DE ESTE REGISTRO:
HORA DE LA PRIMERA MUESTRA (GMT)       : 17:00:40.00
EXACTITUD DEL TIEMPO (s)               : 
DURACION DEL REGISTRO (s), C1-C6       : /254.00/254.00/254.00
DURACION DEL REGISTRO (s), C7-C12      : 
NUM. TOTAL DE MUESTRAS, C1-C6          : /63500/63500/63500
NUM. TOTAL DE MUESTRAS, C7-C12         : 
ACEL. MAX.(Gal), C1-C6                 : /-14.615/-42.198/69.263
ACEL. MAX., C1-C6, EN LA MUESTRA       : /15156/14125/15549
ACEL. MAX.(Gal), C7-C12                : 
ACEL. MAX., C7-C12,EN LA MUESTRA       : 
UNIDADES DE LOS DATOS                  : Gal (cm/s/s)
FACTOR DE DECIMACION                   : 1
FORMATO DATOS (FORTRAN,16 campos/dato) : 3E16.7


================================================================================
CALIDAD DEL ACELEROGRAMA:
REGISTRO DIGITAL COMPLETO CON TIEMPO ABSOLUTO CORRECTO


================================================================================
COMENTARIOS:














================================================================================
DATOS DE ACELERACION:
---------+---------+---------+---------+---------+---------+---------+---------+
   CANAL-1   	      CANAL-2   CANAL-3
         V             N00E      N90E
---------+---------+---------+---------+---------+---------+---------+---------+  
[...]
 -1.2049968e+000  7.1077432e+000 -4.0149674e+001
 -1.3099367e+000  7.2000847e+000 -4.1825329e+001
 -2.4933405e+000  6.9458531e+000 -4.2422315e+001
 -2.6283966e+000  4.7838886e+000 -4.2831727e+001
 -2.4841192e+000  3.7523502e+000 -4.4860312e+001
 -2.7189787e+000  2.8985990e+000 -4.6357631e+001
 -2.8668752e+000  1.7409382e+000 -4.7875532e+001
 -2.8141133e+000  5.7100390e-001 -4.9456931e+001
 -2.1808556e+000 -7.5240440e-001 -4.9954635e+001
 -2.4615902e+000 -8.2043314e-001 -5.0596643e+001
 -3.0678835e+000 -2.1614917e+000 -5.1171528e+001
 -2.3036553e+000 -3.0815189e+000 -5.2468175e+001
 -2.3705412e+000 -2.0476425e+000 -5.4254691e+001
 -1.0511471e+000 -2.3002378e+000 -5.4796364e+001
 -4.7893925e-001 -2.9334213e+000 -5.4727953e+001
 -1.6477518e+000 -2.8371055e+000 -5.5136547e+001
 -1.7018942e-001 -2.2547683e+000 -5.5910466e+001
  2.8914113e-001 -1.8758169e+000 -5.6540196e+001
  9.8788409e-001 -1.6864578e+000 -5.7429185e+001
  2.2953715e+000 -1.5859340e+000 -5.8150480e+001
  2.2730763e+000 -1.8569978e+000 -5.8303907e+001
  2.1652180e+000 -1.1611624e+000 -5.8484114e+001
  1.9458835e+000 -7.0576611e-001 -5.8411844e+001
  2.3885219e+000 -8.6753933e-001 -5.8378399e+001
  1.9265064e+000 -2.1179622e-001 -5.8368693e+001
  1.7808279e+000  2.4932752e-001 -5.7683182e+001
  1.5012605e+000  7.4353078e-001 -5.7370246e+001
  9.9313691e-001  9.9320415e-001 -5.7151916e+001
  1.5897417e+000  1.0116726e+000 -5.6807524e+001
  1.1943786e+000  1.7383664e+000 -5.6827872e+001
  1.1630952e+000  1.7949402e+000 -5.6394019e+001
  1.1426675e+000  1.7633805e+000 -5.6218373e+001
  4.7077223e-001  2.1591641e+000 -5.6134058e+001
  3.2182559e-001  2.1837107e+000 -5.5765341e+001
  1.1558396e-002  2.4260199e+000 -5.5719149e+001
 -3.8345450e-001  2.5842864e+000 -5.5733884e+001
 -8.9099451e-001  2.3745888e+000 -5.5542802e+001
 -1.1898219e+000  2.4537222e+000 -5.5416505e+001
 -1.0320038e+000  2.4675151e+000 -5.5429134e+001
 -1.4140595e+000  2.4073177e+000 -5.5257113e+001
 -1.8355699e+000  2.4458909e+000 -5.5192094e+001
 -1.7864267e+000  2.0648353e+000 -5.4952013e+001
 -2.0641261e+000  2.2360765e+000 -5.4835422e+001
 -2.5026789e+000  2.2952220e+000 -5.4719884e+001
 -2.6648165e+000  1.8312928e+000 -5.4386250e+001
 -3.0437204e+000  2.0370157e+000 -5.4366954e+001
 -3.5788084e+000  1.9249200e+000 -5.3991456e+001
 -3.4844912e+000  1.6159846e+000 -5.3756520e+001
 -3.5948007e+000  1.4753681e+000 -5.3606718e+001
 -4.2169687e+000  1.3430507e+000 -5.3231336e+001
 -4.3642817e+000  1.3220105e+000 -5.3038733e+001
 -4.5522161e+000  1.1926156e+000 -5.2761698e+001
 -5.2246950e+000  1.0474404e+000 -5.2524775e+001
 -5.4492827e+000  8.1027424e-001 -5.2273584e+001
 -5.5914592e+000  8.4837957e-001 -5.1940184e+001
 -6.2060400e+000  7.4434933e-001 -5.1462595e+001
 -6.2871670e+000  4.5306387e-001 -5.1139135e+001
 -6.5417543e+000  4.0549015e-001 -5.0827486e+001
 -7.1554014e+000  2.7457536e-001 -5.0249795e+001
 -7.2413143e+000  1.1455533e-001 -4.9851726e+001
 -7.1921710e+000 -1.6889845e-001 -4.9524874e+001
 -7.3731018e+000 -4.1261019e-001 -4.9102950e+001
 -7.5863669e+000 -5.8946200e-001 -4.8633312e+001
 -7.6135647e+000 -7.1032440e-001 -4.8228344e+001
 -7.8801749e+000 -8.6847437e-001 -4.7837993e+001
 -8.0241026e+000 -1.1841895e+000 -4.7398176e+001
 -8.0877199e+000 -1.3518071e+000 -4.6998821e+001
 -8.1751506e+000 -1.5166196e+000 -4.6669514e+001
 -8.0350751e+000 -1.7037575e+000 -4.6256125e+001
 -8.0318065e+000 -1.9867438e+000 -4.5782629e+001
 -8.0166317e+000 -2.1910645e+000 -4.5402453e+001
 -8.0504834e+000 -2.2665743e+000 -4.4923109e+001
 -8.0805996e+000 -2.4620110e+000 -4.4389856e+001
 -8.0591215e+000 -2.6289277e+000 -4.3917529e+001
 -8.0361256e+000 -2.8205075e+000 -4.3492447e+001
 -8.1155018e+000 -2.9411361e+000 -4.3027020e+001
 -8.1351124e+000 -3.1039613e+000 -4.2481955e+001
 -7.9873325e+000 -3.3725702e+000 -4.1986240e+001
 -7.9609518e+000 -3.6493615e+000 -4.1536016e+001
 -7.9833640e+000 -3.8570721e+000 -4.0969668e+001
 -7.7364811e+000 -4.0258585e+000 -4.0516519e+001
 -7.3704173e+000 -4.3981474e+000 -4.0112136e+001
 -7.5137609e+000 -4.6688606e+000 -3.9520061e+001
 -7.2978113e+000 -4.8909481e+000 -3.9101410e+001
 -7.1548178e+000 -5.1016976e+000 -3.8527578e+001
 -7.3201068e+000 -5.3332532e+000 -3.7941117e+001
 -6.8857560e+000 -5.7568560e+000 -3.7494283e+001
 -6.9110863e+000 -6.0384397e+000 -3.6852976e+001
 -6.8095317e+000 -6.2758396e+000 -3.6297387e+001
 -6.5083695e+000 -6.5564882e+000 -3.5692097e+001
 -6.4596935e+000 -6.8840090e+000 -3.5098268e+001
 -6.2437439e+000 -7.1938798e+000 -3.4489588e+001
 -6.3199682e+000 -7.3582243e+000 -3.3864185e+001
 -6.1243295e+000 -7.6136252e+000 -3.3302281e+001
 -5.7834792e+000 -7.9453539e+000 -3.2671264e+001
 -5.7819618e+000 -8.1849749e+000 -3.2102695e+001
 -5.6127039e+000 -8.3904640e+000 -3.1434374e+001
 -5.4227848e+000 -8.5682513e+000 -3.0712728e+001
 -5.3682721e+000 -8.7874165e+000 -3.0050021e+001
 -4.9795629e+000 -9.1613421e+000 -2.9397370e+001
 -4.7573099e+000 -9.3647274e+000 -2.8684027e+001
 -4.6792177e+000 -9.4072745e+000 -2.7942968e+001
 -4.3338153e+000 -9.5462548e+000 -2.7210213e+001
 -4.4238134e+000 -9.6961055e+000 -2.6473599e+001
 -4.2473184e+000 -9.8526188e+000 -2.5801419e+001
 -4.1808994e+000 -9.8537876e+000 -2.4956867e+001
 -4.3526085e+000 -9.7830703e+000 -2.4127401e+001
 -3.7616071e+000 -9.9450772e+000 -2.3422010e+001
 -3.8221897e+000 -9.9880923e+000 -2.2581552e+001
 -3.9866617e+000 -9.8986727e+000 -2.1664496e+001
 -3.4295116e+000 -9.8851136e+000 -2.0841111e+001
 -3.3951930e+000 -9.7877458e+000 -1.9991414e+001
 -3.2972568e+000 -9.8869840e+000 -1.9032728e+001
 -2.9705308e+000 -9.8181367e+000 -1.8223960e+001
 -3.0661323e+000 -9.5061621e+000 -1.7240716e+001
 -2.9811532e+000 -9.4526272e+000 -1.6236305e+001
 -2.7848141e+000 -9.4236392e+000 -1.5406255e+001
 -2.7938024e+000 -9.3521033e+000 -1.4450375e+001
 -2.7496785e+000 -9.0799876e+000 -1.3531916e+001
 -2.5887085e+000 -8.8367434e+000 -1.2412903e+001
 -2.4069607e+000 -8.7191540e+000 -1.1367680e+001
 -2.1354478e+000 -8.6331243e+000 -1.0515761e+001
 -1.7005138e+000 -8.4603632e+000 -9.4572060e+000
 -1.5677921e+000 -8.0247211e+000 -8.2123638e+000
 -1.3197420e+000 -7.9604325e+000 -6.8549066e+000
 -8.7558623e-001 -7.8179459e+000 -5.6816325e+000
 -9.2916483e-001 -7.3989014e+000 -4.2407962e+000
 -1.0744931e+000 -7.0503409e+000 -2.4160411e+000
 -1.0490461e+000 -6.7182615e+000 -7.9289314e-001
 -9.9476680e-001 -6.4827316e+000  5.8935566e-001
 -1.1836354e+000 -5.8784196e+000  1.9364047e+000
 -1.2534397e+000 -5.4779609e+000  3.5375678e+000
 -9.1807560e-001 -5.1422578e+000  4.9944253e+000
 -1.0251165e+000 -4.3160920e+000  6.4085990e+000
 -1.1283056e+000 -3.8326424e+000  8.0662448e+000
 -7.5126918e-001 -3.2947229e+000  9.4524693e+000
 -5.9333390e-001 -2.6139660e+000  1.1057024e+001
 -3.9734501e-001 -2.1070218e+000  1.2671518e+001
 -1.9318530e-001 -1.4952287e+000  1.3919167e+001
  3.9223097e-002 -1.0028959e+000  1.5349245e+001
  5.5073199e-001 -2.7491603e-001  1.6590345e+001
  9.6068628e-001  5.9379728e-001  1.7817646e+001
  1.2429382e+000  1.2274483e+000  1.9036410e+001
  1.2281135e+000  1.9508691e+000  1.9954518e+001
  1.3489286e+000  2.7534238e+000  2.1072362e+001
  1.1888924e+000  3.5074696e+000  2.2342815e+001
  6.8753892e-001  4.1546794e+000  2.3313663e+001
  7.5745994e-001  4.5934777e+000  2.4212125e+001
  7.5827737e-001  4.9949888e+000  2.5436970e+001
  4.5734859e-001  5.6129768e+000  2.6418577e+001
 -8.3342759e-002  6.0092279e+000  2.7350133e+001
  1.5023324e-001  6.2481472e+000  2.8431725e+001
  4.4684297e-001  6.8200814e+000  2.9211257e+001
  3.9707843e-003  7.2435673e+000  3.0172984e+001
  5.4687983e-001  7.2245144e+000  3.1060570e+001
  7.9679786e-001  7.1474852e+000  3.1673577e+001
  8.8259404e-001  7.4571219e+000  3.2596363e+001
  1.5437503e+000  8.1671008e+000  3.3566510e+001
  1.4524679e+000  8.9848509e+000  3.4729727e+001
  1.4831677e+000  9.4912104e+000  3.6008248e+001
  1.5300928e+000  1.0107445e+001  3.6565007e+001
  1.2976844e+000  1.1202337e+001  3.7042245e+001
  1.4790821e+000  1.2033997e+001  3.7681213e+001
  1.4389271e+000  1.2540941e+001  3.8131789e+001
  1.4416117e+000  1.2756483e+001  3.8601543e+001
  1.9344441e+000  1.2878046e+001  3.9020077e+001
  1.9345608e+000  1.3041222e+001  3.9502344e+001
  1.7205954e+000  1.2993181e+001  3.9781717e+001
  1.9719141e+000  1.2830122e+001  4.0157918e+001
  1.9281404e+000  1.2753911e+001  4.0651995e+001
  1.6615302e+000  1.2941517e+001  4.0883890e+001
  1.5653451e+000  1.2901424e+001  4.1298565e+001
  1.4250362e+000  1.2887047e+001  4.1634421e+001
  1.2911477e+000  1.3037014e+001  4.2051084e+001
  1.1201385e+000  1.2980791e+001  4.2765362e+001
  9.8835098e-001  1.3082484e+001  4.3490166e+001
  9.0874137e-001  1.3078977e+001  4.4149365e+001
  9.5590035e-001  1.2934737e+001  4.4614325e+001
  1.2174912e+000  1.2965128e+001  4.5050166e+001
  1.3016533e+000  1.3061795e+001  4.5438295e+001
  1.3563995e+000  1.3031871e+001  4.5794381e+001
  1.6444878e+000  1.2924334e+001  4.6188474e+001
  1.7629681e+000  1.2813407e+001  4.6608411e+001
  1.7093895e+000  1.2588631e+001  4.7075476e+001
  1.6852264e+000  1.2303541e+001  4.7635625e+001
  1.6122703e+000  1.1954279e+001  4.8237055e+001
  1.6098191e+000  1.1730672e+001  4.8825856e+001
  1.6580286e+000  1.1452478e+001  4.9547502e+001
  1.8515660e+000  1.0961781e+001  5.0346914e+001
  2.1124565e+000  1.0620351e+001  5.1227133e+001
  2.2137777e+000  1.0366469e+001  5.1994269e+001
  2.5248619e+000  1.0004934e+001  5.2838002e+001
  2.6516301e+000  9.6862969e+000  5.3817621e+001
  2.5627992e+000  9.5253418e+000  5.4507810e+001
  2.7544690e+000  9.2842014e+000  5.5184667e+001
  2.7942738e+000  9.0861929e+000  5.5871816e+001
  2.8653620e+000  8.9020938e+000  5.6564577e+001
  3.1336064e+000  8.6560445e+000  5.7193255e+001
  3.3094011e+000  8.4989465e+000  5.7778430e+001
  3.4148078e+000  8.2514942e+000  5.8504169e+001
  3.4508772e+000  8.0839935e+000  5.9163836e+001
  3.3613456e+000  7.8041630e+000  5.9890978e+001
  3.3377665e+000  7.4311727e+000  6.0566315e+001
  3.2078464e+000  7.2618020e+000  6.1284102e+001
  2.8651286e+000  7.0200768e+000  6.2123158e+001
  2.7838849e+000  6.7658451e+000  6.2798027e+001
  2.5656005e+000  6.5868891e+000  6.3385074e+001
  2.4133853e+000  6.3729839e+000  6.4159226e+001
  2.4618278e+000  6.1191025e+000  6.4938758e+001
  2.1956844e+000  6.0278129e+000  6.5383487e+001
  2.1701207e+000  5.9085872e+000  6.6028770e+001
  2.3326085e+000  5.7520739e+000  6.6555475e+001
  2.1830778e+000  5.8344799e+000  6.6894021e+001
  1.9649105e+000  5.7478659e+000  6.7414410e+001
  1.9640931e+000  5.7019288e+000  6.7714599e+001
  1.8838999e+000  5.8416100e+000  6.8117580e+001
  1.8220333e+000  5.7911143e+000  6.8399409e+001
  1.8628886e+000  5.8229081e+000  6.8600665e+001
  1.7086892e+000  5.8697802e+000  6.8993237e+001
  1.5072140e+000  5.9077686e+000  6.9035336e+001
  1.2640662e+000  6.0209166e+000  6.9095795e+001
  1.1818887e+000  6.0258259e+000  6.9301612e+001
  9.0512304e-001  6.1975347e+000  6.9229810e+001
  4.4123961e-001  6.3418917e+000  6.9098601e+001
  2.6147643e-001  6.4002187e+000  6.8964470e+001
 -2.2876874e-002  6.5148861e+000  6.8767306e+001
 -2.7746412e-001  6.4971193e+000  6.8559150e+001
 -4.7625429e-001  6.5083405e+000  6.8279777e+001
 -6.2566820e-001  6.5990457e+000  6.7869312e+001
 -7.3130842e-001  6.6293198e+000  6.7354419e+001
 -7.0212596e-001  6.4763129e+000  6.6953426e+001
 -8.3683192e-001  6.5075223e+000  6.6526123e+001
 -1.0976057e+000  6.6247611e+000  6.5941532e+001
 -9.8414446e-001  6.6211375e+000  6.5342557e+001
 -1.4329694e+000  6.7250512e+000  6.4689790e+001
 -1.4679883e+000  6.7167520e+000  6.3955280e+001
 -1.4177946e+000  6.7658451e+000  6.3289649e+001
 -2.0699625e+000  6.8646158e+000  6.2556426e+001
 -1.8263482e+000  6.8836683e+000  6.1686030e+001
 -1.5802823e+000  6.8710446e+000  6.1003443e+001
 -1.5980250e+000  6.8613428e+000  6.0236423e+001
 -1.4898169e+000  6.9204884e+000  5.9414325e+001
 -1.3921141e+000  6.9671266e+000  5.8694550e+001
 -1.4160438e+000  7.0149337e+000  5.7862043e+001
 -1.7322641e+000  6.9956475e+000  5.6997728e+001
 -1.8007845e+000  6.9959981e+000  5.6193054e+001
 -1.9680578e+000  6.9846597e+000  5.5474799e+001
 -2.1904274e+000  7.0076868e+000  5.4645450e+001
 -2.3356390e+000  7.0032450e+000  5.3891879e+001
 -2.3841986e+000  6.8791096e+000  5.3033528e+001
 -2.3277012e+000  6.9070461e+000  5.2034380e+001
 -2.3900350e+000  6.8743176e+000  5.1247247e+001
 -2.3831478e+000  6.6802830e+000  5.0274060e+001
 -2.5797206e+000  6.5500695e+000  4.9353496e+001
 -2.8227514e+000  6.5174578e+000  4.8446498e+001
 -2.9847719e+000  6.3831532e+000  4.7465943e+001
 -3.1650023e+000  6.1382722e+000  4.6581982e+001
 -3.2105268e+000  5.9108079e+000  4.5542138e+001
 -3.3792012e+000  5.6890710e+000  4.4630462e+001
 -3.5728553e+000  5.5444801e+000  4.3673881e+001
 -3.8052637e+000  5.3107039e+000  4.2658829e+001
 -4.1968913e+000  5.0329776e+000  4.1673363e+001
 -4.5048241e+000  4.8221112e+000  4.0659597e+001
 -4.6925250e+000  4.5799189e+000  3.9751780e+001
 -4.9264508e+000  4.3282586e+000  3.8689015e+001
 -5.1901430e+000  4.0329989e+000  3.7725184e+001
 -5.3451599e+000  3.7669613e+000  3.6777724e+001
 -5.6530923e+000  3.5101579e+000  3.5691454e+001
 -5.9035939e+000  3.2061318e+000  3.4629508e+001
 -5.9122320e+000  2.8437784e+000  3.3583817e+001
 -6.0902444e+000  2.4426179e+000  3.2513919e+001
 -6.2158453e+000  2.1741258e+000  3.1440630e+001
 -6.1462745e+000  1.9610384e+000  3.0550120e+001
 -6.2387245e+000  1.6770002e+000  2.9419647e+001
 -6.2058066e+000  1.3155818e+000  2.8288706e+001
 -6.2472455e+000  1.0964166e+000  2.7285698e+001
 -6.3940912e+000  1.0604147e+000  2.6335899e+001
 -6.0985323e+000  8.1880680e-001  2.5382709e+001
 -6.2572842e+000  5.9461544e-001  2.3949942e+001
 -6.2852995e+000  4.2991984e-001  2.2849756e+001
 -5.9791179e+000  1.9777991e-001  2.1912587e+001
 -6.2695411e+000  1.2460772e-001  2.0631025e+001
 -6.2784122e+000 -1.7766517e-001  1.9411676e+001
 -6.2170126e+000 -4.8356130e-001  1.8296054e+001
 -6.2765447e+000 -5.4831742e-001  1.7245101e+001
 -6.2670895e+000 -7.5485886e-001  1.5999673e+001
 -6.1763907e+000 -9.8641440e-001  1.4783365e+001
 -6.1454574e+000 -1.2275548e+000  1.3691482e+001
 -6.4622614e+000 -1.3895618e+000  1.2546040e+001
 -6.5554117e+000 -1.5731934e+000  1.1432055e+001
 -6.5824928e+000 -1.7539026e+000  1.0372097e+001
 -6.5520264e+000 -1.9138057e+000  9.2433781e+000
 -6.4523394e+000 -2.1261915e+000  8.1157111e+000
 -6.2869336e+000 -2.1533094e+000  7.1056872e+000
 -6.2032388e+000 -2.2306897e+000  5.9410668e+000
 -6.4453357e+000 -2.3433697e+000  4.7915315e+000
 -6.5076692e+000 -2.4506730e+000  3.7342634e+000
 -6.5796911e+000 -2.4366463e+000  2.6011002e+000
 -6.3993444e+000 -2.4815314e+000  1.4231484e+000
 -6.2173627e+000 -2.5646391e+000  6.1013902e-002
 -6.1204773e+000 -2.5819384e+000 -1.3284851e+000
 -5.8377585e+000 -2.7773756e+000 -2.5913365e+000
 -5.8886525e+000 -2.6216804e+000 -3.8638941e+000
 -5.6191239e+000 -2.6519545e+000 -5.2178425e+000
 -5.4701772e+000 -2.7808823e+000 -6.5919053e+000
 -5.4869862e+000 -2.6380447e+000 -7.9899411e+000
 -5.1371476e+000 -2.7050219e+000 -9.3861056e+000
 -4.9962551e+000 -2.6763842e+000 -1.0684624e+001
 -4.7399170e+000 -2.6611887e+000 -1.1974489e+001
 -4.3823745e+000 -2.4992986e+000 -1.3232663e+001
 -4.1171649e+000 -2.1962076e+000 -1.4573397e+001
 -3.8593095e+000 -2.1187105e+000 -1.5945940e+001
 -3.4549586e+000 -1.9806657e+000 -1.7139211e+001
 -3.1380379e+000 -1.5551924e+000 -1.8463690e+001
 -2.8699100e+000 -1.2394776e+000 -1.9968494e+001
 -2.4106961e+000 -1.0678854e+000 -2.1358226e+001
