**************************************************************************************
            UNIVERSIDAD AUTONOMA METROPOLITANA - AZCAPOTZALCO
                        Departamento de Materiales
                           Area de Estructuras
     AV. SAN PABLO 180,COL.REYNOSA, AZCAPOTZALCO, C.P.02200 CIUDAD DE MEXICO.
**************************************************************************************
ARCHIVO ESTANDAR DE ACELERACION:
VERSION DEL FORMATO                    : 2.0
NOMBRE DEL ARCHIVO                     : RIML201404182
FECHA Y HORA DE CREACION               : MON JUL 18 12:30:07 2018
REF. CATALOGO ACELEROGRAMAS, SMIS 1995 : REGISTRO NO.      /PAG.    


================================================================================
DATOS DE LA ESTACION:
NOMBRE DE LA ESTACION                  : UAM-LERMA.
CLAVE DE LA ESTACION                   : RIML
LOCALIZACION DE LA ESTACION            : AV. DE LAS GARZAS 10, EL PANTEON, C.P.52005,
                                       : LERMA DE VILLADA, ESTADO DE MEXICO. 
                                       :
                                       : 
                                       : 
COORDENADAS DE LA ESTACION             : 19.291481 LAT. N
                                       : 99.502060 LONG. W
ALTITUD (msnm)                         : 2570
TIPO DE SUELO                          : DEPOSITOS LACUSTRES
                                       : 
                                       : 
INSTITUCION RESPONSABLE                : UNIVERSIDAD AUTONOMA METROPOLITANA
                                       : 

================================================================================
DATOS DEL ACELEROGRAFO: 
MODELO DEL ACELEROGRAFO                : BASALT KINEMETRICS
NUMERO DE SERIE DEL ACELEROGRAFO       : 978
NUMERO DE CANALES                      : 3
ORIENTACION C1-C6 (rumbo;orientacion)  : /V/N00E/N90E
ORIENTACION C7-C12 (rumbo;orientacion) : 
VEL. DE MUESTREO, C1-C6 (muestras/s)   : /250/250/250
VEL. DE MUESTREO, C7-C12 (muestras/s)  : 
ESC. COMPLETA DE SENSORES, C1-C6, (g)  : /2/2/2
ESC. COMPLETA DE SENSORES, C7-C12 (g)  : 
FREC. NAT. DE SENSORES, C1-C6, (Hz)    : /210/212/212
FREC. NAT. DE SENSORES, C7-C12 (Hz)    : 
AMORTIGUAMIENTO DE SENSORES, C1-C6     : /0.7/0.7/0.7
AMORTIGUAMIENTO DE SENSORES, C7-C12    : 
INTERVALO DE MUESTREO, C1-C6 (s)       : /0.004/0.004/0.004
INTERVALO DE MUESTREO, C7-C12 (s)      : 
UMBRAL DE DISPARO, C1-C6 (Gal)         : /2/2/2
UMBRAL DE DISPARO, C7-C12 (Gal)        : 
MEMORIA DE PREEVENTO (s)               : 20
TIEMPO DE POSEVENTO (s)                : 30


================================================================================
DATOS DEL SISMO:
FECHA DEL SISMO [GMT]                  : 2014/04/18
HORA EPICENTRO (GMT)                   : 14:53:58
MAGNITUD(ES)                           : /M=4.7
COORDENADAS DEL EPICENTRO              : 17.40 LAT. N
                                       : 101.92 LONG. W
PROFUNDIDAD FOCAL (Km)                 : 6.5
FUENTE DE LOS DATOS EPICENTRALES       : SSN
                                       : INSTITUTO DE GEOFISICA, UNAM

================================================================================
DATOS DE ESTE REGISTRO:
HORA DE LA PRIMERA MUESTRA (GMT)       : 14:54:57.00
EXACTITUD DEL TIEMPO (s)               : 
DURACION DEL REGISTRO (s), C1-C6       : /51.00/51.00/51.00
DURACION DEL REGISTRO (s), C7-C12      : 
NUM. TOTAL DE MUESTRAS, C1-C6          : /12750/12750/12750
NUM. TOTAL DE MUESTRAS, C7-C12         : 
ACEL. MAX.(Gal), C1-C6                 : /0.5693/-0.9086/1.0261
ACEL. MAX., C1-C6, EN LA MUESTRA       : /6423/6775/5109
ACEL. MAX.(Gal), C7-C12                : 
ACEL. MAX., C7-C12,EN LA MUESTRA       : 
UNIDADES DE LOS DATOS                  : Gal (cm/s/s)
FACTOR DE DECIMACION                   : 1
FORMATO DATOS (FORTRAN,16 campos/dato) : 3E16.7


================================================================================
CALIDAD DEL ACELEROGRAMA:
REGISTRO DIGITAL COMPLETO CON TIEMPO ABSOLUTO CORRECTO


================================================================================
COMENTARIOS:














================================================================================
DATOS DE ACELERACION:
---------+---------+---------+---------+---------+---------+---------+---------+
   CANAL-1        CANAL-2   	     CANAL-3
         V          N00E               N90E
---------+---------+---------+---------+---------+---------+---------+---------+ 
[...]
  1.8498311e-001  1.8212443e-001 -1.5623008e-001
  8.0985228e-003  2.6158653e-001 -1.7387859e-001
  1.8062817e-003  1.7533652e-001 -1.6113900e-001
 -2.5111201e-002  2.0670009e-001 -2.3933075e-001
 -1.0504726e-001  2.4075550e-001 -2.9309515e-001
  1.0889246e-001  2.3221268e-001 -3.3727544e-001
 -1.1786477e-001  2.7878996e-001 -3.7818299e-001
 -8.0460480e-002  1.8961407e-001 -3.3435331e-001
 -7.4634302e-002  2.1395608e-001 -4.3323296e-001
  5.2844087e-002  2.4988380e-001 -5.4157946e-001
  1.6703851e-001  2.1863725e-001 -4.9062032e-001
 -1.5666764e-001  2.4707533e-001 -4.8337401e-001
 -5.6572798e-002  2.1489223e-001 -5.5408570e-001
  8.0693305e-002  2.3080806e-001 -6.3929041e-001
 -3.9094263e-002  3.0266389e-001 -6.5834175e-001
 -1.9057646e-001  2.6895954e-001 -6.0644727e-001
 -1.8673105e-001  2.3548923e-001 -6.4957574e-001
 -8.6752721e-002  2.5140505e-001 -7.0965150e-001
 -6.3214586e-002  2.8077929e-001 -7.3454671e-001
 -1.2928449e-001  2.6264010e-001 -7.0404136e-001
 -1.2240928e-001  1.9265697e-001 -6.6769212e-001
 -5.0746619e-002  2.2355246e-001 -7.6715573e-001
 -1.6837801e-002  2.7317263e-001 -7.8912920e-001
 -2.5227717e-002  2.4976678e-001 -7.3080649e-001
 -3.5720687e-001  2.6264010e-001 -6.7984736e-001
 -2.2891288e-001  2.3045700e-001 -7.1514477e-001
 -7.0555860e-002  2.5760787e-001 -8.0198566e-001
 -3.3320268e-001  3.0652553e-001 -7.0707997e-001
 -2.7039600e-001  2.0026362e-001 -6.1299276e-001
 -2.2798075e-001  1.7007025e-001 -6.5366657e-001
 -3.1403442e-002  1.8153933e-001 -6.8919772e-001
 -1.4245155e-001  2.3443605e-001 -6.2573235e-001
 -2.9241904e-001  1.8048576e-001 -5.3959267e-001
 -2.2984539e-001  1.3109963e-001 -5.1902203e-001
 -3.3634899e-001  2.0892385e-001 -5.1259380e-001
 -1.3149829e-001  1.7287911e-001 -5.1376250e-001
 -3.5266237e-001  1.7416632e-001 -4.2259703e-001
 -4.4250305e-001  9.6459514e-002 -3.1448388e-001
 -2.2763120e-001  8.1128787e-002 -3.4113254e-001
 -2.2844681e-001  1.2080113e-001 -3.5761235e-001
 -7.7430680e-002  4.0753934e-002 -2.3827892e-001
 -2.7260980e-001  2.0507998e-002 -1.1953023e-001
 -2.2460179e-001 -8.1641242e-003 -1.6756723e-001
 -4.0259421e-002  2.7630266e-005 -1.6686601e-001
 -1.8451725e-001  1.9103372e-002 -6.3311172e-002
 -1.8544938e-001 -4.4910982e-002  2.3747280e-003
 -3.4357336e-001 -6.3986723e-002  4.4450976e-002
 -1.2578862e-001 -1.0518071e-001  5.5904997e-002
  4.7950035e-002 -1.2694829e-001  7.0398023e-002
 -2.0584119e-001 -1.3525707e-001  1.6951142e-001
 -1.4857034e-002 -2.6422272e-001  2.4700195e-001
  9.0306487e-003 -2.2197555e-001  1.8984832e-001
  1.6954501e-002 -2.0360193e-001  2.1649659e-001
  8.1742337e-002 -2.7779815e-001  2.9889643e-001
 -9.7356436e-002 -2.8446865e-001  3.4529725e-001
 -5.8845394e-003 -3.2741793e-001  3.3898550e-001
  4.8183066e-002 -2.9207531e-001  3.0380496e-001
  2.4062353e-002 -3.2589668e-001  3.9017877e-001
 -3.6414010e-002 -3.6521836e-001  4.2582679e-001
 -1.9518054e-002 -3.9669895e-001  4.3389119e-001
  2.1970753e-001 -4.2736040e-001  4.1822947e-001
  2.0665660e-001 -3.9225182e-001  3.9380173e-001
  7.4867127e-002 -4.3098840e-001  5.0974554e-001
  6.7060181e-002 -4.4245709e-001  4.8321415e-001
  1.2124391e-001 -4.1612575e-001  4.2442396e-001
  1.4210218e-001 -3.7071867e-001  4.4487812e-001
  4.4861438e-003 -3.7926187e-001  4.6170855e-001
 -5.0397072e-002 -4.3660572e-001  5.3686168e-001
  4.8649129e-002 -4.0980630e-001  4.5563093e-001
  1.4443250e-001 -3.7060165e-001  4.1203498e-001
  1.1343697e-001 -3.9365644e-001  4.9443443e-001
 -7.1662126e-003 -3.9271989e-001  4.9291512e-001
  8.3839621e-002 -3.8991143e-001  4.6346159e-001
  1.3382878e-001 -3.4040827e-001  3.9660699e-001
  8.7568516e-002 -2.7077620e-001  4.0829475e-001
 -1.2235186e-003 -3.0705498e-001  4.5948763e-001
 -1.8428422e-001 -2.8423461e-001  4.2196969e-001
  5.1795445e-002 -2.5790327e-001  3.6189393e-001
  6.7759275e-002 -1.9856970e-001  3.2647965e-001
 -7.9644870e-002 -2.2127304e-001  3.7930870e-001
  1.7467027e-004 -2.5591355e-001  3.8281519e-001
  5.3659697e-002 -2.1074051e-001  3.1292158e-001
  2.4324567e-001 -1.6591852e-001  2.2608069e-001
  1.2992575e-002 -9.1722690e-002  2.6780633e-001
 -2.0100633e-002 -1.5831186e-001  3.2262256e-001
 -3.2568600e-002 -5.9305552e-002  1.7839430e-001
 -7.1721017e-002 -3.9410675e-002  1.7126446e-001
  1.4373340e-001 -5.2986109e-002  1.6320006e-001
 -1.8172048e-001  3.3045677e-003  1.6623867e-001
 -5.0280557e-002 -7.2998007e-002  1.6647241e-001
  1.6529038e-001  3.7908131e-004  4.4217237e-002
  4.3055983e-002  3.0103986e-002  4.4567846e-002
  2.3246742e-002  4.0051425e-002  5.9995830e-002
 -6.7001496e-003  2.7630266e-005  5.0879205e-002
  1.2147694e-001  4.9998864e-002 -6.9272313e-002
  8.4305684e-002  1.2513124e-001 -9.2180354e-002
 -2.8547391e-003  9.0607756e-002 -4.9519756e-002
 -1.1390284e-001  1.0371511e-001 -1.0316689e-001
 -3.0471316e-002  7.3638757e-002 -1.1427070e-001
  9.7706167e-002  1.4561122e-001 -2.0637112e-001
  4.8882161e-002  1.0582146e-001 -1.7925538e-001
 -4.8648945e-002  8.2767060e-002 -1.4138644e-001
 -3.7928715e-002  8.8267367e-002 -2.2963016e-001
  2.2320340e-001  8.2298982e-002 -3.0022499e-001
  1.2992575e-002  1.7580459e-001 -2.7825151e-001
 -1.2124412e-001  1.0652397e-001 -2.2553933e-001
 -3.8161746e-002  9.9150961e-002 -2.9216019e-001
 -1.0667848e-001  1.3660033e-001 -3.3189904e-001
 -7.1254954e-002  1.6538908e-001 -3.4685955e-001
 -8.2907311e-002  8.6512075e-002 -2.9648476e-001
 -1.0574635e-001  4.1104993e-002 -3.0127681e-001
 -1.0726106e-001  1.0394915e-001 -3.3844414e-001
  1.0096861e-001  6.0180342e-002 -3.6427432e-001
 -1.8702444e-002  9.9385000e-002 -3.6357310e-001
 -1.4105336e-001  2.6125325e-002 -2.5265507e-001
 -3.0820863e-002  2.7646578e-002 -3.3961284e-001
 -2.0450180e-002  7.2819621e-002 -3.7607934e-001
  8.2150385e-003  2.9869947e-002 -3.0840626e-001
 -2.4580922e-001  3.7711036e-002 -2.5265507e-001
 -8.6170142e-002 -7.4285221e-002 -2.4307097e-001
  5.3776213e-002 -2.0803403e-002 -3.4089880e-001
  6.9507011e-002 -4.2921651e-002 -2.6410909e-001
  1.1343697e-001 -1.1571325e-001 -2.0228029e-001
 -1.1518491e-001 -7.4285221e-002 -2.0450121e-001
  1.7927344e-001 -1.6732315e-001 -2.0625425e-001
  1.5771647e-001 -8.8913830e-002 -2.4961607e-001
 -9.9048716e-004 -1.3888506e-001 -1.4758093e-001
  6.1117096e-002 -2.1659226e-001 -9.7089275e-002
  1.4567344e-003 -1.7563192e-001 -1.3939966e-001
  2.1003595e-001 -2.2302873e-001 -1.3717874e-001
  1.1786495e-001 -2.0711290e-001 -9.9660802e-002
  1.4973343e-002 -2.9769303e-001  1.0887685e-003
  2.2879654e-001 -3.3338671e-001 -4.6130141e-002
  4.0300127e-001 -3.3736537e-001 -8.7154562e-002
  3.0069223e-001 -2.9781005e-001 -1.3287388e-002
  1.3988799e-001 -3.3315267e-001  3.1243518e-002
  1.5142383e-001 -3.9342240e-001  3.6035570e-002
  2.2343643e-001 -3.4017423e-001 -2.5793236e-002
  2.7365862e-001 -3.9424154e-001  2.0373846e-002
  1.3546001e-001 -3.8721959e-001  7.4138247e-002
  1.7006792e-001 -4.6422467e-001  8.1384564e-002
  2.6142330e-001 -4.6445871e-001  4.9944247e-002
  2.8717523e-001 -4.1741296e-001 -2.5559496e-002
  2.8601008e-001 -4.9523718e-001  5.8242784e-002
  1.6365916e-001 -4.9441805e-001  7.6125033e-002
  1.5550228e-001 -4.8236386e-001 -1.9498451e-003
  3.2912442e-001 -4.8458763e-001 -4.0052522e-002
  1.7612713e-001 -4.4175497e-001 -5.9454470e-002
 -5.7155376e-002 -4.7077815e-001  2.3179113e-002
  1.6086239e-001 -5.4836794e-001 -5.4896157e-002
  1.4291779e-001 -4.5802185e-001 -1.9304679e-001
  1.6540690e-001 -4.6633102e-001 -1.3928279e-001
  1.6062936e-001 -5.2683479e-001 -1.1123169e-001
  1.5550228e-001 -5.4649563e-001 -1.8194338e-001
  3.0255687e-001 -4.9675843e-001 -2.8748501e-001
  1.6762109e-001 -4.1951971e-001 -3.0665321e-001
  1.5759995e-001 -4.7733163e-001 -2.9613415e-001
  1.4567344e-003 -4.5100029e-001 -3.1986028e-001
  7.3002875e-002 -4.3672274e-001 -3.8145574e-001
  1.7624364e-001 -3.7879379e-001 -4.8185470e-001
  5.4591823e-002 -3.8628343e-001 -4.5123247e-001
 -1.9226131e-003 -3.9190076e-001 -4.4433637e-001
  8.7976173e-003 -3.8300689e-001 -5.2311286e-001
  3.0803351e-001 -3.8125120e-001 -6.0504483e-001
  1.4396644e-001 -2.6410570e-001 -6.2573235e-001
  2.7441700e-002 -3.2343927e-001 -5.5513753e-001
  2.4528416e-002 -2.6094578e-001 -6.4057598e-001
  1.4507280e-002 -2.0769800e-001 -7.2835223e-001
  4.7833519e-002 -1.6720613e-001 -7.3781907e-001
 -2.1481369e-001 -1.1969230e-001 -6.9866496e-001
 -1.0900918e-001 -1.7528086e-001 -7.0532692e-001
 -6.5661808e-002 -8.4115640e-002 -8.1788112e-001
  2.6859121e-002 -6.8784914e-002 -8.1273846e-001
  3.7812383e-002 -6.4805859e-002 -7.9286904e-001
 -1.7158283e-001 -2.9814294e-002 -7.6528581e-001
 -8.7568331e-002  1.2081812e-002 -8.2816645e-001
 -3.5831431e-002  5.5382152e-002 -8.8228146e-001
 -1.2800242e-001  1.1740757e-001 -8.1297220e-001
 -3.1560763e-001  1.1506679e-001 -7.9707674e-001
 -2.3881750e-001  1.0254492e-001 -7.9263530e-001
 -1.9069298e-001  1.9441226e-001 -8.6393173e-001
 -1.7717598e-001  1.8540097e-001 -8.2886806e-001
 -1.5154056e-001  1.4678181e-001 -7.1502790e-001
 -2.3205919e-001  1.6152744e-001 -7.5020844e-001
 -7.2769659e-002  2.2846767e-001 -7.7288274e-001
  2.2198101e-002  2.1547733e-001 -7.3361176e-001
 -7.6615069e-002  2.1980744e-001 -6.4571864e-001
 -3.6198441e-001  2.8405623e-001 -5.9920095e-001
 -1.6202776e-001  2.4555369e-001 -6.0679788e-001
  7.0439137e-002  2.5538411e-001 -5.9160363e-001
 -2.0432649e-001  2.8990759e-001 -5.1504806e-001
 -1.4862727e-001  2.2741449e-001 -3.7958543e-001
 -1.1320375e-001  1.9464630e-001 -3.7689743e-001
  1.1122278e-001  2.2296736e-001 -3.9746807e-001
  1.9209135e-001  2.0318950e-001 -2.7673220e-001
 -8.6053627e-002  1.8259251e-001 -1.6464548e-001
  1.8702237e-002  1.6620821e-001 -1.4781467e-001
  2.8373826e-002  1.9546543e-001 -1.3975026e-001
  6.2282644e-002  2.0459374e-001 -6.4830870e-002
 -4.1308062e-002  1.4338785e-001  7.0047413e-002
 -1.4571438e-001  9.7278650e-002  1.5373282e-001
  1.7181565e-001  7.7149733e-002  1.1294214e-001
  7.7430864e-002  1.2665289e-001  1.7477095e-001
 -4.4104831e-002  7.5628088e-002  3.2940179e-001
  1.0201764e-001 -1.3430392e-002  3.7615322e-001
  1.4827791e-001 -1.5654155e-002  3.9882752e-001
  1.1495167e-001  5.8893128e-002  4.0186653e-001
 -9.4969184e-003  5.7137836e-002  5.0436914e-001
  3.6180772e-002 -6.9252991e-002  6.2791028e-001
 -9.0132069e-002 -7.3449880e-003  5.8969073e-001
 -5.7504924e-002  1.5475769e-002  6.1727434e-001
  1.5643440e-001 -5.1464856e-002  6.8377833e-001
 -7.2769659e-002 -5.8720455e-002  7.7821654e-001
 -3.4316727e-002 -1.3139543e-001  8.2835759e-001
  1.9640243e-001 -1.1805403e-001  7.8032020e-001
  1.5573531e-001 -4.7836861e-002  8.0322863e-001
 -3.6996589e-002 -7.5806866e-002  8.9941989e-001
 -9.1879805e-002 -1.1688384e-001  9.5248268e-001
  4.6551455e-002 -1.1255372e-001  8.9708210e-001
 -4.0790845e-004 -4.4793962e-002  8.9614714e-001
 -5.0979651e-002 -8.5754305e-002  9.6569014e-001
 -9.9920173e-002 -1.5129030e-001  1.0261165e+000
 -8.0343964e-002 -1.0763851e-001  9.7901447e-001
  1.4722927e-001 -1.4508749e-001  9.3647035e-001
  1.8288582e-001 -1.1489411e-001  9.8439087e-001
 -4.5736052e-002 -1.0904275e-001  1.0133765e+000
 -8.5121501e-002 -1.2963974e-001  1.0028575e+000
  1.6249400e-001 -1.1419200e-001  9.2373076e-001
  1.2439023e-001 -6.2348451e-002  9.0935460e-001
 -1.3883917e-001 -1.8228583e-002  9.6171617e-001
 -1.0213397e-001 -1.4017228e-001  9.7761164e-001
  8.9665799e-002 -7.5806866e-002  8.6272004e-001
  7.9295116e-002 -1.8579641e-002  8.0042337e-001
  9.5025914e-002 -1.0775553e-001  9.0386133e-001
  6.4612959e-002 -6.7146641e-002  8.4320122e-001
  5.1911961e-002 -3.6836247e-002  7.5145102e-001
  1.8556568e-001 -4.0680506e-003  6.9698579e-001
  9.1180504e-002  1.9220391e-002  6.6788287e-001
 -5.6515079e-003 -3.1318950e-003  7.1124468e-001
 -1.0959176e-001  5.8542069e-002  5.8057410e-001
  1.3837329e-001  5.4328976e-002  5.1921278e-001
  8.7568516e-002  9.8565864e-002  5.0787563e-001
 -2.2273715e-001  1.3004645e-001  4.6930547e-001
  4.9348224e-002  2.9986967e-002  4.6509816e-001
  6.9273980e-002  1.2595038e-001  3.0649336e-001
  1.5422060e-001  1.5778242e-001  2.5670292e-001
 -4.8648945e-002  1.5988877e-001  2.8615645e-001
 -1.2345792e-001  1.7194295e-001  2.3484671e-001
  4.5269782e-002  2.1337098e-001  1.0721474e-001
 -1.2439043e-001  2.9774868e-001  3.6736788e-002
 -4.2939283e-002  2.2308438e-001  8.8046924e-002
 -2.8006759e-001  2.8218352e-001  3.6853658e-002
 -1.9372238e-001  2.6264010e-001 -1.8663788e-002
  1.2759544e-002  2.9985503e-001 -1.1684183e-001
 -6.4729682e-002  3.2267579e-001 -1.2899746e-001
 -1.6121215e-001  2.6334221e-001 -8.1544422e-002
 -2.1236647e-001  3.2876119e-001 -1.7142432e-001
  6.3503957e-003  3.2232434e-001 -2.3933075e-001
 -1.7880720e-001  4.1676650e-001 -2.5136951e-001
 -2.4242987e-001  3.3742103e-001 -1.8030721e-001
 -2.2914591e-001  3.1764356e-001 -2.3348687e-001
 -2.4452755e-001  3.9371210e-001 -3.0419856e-001
 -1.7845765e-001  3.6621017e-001 -3.0723756e-001
 -1.4652999e-001  3.2759061e-001 -2.6294040e-001
 -1.2858500e-001  2.8148141e-001 -2.3278565e-001
 -2.0339397e-001  3.5204964e-001 -3.2932751e-001
  9.8987840e-002  2.8756720e-001 -3.1565297e-001
 -5.1911777e-002  3.2958033e-001 -3.1249709e-001
 -2.6014183e-001  3.0453620e-001 -2.5499286e-001
 -9.6890373e-002  2.3747895e-001 -2.7088832e-001
 -1.2905145e-001  3.1214286e-001 -3.4639207e-001
  2.0100426e-002  2.3431903e-001 -2.9332889e-001
 -1.0085230e-001  2.1337098e-001 -2.5323942e-001
 -1.7857416e-001  1.8434780e-001 -2.2144850e-001
  1.4932655e-001  1.3975985e-001 -3.2652264e-001
  1.9780101e-001  1.4947325e-001 -3.1506823e-001
  5.6339559e-002  1.1740757e-001 -2.1957858e-001
  1.5555921e-002  8.6980153e-002 -2.2963016e-001
  1.2835215e-001  7.0010761e-002 -2.6609627e-001
  2.8834078e-001  4.6956358e-002 -3.1238022e-001
  2.6509183e-002  7.5862519e-002 -2.1431866e-001
 -9.5958247e-002  1.3837104e-002 -1.5786625e-001
  2.7971783e-001 -9.8510211e-002 -2.3196756e-001
  1.7169914e-001  5.4113105e-003 -2.6516131e-001
  1.0819337e-001 -5.3103129e-002 -1.9713763e-001
  2.8857381e-001 -2.0500616e-001 -1.4571101e-001
  1.4035406e-001 -1.4333220e-001 -1.7820316e-001
  3.0686796e-001 -1.6229092e-001 -2.0087785e-001
  2.8915639e-001 -1.4988568e-001 -2.0473495e-001
  4.1074824e-002 -1.7586596e-001 -1.0854330e-001
  7.9411632e-002 -2.5392422e-001 -8.8908000e-002
  1.0388189e-001 -1.9997393e-001 -1.7878751e-001
  2.4685766e-001 -2.3578463e-001 -1.4512667e-001
  7.8479506e-002 -2.4479592e-001 -7.0791620e-002
  3.3850457e-002 -3.0845960e-001 -3.7597865e-002
  3.3879601e-001 -3.6568644e-001 -1.0480346e-001
  1.7391333e-001 -2.2794394e-001 -1.5272359e-001
  1.5829905e-001 -2.9617138e-001 -3.8299083e-002
  1.7472894e-001 -3.5070677e-001 -1.4222346e-002
 -9.7299499e-003 -2.7077620e-001 -6.8571095e-002
  1.9325651e-001 -3.1220423e-001 -7.5116193e-002
  1.2427371e-001 -2.6597801e-001 -7.1142229e-002
 -1.0644545e-001 -2.7358506e-001  1.9906367e-002
 -4.3288830e-002 -3.0717200e-001 -4.0538928e-003
  1.5905469e-002 -2.6082876e-001 -6.5532089e-002
  1.6272703e-001 -2.8540481e-001 -3.5961688e-002
  1.8702237e-002 -2.5099834e-001  3.8755001e-004
 -4.2473220e-002 -2.8060662e-001  4.9593638e-002
  1.5352151e-001 -2.6176492e-001 -2.9884069e-002
 -6.2981555e-002 -1.1606470e-001 -6.7752614e-002
 -1.0318261e-001 -1.7996203e-001  4.3983497e-002
 -1.3184783e-001 -1.7996203e-001  6.3034836e-002
 -2.5711203e-001 -9.7691075e-002  5.0441976e-004
  3.0879548e-003 -1.2191607e-001  2.2578582e-003
 -2.4645138e-002 -8.2243329e-002  1.2192572e-002
 -1.9593657e-001 -8.5988344e-002  7.2735810e-002
