**************************************************************************************
            UNIVERSIDAD AUTONOMA METROPOLITANA - AZCAPOTZALCO
                        Departamento de Materiales
                           Area de Estructuras
     AV. SAN PABLO 180,COL.REYNOSA, AZCAPOTZALCO, C.P.02200 CIUDAD DE MEXICO.
**************************************************************************************
ARCHIVO ESTANDAR DE ACELERACION:
VERSION DEL FORMATO                    : 2.0
NOMBRE DEL ARCHIVO                     : RIML201403101
FECHA Y HORA DE CREACION               : 06:16 p. m. 07/09/2014
REF. CATALOGO ACELEROGRAMAS, SMIS 1995 : REGISTRO NO.      /PAG.    


================================================================================
DATOS DE LA ESTACION:
NOMBRE DE LA ESTACION                  : UAM-LERMA.
CLAVE DE LA ESTACION                   : RIML
LOCALIZACION DE LA ESTACION            : AV. DE LAS GARZAS 10, EL PANTEON, C.P.52005,
                                       : LERMA DE VILLADA, ESTADO DE MEXICO. 
                                       :
                                       : 
                                       : 
COORDENADAS DE LA ESTACION             : 19.291481 LAT. N
                                       : 99.502060 LONG. W
ALTITUD (msnm)                         : 2570
TIPO DE SUELO                          : DEPOSITOS LACUSTRES
                                       : 
                                       : 
INSTITUCION RESPONSABLE                : UNIVERSIDAD AUTONOMA METROPOLITANA
                                       : 

================================================================================
DATOS DEL ACELEROGRAFO: 
MODELO DEL ACELEROGRAFO                : BASALT KINEMETRICS
NUMERO DE SERIE DEL ACELEROGRAFO       : 978
NUMERO DE CANALES                      : 3
ORIENTACION C1-C6 (rumbo;orientacion)  : /V/N00E/N90E
ORIENTACION C7-C12 (rumbo;orientacion) : 
VEL. DE MUESTREO, C1-C6 (muestras/s)   : /250/250/250
VEL. DE MUESTREO, C7-C12 (muestras/s)  : 
ESC. COMPLETA DE SENSORES, C1-C6, (g)  : /2/2/2
ESC. COMPLETA DE SENSORES, C7-C12 (g)  : 
FREC. NAT. DE SENSORES, C1-C6, (Hz)    : /210/212/212
FREC. NAT. DE SENSORES, C7-C12 (Hz)    : 
AMORTIGUAMIENTO DE SENSORES, C1-C6     : /0.7/0.7/0.7
AMORTIGUAMIENTO DE SENSORES, C7-C12    : 
INTERVALO DE MUESTREO, C1-C6 (s)       : /0.004/0.004/0.004
INTERVALO DE MUESTREO, C7-C12 (s)      : 
UMBRAL DE DISPARO, C1-C6 (Gal)         : /2/2/2
UMBRAL DE DISPARO, C7-C12 (Gal)        : 
MEMORIA DE PREEVENTO (s)               : 20
TIEMPO DE POSEVENTO (s)                : 30


================================================================================
DATOS DEL SISMO:
FECHA DEL SISMO [GMT]                  : 2014/03/10
HORA EPICENTRO (GMT)                   : 00:37:57
MAGNITUD(ES)                           : /M=5.8
COORDENADAS DEL EPICENTRO              : 15.8347 LAT. N
                                       : 98.477 LONG. W
PROFUNDIDAD FOCAL (Km)                 : 4.8
FUENTE DE LOS DATOS EPICENTRALES       : SSN
                                       : INSTITUTO DE GEOFISICA, UNAM

================================================================================
DATOS DE ESTE REGISTRO:
HORA DE LA PRIMERA MUESTRA (GMT)       : 00:39:51.000
EXACTITUD DEL TIEMPO (s)               : 
DURACION DEL REGISTRO (s), C1-C6       : /90.00/90.00/90.00
DURACION DEL REGISTRO (s), C7-C12      : 
NUM. TOTAL DE MUESTRAS, C1-C6          : /22500/22500/22500
NUM. TOTAL DE MUESTRAS, C7-C12         : 
ACEL. MAX.(Gal), C1-C6                 : /-1.111/2.711/-2.085
ACEL. MAX., C1-C6, EN LA MUESTRA       : /7739/5488/5893
ACEL. MAX.(Gal), C7-C12                : 
ACEL. MAX., C7-C12,EN LA MUESTRA       : 
UNIDADES DE LOS DATOS                  : Gal (cm/s/s)
FACTOR DE DECIMACION                   : 1
FORMATO DATOS (FORTRAN,16 campos/dato) : 3E16.7


================================================================================
CALIDAD DEL ACELEROGRAMA:
REGISTRO DIGITAL COMPLETO CON TIEMPO ABSOLUTO CORRECTO


================================================================================
COMENTARIOS:














================================================================================
DATOS DE ACELERACION:
---------+---------+---------+---------+---------+---------+---------+---------+
   CANAL-1   	   CANAL-2   	      CANAL-3
         V           N00E              N90E
---------+---------+---------+---------+---------+---------+---------+---------+
[...]
   4.8874751e-01  -1.5434452e+00  -1.3777466e-01
   1.9855779e-01  -1.5605111e+00  -5.8388431e-02
   1.3902606e-01  -1.7178426e+00  -4.4826418e-02
   4.5221127e-01  -1.7256742e+00  -1.0258286e-01
   4.6995395e-01  -1.5532639e+00  -1.6665308e-01
   1.6377275e-01  -1.5289514e+00  -4.7866003e-02
  -6.8858399e-03  -1.6382416e+00  -4.1786440e-02
   1.6353892e-01  -1.7238038e+00  -8.5045613e-02
   4.6365066e-01  -1.6249166e+00  -1.3555342e-01
   2.3649507e-01  -1.4816115e+00  -1.2982458e-01
   2.3463823e-02  -1.6355534e+00   9.5397189e-03
   3.1703843e-01  -1.7462465e+00  -1.1579455e-01
   4.9586824e-01  -1.6245660e+00  -1.6337928e-01
   2.4898494e-01  -1.5241590e+00  -8.9371570e-02
   3.3035682e-02  -1.5409908e+00  -9.1125177e-02
   8.2061790e-02  -1.6671131e+00  -5.8622245e-02
   3.6151244e-01  -1.6468915e+00  -1.8185218e-01
   2.7571627e-01  -1.4392981e+00  -1.7846148e-01
  -7.0036687e-02  -1.4422201e+00  -7.9667492e-02
   3.3852725e-02  -1.6070326e+00  -1.2432955e-01
   1.7404493e-01  -1.5903177e+00  -1.6945885e-01
   3.2684373e-01  -1.4514543e+00  -1.9646675e-01
   1.2385123e-01  -1.3921919e+00  -1.4689420e-01
   1.7518639e-03  -1.5181974e+00  -1.2783677e-01
   2.7151394e-01  -1.5533807e+00  -1.9903871e-01
   2.4256492e-01  -1.3747757e+00  -2.3855646e-01
   1.1988234e-01  -1.2991491e+00  -1.9962324e-01
  -1.1439398e-01  -1.3379561e+00  -1.7074522e-01
   9.6896368e-03  -1.4294795e+00  -1.7998167e-01
   2.1384974e-01  -1.3405274e+00  -2.3493195e-01
   6.0817104e-02  -1.1780529e+00  -2.5621101e-01
  -4.5289996e-02  -1.2739012e+00  -1.5776735e-01
  -6.9102923e-02  -1.3229944e+00  -1.9471275e-01
   2.1688447e-01  -1.3009023e+00  -2.4019355e-01
   2.8645533e-01  -1.1454409e+00  -2.4276551e-01
  -4.5873598e-02  -1.0701649e+00  -2.1762851e-01
  -9.3382732e-02  -1.2419909e+00  -1.4011319e-01
   5.5681013e-02  -1.1613380e+00  -2.4861126e-01
   7.0505683e-02  -9.7712206e-01  -2.6638271e-01
  -7.8441341e-02  -9.5362740e-01  -1.8828247e-01
  -1.1684511e-01  -1.0933089e+00  -1.5975516e-01
   7.0855845e-02  -1.1045301e+00  -1.8699649e-01
   1.9879162e-01  -9.3317199e-01  -2.6486253e-01
   8.1128026e-02  -8.6923403e-01  -1.7787695e-01
  -1.0925789e-01  -9.5573162e-01  -9.7906183e-02
   1.5992059e-01  -1.0196692e+00  -2.0885969e-01
   2.6462704e-01  -8.0377663e-01  -2.3855646e-01
  -1.4030787e-01  -6.9366829e-01  -9.6503298e-02
  -8.3343991e-02  -8.1008889e-01  -1.1053333e-01
  -7.2360012e-03  -8.5684406e-01  -1.3800847e-01
   7.8560177e-02  -7.8110052e-01  -1.2152339e-01
   2.8435436e-01  -6.2493789e-01  -1.8115074e-01
   1.0740121e-02  -6.2563916e-01  -8.1304192e-02
  -9.6650904e-02  -7.5737210e-01  -2.7171870e-02
   2.4361540e-01  -7.3247489e-01  -1.0597356e-01
   3.5917764e-01  -5.3166091e-01  -1.2561553e-01
   6.5836474e-02  -5.0629619e-01  -3.1264012e-02
   4.1323225e-02  -6.4983510e-01   1.0124255e-02
   1.9248794e-01  -6.1289856e-01  -6.7507972e-02
   1.9727387e-01  -4.2996826e-01  -5.0321446e-02
   4.0156020e-02  -3.5995218e-01  -1.4428207e-02
  -6.5356786e-03  -4.8888003e-01   4.0639373e-02
   1.6307204e-01  -5.5176569e-01   3.3624552e-02
   2.9065766e-01  -4.2342263e-01  -8.2313436e-03
   4.2629738e-01  -2.9402727e-01   2.9925267e-03
   8.9649401e-02  -3.6240704e-01   5.5487757e-02
   7.1439447e-02  -4.9086697e-01   1.2856061e-01
   4.2723114e-01  -3.6193952e-01   9.0720904e-03
   3.6478101e-01  -1.8941225e-01   1.6788746e-02
   4.8910836e-02  -2.1629679e-01   1.4095355e-01
  -6.5600919e-02  -3.4989980e-01   1.4259064e-01
   3.5987836e-01  -3.5293905e-01   8.9744295e-02
   2.5762303e-01  -1.4452714e-01   6.7179648e-02
   1.8536760e-01  -1.5446265e-01   1.5802356e-01
   2.5727287e-01  -3.2348316e-01   1.7228701e-01
   2.1921927e-01  -3.1530084e-01   1.7485936e-01
   4.9960329e-01  -1.7924298e-01   1.0868482e-01
   2.1851855e-01  -4.0146263e-02   1.3347110e-01
   4.2373709e-02  -1.9175022e-01   2.7786240e-01
   1.7264390e-01  -2.8397489e-01   1.8468035e-01
   3.8555881e-01  -1.3541018e-01   1.6620745e-01
   3.2590997e-01  -2.3314104e-02   1.9064301e-01
  -5.1593291e-02  -8.7368949e-02   2.4816563e-01
   1.5139921e-01  -2.9531294e-01   3.1644490e-01
   3.9886572e-01  -1.6708677e-01   1.9146136e-01
   4.6843659e-01  -5.0081771e-02   2.4173535e-01
   2.4618365e-01  -9.9057643e-02   3.0101198e-01
   9.1633649e-02  -1.8789282e-01   3.3012421e-01
   3.4400281e-01  -2.2669982e-01   3.2778568e-01
   3.3699919e-01   1.8648630e-02   2.2934241e-01
   8.8832358e-02  -1.3378596e-02   3.6227603e-01
  -4.2488314e-02  -1.7854170e-01   4.0670427e-01
   2.2692321e-01  -2.1091996e-01   3.5420904e-01
   3.9361291e-01  -1.0911003e-01   3.3877573e-01
   2.4840133e-01   5.2063568e-03   3.5724863e-01
   1.6167139e-01  -1.9817896e-01   4.7299572e-01
   1.7299406e-01  -2.8268922e-01   4.4996345e-01
   4.0668678e-01  -1.5119003e-01   3.8682849e-01
   3.3571527e-01  -4.2834482e-02   4.1103023e-01
   2.4164146e-02  -1.2442237e-01   5.0526484e-01
   1.1557164e-02  -2.8222170e-01   5.2572516e-01
   2.2038647e-01  -2.1746558e-01   4.7030686e-01
   2.9392583e-01  -9.3680812e-02   4.5849806e-01
   4.9727879e-02  -1.6124242e-01   5.2970000e-01
   8.6730999e-02  -3.6334207e-01   6.1142476e-01
   2.5598895e-01  -3.4043181e-01   5.2677732e-01
   2.9532687e-01  -1.9794520e-01   5.1742397e-01
   2.1886911e-01  -2.1816686e-01   5.9751164e-01
   3.8755375e-02  -3.7432949e-01   6.2288245e-01
   1.3762502e-01  -4.4142319e-01   6.2218101e-01
   2.4431612e-01  -2.7567608e-01   5.6793178e-01
   1.4404543e-01  -2.4516789e-01   6.0967076e-01
  -3.3617169e-02  -4.2038338e-01   6.9244769e-01
   7.7049978e-03  -5.1108862e-01   6.6438762e-01
   2.6334272e-01  -4.5264476e-01   6.4041970e-01
   2.5272038e-01  -3.6030282e-01   6.4416112e-01
   2.6731995e-02  -4.8408759e-01   7.1115401e-01
   5.6848217e-02  -6.4071774e-01   7.4272168e-01
   2.7676675e-01  -5.6684427e-01   6.5339757e-01
   2.4700069e-01  -4.5860599e-01   6.6859667e-01
   6.7820722e-02  -5.2067350e-01   7.1360945e-01
  -7.8791503e-02  -6.8969401e-01   7.5862223e-01
   7.4241129e-02  -6.7777116e-01   7.4155222e-01
   2.6906242e-01  -5.4977874e-01   6.6742760e-01
  -1.2489204e-02  -5.5889610e-01   7.3196544e-01
  -1.1077525e-01  -7.5585267e-01   7.9404784e-01
   1.4988185e-01  -8.1885521e-01   7.4681383e-01
   3.2264141e-01  -6.5334186e-01   6.7923601e-01
   1.8992009e-01  -6.2821089e-01   7.2705495e-01
  -4.1437830e-02  -7.6029447e-01   7.7136590e-01
   2.2880221e-02  -8.4585664e-01   7.5371174e-01
   6.3268625e-02  -6.7952474e-01   7.0823133e-01
   2.2412948e-02  -5.7549411e-01   6.8157454e-01
  -8.9871994e-03  -7.5737210e-01   7.5757007e-01
  -9.6300743e-02  -8.5672718e-01   7.6610468e-01
   5.3346604e-02  -7.6111263e-01   6.9805963e-01
   2.3369338e-01  -6.2528852e-01   6.5059140e-01
   2.7549038e-02  -6.9261598e-01   6.9899488e-01
  -1.2991897e-01  -8.2925863e-01   7.4634581e-01
   7.4591290e-02  -7.5842401e-01   6.7081791e-01
   1.9517290e-01  -5.8601401e-01   6.0172069e-01
  -1.1182574e-01  -5.3738878e-01   6.4755182e-01
  -2.4314641e-01  -7.0933126e-01   7.0086540e-01
  -2.8364358e-02  -7.0196710e-01   6.1259384e-01
  -1.1788490e-02  -4.8794499e-01   5.7775276e-01
   2.9650398e-02  -4.8210065e-01   5.7190701e-01
  -1.2431600e-01  -5.6485732e-01   5.6793178e-01
  -2.4793234e-01  -5.8157221e-01   6.1048911e-01
   6.1750867e-02  -4.3768306e-01   5.0561556e-01
   6.9221759e-02  -3.0513157e-01   4.5651064e-01
  -1.8104644e-01  -3.7643371e-01   5.2478951e-01
  -2.1104594e-01  -4.1933147e-01   4.9041646e-01
  -7.4472455e-02  -2.9227409e-01   4.2365699e-01
  -9.5133539e-02  -9.9525552e-02   3.9267424e-01
  -2.6625901e-01  -1.2956583e-01   3.8449035e-01
  -3.6127689e-01  -2.3336232e-01   4.0822407e-01
  -1.9166878e-01  -1.4347523e-01   3.5771626e-01
  -2.0426585e-02   5.0792735e-02   2.6535255e-01
  -1.7812803e-01   7.6274339e-02   2.8663122e-01
  -2.5026714e-01  -4.3418878e-02   2.9949219e-01
  -2.3649295e-01   4.2260169e-02   2.3413599e-01
  -1.4054131e-01   2.5078856e-01   1.7392411e-01
  -1.6505456e-01   3.5189682e-01   1.3791396e-01
  -4.2022541e-01   2.5102232e-01   1.8199109e-01
  -4.8897884e-01   2.8562128e-01   1.4504569e-01
  -3.0302869e-01   4.6668112e-01   4.3796258e-02
  -1.5805055e-01   5.6077625e-01   2.9883131e-02
  -3.5462343e-01   5.3272291e-01   2.3569753e-02
  -3.7248283e-01   4.4365398e-01   4.3445536e-02
  -2.7244559e-01   6.3990928e-01  -4.4008068e-02
  -1.5279774e-01   7.8590265e-01  -1.1614527e-01
  -2.0952857e-01   7.8601952e-01  -9.8958348e-02
  -6.4469604e-01   7.6474596e-01  -9.8139998e-02
  -4.2419390e-01   8.0320232e-01  -1.0807789e-01
  -1.6645521e-01   1.0541614e+00  -2.5574338e-01
  -4.6761743e-01   1.1009165e+00  -2.3645213e-01
  -5.7127340e-01   9.6252069e-01  -1.5893642e-01
  -3.7470091e-01   9.9548334e-01  -2.5223577e-01
  -1.4322627e-01   1.2021417e+00  -3.1314910e-01
  -2.4816578e-01   1.2921456e+00  -3.5535572e-01
  -4.6213118e-01   1.2190903e+00  -2.9537765e-01
  -4.4567242e-01   1.1945441e+00  -3.0321121e-01
  -1.9738847e-01   1.3905657e+00  -4.2129684e-01
  -2.6719278e-01   1.5639107e+00  -4.3018217e-01
  -5.7827702e-01   1.4672442e+00  -3.9347058e-01
  -4.8010769e-01   1.4249305e+00  -4.0446064e-01
  -3.3162755e-01   1.5567807e+00  -4.5847606e-01
  -2.5843796e-01   1.7485942e+00  -5.0489172e-01
  -3.1890385e-01   1.6878124e+00  -4.9214806e-01
  -3.9045935e-01   1.5641445e+00  -4.4351076e-01
  -3.0641398e-01   1.7115404e+00  -4.8630192e-01
  -1.5198070e-01   1.8954057e+00  -5.7457387e-01
  -1.7906219e-01   1.9212380e+00  -5.6451907e-01
  -4.3575040e-01   1.7870502e+00  -4.8583429e-01
  -4.6493286e-01   1.8969252e+00  -5.2733986e-01
  -2.8528601e-01   2.0951678e+00  -6.1116855e-01
  -2.0264128e-01   2.0978560e+00  -5.9819108e-01
  -4.2220965e-01   2.0099563e+00  -5.3622519e-01
  -3.2427377e-01   1.9678763e+00  -5.4101878e-01
  -1.5606631e-01   2.1755865e+00  -6.2964145e-01
  -1.3645571e-01   2.2619672e+00  -6.1163618e-01
  -1.3283698e-01   2.1547804e+00  -5.9573563e-01
  -3.5800832e-01   2.1292988e+00  -5.6089456e-01
  -1.4661117e-01   2.2722534e+00  -5.9772345e-01
  -1.6178600e-01   2.4637162e+00  -6.8353996e-01
  -3.0279525e-01   2.3695042e+00  -5.8743483e-01
  -3.1773664e-01   2.2840589e+00  -5.7609366e-01
  -2.6544197e-01   2.3803748e+00  -6.0649188e-01
   6.6069915e-02   2.4823012e+00  -6.4530818e-01
  -1.7485986e-01   2.5288230e+00  -6.5220610e-01
  -2.4839922e-01   2.3730110e+00  -5.5843951e-01
  -1.3412130e-01   2.4088956e+00  -5.8872081e-01
  -3.1749251e-02   2.5836436e+00  -6.5407701e-01
   8.4863472e-02   2.6038652e+00  -6.6436562e-01
  -2.6053932e-01   2.5462391e+00  -6.0508899e-01
  -3.2579113e-01   2.4740024e+00  -5.6066074e-01
  -1.0750669e-01   2.6472305e+00  -6.3279834e-01
   2.8366473e-02   2.7034537e+00  -6.6728830e-01
  -6.8519321e-02   2.5497459e+00  -6.2601694e-01
  -1.9120190e-01   2.4985489e+00  -5.8357651e-01
  -6.5017316e-02   2.6035146e+00  -6.0298466e-01
   1.6493996e-01   2.7111685e+00  -6.7219879e-01
   5.6031174e-02   2.6135670e+00  -6.4682798e-01
  -1.6680537e-01   2.4980814e+00  -5.6136219e-01
   1.4358846e-02   2.5656426e+00  -6.2017119e-01
   7.6808978e-02   2.7083630e+00  -6.7757691e-01
   6.4669270e-02   2.6434900e+00  -6.5010177e-01
  -1.7941235e-01   2.5340829e+00  -6.0415373e-01
  -1.9482062e-01   2.4785610e+00  -5.4978760e-01
   2.2260416e-01   2.5921762e+00  -6.8026617e-01
   1.5980387e-01   2.6308663e+00  -6.8014926e-01
   5.8716136e-02   2.3977913e+00  -5.7550913e-01
  -2.3928590e-02   2.3929989e+00  -6.1058402e-01
   1.7707967e-01   2.4627812e+00  -6.1479307e-01
   3.0046296e-01   2.5419142e+00  -7.0610461e-01
   3.5030621e-03   2.3946352e+00  -6.2274354e-01
  -6.9926519e-04   2.2329788e+00  -5.5656860e-01
   2.3580544e-02   2.3765174e+00  -6.4460674e-01
   3.0594921e-01   2.3697380e+00  -6.5664896e-01
   2.1548382e-01   2.2844096e+00  -6.7558949e-01
  -1.0668964e-01   2.1206494e+00  -5.5738734e-01
   1.0470751e-01   2.1186621e+00  -5.8766865e-01
   3.5357467e-01   2.2157960e+00  -6.7395279e-01
   4.0190085e-01   2.1176101e+00  -6.6974374e-01
   4.2957702e-02   1.9845915e+00  -6.1011639e-01
  -6.3022377e-03   1.9447326e+00  -5.3189923e-01
   2.6229224e-01   2.0493473e+00  -6.6389799e-01
   3.4353593e-01   1.9973321e+00  -6.8400759e-01
   1.3307254e-01   1.8032979e+00  -5.9281295e-01
  -1.2338223e-01   1.7717378e+00  -5.5610097e-01
   1.6167139e-01   1.8301821e+00  -6.0310157e-01
   3.8964403e-01   1.7877514e+00  -6.6167636e-01
   2.0544508e-01   1.6273812e+00  -6.0158138e-01
   9.9454701e-02   1.4923752e+00  -5.5925786e-01
   2.4758429e-01   1.5761838e+00  -5.7808148e-01
   2.9054094e-01   1.6343943e+00  -6.2590003e-01
   1.6178811e-01   1.4781148e+00  -6.1455925e-01
   4.7869869e-03   1.3310695e+00  -5.2605348e-01
  -1.0738006e-02   1.3475506e+00  -5.3353633e-01
   2.3953019e-01   1.4207228e+00  -6.1537760e-01
   2.4898494e-01   1.2998600e+00  -5.8112106e-01
  -9.4540811e-03   1.1227745e+00  -5.1225766e-01
   4.6809477e-02   1.0839679e+00  -5.0524244e-01
   3.2859454e-01   1.1608802e+00  -5.6206363e-01
   3.2030700e-01   1.1113195e+00  -5.6814359e-01
   1.0727536e-01   9.2698670e-01  -4.9004334e-01
  -2.0660026e-02   8.9519323e-01  -4.8221017e-01
   1.2374207e-02   9.8975587e-01  -4.9331713e-01
   1.2139971e-01   9.8472968e-01  -5.2266318e-01
   9.7586782e-02   7.8859126e-01  -5.0302121e-01
  -1.1427726e-01   6.8222304e-01  -3.9545801e-01
  -3.7586056e-02   7.3739429e-01  -4.4771981e-01
   3.1470402e-01   7.4452431e-01  -5.2137681e-01
   2.1548382e-01   6.1057066e-01  -4.4619963e-01
  -8.0308868e-02   4.7030476e-01  -4.1030639e-01
  -3.0815487e-02   5.3798286e-01  -4.0913732e-01
   1.8361640e-01   6.1898635e-01  -4.5672245e-01
   7.3540806e-02   4.9485134e-01  -4.5087631e-01
  -1.4952957e-01   3.4698751e-01  -3.7955746e-01
  -1.4147508e-01   3.5481919e-01  -3.8014199e-01
   3.1529008e-03   4.3769275e-01  -4.0902041e-01
   6.3151904e-02   3.8544387e-01  -4.4164025e-01
  -5.2877608e-02   1.7469438e-01  -3.4635348e-01
  -1.0108667e-01   1.5003093e-01  -3.3898754e-01
  -3.5718137e-02   2.6399707e-01  -3.9136626e-01
   2.3544458e-01   2.2752766e-01  -3.9943324e-01
   3.4903209e-02   1.1367879e-01  -4.0481136e-01
  -3.0746446e-01   4.1675773e-02  -2.8333543e-01
  -1.2781761e-01   1.4570601e-01  -3.5336830e-01
  -6.3383230e-02   2.0192918e-01  -4.2141375e-01
  -4.2488314e-02   3.1623386e-02  -3.6424145e-01
  -2.2948933e-01  -8.2225876e-02  -3.2530823e-01
  -2.0871153e-01  -1.4781538e-02  -3.0952459e-01
   7.3774247e-02   7.2534208e-02  -3.9510728e-01
   9.2333971e-02  -5.1016804e-02  -3.6552742e-01
  -3.4901094e-02  -1.8029528e-01  -3.3594796e-01
  -2.7069478e-01  -7.9303899e-02  -3.0625119e-01
  -8.5444959e-02   8.0118473e-03  -3.3197272e-01
   2.1129023e-02  -2.2846588e-02  -4.0913732e-01
  -1.9073502e-01  -1.4499505e-01  -3.2378844e-01
  -3.2158881e-01  -1.6182682e-01  -2.9935288e-01
  -1.5980175e-01  -4.8445071e-02  -3.3407705e-01
   1.3529062e-01  -7.0654061e-02  -3.7710241e-01
  -6.0814989e-02  -1.7784043e-01  -3.3933826e-01
  -2.2178500e-01  -2.2319305e-01  -2.6568127e-01
  -1.1264278e-01  -9.5200633e-02  -3.1677362e-01
   1.4147719e-01  -5.0081771e-02  -3.5488809e-01
   4.1790106e-02  -1.5060564e-01  -3.4728873e-01
  -3.1353431e-01  -1.6755429e-01  -2.7328063e-01
  -2.0754393e-01  -9.6836940e-02  -2.5574338e-01
  -6.4433714e-02   2.5661768e-02  -3.3150509e-01
  -4.1087669e-02  -7.6965925e-02  -3.1548724e-01
  -8.9530566e-02  -2.1010181e-01  -2.5738008e-01
  -2.3450870e-01  -1.0431759e-01  -2.3294452e-01
  -6.6534682e-02  -1.0924135e-02  -2.4884507e-01
   2.1174838e-01  -3.6522619e-02  -3.0297740e-01
