**************************************************************************************
            UNIVERSIDAD AUTONOMA METROPOLITANA - AZCAPOTZALCO
                        Departamento de Materiales
                           Area de Estructuras
     AV. SAN PABLO 180,COL.REYNOSA, AZCAPOTZALCO, C.P.02200 CIUDAD DE MEXICO.
**************************************************************************************
ARCHIVO ESTANDAR DE ACELERACION:
VERSION DEL FORMATO                    : 2.0
NOMBRE DEL ARCHIVO                     : RIML201409081
FECHA Y HORA DE CREACION               : 10:30 a. m. 18/01/2021
REF. CATALOGO ACELEROGRAMAS, SMIS 1995 : REGISTRO NO.      /PAG.    


================================================================================
DATOS DE LA ESTACION:
NOMBRE DE LA ESTACION                  : UAM-LERMA.
CLAVE DE LA ESTACION                   : RIML
LOCALIZACION DE LA ESTACION            : AV. DE LAS GARZAS 10, EL PANTEON, C.P.52005,
                                       : LERMA DE VILLADA, ESTADO DE MEXICO. 
                                       :
                                       : 
                                       : 
COORDENADAS DE LA ESTACION             : 19.291481 LAT. N
                                       : 99.502060 LONG. W
ALTITUD (msnm)                         : 2570
TIPO DE SUELO                          : DEPOSITOS LACUSTRES
                                       : 
                                       : 
INSTITUCION RESPONSABLE                : UNIVERSIDAD AUTONOMA METROPOLITANA
                                       : 

================================================================================
DATOS DEL ACELEROGRAFO: 
MODELO DEL ACELEROGRAFO                : BASALT KINEMETRICS
NUMERO DE SERIE DEL ACELEROGRAFO       : 978
NUMERO DE CANALES                      : 3
ORIENTACION C1-C6 (rumbo;orientacion)  : /V/N00E/N90E
ORIENTACION C7-C12 (rumbo;orientacion) : 
VEL. DE MUESTREO, C1-C6 (muestras/s)   : /250/250/250
VEL. DE MUESTREO, C7-C12 (muestras/s)  : 
ESC. COMPLETA DE SENSORES, C1-C6, (g)  : /2/2/2
ESC. COMPLETA DE SENSORES, C7-C12 (g)  : 
FREC. NAT. DE SENSORES, C1-C6, (Hz)    : /210/212/212
FREC. NAT. DE SENSORES, C7-C12 (Hz)    : 
AMORTIGUAMIENTO DE SENSORES, C1-C6     : /0.7/0.7/0.7
AMORTIGUAMIENTO DE SENSORES, C7-C12    : 
INTERVALO DE MUESTREO, C1-C6 (s)       : /0.004/0.004/0.004
INTERVALO DE MUESTREO, C7-C12 (s)      : 
UMBRAL DE DISPARO, C1-C6 (Gal)         : /2/2/2
UMBRAL DE DISPARO, C7-C12 (Gal)        : 
MEMORIA DE PREEVENTO (s)               : 20
TIEMPO DE POSEVENTO (s)                : 30


================================================================================
DATOS DEL SISMO:
FECHA DEL SISMO [GMT]                  : 2014/09/08
HORA EPICENTRO (GMT)                   : 20:30:38
MAGNITUD(ES)                           : /M=5.5
COORDENADAS DEL EPICENTRO              : 16.1178 LAT. N
                                       : 98.3397 LONG. W
PROFUNDIDAD FOCAL (Km)                 : 8.0
FUENTE DE LOS DATOS EPICENTRALES       : SSN
                                       : INSTITUTO DE GEOFISICA, UNAM

================================================================================
DATOS DE ESTE REGISTRO:
HORA DE LA PRIMERA MUESTRA (GMT)       : 20:32:05.000
EXACTITUD DEL TIEMPO (s)               : 
DURACION DEL REGISTRO (s), C1-C6       : /61.00/61.00/61.00
DURACION DEL REGISTRO (s), C7-C12      : 
NUM. TOTAL DE MUESTRAS, C1-C6          : /15250/15250/15250
NUM. TOTAL DE MUESTRAS, C7-C12         : 
ACEL. MAX.(Gal), C1-C6                 : /0.852/-1.299/1.380
ACEL. MAX., C1-C6, EN LA MUESTRA       : 6284/7758/6063
ACEL. MAX.(Gal), C7-C12                : 
ACEL. MAX., C7-C12,EN LA MUESTRA       : 
UNIDADES DE LOS DATOS                  : Gal (cm/s/s)
FACTOR DE DECIMACION                   : 1
FORMATO DATOS (FORTRAN,16 campos/dato) : 3E16.7


================================================================================
CALIDAD DEL ACELEROGRAMA:
REGISTRO DIGITAL COMPLETO CON TIEMPO ABSOLUTO CORRECTO


================================================================================
COMENTARIOS:














================================================================================
DATOS DE ACELERACION:
---------+---------+---------+---------+---------+---------+---------+---------+
   CANAL-1   	   CANAL-2   	      CANAL-3
         V           N00E              N90E
---------+---------+---------+---------+---------+---------+---------+---------+
[...]
   3.1983001e-01   5.2652091e-01  -3.3016621e-01
   1.8932638e-01   5.8730275e-01  -3.5962877e-01
   2.0321728e-01   5.2441670e-01  -3.4513150e-01
   3.2671690e-01   4.3429585e-01  -3.3542742e-01
   3.2566642e-01   4.6281670e-01  -3.1216094e-01
   1.7648595e-01   5.8882218e-01  -3.3320580e-01
   1.1030038e-01   5.8964033e-01  -3.9809436e-01
   2.1360619e-01   4.3441273e-01  -3.4045482e-01
   3.2438250e-01   4.1547714e-01  -3.1999450e-01
   1.6866529e-01   5.6170427e-01  -3.6430545e-01
   1.6376264e-01   5.1763732e-01  -3.6781306e-01
   2.5808020e-01   4.1384044e-01  -3.8780575e-01
   3.7609356e-01   3.7374777e-01  -3.7669878e-01
   3.5543248e-01   4.2190588e-01  -3.7237283e-01
   1.4695373e-01   5.1600101e-01  -4.1387800e-01
   1.8045484e-01   4.2611392e-01  -4.4825145e-01
   3.4224190e-01   3.4873368e-01  -4.2451734e-01
   2.8084225e-01   4.2786711e-01  -4.3024657e-01
   7.1896612e-02   4.6679099e-01  -4.5935841e-01
   5.0067932e-02   4.5989473e-01  -4.9361495e-01
   1.7788699e-01   3.1869340e-01  -5.0261758e-01
   4.3025615e-01   2.5978202e-01  -4.5409720e-01
   2.2154357e-01   4.4271193e-01  -5.0822952e-01
   3.5009821e-02   4.1138598e-01  -5.5546354e-01
   1.9259494e-01   3.1892716e-01  -5.7452097e-01
   2.5271067e-01   2.7182135e-01  -5.3617268e-01
   3.1084175e-01   3.2243393e-01  -5.6364782e-01
  -2.3938307e-02   4.7894720e-01  -6.5168557e-01
   3.1274767e-02   3.1507015e-01  -6.1567542e-01
   2.3298334e-01   2.2565058e-01  -6.3566811e-01
   1.5769279e-01   3.3599308e-01  -6.0316557e-01
   1.2991098e-01   3.1658958e-01  -5.9731982e-01
  -4.7751234e-02   3.1775837e-01  -6.7658875e-01
   2.8644522e-01   1.6673881e-01  -6.5039959e-01
   3.2986875e-01   1.5025768e-01  -5.5780207e-01
   9.7110184e-02   3.0630343e-01  -5.8375742e-01
   1.1520303e-01   2.6375630e-01  -6.7097681e-01
   5.8277540e-03   2.0484453e-01  -6.0328248e-01
   1.7520203e-01   1.1916549e-01  -5.3254817e-01
   1.3796547e-01   2.0507829e-01  -5.3605577e-01
   3.1041326e-02   2.5393768e-01  -5.8153618e-01
  -2.9270619e-03   1.3611413e-01  -5.2611788e-01
   1.0224627e-01   7.5215415e-02  -4.1364419e-01
   3.0407157e-01   8.0592245e-02  -4.2451734e-01
   1.6668105e-01   1.2839972e-01  -4.2919401e-01
   1.7850742e-02   1.2349040e-01  -4.1118914e-01
   6.8044446e-02   2.7525213e-02  -3.1590236e-01
   2.6718517e-01  -1.9697865e-02  -2.6843414e-01
   1.8045484e-01   1.0677512e-01  -2.8877755e-01
  -6.5494307e-02   1.0993125e-01  -2.5124761e-01
  -7.6116649e-02   3.7694479e-02  -2.0962553e-01
   2.0088248e-01  -4.6932656e-02  -1.0299759e-01
   1.8699197e-01   4.1474321e-03  -8.2420361e-02
  -2.6936211e-03   6.7384123e-02  -8.1602011e-02
   6.4192280e-02  -4.8101447e-02  -3.3315830e-02
   2.2154357e-01  -9.9065048e-02   1.8829070e-02
   1.7076626e-01  -2.2502963e-02   8.9329570e-02
  -2.3004543e-02   3.9213907e-02   8.5354334e-02
  -2.5922946e-02  -5.6400647e-02   9.5642948e-02
  -5.5338845e-02  -6.4115452e-02   1.5012599e-01
   1.5687575e-01  -8.0129065e-02   2.2144484e-01
   1.9484828e-02  -3.7581544e-02   2.2565389e-01
  -1.3074612e-01  -3.4776445e-02   2.0601192e-01
  -4.6233868e-02  -9.8480260e-02   2.4763400e-01
   8.1818632e-02  -1.3962523e-01   3.1883594e-01
   1.9679727e-01  -1.5353463e-01   3.1649780e-01
  -1.5992819e-01  -1.4437913e-02   2.7546026e-01
  -5.0552916e-02  -1.7130182e-01   3.2047304e-01
   3.0574053e-02  -2.1186201e-01   3.4280387e-01
   1.0738237e-01  -1.1402675e-01   3.3894554e-01
  -2.3471425e-02  -1.5832706e-01   3.2713714e-01
  -3.3805767e-01  -1.4991138e-01   3.1906976e-01
  -2.3237984e-02  -2.2027809e-01   3.1182112e-01
   2.3687156e-02  -2.6738389e-01   3.5940586e-01
   3.5943976e-02  -2.7544933e-01   3.6408254e-01
  -2.9191118e-02  -1.9900413e-01   2.3325325e-01
  -5.7439813e-02  -3.1098333e-01   2.3489034e-01
   7.6332380e-02  -3.6171278e-01   2.9065936e-01
   3.3725896e-02  -2.3453812e-01   2.3021366e-01
  -8.1252740e-02  -2.3675922e-01   1.2218283e-01
  -2.7992620e-01  -2.9555411e-01   1.4147408e-01
  -7.1447440e-02  -4.0788355e-01   1.7210610e-01
   1.0703220e-01  -2.9239798e-01   6.3608037e-02
  -5.9540781e-02  -3.0782720e-01   3.3560547e-02
  -2.6498480e-01  -3.7702511e-01  -8.1788332e-03
  -9.9112142e-02  -3.6884279e-01  -5.9154270e-02
   1.5535799e-01  -4.2857272e-01  -7.2716283e-02
  -4.4132509e-02  -3.6849216e-01  -1.0860991e-01
  -1.6424724e-01  -3.6814152e-01  -2.0553339e-01
  -7.8100897e-02  -4.2261149e-01  -2.8655632e-01
  -6.5144145e-02  -4.3839135e-01  -2.3546397e-01
  -1.3891694e-01  -3.8123315e-01  -3.0210614e-01
  -1.3004580e-01  -3.8438889e-01  -4.4462693e-01
  -2.5167789e-01  -4.2705329e-01  -4.6450272e-01
  -1.5841082e-01  -5.2488855e-01  -4.1843777e-01
  -2.6739989e-02  -4.3897574e-01  -5.2354553e-01
  -1.1907290e-01  -4.1793594e-01  -6.0947895e-01
  -2.5202805e-01  -5.0513441e-01  -6.0339939e-01
  -2.5132773e-01  -4.7976969e-01  -6.9073569e-01
  -2.9074398e-02  -4.8678322e-01  -7.3761938e-01
  -2.1269013e-01  -4.0671476e-01  -7.7877383e-01
  -3.4996394e-01  -4.6702908e-01  -8.1022421e-01
  -3.8801793e-01  -4.1407853e-01  -8.7932182e-01
  -1.2070738e-01  -4.9648497e-01  -8.9066260e-01
  -1.4872224e-01  -4.3745631e-01  -9.0855096e-01
  -4.7253019e-01  -3.4499750e-01  -9.8524793e-01
  -2.8949805e-01  -5.0174492e-01  -9.8080506e-01
  -1.6401380e-01  -4.5569063e-01  -1.0137752e+00
  -1.9736371e-02  -4.7111985e-01  -1.0372755e+00
  -3.4774625e-01  -3.1484034e-01  -1.1115174e+00
  -4.5478711e-01  -3.7912894e-01  -1.1306918e+00
  -3.4692921e-01  -3.8170067e-01  -1.1229751e+00
  -3.0969226e-01  -3.0525586e-01  -1.1675203e+00
  -1.8502504e-01  -3.8041461e-01  -1.1734829e+00
  -5.2214029e-01  -2.2074560e-01  -1.2265631e+00
  -4.1638296e-01  -3.0443731e-01  -1.1850575e+00
  -2.2518000e-01  -3.0046342e-01  -1.1649479e+00
  -2.4268963e-01  -2.2308318e-01  -1.2227048e+00
  -3.1844707e-01  -1.9093908e-01  -1.2186126e+00
  -5.4163378e-01  -1.3997587e-01  -1.2041150e+00
  -2.5156117e-01  -2.4225292e-01  -1.1650648e+00
  -1.8525848e-01  -8.2116010e-02  -1.2284336e+00
  -4.5046807e-01  -8.9442035e-03  -1.2391899e+00
  -5.7595233e-01  -5.8855500e-02  -1.1714955e+00
  -5.6462966e-01   3.3135802e-02  -1.2054009e+00
  -1.7253517e-01  -4.7400172e-02  -1.1726646e+00
  -3.0875849e-01   1.9693529e-02  -1.1581669e+00
  -5.6603031e-01   8.9125204e-02  -1.1388757e+00
  -3.6035284e-01   4.9032536e-02  -1.0974874e+00
  -3.3619014e-01   1.0338563e-01  -1.0970198e+00
  -2.9124925e-01   6.3643600e-02  -1.0462782e+00
  -4.6844458e-01   2.1992311e-01  -1.0779624e+00
  -7.0937436e-01   2.4680727e-01  -1.0239469e+00
  -4.5898944e-01   1.0899622e-01  -9.1451362e-01
  -3.4891346e-01   2.2833919e-01  -1.0069942e+00
  -4.7614852e-01   2.2249445e-01  -9.7110099e-01
  -5.9054356e-01   2.3476793e-01  -8.7218970e-01
  -5.3731512e-01   2.3219620e-01  -8.9019497e-01
  -2.2051119e-01   1.9864955e-01  -8.8142615e-01
  -3.8019688e-01   2.4107980e-01  -8.4576672e-01
  -5.8914291e-01   2.4189795e-01  -7.6263947e-01
  -4.8700470e-01   2.9052358e-01  -7.5293539e-01
  -3.8078048e-01   2.2272821e-01  -7.3118870e-01
  -4.3482635e-01   2.4715790e-01  -6.7623803e-01
  -6.6058130e-01   2.9695232e-01  -6.7530277e-01
  -6.0221638e-01   2.7240575e-01  -6.3613574e-01
  -4.1790072e-01   1.9876643e-01  -5.6972738e-01
  -3.1377786e-01   1.5914127e-01  -5.6212803e-01
  -4.1801744e-01   2.3172869e-01  -5.9147407e-01
  -4.9085647e-01   1.8322033e-01  -5.0004523e-01
  -4.3634372e-01   1.5306317e-01  -4.4415931e-01
  -1.8234047e-01   1.3038666e-01  -4.9303041e-01
  -1.5537609e-01   1.1963300e-01  -4.7198556e-01
  -5.9509604e-01   1.6381683e-01  -3.8149237e-01
  -5.2178974e-01   1.9561030e-01  -3.8839028e-01
  -2.5482934e-01   8.5501560e-02  -3.9271624e-01
  -2.2494656e-01   1.3147907e-02  -2.9181753e-01
  -3.8544969e-01   1.1787982e-01  -2.9263588e-01
  -4.1568264e-01   6.5864302e-02  -2.7053886e-01
  -1.3051268e-01  -5.2543245e-02  -2.1161295e-01
  -4.2965304e-02  -5.9323017e-02  -2.4575258e-01
  -8.7322595e-02  -3.7464664e-02  -2.5908118e-01
  -3.4354392e-01   2.1212957e-02  -1.8460544e-01
  -3.1214378e-01  -3.0100889e-02  -1.4438625e-01
  -2.5456064e-02  -1.2057237e-01  -2.0436432e-01
  -1.0541583e-01  -1.0315582e-01  -1.9769983e-01
  -2.8517901e-01  -1.1496178e-01  -9.5281323e-02
  -2.4350668e-01  -1.0584443e-01  -5.0736171e-02
   6.8744768e-02  -1.7597738e-01  -1.0089326e-01
   6.1507710e-02  -2.5931845e-01  -6.2544577e-02
  -1.2677723e-01  -2.0788772e-01  -1.6012004e-02
  -1.6704892e-01  -1.6849633e-01  -2.2208475e-02
   1.1730439e-01  -3.0560649e-01   2.9819126e-02
   2.0076576e-01  -3.1682767e-01  -9.2980578e-04
  -5.1253239e-02  -2.5359098e-01   1.5555278e-02
  -1.1055192e-01  -2.7673500e-01   7.4013557e-02
  -5.2070282e-02  -2.7825443e-01   9.3070598e-02
   2.4804146e-01  -4.0402615e-01   1.0569775e-01
   1.7566891e-01  -3.7386899e-01   1.1154350e-01
   1.9017946e-02  -3.6451787e-01   2.0998716e-01
   6.9678532e-02  -3.6673897e-01   2.2693987e-01
   2.1629076e-01  -4.0835107e-01   2.1501456e-01
   2.8936362e-01  -5.0139389e-01   2.5757189e-01
   1.4100020e-01  -4.0928610e-01   3.1731615e-01
  -9.4281455e-04  -3.6030983e-01   3.4479129e-01
   1.4496909e-01  -4.4224875e-01   3.5484609e-01
   3.5006295e-01  -5.2874595e-01   3.9962506e-01
   8.1118309e-02  -4.3640440e-01   4.2090412e-01
   9.8510829e-02  -4.6644468e-01   5.1969811e-01
   1.8500733e-01  -5.0186180e-01   5.5149960e-01
   3.9862257e-01  -5.4370765e-01   5.4729055e-01
   3.6547122e-01  -6.0647643e-01   6.1159418e-01
   8.4619922e-02  -5.0887493e-01   6.8875917e-01
   2.5271067e-01  -5.1051124e-01   7.1027166e-01
   3.0068629e-01  -5.5878623e-01   7.1775450e-01
   3.3033563e-01  -6.1372372e-01   7.8568265e-01
   1.3329626e-01  -5.3704515e-01   7.9433456e-01
   3.7111180e-02  -5.0922557e-01   8.8564610e-01
   2.7418879e-01  -6.2926982e-01   9.1885008e-01
   5.0904871e-01  -6.6971312e-01   8.9651925e-01
   2.9613380e-01  -6.4656910e-01   9.9811940e-01
   4.3531196e-02  -5.8450159e-01   1.0632418e+00
   4.3118992e-01  -6.8186934e-01   1.0662818e+00
   5.5725778e-01  -7.3610555e-01   1.0589158e+00
   3.8263030e-01  -7.0898764e-01   1.1432125e+00
   2.0251696e-01  -6.7029752e-01   1.1813274e+00
   2.2831414e-01  -6.4843956e-01   1.1864717e+00
   4.1834989e-01  -7.5387274e-01   1.2103223e+00
   3.6231938e-01  -7.7409440e-01   1.2057626e+00
   3.3582188e-01  -7.7467879e-01   1.2703004e+00
   2.6660118e-01  -6.9577912e-01   1.2513603e+00
   4.8955484e-01  -8.4527926e-01   1.2850319e+00
   6.8997949e-01  -9.5047868e-01   1.3175348e+00
   4.9492437e-01  -8.0214734e-01   1.2708849e+00
   3.3862356e-01  -7.7958811e-01   1.3240820e+00
   3.7060731e-01  -8.3265514e-01   1.3361242e+00
   7.3737151e-01  -9.5714118e-01   1.3196392e+00
   5.3566293e-01  -8.5018857e-01   1.3065444e+00
   2.1255570e-01  -8.3768133e-01   1.3769280e+00
   4.0154058e-01  -8.5801986e-01   1.3534281e+00
   6.4282052e-01  -9.2265910e-01   1.2805890e+00
   6.9546574e-01  -1.0278585e+00   1.3814877e+00
   3.7527652e-01  -8.6655282e-01   1.3722517e+00
   4.3375816e-01  -8.4855187e-01   1.3171841e+00
   7.4425841e-01  -9.8963593e-01   1.3258356e+00
   7.6211820e-01  -1.0612887e+00   1.3285249e+00
   6.2904672e-01  -9.1552909e-01   1.3072462e+00
   4.8080002e-01  -8.3709694e-01   1.2865521e+00
   4.8430202e-01  -9.1623036e-01   1.3142610e+00
   7.2826653e-01  -9.6497287e-01   1.2649223e+00
   7.2243012e-01  -9.3376340e-01   1.2210790e+00
   4.4403034e-01  -8.8700823e-01   1.3092336e+00
   5.0916544e-01  -8.4048682e-01   1.2545168e+00
   8.4639701e-01  -9.4182884e-01   1.2092702e+00
   8.4499598e-01  -1.0056499e+00   1.2759123e+00
   5.5422305e-01  -8.0016040e-01   1.1960589e+00
   5.4348359e-01  -7.7935435e-01   1.1676481e+00
   5.8492287e-01  -8.2973316e-01   1.1533842e+00
   7.0001823e-01  -8.2529136e-01   1.1169065e+00
   5.2188875e-01  -7.3552116e-01   1.1213493e+00
   2.5247722e-01  -6.5685525e-01   1.1093067e+00
   5.4651872e-01  -6.7812920e-01   1.0564608e+00
   7.0620480e-01  -7.2429998e-01   1.0295698e+00
   6.4935764e-01  -7.0711718e-01   1.1006552e+00
   3.5823416e-01  -4.7170464e-01   1.0273485e+00
   4.5523629e-01  -5.1600495e-01   9.5100229e-01
   6.9243062e-01  -5.9408646e-01   9.8268648e-01
   4.7799834e-01  -4.7801650e-01   9.4270110e-01
   4.4333002e-01  -3.8275258e-01   8.8050179e-01
   1.1438598e-01  -2.6095515e-01   8.9242711e-01
   3.9570416e-01  -3.9642861e-01   8.7839707e-01
   6.3336538e-01  -3.8181755e-01   7.8287648e-01
   2.5201034e-01  -2.6983835e-01   8.3560592e-01
   2.7769080e-01  -1.8895174e-01   7.9772487e-01
   2.2703021e-01  -9.8246502e-02   6.6993555e-01
   4.5430252e-01  -2.6130579e-01   7.6264998e-01
   3.3430452e-01  -1.3424840e-01   7.4335912e-01
   1.4742061e-01   6.1539384e-02   6.0726862e-01
   2.1278914e-01   6.7187723e-03   6.2270154e-01
   1.9808119e-01  -3.0994642e-03   6.4853998e-01
   2.8271017e-01   6.0019955e-02   5.9452456e-01
   4.4581680e-02   1.8649294e-01   5.7008901e-01
  -8.0552418e-02   2.3979413e-01   5.4834271e-01
   1.1777127e-01   1.6475186e-01   5.2238736e-01
   2.8819642e-01   1.7001182e-01   5.1057856e-01
   8.5670406e-02   2.4797606e-01   5.1537215e-01
  -9.8528540e-02   3.8333264e-01   4.8485703e-01
  -3.6273845e-03   3.9619052e-01   4.3411541e-01
   1.9644672e-01   2.7240575e-01   4.6767050e-01
  -5.3704368e-02   4.5673860e-01   4.3785683e-01
  -3.7611127e-01   5.6369121e-01   4.1435653e-01
  -1.9646482e-01   5.1436431e-01   4.1459035e-01
  -3.9813853e-02   4.6328422e-01   4.2639915e-01
   6.7615175e-03   4.6597283e-01   4.6264311e-01
  -2.4187259e-01   6.0717376e-01   4.2534659e-01
  -2.8401180e-01   6.3429168e-01   3.9307786e-01
  -1.5105704e-01   5.8005546e-01   3.9880671e-01
  -1.1860602e-01   5.7327608e-01   4.1073241e-01
  -1.7241845e-01   7.0068410e-01   3.9120735e-01
  -4.8303581e-01   7.7140145e-01   3.8290616e-01
  -4.6645994e-01   7.6684277e-01   3.4525931e-01
  -1.7825486e-01   6.8198227e-01   3.9927433e-01
  -2.2903217e-01   7.1997072e-01   4.5060049e-01
  -5.3871577e-01   8.7508144e-01   4.0009268e-01
  -5.4455218e-01   8.3370311e-01   3.9646856e-01
  -2.4782573e-01   7.3528306e-01   4.2745131e-01
  -1.4522063e-01   7.0419087e-01   4.8357105e-01
  -4.2642170e-01   8.7777006e-01   4.3785683e-01
  -5.2727638e-01   8.9319927e-01   4.4077990e-01
  -3.6315452e-01   7.9746784e-01   4.6463053e-01
  -3.6957454e-01   8.7660087e-01   4.6848885e-01
  -4.2607154e-01   8.6467842e-01   4.9058587e-01
  -6.4283862e-01   9.5094186e-01   4.6357836e-01
  -4.9108991e-01   9.1914839e-01   4.9409348e-01
  -1.5315801e-01   7.5971275e-01   5.2063336e-01
  -3.5568363e-01   8.6689912e-01   5.7301208e-01
  -5.2027237e-01   9.8133278e-01   5.2297190e-01
  -4.4159653e-01   9.3890253e-01   4.8555847e-01
  -2.3054993e-01   7.8367493e-01   5.9475838e-01
  -2.6054904e-01   8.3756051e-01   5.8400213e-01
  -4.2105217e-01   9.9091765e-01   5.3898935e-01
  -5.3556392e-01   9.5725373e-01   5.4074296e-01
  -4.3774476e-01   8.5672986e-01   5.6471089e-01
  -1.8374112e-01   8.1745573e-01   5.7733804e-01
  -2.6883697e-01   8.5871719e-01   6.0001959e-01
  -4.3354243e-01   9.2218725e-01   5.6132019e-01
  -4.1136359e-01   8.6841894e-01   5.0005614e-01
  -6.6428070e-02   7.0699636e-01   5.9417384e-01
  -1.8922737e-01   8.2189714e-01   5.6611377e-01
  -4.0739509e-01   8.7402953e-01   4.8871536e-01
  -3.6735685e-01   8.2750812e-01   4.8380487e-01
  -2.7537371e-01   7.4065989e-01   4.8251889e-01
  -1.7825486e-01   7.3013999e-01   5.0216086e-01
  -4.0365965e-01   8.5778216e-01   4.3984425e-01
  -3.2556741e-01   7.5129667e-01   3.8886881e-01
  -3.0117127e-01   7.1973696e-01   3.9284405e-01
