**************************************************************************************
            UNIVERSIDAD AUTONOMA METROPOLITANA - AZCAPOTZALCO
                        Departamento de Materiales
                           Area de Estructuras
     AV. SAN PABLO 180,COL.REYNOSA, AZCAPOTZALCO, C.P.02200 CIUDAD DE MEXICO.
**************************************************************************************
ARCHIVO ESTANDAR DE ACELERACION:
VERSION DEL FORMATO                    : 2.0
NOMBRE DEL ARCHIVO                     : RIML201405101
FECHA Y HORA DE CREACION               : MON JUL 18 12:30:07 2018
REF. CATALOGO ACELEROGRAMAS, SMIS 1995 : REGISTRO NO.      /PAG.    


================================================================================
DATOS DE LA ESTACION:
NOMBRE DE LA ESTACION                  : UAM-LERMA.
CLAVE DE LA ESTACION                   : RIML
LOCALIZACION DE LA ESTACION            : AV. DE LAS GARZAS 10, EL PANTEON, C.P.52005,
                                       : LERMA DE VILLADA, ESTADO DE MEXICO. 
                                       :
                                       : 
                                       : 
COORDENADAS DE LA ESTACION             : 19.291481 LAT. N
                                       : 99.502060 LONG. W
ALTITUD (msnm)                         : 2570
TIPO DE SUELO                          : DEPOSITOS LACUSTRES
                                       : 
                                       : 
INSTITUCION RESPONSABLE                : UNIVERSIDAD AUTONOMA METROPOLITANA
                                       : 

================================================================================
DATOS DEL ACELEROGRAFO: 
MODELO DEL ACELEROGRAFO                : BASALT KINEMETRICS
NUMERO DE SERIE DEL ACELEROGRAFO       : 978
NUMERO DE CANALES                      : 3
ORIENTACION C1-C6 (rumbo;orientacion)  : /V/N00E/N90E
ORIENTACION C7-C12 (rumbo;orientacion) : 
VEL. DE MUESTREO, C1-C6 (muestras/s)   : /250/250/250
VEL. DE MUESTREO, C7-C12 (muestras/s)  : 
ESC. COMPLETA DE SENSORES, C1-C6, (g)  : /2/2/2
ESC. COMPLETA DE SENSORES, C7-C12 (g)  : 
FREC. NAT. DE SENSORES, C1-C6, (Hz)    : /210/212/212
FREC. NAT. DE SENSORES, C7-C12 (Hz)    : 
AMORTIGUAMIENTO DE SENSORES, C1-C6     : /0.7/0.7/0.7
AMORTIGUAMIENTO DE SENSORES, C7-C12    : 
INTERVALO DE MUESTREO, C1-C6 (s)       : /0.004/0.004/0.004
INTERVALO DE MUESTREO, C7-C12 (s)      : 
UMBRAL DE DISPARO, C1-C6 (Gal)         : /2/2/2
UMBRAL DE DISPARO, C7-C12 (Gal)        : 
MEMORIA DE PREEVENTO (s)               : 20
TIEMPO DE POSEVENTO (s)                : 30


================================================================================
DATOS DEL SISMO:
FECHA DEL SISMO [GMT]                  : 2014/05/10
HORA EPICENTRO (GMT)                   : 07:36:00
MAGNITUD(ES)                           : /M=6.1
COORDENADAS DEL EPICENTRO              : 17.036 LAT. N
                                       : 100.893 LONG. W
PROFUNDIDAD FOCAL (Km)                 : 10
FUENTE DE LOS DATOS EPICENTRALES       : SSN
                                       : INSTITUTO DE GEOFISICA, UNAM

================================================================================
DATOS DE ESTE REGISTRO:
HORA DE LA PRIMERA MUESTRA (GMT)       : 07:36:27.00
EXACTITUD DEL TIEMPO (s)               : 
DURACION DEL REGISTRO (s), C1-C6       : /201.00/201.00/201.00
DURACION DEL REGISTRO (s), C7-C12      : 
NUM. TOTAL DE MUESTRAS, C1-C6          : /50250/50250/50250
NUM. TOTAL DE MUESTRAS, C7-C12         : 
ACEL. MAX.(Gal), C1-C6                 : /-4.104/14.028/-19.424
ACEL. MAX., C1-C6, EN LA MUESTRA       : /16688/16624/16339
ACEL. MAX.(Gal), C7-C12                : 
ACEL. MAX., C7-C12,EN LA MUESTRA       : 
UNIDADES DE LOS DATOS                  : Gal (cm/s/s)
FACTOR DE DECIMACION                   : 1
FORMATO DATOS (FORTRAN,16 campos/dato) : 3E16.7


================================================================================
CALIDAD DEL ACELEROGRAMA:
REGISTRO DIGITAL COMPLETO CON TIEMPO ABSOLUTO CORRECTO


================================================================================
COMENTARIOS:














================================================================================
DATOS DE ACELERACION:
---------+---------+---------+---------+---------+---------+---------+---------+
   CANAL-1         CANAL-2         CANAL-3
         V           N00E            N90E
---------+---------+---------+---------+---------+---------+---------+---------+ 
[...]
 -1.9279979e+000 -3.0097187e+000  8.2871121e+000
 -2.0958552e+000 -2.9381832e+000  8.5875350e+000
 -1.9841451e+000 -2.8094892e+000  8.8145184e+000
 -1.8018133e+000 -2.7982680e+000  9.1028960e+000
 -1.9338347e+000 -2.6975104e+000  9.4148960e+000
 -1.9275310e+000 -2.5969865e+000  9.6977774e+000
 -2.1210687e+000 -2.4289010e+000  9.9370399e+000
 -2.0230157e+000 -2.3390139e+000  1.0209747e+001
 -1.6901032e+000 -2.3865876e+000  1.0494851e+001
 -2.0328210e+000 -2.1784099e+000  1.0778317e+001
 -2.0122767e+000 -2.0847823e+000  1.1061432e+001
 -1.7482347e+000 -2.0075193e+000  1.1220941e+001
 -1.6657067e+000 -1.9357497e+000  1.1532239e+001
 -1.6589365e+000 -1.8562660e+000  1.1825178e+001
 -1.8796721e+000 -1.6222556e+000  1.2023627e+001
 -1.8182724e+000 -1.5205629e+000  1.2324985e+001
 -1.5492107e+000 -1.4486768e+000  1.2498643e+001
 -1.6818153e+000 -1.3473344e+000  1.2780472e+001
 -1.9184264e+000 -1.2451742e+000  1.3056221e+001
 -1.7296746e+000 -1.1270004e+000  1.3154100e+001
 -1.6252016e+000 -1.0599063e+000  1.3340973e+001
 -1.6331393e+000 -1.0496202e+000  1.3563396e+001
 -1.6871852e+000 -9.8626700e-001  1.3692733e+001
 -1.9043020e+000 -8.1677898e-001  1.3763717e+001
 -1.7757827e+000 -7.5132158e-001  1.3903579e+001
 -1.7845375e+000 -7.3647676e-001  1.4013387e+001
 -2.2088492e+000 -6.2590051e-001  1.4156640e+001
 -2.3031667e+000 -5.7692424e-001  1.4245165e+001
 -2.1151156e+000 -5.7610609e-001  1.4252182e+001
 -2.1761651e+000 -5.4442950e-001  1.4387132e+001
 -2.2324286e+000 -5.6862543e-001  1.4513429e+001
 -2.1494341e+000 -6.1912113e-001  1.4601252e+001
 -2.2118843e+000 -5.4255943e-001  1.4585465e+001
 -2.1011080e+000 -5.4010458e-001  1.4582892e+001
 -2.0587349e+000 -6.2999167e-001  1.4648262e+001
 -2.3935154e+000 -5.6593682e-001  1.4661477e+001
 -2.4198962e+000 -5.6091063e-001  1.4650017e+001
 -2.2207558e+000 -6.0123706e-001  1.4561375e+001
 -2.2883420e+000 -6.7838354e-001  1.4567339e+001
 -2.3338665e+000 -7.7212763e-001  1.4564532e+001
 -2.1090454e+000 -8.5675477e-001  1.4438118e+001
 -1.9940671e+000 -9.0666606e-001  1.4344331e+001
 -1.9304494e+000 -9.5610984e-001  1.4250895e+001
 -1.7667944e+000 -1.1388060e+000  1.4188331e+001
 -1.8855085e+000 -1.1033889e+000  1.4015843e+001
 -1.8845747e+000 -1.1292211e+000  1.3833998e+001
 -1.6595201e+000 -1.2753314e+000  1.3723840e+001
 -1.5711557e+000 -1.3937393e+000  1.3543984e+001
 -1.6864845e+000 -1.4445856e+000  1.3400847e+001
 -1.5998713e+000 -1.4873665e+000  1.3175501e+001
 -1.1516299e+000 -1.7190389e+000  1.2948868e+001
 -9.9649633e-001 -1.8252903e+000  1.2786436e+001
 -1.0778567e+000 -1.9362172e+000  1.2599798e+001
 -1.0909306e+000 -1.9534000e+000  1.2349309e+001
 -7.2393297e-001 -2.0758987e+000  1.2061048e+001
 -4.6899556e-001 -2.2792844e+000  1.1889729e+001
 -7.1681224e-001 -2.3042985e+000  1.1640761e+001
 -6.5471226e-001 -2.4043544e+000  1.1353085e+001
 -4.6490995e-001 -2.5052289e+000  1.1079792e+001
 -3.3382272e-001 -2.6821980e+000  1.0805915e+001
 -1.8966202e-001 -2.8159179e+000  1.0578815e+001
 -3.0464026e-001 -2.8904926e+000  1.0271843e+001
 -6.6628889e-002 -2.9977959e+000  9.9542302e+000
  1.8935900e-001 -3.1482311e+000  9.6605902e+000
 -6.2309842e-002 -3.2336763e+000  9.4233159e+000
 -2.5540163e-002 -3.3474087e+000  9.1386801e+000
 -3.3711377e-002 -3.4542445e+000  8.8313578e+000
 -2.9042168e-002 -3.4911810e+000  8.5669529e+000
  4.9633672e-002 -3.6880207e+000  8.3076938e+000
 -1.3106366e-001 -3.7812977e+000  8.1010581e+000
  1.2747273e-002 -3.8930427e+000  7.8075351e+000
  1.4453483e-001 -4.0026839e+000  7.5472232e+000
  2.1585650e-001 -4.0922204e+000  7.3391843e+000
  1.1476877e-001 -4.1877181e+000  7.1299758e+000
 -1.3049901e-002 -4.2364602e+000  6.9243926e+000
  9.5508328e-002 -4.2947876e+000  6.6377689e+000
  3.9011329e-002 -4.3231915e+000  6.4775594e+000
 -5.1570778e-002 -4.4193905e+000  6.3368787e+000
 -2.0833846e-001 -4.4337678e+000  6.1329325e+000
 -7.3516178e-002 -4.4978222e+000  5.9423178e+000
 -3.5951546e-003 -4.5117320e+000  5.7536914e+000
 -5.1125202e-003 -4.5891123e+000  5.6638802e+000
 -3.3617137e-003 -4.6216070e+000  5.5164171e+000
 -1.2744494e-001 -4.5386162e+000  5.3364440e+000
  4.7182543e-002 -4.5913330e+000  5.1830165e+000
 -1.3514927e-001 -4.5504221e+000  5.1061861e+000
 -3.4316114e-001 -4.5651501e+000  5.0359042e+000
 -3.9452205e-001 -4.5022640e+000  4.8528909e+000
 -3.2716927e-001 -4.4794710e+000  4.7433166e+000
 -3.3650768e-001 -4.4869517e+000  4.6786479e+000
 -5.0132986e-001 -4.4652106e+000  4.6383031e+000
 -3.8751843e-001 -4.4504827e+000  4.4950499e+000
 -4.4996856e-001 -4.3309059e+000  4.3492238e+000
 -3.5740221e-001 -4.3306722e+000  4.2748489e+000
 -5.2619327e-001 -4.2696566e+000  4.2090109e+000
 -7.6443809e-001 -4.1662104e+000  4.1515928e+000
 -7.3759043e-001 -4.0615957e+000  3.9527920e+000
 -8.0902882e-001 -3.9683187e+000  3.8432177e+000
 -7.6887386e-001 -3.9357071e+000  3.7880213e+000
 -1.0498419e+000 -3.8344820e+000  3.7006662e+000
 -1.0849775e+000 -3.6979562e+000  3.5263062e+000
 -8.3610992e-001 -3.6253688e+000  3.3248160e+000
 -7.4342684e-001 -3.5521966e+000  3.2634218e+000
 -8.9097283e-001 -3.4206974e+000  3.1180635e+000
 -9.9859769e-001 -3.2489887e+000  2.9173922e+000
 -8.6891110e-001 -3.0899041e+000  2.7025705e+000
 -8.9715941e-001 -2.9907828e+000  2.5721807e+000
 -8.9786012e-001 -2.7690459e+000  2.3989904e+000
 -1.1019031e+000 -2.6312348e+000  2.2103636e+000
 -9.0252894e-001 -2.4508762e+000  2.0029094e+000
 -6.0265103e-001 -2.1731499e+000  1.6725495e+000
 -6.9148194e-001 -2.1064065e+000  1.6469394e+000
 -6.7117102e-001 -1.8656167e+000  1.4298960e+000
 -6.0498544e-001 -1.5668506e+000  1.1008227e+000
 -2.5281247e-001 -1.4311434e+000  9.7803388e-001
 -4.3782885e-001 -1.1604302e+000  7.5736559e-001
 -6.2319540e-001 -8.8247013e-001  6.3048374e-001
 -4.5008528e-001 -6.7943545e-001  4.0502082e-001
 -4.6514340e-001 -3.6033041e-001  1.6306886e-001
 -1.6596581e-001 -2.0112892e-001  6.0978639e-002
 -2.7300668e-001 -8.4968683e-003 -4.7542863e-002
 -3.3008767e-001  3.5888277e-001 -3.0422948e-001
 -7.5850587e-002  5.6530734e-001 -5.0595355e-001
 -6.5578405e-002  8.4490371e-001 -5.8021151e-001
 -1.0164776e-001  1.1062658e+000 -7.1586368e-001
 -3.4351130e-001  1.4189417e+000 -8.1912322e-001
 -2.9938745e-001  1.7891268e+000 -1.0521875e+000
 -2.7335684e-001  2.0136688e+000 -1.1200134e+000
 -3.7712953e-001  2.2740958e+000 -1.1314740e+000
 -4.8545432e-001  2.5974085e+000 -1.2811588e+000
 -6.9264954e-001  2.9244617e+000 -1.3287542e+000
 -3.5238284e-001  3.1571864e+000 -1.5102474e+000
 -2.1569263e-001  3.3906120e+000 -1.5656777e+000
 -5.8642572e-001  3.7506275e+000 -1.5751500e+000
 -7.2194872e-001  4.1076041e+000 -1.6854259e+000
 -6.2412916e-001  4.4087082e+000 -1.7394526e+000
 -7.1786311e-001  4.7544637e+000 -1.8381514e+000
 -9.1046671e-001  5.0389693e+000 -1.8070450e+000
 -9.9813042e-001  5.3931409e+000 -1.8724153e+000
 -9.3999933e-001  5.7602867e+000 -2.0178906e+000
 -7.2218216e-001  6.0119470e+000 -2.0245561e+000
 -8.8548658e-001  6.3358441e+000 -1.9957884e+000
 -1.0177410e+000  6.6619623e+000 -2.0383553e+000
 -9.8027102e-001  7.0655772e+000 -2.2301394e+000
 -9.9661305e-001  7.4053714e+000 -2.2432366e+000
 -1.0756391e+000  7.6823964e+000 -2.2124810e+000
 -1.4978498e+000  8.0415938e+000 -2.2836983e+000
 -1.6309212e+000  8.3540359e+000 -2.3041631e+000
 -1.3959450e+000  8.5997350e+000 -2.4643730e+000
 -1.3331443e+000  8.8137571e+000 -2.5166461e+000
 -1.5887820e+000  9.0620279e+000 -2.4492875e+000
 -1.6243845e+000  9.3092464e+000 -2.6058722e+000
 -1.5353198e+000  9.5572831e+000 -2.7630419e+000
 -1.5705721e+000  9.7381092e+000 -2.7920431e+000
 -1.6245012e+000  9.9273513e+000 -2.8574134e+000
 -1.9829775e+000  1.0156920e+001 -2.9630116e+000
 -1.8365987e+000  1.0313433e+001 -3.1132815e+000
 -1.7261726e+000  1.0449841e+001 -3.2564181e+000
 -2.0035219e+000  1.0544988e+001 -3.3008555e+000
 -2.0517313e+000  1.0649954e+001 -3.4051675e+000
 -1.9912654e+000  1.0727217e+001 -3.6133232e+000
 -1.6523998e+000  1.0763686e+001 -3.8070955e+000
 -1.7825532e+000  1.0827624e+001 -3.9045076e+000
 -1.9890477e+000  1.0849482e+001 -4.0361837e+000
 -1.9151578e+000  1.0860353e+001 -4.2807086e+000
 -1.9207608e+000  1.0903719e+001 -4.4747147e+000
 -1.7164840e+000  1.0794545e+001 -4.6490743e+000
 -1.9226283e+000  1.0736568e+001 -4.8118567e+000
 -2.1100962e+000  1.0790103e+001 -5.0311222e+000
 -1.8326298e+000  1.0656851e+001 -5.3026604e+000
 -1.6917373e+000  1.0531196e+001 -5.5048522e+000
 -1.6076923e+000  1.0371059e+001 -5.7103185e+000
 -1.5720898e+000  1.0269951e+001 -5.9568312e+000
 -1.4664496e+000  1.0222961e+001 -6.2645043e+000
 -1.2335739e+000  1.0038979e+001 -6.5418895e+000
 -1.1955203e+000  9.8383993e+000 -6.7321534e+000
 -1.3652452e+000  9.6873797e+000 -6.9970257e+000
 -1.3634940e+000  9.5937521e+000 -7.3094934e+000
 -9.3392948e-001  9.3482872e+000 -7.6034846e+000
 -6.9171538e-001  9.0980294e+000 -7.9018023e+000
 -7.4424389e-001  8.8599283e+000 -8.1575534e+000
 -4.9175800e-001  8.6303597e+000 -8.5048697e+000
 -2.4382422e-001  8.4290782e+000 -8.9281979e+000
 -8.4722123e-002  8.1410657e+000 -9.1800899e+000
 -6.5111524e-002  7.9120815e+000 -9.4979369e+000
 -1.3538271e-001  7.6321345e+000 -9.8782309e+000
  2.0500071e-001  7.3544078e+000 -1.0220402e+001
  3.0071891e-001  7.0552911e+000 -1.0640806e+001
  2.7398797e-001  6.7601482e+000 -1.0834929e+001
  4.2690349e-001  6.4090163e+000 -1.1279190e+001
  5.7024754e-001  6.1464851e+000 -1.1653754e+001
  8.9545574e-001  5.8756554e+000 -1.1997211e+001
  8.9277117e-001  5.3635681e+000 -1.2479711e+001
  6.3433176e-001  5.4263369e+000 -1.2219400e+001
  7.3226804e-001  5.0359305e+000 -1.3027465e+001
  1.2128433e+000  4.2981320e+000 -1.3852605e+001
  1.1035847e+000  4.2975476e+000 -1.3567735e+001
  7.3308508e-001  3.9265443e+000 -1.4176416e+001
  8.7012545e-001  3.5781006e+000 -1.4454503e+001
  1.0874757e+000  3.2588791e+000 -1.4780419e+001
  1.4564580e+000  2.7476099e+000 -1.5436226e+001
  1.4060309e+000  2.4157643e+000 -1.5387930e+001
  1.1932331e+000  2.0952571e+000 -1.5763663e+001
  1.4050971e+000  1.8506099e+000 -1.6247567e+001
  1.6919015e+000  1.3967331e+000 -1.6465195e+001
  1.5137721e+000  1.0547182e+000 -1.6727963e+001
  1.0387998e+000  7.6939393e-001 -1.6916238e+001
  1.3127638e+000  3.7513014e-001 -1.7275015e+001
  1.5815921e+000  6.2337356e-002 -1.7581635e+001
  1.3886380e+000 -3.2467954e-001 -1.7634610e+001
  1.2315201e+000 -7.0456641e-001 -1.7869896e+001
  1.3184835e+000 -1.1385722e+000 -1.8246916e+001
  1.5440050e+000 -1.4699504e+000 -1.8483137e+001
  1.5025661e+000 -1.9064110e+000 -1.8581953e+001
  1.4083653e+000 -2.3031293e+000 -1.8707314e+001
  1.2052561e+000 -2.5240480e+000 -1.8931375e+001
  1.2315201e+000 -2.9911334e+000 -1.9081293e+001
  1.2954880e+000 -3.3004194e+000 -1.9204667e+001
  1.1289150e+000 -3.6971381e+000 -1.9172040e+001
  1.0779043e+000 -4.0575046e+000 -1.9243842e+001
  1.0629629e+000 -4.2667342e+000 -1.9433521e+001
  1.1898478e+000 -4.7002729e+000 -1.9394346e+001
  1.1886806e+000 -5.0304819e+000 -1.9365111e+001
  1.0751026e+000 -5.3430409e+000 -1.9363122e+001
  8.7864682e-001 -5.5188408e+000 -1.9372478e+001
  9.7144662e-001 -5.8146849e+000 -1.9283602e+001
  9.5230329e-001 -6.1164903e+000 -1.9209578e+001
  4.2246772e-001 -6.2858614e+000 -1.9054982e+001
  5.2635714e-001 -6.6365258e+000 -1.8950319e+001
  6.2277566e-001 -6.7954939e+000 -1.8987156e+001
  6.0911819e-001 -7.1110922e+000 -1.8679248e+001
  6.2522718e-001 -7.3649732e+000 -1.8516700e+001
  4.2503596e-001 -7.4242356e+000 -1.8406424e+001
  5.5215431e-001 -7.6045942e+000 -1.8204349e+001
  5.6989738e-001 -7.7544446e+000 -1.8024961e+001
  4.0962769e-001 -7.9672983e+000 -1.7669576e+001
  7.9749894e-002 -7.9945330e+000 -1.7460952e+001
  1.7616841e-001 -8.0832513e+000 -1.7273611e+001
  4.0472504e-001 -8.2516871e+000 -1.7020199e+001
  1.4885387e-001 -8.3775757e+000 -1.6650196e+001
  1.5200533e-001 -8.5215821e+000 -1.6356088e+001
  1.8620716e-001 -8.5391151e+000 -1.6152727e+001
  3.1776127e-001 -8.6401065e+000 -1.5794886e+001
  3.5476478e-001 -8.7289417e+000 -1.5450260e+001
  9.7959849e-002 -8.7754631e+000 -1.5057219e+001
  1.1476877e-001 -8.7741774e+000 -1.4753288e+001
  1.2679175e-001 -8.7572288e+000 -1.4398955e+001
  3.3875238e-002 -8.8146207e+000 -1.3936686e+001
  2.6054186e-002 -8.8574020e+000 -1.3515112e+001
 -1.1915739e-001 -8.8065553e+000 -1.3111430e+001
 -2.6824088e-002 -8.7800218e+000 -1.2781654e+001
  2.4608944e-001 -8.8613759e+000 -1.2386041e+001
  1.4838699e-001 -8.8477003e+000 -1.1927514e+001
  3.2921344e-003 -8.7938147e+000 -1.1521610e+001
  6.0372735e-002 -8.7471764e+000 -1.1171838e+001
  2.9546610e-001 -8.7622550e+000 -1.0757514e+001
  1.0508019e-001 -8.7164348e+000 -1.0307640e+001
 -2.1382472e-001 -8.6025856e+000 -9.8571811e+000
  3.4342120e-002 -8.6357820e+000 -9.4519789e+000
  1.8492323e-001 -8.5945201e+000 -9.1082880e+000
  2.7223677e-001 -8.5765196e+000 -8.6670675e+000
  2.3429989e-001 -8.5657659e+000 -8.1908819e+000
  1.8912556e-001 -8.4546053e+000 -7.8104710e+000
  5.4701822e-001 -8.4329807e+000 -7.5099312e+000
  5.8997447e-001 -8.3827187e+000 -7.0745582e+000
  2.8811193e-001 -8.3179626e+000 -6.5822343e+000
  1.4395122e-001 -8.2009576e+000 -6.2425194e+000
  3.6013431e-001 -8.1370196e+000 -5.8977757e+000
  5.3371091e-001 -8.1470720e+000 -5.5311640e+000
  2.4690648e-001 -8.0553149e+000 -5.1017549e+000
  1.2282326e-001 -8.0270282e+000 -4.6990083e+000
  2.9686674e-001 -7.9360892e+000 -4.4410354e+000
  4.3180614e-001 -7.8791644e+000 -4.0665885e+000
  4.5713643e-001 -7.8962303e+000 -3.6702740e+000
  1.4313418e-001 -7.7789911e+000 -3.3071707e+000
 -3.2777222e-002 -7.6900395e+000 -2.9714315e+000
  2.0943648e-001 -7.6417645e+000 -2.7030508e+000
  1.4406795e-001 -7.6384915e+000 -2.2985499e+000
 -9.2426064e-002 -7.5937232e+000 -1.9361482e+000
 -7.9352592e-002 -7.4602371e+000 -1.6198217e+000
  8.6986953e-002 -7.3795843e+000 -1.3426704e+000
  2.6873516e-001 -7.3410110e+000 -1.0348800e+000
  2.4643960e-001 -7.3072306e+000 -5.8360294e-001
  1.0881563e-001 -7.1823939e+000 -2.8984562e-001
  3.0655532e-001 -7.1148323e+000 -2.3687085e-002
  4.6810894e-001 -7.0994031e+000  2.6469096e-001
  2.0745184e-001 -7.0300887e+000  6.4276281e-001
  2.2659556e-001 -7.0432968e+000  9.7078368e-001
  3.1204158e-001 -6.9896450e+000  1.1705199e+000
  4.4873178e-001 -7.0118540e+000  1.5050894e+000
  7.6752035e-001 -7.1301447e+000  1.7779138e+000
  7.6483539e-001 -7.1214952e+000  2.0908493e+000
  8.0207234e-001 -7.1142479e+000  2.3375958e+000
  9.0794600e-001 -7.0948444e+000  2.5491430e+000
  1.0713671e+000 -7.2279803e+000  2.9048792e+000
  1.1632336e+000 -7.3178674e+000  3.1748973e+000
  9.9712747e-001 -7.2520594e+000  3.4649120e+000
  1.1580975e+000 -7.3689475e+000  3.7247562e+000
  1.5015156e+000 -7.5040703e+000  3.9779344e+000
  1.4788699e+000 -7.6434008e+000  4.3528491e+000
  1.3798835e+000 -7.7275604e+000  4.6340931e+000
  1.7349745e+000 -7.8465527e+000  4.8341801e+000
  2.0709222e+000 -7.9992086e+000  5.0618652e+000
  1.9189404e+000 -8.1005506e+000  5.3785428e+000
  1.8123664e+000 -8.2505183e+000  5.6555772e+000
  1.9139210e+000 -8.3283656e+000  5.8168396e+000
  2.0122071e+000 -8.4214088e+000  6.0155234e+000
  2.0772255e+000 -8.5160884e+000  6.2312805e+000
  1.9894450e+000 -8.6314571e+000  6.5073791e+000
  1.8588247e+000 -8.5994294e+000  6.6537902e+000
  2.0935679e+000 -8.6888490e+000  6.8156372e+000
  2.3892435e+000 -8.8474665e+000  7.0751302e+000
  2.1624380e+000 -8.7364227e+000  7.2677328e+000
  2.0019349e+000 -8.7363058e+000  7.5355291e+000
  2.2468336e+000 -8.6575231e+000  7.7033401e+000
