**************************************************************************************
            UNIVERSIDAD AUTONOMA METROPOLITANA - AZCAPOTZALCO
                        Departamento de Materiales
                           Area de Estructuras
     AV. SAN PABLO 180,COL.REYNOSA, AZCAPOTZALCO, C.P.02200 CIUDAD DE MEXICO.
**************************************************************************************
ARCHIVO ESTANDAR DE ACELERACION:
VERSION DEL FORMATO                    : 2.0
NOMBRE DEL ARCHIVO                     : RIML201407231
FECHA Y HORA DE CREACION               : 09:59 p. m. 14/09/2014
REF. CATALOGO ACELEROGRAMAS, SMIS 1995 : REGISTRO NO.      /PAG.    


================================================================================
DATOS DE LA ESTACION:
NOMBRE DE LA ESTACION                  : UAM-LERMA.
CLAVE DE LA ESTACION                   : RIML
LOCALIZACION DE LA ESTACION            : AV. DE LAS GARZAS 10, EL PANTEON, C.P.52005,
                                       : LERMA DE VILLADA, ESTADO DE MEXICO. 
                                       :
                                       : 
                                       : 
COORDENADAS DE LA ESTACION             : 19.291481 LAT. N
                                       : 99.502060 LONG. W
ALTITUD (msnm)                         : 2570
TIPO DE SUELO                          : DEPOSITOS LACUSTRES
                                       : 
                                       : 
INSTITUCION RESPONSABLE                : UNIVERSIDAD AUTONOMA METROPOLITANA
                                       : 

================================================================================
DATOS DEL ACELEROGRAFO: 
MODELO DEL ACELEROGRAFO                : BASALT KINEMETRICS
NUMERO DE SERIE DEL ACELEROGRAFO       : 978
NUMERO DE CANALES                      : 3
ORIENTACION C1-C6 (rumbo;orientacion)  : /V/N00E/N90E
ORIENTACION C7-C12 (rumbo;orientacion) : 
VEL. DE MUESTREO, C1-C6 (muestras/s)   : /250/250/250
VEL. DE MUESTREO, C7-C12 (muestras/s)  : 
ESC. COMPLETA DE SENSORES, C1-C6, (g)  : /2/2/2
ESC. COMPLETA DE SENSORES, C7-C12 (g)  : 
FREC. NAT. DE SENSORES, C1-C6, (Hz)    : /210/212/212
FREC. NAT. DE SENSORES, C7-C12 (Hz)    : 
AMORTIGUAMIENTO DE SENSORES, C1-C6     : /0.7/0.7/0.7
AMORTIGUAMIENTO DE SENSORES, C7-C12    : 
INTERVALO DE MUESTREO, C1-C6 (s)       : /0.004/0.004/0.004
INTERVALO DE MUESTREO, C7-C12 (s)      : 
UMBRAL DE DISPARO, C1-C6 (Gal)         : /2/2/2
UMBRAL DE DISPARO, C7-C12 (Gal)        : 
MEMORIA DE PREEVENTO (s)               : 20
TIEMPO DE POSEVENTO (s)                : 30


================================================================================
DATOS DEL SISMO:
FECHA DEL SISMO [GMT]                  : 2014/07/23
HORA EPICENTRO (GMT)                   : 00:28:14
MAGNITUD(ES)                           : /M=5.2
COORDENADAS DEL EPICENTRO              : 16.5248 LAT. N
                                       : 100.471 LONG. W
PROFUNDIDAD FOCAL (Km)                 : 10.0
FUENTE DE LOS DATOS EPICENTRALES       : SSN
                                       : INSTITUTO DE GEOFISICA, UNAM

================================================================================
DATOS DE ESTE REGISTRO:
HORA DE LA PRIMERA MUESTRA (GMT)       : 0:29:28.000
EXACTITUD DEL TIEMPO (s)               : 
DURACION DEL REGISTRO (s), C1-C6       : /73.00/73.00/73.00
DURACION DEL REGISTRO (s), C7-C12      : 
NUM. TOTAL DE MUESTRAS, C1-C6          : /18250/18250/18250
NUM. TOTAL DE MUESTRAS, C7-C12         : 
ACEL. MAX.(Gal), C1-C6                 : /1.158/2.084/-1.532
ACEL. MAX., C1-C6, EN LA MUESTRA       : /7620/7756/7534
ACEL. MAX.(Gal), C7-C12                : 
ACEL. MAX., C7-C12,EN LA MUESTRA       : 
UNIDADES DE LOS DATOS                  : Gal (cm/s/s)
FACTOR DE DECIMACION                   : 1
FORMATO DATOS (FORTRAN,16 campos/dato) : 3E16.7


================================================================================
CALIDAD DEL ACELEROGRAMA:
REGISTRO DIGITAL COMPLETO CON TIEMPO ABSOLUTO CORRECTO


================================================================================
COMENTARIOS:














================================================================================
DATOS DE ACELERACION:
---------+---------+---------+---------+---------+---------+---------+---------+
   CANAL-1   	   CANAL-2   	      CANAL-3
         V           N00E              N90E
---------+---------+---------+---------+---------+---------+---------+---------+
[...]
  -7.8362005e-02  -5.2264084e-01  -1.4444334e+00
  -5.9208859e-01  -3.6320520e-01  -1.3521862e+00
  -1.7431364e-01  -5.3210883e-01  -1.3987192e+00
   2.5373348e-01  -5.8213701e-01  -1.4793914e+00
   1.4120637e-01  -6.1311232e-01  -1.4667643e+00
  -5.4201161e-01  -4.5940415e-01  -1.3608381e+00
  -4.4535964e-01  -4.9353559e-01  -1.3304399e+00
   2.3949280e-01  -6.7471231e-01  -1.4233882e+00
   2.8805203e-01  -6.5484130e-01  -1.4506299e+00
  -3.0680152e-01  -5.9709871e-01  -1.3345321e+00
  -4.9205134e-01  -4.9634108e-01  -1.3030817e+00
   1.5999992e-01  -7.2450673e-01  -1.3321935e+00
   5.2244507e-01  -7.4297520e-01  -1.3885475e+00
  -9.8789648e-02  -6.0703422e-01  -1.3357012e+00
  -7.0146425e-01  -5.3397890e-01  -1.1922451e+00
  -1.2166842e-01  -6.2608669e-01  -1.2594718e+00
   4.6933297e-01  -7.9931524e-01  -1.3327781e+00
   8.6226732e-02  -6.8266088e-01  -1.2662528e+00
  -4.1827815e-01  -6.0937180e-01  -1.1479338e+00
  -3.0516744e-01  -6.1965794e-01  -1.1491028e+00
   3.9777786e-01  -8.2970615e-01  -1.2079118e+00
   5.4579112e-01  -8.1848498e-01  -1.2276707e+00
  -2.5567405e-01  -6.4502267e-01  -1.1046746e+00
  -4.2609921e-01  -6.1696972e-01  -1.0015546e+00
   2.9972525e-01  -7.8248308e-01  -1.0823438e+00
   4.7528649e-01  -8.3952478e-01  -1.1261871e+00
   2.3776600e-02  -7.1725983e-01  -1.0309007e+00
  -4.5119606e-01  -6.6617935e-01  -9.0954127e-01
  -6.1435976e-02  -6.9341454e-01  -9.4262874e-01
   6.7559403e-01  -9.1783966e-01  -9.6893481e-01
   2.8816875e-01  -7.9160043e-01  -9.7583311e-01
  -3.6890149e-01  -7.0989567e-01  -8.2816762e-01
  -1.3077340e-01  -7.5068961e-01  -7.6514997e-01
   7.3419239e-01  -9.0252732e-01  -8.6791919e-01
   5.9726875e-01  -8.9551419e-01  -8.3050616e-01
  -2.7446761e-01  -6.9329766e-01  -7.1616195e-01
  -2.8088763e-01  -7.7862607e-01  -6.2894255e-01
   4.3303017e-01  -8.3987542e-01  -7.1873430e-01
   6.9041870e-01  -9.4787994e-01  -7.1253744e-01
   3.5682868e-02  -7.9312025e-01  -5.9036006e-01
  -2.8018730e-01  -7.6752177e-01  -5.1038930e-01
   2.2011565e-01  -8.9387788e-01  -5.4148895e-01
   8.5734224e-01  -1.0133373e+00  -5.8392977e-01
   6.0147107e-01  -9.5477659e-01  -5.1974265e-01
  -2.3361193e-01  -7.7336611e-01  -3.8774429e-01
  -7.7778012e-02  -8.9317621e-01  -3.3080580e-01
   7.6746046e-01  -9.9451863e-01  -4.5789407e-01
   6.7232586e-01  -1.0292341e+00  -4.0329412e-01
  -6.2603180e-02  -8.7272080e-01  -2.3598705e-01
  -4.3109693e-02  -9.0872270e-01  -2.1377273e-01
   5.9528411e-01  -1.0448974e+00  -2.9035279e-01
   7.6349157e-01  -1.0786779e+00  -2.6661907e-01
   2.8420026e-01  -1.0202340e+00  -1.5110579e-01
   6.4865326e-02  -9.6377668e-01  -1.2503354e-01
   3.8657191e-01  -1.0715478e+00  -1.0527466e-01
   8.8325614e-01  -1.1450707e+00  -1.3929700e-01
   5.8151031e-01  -1.1303427e+00  -9.2764422e-02
  -4.6611306e-02  -9.8750510e-01   2.9412957e-02
   1.8427973e-01  -1.1021725e+00   2.3801021e-02
   7.7843296e-01  -1.2275936e+00  -1.5833638e-02
   8.2617514e-01  -1.2197619e+00   8.7188232e-03
   1.3151779e-01  -1.1343166e+00   1.1967233e-01
   3.2180863e-02  -1.1282385e+00   1.6222967e-01
   8.5127199e-01  -1.3492741e+00   1.0459013e-01
   1.0779607e+00  -1.3332605e+00   7.9336229e-02
   3.3427724e-01  -1.2260742e+00   2.0268307e-01
  -1.0658670e-02  -1.1852802e+00   2.8803156e-01
   5.5407866e-01  -1.3401568e+00   2.3284708e-01
   9.7850745e-01  -1.4307451e+00   1.7322012e-01
   6.6368776e-01  -1.3541835e+00   2.4863111e-01
   3.9885195e-02  -1.2831155e+00   3.7419919e-01
   2.4334458e-01  -1.3562873e+00   3.4356677e-01
   1.0416579e+00  -1.5581536e+00   2.7388501e-01
   9.4675675e-01  -1.4879037e+00   2.7879551e-01
   2.3505704e-01  -1.4267709e+00   4.7229173e-01
   2.7054279e-01  -1.4450056e+00   4.2727895e-01
   8.9948145e-01  -1.5855052e+00   3.4485314e-01
   9.6496671e-01  -1.5952070e+00   4.2260228e-01
   4.8030586e-01  -1.5001768e+00   4.5919696e-01
   1.0688782e-01  -1.4981899e+00   5.4758582e-01
   4.7657042e-01  -1.5607249e+00   4.6819959e-01
   1.1188164e+00  -1.7189918e+00   4.6153549e-01
   7.1715003e-01  -1.6140261e+00   5.0187160e-01
   5.5643629e-02  -1.5495037e+00   6.0592719e-01
   4.5660966e-01  -1.6583264e+00   5.8803883e-01
   1.1579205e+00  -1.8059565e+00   4.6527691e-01
   9.4173738e-01  -1.7159525e+00   5.5074270e-01
   2.5665188e-01  -1.6099349e+00   6.6976320e-01
   1.5953304e-01  -1.6300397e+00   6.7537513e-01
   8.1193447e-01  -1.7427198e+00   5.5962804e-01
   1.0171447e+00  -1.8287495e+00   5.9283241e-01
   2.9388844e-01  -1.5901808e+00   6.8566375e-01
   6.4982047e-02  -1.6419622e+00   7.5137066e-01
   5.8828049e-01  -1.7762668e+00   6.7175101e-01
   1.0299851e+00  -1.8147232e+00   6.0171814e-01
   7.3127399e-01  -1.7228488e+00   7.0121397e-01
   3.6266470e-02  -1.6303903e+00   8.0421700e-01
   4.0361427e-01  -1.7337193e+00   7.5581352e-01
   9.0193258e-01  -1.7427198e+00   6.4532764e-01
   7.2823926e-01  -1.9040255e+00   8.0199577e-01
   3.6929572e-01  -1.6606644e+00   8.0749080e-01
  -1.4793248e-01  -1.3950943e+00   7.5487827e-01
   6.2364952e-01  -1.8037354e+00   7.7709259e-01
   1.0129427e+00  -1.7443565e+00   6.9618657e-01
   1.2089544e-01  -1.5308015e+00   8.3742138e-01
  -1.0075068e-02  -1.6192860e+00   8.8886444e-01
   5.0388496e-01  -1.6563395e+00   7.4996777e-01
   9.5574501e-01  -1.7516034e+00   7.4856489e-01
   3.5423761e-01  -1.5303340e+00   8.7237936e-01
  -1.8867143e-01  -1.4419667e+00   9.1388453e-01
   1.9875424e-01  -1.5841027e+00   8.2970472e-01
   7.0045744e-01  -1.6003501e+00   7.7732640e-01
   4.9361277e-01  -1.4930468e+00   8.4782690e-01
  -2.3396249e-01  -1.3497417e+00   9.6462616e-01
  -7.2758641e-02  -1.4397456e+00   8.9213784e-01
   5.6049907e-01  -1.5227365e+00   7.9895579e-01
   6.5178150e-01  -1.4872021e+00   8.1029657e-01
  -3.6922726e-02  -1.2876742e+00   9.4428274e-01
  -2.5439013e-01  -1.2739981e+00   9.6825067e-01
   3.7536597e-01  -1.3955618e+00   8.2140353e-01
   5.0703680e-01  -1.3331437e+00   8.4092859e-01
   3.4282222e-02  -1.2145020e+00   9.2744655e-01
  -3.9364818e-01  -1.0976138e+00   9.8648936e-01
  -6.1902858e-02  -1.2129825e+00   9.0207574e-01
   4.8730948e-01  -1.2711930e+00   8.3461521e-01
   1.8311213e-01  -1.1153810e+00   9.0008831e-01
  -2.7084889e-01  -9.9662245e-01   9.6111855e-01
  -2.3314505e-01  -1.0805483e+00   9.5375301e-01
   2.7334408e-01  -1.1262516e+00   8.3894117e-01
   4.7657042e-01  -9.9440175e-01   8.5226976e-01
  -4.1022405e-01  -8.3812223e-01   9.8742462e-01
  -5.7154423e-01  -8.0597774e-01   9.6310636e-01
   1.2766562e-01  -9.4367190e-01   8.3555047e-01
   2.3832521e-01  -8.5238227e-01   8.3683645e-01
  -8.7233150e-02  -7.5489765e-01   9.6100164e-01
  -7.0099698e-01  -6.1883979e-01   9.6322327e-01
  -1.9030552e-01  -7.4601405e-01   8.6606559e-01
   5.3972087e-01  -8.3321292e-01   8.0281412e-01
  -7.8245285e-02  -5.4087515e-01   8.7296390e-01
  -5.5415131e-01  -5.3023837e-01   1.0090544e+00
  -3.9761707e-01  -4.7798949e-01   8.8336942e-01
   1.4038932e-01  -5.9779998e-01   7.9837125e-01
   1.2626497e-01  -4.7962580e-01   8.3718756e-01
  -4.6403609e-01  -2.9435792e-01   9.3937225e-01
  -6.4566718e-01  -2.9915035e-01   9.4931014e-01
  -1.6742636e-01  -3.4064596e-01   8.1731178e-01
   3.2237058e-01  -4.0060965e-01   8.0585370e-01
  -2.6512919e-01  -1.2241543e-01   8.5951840e-01
  -7.8982828e-01  -1.2872769e-01   9.9385530e-01
  -1.5493649e-01  -1.7314488e-01   8.5612770e-01
   3.8493782e-01  -1.9780833e-01   7.4529110e-01
  -1.6976116e-01  -2.6683997e-02   8.9073496e-01
  -7.3064632e-01   1.4046606e-01   9.4428274e-01
  -4.4769405e-01   4.8475146e-02   8.6501343e-01
   3.9184872e-02   4.2162890e-02   8.0269721e-01
  -1.6261643e-02   1.0715277e-01   8.5145102e-01
  -5.0932714e-01   3.0083673e-01   8.7670492e-01
  -6.6130929e-01   2.7406906e-01   9.0803878e-01
  -1.1419792e-01   2.1024837e-01   8.2526186e-01
   3.1104791e-01   2.2357337e-01   7.6177657e-01
  -2.4061594e-01   4.0825686e-01   8.7857583e-01
  -8.6476867e-01   5.4676957e-01   9.5574043e-01
  -2.9466181e-01   4.2988106e-01   8.2467732e-01
   3.9462640e-01   3.7728154e-01   7.5347538e-01
  -3.2267668e-01   5.9820030e-01   8.8032944e-01
  -9.0060459e-01   7.6371404e-01   9.2639438e-01
  -4.2213032e-01   6.4250100e-01   8.5682914e-01
   6.4982047e-02   5.9679775e-01   7.8095052e-01
   3.1597261e-02   6.6622903e-01   8.0152775e-01
  -5.1574755e-01   8.5079564e-01   8.7717255e-01
  -6.6037513e-01   8.4962685e-01   8.9634689e-01
  -3.4471597e-02   7.7926014e-01   7.8878408e-01
   2.0038833e-01   8.1385910e-01   7.4470656e-01
  -4.5878328e-01   9.8287921e-01   8.7845892e-01
  -8.1784353e-01   1.0970791e+00   8.9120259e-01
  -2.8940900e-01   9.3974769e-01   7.8445813e-01
   1.2696530e-01   9.6359259e-01   7.4412202e-01
  -2.4260019e-01   1.0880786e+00   8.0538608e-01
  -7.0765083e-01   1.2015773e+00   8.6173963e-01
  -5.6022117e-01   1.1699003e+00   7.7615694e-01
   5.6927553e-02   1.0700781e+00   7.0320139e-01
   7.2102385e-02   1.1676796e+00   7.4961705e-01
  -6.4029765e-01   1.3409077e+00   8.2000064e-01
  -7.7278592e-01   1.3524799e+00   7.7896310e-01
  -9.6454848e-02   1.2178246e+00   6.8309179e-01
   1.5416351e-01   1.2624760e+00   6.7420606e-01
  -5.6500710e-01   1.4490295e+00   7.2740313e-01
  -8.8799800e-01   1.5232536e+00   7.5873659e-01
  -3.3166493e-01   1.3784291e+00   6.6660670e-01
   1.3140107e-01   1.3626492e+00   5.7938692e-01
  -2.2135550e-01   1.4830441e+00   6.4860144e-01
  -8.0091750e-01   1.6192188e+00   6.6543724e-01
  -4.4419205e-01   1.5404360e+00   6.0966822e-01
   1.7307339e-01   1.4231973e+00   5.3647886e-01
  -5.1980837e-02   1.5996985e+00   5.1180949e-01
  -7.4908971e-01   1.6980012e+00   5.9622311e-01
  -7.9227980e-01   1.7410163e+00   5.3928463e-01
  -1.1209656e-01   1.5674371e+00   4.8164509e-01
   1.0350292e-01   1.6110365e+00   4.1886086e-01
  -5.3010495e-01   1.7898757e+00   4.6457547e-01
  -8.7293989e-01   1.7925639e+00   4.9672729e-01
  -1.5808794e-01   1.6880657e+00   3.2567880e-01
   1.9910440e-01   1.6217902e+00   3.3105692e-01
  -2.9956446e-01   1.8435271e+00   3.5549248e-01
  -7.1056884e-01   1.8769572e+00   3.6624872e-01
  -5.9594075e-01   1.8576706e+00   3.0393250e-01
   1.1984496e-01   1.7288597e+00   2.0677482e-01
  -3.0385990e-02   1.8290329e+00   2.2711823e-01
  -8.1294088e-01   1.9988716e+00   2.7891241e-01
  -6.7099748e-01   1.9106212e+00   2.2735205e-01
  -1.9997088e-02   1.8113830e+00   1.1534638e-01
   1.6501929e-01   1.7984082e+00   1.0096562e-01
  -4.2831689e-01   1.9830917e+00   1.4492624e-01
  -7.1838989e-01   1.9736237e+00   1.3533907e-01
  -1.3030652e-01   1.8926202e+00   3.2219120e-02
   1.4050604e-01   1.8541639e+00   1.6435479e-02
  -3.2699572e-01   1.9968846e+00   8.1342875e-03
  -6.7414932e-01   2.0397824e+00   2.1111765e-02
  -4.8423029e-01   1.9704676e+00  -2.3199180e-02
   7.1518783e-02   1.9126081e+00  -1.0445631e-01
   5.1558022e-02   1.9231280e+00  -9.6973472e-02
  -6.6142601e-01   2.0839662e+00  -6.7042890e-02
  -5.7527928e-01   1.9772474e+00  -9.1361537e-02
   2.9809077e-01   1.8625799e+00  -2.2593225e-01
   1.9630272e-01   1.9202060e+00  -1.9646930e-01
  -5.7948161e-01   2.0740307e+00  -1.4105100e-01
  -6.1870281e-01   2.0411853e+00  -2.1166840e-01
  -6.4237658e-02   1.9274529e+00  -2.8894991e-01
   1.9840369e-01   1.9290892e+00  -3.0274613e-01
  -3.0341624e-01   1.9993391e+00  -2.5048471e-01
  -6.1111559e-01   2.0635108e+00  -2.9830326e-01
  -3.2862981e-01   1.9590127e+00  -3.4974633e-01
   1.9840369e-01   1.8623462e+00  -3.6915448e-01
   2.2513502e-01   1.8946072e+00  -4.0247577e-01
  -5.3290663e-01   2.0070539e+00  -3.6681634e-01
  -4.9170118e-01   1.9501291e+00  -3.8213235e-01
   3.4139758e-01   1.8406051e+00  -4.6783196e-01
   2.4089345e-01   1.8616449e+00  -4.7730222e-01
  -5.8835314e-01   1.9961833e+00  -4.2679441e-01
  -5.5590251e-01   1.9677794e+00  -4.5871242e-01
   8.1440803e-02   1.8051880e+00  -5.4254151e-01
   2.3750817e-01   1.8250590e+00  -5.3599392e-01
  -1.5295185e-01   1.8518263e+00  -5.1646886e-01
  -5.1247899e-01   1.8991658e+00  -5.6873067e-01
  -9.1902359e-02   1.7794726e+00  -5.6861376e-01
   4.7843794e-01   1.6914556e+00  -6.0263609e-01
   1.2217937e-01   1.8042526e+00  -6.2777309e-01
  -5.4633065e-01   1.8243573e+00  -5.4908870e-01
  -3.3540038e-01   1.7751477e+00  -6.0824842e-01
   3.9100768e-01   1.6522980e+00  -6.7138298e-01
   2.4474562e-01   1.6673766e+00  -6.4846762e-01
  -4.7162370e-01   1.7695371e+00  -5.9667344e-01
  -3.6820117e-01   1.7057160e+00  -6.5302699e-01
   1.8357941e-01   1.5882435e+00  -7.1429144e-01
   3.5773961e-01   1.5624109e+00  -6.7114917e-01
   1.1867775e-01   1.5598395e+00  -6.9523400e-01
  -4.5913344e-01   1.6676103e+00  -6.8003490e-01
  -1.5657057e-01   1.5793599e+00  -7.0271645e-01
   5.4088847e-01   1.4203918e+00  -7.4468965e-01
   1.4622574e-01   1.5151882e+00  -7.1686339e-01
  -3.8512720e-01   1.5391504e+00  -6.9383112e-01
  -2.6454559e-01   1.5190456e+00  -7.2118935e-01
   3.7443181e-01   1.3626492e+00  -7.5684877e-01
   3.6100818e-01   1.3672079e+00  -7.7193097e-01
  -3.2664556e-01   1.4311455e+00  -6.9675380e-01
  -2.6816392e-01   1.3946764e+00  -7.1440834e-01
   3.6871212e-01   1.2816457e+00  -8.0303063e-01
   4.3851642e-01   1.2347733e+00  -7.6970974e-01
  -9.4353880e-02   1.3447651e+00  -7.3603773e-01
  -3.3248198e-01   1.2871394e+00  -7.1195290e-01
  -1.4277395e-02   1.2399164e+00  -7.7614002e-01
   5.1882635e-01   1.1224438e+00  -7.9636653e-01
   1.5066150e-01   1.1951481e+00  -7.6409780e-01
  -4.6298560e-01   1.2269420e+00  -7.1662958e-01
  -1.0474278e-01   1.1140278e+00  -7.5953803e-01
   5.5244457e-01   1.0109326e+00  -8.1507324e-01
   4.9384622e-01   9.8848980e-01  -7.6398090e-01
  -2.7084889e-01   1.1305093e+00  -7.3358229e-01
  -2.6139375e-01   1.0146731e+00  -7.3755753e-01
   3.4840120e-01   9.4489076e-01  -8.1179945e-01
   4.5345781e-01   9.0479809e-01  -7.5345808e-01
  -2.6417104e-02   9.4442325e-01  -7.3463485e-01
  -4.0205284e-01   9.8147667e-01  -7.4141586e-01
   7.6888314e-02   8.3197653e-01  -7.5041849e-01
   5.5886459e-01   7.6418156e-01  -8.0116011e-01
   2.5618500e-01   7.6979215e-01  -7.2376170e-01
  -3.5267618e-01   8.5395176e-01  -7.1709721e-01
  -2.8985345e-02   7.1041286e-01  -7.1838319e-01
   6.7372651e-01   6.0053788e-01  -8.0127702e-01
   3.1525024e-01   6.9732161e-01  -7.7695837e-01
  -2.6851409e-01   6.7780124e-01  -6.3338542e-01
  -2.7715218e-01   6.9065872e-01  -7.3007508e-01
   4.0886708e-01   5.1450819e-01  -7.6082401e-01
   5.0785384e-01   4.7687038e-01  -7.4293565e-01
  -1.6859395e-01   5.9492729e-01  -6.7266896e-01
  -2.8508995e-01   5.1065079e-01  -6.5232555e-01
   8.6576894e-02   4.5068750e-01  -7.4141586e-01
   6.0555629e-01   3.0516165e-01  -7.2037100e-01
   2.4299442e-01   3.8008703e-01  -6.7956727e-01
  -3.4182039e-01   4.0989316e-01  -6.0099939e-01
  -8.1630178e-02   3.1533091e-01  -6.7044773e-01
   5.1310665e-01   2.2287210e-01  -7.1662958e-01
   3.8552143e-01   1.8757186e-01  -6.5665151e-01
  -4.7500898e-01   3.6535909e-01  -5.8042217e-01
  -3.3481678e-01   2.0837791e-01  -5.6896448e-01
   3.3824573e-01   9.9555234e-02  -7.0482117e-01
   3.8785584e-01   6.6241946e-02  -6.2753928e-01
  -8.5832505e-02   9.6632864e-02  -5.5037468e-01
  -3.6738413e-01   1.3707617e-01  -5.6218308e-01
   1.6280121e-01  -7.7413448e-02  -5.6814613e-01
   5.5571314e-01  -6.3737809e-02  -6.3981570e-01
   8.3192001e-02  -4.0009391e-02  -5.2956364e-01
  -5.6419005e-01   4.7072205e-02  -4.7274245e-01
  -3.0388312e-01  -6.5490995e-02  -5.1857358e-01
   4.9116165e-01  -2.5753826e-01  -5.4160586e-01
   2.3984297e-01  -1.3562395e-01  -5.4897179e-01
