**************************************************************************************
            UNIVERSIDAD AUTONOMA METROPOLITANA - AZCAPOTZALCO
                        Departamento de Materiales
                           Area de Estructuras
     AV. SAN PABLO 180,COL.REYNOSA, AZCAPOTZALCO, C.P.02200 CIUDAD DE MEXICO.
**************************************************************************************
ARCHIVO ESTANDAR DE ACELERACION:
VERSION DEL FORMATO                    : 2.0
NOMBRE DEL ARCHIVO                     : RIML201405201
FECHA Y HORA DE CREACION               : 03:52 p. m. 11/01/2014
REF. CATALOGO ACELEROGRAMAS, SMIS 1995 : REGISTRO NO.      /PAG.    


================================================================================
DATOS DE LA ESTACION:
NOMBRE DE LA ESTACION                  : UAM-LERMA.
CLAVE DE LA ESTACION                   : RIML
LOCALIZACION DE LA ESTACION            : AV. DE LAS GARZAS 10, EL PANTEON, C.P.52005,
                                       : LERMA DE VILLADA, ESTADO DE MEXICO. 
                                       :
                                       : 
                                       : 
COORDENADAS DE LA ESTACION             : 19.291481 LAT. N
                                       : 99.502060 LONG. W
ALTITUD (msnm)                         : 2570
TIPO DE SUELO                          : DEPOSITOS LACUSTRES
                                       : 
                                       : 
INSTITUCION RESPONSABLE                : UNIVERSIDAD AUTONOMA METROPOLITANA
                                       : 

================================================================================
DATOS DEL ACELEROGRAFO: 
MODELO DEL ACELEROGRAFO                : BASALT KINEMETRICS
NUMERO DE SERIE DEL ACELEROGRAFO       : 978
NUMERO DE CANALES                      : 3
ORIENTACION C1-C6 (rumbo;orientacion)  : /V/N00E/N90E
ORIENTACION C7-C12 (rumbo;orientacion) : 
VEL. DE MUESTREO, C1-C6 (muestras/s)   : /250/250/250
VEL. DE MUESTREO, C7-C12 (muestras/s)  : 
ESC. COMPLETA DE SENSORES, C1-C6, (g)  : /2/2/2
ESC. COMPLETA DE SENSORES, C7-C12 (g)  : 
FREC. NAT. DE SENSORES, C1-C6, (Hz)    : /210/212/212
FREC. NAT. DE SENSORES, C7-C12 (Hz)    : 
AMORTIGUAMIENTO DE SENSORES, C1-C6     : /0.7/0.7/0.7
AMORTIGUAMIENTO DE SENSORES, C7-C12    : 
INTERVALO DE MUESTREO, C1-C6 (s)       : /0.004/0.004/0.004
INTERVALO DE MUESTREO, C7-C12 (s)      : 
UMBRAL DE DISPARO, C1-C6 (Gal)         : /2/2/2
UMBRAL DE DISPARO, C7-C12 (Gal)        : 
MEMORIA DE PREEVENTO (s)               : 20
TIEMPO DE POSEVENTO (s)                : 30


================================================================================
DATOS DEL SISMO:
FECHA DEL SISMO [GMT]                  : 2014/05/20
HORA EPICENTRO (GMT)                   : 01:39:14
MAGNITUD(ES)                           : /M=5.0
COORDENADAS DEL EPICENTRO              : 18.0328 LAT. N
                                       : 100.095 LONG. W
PROFUNDIDAD FOCAL (Km)                 : 53.8
FUENTE DE LOS DATOS EPICENTRALES       : SSN
                                       : INSTITUTO DE GEOFISICA, UNAM

================================================================================
DATOS DE ESTE REGISTRO:
HORA DE LA PRIMERA MUESTRA (GMT)       : 01:39:16.000
EXACTITUD DEL TIEMPO (s)               : 
DURACION DEL REGISTRO (s), C1-C6       : /102.00/102.00/102.00
DURACION DEL REGISTRO (s), C7-C12      : 
NUM. TOTAL DE MUESTRAS, C1-C6          : /25500/25500/25500
NUM. TOTAL DE MUESTRAS, C7-C12         : 
ACEL. MAX.(Gal), C1-C6                 : /2.427/3.220/3.837
ACEL. MAX., C1-C6, EN LA MUESTRA       : /10046/10957/9653
ACEL. MAX.(Gal), C7-C12                : 
ACEL. MAX., C7-C12,EN LA MUESTRA       : 
UNIDADES DE LOS DATOS                  : Gal (cm/s/s)
FACTOR DE DECIMACION                   : 1
FORMATO DATOS (FORTRAN,16 campos/dato) : 3E16.7


================================================================================
CALIDAD DEL ACELEROGRAMA:
REGISTRO DIGITAL COMPLETO CON TIEMPO ABSOLUTO CORRECTO


================================================================================
COMENTARIOS:














================================================================================
DATOS DE ACELERACION:
---------+---------+---------+---------+---------+---------+---------+---------+
   CANAL-1   	   CANAL-2   	      CANAL-3
         V           N00E              N90E
---------+---------+---------+---------+---------+---------+---------+---------+
[...]
  -4.1245570e-01  -2.5500103e-03   7.3990307e-01
  -6.1566655e-02   4.5491221e-02   6.0276040e-01
   1.7901296e-01   4.9699261e-02   5.9644663e-01
   8.9481337e-02   1.0253254e-01   6.1749188e-01
  -8.5029421e-02   4.4439309e-02   6.4625300e-01
   9.6251514e-02   4.5958738e-02   5.6733479e-01
   4.0511807e-01   1.0732497e-01   4.7450307e-01
   4.3581789e-01   7.5648382e-02   5.3284444e-01
   3.2585863e-01   6.2556746e-02   4.9905553e-01
   2.6947835e-01   3.9646874e-02   5.0092604e-01
   6.0717681e-01   6.8517972e-02   3.9663702e-01
   7.4363357e-01   9.2363269e-02   3.3782802e-01
   5.3071905e-01   6.1387955e-02   3.8553006e-01
   3.5527453e-01   8.1142091e-02   3.4180326e-01
   4.7212069e-01   1.1831239e-01   3.0064881e-01
   8.3398224e-01   1.1351995e-01   1.9951628e-01
   6.4219568e-01   1.0580554e-01   2.0699873e-01
   4.0103246e-01   7.8804117e-02   2.6627536e-01
   6.3192350e-01   5.5777366e-02   1.7765269e-01
   8.8382578e-01   5.2621238e-02   7.3714389e-02
   7.5378903e-01   6.0102285e-02   1.1744080e-01
   5.0982452e-01  -5.5888668e-03   1.7975741e-01
   4.7317117e-01  -9.5631484e-03   1.2118222e-01
   5.3223641e-01   4.5724979e-02   7.0674411e-02
   5.9818855e-01   1.4866544e-02   6.8803897e-02
   1.6897422e-01   2.0009617e-02   1.4222707e-01
  -1.4969724e-01   1.2762328e-02   1.5964781e-01
   3.9521075e-02   1.6152214e-02   9.0316381e-02
   3.6836505e-02   2.5152689e-02   7.5467997e-02
  -2.2732260e-01  -3.0369197e-02   1.3065248e-01
  -4.4525649e-01  -8.6124841e-02   1.8420027e-01
  -2.7273037e-01  -1.1382754e-01   1.2328655e-01
  -1.9814014e-01  -7.2215444e-02   5.6293656e-02
  -3.2304080e-01  -9.1151034e-02   8.5172074e-02
  -5.3980748e-01  -1.5041344e-01   1.3883677e-01
  -7.8015366e-01  -6.5318792e-02   8.8211660e-02
  -4.6790221e-01  -7.2215444e-02   3.7984260e-03
  -3.7195057e-01  -8.5540445e-02   3.3307975e-03
  -8.1587285e-01  -3.8434639e-02   3.5716430e-02
  -9.0832249e-01  -1.0365827e-01   5.3721699e-02
  -5.4681110e-01  -7.2566081e-02  -6.1207045e-02
  -4.6696845e-01  -5.5032647e-02  -1.1475483e-01
  -6.2758830e-01  -9.6995381e-02  -1.6428079e-02
  -6.2046757e-01  -1.2446432e-01  -3.3614998e-02
  -3.7988796e-01  -1.3054243e-01  -1.0645364e-01
  -5.8764973e-02  -7.5371179e-02  -1.8209845e-01
  -1.8133122e-01  -6.5435672e-02  -1.4912828e-01
  -2.7132973e-01  -6.1461390e-02  -1.1709297e-01
  -2.8181869e-02  -6.8007404e-02  -2.1062614e-01
   2.8336925e-01  -1.9031140e-02  -2.3658149e-01
   4.5496161e-01  -9.6800275e-03  -2.5376802e-01
   4.1235513e-01  -7.1630656e-02  -1.9834972e-01
   5.3071905e-01  -6.8591799e-02  -2.2921595e-01
   9.0261934e-01  -8.6475478e-02  -2.9410412e-01
   1.1774008e+00  -7.9579219e-02  -2.7434563e-01
   1.0723442e+00  -1.2165883e-01  -2.6896751e-01
   9.6238490e-01  -1.4503661e-01  -2.0419586e-01
   1.1488019e+00  -1.3720493e-01  -2.5049462e-01
   1.3840120e+00  -1.4877714e-01  -3.0100242e-01
   1.1795017e+00  -1.4304967e-01  -2.6358900e-01
   7.6511209e-01  -1.7647944e-01  -1.9519322e-01
   7.5028742e-01  -1.7344059e-01  -1.9893464e-01
   1.0133956e+00  -1.9705173e-01  -2.7598233e-01
   8.9946749e-01  -2.1329950e-01  -2.5587274e-01
   3.6344574e-01  -2.2428692e-01  -1.5544166e-01
   3.7710281e-01  -2.9126374e-01  -1.4187925e-01
   6.2316868e-01  -2.8121135e-01  -2.5844469e-01
   4.5671242e-01  -2.4322251e-01  -2.0536493e-01
   8.1543956e-02  -2.6215849e-01  -1.2387437e-01
  -1.7736233e-01  -2.6005467e-01  -1.2422509e-01
  -4.3590141e-02  -2.5993779e-01  -1.3954111e-01
  -8.0827093e-02  -1.9915595e-01  -1.7344692e-01
  -3.5817639e-01  -2.0722100e-01  -6.7169702e-02
  -6.6739271e-01  -2.3281948e-01  -2.0754035e-02
  -5.9642120e-01  -2.0967585e-01  -3.8642397e-02
  -3.3739858e-01  -2.2650762e-01  -5.4893667e-02
  -4.7373863e-01  -1.6993382e-01  -2.6365971e-02
  -5.6969027e-01  -2.2872871e-01   5.6410563e-02
  -6.0354193e-01  -1.9892219e-01   2.0868046e-02
  -2.7880023e-01  -1.4936153e-01  -2.6716692e-02
  -9.4951441e-02  -1.2808797e-01  -5.1619875e-02
  -4.0358416e-01  -7.2799839e-02  -1.4674472e-02
  -4.9393283e-01  -8.2150559e-02  -1.0933051e-02
  -1.9183684e-01  -3.8200881e-02  -1.0867527e-01
   7.1855377e-02  -2.9901680e-02  -1.4620521e-01
  -1.2191582e-01   1.0307867e-02  -1.2434200e-01
  -1.2284958e-01  -5.1876520e-02  -1.2516035e-01
   1.5181514e-01  -4.6032172e-02  -2.0267567e-01
   3.8889275e-01   1.5411503e-03  -2.8369860e-01
   4.5402785e-01  -2.1719359e-02  -2.8334788e-01
   3.4897123e-01  -3.0953592e-02  -2.7305926e-01
   3.9788062e-01  -4.3460832e-02  -3.5314693e-01
   6.9775891e-01   2.7724029e-02  -4.5498090e-01
   7.9055910e-01   2.5548027e-04  -5.0665817e-01
   3.9146060e-01   1.8723947e-02  -5.0537180e-01
   3.3146160e-01  -8.1605992e-03  -5.3530238e-01
   6.8888738e-01  -3.3759083e-02  -6.4672391e-01
   8.0304897e-01  -1.5991891e-02  -7.2178379e-01
   5.6223591e-01  -7.8644186e-02  -6.8635818e-01
   3.7465168e-01  -8.3319742e-02  -7.1172899e-01
   5.8523180e-01  -1.2937364e-01  -8.4466301e-01
   7.8250461e-01  -8.6475478e-02  -9.1609876e-01
   5.7636026e-01  -1.2411369e-01  -9.1516350e-01
   2.6842786e-01  -1.4398470e-01  -9.3679289e-01
   2.2944011e-01  -9.6527865e-02  -1.0426021e+00
   3.5492436e-01  -1.3007491e-01  -1.1238588e+00
   2.8371942e-01  -1.1020390e-01  -1.1709763e+00
  -1.5915238e-01  -1.4328343e-01  -1.1568294e+00
  -3.1090109e-01  -1.5345269e-01  -1.1836031e+00
  -8.8180872e-02  -1.9155802e-01  -1.2848525e+00
  -1.2997031e-01  -1.5789449e-01  -1.2992333e+00
  -3.0121251e-01  -2.0079226e-01  -1.2874249e+00
  -5.0735685e-01  -2.6017155e-01  -1.2678998e+00
  -4.2015964e-01  -1.8407737e-01  -1.3643557e+00
  -2.0666151e-01  -1.9202554e-01  -1.4148635e+00
  -3.8910965e-01  -1.9740237e-01  -1.3559376e+00
  -6.2000069e-01  -2.0640285e-01  -1.3567563e+00
  -4.6708517e-01  -2.0990961e-01  -1.3704352e+00
  -1.2623487e-01  -2.0909146e-01  -1.4387145e+00
  -9.0982555e-02  -1.9915595e-01  -1.3885574e+00
  -1.7129248e-01  -2.6391207e-01  -1.2799420e+00
  -1.9310724e-02  -2.6262601e-01  -1.2828651e+00
   4.4142086e-01  -2.7723707e-01  -1.3047283e+00
   6.7102798e-01  -2.8425060e-01  -1.2787730e+00
   5.7601010e-01  -2.7595140e-01  -1.1603370e+00
   5.6071855e-01  -3.3194080e-01  -1.1285355e+00
   7.8974167e-01  -2.5935339e-01  -1.1437346e+00
   9.9180080e-01  -2.9769248e-01  -1.0948639e+00
   7.2962633e-01  -2.9547178e-01  -1.0248310e+00
   4.8075878e-01  -3.0248492e-01  -9.0206873e-01
   5.1857934e-01  -3.4526620e-01  -8.5448399e-01
   8.0631754e-01  -3.3790203e-01  -8.5553615e-01
   6.7231190e-01  -3.6092917e-01  -7.2996808e-01
   2.8605382e-01  -3.8196898e-01  -5.6453152e-01
   3.4698659e-01  -3.8945003e-01  -5.3951143e-01
   4.7270429e-01  -3.3509693e-01  -5.2606633e-01
   5.1145861e-01  -3.4994175e-01  -4.2294599e-01
   1.4014192e-01  -3.0657608e-01  -3.1491555e-01
  -3.3434680e-02  -2.9734184e-01  -2.3517860e-01
   2.5348647e-01  -2.7139272e-01  -2.5692490e-01
   2.2453746e-01  -2.0149353e-01  -2.1764096e-01
   6.4868417e-03  -2.1575396e-01  -7.8393964e-02
  -2.0701168e-01  -2.0406526e-01  -1.7012615e-02
  -9.3667125e-02  -2.0628597e-01   2.5778538e-02
   1.0920866e-01  -1.4433534e-01   3.1975009e-02
  -8.9815350e-02  -1.4117921e-01   1.2492364e-01
  -3.8945981e-01  -1.4071169e-01   2.5657128e-01
  -5.3233698e-01  -8.0163615e-02   2.6721062e-01
  -3.3973299e-01  -4.5681535e-02   2.9281524e-01
  -3.7031610e-01   1.8490188e-02   3.2777322e-01
  -8.5917966e-01   6.5362237e-02   4.7298327e-01
  -9.3131837e-01   8.2661520e-02   5.3249372e-01
  -6.6120614e-01   1.3502767e-01   4.6444827e-01
  -5.7611028e-01   1.9265338e-01   5.2547850e-01
  -6.3949457e-01   1.7009414e-01   6.1421808e-01
  -7.2517403e-01   2.1357631e-01   6.8343261e-01
  -3.6856529e-01   2.0036818e-01   6.4204395e-01
   2.5863609e-02   2.2982368e-01   6.0989213e-01
  -1.2938632e-01   2.8195607e-01   7.2107945e-01
  -1.9557229e-01   2.4326595e-01   7.2961446e-01
  -6.5418821e-02   2.9119030e-01   6.8027572e-01
   1.2403333e-01   3.0942462e-01   6.7653430e-01
   1.3360519e-01   3.4612779e-01   6.3970580e-01
  -1.9078636e-01   3.1795758e-01   6.8086026e-01
  -2.7308053e-01   3.1398330e-01   6.2883265e-01
  -6.2500419e-02   3.3151673e-01   5.1027940e-01
   2.4813125e-02   3.2520447e-01   4.6514971e-01
  -2.6024011e-01   3.2578926e-01   4.0143061e-01
  -5.0747357e-01   3.0907398e-01   3.5103971e-01
  -3.2070600e-01   3.5547851e-01   1.7601599e-01
  -1.5191532e-01   3.7441450e-01   1.7828068e-02
  -3.0016163e-01   3.7932381e-01  -6.3896302e-02
  -6.0610978e-01   4.0024674e-01  -1.5988452e-01
  -6.0389209e-01   4.7049657e-01  -3.0380820e-01
  -3.5093894e-01   4.9399123e-01  -5.0244912e-01
  -4.3136558e-01   5.0801790e-01  -5.6944202e-01
  -6.4299657e-01   4.7680882e-01  -6.1235047e-01
  -5.8719951e-01   4.5448295e-01  -7.3289115e-01
  -4.1840883e-01   5.2110914e-01  -8.5448399e-01
  -3.6868201e-01   5.1912219e-01  -9.0592706e-01
  -5.9105167e-01   4.7856201e-01  -9.0089966e-01
  -8.4505531e-01   4.6932778e-01  -9.1130518e-01
  -6.1953381e-01   4.9001695e-01  -1.0008631e+00
  -6.1871676e-01   5.0567992e-01  -1.0274030e+00
  -1.0046247e+00   5.0275794e-01  -9.1995709e-01
  -1.1618592e+00   4.3426130e-01  -8.5822541e-01
  -1.1234551e+00   4.4618375e-01  -8.0970502e-01
  -9.5104569e-01   4.5483359e-01  -7.9602571e-01
  -1.0432619e+00   4.0410414e-01  -6.2474341e-01
  -1.1665285e+00   3.6436211e-01  -3.8880636e-01
  -1.0427950e+00   3.1363266e-01  -2.9118144e-01
  -6.2583710e-01   3.1784070e-01  -1.3194136e-01
  -4.0907041e-01   2.9235909e-01   6.0736520e-02
  -6.6891047e-01   2.6792940e-01   3.5197496e-01
  -5.1611128e-01   2.2479748e-01   5.8007845e-01
  -1.2763551e-01   2.0679693e-01   7.4387831e-01
   8.0843242e-02   2.1112185e-01   9.8343948e-01
   1.2673416e-02   1.6097679e-01   1.2910461e+00
  -4.6858705e-02   1.1422162e-01   1.5822845e+00
   2.7333051e-01   8.4648857e-02   1.7292482e+00
   5.8394787e-01   8.5467010e-02   1.9605086e+00
   6.3040613e-01   4.1984456e-02   2.2089559e+00
   4.0511807e-01   1.3112965e-02   2.4422037e+00
   4.9640050e-01   1.6152214e-02   2.6364017e+00
   8.7063559e-01   2.9243850e-02   2.7257255e+00
   8.6036340e-01   4.0114390e-02   2.8790029e+00
   4.5262681e-01   6.0219164e-02   3.0810341e+00
   2.9504208e-01   6.1154197e-02   3.2257765e+00
   7.0487964e-01   5.5309850e-02   3.2380526e+00
   6.5433578e-01   1.2953396e-01   3.3285458e+00
   3.9577965e-01   7.1907858e-02   3.5069602e+00
   3.7336776e-01   4.5724979e-02   3.5444901e+00
   4.2262731e-01   6.1387955e-02   3.5683411e+00
   6.4546424e-01   6.1855471e-02   3.5971023e+00
   4.6348299e-01   6.0336043e-02   3.6686553e+00
   1.4679577e-01  -7.9268410e-03   3.7501459e+00
   5.3178541e-02   4.3036368e-02   3.7215013e+00
   2.0235901e-01   2.9126971e-02   3.7301532e+00
   5.5396229e-02   5.0984931e-02   3.7149541e+00
  -5.2078049e-01   7.0154672e-02   3.8033425e+00
  -5.8755006e-01   1.8957705e-02   3.8370145e+00
  -4.3825287e-01   9.4467485e-02   3.6832699e+00
  -5.3327075e-01   1.1609169e-01   3.7197477e+00
  -7.3229436e-01   9.5870034e-02   3.7424292e+00
  -8.7307018e-01   1.3292345e-01   3.6840882e+00
  -7.5645745e-01   2.2292742e-01   3.5816693e+00
  -5.2731761e-01   2.8861857e-01   3.4578553e+00
  -6.2140133e-01   3.1632127e-01   3.4384471e+00
  -8.3396609e-01   4.1462404e-01   3.3433941e+00
  -5.5474887e-01   4.7575652e-01   3.1902340e+00
  -2.2078586e-01   5.5044815e-01   2.9961529e+00
  -2.5475386e-01   6.4150402e-01   2.8759629e+00
  -3.1043381e-01   6.1485363e-01   2.7999674e+00
  -8.8997916e-02   6.4021835e-01   2.5516374e+00
   2.7087899e-01   6.6675187e-01   2.3015534e+00
   5.2091375e-01   6.5330999e-01   2.0866612e+00
   4.9418281e-01   6.0339869e-01   1.8980755e+00
   3.8492387e-01   5.5863047e-01   1.6876261e+00
   7.9254335e-01   5.6014990e-01   1.3202752e+00
   1.0122284e+00   5.0509553e-01   1.0107981e+00
   7.5122118e-01   4.5495047e-01   7.9426921e-01
   6.8865394e-01   3.3665980e-01   4.8642877e-01
   8.6048013e-01   2.3672033e-01   1.6116760e-01
   1.1991123e+00   1.8400354e-01  -2.1530282e-01
   1.1849880e+00   5.3985528e-03  -5.1671297e-01
   9.4079005e-01  -1.5345269e-01  -7.0728652e-01
   1.0850675e+00  -2.7501637e-01  -1.0842242e+00
   1.3906655e+00  -4.3246467e-01  -1.4309978e+00
   1.4387582e+00  -5.6466513e-01  -1.6613229e+00
   1.1186857e+00  -7.2024337e-01  -1.8706032e+00
   1.0471306e+00  -8.6296412e-01  -2.0676070e+00
   1.3039355e+00  -9.4969508e-01  -2.3894775e+00
   1.1360782e+00  -1.0201787e+00  -2.5944314e+00
   9.4464183e-01  -1.1541323e+00  -2.6708950e+00
   7.6429465e-01  -1.2645917e+00  -2.8221846e+00
   7.5624055e-01  -1.3174254e+00  -2.9914791e+00
   1.0265862e+00  -1.3794929e+00  -3.1836893e+00
   7.0814782e-01  -1.4284691e+00  -3.1881322e+00
   4.1772466e-01  -1.4891341e+00  -3.2063713e+00
   5.0212019e-01  -1.5018751e+00  -3.3741460e+00
   5.8102947e-01  -1.4611976e+00  -3.4230171e+00
   3.6741423e-01  -1.3979613e+00  -3.4442957e+00
   4.5022027e-03  -1.4011175e+00  -3.3737952e+00
  -1.3965850e-01  -1.3261921e+00  -3.4067658e+00
  -5.8648253e-02  -1.2319801e+00  -3.4681468e+00
   2.1778394e-02  -1.1736527e+00  -3.4273430e+00
  -3.2047255e-01  -1.0814280e+00  -3.3742629e+00
  -4.9369939e-01  -1.0725444e+00  -3.2930061e+00
  -2.4740008e-01  -9.3987645e-01  -3.3452679e+00
   1.0138800e-01  -8.7126293e-01  -3.3139341e+00
  -4.9529359e-03  -8.2181915e-01  -3.2407447e+00
  -3.6903217e-01  -7.1486654e-01  -3.1371568e+00
  -1.1421149e-01  -6.5665643e-01  -3.0838432e+00
   1.0232176e-01  -5.0248074e-01  -3.1129550e+00
  -2.7714987e-02  -4.5677748e-01  -2.9542999e+00
  -2.9771050e-01  -3.8290401e-01  -2.7975152e+00
  -3.5385734e-01  -3.4877257e-01  -2.6934596e+00
  -8.9114636e-02  -2.8238014e-01  -2.6288049e+00
  -1.1818037e-01  -1.8770062e-01  -2.4733062e+00
  -3.7043282e-01  -2.6554838e-01  -2.2297698e+00
  -5.2089721e-01  -2.0628597e-01  -2.0807014e+00
  -3.4300156e-01  -2.2580634e-01  -1.9322180e+00
  -2.0420999e-01  -1.8512928e-01  -1.7632738e+00
  -4.5319426e-01  -1.8325922e-01  -1.5283893e+00
  -8.7738922e-01  -2.3188445e-01  -1.2538698e+00
  -8.1447221e-01  -1.6712833e-01  -1.0519555e+00
  -6.2805518e-01  -2.0079226e-01  -9.0686231e-01
  -9.8956657e-01  -1.6303756e-01  -5.9668373e-01
  -1.1437660e+00  -2.4930100e-01  -2.6300446e-01
  -1.1948935e+00  -2.6847075e-01  -5.6062738e-02
  -9.9528626e-01  -2.6753532e-01   1.8618769e-01
  -8.5999670e-01  -3.2434327e-01   4.3030863e-01
  -1.2857090e+00  -3.2562894e-01   8.0128403e-01
  -1.2824409e+00  -3.8898212e-01   1.0797784e+00
  -9.4299120e-01  -3.8769645e-01   1.2410059e+00
  -8.7773938e-01  -3.8980066e-01   1.5383239e+00
  -1.0592538e+00  -3.7366978e-01   1.8314333e+00
  -1.1950102e+00  -3.9178761e-01   2.1077064e+00
  -1.0150136e+00  -3.7472208e-01   2.2755980e+00
  -7.6451195e-01  -3.2504454e-01   2.4222110e+00
  -7.3614653e-01  -3.6092917e-01   2.6809465e+00
  -8.4085299e-01  -3.7191659e-01   2.8433435e+00
  -8.2579487e-01  -3.4620123e-01   2.9683270e+00
  -2.4448168e-01  -3.3346023e-01   3.0387106e+00
   3.7653548e-02  -3.3708387e-01   3.0677055e+00
  -3.0996693e-01  -3.3883706e-01   3.2368835e+00
  -1.3242144e-01  -2.8086071e-01   3.2135001e+00
   2.2628826e-01  -2.3831358e-01   3.1178626e+00
   3.9134388e-01  -2.0827330e-01   3.0956487e+00
   2.7951709e-01  -1.6128398e-01   3.0611583e+00
   5.8781513e-02  -2.0301335e-01   3.0305263e+00
   3.0122866e-01  -1.2002252e-01   2.8065146e+00
   5.4811157e-01  -1.2002252e-01   2.6629416e+00
   4.7900798e-01  -2.0757164e-01   2.5742020e+00
   2.3807820e-01  -1.5193287e-01   2.4252509e+00
