**************************************************************************************
            UNIVERSIDAD AUTONOMA METROPOLITANA - AZCAPOTZALCO
                        Departamento de Materiales
                           Area de Estructuras
     AV. SAN PABLO 180,COL.REYNOSA, AZCAPOTZALCO, C.P.02200 CIUDAD DE MEXICO.
**************************************************************************************
ARCHIVO ESTANDAR DE ACELERACION:
VERSION DEL FORMATO                    : 2.0
NOMBRE DEL ARCHIVO                     : RIML201407291
FECHA Y HORA DE CREACION               : MON JUL 18 12:30:07 2018
REF. CATALOGO ACELEROGRAMAS, SMIS 1995 : REGISTRO NO.      /PAG.    


================================================================================
DATOS DE LA ESTACION:
NOMBRE DE LA ESTACION                  : UAM-LERMA.
CLAVE DE LA ESTACION                   : RIML
LOCALIZACION DE LA ESTACION            : AV. DE LAS GARZAS 10, EL PANTEON, C.P.52005,
                                       : LERMA DE VILLADA, ESTADO DE MEXICO. 
                                       :
                                       : 
                                       : 
COORDENADAS DE LA ESTACION             : 19.291481 LAT. N
                                       : 99.502060 LONG. W
ALTITUD (msnm)                         : 2570
TIPO DE SUELO                          : DEPOSITOS LACUSTRES
                                       : 
                                       : 
INSTITUCION RESPONSABLE                : UNIVERSIDAD AUTONOMA METROPOLITANA
                                       : 

================================================================================
DATOS DEL ACELEROGRAFO: 
MODELO DEL ACELEROGRAFO                : BASALT KINEMETRICS
NUMERO DE SERIE DEL ACELEROGRAFO       : 978
NUMERO DE CANALES                      : 3
ORIENTACION C1-C6 (rumbo;orientacion)  : /V/N00E/N90E
ORIENTACION C7-C12 (rumbo;orientacion) : 
VEL. DE MUESTREO, C1-C6 (muestras/s)   : /250/250/250
VEL. DE MUESTREO, C7-C12 (muestras/s)  : 
ESC. COMPLETA DE SENSORES, C1-C6, (g)  : /2/2/2
ESC. COMPLETA DE SENSORES, C7-C12 (g)  : 
FREC. NAT. DE SENSORES, C1-C6, (Hz)    : /210/212/212
FREC. NAT. DE SENSORES, C7-C12 (Hz)    : 
AMORTIGUAMIENTO DE SENSORES, C1-C6     : /0.7/0.7/0.7
AMORTIGUAMIENTO DE SENSORES, C7-C12    : 
INTERVALO DE MUESTREO, C1-C6 (s)       : /0.004/0.004/0.004
INTERVALO DE MUESTREO, C7-C12 (s)      : 
UMBRAL DE DISPARO, C1-C6 (Gal)         : /2/2/2
UMBRAL DE DISPARO, C7-C12 (Gal)        : 
MEMORIA DE PREEVENTO (s)               : 20
TIEMPO DE POSEVENTO (s)                : 30


================================================================================
DATOS DEL SISMO:
FECHA DEL SISMO [GMT]                  : 2014/07/29
HORA EPICENTRO (GMT)                   : 10:46:15
MAGNITUD(ES)                           : /M=6.4
COORDENADAS DEL EPICENTRO              : 17.6988 LAT. N
                                       : 95.6373 LONG. W
PROFUNDIDAD FOCAL (Km)                 : 117.2
FUENTE DE LOS DATOS EPICENTRALES       : SSN
                                       : INSTITUTO DE GEOFISICA, UNAM

================================================================================
DATOS DE ESTE REGISTRO:
HORA DE LA PRIMERA MUESTRA (GMT)       : 10:47:35.00
EXACTITUD DEL TIEMPO (s)               : 
DURACION DEL REGISTRO (s), C1-C6       : /141.00/141.00/141.00
DURACION DEL REGISTRO (s), C7-C12      : 
NUM. TOTAL DE MUESTRAS, C1-C6          : /35250/35250/35250
NUM. TOTAL DE MUESTRAS, C7-C12         : 
ACEL. MAX.(Gal), C1-C6                 : /-2.788/5.478/4.904
ACEL. MAX., C1-C6, EN LA MUESTRA       : /12455/11888/11935
ACEL. MAX.(Gal), C7-C12                : 
ACEL. MAX., C7-C12,EN LA MUESTRA       : 
UNIDADES DE LOS DATOS                  : Gal (cm/s/s)
FACTOR DE DECIMACION                   : 1
FORMATO DATOS (FORTRAN,16 campos/dato) : 3E16.7


================================================================================
CALIDAD DEL ACELEROGRAMA:
REGISTRO DIGITAL COMPLETO CON TIEMPO ABSOLUTO CORRECTO


================================================================================
COMENTARIOS:














================================================================================
DATOS DE ACELERACION:
---------+---------+---------+---------+---------+---------+---------+---------+
   CANAL-1          CANAL-2         CANAL-3
         V           N00E             N90E
---------+---------+---------+---------+---------+---------+---------+---------+ 
[...]
  2.3538649e-001 -3.9989630e-001 -1.2967443e+000
  1.4417473e-002 -3.4367314e-001 -1.3500694e+000
 -1.1258454e-001 -1.5326219e-001 -1.4007051e+000
 -8.2234881e-002 -4.5607910e-002 -1.3700664e+000
 -7.6398075e-002 -1.0218210e-001 -1.4043303e+000
 -9.0172262e-002 -1.5057358e-001 -1.4732090e+000
 -2.5301019e-001  4.8136187e-002 -1.4777698e+000
 -2.8581099e-001  2.2241665e-001 -1.4478327e+000
 -1.5507392e-001  1.4129628e-001 -1.4394128e+000
 -1.4188333e-001  5.4565321e-002 -1.5163602e+000
 -2.4915803e-001  2.2358544e-001 -1.5271188e+000
 -2.9549956e-001  3.5368207e-001 -1.4796407e+000
 -8.9471939e-002  3.3568112e-001 -1.4645552e+000
 -2.0982011e-001  3.0236823e-001 -1.5115656e+000
 -4.9230549e-001  3.8676160e-001 -1.5342524e+000
 -4.1106180e-001  5.7658777e-001 -1.4719228e+000
 -3.8479775e-001  5.7471771e-001 -1.4446752e+000
 -4.0172339e-001  4.8681756e-001 -1.4749630e+000
 -2.0036497e-001  3.7939744e-001 -1.5144893e+000
 -3.0320351e-001  6.0019931e-001 -1.5041985e+000
 -3.5946745e-001  7.1767182e-001 -1.4308760e+000
 -9.6358836e-002  4.9757162e-001 -1.4359044e+000
 -2.2429462e-001  5.3474192e-001 -1.5121506e+000
 -4.0977788e-001  6.6285121e-001 -1.5031461e+000
 -3.3168564e-001  7.9154530e-001 -1.4461953e+000
 -2.0106529e-001  6.6928035e-001 -1.4548491e+000
 -1.6499594e-001  5.3111827e-001 -1.5006901e+000
 -2.1437260e-001  6.8494332e-001 -1.5133200e+000
 -2.8814539e-001  8.1013064e-001 -1.4859554e+000
 -1.2845970e-001  6.9195646e-001 -1.4369572e+000
  1.7667141e-001  4.9897417e-001 -1.5168279e+000
 -6.0756362e-002  6.1492725e-001 -1.5719074e+000
 -1.7683388e-002  7.3415335e-001 -1.5223246e+000
  3.0192223e-001  6.9300837e-001 -1.5136708e+000
  1.7153532e-001  5.8313378e-001 -1.5439586e+000
  2.4215667e-001  5.6747042e-001 -1.6310799e+000
  1.3978501e-001  7.3450398e-001 -1.6186843e+000
  1.8589311e-001  7.7401226e-001 -1.5830172e+000
  5.4016704e-001  6.0054995e-001 -1.6202044e+000
  4.9207470e-001  5.5110617e-001 -1.6984381e+000
  4.6090799e-001  7.3614029e-001 -1.7283751e+000
  6.3810332e-001  7.6244005e-001 -1.6896678e+000
  8.1296424e-001  6.7266984e-001 -1.7427590e+000
  8.8556984e-001  5.8231524e-001 -1.8132747e+000
  8.2732164e-001  7.3567277e-001 -1.8579464e+000
  7.0685675e-001  9.4782481e-001 -1.8353769e+000
  8.7004484e-001  8.6693820e-001 -1.8380663e+000
  9.4521868e-001  8.0732515e-001 -1.9336076e+000
  7.7747849e-001  9.1381025e-001 -1.9745370e+000
  7.8751723e-001  1.1329758e+000 -1.9799163e+000
  8.9829354e-001  1.1014161e+000 -1.9559436e+000
  9.8747461e-001  1.0014766e+000 -2.0223663e+000
  9.3412945e-001  1.0739472e+000 -2.1118267e+000
  8.7097861e-001  1.2931127e+000 -2.0920635e+000
  8.1273080e-001  1.4451842e+000 -2.0869181e+000
  8.8066719e-001  1.2872684e+000 -2.1181414e+000
  8.4074566e-001  1.3495696e+000 -2.2120452e+000
  5.5265731e-001  1.6263609e+000 -2.2409298e+000
  4.7024602e-001  1.7921084e+000 -2.1790679e+000
  5.5977764e-001  1.7134425e+000 -2.1942703e+000
  6.5771392e-001  1.5980738e+000 -2.2834968e+000
  3.6647372e-001  1.8818786e+000 -2.2832629e+000
  3.6378876e-001  2.0673803e+000 -2.2426842e+000
  6.1534088e-001  1.9628821e+000 -2.2445551e+000
  4.7421491e-001  1.8985935e+000 -2.2548460e+000
  5.2604270e-001  1.9897663e+000 -2.3036107e+000
  2.5277901e-001  2.3009228e+000 -2.2419822e+000
  6.9513826e-002  2.3538729e+000 -2.1393077e+000
  2.5639773e-001  2.1475652e+000 -2.1552117e+000
  2.2161230e-001  2.1451108e+000 -2.1746241e+000
  1.7218763e-002  2.4046028e+000 -2.0853976e+000
 -3.3558543e-002  2.4692416e+000 -1.9552416e+000
  1.9254656e-001  2.1984119e+000 -1.8954849e+000
  1.3406532e-001  2.1718780e+000 -1.9050741e+000
 -3.8577913e-002  2.3288588e+000 -1.8053229e+000
 -1.9200754e-002  2.3758481e+000 -1.6527140e+000
  9.5194280e-002  2.1903465e+000 -1.5807951e+000
 -5.3052422e-002  2.0264691e+000 -1.5142554e+000
 -1.1141695e-001  2.1428901e+000 -1.4635028e+000
 -2.6141446e-001  2.2642200e+000 -1.3003692e+000
 -3.5829986e-001  2.1141354e+000 -1.1585192e+000
 -3.9161515e-002  1.7317941e+000 -1.1385222e+000
 -2.0363353e-001  1.7770298e+000 -1.0761925e+000
 -3.1802818e-001  1.9405563e+000 -9.3644735e-001
 -2.5417740e-001  1.7141438e+000 -7.9108901e-001
 -9.4608030e-002  1.3846361e+000 -7.6395873e-001
 -9.7456156e-003  1.2218110e+000 -7.3834857e-001
 -3.7219077e-001  1.4523142e+000 -6.4736811e-001
 -3.7802718e-001  1.3266594e+000 -4.9452530e-001
 -1.8448981e-001  9.0703087e-001 -4.4681336e-001
 -2.7904081e-001  7.9248033e-001 -5.0540119e-001
 -4.3277337e-001  8.0335087e-001 -4.1067850e-001
 -3.4557655e-001  7.5776449e-001 -3.1209664e-001
 -2.4623962e-001  3.9985285e-001 -2.4555701e-001
 -1.7316715e-001  3.2122574e-002 -2.9525720e-001
 -6.7060049e-002 -2.4217466e-002 -3.4039664e-001
 -2.5289308e-001  5.3513017e-002 -2.2637853e-001
 -2.2055917e-001 -2.2643399e-001 -2.0731698e-001
  4.2432335e-002 -7.0251982e-001 -2.5678331e-001
  1.9086682e-002 -7.7323717e-001 -3.2285521e-001
 -2.9888485e-001 -6.2268512e-001 -2.7596179e-001
 -2.7892409e-001 -8.7691677e-001 -2.1597076e-001
  2.2978352e-001 -1.4489678e+000 -2.8859166e-001
  2.2418015e-001 -1.5927405e+000 -3.8354783e-001
  1.9787004e-002 -1.4593708e+000 -3.7384166e-001
  1.2974627e-001 -1.5897012e+000 -3.1607274e-001
  2.3328513e-001 -2.0244083e+000 -3.6939823e-001
  3.3694110e-001 -2.3105507e+000 -4.3792571e-001
  3.1091049e-001 -2.2103775e+000 -4.8949682e-001
  2.2779888e-001 -2.2288459e+000 -4.6236654e-001
  2.8487987e-001 -2.5507561e+000 -4.4330499e-001
  3.5538450e-001 -2.8331579e+000 -5.2528127e-001
  2.4799308e-001 -2.8015982e+000 -6.1181791e-001
  1.0885135e-001 -2.6544361e+000 -5.9930497e-001
  2.1519229e-001 -2.9145121e+000 -5.4796772e-001
  3.4312768e-001 -3.2922947e+000 -6.3263345e-001
  3.8421640e-001 -3.3009446e+000 -7.1449240e-001
  2.4507507e-001 -3.1284177e+000 -7.2197686e-001
  2.2102870e-001 -3.1605618e+000 -7.0876232e-001
  3.6075403e-001 -3.5420850e+000 -7.0338304e-001
  2.5744822e-001 -3.5797228e+000 -8.4581768e-001
  7.7451207e-002 -3.3030488e+000 -9.1107106e-001
 -7.3596785e-002 -3.3169582e+000 -8.0746111e-001
  8.7256507e-002 -3.5339026e+000 -8.2932904e-001
  1.4970703e-001 -3.7310934e+000 -9.4685512e-001
  7.1800225e-003 -3.5446567e+000 -1.0041567e+000
  1.2316113e-002 -3.3923511e+000 -9.4638739e-001
 -1.4064663e-002 -3.5610209e+000 -9.3258819e-001
  4.1031690e-002 -3.7446521e+000 -1.0291822e+000
  1.2916267e-001 -3.6666879e+000 -1.1254250e+000
 -1.2414065e-001 -3.3289979e+000 -1.0908103e+000
 -3.1767801e-001 -3.3745843e+000 -1.0330410e+000
 -7.4763989e-002 -3.6008798e+000 -1.1461236e+000
 -1.4701942e-001 -3.5226815e+000 -1.2179256e+000
 -4.3534161e-001 -3.2010051e+000 -1.2070501e+000
 -4.8401756e-001 -3.1275995e+000 -1.1610921e+000
 -2.8709491e-001 -3.3708437e+000 -1.1816738e+000
 -2.2207654e-001 -3.3624277e+000 -1.2970951e+000
 -3.5012904e-001 -3.0802596e+000 -1.2801383e+000
 -2.9725037e-001 -2.9244476e+000 -1.2266963e+000
 -3.5141296e-001 -3.0261402e+000 -1.2470441e+000
 -3.0355406e-001 -3.0876237e+000 -1.3369722e+000
 -2.9258116e-001 -2.8545484e+000 -1.3895957e+000
 -6.4043547e-001 -2.4432191e+000 -1.2903122e+000
 -5.7366590e-001 -2.5721465e+000 -1.2746421e+000
 -2.7402144e-001 -2.7699216e+000 -1.3955596e+000
 -3.9857154e-001 -2.4504660e+000 -1.4373080e+000
 -6.1160318e-001 -2.1365044e+000 -1.3603602e+000
 -4.9405630e-001 -2.1422318e+000 -1.3245762e+000
 -2.3246544e-001 -2.3540332e+000 -1.4326303e+000
 -3.3343684e-001 -2.1297246e+000 -1.4946092e+000
 -4.7176113e-001 -1.7397857e+000 -1.4319287e+000
 -4.6814240e-001 -1.6445218e+000 -1.4000035e+000
 -4.8938748e-001 -1.7323047e+000 -1.4570712e+000
 -2.8044145e-001 -1.7077585e+000 -1.5756496e+000
 -3.5818314e-001 -1.3248324e+000 -1.5372927e+000
 -6.6016279e-001 -1.0587952e+000 -1.4559015e+000
 -3.5082936e-001 -1.2338934e+000 -1.5263003e+000
 -8.1884328e-002 -1.2786616e+000 -1.5865251e+000
 -2.0561778e-001 -8.9304765e-001 -1.6041835e+000
 -3.3787222e-001 -6.2256824e-001 -1.5141385e+000
 -1.6067689e-001 -6.9270119e-001 -1.5122676e+000
  1.1235336e-001 -7.5465182e-001 -1.5965821e+000
 -6.6242614e-002 -4.5202830e-001 -1.5724921e+000
 -1.4631910e-001 -6.4777651e-002 -1.5041985e+000
 -2.0153217e-001 -2.2931796e-002 -1.4202343e+000
 -1.3569676e-001 -1.1375391e-001 -1.4492359e+000
  2.0748796e-001  4.1590565e-002 -1.4834999e+000
  9.4260517e-002  3.9412538e-001 -1.3900634e+000
 -5.0717621e-002  5.8582200e-001 -1.2915989e+000
  2.2779888e-001  4.8985681e-001 -1.2630650e+000
  3.4861393e-001  5.3789804e-001 -1.2821266e+000
  4.1841823e-001  9.4233110e-001 -1.2162885e+000
  2.8534675e-001  1.2144468e+000 -1.0687081e+000
  6.7412467e-002  1.1838221e+000 -1.0192422e+000
  5.1343611e-001  1.1482882e+000 -1.0297669e+000
  4.7153034e-001  1.5100572e+000 -9.8357503e-001
  1.5402569e-001  1.9116852e+000 -8.2558681e-001
  4.8670517e-001  1.7928097e+000 -7.2431551e-001
  5.3899984e-001  1.7638213e+000 -7.5086112e-001
  6.0460182e-001  2.0435350e+000 -7.3308622e-001
  7.1000859e-001  2.3661464e+000 -6.2666950e-001
  4.9744423e-001  2.5199710e+000 -4.7207272e-001
  6.9308296e-001  2.4144210e+000 -4.7102032e-001
  7.6312070e-001  2.5622848e+000 -4.8493646e-001
  5.7261807e-001  3.0131224e+000 -3.8845938e-001
  5.3829952e-001  3.1957021e+000 -2.6344924e-001
  5.2429189e-001  3.0921389e+000 -1.8451359e-001
  7.8448211e-001  3.1654280e+000 -2.5386000e-001
  8.3420893e-001  3.4571810e+000 -1.9340124e-001
  5.2884438e-001  3.7970917e+000 -6.7338310e-002
  5.3561456e-001  3.7159713e+000 -3.1373243e-003
  9.4101635e-001  3.5638999e+000 -2.2198874e-002
  9.6984865e-001  3.9201752e+000 -9.3065398e-002
  6.2421242e-001  4.2246688e+000  5.4865852e-002
  6.7977565e-001  4.2039796e+000  1.1953457e-001
  7.0650659e-001  4.1122225e+000  8.9363654e-002
  7.1771293e-001  4.3270627e+000  6.3051512e-002
  7.4374354e-001  4.6174131e+000  1.0234393e-001
  4.6149160e-001  4.6556357e+000  2.4232300e-001
  5.3783264e-001  4.5161880e+000  2.0010726e-001
  7.9522117e-001  4.5322016e+000  1.8127958e-001
  8.1401473e-001  4.8468648e+000  1.9496185e-001
  6.3191675e-001  4.9644542e+000  2.8266781e-001
  6.5292799e-001  4.7645753e+000  3.5622417e-001
  8.6280739e-001  4.7420161e+000  2.7436483e-001
  6.2969867e-001  5.1217857e+000  2.7565148e-001
  4.0511093e-001  5.3028455e+000  3.6745047e-001
  5.0748297e-001  5.0586662e+000  4.5901560e-001
  5.6573078e-001  4.9393233e+000  4.3901859e-001
  5.7366855e-001  5.1909836e+000  4.0089549e-001
  5.9082763e-001  5.3989276e+000  4.9012197e-001
  4.1456606e-001  5.2730390e+000  6.2285044e-001
  5.8020529e-001  5.0373927e+000  6.1489864e-001
  7.5109732e-001  5.1263443e+000  5.7221478e-001
  5.1261906e-001  5.4550343e+000  6.5489266e-001
  4.5297022e-001  5.3974082e+000  7.9440399e-001
  3.3589062e-001  5.1868924e+000  8.4106355e-001
  3.7721278e-001  5.2087508e+000  8.0083566e-001
  4.5600534e-001  5.4088631e+000  8.6375000e-001
  2.0643747e-001  5.4811003e+000  9.9998683e-001
  1.0920191e-001  5.2349337e+000  1.0929555e+000
  2.4810980e-001  5.1320718e+000  1.0966978e+000
  3.2596860e-001  5.2890530e+000  1.1379780e+000
  1.9896658e-001  5.3729785e+000  1.2689525e+000
  9.9746769e-002  5.1365136e+000  1.3725625e+000
  1.7480388e-001  4.9303228e+000  1.4111533e+000
  1.2694459e-001  5.0895247e+000  1.4502119e+000
 -1.0266252e-001  5.2474405e+000  1.5891381e+000
 -2.3946945e-001  4.9944945e+000  1.7443196e+000
 -1.9452856e-001  4.6964297e+000  1.7983467e+000
 -1.9464528e-001  4.7796539e+000  1.8186945e+000
 -2.3515040e-001  4.8334226e+000  1.9716538e+000
 -3.1686097e-001  4.6334267e+000  2.1513930e+000
 -3.7557605e-001  4.2760995e+000  2.2314980e+000
 -2.3666777e-001  4.1599127e+000  2.2781576e+000
 -2.3678449e-001  4.2724762e+000  2.3808324e+000
 -4.8553532e-001  4.1673937e+000  2.5767095e+000
 -6.2409305e-001  3.7682202e+000  2.7066312e+000
 -4.0814340e-001  3.4872213e+000  2.7401936e+000
 -4.6674176e-001  3.6247986e+000  2.8004184e+000
 -7.3895496e-001  3.5547825e+000  3.0337166e+000
 -6.1977400e-001  3.1183218e+000  3.1625863e+000
 -5.8720665e-001  2.7955935e+000  3.1791919e+000
 -5.6210980e-001  2.8051784e+000  3.3093479e+000
 -4.6779224e-001  2.7574882e+000  3.4050060e+000
 -6.3051345e-001  2.4026154e+000  3.5955038e+000
 -6.0144772e-001  2.0448206e+000  3.6561964e+000
 -3.6997308e-001  1.8943855e+000  3.6495309e+000
 -5.2884173e-001  1.9762071e+000  3.8275157e+000
 -8.5043159e-001  1.8120963e+000  3.9865563e+000
 -7.8552994e-001  1.3019959e+000  4.0858394e+000
 -5.5277138e-001  1.0926494e+000  4.0935577e+000
 -6.3915116e-001  1.1674579e+000  4.1693358e+000
 -8.0980975e-001  9.8908627e-001  4.3802983e+000
 -6.7417003e-001  5.6524971e-001  4.4577134e+000
 -6.0308180e-001  3.0084880e-001  4.4544389e+000
 -5.3456181e-001  3.0739442e-001  4.5179383e+000
 -5.5697371e-001  2.1236426e-001  4.6093865e+000
 -9.4720067e-001 -4.8179642e-002  4.7264449e+000
 -7.6743710e-001 -3.4846519e-001  4.7259771e+000
 -6.1008581e-001 -4.0632505e-001  4.7198963e+000
 -8.5580113e-001 -3.2836041e-001  4.8073687e+000
 -8.4821391e-001 -6.5027055e-001  4.8729729e+000
 -9.1089748e-001 -9.6540131e-001  4.8899293e+000
 -6.4183612e-001 -1.0766788e+000  4.8166068e+000
 -5.1716890e-001 -1.0507297e+000  4.8090058e+000
 -9.3401008e-001 -1.1125635e+000  4.9089908e+000
 -8.9712369e-001 -1.5084640e+000  4.8732068e+000
 -5.3584574e-001 -1.6534054e+000  4.7412964e+000
 -6.4475413e-001 -1.5244776e+000  4.7078514e+000
 -8.6292186e-001 -1.5736876e+000  4.7225861e+000
 -9.3436025e-001 -1.8389071e+000  4.6907777e+000
 -9.9622678e-001 -2.0048883e+000  4.5472907e+000
 -7.7304007e-001 -1.9756662e+000  4.4677704e+000
 -7.5436324e-001 -1.9643281e+000  4.4464871e+000
 -1.0181722e+000 -2.1178022e+000  4.3512967e+000
 -8.8556719e-001 -2.3866449e+000  4.2554047e+000
 -5.2125451e-001 -2.4073344e+000  4.0715724e+000
 -6.1755631e-001 -2.2290797e+000  3.9787211e+000
 -8.9957481e-001 -2.3116030e+000  3.9432878e+000
 -7.5471340e-001 -2.5421062e+000  3.7697464e+000
 -7.2786574e-001 -2.4650770e+000  3.6036894e+000
 -7.7117254e-001 -2.3239930e+000  3.4827719e+000
 -7.2938310e-001 -2.3555527e+000  3.3970538e+000
 -8.8229901e-001 -2.4934810e+000  3.2453807e+000
 -6.5059094e-001 -2.5485354e+000  3.0656419e+000
 -4.3977738e-001 -2.4071007e+000  2.9284692e+000
 -5.6724589e-001 -2.3322922e+000  2.8316417e+000
 -6.0845133e-001 -2.4006715e+000  2.6900256e+000
 -6.5397583e-001 -2.4474271e+000  2.4904063e+000
 -4.8541860e-001 -2.2943033e+000  2.3696058e+000
 -4.8355068e-001 -2.1864157e+000  2.2295102e+000
 -7.1129026e-001 -2.2232353e+000  2.0882448e+000
 -6.3039673e-001 -2.2703411e+000  1.9225387e+000
 -6.0926838e-001 -2.1308938e+000  1.7506343e+000
 -6.2059143e-001 -1.9802249e+000  1.6273782e+000
 -6.5911192e-001 -2.0636828e+000  1.4957021e+000
 -6.5012405e-001 -2.1382576e+000  1.3104667e+000
 -4.1923302e-001 -2.0522279e+000  1.1224249e+000
 -3.9915554e-001 -1.8408940e+000  1.0547155e+000
 -4.7969890e-001 -1.8496607e+000  9.0783704e-001
 -5.3993135e-001 -1.9096244e+000  7.1570221e-001
 -5.2428924e-001 -1.8034899e+000  5.9677255e-001
 -4.3113928e-001 -1.6135465e+000  4.5293472e-001
 -4.4794820e-001 -1.5533491e+000  3.7879369e-001
 -5.6316028e-001 -1.6337682e+000  2.3086284e-001
 -3.8456431e-001 -1.6235989e+000  7.1588361e-002
 -1.9931448e-001 -1.4663843e+000  1.5456496e-002
 -2.7448832e-001 -1.3090525e+000 -9.5754843e-002
 -2.1682373e-001 -1.4572670e+000 -1.8720304e-001
 -2.2546182e-001 -1.4336554e+000 -3.4916735e-001
 -6.8110533e-002 -1.2551673e+000 -4.1477153e-001
  3.7996567e-002 -1.1431881e+000 -4.7464523e-001
 -1.7328387e-001 -1.1064854e+000 -5.9661552e-001
