**************************************************************************************
            UNIVERSIDAD AUTONOMA METROPOLITANA - AZCAPOTZALCO
                        Departamento de Materiales
                           Area de Estructuras
     AV. SAN PABLO 180,COL.REYNOSA, AZCAPOTZALCO, C.P.02200 CIUDAD DE MEXICO.
**************************************************************************************
ARCHIVO ESTANDAR DE ACELERACION:
VERSION DEL FORMATO                    : 2.0
NOMBRE DEL ARCHIVO                     : RIML201412271
FECHA Y HORA DE CREACION               : 10:54 a. m. 28/12/2014
REF. CATALOGO ACELEROGRAMAS, SMIS 1995 : REGISTRO NO.      /PAG.    


================================================================================
DATOS DE LA ESTACION:
NOMBRE DE LA ESTACION                  : UAM-LERMA.
CLAVE DE LA ESTACION                   : RIML
LOCALIZACION DE LA ESTACION            : AV. DE LAS GARZAS 10, EL PANTEON, C.P.52005,
                                       : LERMA DE VILLADA, ESTADO DE MEXICO. 
                                       :
                                       : 
                                       : 
COORDENADAS DE LA ESTACION             : 19.291481 LAT. N
                                       : 99.502060 LONG. W
ALTITUD (msnm)                         : 2570
TIPO DE SUELO                          : DEPOSITOS LACUSTRES
                                       : 
                                       : 
INSTITUCION RESPONSABLE                : UNIVERSIDAD AUTONOMA METROPOLITANA
                                       : 

================================================================================
DATOS DEL ACELEROGRAFO: 
MODELO DEL ACELEROGRAFO                : BASALT KINEMETRICS
NUMERO DE SERIE DEL ACELEROGRAFO       : 978
NUMERO DE CANALES                      : 3
ORIENTACION C1-C6 (rumbo;orientacion)  : /V/N00E/N90E
ORIENTACION C7-C12 (rumbo;orientacion) : 
VEL. DE MUESTREO, C1-C6 (muestras/s)   : /250/250/250
VEL. DE MUESTREO, C7-C12 (muestras/s)  : 
ESC. COMPLETA DE SENSORES, C1-C6, (g)  : /2/2/2
ESC. COMPLETA DE SENSORES, C7-C12 (g)  : 
FREC. NAT. DE SENSORES, C1-C6, (Hz)    : /210/212/212
FREC. NAT. DE SENSORES, C7-C12 (Hz)    : 
AMORTIGUAMIENTO DE SENSORES, C1-C6     : /0.7/0.7/0.7
AMORTIGUAMIENTO DE SENSORES, C7-C12    : 
INTERVALO DE MUESTREO, C1-C6 (s)       : /0.004/0.004/0.004
INTERVALO DE MUESTREO, C7-C12 (s)      : 
UMBRAL DE DISPARO, C1-C6 (Gal)         : /2/2/2
UMBRAL DE DISPARO, C7-C12 (Gal)        : 
MEMORIA DE PREEVENTO (s)               : 20
TIEMPO DE POSEVENTO (s)                : 30


================================================================================
DATOS DEL SISMO:
FECHA DEL SISMO [GMT]                  : 2014/12/27
HORA EPICENTRO (GMT)                   : 13:33:38
MAGNITUD(ES)                           : /M=4.2
COORDENADAS DEL EPICENTRO              : 18.3967 LAT. N
                                       : 98.8463LONG. W
PROFUNDIDAD FOCAL (Km)                 : 55.1
FUENTE DE LOS DATOS EPICENTRALES       : SSN
                                       : INSTITUTO DE GEOFISICA, UNAM

================================================================================
DATOS DE ESTE REGISTRO:
HORA DE LA PRIMERA MUESTRA (GMT)       : 13:33:48.000
EXACTITUD DEL TIEMPO (s)               : 
DURACION DEL REGISTRO (s), C1-C6       : /57.00/57.00/57.00
DURACION DEL REGISTRO (s), C7-C12      : 
NUM. TOTAL DE MUESTRAS, C1-C6          : /14250/14250/14250
NUM. TOTAL DE MUESTRAS, C7-C12         : 
ACEL. MAX.(Gal), C1-C6                 : /-1.855/3.502/-2.532
ACEL. MAX., C1-C6, EN LA MUESTRA       : 5685/5328/5420
ACEL. MAX.(Gal), C7-C12                : 
ACEL. MAX., C7-C12,EN LA MUESTRA       : 
UNIDADES DE LOS DATOS                  : Gal (cm/s/s)
FACTOR DE DECIMACION                   : 1
FORMATO DATOS (FORTRAN,16 campos/dato) : 3E16.7


================================================================================
CALIDAD DEL ACELEROGRAMA:
REGISTRO DIGITAL COMPLETO CON TIEMPO ABSOLUTO CORRECTO


================================================================================
COMENTARIOS:














================================================================================
DATOS DE ACELERACION:
---------+---------+---------+---------+---------+---------+---------+---------+
   CANAL-1   	   CANAL-2   	      CANAL-3
         V           N00E              N90E
---------+---------+---------+---------+---------+---------+---------+---------+
[...]
   6.6604998e-01   4.2709046e-02  -1.0551280e-01
   6.5916269e-01   4.7618361e-02  -1.1755542e-01
   6.4573905e-01   2.5643521e-02  -1.3380668e-01
   6.1632315e-01   3.8735157e-02  -1.5870987e-01
   5.5153822e-01   3.5228392e-02  -1.7297372e-01
   5.2515744e-01   3.5462150e-02  -1.9670783e-01
   4.6527516e-01   1.0915578e-02  -2.3131470e-01
   4.0667680e-01   2.5994159e-02  -2.4896924e-01
   3.6768905e-01   1.6876805e-02  -2.7878292e-01
   3.0617268e-01   3.9024404e-03  -3.0672569e-01
   2.6835251e-01   3.0202198e-02  -3.2087263e-01
   2.4874191e-01  -1.8306549e-02  -3.5056940e-01
   1.9434588e-01  -6.8512211e-03  -3.7734309e-01
   1.3714856e-01  -1.1760535e-02  -3.8926880e-01
   9.8861126e-02  -4.2970000e-02  -4.0914458e-01
   5.2438955e-03  -4.3905033e-02  -4.2633111e-01
  -9.1057905e-02  -6.9620395e-02  -4.3837372e-01
  -2.0767063e-01  -8.1542848e-02  -4.4316731e-01
  -3.5580022e-01  -9.6037033e-02  -4.3977661e-01
  -4.4743320e-01  -1.1766123e-01  -4.5088357e-01
  -5.6696393e-01  -1.2514228e-01  -4.3100779e-01
  -6.6221525e-01  -1.3215542e-01  -4.2972181e-01
  -7.3096907e-01  -1.3086975e-01  -4.3626900e-01
  -7.9563728e-01  -1.1590805e-01  -4.2071917e-01
  -8.1011179e-01  -1.1123249e-01  -4.2796781e-01
  -8.0392522e-01  -9.1361477e-02  -4.2457750e-01
  -7.6400369e-01  -8.6685920e-02  -4.2410987e-01
  -6.9314891e-01  -7.0789186e-02  -4.2048536e-01
  -6.0781961e-01  -4.2385212e-02  -4.1265180e-01
  -4.6891133e-01  -3.3034492e-02  -4.0096030e-01
  -3.0035370e-01  -2.3215864e-02  -3.9593290e-01
  -1.7265176e-01  -1.0825503e-02  -3.7558949e-01
   3.2208666e-02  -6.2668256e-03  -3.5863677e-01
   2.0578527e-01  -9.3060743e-03  -3.5676587e-01
   3.4481027e-01   7.4088133e-03  -3.3396740e-01
   5.1360134e-01  -1.0708624e-02  -3.2800475e-01
   6.2647862e-01  -7.9035252e-03  -3.2110644e-01
   7.2476505e-01  -8.8999485e-04  -3.1549451e-01
   7.7647612e-01  -1.7722154e-02  -3.0403682e-01
   8.5678605e-01  -2.2748347e-02  -3.1631286e-01
   8.5071620e-01  -1.6436092e-02  -3.0228322e-01
   8.3635841e-01  -1.2344931e-02  -2.8521320e-01
   8.5526829e-01  -2.8475815e-02  -3.1070092e-01
   8.0227330e-01  -1.5384180e-02  -2.9082514e-01
   7.8371318e-01  -2.4969050e-02  -2.9386512e-01
   7.6095113e-01  -3.4203283e-02  -2.9900942e-01
   7.2931715e-01  -4.2502091e-02  -3.0169829e-01
   6.7900673e-01  -3.9229477e-02  -2.9176040e-01
   6.9231403e-01  -5.4775573e-02  -2.8965607e-01
   6.3896849e-01  -5.6295002e-02  -2.9421584e-01
   5.8433941e-01  -5.7346914e-02  -2.6498670e-01
   5.4476804e-01  -9.2997784e-02  -2.7083245e-01
   4.0480928e-01  -7.0555428e-02  -2.4487710e-01
   3.1831278e-01  -1.0608942e-01  -2.1810340e-01
   1.5162268e-01  -9.7439582e-02  -1.8770519e-01
  -5.8453291e-03  -1.1485614e-01  -1.4666765e-01
  -1.5549268e-01  -1.2993472e-01  -1.1977665e-01
  -3.3654017e-01  -1.1321944e-01  -6.7164514e-02
  -4.8992257e-01  -1.4115589e-01  -3.2674161e-02
  -6.1143794e-01  -1.1508989e-01  -1.7162125e-04
  -6.9303219e-01  -1.4618209e-01   4.1100131e-02
  -7.7392571e-01  -1.1929793e-01   6.8458364e-02
  -7.6295282e-01  -1.1953169e-01   9.7804410e-02
  -7.5770001e-01  -1.2175240e-01   1.3498363e-01
  -6.6851894e-01  -1.0597254e-01   1.4457080e-01
  -5.9696344e-01  -1.1415486e-01   1.7742445e-01
  -5.8785885e-01  -9.8959402e-02   2.0770575e-01
  -4.4183023e-01  -1.2163552e-01   2.1659148e-01
  -4.0529360e-01  -9.2997784e-02   2.5786284e-01
  -4.0202543e-01  -1.2467476e-01   2.7563390e-01
  -3.6560552e-01  -1.1497302e-01   3.0205727e-01
  -3.8474924e-01  -1.1228440e-01   3.3537816e-01
  -3.2720175e-01  -1.4396138e-01   3.5431869e-01
  -3.2941944e-01  -1.2572668e-01   3.7220666e-01
  -2.9673537e-01  -1.4325972e-01   3.8611978e-01
  -2.0370174e-01  -1.3706473e-01   3.8951048e-01
  -1.7486944e-01  -1.3612970e-01   3.8039094e-01
  -4.6000292e-02  -1.2397349e-01   3.6893326e-01
   3.4776515e-02  -1.1906418e-01   3.5127871e-01
   1.2337438e-01  -1.0573878e-01   3.4110700e-01
   2.0952071e-01  -8.3997701e-02   3.2392048e-01
   2.9041424e-01  -7.5114105e-02   3.1994524e-01
   3.5309821e-01  -6.0619920e-02   3.1503475e-01
   3.0290450e-01  -3.8645081e-02   3.1959452e-01
   3.8578228e-01  -3.9112598e-02   3.3666414e-01
   3.1072516e-01  -1.5501059e-02   3.5314962e-01
   1.9516293e-01   1.2201249e-02   3.9477170e-01
   1.2839375e-01   7.8767219e-03   4.2049323e-01
   3.1158182e-02   4.6683328e-02   4.5474977e-01
  -2.3471290e-02   5.5216287e-02   5.0584211e-01
  -1.6553142e-01   9.0049003e-02   5.5471322e-01
  -2.2296218e-01   1.0290649e-01   6.0253177e-01
  -3.0012026e-01   1.3201174e-01   6.5888533e-01
  -3.2229910e-01   1.8694923e-01   7.3628414e-01
  -3.4844644e-01   1.9863792e-01   7.9579458e-01
  -3.9642245e-01   2.3686052e-01   8.6161840e-01
  -3.1716301e-01   2.7075821e-01   9.6052930e-01
  -2.4922624e-01   3.0185040e-01   1.0339529e+00
  -2.5868137e-01   3.1926656e-01   1.1195356e+00
  -2.5844793e-01   3.6555461e-01   1.2247602e+00
  -1.7872161e-01   3.6508709e-01   1.3021586e+00
  -1.7253503e-01   4.0482873e-01   1.4118262e+00
  -1.4498705e-01   4.3077824e-01   1.5023194e+00
  -1.5841069e-01   4.3650571e-01   1.5980738e+00
  -1.6833271e-01   4.8174145e-01   1.6946465e+00
  -1.4533722e-01   4.7589711e-01   1.7625751e+00
  -1.7907177e-01   5.3854901e-01   1.8572769e+00
  -1.5736020e-01   5.5047146e-01   1.9151507e+00
  -1.2397542e-01   5.8156405e-01   1.9699844e+00
  -9.7711361e-02   6.1522758e-01   2.0149972e+00
  -5.8490162e-02   6.4924214e-01   2.0444602e+00
   2.8706661e-02   6.8898417e-01   2.0507735e+00
   5.2402868e-02   7.0488091e-01   2.0511243e+00
   1.0493098e-01   7.4964913e-01   2.0427062e+00
   1.4286825e-01   7.4473982e-01   1.9993305e+00
   1.4146722e-01   7.8167636e-01   1.9829619e+00
   1.7566905e-01   7.7267628e-01   1.9260238e+00
   1.6119454e-01   7.9207938e-01   1.8722422e+00
   1.3656457e-01   7.8506625e-01   1.8117965e+00
   4.9134304e-02   7.8459873e-01   1.7362686e+00
   3.4426354e-02   7.9687182e-01   1.6589871e+00
   5.3606159e-03   7.6180534e-01   1.5524765e+00
  -6.5844333e-02   7.8635192e-01   1.4692319e+00
  -7.1213864e-02   7.5070105e-01   1.3438976e+00
  -8.0669003e-02   7.6472771e-01   1.2156407e+00
  -1.3681584e-01   7.4041490e-01   1.0885528e+00
  -1.7206815e-01   7.4123305e-01   9.3866609e-01
  -1.7183471e-01   7.3854483e-01   8.1122750e-01
  -2.1782609e-01   7.0371212e-01   6.6929085e-01
  -2.0521950e-01   7.1703712e-01   5.2361357e-01
  -2.3790357e-01   6.7285368e-01   3.9477170e-01
  -2.3346780e-01   6.6841188e-01   2.5435524e-01
  -2.4560790e-01   6.3077368e-01   1.2656592e-01
  -2.5763089e-01   6.1499382e-01  -7.5615697e-04
  -2.4327310e-01   5.8647336e-01  -1.4362767e-01
  -2.7525685e-01   5.5608205e-01  -2.6498670e-01
  -2.0055029e-01   5.2276915e-01  -4.0411718e-01
  -2.2366250e-01   4.7402665e-01  -5.4313037e-01
  -1.5806053e-01   4.5953246e-01  -6.7840252e-01
  -9.4092636e-02   3.9606241e-01  -8.1741610e-01
  -2.1020161e-02   3.7116520e-01  -9.5420805e-01
   1.5547484e-01   3.2885143e-01  -1.0962612e+00
   2.0812007e-01   2.8139499e-01  -1.2378467e+00
   3.3815682e-01   2.4293863e-01  -1.3807186e+00
   4.6515844e-01   1.9875480e-01  -1.5123663e+00
   5.6729666e-01   1.5702583e-01  -1.6448323e+00
   6.0920282e-01   1.0664701e-01  -1.7653730e+00
   6.7060246e-01   6.0476238e-02  -1.8780805e+00
   7.5126255e-01   1.4188585e-02  -1.9524389e+00
   7.0959022e-01  -4.7762043e-02  -2.0450368e+00
   7.0176917e-01  -9.9660677e-02  -2.1160049e+00
   6.9184715e-01  -1.2607731e-01  -2.1411419e+00
   6.5414332e-01  -2.0193773e-01  -2.2036920e+00
   6.3149799e-01  -2.3314680e-01  -2.2238016e+00
   5.9122630e-01  -2.8188931e-01  -2.2318689e+00
   5.5667431e-01  -3.2724193e-01  -2.2471850e+00
   5.4932053e-01  -3.6067210e-01  -2.2443788e+00
   5.0134452e-01  -4.0356986e-01  -2.2003017e+00
   4.7636439e-01  -4.2881771e-01  -2.1735276e+00
   4.2710445e-01  -4.7919652e-01  -2.1204478e+00
   3.8881740e-01  -4.9544390e-01  -2.0195491e+00
   3.2765119e-01  -5.6452493e-01  -1.9468270e+00
   2.2621291e-01  -5.9760446e-01  -1.8079307e+00
   1.7508544e-01  -6.3816465e-01  -1.6771014e+00
   7.8200042e-02  -6.9590724e-01  -1.5288514e+00
   2.1703043e-02  -7.3868852e-01  -1.3676239e+00
  -1.0133009e-01  -7.9748302e-01  -1.2102547e+00
  -1.8117313e-01  -8.4727744e-01  -1.0479750e+00
  -2.5599680e-01  -9.1296859e-01  -9.0638950e-01
  -3.4739595e-01  -9.5142495e-01  -7.3814678e-01
  -3.7144232e-01  -1.0299740e+00  -6.2111371e-01
  -4.6657692e-01  -1.0570919e+00  -4.8350341e-01
  -4.8548680e-01  -1.1230168e+00  -3.7208188e-01
  -5.1618663e-01  -1.1738631e+00  -2.7176770e-01
  -5.1606991e-01  -1.2189820e+00  -1.6794632e-01
  -5.4093332e-01  -1.2986998e+00  -1.1369709e-01
  -5.3229561e-01  -1.3189215e+00  -2.2268640e-02
  -4.8443632e-01  -1.4219002e+00   1.8885812e-02
  -5.1221813e-01  -1.4647980e+00   4.5191881e-02
  -4.8478648e-01  -1.5384377e+00   8.1436233e-02
  -5.1968863e-01  -1.6214281e+00   8.4358912e-02
  -4.9645931e-01  -1.6961197e+00   7.2199784e-02
  -4.9564226e-01  -1.7820325e+00   6.2846428e-02
  -5.0112852e-01  -1.8417625e+00   3.5254381e-02
  -4.6132372e-01  -1.9408838e+00  -1.3499820e-02
  -4.5490370e-01  -1.9732616e+00  -4.2845867e-02
  -3.9478798e-01  -2.0502909e+00  -1.0270703e-01
  -3.8404891e-01  -2.0761231e+00  -1.6338655e-01
  -3.3082009e-01  -2.1030076e+00  -2.1529724e-01
  -2.7747493e-01  -2.1302424e+00  -2.7948436e-01
  -2.6778635e-01  -2.1018388e+00  -3.4133295e-01
  -2.1117263e-01  -2.1283724e+00  -4.0668914e-01
  -2.0323486e-01  -2.0511094e+00  -4.5462499e-01
  -1.9623124e-01  -1.9730279e+00  -4.9227184e-01
  -1.4241881e-01  -1.9141161e+00  -5.3553101e-01
  -1.3518175e-01  -1.8017867e+00  -5.6008347e-01
  -1.0634946e-01  -1.6813918e+00  -5.9176766e-01
  -1.0611602e-01  -1.5249954e+00  -6.1561868e-01
  -1.0961763e-01  -1.3584297e+00  -6.1304633e-01
  -6.1758726e-02  -1.1628757e+00  -6.3982042e-01
  -1.1685508e-01  -9.3961937e-01  -6.3257139e-01
  -1.0039632e-01  -7.3214250e-01  -6.1094200e-01
  -1.0319761e-01  -4.6271539e-01  -6.0112102e-01
  -1.2712726e-01  -1.7867722e-01  -5.5645896e-01
  -9.0124141e-02   7.1113021e-02  -5.0934185e-01
  -1.8304066e-01   3.8086695e-01  -4.4948068e-01
  -1.6459726e-01   6.6923004e-01  -3.6705448e-01
  -1.2631022e-01   9.4473564e-01  -2.8381032e-01
  -1.8934395e-01   1.2430342e+00  -1.9086169e-01
  -1.5712676e-01   1.5201762e+00  -7.9908177e-02
  -1.5841069e-01   1.8001236e+00   2.1925790e-02
  -1.5327460e-01   2.0601996e+00   1.3615309e-01
  -1.3564864e-01   2.3021581e+00   2.5108144e-01
  -1.4708802e-01   2.5402597e+00   3.6916707e-01
  -1.0039632e-01   2.7327744e+00   4.8561561e-01
  -1.3833321e-01   2.9307829e+00   6.0603938e-01
  -7.0513542e-02   3.1008554e+00   7.3312725e-01
  -6.3742973e-02   3.2086265e+00   8.1894376e-01
  -1.2689382e-01   3.3598798e+00   9.5351448e-01
   1.0496707e-02   3.4267398e+00   1.0648187e+00
  -4.6117012e-02   3.4673000e+00   1.1438542e+00
  -7.0923833e-04   3.5021327e+00   1.2549246e+00
   2.9640425e-02   3.4685856e+00   1.3180592e+00
  -2.8607381e-02   3.4557281e+00   1.3940547e+00
   6.8044581e-02   3.3611655e+00   1.4498241e+00
   1.8317759e-02   3.2544466e+00   1.4622171e+00
   5.1585825e-02   3.1214276e+00   1.4964736e+00
   4.6566454e-02   2.9663169e+00   1.5017348e+00
   3.8161800e-02   2.7808157e+00   1.4702845e+00
   5.8005840e-02   2.5620007e+00   1.4523961e+00
   5.5904481e-02   2.3563943e+00   1.4114755e+00
   1.1520316e-01   2.0765642e+00   1.3338428e+00
   8.8588944e-02   1.8413850e+00   1.2653301e+00
   1.5710932e-01   1.5414497e+00   1.1729664e+00
   1.9901509e-01   1.2470085e+00   1.0599082e+00
   2.2679651e-01   9.6495730e-01   9.5596953e-01
   2.9018080e-01   6.0237010e-01   8.0608319e-01
   3.3068593e-01   3.2709825e-01   6.8402233e-01
   3.6640512e-01  -2.1579164e-02   5.6313093e-01
   4.2687101e-01  -3.8685498e-01   3.7723406e-01
   4.8546936e-01  -6.8830970e-01   2.6628055e-01
   4.5978891e-01  -1.0004012e+00   1.3007314e-01
   5.2072168e-01  -1.3185708e+00  -1.6890520e-02
   5.0274516e-01  -1.5999208e+00  -1.2562240e-01
   4.7064469e-01  -1.8629191e+00  -2.5575025e-01
   4.7601423e-01  -2.1207744e+00  -3.3899480e-01
   4.7974967e-01  -2.3183158e+00  -4.4772668e-01
   5.3893163e-01  -2.5448451e+00  -5.3810297e-01
   5.0566357e-01  -2.6918904e+00  -6.0720058e-01
   5.3577979e-01  -2.8235065e+00  -6.8565155e-01
   5.8165444e-01  -2.9583956e+00  -7.3990039e-01
   6.2099236e-01  -3.0120470e+00  -8.0104792e-01
   6.3640064e-01  -3.0782060e+00  -8.4091640e-01
   6.2134252e-01  -3.0963235e+00  -8.7096349e-01
   6.4013608e-01  -3.0959728e+00  -8.9387926e-01
   6.1153722e-01  -3.0619583e+00  -9.0849382e-01
   5.7978692e-01  -3.0083069e+00  -9.0030954e-01
   5.0414620e-01  -2.9031074e+00  -8.6815772e-01
   4.7986639e-01  -2.7737121e+00  -8.4594380e-01
   4.2558708e-01  -2.6550708e+00  -8.0163246e-01
   3.4842900e-01  -2.4496981e+00  -7.5089084e-01
   3.1376029e-01  -2.2611572e+00  -7.0693022e-01
   2.2271130e-01  -2.0463170e+00  -6.2508894e-01
   2.0310070e-01  -1.8089167e+00  -5.6253852e-01
   1.0598146e-01  -1.5833228e+00  -4.9531181e-01
   8.5124593e-03  -1.3310777e+00  -3.9780341e-01
  -6.1954904e-03  -1.0946128e+00  -3.3501957e-01
  -1.1370324e-01  -8.3570562e-01  -2.3774537e-01
  -1.8374098e-01  -5.8918838e-01  -1.3848336e-01
  -2.5728073e-01  -3.5155474e-01  -5.5004994e-02
  -3.6070287e-01  -1.0293329e-01   4.0164481e-02
  -3.9023549e-01   1.0898499e-01   1.1919999e-01
  -4.5630434e-01   3.3282572e-01   2.1273315e-01
  -6.0968714e-01   5.5152377e-01   2.9317154e-01
  -6.7493895e-01   7.2323250e-01   3.7033614e-01
  -7.2361529e-01   8.9856487e-01   4.3919994e-01
  -8.5843758e-01   1.0653643e+00   5.0303595e-01
  -8.7688097e-01   1.2166176e+00   5.7903187e-01
  -9.4761904e-01   1.3318694e+00   6.2626589e-01
  -1.0659830e+00   1.4320426e+00   6.7396753e-01
  -1.0673836e+00   1.5353716e+00   7.2412462e-01
  -1.1147756e+00   1.6024653e+00   7.4505296e-01
  -1.1279662e+00   1.6647670e+00   7.6960503e-01
  -1.1091727e+00   1.7128078e+00   7.8924700e-01
  -1.0830253e+00   1.7401599e+00   7.8012745e-01
  -1.0660997e+00   1.7578098e+00   7.6422691e-01
  -1.0042328e+00   1.7561735e+00   7.3102292e-01
  -9.2392283e-01   1.7364194e+00   6.9805236e-01
  -9.1633561e-01   1.7146783e+00   6.4719383e-01
  -7.5022951e-01   1.6541302e+00   5.7868076e-01
  -6.2171013e-01   1.6004784e+00   5.0712809e-01
  -5.4723701e-01   1.5234492e+00   4.1160750e-01
  -4.0330935e-01   1.4147430e+00   3.2649243e-01
  -2.8319462e-01   1.3377138e+00   2.1331769e-01
  -1.4160177e-01   1.1965128e+00   8.0500976e-02
  -1.6934554e-02   1.0916640e+00  -5.0913244e-02
   1.2862719e-01   9.7080164e-01  -2.0372265e-01
   2.6263282e-01   8.2621083e-01  -3.6576850e-01
   4.2173491e-01   7.0417963e-01  -5.3482957e-01
   5.7581803e-01   5.4965331e-01  -7.1184071e-01
   7.1951185e-01   4.1581654e-01  -9.0194663e-01
   8.7546289e-01   2.7169324e-01  -1.0759178e+00
   1.0322306e+00   1.4522025e-01  -1.2605287e+00
   1.1668194e+00  -1.5267301e-02  -1.4410474e+00
   1.2768954e+00  -1.3741537e-01  -1.6254241e+00
   1.4334300e+00  -2.6961622e-01  -1.8092167e+00
   1.4962303e+00  -4.0555720e-01  -1.9436705e+00
   1.5838940e+00  -5.0537940e-01  -2.0987011e+00
   1.6416754e+00  -6.4716512e-01  -2.2273092e+00
   1.6422590e+00  -7.2793486e-01  -2.3256355e+00
   1.6567335e+00  -8.3722505e-01  -2.4127384e+00
   1.6101585e+00  -9.1261795e-01  -2.4678060e+00
   1.5754898e+00  -9.8473824e-01  -2.5166767e+00
   1.4908608e+00  -1.0622350e+00  -2.5322265e+00
   1.3996951e+00  -1.0946128e+00  -2.5291870e+00
   1.2715259e+00  -1.1482646e+00  -2.4869799e+00
