**************************************************************************************
  	RED ACELEROGRÁFICA DE LA UNIVERSIDAD AUTONOMA METROPOLITANA (RA-UAM)
	   UNIDAD AZCAPOTZALCO. DIVISIÓN CBI-DEPARTAMENTO DE MATERIALES
     Av. San Pablo 420, Col. Nueva el Rosario, Azcapotzalco, C.P. 02128, Ciudad de México
		Área de Estructuras. e-mail: agb@azc.uam.mx
**************************************************************************************
ARCHIVO ESTANDAR DE ACELERACION:
VERSION DEL FORMATO                    : 2.0
NOMBRE DEL ARCHIVO                     : RIDA202402.141
FECHA Y HORA DE CREACION               : 11:30 a. m. 21/02/2024
REF. CATALOGO ACELEROGRAMAS, SMIS 1999 : REGISTRO NO.      /PAG.    


================================================================================
DATOS DE LA ESTACION:
NOMBRE DE LA ESTACION                  : UAM-AZCAPOTZALCO.
CLAVE DE LA ESTACION                   : RIDA
LOCALIZACION DE LA ESTACION            : AV. SAN PABLO 420, COL. NUEVA EL ROSARIO,
                                       : AZCAPOTZALCO, C.P.02128, CIUDAD DE MEXICO. 
                                       :
                                       : 
                                       : 
COORDENADAS DE LA ESTACION             : 19.498596 LAT. N
                                       : 99.195595 LONG. W
ALTITUD (msnm)                         : 2546
TIPO DE SUELO                          : ZONA DE TRANSICION
                                       : 
                                       : 
INSTITUCION RESPONSABLE                : UNIVERSIDAD AUTONOMA METROPOLITANA
                                       : 

================================================================================
DATOS DEL ACELEROGRAFO: 
MODELO DEL ACELEROGRAFO                : ETNA2 KINEMETRICS
NUMERO DE SERIE DEL ACELEROGRAFO       : 103732
NUMERO DE CANALES                      : 3
ORIENTACION C1-C6 (rumbo;orientacion)  : /N90E/N00E/V
ORIENTACION C7-C12 (rumbo;orientacion) : 
VEL. DE MUESTREO, C1-C6 (muestras/s)   : /200/200/200
VEL. DE MUESTREO, C7-C12 (muestras/s)  : 
ESC. COMPLETA DE SENSORES, C1-C6, (g)  : /2/2/2
ESC. COMPLETA DE SENSORES, C7-C12 (g)  : 
FREC. NAT. DE SENSORES, C1-C6, (Hz)    : /198/212/200   
FREC. NAT. DE SENSORES, C7-C12 (Hz)    : 
AMORTIGUAMIENTO DE SENSORES, C1-C6     : /0.7/0.7/0.7      
AMORTIGUAMIENTO DE SENSORES, C7-C12    : 
INTERVALO DE MUESTREO, C1-C6 (s)       : /0.005/0.005/0.005
INTERVALO DE MUESTREO, C7-C12 (s)      : 
UMBRAL DE DISPARO, C1-C6 (Gal)         : /2/2/2
UMBRAL DE DISPARO, C7-C12 (Gal)        : 
MEMORIA DE PREEVENTO (s)               : 50
TIEMPO DE POSEVENTO (s)                : 60


================================================================================
DATOS DEL SISMO:
FECHA DEL SISMO [GMT]                  : 2024/02/14
HORA EPICENTRO (GMT)                   : 12:42:13
MAGNITUD(ES)                           : /M=2.8
COORDENADAS DEL EPICENTRO              : 19.3780 LAT. N
                                       : -99.2070 LONG. W
PROFUNDIDAD FOCAL (Km)                 : 1.0
FUENTE DE LOS DATOS EPICENTRALES       : SSN
                                       : INSTITUTO DE GEOFISICA, UNAM

================================================================================
DATOS DE ESTE REGISTRO:
HORA DE LA PRIMERA MUESTRA (GMT)       : 12:41:32.000
EXACTITUD DEL TIEMPO (s)               : 
DURACION DEL REGISTRO (s), C1-C6       : /173/173/173
DURACION DEL REGISTRO (s), C7-C12      : 
NUM. TOTAL DE MUESTRAS, C1-C6          : /34600/34600/34600
NUM. TOTAL DE MUESTRAS, C7-C12         : 
ACEL. MAX.(Gal), C1-C6                 : /-1.082/-1.090/0.409
ACEL. MAX., C1-C6, EN LA MUESTRA       : /12788/11751/11442
ACEL. MAX.(Gal), C7-C12                : 
ACEL. MAX., C7-C12,EN LA MUESTRA       : 
UNIDADES DE LOS DATOS                  : Gal (cm/s/s)
FACTOR DE DECIMACION                   : 1
FORMATO DATOS (FORTRAN,16 campos/dato) : 3E16.7


================================================================================
CALIDAD DEL ACELEROGRAMA:
REGISTRO DIGITAL COMPLETO CON TIEMPO ABSOLUTO CORRECTO


================================================================================
COMENTARIOS:














================================================================================
DATOS DE ACELERACION:
---------+---------+---------+---------+---------+---------+---------+---------+
   CANAL-1   	     CANAL-2          CANAL-3
     N90E             N00E              V
---------+---------+---------+---------+---------+---------+---------+---------+
[...]
   6.6906200e-02   5.7384800e-01   2.6694800e-01
   1.0459500e-01   6.2079100e-01   2.3021100e-01
   1.1161700e-01   6.5372100e-01   1.9955700e-01
   9.0315200e-02   6.5302100e-01   2.0025900e-01
   7.4163000e-02   6.7030300e-01   1.9324000e-01
   9.0081100e-02   6.8338200e-01   1.6328800e-01
   1.3432400e-01   6.8758600e-01   1.3123100e-01
   1.4087900e-01   6.8314800e-01   1.1157500e-01
   1.3268500e-01   6.8268100e-01   9.9641100e-02
   1.3947400e-01   7.0089800e-01   9.3323200e-02
   1.3034500e-01   7.0159900e-01   8.7473300e-02
   1.3315400e-01   7.1444400e-01   8.1857400e-02
   1.2917400e-01   6.8128000e-01   7.4135600e-02
   1.0740400e-01   6.5652400e-01   6.1733800e-02
   1.0529700e-01   6.7193800e-01   6.0095800e-02
   1.3104700e-01   6.5138600e-01   6.2669800e-02
   1.6147800e-01   6.7310600e-01   4.6992000e-02
   1.7809900e-01   6.4764900e-01   2.9442300e-02
   1.8535600e-01   6.3597200e-01   3.2718300e-02
   1.8956900e-01   6.1822200e-01   2.9676300e-02
   2.0104000e-01   5.8529200e-01   1.6104600e-02
   2.1204200e-01   5.8085500e-01   1.3296600e-02
   2.2468300e-01   5.4862500e-01   2.3592400e-02
   2.3381200e-01   5.5586500e-01   3.4590200e-02
   2.4411200e-01   5.1172500e-01   3.2484300e-02
   2.4598500e-01   5.0728700e-01   3.3654300e-02
   2.2678900e-01   4.7435700e-01   4.5354100e-02
   2.0712600e-01   4.2858200e-01   5.3075900e-02
   1.8044000e-01   4.2507900e-01   5.3777900e-02
   1.7037400e-01   3.6248800e-01   5.4245900e-02
   1.7786500e-01   3.2932400e-01   5.2607900e-02
   1.7248100e-01   2.5926000e-01   4.2078100e-02
   1.6896900e-01   2.0157400e-01   3.4356200e-02
   1.6335100e-01   1.6841000e-01   1.8678500e-02
   1.4204900e-01   1.4225300e-01  -2.8491100e-03
   1.1466100e-01   1.0862200e-01  -1.3612900e-02
   9.4528800e-02   3.9959500e-02  -2.6482700e-02
   8.3058400e-02  -1.2121600e-02  -3.8182500e-02
   5.8010800e-02  -6.5136800e-02  -5.1052300e-02
   2.5238300e-02  -1.0554000e-01  -4.3096400e-02
  -2.8602400e-02  -1.3473400e-01  -4.4734400e-02
  -8.7593000e-02  -1.5458500e-01  -5.7838200e-02
  -1.3300600e-01  -1.5878900e-01  -4.8244300e-02
  -1.6835400e-01  -1.9615700e-01  -5.0116300e-02
  -1.7537700e-01  -2.3959700e-01  -3.8416500e-02
  -1.7280200e-01  -2.6061600e-01  -2.9290700e-02
  -1.7748300e-01  -2.9798300e-01  -2.3674800e-02
  -2.0768100e-01  -3.0265400e-01  -1.0571000e-02
  -2.4700800e-01  -3.3184800e-01  -1.1507000e-02
  -2.7673700e-01  -3.8112600e-01  -1.5016900e-02
  -2.9874200e-01  -4.3717700e-01  -3.3268600e-02
  -2.9312400e-01  -4.8668900e-01  -4.7308300e-02
  -2.9289000e-01  -5.1635000e-01  -6.4390000e-02
  -3.0904200e-01  -5.6212500e-01  -7.7493800e-02
  -3.2870500e-01  -5.5675400e-01  -7.3515900e-02
  -3.4977300e-01  -5.8477900e-01  -8.0067800e-02
  -3.5796700e-01  -6.1070300e-01  -7.2111900e-02
  -3.6803200e-01  -6.3008700e-01  -5.7604200e-02
  -3.5960500e-01  -6.7049100e-01  -4.1692400e-02
  -3.5375300e-01  -6.8053400e-01  -3.3034600e-02
  -3.4462300e-01  -7.1743400e-01  -2.6716700e-02
  -3.1770300e-01  -7.0202000e-01  -9.4010000e-03
  -2.9897600e-01  -7.0155300e-01  -3.5511000e-03
  -2.8563300e-01  -7.2654200e-01   6.7447200e-03
  -2.7509900e-01  -7.1416400e-01   1.3296600e-02
  -2.6105300e-01  -7.2140400e-01   1.6104600e-02
  -2.5894700e-01  -6.8450400e-01   2.3592400e-02
  -2.5075300e-01  -6.5647800e-01   2.9910300e-02
  -2.3881500e-01  -6.1514000e-01   2.9442300e-02
  -2.1821500e-01  -5.6632900e-01   2.1486500e-02
  -1.8661300e-01  -5.4250700e-01   1.2828600e-02
  -1.7303600e-01  -4.9790000e-01   1.3062600e-02
  -1.4611500e-01  -4.6637100e-01   2.4294400e-02
  -1.1638600e-01  -4.1896100e-01   2.6868400e-02
  -9.7892900e-02  -3.5193300e-01   2.7102400e-02
  -5.6224900e-02  -2.5991500e-01   3.1548300e-02
  -2.3218300e-02  -2.0643300e-01   2.7804400e-02
   1.1661100e-02  -1.5645400e-01   1.6806600e-02
   5.8010800e-02  -1.0951100e-01   1.6338600e-02
   7.1822100e-02  -8.3587000e-02   2.0550500e-02
   9.3124300e-02  -4.1782100e-02   1.5168600e-02
   1.1770400e-01  -4.6480600e-03  -7.4314700e-04
   1.2332200e-01   6.1212200e-02  -1.0805000e-02
   1.6616000e-01   1.2824000e-01   3.7027800e-03
   2.2749200e-01   1.9643600e-01   1.1424600e-02
   2.7618200e-01   2.4875100e-01   9.3186800e-03
   3.3002300e-01   3.0877200e-01   1.0020700e-02
   3.6373200e-01   3.2675500e-01  -7.4314700e-04
   3.5179300e-01   3.4076800e-01  -2.2738800e-02
   3.4125900e-01   4.0359200e-01  -2.2504800e-02
   3.4008900e-01   4.6057800e-01   3.4687800e-03
   3.4360000e-01   5.4535600e-01   5.1067500e-03
   3.7169100e-01   5.9463400e-01   1.9283700e-04
   3.9931400e-01   5.7665100e-01  -4.2530900e-03
   4.2787200e-01   5.5773400e-01  -2.7886700e-02
   4.3512900e-01   5.5469700e-01  -3.2098600e-02
   4.0820900e-01   5.7198000e-01  -1.5718900e-02
   3.9065200e-01   6.3130100e-01   1.1288200e-03
   3.9650400e-01   6.2990000e-01   4.4047600e-03
   3.9322700e-01   6.0117300e-01   3.0007900e-03
   3.9135400e-01   5.8319000e-01   1.4700600e-02
   3.9369500e-01   5.3367800e-01   2.6166400e-02
   3.7894800e-01   5.5890100e-01   2.7804400e-02
   3.7356400e-01   5.5960200e-01   3.3888300e-02
   3.6654100e-01   5.4045100e-01   4.3716100e-02
   3.5132500e-01   5.5890100e-01   4.6290000e-02
   3.4640900e-01   5.2363600e-01   5.0736000e-02
   3.3915300e-01   5.1336000e-01   3.8568200e-02
   3.2276600e-01   4.9070600e-01   1.9380500e-02
   3.0169800e-01   4.4726600e-01   1.7976500e-02
   2.5441200e-01   4.4609800e-01   2.5230400e-02
   2.1906500e-01   4.1340100e-01   3.3186300e-02
   2.2281000e-01   3.7253100e-01   1.3296600e-02
   2.2281000e-01   3.3002500e-01  -1.5250900e-02
   2.0501900e-01   2.7070400e-01  -2.9290700e-02
   1.5632800e-01   2.0974800e-01  -4.6372400e-02
   9.2187900e-02   1.6303900e-01  -6.6964000e-02
   3.8815500e-02   1.3898300e-01  -9.9021500e-02
   6.9792700e-03   1.1446100e-01  -1.3435500e-01
  -1.2216100e-02   7.9896000e-02  -1.5939200e-01
  -2.6729600e-02   2.2209900e-02  -1.6571000e-01
  -4.5456800e-02  -1.5391200e-02  -1.7343200e-01
  -6.4418100e-02  -4.9722700e-02  -1.8864200e-01
  -7.1908900e-02  -8.8258000e-02  -1.8794000e-01
  -1.0093600e-01  -9.3396000e-02  -1.8911000e-01
  -1.2434500e-01  -1.2819500e-01  -1.8162200e-01
  -1.3043100e-01  -1.6019000e-01  -1.5986000e-01
  -1.4447700e-01  -1.9895900e-01  -1.5307500e-01
  -1.6062900e-01  -2.5898100e-01  -1.5635000e-01
  -1.8731500e-01  -2.7626300e-01  -1.4184300e-01
  -1.9504000e-01  -3.1223000e-01  -1.1961300e-01
  -1.9223100e-01  -3.3745300e-01  -1.1633700e-01
  -1.9152900e-01  -3.6267600e-01  -9.4575500e-02
  -1.6905600e-01  -4.1288900e-01  -6.8368000e-02
  -1.6179900e-01  -4.5656200e-01  -5.5264200e-02
  -1.6858800e-01  -5.0677500e-01  -3.2566600e-02
  -1.4869000e-01  -5.3456700e-01  -1.9462800e-02
  -1.3558100e-01  -5.6165800e-01  -9.6349900e-03
  -1.4564700e-01  -6.0019300e-01  -2.3811200e-03
  -1.3160200e-01  -6.2868600e-01  -8.4650100e-03
  -1.2692000e-01  -6.4386700e-01  -2.3674800e-02
  -1.3066500e-01  -6.4620200e-01  -2.9758600e-02
  -1.1404500e-01  -6.4433400e-01  -3.4906600e-02
  -1.2177000e-01  -6.3289000e-01  -4.4032400e-02
  -1.2949500e-01  -6.4643600e-01  -5.2690300e-02
  -1.2902700e-01  -6.5204100e-01  -6.3220100e-02
  -1.4237000e-01  -6.3592600e-01  -6.1114100e-02
  -1.5290400e-01  -6.3966300e-01  -6.6028000e-02
  -1.4915900e-01  -5.9972600e-01  -7.2813900e-02
  -1.5313800e-01  -5.7730600e-01  -8.2875700e-02
  -1.5922400e-01  -5.6773000e-01  -1.0112700e-01
  -1.7490800e-01  -5.0957700e-01  -9.9957400e-02
  -2.1868300e-01  -4.6660400e-01  -1.0346700e-01
  -2.4583800e-01  -4.2690100e-01  -1.0674300e-01
  -2.8118500e-01  -3.6758000e-01  -1.0650900e-01
  -3.0436000e-01  -3.0662500e-01  -1.1165700e-01
  -3.1231900e-01  -2.5641200e-01  -1.0884900e-01
  -3.4579400e-01  -2.0549900e-01  -1.0276500e-01
  -3.5913700e-01  -1.3730300e-01  -8.7087700e-02
  -3.8722800e-01  -6.5837400e-02  -7.6791800e-02
  -4.1812800e-01  -2.0295700e-02  -6.0880100e-02
  -4.2702300e-01   3.2719500e-02  -3.2098600e-02
  -4.4481400e-01   8.0596700e-02  -1.9228800e-02
  -4.6049800e-01   1.2917400e-01  -9.7714300e-04
  -4.6986100e-01   1.9526800e-01   3.5526200e-02
  -4.8390700e-01   2.3240200e-01   6.0329800e-02
  -4.8929100e-01   3.1110800e-01   7.1795600e-02
  -4.7407500e-01   3.6178700e-01   7.6709500e-02
  -4.5722100e-01   3.8093800e-01   8.3729400e-02
  -4.3217300e-01   4.2367700e-01   1.0291700e-01
  -4.2842800e-01   4.4282800e-01   1.2070100e-01
  -4.2678900e-01   4.8580100e-01   1.3684600e-01
  -4.1508400e-01   5.3204300e-01   1.3848400e-01
  -4.2023400e-01   5.7384800e-01   1.4012200e-01
  -4.2023400e-01   5.8155500e-01   1.5439600e-01
  -4.1110500e-01   5.8435800e-01   1.6094800e-01
  -3.9916600e-01   6.1401800e-01   1.6282000e-01
  -3.8629100e-01   6.3597200e-01   1.6235200e-01
  -3.6850100e-01   6.6212900e-01   1.6141600e-01
  -3.6264800e-01   6.9225700e-01   1.5486400e-01
  -3.5258200e-01   7.0276600e-01   1.4363200e-01
  -3.3011000e-01   7.0136500e-01   1.3497500e-01
  -3.0927600e-01   6.9669400e-01   1.3310300e-01
  -2.7603500e-01   6.6843500e-01   1.3520900e-01
  -2.6433100e-01   6.8781900e-01   1.3497500e-01
  -2.6362800e-01   6.6796800e-01   1.3544300e-01
  -2.4396500e-01   6.5722500e-01   1.3497500e-01
  -2.3858100e-01   6.3924200e-01   1.4363200e-01
  -2.3202600e-01   5.9019700e-01   1.5018400e-01
  -2.1353300e-01   5.8038800e-01   1.4690800e-01
  -2.1634200e-01   5.0355100e-01   1.4831200e-01
  -2.1564000e-01   4.8533400e-01   1.4784400e-01
  -1.8567700e-01   4.3862400e-01   1.4433400e-01
  -1.5360600e-01   3.7229700e-01   1.2889100e-01
  -9.2274700e-02   3.2021600e-01   1.1180900e-01
  -2.1813800e-02   1.9503500e-01   1.0315100e-01
   1.1427000e-02   1.4108500e-01   9.6365200e-02
   5.5669900e-02   1.0371800e-01   8.0921400e-02
   8.9847000e-02   3.9725900e-02   7.2965600e-02
   1.1138300e-01   1.9874400e-02   7.4837500e-02
   1.7318300e-01  -4.8554900e-02   5.8691800e-02
   2.2398000e-01  -1.2679300e-01   4.9566000e-02
   2.8788700e-01  -2.0596600e-01   3.0846300e-02
   3.8714100e-01  -3.0358800e-01   4.8727600e-03
   4.2085000e-01  -3.7365300e-01  -1.5718900e-02
   4.4285400e-01  -4.6380200e-01  -2.6482700e-02
   4.7492500e-01  -5.1728400e-01  -2.9290700e-02
   4.9739700e-01  -5.7613800e-01  -5.1754300e-02
   5.6739000e-01  -6.4059700e-01  -5.3626200e-02
   6.2848700e-01  -7.1463200e-01  -4.6606400e-02
   6.5915300e-01  -7.9146900e-01  -4.4266400e-02
   6.8326400e-01  -8.4378300e-01  -3.7714500e-02
   7.0222600e-01  -8.9726500e-01  -4.0054500e-02
   7.1533500e-01  -9.2412300e-01  -3.1396600e-02
   7.5138400e-01  -9.7293500e-01  -2.8120700e-02
   7.8813600e-01  -1.0236100e+00  -3.3502600e-02
   8.1669500e-01  -1.0371600e+00  -3.6076500e-02
   8.5789500e-01  -1.0663500e+00  -2.7886700e-02
   8.5836300e-01  -1.0878400e+00  -1.6420900e-02
   8.6562000e-01  -1.0901800e+00  -1.4782900e-02
   8.8715600e-01  -1.0796700e+00  -1.6186900e-02
   8.9113600e-01  -1.0509400e+00  -2.2738800e-02
   8.9605200e-01  -1.0455700e+00  -1.7590900e-02
   8.8668800e-01  -1.0348200e+00  -1.5016900e-02
   8.5180900e-01  -1.0100700e+00  -1.7824900e-02
   8.2325000e-01  -9.8578000e-01  -2.2036800e-02
   8.0733200e-01  -9.2295600e-01  -3.3502600e-02
   7.8954100e-01  -8.7811500e-01  -4.8478300e-02
   7.9164800e-01  -8.4238200e-01  -7.1409900e-02
   7.9211600e-01  -7.8749800e-01  -9.6681500e-02
   7.8064600e-01  -7.3565100e-01  -1.0487100e-01
   7.6940900e-01  -6.5087300e-01  -9.7383500e-02
   7.6004600e-01  -5.8688100e-01  -1.0487100e-01
   7.3874400e-01  -5.1751800e-01  -1.1774100e-01
   7.3710500e-01  -4.6660400e-01  -1.2382500e-01
   7.3874400e-01  -3.9257000e-01  -1.1891100e-01
   7.1088700e-01  -3.0872600e-01  -1.1001900e-01
   6.9543700e-01  -2.7649700e-01  -1.0253100e-01
   6.5259900e-01  -1.8121000e-01  -1.0299900e-01
   6.1350600e-01  -1.0810900e-01  -1.1540100e-01
   5.7886000e-01  -4.6219500e-02  -1.0978500e-01
   5.4398100e-01   3.8558200e-02  -9.5745500e-02
   5.2923300e-01   7.9428900e-02  -8.4981700e-02
   5.0301500e-01   1.6841000e-01  -8.2641700e-02
   4.7820200e-01   2.4921800e-01  -8.2875700e-02
   4.5292000e-01   3.1017400e-01  -8.4513700e-02
   4.1546600e-01   3.9962200e-01  -8.5215700e-02
   3.8128900e-01   4.3699000e-01  -7.6557800e-02
   3.6654100e-01   5.0401800e-01  -7.5387900e-02
   3.2744800e-01   5.6030300e-01  -7.0941900e-02
   2.7360700e-01   5.8435800e-01  -6.9538000e-02
   2.2889600e-01   6.4297800e-01  -7.3749900e-02
   1.8044000e-01   6.8945400e-01  -7.9599800e-02
   1.4134700e-01   7.4457100e-01  -7.9833800e-02
   1.0857400e-01   7.8917900e-01  -7.1409900e-02
   6.4097100e-02   8.1276700e-01  -6.5092000e-02
   3.5772300e-02   8.7325600e-01  -6.3220100e-02
   1.0958800e-02   9.0688700e-01  -6.0880100e-02
  -4.7797700e-02   9.2487000e-01  -4.0522500e-02
  -1.0187200e-01   9.6807600e-01  -2.6950700e-02
  -1.4002900e-01   9.9586800e-01  -2.1802800e-02
  -1.7397200e-01   1.0325300e+00  -1.2910900e-02
  -2.0159500e-01   1.0535500e+00   6.6082900e-04
  -2.4209200e-01   1.0584600e+00   2.5698400e-02
  -2.9171900e-01   1.0507500e+00   3.5058200e-02
  -3.3198300e-01   1.0554200e+00   2.8974300e-02
  -3.7575700e-01   1.0416400e+00   3.7866200e-02
  -3.9776200e-01   1.0014700e+00   5.4479900e-02
  -4.1485000e-01   9.8232200e-01   5.5649900e-02
  -4.5441100e-01   9.5896800e-01   5.3777900e-02
  -4.6798900e-01   9.2393600e-01   5.7521800e-02
  -4.7899100e-01   8.8890300e-01   5.1438000e-02
  -4.9537700e-01   8.1977300e-01   5.2373900e-02
  -4.9725000e-01   7.4760700e-01   5.0268000e-02
  -5.2510700e-01   7.0416800e-01   3.7398200e-02
  -5.7145600e-01   6.4601400e-01   3.8802200e-02
  -5.9065200e-01   6.2009100e-01   2.8506300e-02
  -6.0539900e-01   5.6357200e-01   8.1487000e-03
  -6.1757200e-01   4.9958000e-01   6.5107300e-03
  -5.9978100e-01   4.4796600e-01  -3.5511000e-03
  -6.2529700e-01   3.8047100e-01  -2.2036800e-02
  -6.6134700e-01   3.2792300e-01  -2.9056700e-02
  -6.6954000e-01   2.7023700e-01  -4.0756500e-02
  -6.9482200e-01   2.3006700e-01  -5.7136200e-02
  -7.0090800e-01   1.9923900e-01  -6.9772000e-02
  -6.7820100e-01   1.6911100e-01  -6.5794000e-02
  -6.7843500e-01   1.1679600e-01  -6.0646100e-02
  -6.8218100e-01   6.5883200e-02  -6.5560000e-02
  -6.7679700e-01   2.7114400e-02  -6.2518100e-02
  -6.9786500e-01  -2.7535700e-02  -5.0818300e-02
  -6.9458700e-01  -7.6113500e-02  -3.9352500e-02
  -6.7866900e-01  -1.1137900e-01  -3.9118500e-02
  -6.6251700e-01  -1.8261100e-01  -2.2036800e-02
  -6.2272200e-01  -2.4683600e-01   1.9283700e-04
  -6.1242200e-01  -2.9728300e-01   1.7508500e-02
  -6.2202000e-01  -3.6758000e-01   4.2312100e-02
  -6.1452900e-01  -4.0751700e-01   4.9332000e-02
  -6.0235600e-01  -4.4114800e-01   5.9159800e-02
  -5.7894700e-01  -4.8598900e-01   6.2201800e-02
  -5.6068800e-01  -5.2125400e-01   5.9861800e-02
  -5.7286100e-01  -5.5675400e-01   5.9627800e-02
  -5.6537000e-01  -5.8314400e-01   4.6056000e-02
  -5.4500400e-01  -5.7707200e-01   3.0378300e-02
  -5.3657700e-01  -5.8244400e-01   1.4466600e-02
  -4.9467500e-01  -5.8361200e-01   5.5747400e-03
  -4.7196800e-01  -6.0393000e-01  -1.2676900e-02
  -4.8788600e-01  -6.2658400e-01  -2.6014700e-02
  -4.9420700e-01  -6.0509800e-01  -3.3268600e-02
  -5.2440400e-01  -6.1700900e-01  -4.6606400e-02
  -5.5132500e-01  -5.9155200e-01  -4.4734400e-02
  -5.3142700e-01  -5.3526700e-01  -5.1520300e-02
  -5.3259700e-01  -5.2849400e-01  -6.7198000e-02
  -5.2978800e-01  -5.3807000e-01  -7.0941900e-02
  -4.9888800e-01  -5.5068100e-01  -8.6385700e-02
