**************************************************************************************
  	RED ACELEROGRÁFICA DE LA UNIVERSIDAD AUTONOMA METROPOLITANA (RA-UAM)
	   UNIDAD AZCAPOTZALCO. DIVISIÓN CBI-DEPARTAMENTO DE MATERIALES
     Av. San Pablo 420, Col. Nueva el Rosario, Azcapotzalco, C.P. 02128, Ciudad de México
		Área de Estructuras. e-mail: agb@azc.uam.mx
**************************************************************************************
ARCHIVO ESTANDAR DE ACELERACION:
VERSION DEL FORMATO                    : 2.0
NOMBRE DEL ARCHIVO                     : RIDA202406.231
FECHA Y HORA DE CREACION               : 11:30 a. m. 28/06/2024
REF. CATALOGO ACELEROGRAMAS, SMIS 1999 : REGISTRO NO.      /PAG.    


================================================================================
DATOS DE LA ESTACION:
NOMBRE DE LA ESTACION                  : UAM-AZCAPOTZALCO.
CLAVE DE LA ESTACION                   : RIDA
LOCALIZACION DE LA ESTACION            : AV. SAN PABLO 420, COL. NUEVA EL ROSARIO,
                                       : AZCAPOTZALCO, C.P.02128, CIUDAD DE MEXICO. 
                                       :
                                       : 
                                       : 
COORDENADAS DE LA ESTACION             : 19.498596 LAT. N
                                       : 99.195595 LONG. W
ALTITUD (msnm)                         : 2546
TIPO DE SUELO                          : ZONA DE TRANSICION
                                       : 
                                       : 
INSTITUCION RESPONSABLE                : UNIVERSIDAD AUTONOMA METROPOLITANA
                                       : 

================================================================================
DATOS DEL ACELEROGRAFO: 
MODELO DEL ACELEROGRAFO                : ETNA2 KINEMETRICS
NUMERO DE SERIE DEL ACELEROGRAFO       : 103732
NUMERO DE CANALES                      : 3
ORIENTACION C1-C6 (rumbo;orientacion)  : /N90E/N00E/V
ORIENTACION C7-C12 (rumbo;orientacion) : 
VEL. DE MUESTREO, C1-C6 (muestras/s)   : /200/200/200
VEL. DE MUESTREO, C7-C12 (muestras/s)  : 
ESC. COMPLETA DE SENSORES, C1-C6, (g)  : /2/2/2
ESC. COMPLETA DE SENSORES, C7-C12 (g)  : 
FREC. NAT. DE SENSORES, C1-C6, (Hz)    : /198/212/200   
FREC. NAT. DE SENSORES, C7-C12 (Hz)    : 
AMORTIGUAMIENTO DE SENSORES, C1-C6     : /0.7/0.7/0.7      
AMORTIGUAMIENTO DE SENSORES, C7-C12    : 
INTERVALO DE MUESTREO, C1-C6 (s)       : /0.005/0.005/0.005
INTERVALO DE MUESTREO, C7-C12 (s)      : 
UMBRAL DE DISPARO, C1-C6 (Gal)         : /2/2/2
UMBRAL DE DISPARO, C7-C12 (Gal)        : 
MEMORIA DE PREEVENTO (s)               : 50
TIEMPO DE POSEVENTO (s)                : 60


================================================================================
DATOS DEL SISMO:
FECHA DEL SISMO [GMT]                  : 2024/06/28
HORA EPICENTRO (GMT)                   : 17:16:18
MAGNITUD(ES)                           : /M=5.2
COORDENADAS DEL EPICENTRO              : 16.6200 LAT. N
                                       : -99.4700 LONG. W
PROFUNDIDAD FOCAL (Km)                 : 11.0
FUENTE DE LOS DATOS EPICENTRALES       : SSN
                                       : INSTITUTO DE GEOFISICA, UNAM

================================================================================
DATOS DE ESTE REGISTRO:
HORA DE LA PRIMERA MUESTRA (GMT)       : 17:16:40.000
EXACTITUD DEL TIEMPO (s)               : 
DURACION DEL REGISTRO (s), C1-C6       : /184/184/184
DURACION DEL REGISTRO (s), C7-C12      : 
NUM. TOTAL DE MUESTRAS, C1-C6          : /36800/36800/36800
NUM. TOTAL DE MUESTRAS, C7-C12         : 
ACEL. MAX.(Gal), C1-C6                 : /-2.879/-2.523/-0.742
ACEL. MAX., C1-C6, EN LA MUESTRA       : /14791/14572/14736
ACEL. MAX.(Gal), C7-C12                : 
ACEL. MAX., C7-C12,EN LA MUESTRA       : 
UNIDADES DE LOS DATOS                  : Gal (cm/s/s)
FACTOR DE DECIMACION                   : 1
FORMATO DATOS (FORTRAN,16 campos/dato) : 3E16.7


================================================================================
CALIDAD DEL ACELEROGRAMA:
REGISTRO DIGITAL COMPLETO CON TIEMPO ABSOLUTO CORRECTO


================================================================================
COMENTARIOS:














================================================================================
DATOS DE ACELERACION:
---------+---------+---------+---------+---------+---------+---------+---------+
   CANAL-1   	     CANAL-2          CANAL-3
     N90E             N00E              V
---------+---------+---------+---------+---------+---------+---------+---------+
[...]
   8.4164900e-01  -2.5230000e+00  -4.2496200e-02
   9.2241000e-01  -2.5136600e+00  -8.9061400e-02
   9.9497800e-01  -2.5061900e+00  -1.3656300e-01
   1.0682500e+00  -2.4681200e+00  -1.8546800e-01
   1.1284100e+00  -2.4295800e+00  -2.2009900e-01
   1.1995700e+00  -2.4020300e+00  -2.3226700e-01
   1.2728400e+00  -2.3515800e+00  -2.5449700e-01
   1.3409600e+00  -2.3128100e+00  -2.7625800e-01
   1.4116600e+00  -2.2532600e+00  -2.8912800e-01
   1.4725200e+00  -2.1934700e+00  -2.8444800e-01
   1.5331500e+00  -2.1355500e+00  -2.7766200e-01
   1.6040800e+00  -2.0673500e+00  -2.7555600e-01
   1.6494900e+00  -1.9755700e+00  -2.6736600e-01
   1.7024000e+00  -1.9111100e+00  -2.6362200e-01
   1.7466400e+00  -1.8113900e+00  -2.5285900e-01
   1.7691100e+00  -1.6894700e+00  -2.3952100e-01
   1.8124200e+00  -1.6187100e+00  -2.2314100e-01
   1.8437900e+00  -1.5063700e+00  -2.0886700e-01
   1.8676600e+00  -1.4038500e+00  -1.9997600e-01
   1.8934100e+00  -1.3326100e+00  -1.8897800e-01
   1.9032500e+00  -1.2441000e+00  -1.7587400e-01
   1.9067600e+00  -1.1581500e+00  -1.6370600e-01
   1.9086300e+00  -1.0701100e+00  -1.5598400e-01
   1.9051200e+00  -9.6781300e-01  -1.5528200e-01
   1.9205700e+00  -8.8490300e-01  -1.5926000e-01
   1.9140100e+00  -7.7980700e-01  -1.5926000e-01
   1.9034800e+00  -6.7331000e-01  -1.7493800e-01
   1.9004400e+00  -5.5396700e-01  -2.0512300e-01
   1.8870900e+00  -4.3112100e-01  -2.1775900e-01
   1.8793700e+00  -3.1434800e-01  -2.3156500e-01
   1.8498700e+00  -1.6908100e-01  -2.5379500e-01
   1.8297400e+00  -7.0290800e-02  -2.7181200e-01
   1.8054000e+00   8.6652900e-02  -2.8398000e-01
   1.7508500e+00   2.2327800e-01  -2.8304400e-01
   1.7115300e+00   3.2160100e-01  -2.8632000e-01
   1.6822700e+00   4.6009500e-01  -2.8585200e-01
   1.6288900e+00   5.6285600e-01  -2.6666400e-01
   1.5806700e+00   6.7916200e-01  -2.5239100e-01
   1.5195700e+00   7.9149800e-01  -2.5122100e-01
   1.4465400e+00   8.9729500e-01  -2.4022300e-01
   1.3840300e+00   1.0094000e+00  -2.2571500e-01
   1.3060800e+00   1.1135600e+00  -2.0863300e-01
   1.2239200e+00   1.2081500e+00  -1.9014800e-01
   1.1443300e+00   1.2856800e+00  -1.8383000e-01
   1.0560800e+00   1.3763000e+00  -1.7751200e-01
   9.6290800e-01   1.4615500e+00  -1.6183400e-01
   8.6084500e-01   1.5257700e+00  -1.4732600e-01
   7.6603800e-01   1.5925700e+00  -1.4030700e-01
   6.9136400e-01   1.6462800e+00  -1.2345900e-01
   6.0404800e-01   1.6864500e+00  -1.0520700e-01
   5.0854000e-01   1.7390000e+00  -1.0169700e-01
   4.3644000e-01   1.7733300e+00  -8.9763400e-02
   3.6246800e-01   1.8156000e+00  -6.2385900e-02
   2.9505000e-01   1.8342900e+00  -3.1732400e-02
   2.2435500e-01   1.8497000e+00  -1.3714700e-02
   1.3493200e-01   1.8975800e+00   1.1790800e-02
   8.1325900e-02   1.9183600e+00   4.8060200e-02
   9.6822800e-05   1.9611000e+00   8.6903500e-02
  -7.7855000e-02   1.9954300e+00   1.2317300e-01
  -1.2958900e-01   2.0307000e+00   1.4212700e-01
  -2.0871100e-01   2.0596600e+00   1.7652400e-01
  -2.7519300e-01   2.0890900e+00   2.0039200e-01
  -3.4986700e-01   2.1278600e+00   2.1466500e-01
  -4.3203300e-01   2.1453700e+00   2.3221500e-01
  -5.0366400e-01   2.1621900e+00   2.4836100e-01
  -5.7272100e-01   2.1610200e+00   2.5748700e-01
  -6.4294700e-01   2.1540100e+00   2.4953100e-01
  -6.8836100e-01   2.1390700e+00   2.4040500e-01
  -7.2511300e-01   2.1075400e+00   2.3432100e-01
  -7.8012400e-01   2.0648000e+00   2.4391500e-01
  -8.3279400e-01   2.0250900e+00   2.3361900e-01
  -8.9038000e-01   1.9737100e+00   2.1419700e-01
  -9.3438900e-01   1.9162600e+00   2.0928300e-01
  -9.7863200e-01   1.8377900e+00   2.0670900e-01
  -1.0462800e+00   1.7609500e+00   1.9267000e-01
  -1.0891200e+00   1.6850500e+00   1.6646200e-01
  -1.1352400e+00   1.6084500e+00   1.4984800e-01
  -1.1818200e+00   1.5218000e+00   1.2317300e-01
  -1.2190400e+00   1.4344500e+00   8.6201600e-02
  -1.2520500e+00   1.3482700e+00   5.2740100e-02
  -1.2632900e+00   1.2256600e+00   2.6766600e-02
  -1.2852900e+00   1.1525600e+00   1.4598800e-02
  -1.2937200e+00   1.0325200e+00  -1.1140800e-02
  -1.2810800e+00   9.1084100e-01  -3.8986300e-02
  -1.2520500e+00   8.1508700e-01  -4.6006200e-02
  -1.2260600e+00   6.9037200e-01  -4.3432200e-02
  -1.2115500e+00   5.9858800e-01  -4.6942100e-02
  -1.1860400e+00   5.0213300e-01  -6.3321900e-02
  -1.1511600e+00   4.1829000e-01  -6.0279900e-02
  -1.1141700e+00   3.2206800e-01  -3.9688300e-02
  -1.0769500e+00   2.2561300e-01  -1.6756700e-02
  -1.0446500e+00   1.3803300e-01  -4.3548800e-03
  -9.9455000e-01   4.9285300e-02   1.9512700e-02
  -9.4422100e-01  -2.2413700e-02   6.8885900e-02
  -9.2011000e-01  -1.1046100e-01   9.5093400e-02
  -8.7891000e-01  -2.1695800e-01   1.1357900e-01
  -8.3466700e-01  -3.0056800e-01   1.5148600e-01
  -8.0283100e-01  -3.9328700e-01   1.8892600e-01
  -7.6139700e-01  -4.9698200e-01   2.0460400e-01
  -7.1645200e-01  -5.8059100e-01   2.0811300e-01
  -6.7010200e-01  -6.7634600e-01   2.3198100e-01
  -6.2679500e-01  -7.4687700e-01   2.5818900e-01
  -5.8863900e-01  -8.1974400e-01   2.6708000e-01
  -5.3081900e-01  -8.9868300e-01   2.5912500e-01
  -4.6574200e-01  -9.4889500e-01   2.6076300e-01
  -4.1354000e-01  -1.0168600e+00   2.7878000e-01
  -3.7702200e-01  -1.0808500e+00   2.8463000e-01
  -3.4097200e-01  -1.1376000e+00   2.8509800e-01
  -2.9251500e-01  -1.1831400e+00   2.8346000e-01
  -2.3375900e-01  -1.2415300e+00   2.9703200e-01
  -1.8506800e-01  -1.2805300e+00   3.0054200e-01
  -1.2537500e-01  -1.3041200e+00   2.7573800e-01
  -4.8359700e-02  -1.3447600e+00   2.6544200e-01
   2.0696700e-02  -1.3281800e+00   2.6099700e-01
   1.0216000e-01  -1.3461600e+00   2.3455500e-01
   1.8573000e-01  -1.3615700e+00   1.9454200e-01
   2.7398200e-01  -1.3237400e+00   1.7652400e-01
   3.4444300e-01  -1.3207000e+00   1.7441800e-01
   3.9851700e-01  -1.3034200e+00   1.4212700e-01
   4.4720800e-01  -1.2571800e+00   9.5795400e-02
   4.9730300e-01  -1.2165400e+00   7.3799800e-02
   5.4950500e-01  -1.1927200e+00   6.5843900e-02
   5.7900100e-01  -1.1537200e+00   4.7826200e-02
   6.0732500e-01  -1.1056100e+00   2.0448700e-02
   6.3026600e-01  -1.0864500e+00   7.3449200e-03
   6.5976100e-01  -1.0451200e+00   7.9303000e-04
   6.9253400e-01  -1.0166200e+00  -8.4494200e-04
   7.3279700e-01  -1.0063500e+00  -8.3328100e-03
   7.8031800e-01  -9.5356600e-01  -1.3480700e-02
   8.3298800e-01  -9.2320500e-01   5.7069500e-03
   8.9619200e-01  -9.1503100e-01   6.4089300e-03
   9.4862800e-01  -8.7416000e-01  -9.0348000e-03
   1.0101900e+00  -8.3679300e-01  -1.0438800e-02
   1.0619300e+00  -7.9008300e-01   7.8129100e-03
   1.1204500e+00  -7.3776900e-01   1.3428800e-02
   1.1820200e+00  -6.8802300e-01  -1.0789400e-03
   1.2513100e+00  -6.1398900e-01  -3.6528900e-03
   1.3145100e+00  -5.6774600e-01   5.7069500e-03
   1.3526700e+00  -4.9674800e-01   2.2788700e-02
   1.4079100e+00  -4.0800000e-01   1.7172700e-02
   1.4563700e+00  -3.3303100e-01   1.2492800e-02
   1.5081000e+00  -2.5526000e-01   2.9574500e-02
   1.5572600e+00  -1.9243600e-01   3.0510500e-02
   1.5865200e+00  -1.1209600e-01   1.8576700e-02
   1.6068900e+00  -5.1140000e-02   2.5128600e-02
   1.6319400e+00   1.6417000e-03   3.1680500e-02
   1.6441100e+00   4.2512500e-02   1.1556800e-02
   1.6560500e+00   5.7693000e-02  -1.5118700e-02
   1.6677500e+00   9.6461900e-02  -4.7176100e-02
   1.6544100e+00   1.1748100e-01  -6.9405800e-02
   1.6492600e+00   1.3102700e-01  -1.0333500e-01
   1.6363800e+00   1.5718400e-01  -1.6019600e-01
   1.6150800e+00   1.4760900e-01  -2.1214300e-01
   1.5958900e+00   1.4480600e-01  -2.5964400e-01
   1.5621800e+00   1.4760900e-01  -3.1135800e-01
   1.5343200e+00   1.2051700e-01  -3.7664200e-01
   1.5186400e+00   1.2565500e-01  -4.4028900e-01
   1.5048300e+00   1.2215200e-01  -4.8451500e-01
   1.4872700e+00   1.0977400e-01  -5.3295200e-01
   1.4664300e+00   1.0183300e-01  -5.9987500e-01
   1.4430300e+00   9.5294100e-02  -6.4995000e-01
   1.4247700e+00   9.8330200e-02  -6.7311500e-01
   1.4102500e+00   1.0230100e-01  -6.9136700e-01
   1.3718600e+00   1.5368100e-01  -7.2623200e-01
   1.3419000e+00   1.8147300e-01  -7.4237800e-01
   1.2962500e+00   2.4219500e-01  -7.3301800e-01
   1.2513100e+00   3.0245000e-01  -7.2904000e-01
   1.2152600e+00   3.5453100e-01  -7.2131900e-01
   1.1618800e+00   4.4584800e-01  -6.9534500e-01
   1.1131900e+00   5.0820600e-01  -6.6024600e-01
   1.0434300e+00   5.9275000e-01  -6.3193200e-01
   9.9638200e-01   6.5627400e-01  -6.0759600e-01
   9.4207400e-01   7.1653000e-01  -5.7319900e-01
   8.7161300e-01   7.7515000e-01  -5.2874000e-01
   8.1496300e-01   8.2162600e-01  -4.9434200e-01
   7.4192700e-01   8.4941800e-01  -4.6368900e-01
   6.5156800e-01   8.7464100e-01  -4.3373700e-01
   5.6003900e-01   8.8491700e-01  -3.9208600e-01
   4.6570100e-01   8.4871700e-01  -3.5488100e-01
   3.7370400e-01   8.4428000e-01  -3.3709700e-01
   2.8545200e-01   8.0154100e-01  -2.9848800e-01
   1.7004600e-01   7.4922600e-01  -2.5753900e-01
   6.1194200e-02   6.9878000e-01  -2.3296900e-01
  -6.6150600e-02   6.2638000e-01  -2.1027100e-01
  -2.0520000e-01   5.6215500e-01  -1.8429800e-01
  -3.2833100e-01   4.7691000e-01  -1.4873000e-01
  -4.6667800e-01   4.0427700e-01  -1.0895100e-01
  -5.8653200e-01   3.2790700e-01  -8.7189500e-02
  -6.9936300e-01   2.6017800e-01  -5.7940000e-02
  -8.3630600e-01   1.9385100e-01  -1.3948700e-02
  -9.6622500e-01   1.2565500e-01   3.3669900e-03
  -1.0788200e+00   7.5442600e-02   2.1618700e-02
  -1.1937600e+00   1.7756500e-02   5.2038100e-02
  -1.3026100e+00  -4.4367100e-02   7.3799800e-02
  -1.4189500e+00  -7.9866300e-02   6.9353800e-02
  -1.5065000e+00  -1.3171400e-01   6.5609900e-02
  -1.5968600e+00  -1.6674600e-01   7.2395800e-02
  -1.6916700e+00  -1.9827500e-01   7.9181700e-02
  -1.7525300e+00  -2.6203300e-01   8.1053600e-02
  -1.8220600e+00  -2.8095000e-01   6.4673900e-02
  -1.8829200e+00  -3.2509100e-01   6.5843900e-02
  -1.9473000e+00  -3.3770200e-01   6.6311900e-02
  -2.0046500e+00  -3.5685300e-01   5.8122000e-02
  -2.0521700e+00  -4.0519700e-01   6.3971900e-02
  -2.1027300e+00  -4.3509200e-01   7.8479700e-02
  -2.1736600e+00  -4.7642900e-01   8.2457600e-02
  -2.2305400e+00  -4.9931700e-01   7.2629800e-02
  -2.2806400e+00  -5.2781000e-01   7.6841700e-02
  -2.3562500e+00  -5.5163200e-01   8.7605500e-02
  -2.4051700e+00  -6.1071900e-01   9.1115500e-02
  -2.4740000e+00  -6.4201400e-01   8.4095600e-02
  -2.5498400e+00  -6.6607000e-01   8.5265600e-02
  -2.6149200e+00  -7.0950900e-01   9.1115500e-02
  -2.6989600e+00  -7.2585800e-01   8.7137500e-02
  -2.7513900e+00  -7.6766300e-01   8.5031600e-02
  -2.7893200e+00  -7.9545500e-01   8.3861600e-02
  -2.8267700e+00  -8.2184600e-01   9.4391400e-02
  -2.8490100e+00  -8.5314100e-01   9.9305300e-02
  -2.8768700e+00  -8.7532800e-01   9.9071300e-02
  -2.8792100e+00  -8.8887400e-01   9.9071300e-02
  -2.8651600e+00  -9.0405400e-01   1.1006900e-01
  -2.8581400e+00  -9.1479700e-01   1.3510700e-01
  -2.8237300e+00  -9.0895900e-01   1.4119100e-01
  -2.7682500e+00  -9.0849200e-01   1.6084600e-01
  -2.7092600e+00  -8.9401200e-01   1.7418400e-01
  -2.6273300e+00  -8.9284400e-01   1.7956600e-01
  -2.5468000e+00  -8.9868300e-01   1.9384000e-01
  -2.4749300e+00  -8.7486100e-01   2.0226400e-01
  -2.3955800e+00  -8.5571000e-01   2.4110700e-01
  -2.3291000e+00  -8.5174000e-01   2.6567600e-01
  -2.2246900e+00  -8.2861900e-01   2.6754800e-01
  -2.1149000e+00  -8.2301300e-01   2.7971600e-01
  -2.0341400e+00  -8.0923400e-01   3.1411400e-01
  -1.9447200e+00  -7.8564600e-01   3.4570300e-01
  -1.8876000e+00  -7.5785400e-01   3.4663900e-01
  -1.8143300e+00  -7.2469000e-01   3.4617100e-01
  -1.7202300e+00  -7.1371300e-01   3.4242700e-01
  -1.6579600e+00  -6.7938200e-01   3.4780900e-01
  -1.5779000e+00  -6.4505000e-01   3.4687300e-01
  -1.5238300e+00  -5.8246000e-01   3.3587500e-01
  -1.4552400e+00  -5.3084600e-01   3.1107200e-01
  -1.3473200e+00  -4.9207700e-01   2.7339800e-01
  -1.2565000e+00  -4.3906200e-01   2.3853300e-01
  -1.1417900e+00  -3.9772400e-01   2.0179600e-01
  -1.0437100e+00  -3.1621600e-01   1.8892600e-01
  -9.4422100e-01  -2.4755300e-01   1.5686800e-01
  -8.0774700e-01  -1.8239300e-01   9.5327400e-02
  -6.7103800e-01  -1.0625700e-01   4.3146300e-02
  -5.1162300e-01  -5.7212200e-02   1.8576700e-02
  -3.3863100e-01   3.7841500e-02   1.1556800e-02
  -1.9349500e-01   1.4784200e-01  -1.1842800e-02
  -1.0437200e-02   2.3238600e-01  -4.4836200e-02
   1.6817300e-01   3.4005200e-01  -6.5895800e-02
   3.0769100e-01   4.5005200e-01  -7.5723600e-02
   4.5727400e-01   5.3459600e-01  -8.4147500e-02
   5.7923500e-01   6.5884300e-01  -7.0809700e-02
   7.0189800e-01   7.9990600e-01  -5.0218100e-02
   8.2268800e-01   8.8071300e-01  -5.1388100e-02
   9.1749400e-01   9.9398400e-01  -7.2681700e-02
   1.0160500e+00   1.0874000e+00  -7.4553700e-02
   1.0872100e+00   1.1941300e+00  -5.2090100e-02
   1.1431600e+00   1.2954900e+00  -3.9922300e-02
   1.2290700e+00   1.3464100e+00  -5.8875900e-02
   1.2934400e+00   1.4337500e+00  -1.1480100e-01
   1.3819300e+00   1.4617800e+00  -1.4896400e-01
   1.4537900e+00   1.5264700e+00  -1.6955600e-01
   1.4849300e+00   1.5813500e+00  -2.0161300e-01
   1.5352600e+00   1.6320300e+00  -2.3928700e-01
   1.5841800e+00   1.6761800e+00  -2.8866000e-01
   1.6375500e+00   1.7028000e+00  -3.4224500e-01
   1.6836700e+00   1.7534800e+00  -3.8249200e-01
   1.6967800e+00   1.7910800e+00  -4.0495600e-01
   1.6960800e+00   1.8800600e+00  -4.2461200e-01
   1.7166800e+00   1.9146300e+00  -4.5128700e-01
   1.7288500e+00   1.9793200e+00  -4.8615300e-01
   1.7522600e+00   2.0402800e+00  -4.9949000e-01
   1.7318900e+00   2.0909500e+00  -4.9130000e-01
   1.6942000e+00   2.1741000e+00  -4.8053700e-01
   1.6658800e+00   2.2299200e+00  -4.8334500e-01
   1.6160200e+00   2.2899400e+00  -4.7749500e-01
   1.5879300e+00   2.3116600e+00  -4.6790100e-01
   1.5401700e+00   2.3347800e+00  -4.4473500e-01
   1.4664300e+00   2.3532300e+00  -4.0168000e-01
   1.4044000e+00   2.3443500e+00  -3.7079300e-01
   1.3493900e+00   2.3182000e+00  -3.3803300e-01
   1.3004600e+00   2.2946100e+00  -3.1299600e-01
   1.2679300e+00   2.2455600e+00  -2.8468200e-01
   1.2103400e+00   2.1909100e+00  -2.3554300e-01
   1.1675000e+00   2.1304200e+00  -1.8312800e-01
   1.1230200e+00   2.0512500e+00  -1.4849600e-01
   1.0729300e+00   1.9872600e+00  -1.3024500e-01
   1.0497500e+00   1.8975800e+00  -1.0356900e-01
   9.9848900e-01   1.8200400e+00  -6.1215900e-02
   9.3856200e-01   1.7214800e+00  -2.0968600e-02
   8.8823300e-01   1.6341400e+00   7.1109200e-03
   8.2807200e-01   1.5538000e+00   3.1446500e-02
   7.7446500e-01   1.4725200e+00   4.1742300e-02
   7.2179500e-01   1.3898500e+00   5.5314100e-02
   6.5203700e-01   1.3207200e+00   8.2457600e-02
   5.8485300e-01   1.2548600e+00   1.0655900e-01
   4.9098300e-01   1.1796500e+00   1.1779100e-01
   4.1022200e-01   1.1577000e+00   1.0585700e-01
   3.4491100e-01   1.0757300e+00   1.0094300e-01
   2.4963600e-01   1.0411600e+00   1.0866500e-01
   1.5600100e-01   9.9328300e-01   1.0983500e-01
   5.5107900e-02   9.2625500e-01   8.7605500e-02
  -2.1439400e-02   8.9636100e-01   4.9230200e-02
  -7.9025500e-02   8.1438600e-01   2.7936600e-02
  -1.6283000e-01   7.4315400e-01   1.2024800e-02
  -2.4359100e-01   6.6771800e-01  -6.9288400e-03
  -3.2458600e-01   6.0442700e-01  -2.4010500e-02
  -4.0019700e-01   5.3179400e-01  -5.3026000e-02
  -4.2220100e-01   4.3860800e-01  -8.2041500e-02
  -4.5684600e-01   3.5686700e-01  -8.4147500e-02
