**************************************************************************************
  	RED ACELEROGRÁFICA DE LA UNIVERSIDAD AUTONOMA METROPOLITANA (RA-UAM)
	   UNIDAD AZCAPOTZALCO. DIVISIÓN CBI-DEPARTAMENTO DE MATERIALES
     Av. San Pablo 420, Col. Nueva el Rosario, Azcapotzalco, C.P. 02128, Ciudad de México
		Área de Estructuras. e-mail: agb@azc.uam.mx
**************************************************************************************
ARCHIVO ESTANDAR DE ACELERACION:
VERSION DEL FORMATO                    : 2.0
NOMBRE DEL ARCHIVO                     : RIDA202402.221
FECHA Y HORA DE CREACION               : 11:30 a. m. 29/02/2024
REF. CATALOGO ACELEROGRAMAS, SMIS 1999 : REGISTRO NO.      /PAG.    


================================================================================
DATOS DE LA ESTACION:
NOMBRE DE LA ESTACION                  : UAM-AZCAPOTZALCO.
CLAVE DE LA ESTACION                   : RIDA
LOCALIZACION DE LA ESTACION            : AV. SAN PABLO 420, COL. NUEVA EL ROSARIO,
                                       : AZCAPOTZALCO, C.P.02128, CIUDAD DE MEXICO. 
                                       :
                                       : 
                                       : 
COORDENADAS DE LA ESTACION             : 19.498596 LAT. N
                                       : 99.195595 LONG. W
ALTITUD (msnm)                         : 2546
TIPO DE SUELO                          : ZONA DE TRANSICION
                                       : 
                                       : 
INSTITUCION RESPONSABLE                : UNIVERSIDAD AUTONOMA METROPOLITANA
                                       : 

================================================================================
DATOS DEL ACELEROGRAFO: 
MODELO DEL ACELEROGRAFO                : ETNA2 KINEMETRICS
NUMERO DE SERIE DEL ACELEROGRAFO       : 103732
NUMERO DE CANALES                      : 3
ORIENTACION C1-C6 (rumbo;orientacion)  : /N90E/N00E/V
ORIENTACION C7-C12 (rumbo;orientacion) : 
VEL. DE MUESTREO, C1-C6 (muestras/s)   : /200/200/200
VEL. DE MUESTREO, C7-C12 (muestras/s)  : 
ESC. COMPLETA DE SENSORES, C1-C6, (g)  : /2/2/2
ESC. COMPLETA DE SENSORES, C7-C12 (g)  : 
FREC. NAT. DE SENSORES, C1-C6, (Hz)    : /198/212/200   
FREC. NAT. DE SENSORES, C7-C12 (Hz)    : 
AMORTIGUAMIENTO DE SENSORES, C1-C6     : /0.7/0.7/0.7      
AMORTIGUAMIENTO DE SENSORES, C7-C12    : 
INTERVALO DE MUESTREO, C1-C6 (s)       : /0.005/0.005/0.005
INTERVALO DE MUESTREO, C7-C12 (s)      : 
UMBRAL DE DISPARO, C1-C6 (Gal)         : /2/2/2
UMBRAL DE DISPARO, C7-C12 (Gal)        : 
MEMORIA DE PREEVENTO (s)               : 50
TIEMPO DE POSEVENTO (s)                : 60


================================================================================
DATOS DEL SISMO:
FECHA DEL SISMO [GMT]                  : 2024/02/22
HORA EPICENTRO (GMT)                   : 20:43:11
MAGNITUD(ES)                           : /M=4.7
COORDENADAS DEL EPICENTRO              : 17.9300 LAT. N
                                       : -100.4000 LONG. W
PROFUNDIDAD FOCAL (Km)                 : 49.2
FUENTE DE LOS DATOS EPICENTRALES       : SSN
                                       : INSTITUTO DE GEOFISICA, UNAM

================================================================================
DATOS DE ESTE REGISTRO:
HORA DE LA PRIMERA MUESTRA (GMT)       : 20:43:24.000
EXACTITUD DEL TIEMPO (s)               : 
DURACION DEL REGISTRO (s), C1-C6       : /147/147/147
DURACION DEL REGISTRO (s), C7-C12      : 
NUM. TOTAL DE MUESTRAS, C1-C6          : /29400/29400/29400
NUM. TOTAL DE MUESTRAS, C7-C12         : 
ACEL. MAX.(Gal), C1-C6                 : /0.448/-0.497/0.256
ACEL. MAX., C1-C6, EN LA MUESTRA       : /13205/11205/6668
ACEL. MAX.(Gal), C7-C12                : 
ACEL. MAX., C7-C12,EN LA MUESTRA       : 
UNIDADES DE LOS DATOS                  : Gal (cm/s/s)
FACTOR DE DECIMACION                   : 1
FORMATO DATOS (FORTRAN,16 campos/dato) : 3E16.7


================================================================================
CALIDAD DEL ACELEROGRAMA:
REGISTRO DIGITAL COMPLETO CON TIEMPO ABSOLUTO CORRECTO


================================================================================
COMENTARIOS:














================================================================================
DATOS DE ACELERACION:
---------+---------+---------+---------+---------+---------+---------+---------+
   CANAL-1   	     CANAL-2          CANAL-3
     N90E             N00E              V
---------+---------+---------+---------+---------+---------+---------+---------+
[...]
   8.2601400e-02   4.1812700e-03   3.3470600e-02
   5.4276500e-02  -1.1466400e-02   3.1832600e-02
   4.7722000e-02   1.3756700e-02   2.7620700e-02
   5.9660600e-02   1.7493500e-02   4.1426500e-02
   7.6046900e-02   6.3502300e-02   7.1378000e-02
   9.1965000e-02   8.6623400e-02   9.5245500e-02
   1.2988700e-01   6.2101000e-02   1.1092300e-01
   1.6991700e-01   9.8767900e-02   1.1958100e-01
   1.8841000e-01   8.0784700e-02   1.1958100e-01
   1.7951400e-01   1.0507400e-01   1.2215500e-01
   1.4580600e-01   1.1231400e-01   1.3525900e-01
   1.0015800e-01   8.5689200e-02   1.3385500e-01
   7.5578700e-02   5.4160400e-02   1.1724100e-01
   5.0297000e-02   2.4967000e-02   9.9457500e-02
   1.8460800e-02   3.9477300e-03   7.3951900e-02
  -8.9276900e-03  -1.2867700e-02   4.0022500e-02
  -5.2468400e-02   3.2470800e-03   1.9196900e-02
  -8.4772700e-02  -1.5670200e-02   1.7558900e-02
  -1.0326600e-01   6.0496500e-03   1.7792900e-02
  -1.1754500e-01  -1.5436700e-02   1.1007000e-02
  -1.1380000e-01  -3.8090800e-02  -1.8627700e-03
  -1.1145900e-01  -2.4545000e-02  -1.7540500e-02
  -1.2152500e-01  -4.0893300e-02  -4.3280100e-02
  -1.4587000e-01  -2.2576200e-05  -5.5213900e-02
  -1.6998100e-01  -2.4311500e-02  -5.7553800e-02
  -1.7723800e-01  -5.3504900e-02  -6.9721600e-02
  -1.6764000e-01  -3.5054700e-02  -8.0485400e-02
  -1.6272500e-01  -5.5373300e-02  -8.9377300e-02
  -1.7840900e-01  -2.6179900e-02  -9.1015200e-02
  -2.0111500e-01   1.8661200e-02  -8.2357400e-02
  -2.2733300e-01   1.3056100e-02  -6.1063800e-02
  -2.4910400e-01  -1.4035400e-02  -5.4745900e-02
  -2.5519000e-01  -2.8048200e-02  -4.8428000e-02
  -2.6268100e-01  -6.6817100e-02  -3.8834100e-02
  -2.8023800e-01  -7.3122800e-02  -2.8772300e-02
  -2.7040600e-01  -5.9577100e-02  -1.6136500e-02
  -2.7508800e-01  -7.1488000e-02  -3.3218200e-02
  -2.6034000e-01  -5.6307400e-02  -4.4450000e-02
  -2.2241700e-01  -1.0745400e-01  -4.2110100e-02
  -2.3950600e-01  -9.8579500e-02  -4.3982000e-02
  -2.1633100e-01  -7.8027300e-02  -5.2873900e-02
  -1.6553400e-01  -6.4014500e-02  -3.4622200e-02
  -1.6225600e-01   1.6092200e-02  -2.5028400e-02
  -1.4493400e-01   1.1451600e-03  -1.7540500e-02
  -1.3603800e-01  -1.6604400e-02   1.2411000e-02
  -1.6202200e-01  -6.7517700e-02   3.1598600e-02
  -1.7091800e-01  -9.6477600e-02   5.9210200e-02
  -1.7630200e-01  -7.3356400e-02   6.4826100e-02
  -1.8870900e-01  -6.5882900e-02   7.7227900e-02
  -1.8730400e-01  -3.6923000e-02   8.7757700e-02
  -1.8543100e-01  -3.7857200e-02   7.6057900e-02
  -1.6951300e-01  -2.2676700e-02   7.4653900e-02
  -1.6225600e-01  -2.0808300e-02   7.6057900e-02
  -1.6904500e-01  -1.5436700e-02   8.2843800e-02
  -1.6319300e-01   1.6122500e-03   9.5713500e-02
  -1.6810900e-01   1.2822500e-02   7.6291900e-02
  -1.5757500e-01   5.7196500e-02   3.1364700e-02
  -1.5359500e-01   7.0275100e-02  -1.3947800e-03
  -1.5453100e-01   7.1442900e-02  -3.6026200e-02
  -1.2737700e-01   6.0466100e-02  -7.2295600e-02
  -9.0625000e-02   4.6453300e-02  -1.0014100e-01
  -6.5577400e-02   6.8406700e-02  -1.1932900e-01
  -6.6513700e-02   7.9383500e-02  -1.2611500e-01
  -7.3770500e-02   1.0133700e-01  -1.1628700e-01
  -7.2600100e-02   7.2844100e-02  -9.8269100e-02
  -5.7384200e-02   5.3490100e-03  -7.9081400e-02
  -4.2168400e-02  -1.3801900e-02  -6.3169700e-02
  -2.4845800e-02  -1.4736000e-02  -4.8428000e-02
  -1.6652600e-02   1.3523200e-02  -3.1580300e-02
   2.5427100e-03   3.4776000e-02  -3.0327500e-03
   3.5549400e-02   4.4584900e-02   2.9258700e-02
   7.3471900e-02   2.1697300e-02   4.9148300e-02
   1.1818300e-01   1.1888300e-02   5.4764200e-02
   1.2918500e-01   1.7026400e-02   4.4702400e-02
   1.3199400e-01   1.7259900e-02   3.2066600e-02
   1.3129200e-01   6.3735800e-02   1.3815000e-02
   1.2450300e-01   6.6071300e-02   1.8811600e-03
   1.1443800e-01   7.3077700e-02  -3.2667500e-03
   9.0794500e-02   6.6538400e-02  -1.0754600e-02
   8.4474100e-02   3.4776000e-02  -8.4146600e-03
   9.6880800e-02   4.0381100e-02  -6.5426900e-03
   1.0530800e-01   2.9170800e-02  -7.7126700e-03
   1.1560800e-01   1.0720600e-02  -2.3307700e-03
   1.1607600e-01   1.2822500e-02   1.1709000e-02
   1.0928800e-01   2.1697300e-02   2.0132800e-02
   1.3199400e-01   7.6844800e-03   2.3408800e-02
   1.5657400e-01   2.5200500e-02   4.3064400e-02
   1.6102100e-01   2.9637900e-02   5.9444200e-02
   1.5282800e-01   3.0105000e-02   6.9272000e-02
   1.3316500e-01   6.3035200e-02   9.1969600e-02
   1.2637600e-01   4.6920400e-02   1.1958100e-01
   1.3410100e-01   4.9022300e-02   1.4017300e-01
   1.4557100e-01   3.4075300e-02   1.4789500e-01
   1.5306200e-01   2.0529600e-02   1.4087500e-01
   1.4369900e-01   1.5391500e-02   1.3291900e-01
   1.5236000e-01  -1.4238600e-03   1.3221700e-01
   1.8232400e-01   1.3523200e-02   1.1934700e-01
   1.9473000e-01  -2.3610800e-02   1.0811500e-01
   1.9800800e-01  -3.9025000e-02   8.5651700e-02
   1.8279200e-01  -4.6498500e-02   5.2190300e-02
   1.5399900e-01  -8.6668600e-02   2.5748700e-02
   1.4065600e-01  -1.0231600e-01  -1.3947800e-03
   1.3480300e-01  -1.0932300e-01  -2.5262400e-02
   1.4580600e-01  -1.2333500e-01  -5.5915800e-02
   1.7857800e-01  -1.3875000e-01  -7.8145500e-02
   1.9894400e-01  -1.0535200e-01  -9.5929200e-02
   2.2024600e-01  -1.1913200e-01  -1.0903300e-01
   2.3944100e-01  -1.2029900e-01  -1.1956300e-01
   2.4061200e-01  -6.0978400e-02  -1.3992000e-01
   2.5933900e-01  -6.0044200e-02  -1.5021600e-01
   2.5489100e-01  -3.2952700e-02  -1.4857800e-01
   2.4014400e-01  -2.9449500e-02  -1.4623800e-01
   2.4037800e-01  -5.6541000e-02  -1.5232200e-01
   2.1767100e-01  -5.3738400e-02  -1.5045000e-01
   1.9753900e-01  -6.3547400e-02  -1.3570800e-01
   1.6921500e-01  -4.0192700e-02  -1.1909500e-01
   1.3456900e-01  -3.5288200e-02  -9.0781200e-02
   1.1818300e-01  -7.2188700e-02  -5.1703900e-02
   1.1256500e-01  -4.4863600e-02  -3.0410300e-02
   1.1677800e-01  -7.0553800e-02  -1.8944500e-02
   9.6880800e-02  -1.0371800e-01   6.5610800e-03
   5.3808300e-02  -5.3738400e-02   3.2768600e-02
   3.7188000e-02  -7.4991200e-02   5.5934200e-02
   2.5951700e-02  -6.1445500e-02   8.7289700e-02
   3.5549400e-02  -6.4948700e-02   9.9691500e-02
   7.3471900e-02  -1.1749700e-01   9.3841600e-02
   7.8855900e-02  -9.8112400e-02   1.0390300e-01
   7.2301400e-02  -1.1446100e-01   1.1560300e-01
   4.6785700e-02  -1.0441800e-01   1.1677300e-01
   1.2140400e-02  -1.1773000e-01   1.1419900e-01
   6.9904100e-03  -1.2660500e-01   1.1139100e-01
  -5.1822500e-03  -9.2273700e-02   1.0226500e-01
  -1.9695800e-02  -1.1259200e-01   9.5479500e-02
  -4.7318400e-02  -4.3462400e-02   1.0062700e-01
  -6.8386500e-02  -2.2209600e-02   9.5479500e-02
  -6.9556900e-02  -2.5012100e-02   7.4887900e-02
  -9.4838600e-02   7.9180300e-03   6.3890100e-02
  -1.0724500e-01   3.2470800e-03   5.1020300e-02
  -1.2012000e-01   1.6559300e-02   3.0662700e-02
  -1.4610400e-01   1.8194100e-02   1.4049000e-02
  -1.4774300e-01   3.5710100e-02  -5.1387200e-03
  -1.6670400e-01   4.8555200e-02  -3.0176300e-02
  -1.9432700e-01   5.6495800e-02  -5.2639900e-02
  -1.9198600e-01   4.6686900e-02  -5.8021800e-02
  -2.1141500e-01   7.3311200e-02  -6.1063800e-02
  -2.2780200e-01   7.0041600e-02  -6.5977700e-02
  -2.2522700e-01   6.3035200e-02  -5.3809900e-02
  -2.4489000e-01   1.3053000e-01  -5.0065900e-02
  -2.3412200e-01   1.0040300e-01  -5.4745900e-02
  -2.2475800e-01   9.3863400e-02  -4.3514100e-02
  -2.3295100e-01   1.1768500e-01  -3.2048300e-02
  -2.2077900e-01   8.7090500e-02  -3.0176300e-02
  -2.2241700e-01   9.4330500e-02  -3.0644300e-02
  -2.1094700e-01   9.5498200e-02  -2.4326400e-02
  -1.9900800e-01   6.9574500e-02  -2.9708300e-02
  -1.8402700e-01   5.1357800e-02  -3.9536100e-02
  -1.4516800e-01   6.0933200e-02  -5.2171900e-02
  -1.2761100e-01   5.2992600e-02  -8.2825400e-02
  -1.0443600e-01   5.9999100e-02  -9.6865100e-02
  -8.7113600e-02   7.7748600e-02  -9.3589200e-02
  -1.0279800e-01   6.2568100e-02  -9.4759200e-02
  -1.0303200e-01   6.7005500e-02  -9.5929200e-02
  -1.0326600e-01   8.8725400e-02  -9.1249200e-02
  -9.9988600e-02   1.2492500e-01  -9.2419200e-02
  -7.5409200e-02   1.1488300e-01  -7.6975500e-02
  -8.6177300e-02   1.1955400e-01  -4.4684000e-02
  -9.3200000e-02   1.5575300e-01  -3.3218200e-02
  -8.2900000e-02   1.3286600e-01  -1.4732600e-02
  -8.8050000e-02   1.7373700e-01   1.6388900e-02
  -7.6111400e-02   2.1904500e-01   3.8852500e-02
  -7.7281900e-02   2.3329100e-01   6.1082100e-02
  -9.0625000e-02   2.7065900e-01   8.5885700e-02
  -9.1561300e-02   2.8116800e-01   1.0366900e-01
  -1.1216100e-01   3.1223000e-01   1.1045500e-01
  -1.2737700e-01   3.1223000e-01   1.2192100e-01
  -1.2971800e-01   3.4048900e-01   1.3198300e-01
  -1.3135700e-01   3.6571200e-01   1.2847300e-01
  -1.1380000e-01   3.2157200e-01   1.2309100e-01
  -1.0373400e-01   3.2881200e-01   1.1396500e-01
  -8.6645500e-02   3.2624300e-01   9.5713500e-02
  -7.5175100e-02   3.1293100e-01   8.8459700e-02
  -9.4604500e-02   3.4048900e-01   8.2375800e-02
  -8.8518200e-02   3.3068000e-01   6.4358100e-02
  -8.4304600e-02   3.3488400e-01   5.7572200e-02
  -7.6345500e-02   3.4305800e-01   6.0614100e-02
  -4.2168400e-02   3.0382200e-01   6.8336000e-02
  -3.9125300e-02   3.2600900e-01   6.2720100e-02
  -3.0463900e-02   2.6855700e-01   5.5934200e-02
  -7.2890600e-03   2.3399200e-01   6.6230000e-02
   9.5654000e-03   2.4707000e-01   6.9038000e-02
   3.1803900e-02   1.7046700e-01   7.4419900e-02
   6.8087800e-02   1.6976600e-01   8.2843800e-02
   9.5710400e-02   1.2492500e-01   8.0035800e-02
   8.2367300e-02   7.8682800e-02   6.4358100e-02
   8.3771800e-02   6.2334500e-02   6.0380200e-02
   9.3603600e-02   1.9595400e-02   6.7868000e-02
   9.1730900e-02  -1.7305100e-02   7.2079900e-02
   1.1958800e-01  -6.8218400e-02   8.1439800e-02
   1.5563700e-01  -7.1955100e-02   6.9038000e-02
   1.7225800e-01  -9.3675000e-02   5.2190300e-02
   1.9496400e-01  -1.1562800e-01   3.9554500e-02
   2.2586400e-01  -1.1189200e-01   2.9024700e-02
   2.4178200e-01  -1.3664800e-01   1.8260900e-02
   2.6355300e-01  -1.8779500e-01  -1.4264600e-02
   2.8485500e-01  -1.9316600e-01  -1.7540500e-02
   2.8906800e-01  -2.0858000e-01  -1.4264600e-02
   3.0826400e-01  -2.1512000e-01  -6.0127800e-02
   3.1996800e-01  -1.8218900e-01  -9.2419200e-02
   3.1294600e-01  -2.3520500e-01  -8.1655400e-02
   2.9281400e-01  -2.7771000e-01  -6.6679700e-02
   2.7642800e-01  -2.4664800e-01  -9.1717200e-02
   2.9515500e-01  -2.3193500e-01  -1.2260500e-01
   2.9047300e-01  -3.0059800e-01  -1.0248100e-01
   2.4693200e-01  -3.6155400e-01  -7.4167500e-02
   2.0830800e-01  -3.6108700e-01  -7.6039500e-02
   2.0666900e-01  -3.3399500e-01  -8.3761400e-02
   2.3920700e-01  -3.5081000e-01  -7.2061600e-02
   2.4412300e-01  -3.9588500e-01  -6.9253600e-02
   2.1884200e-01  -4.6454800e-01  -5.5681800e-02
   2.0643500e-01  -4.9724500e-01  -2.8538300e-02
   2.0924400e-01  -4.2531200e-01  -5.7319800e-02
   1.9028300e-01  -4.4796600e-01  -8.8207300e-02
   1.4744400e-01  -4.5380500e-01  -7.9081400e-02
   1.2918500e-01  -4.4726500e-01  -7.8847400e-02
   1.3246200e-01  -4.5544000e-01  -9.8737100e-02
   1.4323100e-01  -4.2764700e-01  -1.0365100e-01
   1.2356700e-01  -4.0732900e-01  -9.4291200e-02
   3.4378900e-02  -3.3282700e-01  -8.7973300e-02
  -5.5745600e-02  -3.1834700e-01  -5.9893800e-02
  -6.6513700e-02  -3.0947300e-01  -3.7664200e-02
  -3.2570700e-02  -3.1250900e-01  -4.6322000e-02
  -1.4311700e-02  -3.3119200e-01  -5.3809900e-02
  -2.4143500e-02  -2.7747700e-01  -4.8662000e-02
  -5.4809300e-02  -2.5529000e-01  -5.6149800e-02
  -6.5109200e-02  -2.3240200e-01  -7.3465500e-02
  -5.6213800e-02  -2.1722100e-01  -7.9315400e-02
  -3.5613900e-02  -2.3613900e-01  -7.6507500e-02
  -2.8357100e-02  -2.2492900e-01  -7.4635500e-02
  -3.3975300e-02  -2.0601100e-01  -7.4167500e-02
  -2.4611700e-02  -1.6607500e-01  -7.4167500e-02
  -4.1232100e-02  -1.3804900e-01  -7.1827600e-02
  -5.7618300e-02  -1.5229500e-01  -6.6445700e-02
  -5.1532000e-02  -1.3828300e-01  -5.8489800e-02
  -6.0661500e-02  -1.4108500e-01  -4.0472100e-02
  -7.5175100e-02  -1.3875000e-01  -2.5730400e-02
  -7.4706900e-02  -6.9386100e-02  -1.6838500e-02
  -9.7413600e-02  -1.8239300e-02  -2.0348500e-02
  -1.3767700e-01   6.5167400e-03  -2.0114500e-02
  -1.7162000e-01   4.6453300e-02   7.4970600e-03
  -2.0088100e-01   7.5880300e-02   2.2940800e-02
  -1.9268800e-01   5.9064900e-02   2.7620700e-02
  -1.6717200e-01   8.1018300e-02   4.4936400e-02
  -1.5897900e-01   1.1464900e-01   5.8742200e-02
  -1.6834300e-01   1.2469200e-01   5.3828300e-02
  -1.5874500e-01   1.3193200e-01   5.2658300e-02
  -1.4025200e-01   1.5131600e-01   5.9210200e-02
  -1.2503600e-01   1.6509500e-01   5.1722300e-02
  -9.3434100e-02   1.2959600e-01   4.3298400e-02
  -8.9922700e-02   1.6929900e-01   3.2300600e-02
  -1.0115900e-01   1.8985100e-01   5.8590900e-03
  -8.7113600e-02   1.7583800e-01  -1.0052600e-02
  -8.3836400e-02   2.1904500e-01  -7.7126700e-03
  -9.6945400e-02   2.4216600e-01  -1.8944500e-02
  -8.8050000e-02   2.2091300e-01  -2.7602300e-02
  -8.7113600e-02   2.2768600e-01  -3.7430200e-02
  -9.2731800e-02   2.7533000e-01  -7.0423600e-02
  -6.8620600e-02   2.5687900e-01  -8.0953400e-02
  -5.5511500e-02   2.8770800e-01  -7.2763600e-02
  -5.1063800e-02   2.8397100e-01  -7.4869500e-02
  -4.1232100e-02   2.2978800e-01  -7.8379500e-02
  -4.7552500e-02   3.0592400e-01  -7.6039500e-02
  -6.9556900e-02   3.3278200e-01  -7.2529600e-02
  -9.9286300e-02   3.4072300e-01  -5.0065900e-02
  -1.2573800e-01   3.6407700e-01  -2.7987600e-03
  -1.4914700e-01   3.6010700e-01   2.5514800e-02
  -1.6670400e-01   3.2647600e-01   4.0022500e-02
  -1.7068400e-01   2.8233600e-01   6.3422100e-02
  -1.7957900e-01   3.0475600e-01   7.2079900e-02
  -1.9432700e-01   2.8910900e-01   5.9210200e-02
  -1.8707000e-01   2.6902400e-01   6.6932000e-02
  -1.8730400e-01   2.6598800e-01   7.4887900e-02
  -1.8824000e-01   2.3726100e-01   5.5700200e-02
  -1.6670400e-01   2.1180500e-01   5.2190300e-02
  -1.5219100e-01   2.1110400e-01   4.4000400e-02
  -1.4914700e-01   2.1694300e-01   2.6450700e-02
  -1.4165700e-01   1.9896000e-01   1.0305000e-02
  -1.1871600e-01   2.0736700e-01   1.4131700e-03
  -1.0256400e-01   2.2885400e-01   8.6670400e-03
  -8.6411400e-02   2.0526500e-01   1.0773000e-02
  -6.7216000e-02   2.0106200e-01   2.0132800e-02
  -6.5343300e-02   2.1904500e-01   2.0600800e-02
  -6.2768300e-02   1.8728200e-01   7.7310600e-03
  -5.1766100e-02   1.8307800e-01   9.1350400e-03
  -6.6747800e-02   2.0363100e-01   1.8260900e-02
  -7.3536400e-02   1.7116800e-01   2.2004800e-02
  -5.4341100e-02   1.4127300e-01   2.8556700e-02
  -5.6916100e-02   1.4711200e-01   3.8384500e-02
  -4.0295700e-02   9.9702100e-02   3.4406600e-02
  -1.0332200e-02   6.4903500e-02   1.8026900e-02
   6.0540500e-03   8.1485400e-02   1.7792900e-02
   2.5717600e-02   3.5243000e-02   1.9430900e-02
   5.2403800e-02  -3.0586900e-03   5.3911000e-03
   6.4576500e-02  -1.5670200e-02   1.2411000e-02
   5.6383300e-02  -3.8791400e-02   2.2472800e-02
   8.6815000e-02  -7.5691900e-02   1.9196900e-02
   1.1139400e-01  -1.0558600e-01   3.7682500e-02
   1.1045800e-01  -9.7878800e-02   4.7510400e-02
   1.4697600e-01  -1.1889800e-01   2.8790700e-02
   1.6266000e-01  -1.1773000e-01   3.2300600e-02
   1.4744400e-01  -9.9280100e-02   5.2190300e-02
   1.5797800e-01  -1.0325000e-01   4.8680400e-02
   1.6008500e-01  -1.0091500e-01   5.8976200e-02
   1.4463500e-01  -1.1819700e-01   8.0971800e-02
   1.5353100e-01  -1.7378200e-01   7.0208000e-02
