**************************************************************************************
  	RED ACELEROGRÁFICA DE LA UNIVERSIDAD AUTONOMA METROPOLITANA (RA-UAM)
	   UNIDAD AZCAPOTZALCO. DIVISIÓN CBI-DEPARTAMENTO DE MATERIALES
     Av. San Pablo 420, Col. Nueva el Rosario, Azcapotzalco, C.P. 02128, Ciudad de México
		Área de Estructuras. e-mail: agb@azc.uam.mx
**************************************************************************************
ARCHIVO ESTANDAR DE ACELERACION:
VERSION DEL FORMATO                    : 2.0
NOMBRE DEL ARCHIVO                     : RIDA202405.201
FECHA Y HORA DE CREACION               : 11:30 a. m. 27/05/2024
REF. CATALOGO ACELEROGRAMAS, SMIS 1999 : REGISTRO NO.      /PAG.    


================================================================================
DATOS DE LA ESTACION:
NOMBRE DE LA ESTACION                  : UAM-AZCAPOTZALCO.
CLAVE DE LA ESTACION                   : RIDA
LOCALIZACION DE LA ESTACION            : AV. SAN PABLO 420, COL. NUEVA EL ROSARIO,
                                       : AZCAPOTZALCO, C.P.02128, CIUDAD DE MEXICO. 
                                       :
                                       : 
                                       : 
COORDENADAS DE LA ESTACION             : 19.498596 LAT. N
                                       : 99.195595 LONG. W
ALTITUD (msnm)                         : 2546
TIPO DE SUELO                          : ZONA DE TRANSICION
                                       : 
                                       : 
INSTITUCION RESPONSABLE                : UNIVERSIDAD AUTONOMA METROPOLITANA
                                       : 

================================================================================
DATOS DEL ACELEROGRAFO: 
MODELO DEL ACELEROGRAFO                : ETNA2 KINEMETRICS
NUMERO DE SERIE DEL ACELEROGRAFO       : 103732
NUMERO DE CANALES                      : 3
ORIENTACION C1-C6 (rumbo;orientacion)  : /N90E/N00E/V
ORIENTACION C7-C12 (rumbo;orientacion) : 
VEL. DE MUESTREO, C1-C6 (muestras/s)   : /200/200/200
VEL. DE MUESTREO, C7-C12 (muestras/s)  : 
ESC. COMPLETA DE SENSORES, C1-C6, (g)  : /2/2/2
ESC. COMPLETA DE SENSORES, C7-C12 (g)  : 
FREC. NAT. DE SENSORES, C1-C6, (Hz)    : /198/212/200   
FREC. NAT. DE SENSORES, C7-C12 (Hz)    : 
AMORTIGUAMIENTO DE SENSORES, C1-C6     : /0.7/0.7/0.7      
AMORTIGUAMIENTO DE SENSORES, C7-C12    : 
INTERVALO DE MUESTREO, C1-C6 (s)       : /0.005/0.005/0.005
INTERVALO DE MUESTREO, C7-C12 (s)      : 
UMBRAL DE DISPARO, C1-C6 (Gal)         : /2/2/2
UMBRAL DE DISPARO, C7-C12 (Gal)        : 
MEMORIA DE PREEVENTO (s)               : 50
TIEMPO DE POSEVENTO (s)                : 60


================================================================================
DATOS DEL SISMO:
FECHA DEL SISMO [GMT]                  : 2024/05/20
HORA EPICENTRO (GMT)                   : 06:48:14
MAGNITUD(ES)                           : /M=4.9
COORDENADAS DEL EPICENTRO              : 17.4900 LAT. N
                                       : -101.3200 LONG. W
PROFUNDIDAD FOCAL (Km)                 : 40.3
FUENTE DE LOS DATOS EPICENTRALES       : SSN
                                       : INSTITUTO DE GEOFISICA, UNAM

================================================================================
DATOS DE ESTE REGISTRO:
HORA DE LA PRIMERA MUESTRA (GMT)       : 06:48:54.000
EXACTITUD DEL TIEMPO (s)               : 
DURACION DEL REGISTRO (s), C1-C6       : /127/127/127
DURACION DEL REGISTRO (s), C7-C12      : 
NUM. TOTAL DE MUESTRAS, C1-C6          : /25400/25400/25400
NUM. TOTAL DE MUESTRAS, C7-C12         : 
ACEL. MAX.(Gal), C1-C6                 : /0.664/0.500/-0.321
ACEL. MAX., C1-C6, EN LA MUESTRA       : /10148/10424/10255
ACEL. MAX.(Gal), C7-C12                : 
ACEL. MAX., C7-C12,EN LA MUESTRA       : 
UNIDADES DE LOS DATOS                  : Gal (cm/s/s)
FACTOR DE DECIMACION                   : 1
FORMATO DATOS (FORTRAN,16 campos/dato) : 3E16.7


================================================================================
CALIDAD DEL ACELEROGRAMA:
REGISTRO DIGITAL COMPLETO CON TIEMPO ABSOLUTO CORRECTO


================================================================================
COMENTARIOS:














================================================================================
DATOS DE ACELERACION:
---------+---------+---------+---------+---------+---------+---------+---------+
   CANAL-1   	     CANAL-2          CANAL-3
     N90E             N00E              V
---------+---------+---------+---------+---------+---------+---------+---------+
[...]
  -1.1902200e-01   1.6033100e-01   9.3481500e-02
  -1.3049300e-01   1.9045900e-01   9.6991500e-02
  -1.5109300e-01   1.7597900e-01   9.5119500e-02
  -1.7005400e-01   1.7761400e-01   8.6695700e-02
  -1.8433300e-01   1.7621200e-01   6.9146000e-02
  -1.9908100e-01   1.6383400e-01   4.6448400e-02
  -1.9954900e-01   1.5963100e-01   3.2642600e-02
  -2.0633800e-01   1.3370700e-01   1.4624900e-02
  -2.1757400e-01   1.4421600e-01  -1.5794600e-02
  -2.1499900e-01   1.0428000e-01  -4.2938100e-02
  -2.2295800e-01   1.2740100e-01  -7.2187600e-02
  -2.1406300e-01   1.1152000e-01  -9.6523200e-02
  -2.0750800e-01   1.0334600e-01  -1.1477500e-01
  -2.0563600e-01   1.1969400e-01  -1.2928300e-01
  -1.7824700e-01   9.5638600e-02  -1.4145000e-01
  -1.7052200e-01   1.2506600e-01  -1.5642600e-01
  -1.5928600e-01   1.3627600e-01  -1.6461600e-01
  -1.3775000e-01   1.5052200e-01  -1.6999800e-01
  -1.3002500e-01   1.6476900e-01  -1.7163600e-01
  -1.1270200e-01   1.7831400e-01  -1.6836000e-01
  -9.9827100e-02   1.8859000e-01  -1.6438200e-01
  -9.3038500e-02   2.1638300e-01  -1.5642600e-01
  -8.8824900e-02   2.3133000e-01  -1.4987400e-01
  -9.8188400e-02   2.2152100e-01  -1.4098200e-01
  -1.1106300e-01   2.4861200e-01  -1.3115500e-01
  -1.2206600e-01   2.3109600e-01  -1.1664700e-01
  -1.3213100e-01   2.1755000e-01  -1.0401100e-01
  -1.3845200e-01   2.0120200e-01  -9.1375300e-02
  -1.4336800e-01   1.6710400e-01  -7.9207500e-02
  -1.4032500e-01   1.5846300e-01  -8.2717400e-02
  -1.3657900e-01   1.2156200e-01  -7.3123600e-02
  -1.4547500e-01   1.1011900e-01  -6.2593800e-02
  -1.3775000e-01   9.3536700e-02  -5.7913800e-02
  -1.3494100e-01   7.9056800e-02  -4.5278100e-02
  -1.3260000e-01   5.9905900e-02  -3.0536300e-02
  -1.1808600e-01   3.9353800e-02  -1.5092600e-02
  -1.1200000e-01   2.2771900e-02   8.1914200e-04
  -9.1633900e-02  -1.0499000e-03   2.4686700e-02
  -8.1334000e-02   1.1795200e-02   4.6682400e-02
  -7.2204500e-02   9.2261800e-03   7.2655900e-02
  -5.9563700e-02   3.3982200e-02   9.3481500e-02
  -5.3477300e-02   4.5659500e-02   1.0939300e-01
  -3.5452400e-02   3.3515100e-02   1.2202900e-01
  -2.8663800e-02   5.8738200e-02   1.2858100e-01
  -1.9768400e-02   5.5935600e-02   1.3677100e-01
  -9.4684700e-03   4.8929200e-02   1.3747300e-01
  -1.0404800e-02   6.6445200e-02   1.3630300e-01
   3.6405600e-03   6.7379400e-02   1.2928300e-01
   1.2770100e-02   5.8504600e-02   1.1594500e-01
   2.1431400e-02   7.1116200e-02   9.6523500e-02
   5.0692600e-02   5.6402700e-02   7.7569800e-02
   6.8249300e-02   4.4024700e-02   6.1424100e-02
   8.7444700e-02   3.2113800e-02   4.6916300e-02
   1.1132200e-01  -2.6847300e-03   2.8196700e-02
   1.2606900e-01  -1.0858900e-02   9.7109900e-03
   1.4854200e-01  -4.1920700e-02  -2.9247900e-03
   1.6001200e-01  -5.3364500e-02  -2.1410500e-02
   1.7405800e-01  -6.2472800e-02  -3.4046300e-02
   1.8646500e-01  -7.2048200e-02  -4.8320000e-02
   1.9793500e-01  -7.9054700e-02  -5.2063900e-02
   2.1830100e-01  -9.7738400e-02  -5.7445900e-02
   2.1993900e-01  -8.8396500e-02  -6.8209700e-02
   2.2274800e-01  -1.0217600e-01  -6.7975700e-02
   2.2626000e-01  -9.1199100e-02  -7.4059600e-02
   2.2532300e-01  -9.4001700e-02  -7.5931500e-02
   2.3983700e-01  -1.0567900e-01  -7.4995500e-02
   2.5716000e-01  -1.0521200e-01  -7.2187600e-02
   2.7120500e-01  -1.2296200e-01  -6.3061800e-02
   2.9297500e-01  -1.2996800e-01  -5.4637900e-02
   3.1053200e-01  -1.6173000e-01  -4.5512100e-02
   3.2270500e-01  -1.5729300e-01  -3.2174300e-02
   3.3183400e-01  -1.6850300e-01  -1.1816600e-02
   3.3628200e-01  -1.8555200e-01   9.4769900e-03
   3.4634800e-01  -1.8041400e-01   2.4452700e-02
   3.5641400e-01  -1.9793000e-01   3.8258500e-02
   3.7350200e-01  -1.9466100e-01   5.1362300e-02
   3.9059100e-01  -1.9886400e-01   6.0020100e-02
   4.0089100e-01  -1.9746300e-01   7.4059900e-02
   4.1002000e-01  -1.9979900e-01   8.3653700e-02
   4.1072200e-01  -1.9349300e-01   8.5057700e-02
   4.2172500e-01  -1.8999000e-01   8.2249700e-02
   4.4138800e-01  -1.9606200e-01   7.8037800e-02
   4.5777500e-01  -1.9045700e-01   7.6399800e-02
   4.7135200e-01  -2.1287700e-01   7.0315900e-02
   4.7392700e-01  -2.0400200e-01   6.1892100e-02
   4.6901100e-01  -1.9559500e-01   4.8788300e-02
   4.7275600e-01  -2.1591300e-01   4.1300400e-02
   4.7439500e-01  -2.1194300e-01   3.5684500e-02
   4.6713800e-01  -2.2385400e-01   2.9834600e-02
   4.6620200e-01  -2.1965000e-01   2.6090700e-02
   4.5332700e-01  -2.1264400e-01   1.7432900e-02
   4.4092000e-01  -2.0703900e-01   1.2518900e-02
   4.2710900e-01  -2.0096600e-01   1.2986900e-02
   4.0580700e-01  -2.0120000e-01   1.3688900e-02
   3.9597500e-01  -1.9092400e-01   1.3922900e-02
   3.8099300e-01  -1.9909800e-01   1.7432900e-02
   3.6765000e-01  -1.7270700e-01   2.2346800e-02
   3.5290200e-01  -1.5308900e-01   2.9600600e-02
   3.2457700e-01  -1.3253700e-01   2.9132700e-02
   2.9718900e-01  -1.0100800e-01   2.8196700e-02
   2.6816200e-01  -9.4935900e-02   3.1004600e-02
   2.3258000e-01  -6.7143700e-02   2.8664700e-02
   2.0261700e-01  -4.1453600e-02   2.8430700e-02
   1.7452600e-01  -1.5529800e-02   3.1940600e-02
   1.4596700e-01   8.5255400e-03   3.7790500e-02
   1.2606900e-01   3.4449300e-02   3.7556500e-02
   1.0242600e-01   4.8695700e-02   3.9896500e-02
   8.4869700e-02   3.6551200e-02   4.4342400e-02
   6.8483400e-02   4.7527900e-02   4.4342400e-02
   4.3904000e-02   2.6275100e-02   4.7384300e-02
   2.1431400e-02   4.0881400e-03   4.7618300e-02
  -7.5957500e-03  -6.8885800e-03   4.3172400e-02
  -3.4516100e-02  -3.7716800e-02   3.7322500e-02
  -6.0500000e-02  -4.5891000e-02   3.4046600e-02
  -8.0397600e-02  -9.4935900e-02   3.5216500e-02
  -9.6783900e-02  -1.0754700e-01   3.0068600e-02
  -1.1621300e-01  -1.0731400e-01   2.4452700e-02
  -1.3260000e-01  -1.1899100e-01   2.4920700e-02
  -1.5975400e-01  -8.5827500e-02   2.0708800e-02
  -1.9486700e-01  -6.0370900e-02   1.7666900e-02
  -2.2178800e-01  -3.0243300e-02   1.7666900e-02
  -2.4660100e-01   3.5138700e-04   1.6964900e-02
  -2.7469200e-01   3.6317700e-02   1.0647000e-02
  -2.9903700e-01   6.8313600e-02   1.0647000e-02
  -3.3766200e-01   1.0451300e-01   1.6028900e-02
  -3.7839400e-01   1.3160500e-01   1.5560900e-02
  -4.1889100e-01   1.7130800e-01   1.1115000e-02
  -4.5423900e-01   1.9583000e-01   8.3070100e-03
  -4.8513900e-01   2.1941900e-01   8.3070100e-03
  -5.1931600e-01   2.6145700e-01  -3.1587900e-03
  -5.4647000e-01   2.6028900e-01  -1.2050600e-02
  -5.7526300e-01   2.7336800e-01  -2.3516400e-02
  -5.9305400e-01   2.7079900e-01  -4.1534100e-02
  -6.0358800e-01   2.6332600e-01  -6.7039700e-02
  -6.0288600e-01   2.4627700e-01  -8.5291400e-02
  -5.9726800e-01   2.1358000e-01  -9.3949200e-02
  -5.9679900e-01   1.8345200e-01  -1.1056300e-01
  -5.9164900e-01   1.4748600e-01  -1.2226300e-01
  -5.8322200e-01   1.1992800e-01  -1.3279300e-01
  -5.7385900e-01   7.2751000e-02  -1.3302700e-01
  -5.6051600e-01   4.1689200e-02  -1.3092100e-01
  -5.5466300e-01   1.3430000e-02  -1.2390100e-01
  -5.5747200e-01  -1.6230500e-02  -1.1290300e-01
  -5.5045000e-01  -3.0243300e-02  -1.0705300e-01
  -5.5232200e-01  -3.7249700e-02  -9.8161100e-02
  -5.5325900e-01  -4.2387700e-02  -9.0673300e-02
  -5.5349300e-01  -4.6124500e-02  -8.1781400e-02
  -5.5232200e-01  -5.0561900e-02  -7.1719600e-02
  -5.4225700e-01  -4.0519400e-02  -6.6571700e-02
  -5.3874500e-01  -3.1878100e-02  -5.7679800e-02
  -5.3593600e-01  -3.5848400e-02  -4.7384000e-02
  -5.3453200e-01  -1.7631700e-02  -3.9428200e-02
  -5.2750900e-01  -1.7631700e-02  -2.9600300e-02
  -5.1042000e-01  -2.1135000e-02  -2.0708500e-02
  -4.8607500e-01  -1.9266600e-02  -8.5407000e-03
  -4.6453900e-01  -1.2026600e-02  -1.1684100e-04
  -4.4183200e-01  -1.6464000e-02   9.2430000e-03
  -4.2146600e-01  -1.4595600e-02   2.4218700e-02
  -4.0297300e-01   9.2261800e-03   3.0302600e-02
  -3.7956400e-01   1.9862200e-03   3.4514600e-02
  -3.6271000e-01   3.1179600e-02   4.3874400e-02
  -3.3836400e-01   3.4916400e-02   5.2532200e-02
  -3.2595800e-01   5.1965300e-02   5.6276200e-02
  -3.1659400e-01   6.8780700e-02   6.0956100e-02
  -3.0442100e-01   5.1498200e-02   6.8210000e-02
  -3.0793300e-01   7.4385800e-02   6.9614000e-02
  -2.9974000e-01   4.9629800e-02   7.2655900e-02
  -2.9037600e-01   6.1540700e-02   7.6399800e-02
  -2.7867200e-01   4.2623400e-02   7.7803800e-02
  -2.5245400e-01   2.0436400e-02   7.1017900e-02
  -2.2670400e-01   8.9926300e-03   5.7212200e-02
  -2.0118800e-01  -3.2111700e-02   4.9256300e-02
  -1.7028800e-01  -5.4532200e-02   4.1300400e-02
  -1.4196300e-01  -1.1922500e-01   3.2642600e-02
  -1.0778600e-01  -1.4257900e-01   2.5388700e-02
  -6.4947700e-02  -1.8882200e-01   2.8430700e-02
  -3.1941100e-02  -2.1147600e-01   2.9132700e-02
   8.7905300e-03  -2.3226200e-01   3.1004600e-02
   3.7349500e-02  -2.5795200e-01   3.8726500e-02
   5.7949400e-02  -2.4510700e-01   4.2704400e-02
   8.4401500e-02  -2.5771800e-01   4.7618300e-02
   9.5403700e-02  -2.2432100e-01   4.8554300e-02
   1.2045100e-01  -2.1801500e-01   4.4108400e-02
   1.4292400e-01  -1.8625300e-01   3.3578600e-02
   1.5931000e-01  -1.3323800e-01   2.2580800e-02
   1.9044400e-01  -1.0731400e-01   1.0881000e-02
   2.1455500e-01  -5.8502500e-02  -8.5407000e-03
   2.5107300e-01  -2.3937500e-02  -3.3344300e-02
   2.9578400e-01   2.1370600e-02  -5.5807900e-02
   3.2902500e-01   4.5659500e-02  -8.2951400e-02
   3.6765000e-01   7.3918800e-02  -1.0892500e-01
   3.9410200e-01   9.9842500e-02  -1.3138900e-01
   4.1751100e-01   1.0755000e-01  -1.5221400e-01
   4.4302700e-01   1.4001300e-01  -1.6485000e-01
   4.5543400e-01   1.3510800e-01  -1.7397600e-01
   4.6924500e-01   1.4515100e-01  -1.7865600e-01
   4.7977900e-01   1.4328200e-01  -1.7631600e-01
   4.8727000e-01   1.2249700e-01  -1.7280600e-01
   4.9944200e-01   1.2600000e-01  -1.6742400e-01
   5.0342200e-01   1.0311200e-01  -1.5244800e-01
   5.1021100e-01   8.3027100e-02  -1.3466500e-01
   5.2004200e-01   6.3409100e-02  -1.1781700e-01
   5.3151300e-01   3.9820900e-02  -9.6991200e-02
   5.5515600e-01   7.1242600e-03  -7.5697500e-02
   5.7318100e-01  -1.2026600e-02  -5.5807900e-02
   5.9003500e-01  -2.9309100e-02  -3.3344300e-02
   6.0782600e-01  -3.9351600e-02  -1.4624600e-02
   6.0829400e-01  -1.7164700e-02  -3.6267800e-03
   6.1648700e-01  -3.0476800e-02   9.0090000e-03
   6.2187100e-01   6.8907100e-03   1.8368800e-02
   6.2678700e-01   2.1604200e-02   2.3516800e-02
   6.4926000e-01   3.7718900e-02   3.3812600e-02
   6.5675100e-01   8.7931600e-02   4.3172400e-02
   6.6260300e-01   8.6997400e-02   4.4810400e-02
   6.5745300e-01   1.6476900e-01   4.1300400e-02
   6.5464400e-01   1.7364300e-01   4.2938400e-02
   6.6049600e-01   2.0120200e-01   4.3640400e-02
   6.5604800e-01   2.3226400e-01   4.0130500e-02
   6.6377300e-01   2.1521500e-01   3.8258500e-02
   6.6400800e-01   2.5585200e-01   3.1004600e-02
   6.5979400e-01   2.2455700e-01   2.9366600e-02
   6.5932600e-01   2.4510900e-01   2.9366600e-02
   6.5160100e-01   2.4861200e-01   3.1706600e-02
   6.4106700e-01   2.3319800e-01   4.3172400e-02
   6.2374400e-01   2.5164800e-01   5.8148200e-02
   5.9682400e-01   2.1638300e-01   7.5931800e-02
   5.6264700e-01   2.1708300e-01   8.7163700e-02
   5.3783300e-01   2.1287900e-01   9.7693500e-02
   5.0927400e-01   1.9115900e-01   1.0681900e-01
   4.6901100e-01   1.8882400e-01   1.1032900e-01
   4.2945000e-01   1.7364300e-01   1.1641300e-01
   3.8590900e-01   1.6617000e-01   1.1758300e-01
   3.4845500e-01   1.4982200e-01   1.1617900e-01
   3.2176800e-01   1.3884500e-01   1.1009500e-01
   2.9086900e-01   1.3697600e-01   9.8395500e-02
   2.5060500e-01   1.1735900e-01   9.3949500e-02
   2.0589400e-01   1.1922700e-01   8.2483700e-02
   1.5252200e-01   1.2926900e-01   7.1485900e-02
   9.9851400e-02   1.3067100e-01   6.5168000e-02
   4.9990300e-02   1.4818700e-01   5.2064300e-02
   1.1833700e-02   1.6920600e-01   4.5278400e-02
  -1.9534300e-02   1.5986400e-01   4.0364500e-02
  -5.0668200e-02   1.7831400e-01   3.3110600e-02
  -7.1034000e-02   1.9069200e-01   3.3578600e-02
  -9.7486200e-02   1.8789000e-01   3.6854500e-02
  -1.2183200e-01   2.0447200e-01   3.5450500e-02
  -1.3704700e-01   1.9396200e-01   4.0598500e-02
  -1.5366800e-01   1.9559700e-01   5.4638200e-02
  -1.7122400e-01   1.7924900e-01   6.3296100e-02
  -1.9369700e-01   1.5822900e-01   7.4293900e-02
  -2.1827600e-01   1.4491700e-01   8.1781700e-02
  -2.3817400e-01   1.2413100e-01   8.2249700e-02
  -2.5175100e-01   1.0077700e-01   8.8099600e-02
  -2.7141500e-01   8.0925200e-02   8.9737600e-02
  -2.8944000e-01   6.4576900e-02   9.0205600e-02
  -3.0161200e-01   2.3005500e-02   9.3013600e-02
  -3.2572400e-01  -4.5531000e-03   8.8333600e-02
  -3.3836400e-01  -2.9776200e-02   8.4355700e-02
  -3.4866400e-01  -6.5508900e-02   7.6633800e-02
  -3.7137100e-01  -8.3725600e-02   6.9380000e-02
  -3.8682100e-01  -1.0334400e-01   6.8210000e-02
  -4.0648500e-01  -1.3136900e-01   6.5168000e-02
  -4.2053000e-01  -1.4024400e-01   6.6806000e-02
  -4.2099800e-01  -1.5962800e-01   6.6806000e-02
  -4.2170000e-01  -1.8415100e-01   6.2360100e-02
  -4.2497800e-01  -1.8391700e-01   6.0254100e-02
  -4.2380700e-01  -1.8064800e-01   5.5106200e-02
  -4.2053000e-01  -1.8321700e-01   4.7618300e-02
  -4.1725300e-01  -1.7480900e-01   4.1534400e-02
  -4.0391000e-01  -1.7854600e-01   3.8258500e-02
  -3.9080100e-01  -1.8672000e-01   3.1238600e-02
  -3.8424600e-01  -1.7504300e-01   2.3750700e-02
  -3.7418000e-01  -1.8018100e-01   2.1878800e-02
  -3.7090300e-01  -1.7177300e-01   1.8368800e-02
  -3.7792600e-01  -1.6733500e-01   1.6964900e-02
  -3.8401200e-01  -1.8438400e-01   2.3516800e-02
  -3.9080100e-01  -1.8648600e-01   3.2408600e-02
  -3.9712100e-01  -2.0283500e-01   3.7088500e-02
  -4.0835700e-01  -2.1287700e-01   3.9896500e-02
  -4.1678400e-01  -2.0190000e-01   4.3406400e-02
  -4.2497800e-01  -2.1754800e-01   4.5746400e-02
  -4.2614800e-01  -2.3763300e-01   4.5044400e-02
  -4.1420900e-01  -2.4440600e-01   4.4576400e-02
  -4.0180300e-01  -2.5771800e-01   3.7322500e-02
  -3.8635300e-01  -2.6892900e-01   3.2876600e-02
  -3.8003200e-01  -2.6098800e-01   2.9366600e-02
  -3.7371200e-01  -2.6799400e-01   2.4920700e-02
  -3.5662300e-01  -2.6939600e-01   2.3516800e-02
  -3.3742800e-01  -2.7009600e-01   1.9538800e-02
  -3.1378500e-01  -2.6565900e-01   2.3516800e-02
  -2.9412100e-01  -2.4907700e-01   2.2580800e-02
  -2.8358700e-01  -2.4020200e-01   2.0474800e-02
  -2.8031000e-01  -2.0517000e-01   2.3984700e-02
  -2.7773500e-01  -2.1918300e-01   2.8196700e-02
  -2.6977600e-01  -2.0236800e-01   3.1706600e-02
  -2.5573100e-01  -1.9419300e-01   3.7790500e-02
  -2.4004700e-01  -2.0773900e-01   4.4810400e-02
  -2.2436300e-01  -1.9279200e-01   4.6214400e-02
  -2.1453100e-01  -2.0260100e-01   4.5746400e-02
  -2.0329500e-01  -2.0960800e-01   4.2938400e-02
  -1.7801300e-01  -2.2292000e-01   4.4576400e-02
  -1.5390200e-01  -2.3763300e-01   4.6214400e-02
  -1.3096100e-01  -2.8200700e-01   5.2766200e-02
  -1.1644700e-01  -2.9064800e-01   5.7914200e-02
  -1.1153200e-01  -2.9485200e-01   5.5574200e-02
  -1.0146600e-01  -3.0139200e-01   5.2298300e-02
  -9.0697600e-02  -3.1750600e-01   4.9724300e-02
  -8.3909000e-02  -3.3011800e-01   5.2766200e-02
  -7.7354500e-02  -3.3525600e-01   5.4404200e-02
  -7.7354500e-02  -3.5954500e-01   5.4170200e-02
  -7.5715800e-02  -3.4296300e-01   5.1596300e-02
  -6.6352300e-02  -3.4786700e-01   4.4342400e-02
  -6.2840900e-02  -3.3689100e-01   3.2408600e-02
  -4.5518300e-02  -3.3105200e-01   1.8368800e-02
