**************************************************************************************
  	RED ACELEROGRÁFICA DE LA UNIVERSIDAD AUTONOMA METROPOLITANA (RA-UAM)
	   UNIDAD AZCAPOTZALCO. DIVISIÓN CBI-DEPARTAMENTO DE MATERIALES
     Av. San Pablo 420, Col. Nueva el Rosario, Azcapotzalco, C.P. 02128, Ciudad de México
		Área de Estructuras. e-mail: agb@azc.uam.mx
**************************************************************************************
ARCHIVO ESTANDAR DE ACELERACION:
VERSION DEL FORMATO                    : 2.0
NOMBRE DEL ARCHIVO                     : RIDA202402.181
FECHA Y HORA DE CREACION               : 11:30 a. m. 23/02/2024
REF. CATALOGO ACELEROGRAMAS, SMIS 1999 : REGISTRO NO.      /PAG.    


================================================================================
DATOS DE LA ESTACION:
NOMBRE DE LA ESTACION                  : UAM-AZCAPOTZALCO.
CLAVE DE LA ESTACION                   : RIDA
LOCALIZACION DE LA ESTACION            : AV. SAN PABLO 420, COL. NUEVA EL ROSARIO,
                                       : AZCAPOTZALCO, C.P.02128, CIUDAD DE MEXICO. 
                                       :
                                       : 
                                       : 
COORDENADAS DE LA ESTACION             : 19.498596 LAT. N
                                       : 99.195595 LONG. W
ALTITUD (msnm)                         : 2546
TIPO DE SUELO                          : ZONA DE TRANSICION
                                       : 
                                       : 
INSTITUCION RESPONSABLE                : UNIVERSIDAD AUTONOMA METROPOLITANA
                                       : 

================================================================================
DATOS DEL ACELEROGRAFO: 
MODELO DEL ACELEROGRAFO                : ETNA2 KINEMETRICS
NUMERO DE SERIE DEL ACELEROGRAFO       : 103732
NUMERO DE CANALES                      : 3
ORIENTACION C1-C6 (rumbo;orientacion)  : /N90E/N00E/V
ORIENTACION C7-C12 (rumbo;orientacion) : 
VEL. DE MUESTREO, C1-C6 (muestras/s)   : /200/200/200
VEL. DE MUESTREO, C7-C12 (muestras/s)  : 
ESC. COMPLETA DE SENSORES, C1-C6, (g)  : /2/2/2
ESC. COMPLETA DE SENSORES, C7-C12 (g)  : 
FREC. NAT. DE SENSORES, C1-C6, (Hz)    : /198/212/200   
FREC. NAT. DE SENSORES, C7-C12 (Hz)    : 
AMORTIGUAMIENTO DE SENSORES, C1-C6     : /0.7/0.7/0.7      
AMORTIGUAMIENTO DE SENSORES, C7-C12    : 
INTERVALO DE MUESTREO, C1-C6 (s)       : /0.005/0.005/0.005
INTERVALO DE MUESTREO, C7-C12 (s)      : 
UMBRAL DE DISPARO, C1-C6 (Gal)         : /2/2/2
UMBRAL DE DISPARO, C7-C12 (Gal)        : 
MEMORIA DE PREEVENTO (s)               : 50
TIEMPO DE POSEVENTO (s)                : 60


================================================================================
DATOS DEL SISMO:
FECHA DEL SISMO [GMT]                  : 2024/02/18
HORA EPICENTRO (GMT)                   : 00:01:32
MAGNITUD(ES)                           : /M=5.0
COORDENADAS DEL EPICENTRO              : 17.2100 LAT. N
                                       : -100.0700 LONG. W
PROFUNDIDAD FOCAL (Km)                 : 23.4
FUENTE DE LOS DATOS EPICENTRALES       : SSN
                                       : INSTITUTO DE GEOFISICA, UNAM

================================================================================
DATOS DE ESTE REGISTRO:
HORA DE LA PRIMERA MUESTRA (GMT)       : 00:01:59.000
EXACTITUD DEL TIEMPO (s)               : 
DURACION DEL REGISTRO (s), C1-C6       : /146/146/146
DURACION DEL REGISTRO (s), C7-C12      : 
NUM. TOTAL DE MUESTRAS, C1-C6          : /29200/29200/29200
NUM. TOTAL DE MUESTRAS, C7-C12         : 
ACEL. MAX.(Gal), C1-C6                 : /-0.639/0.520/-0.193
ACEL. MAX., C1-C6, EN LA MUESTRA       : /12132/12316/10496
ACEL. MAX.(Gal), C7-C12                : 
ACEL. MAX., C7-C12,EN LA MUESTRA       : 
UNIDADES DE LOS DATOS                  : Gal (cm/s/s)
FACTOR DE DECIMACION                   : 1
FORMATO DATOS (FORTRAN,16 campos/dato) : 3E16.7


================================================================================
CALIDAD DEL ACELEROGRAMA:
REGISTRO DIGITAL COMPLETO CON TIEMPO ABSOLUTO CORRECTO


================================================================================
COMENTARIOS:














================================================================================
DATOS DE ACELERACION:
---------+---------+---------+---------+---------+---------+---------+---------+
   CANAL-1   	     CANAL-2          CANAL-3
     N90E             N00E              V
---------+---------+---------+---------+---------+---------+---------+---------+
[...]
   2.2298500e-01  -6.9093000e-02  -4.0751500e-02
   2.3656200e-01  -9.1046500e-02  -4.4261500e-02
   2.3984000e-01  -9.4316100e-02  -4.8005400e-02
   2.4030800e-01  -9.1747100e-02  -6.2981100e-02
   2.4288300e-01  -9.1980700e-02  -7.3745000e-02
   2.3445600e-01  -9.1280000e-02  -8.2402800e-02
   2.3937200e-01  -1.0085500e-01  -9.0592700e-02
   2.3866900e-01  -8.4040100e-02  -9.2230600e-02
   2.3796700e-01  -9.3148400e-02  -9.6208600e-02
   2.2556000e-01  -9.8987100e-02  -9.6676600e-02
   2.0753500e-01  -1.0786200e-01  -9.2464600e-02
   1.8834000e-01  -1.2467700e-01  -8.7082700e-02
   1.7054900e-01  -1.2911500e-01  -8.8954700e-02
   1.6001500e-01  -1.4219300e-01  -9.2698600e-02
   1.4058600e-01  -1.1813800e-01  -9.5740600e-02
   1.3660600e-01  -1.0716100e-01  -9.8548500e-02
   1.2630600e-01  -8.9645200e-02  -9.9016500e-02
   1.1811300e-01  -5.2978300e-02  -1.0369600e-01
   1.1015400e-01  -5.5080200e-02  -1.0065400e-01
   8.7681400e-02  -1.4209400e-02  -8.8018700e-02
   7.2699700e-02   6.5762600e-03  -7.8424900e-02
   6.2867900e-02   5.6420700e-03  -8.6146700e-02
   5.3270200e-02   5.2818600e-02  -9.4102600e-02
   4.1799800e-02   6.0759200e-02  -8.6848700e-02
   3.5245300e-02   7.1502400e-02  -8.4274800e-02
   1.9561300e-02   9.8126800e-02  -8.8252700e-02
   1.3240900e-02   9.8827400e-02  -8.8954700e-02
   1.6284100e-02   1.1517600e-01  -8.5444800e-02
   9.9636400e-03   1.2685300e-01  -8.0998800e-02
   1.1134100e-02   1.3409300e-01  -7.9828900e-02
   8.7931900e-03   1.4273400e-01  -7.3979000e-02
   6.4523000e-03   1.4577000e-01  -6.4151100e-02
   6.4523000e-03   1.3059000e-01  -5.2685300e-02
   4.1114000e-03   1.2218200e-01  -4.2623500e-02
   4.1114000e-03   1.1914600e-01  -4.6601400e-02
  -1.1104400e-02   8.0610700e-02  -4.3325500e-02
  -3.6854300e-02   9.4623500e-02  -3.7709600e-02
  -5.8624600e-02   5.9825000e-02  -2.5541800e-02
  -8.9290400e-02   3.9740000e-02  -1.7585900e-02
  -1.2089200e-01   2.8763200e-02  -1.8287900e-02
  -1.5436700e-01  -7.4365700e-03  -8.6940800e-03
  -1.9065100e-01   4.7078800e-03  -9.6300600e-03
  -2.1312400e-01  -3.1491900e-02   1.8357400e-03
  -2.4004400e-01  -1.7712700e-02   1.1429600e-02
  -2.5713300e-01  -3.9199000e-02   1.2599600e-02
  -2.7000800e-01  -2.5886800e-02   7.9196300e-03
  -2.8639400e-01  -1.3742300e-02   1.0493600e-02
  -2.8194600e-01  -3.6396400e-02   1.9385400e-02
  -2.8030800e-01  -6.5023900e-03   1.6343500e-02
  -2.8030800e-01  -2.5419700e-02   1.7279500e-02
  -2.8264800e-01  -7.6701200e-03   1.1663600e-02
  -2.8920300e-01  -2.2850700e-02   1.8215500e-02
  -2.8545800e-01  -1.4676500e-02   1.1663600e-02
  -2.7422100e-01  -1.1173300e-02  -3.3121700e-03
  -2.7679600e-01  -2.1215900e-02  -2.6101800e-03
  -2.8616000e-01   4.2407800e-03   6.6575900e-04
  -2.8147800e-01  -1.6311400e-02  -4.2481600e-03
  -2.8054200e-01  -6.7359300e-03  -1.5012000e-02
  -2.6743300e-01  -1.0706200e-02  -7.2901000e-03
  -2.6251700e-01  -1.7946200e-02   2.3037300e-03
  -2.6860300e-01  -2.8222300e-02   1.5407500e-02
  -2.4917400e-01  -2.4719100e-02   1.6811500e-02
  -2.3887400e-01  -2.5186200e-02   1.6811500e-02
  -2.2951000e-01  -4.7139600e-02   3.4127200e-02
  -2.1125100e-01  -5.5547300e-02   4.3019000e-02
  -2.0563300e-01  -8.7776800e-02   4.6997000e-02
  -1.8924700e-01  -1.1183200e-01   4.9804900e-02
  -1.7660600e-01  -1.3004900e-01   5.1442900e-02
  -1.8081900e-01  -1.7021900e-01   5.3782800e-02
  -1.7379700e-01  -2.0291600e-01   5.1676900e-02
  -1.7169000e-01  -2.2440200e-01   4.3253000e-02
  -1.7613800e-01  -2.9166300e-01   3.3893200e-02
  -1.6630600e-01  -3.3136700e-01   2.6639300e-02
  -1.5975100e-01  -3.5542200e-01   1.6811500e-02
  -1.4804700e-01  -4.0329900e-01   3.7077100e-03
  -1.3002200e-01  -4.1053900e-01  -4.4821500e-03
  -1.2557400e-01  -4.2548600e-01  -1.6182000e-02
  -1.1902000e-01  -4.4440300e-01  -3.0689700e-02
  -1.1223100e-01  -4.6986000e-01  -2.9519700e-02
  -1.1106100e-01  -4.6028500e-01  -3.1625700e-02
  -9.9356200e-02  -4.5678100e-01  -3.7475600e-02
  -8.8354000e-02  -4.6986000e-01  -3.4667600e-02
  -8.2735900e-02  -4.3459400e-01  -3.2093700e-02
  -7.3606400e-02  -4.3436100e-01  -2.9753700e-02
  -7.5245000e-02  -4.2688700e-01  -2.3669800e-02
  -6.7988200e-02  -4.0516700e-01  -1.0800000e-02
  -5.7688300e-02  -3.9839500e-01  -2.1421900e-03
  -5.4645100e-02  -3.9792700e-01   5.5796700e-03
  -3.4513400e-02  -3.8298000e-01   1.4705500e-02
  -2.0702100e-02  -3.7363900e-01   1.8449500e-02
  -2.1872600e-02  -3.6569800e-01   3.2255200e-02
  -1.4849900e-02  -3.5962600e-01   5.7292800e-02
  -1.0168100e-02  -3.5892500e-01   6.4546700e-02
   2.7068600e-03  -3.4724800e-01   6.8758600e-02
   2.3774900e-02  -3.3416900e-01   9.0988200e-02
   3.1031700e-02  -3.1992300e-01   1.0994200e-01
   4.2970300e-02  -3.1338300e-01   1.1485600e-01
   5.6547500e-02  -2.7508200e-01   1.1930200e-01
   6.3102000e-02  -2.7554900e-01   1.2889600e-01
   6.3102000e-02  -2.5382900e-01   1.3427700e-01
   5.7717900e-02  -2.1342500e-01   1.3802100e-01
   6.2165600e-02  -1.9894500e-01   1.3076800e-01
   6.1697500e-02  -1.3869000e-01   1.2117400e-01
   5.2568000e-02  -1.1300000e-01   1.2000400e-01
   5.0461200e-02  -7.5398800e-02   1.1415400e-01
   4.8822500e-02  -3.2426100e-02   9.7540100e-02
   5.9590700e-02  -1.2574600e-02   8.0224400e-02
   7.1529200e-02   4.3710300e-02   6.8290600e-02
   6.9656500e-02   6.9166900e-02   6.3376700e-02
   7.0827000e-02   1.2545200e-01   5.7526800e-02
   7.0827000e-02   1.7076000e-01   5.0038900e-02
   7.2231500e-02   1.9458200e-01   4.6997000e-02
   8.2297300e-02   2.3942300e-01   4.1849000e-02
   8.1595100e-02   2.6184300e-01   3.5999100e-02
   7.4338300e-02   3.0201300e-01   2.4299400e-02
   7.7147400e-02   3.2840400e-01   1.5875500e-02
   7.2465600e-02   3.5222600e-01   8.6216200e-03
   6.7315600e-02   3.6553800e-01  -8.9280800e-03
   5.9824700e-02   3.9613300e-01  -2.0861900e-02
   5.4440700e-02   3.9192900e-01  -2.8349700e-02
   6.5677000e-02   4.0057000e-01  -4.2155500e-02
   7.4806500e-02   4.3653700e-01  -4.5899400e-02
   9.4001800e-02   4.2112300e-01  -4.4963500e-02
   1.0968600e-01   4.3863900e-01  -5.6663300e-02
   1.0828100e-01   4.5265100e-01  -6.3917100e-02
   1.1319700e-01   4.5522000e-01  -6.5789100e-02
   1.2092200e-01   4.6339500e-01  -6.2279200e-02
   1.1881500e-01   4.6713100e-01  -5.0579400e-02
   1.1904900e-01   4.6853300e-01  -5.5727300e-02
   1.2256100e-01   4.7810800e-01  -6.9299000e-02
   1.1366500e-01   4.7320400e-01  -6.4151100e-02
   1.0032200e-01   4.7367100e-01  -5.4557300e-02
   9.0958700e-02   4.6292700e-01  -5.4089300e-02
   8.0424600e-02   4.3607000e-01  -5.7599200e-02
   8.4872300e-02   4.3560200e-01  -6.0641200e-02
   8.8617800e-02   4.1294800e-01  -6.5789100e-02
   7.7381500e-02   4.1084600e-01  -6.5789100e-02
   8.2765500e-02   4.0804400e-01  -6.6491100e-02
   8.5340500e-02   3.9940300e-01  -6.9533000e-02
   8.4170100e-02   4.0827700e-01  -6.5555100e-02
   9.2597300e-02   3.9987000e-01  -6.5321100e-02
   8.4872300e-02   3.9893600e-01  -6.6257100e-02
   7.2699700e-02   3.8865900e-01  -5.7365200e-02
   5.7249800e-02   3.7698200e-01  -5.0111400e-02
   3.0329400e-02   3.6063400e-01  -4.7537400e-02
   1.4879500e-02   3.3727900e-01  -4.7771400e-02
  -4.0817400e-03   3.2817100e-01  -4.2623500e-02
  -2.4915700e-02   3.2023000e-01  -3.0221700e-02
  -2.7958900e-02   3.0061200e-01  -2.5541800e-02
  -2.5149800e-02   2.6721500e-01  -2.5307800e-02
  -2.3277100e-02   2.5647200e-01  -3.3965600e-02
  -1.8595300e-02   2.1490000e-01  -2.9753700e-02
  -1.2509000e-02   1.8664100e-01  -2.1095900e-02
  -1.0636200e-02   1.8453900e-01  -1.9925900e-02
   5.7500300e-03   1.4343500e-01  -1.1736000e-02
   2.8456700e-02   1.3923100e-01  -1.8755900e-02
   4.8588400e-02   1.1867900e-01  -2.1797900e-02
   6.9188300e-02   9.5324200e-02  -1.1268000e-02
   8.0190500e-02   9.7192600e-02   4.8776900e-03
   9.9854100e-02   7.7107500e-02   1.2833500e-02
   1.2747700e-01   6.4963100e-02   8.3876300e-03
   1.5486500e-01   7.1735900e-02   1.0727600e-02
   1.7148600e-01   7.1035300e-02   1.0961600e-02
   1.7850800e-01   6.5196600e-02   1.7513500e-02
   1.8717000e-01   8.4814600e-02   2.4065400e-02
   2.0800300e-01   7.7808100e-02   2.2661400e-02
   2.3375300e-01   6.6597900e-02   1.9619400e-02
   2.5107600e-01   7.9910100e-02   1.1429600e-02
   2.6793000e-01   7.0334600e-02   5.8136700e-03
   2.7308000e-01   6.6364300e-02   5.1116800e-03
   2.8033700e-01   7.5239100e-02   5.1116800e-03
   2.8736000e-01   8.4347500e-02   1.3677500e-03
   2.9133900e-01   7.0801700e-02  -1.0800000e-02
   2.9859600e-01   6.0759200e-02  -1.8989900e-02
   2.9321200e-01   5.5621200e-02  -1.4310000e-02
   2.8384900e-01   3.5302600e-02  -7.0561100e-03
   2.8291200e-01   2.8062600e-02  -9.1620700e-03
   2.7986900e-01   2.8529700e-02  -2.2265800e-02
   2.8033700e-01   1.0546600e-02  -2.6477800e-02
   2.7776200e-01   1.2414900e-02  -1.8521900e-02
   2.5880100e-01   2.2924600e-02  -1.2438000e-02
   2.5997100e-01   1.0546600e-02  -1.1268000e-02
   2.6301500e-01   3.0631600e-02  -1.6649900e-02
   2.5294900e-01   9.3788200e-03  -1.8053900e-02
   2.4779900e-01   2.7048300e-04  -8.9280800e-03
   2.3071000e-01   1.5684600e-02  -2.1421900e-03
   2.1736700e-01   8.4446300e-03   4.3176300e-04
   2.0589700e-01   2.7829100e-02   3.2397100e-03
   1.8951000e-01   3.9740000e-02   9.0896100e-03
   1.7452900e-01   4.0907700e-02   6.9836500e-03
   1.4433100e-01   3.5302600e-02   1.3677500e-03
   1.1249500e-01   5.5154100e-02   1.4237500e-02
   8.9554100e-02   3.8572200e-02   2.1959400e-02
   6.7549700e-02   2.6894900e-02   1.3301500e-02
   4.2736200e-02   2.3858700e-02   6.0476700e-03
   3.0329400e-02  -4.4004600e-03   4.6436900e-03
   1.3023200e-03  -1.8179700e-02   1.2833500e-02
  -3.3811100e-02  -5.1343400e-02   2.4767300e-02
  -5.8156500e-02  -7.5632400e-02   3.6935100e-02
  -1.0497400e-01  -1.0342400e-01   4.5827000e-02
  -1.3891700e-01  -1.0856300e-01   4.4891000e-02
  -1.6139000e-01  -1.3939100e-01   5.7526800e-02
  -1.9041700e-01  -1.5246900e-01   7.9522400e-02
  -2.1054900e-01  -1.6484700e-01   1.0198600e-01
  -2.4613000e-01  -1.8096200e-01   1.1953600e-01
  -3.0043900e-01  -1.7045300e-01   1.2866200e-01
  -3.3742500e-01  -1.8306400e-01   1.4363700e-01
  -3.8190200e-01  -1.6975200e-01   1.4878500e-01
  -4.2029300e-01  -2.0034700e-01   1.5206100e-01
  -4.5166100e-01  -1.9824500e-01   1.5931500e-01
  -5.0035200e-01  -1.8353100e-01   1.6095300e-01
  -5.3757200e-01  -1.8306400e-01   1.6025100e-01
  -5.6987600e-01  -1.6601500e-01   1.4948700e-01
  -5.9679700e-01  -1.6414700e-01   1.2655600e-01
  -6.1388500e-01  -1.4686400e-01   1.1555800e-01
  -6.2278100e-01  -1.5036700e-01   1.1953600e-01
  -6.3331500e-01  -1.2561100e-01   1.1228200e-01
  -6.3448500e-01  -1.1253300e-01   9.7774100e-02
  -6.3401700e-01  -1.1673700e-01   8.9116200e-02
  -6.3893300e-01  -9.9220600e-02   8.9818200e-02
  -6.2863300e-01  -1.1930600e-01   8.7946300e-02
  -6.3003800e-01  -1.2701300e-01   7.4140500e-02
  -6.2114200e-01  -1.2070700e-01   6.2674700e-02
  -6.0475600e-01  -1.3004900e-01   5.1910900e-02
  -6.0428800e-01  -1.3261800e-01   4.2083000e-02
  -5.9211500e-01  -1.3401900e-01   2.5703300e-02
  -5.8228300e-01  -1.4849900e-01   2.0697300e-03
  -5.7924000e-01  -1.4826600e-01  -8.6940800e-03
  -5.7011100e-01  -1.4149300e-01  -1.1034000e-02
  -5.6262000e-01  -1.4499600e-01  -2.3201800e-02
  -5.5395800e-01  -1.1813800e-01  -4.5431400e-02
  -5.3242200e-01  -1.3121700e-01  -5.7131200e-02
  -5.2235600e-01  -1.3028200e-01  -6.3215100e-02
  -5.0480000e-01  -1.2748000e-01  -7.5616900e-02
  -4.8373100e-01  -1.3612100e-01  -9.3634600e-02
  -4.7202700e-01  -1.1837100e-01  -1.0697200e-01
  -4.2848600e-01  -1.5083500e-01  -1.1375800e-01
  -4.1139800e-01  -1.4359500e-01  -1.2311800e-01
  -3.8752100e-01  -1.6181100e-01  -1.1937400e-01
  -3.4983200e-01  -1.6881800e-01  -1.2171400e-01
  -3.4655500e-01  -1.6227800e-01  -1.2686200e-01
  -3.2150700e-01  -1.9380700e-01  -1.2592600e-01
  -2.9528900e-01  -1.7489000e-01  -1.2265000e-01
  -2.7843500e-01  -1.9147200e-01  -1.1095000e-01
  -2.4402400e-01  -2.0501700e-01  -1.0650400e-01
  -2.1874200e-01  -2.0244800e-01  -9.9952500e-02
  -1.9954700e-01  -2.1179000e-01  -8.6380700e-02
  -1.5647400e-01  -2.0198100e-01  -7.6552900e-02
  -1.2182900e-01  -2.1109000e-01  -6.9767000e-02
  -8.0863100e-02  -2.3024100e-01  -5.8769200e-02
  -2.7490700e-02  -2.4028300e-01  -4.5899400e-02
  -8.0612600e-03  -2.6574000e-01  -3.2093700e-02
   2.0731800e-02  -2.6714100e-01  -2.3669800e-02
   5.7717900e-02  -2.4962500e-01  -2.6243800e-02
   8.0424600e-02  -2.6807500e-01  -2.4839800e-02
   1.0828100e-01  -2.6176900e-01  -1.8053900e-02
   1.3052000e-01  -2.7041100e-01  -1.8989900e-02
   1.4339500e-01  -2.9610100e-01  -3.6539600e-02
   1.6657000e-01  -2.9353200e-01  -4.3325500e-02
   1.8365800e-01  -2.8535800e-01  -4.3559500e-02
   1.9512900e-01  -2.8442400e-01  -5.2217300e-02
   2.1572800e-01  -2.9446600e-01  -5.3621300e-02
   2.2579400e-01  -3.0334100e-01  -6.0173200e-02
   2.3492400e-01  -3.1501800e-01  -6.2981100e-02
   2.3469000e-01  -3.0941300e-01  -6.1343200e-02
   2.3773300e-01  -3.2669600e-01  -6.4853100e-02
   2.3913700e-01  -3.0030500e-01  -6.9065000e-02
   2.3351900e-01  -2.9096300e-01  -6.7895100e-02
   2.3281700e-01  -2.9096300e-01  -6.1577200e-02
   2.2860300e-01  -2.5546400e-01  -6.8597000e-02
   2.2275100e-01  -2.5523000e-01  -7.4914900e-02
   2.1338800e-01  -2.2416800e-01  -7.3511000e-02
   2.0776900e-01  -2.1576100e-01  -7.2341000e-02
   1.9231900e-01  -1.9497500e-01  -7.1873000e-02
   1.9536300e-01  -1.5293600e-01  -7.1639000e-02
   2.0519400e-01  -1.3775600e-01  -7.3277000e-02
   2.0636500e-01  -9.0112300e-02  -7.5850900e-02
   2.2041000e-01  -6.1386000e-02  -7.6318900e-02
   2.2345300e-01  -5.9517600e-02  -6.9533000e-02
   2.2602800e-01  -5.8017400e-03  -6.1577200e-02
   2.3609400e-01   9.1452800e-03  -5.2685300e-02
   2.3328500e-01   2.1056200e-02  -4.3325500e-02
   2.3913700e-01   6.1693400e-02  -3.1157700e-02
   2.5341700e-01   6.0992800e-02  -1.9457900e-02
   2.5786500e-01   9.8827400e-02  -1.1268000e-02
   2.6863300e-01   1.2241600e-01   3.4737100e-03
   2.7495300e-01   1.3082300e-01   2.0555400e-02
   2.7471900e-01   1.8127000e-01   3.3191200e-02
   2.8759400e-01   1.9972000e-01   3.9275100e-02
   2.8853000e-01   2.3381800e-01   4.6763000e-02
   2.9157400e-01   2.6744800e-01   6.2206700e-02
   2.9438300e-01   2.7048500e-01   8.9584200e-02
   2.8010300e-01   3.0878600e-01   9.7774100e-02
   2.8618900e-01   3.1976300e-01   9.4498100e-02
   2.8853000e-01   3.3120700e-01   1.0409200e-01
   2.9110500e-01   3.5269300e-01   9.9880000e-02
   3.0117100e-01   3.5643000e-01   8.8414200e-02
   2.9859600e-01   3.6834100e-01   8.7244300e-02
   2.9766000e-01   3.7721600e-01   8.8648200e-02
   2.9508500e-01   3.9800100e-01   7.9756400e-02
   2.9227600e-01   4.1411600e-01   6.5950600e-02
   3.0889600e-01   4.2626100e-01   5.4016800e-02
   3.2481400e-01   4.4050700e-01   4.0913100e-02
   3.2785700e-01   4.6923300e-01   3.9509100e-02
   3.3136900e-01   4.8021000e-01   4.5125000e-02
   3.3464600e-01   4.6900000e-01   4.1147100e-02
   3.3839100e-01   4.8114400e-01   3.3191200e-02
   3.4026400e-01   4.5428600e-01   3.0149200e-02
   3.3488000e-01   4.2252400e-01   4.3019000e-02
   3.2926200e-01   4.1551700e-01   5.6122800e-02
   3.3558200e-01   3.8492300e-01   5.7058800e-02
   3.3722100e-01   3.7838300e-01   5.7526800e-02
   3.4916000e-01   3.6600500e-01   5.3782800e-02
   3.5384100e-01   3.3494400e-01   5.8462800e-02
