**************************************************************************************
  	RED ACELEROGRÁFICA DE LA UNIVERSIDAD AUTONOMA METROPOLITANA (RA-UAM)
	   UNIDAD AZCAPOTZALCO. DIVISIÓN CBI-DEPARTAMENTO DE MATERIALES
     Av. San Pablo 420, Col. Nueva el Rosario, Azcapotzalco, C.P. 02128, Ciudad de México
		Área de Estructuras. e-mail: agb@azc.uam.mx
**************************************************************************************
ARCHIVO ESTANDAR DE ACELERACION:
VERSION DEL FORMATO                    : 2.0
NOMBRE DEL ARCHIVO                     : RIDI202406.231
FECHA Y HORA DE CREACION               : 11:30 a. m. 28/06/2024
REF. CATALOGO ACELEROGRAMAS, SMIS 1999 : REGISTRO NO.      /PAG.    


================================================================================
DATOS DE LA ESTACION:
NOMBRE DE LA ESTACION                  : UAM-IZTAPALAPA.
CLAVE DE LA ESTACION                   : RIDI
LOCALIZACION DE LA ESTACION            : AV. FERROCARRIL SAN RAFAEL ATLIXCO 186,
                                       : COL. LEYES DE REFORMA 1 A SECCION, C.P.09310, 
                                       : IZTAPALAPA, CIUDAD DE MEXICO.
                                       : 
                                       : 
COORDENADAS DE LA ESTACION             : 19.35924 LAT. N
                                       : -99.07343 LONG. W
ALTITUD (msnm)                         : 2240
TIPO DE SUELO                          : DEPOSITOS LACUSTRES
                                       : 
                                       : 
INSTITUCION RESPONSABLE                : UNIVERSIDAD AUTONOMA METROPOLITANA
                                       : 

================================================================================
DATOS DEL ACELEROGRAFO: 
MODELO DEL ACELEROGRAFO                : ETNA2 KINEMETRICS
NUMERO DE SERIE DEL ACELEROGRAFO       : 103843
NUMERO DE CANALES                      : 3
ORIENTACION C1-C6 (rumbo;orientacion)  : /N90E/N00E/V
ORIENTACION C7-C12 (rumbo;orientacion) : 
VEL. DE MUESTREO, C1-C6 (muestras/s)   : /200/200/200
VEL. DE MUESTREO, C7-C12 (muestras/s)  : 
ESC. COMPLETA DE SENSORES, C1-C6, (g)  : /2/2/2
ESC. COMPLETA DE SENSORES, C7-C12 (g)  : 
FREC. NAT. DE SENSORES, C1-C6, (Hz)    : /204/216/222   
FREC. NAT. DE SENSORES, C7-C12 (Hz)    : 
AMORTIGUAMIENTO DE SENSORES, C1-C6     : /0.7/0.7/0.7      
AMORTIGUAMIENTO DE SENSORES, C7-C12    : 
INTERVALO DE MUESTREO, C1-C6 (s)       : /0.005/0.005/0.005
INTERVALO DE MUESTREO, C7-C12 (s)      : 
UMBRAL DE DISPARO, C1-C6 (Gal)         : /2/2/2
UMBRAL DE DISPARO, C7-C12 (Gal)        : 
MEMORIA DE PREEVENTO (s)               : 60
TIEMPO DE POSEVENTO (s)                : 80


================================================================================
DATOS DEL SISMO:
FECHA DEL SISMO [GMT]                  : 2024/06/23
HORA EPICENTRO (GMT)                   : 17:16:18
MAGNITUD(ES)                           : /M=5.2
COORDENADAS DEL EPICENTRO              : 16.6200 LAT. N
                                       : -99.4700 LONG. W
PROFUNDIDAD FOCAL (Km)                 : 11.0
FUENTE DE LOS DATOS EPICENTRALES       : SSN
                                       : INSTITUTO DE GEOFISICA, UNAM

================================================================================
DATOS DE ESTE REGISTRO:
HORA DE LA PRIMERA MUESTRA (GMT)       : 17:16:44.000
EXACTITUD DEL TIEMPO (s)               : 
DURACION DEL REGISTRO (s), C1-C6       : /200/200/200
DURACION DEL REGISTRO (s), C7-C12      : 
NUM. TOTAL DE MUESTRAS, C1-C6          : /40000/40000/40000
NUM. TOTAL DE MUESTRAS, C7-C12         : 
ACEL. MAX.(Gal), C1-C6                 : /-1.411/1.340/-0.646
ACEL. MAX., C1-C6, EN LA MUESTRA       : /16602/16459/13241
ACEL. MAX.(Gal), C7-C12                : 
ACEL. MAX., C7-C12,EN LA MUESTRA       : 
UNIDADES DE LOS DATOS                  : Gal (cm/s/s)
FACTOR DE DECIMACION                   : 1
FORMATO DATOS (FORTRAN,16 campos/dato) : 3E16.7


================================================================================
CALIDAD DEL ACELEROGRAMA:
REGISTRO DIGITAL COMPLETO CON TIEMPO ABSOLUTO CORRECTO


================================================================================
COMENTARIOS:














================================================================================
DATOS DE ACELERACION:
---------+---------+---------+---------+---------+---------+---------+---------+
   CANAL-1   	     CANAL-2          CANAL-3
     N90E             N00E              V
---------+---------+---------+---------+---------+---------+---------+---------+
[...]
  -5.1994000e-01   1.2051900e-02   7.2443700e-02
  -5.1526600e-01   8.5391600e-02   5.9373500e-02
  -4.8932600e-01   9.4500600e-02   2.7164500e-02
  -4.6128200e-01   3.0270000e-02   1.8995600e-02
  -4.0683100e-01  -8.7680700e-02   4.3502400e-02
  -3.4864000e-01  -1.7269900e-01   6.9876400e-02
  -3.4840700e-01  -1.2551800e-01   7.2910500e-02
  -4.0683100e-01  -2.5318600e-02   3.2999500e-02
  -4.1617900e-01   1.2159400e-01  -8.7787600e-03
  -3.8252600e-01   1.1809100e-01   1.7241500e-03
  -2.8250400e-01  -1.6443100e-02   4.7937000e-02
  -1.9767200e-01  -1.5961900e-01   6.3808000e-02
  -1.8552000e-01  -1.7923900e-01   2.0162600e-02
  -2.0351500e-01  -1.0076000e-01  -2.4183000e-02
  -2.3342800e-01  -1.4574600e-02  -3.0251400e-02
  -1.9767200e-01   3.8912000e-02  -4.3321700e-02
  -1.4999800e-01  -3.6296200e-02  -5.8725900e-02
  -1.1167200e-01  -1.1337300e-01  -4.5655600e-02
  -7.9889100e-02  -1.9558800e-01  -4.0054100e-02
  -5.8622700e-02  -1.6756000e-01  -6.2460300e-02
  -3.6187900e-02  -9.4220600e-02  -6.7128300e-02
   2.1067800e-02  -2.5552200e-02  -4.7056000e-02
   5.3084200e-02   4.4517600e-02  -5.1957400e-02
   5.1214700e-02   6.7173400e-02  -7.6464200e-02
   9.7019200e-02   5.1524500e-02  -6.8995400e-02
   1.6455800e-01  -4.7040300e-02  -1.9515100e-02
   2.4144400e-01  -7.4133900e-02   9.1928900e-03
   2.5429700e-01  -5.7550700e-02   3.8247300e-03
   2.1363400e-01   7.3479700e-02  -2.0215300e-02
   2.0054700e-01   2.1525400e-01  -5.2190800e-02
   2.4541700e-01   2.2506400e-01  -4.2854900e-02
   3.5174800e-01   1.2416400e-01  -7.1449700e-03
   4.4849900e-01   9.0155400e-03  -3.7643000e-04
   4.5621100e-01   6.2735700e-02  -2.5350000e-02
   4.3938500e-01   2.0264200e-01  -4.9856800e-02
   4.4148800e-01   3.5656200e-01  -5.6625300e-02
   4.5247200e-01   4.2920100e-01  -5.6158500e-02
   5.4314600e-01   3.9860300e-01  -5.8492500e-02
   6.1839600e-01   2.9863700e-01  -5.1490600e-02
   6.1559200e-01   2.5566100e-01  -3.3285500e-02
   5.9899900e-01   3.4114600e-01  -1.7647900e-02
   5.8123900e-01   4.8689100e-01  -2.6983800e-02
   5.9432600e-01   6.4081100e-01  -6.9228800e-02
   6.2774400e-01   6.9102800e-01  -9.9804000e-02
   6.6092900e-01   6.4454800e-01  -7.5297200e-02
   7.2659800e-01   5.4551600e-01  -3.1185000e-02
   7.7170100e-01   5.2122500e-01  -3.6786500e-02
   7.7847800e-01   6.4898600e-01  -8.1365500e-02
   8.0675600e-01   8.1738700e-01  -1.0073800e-01
   7.9623900e-01   9.1198100e-01  -7.9031500e-02
   8.1867400e-01   8.6666900e-01  -5.6625300e-02
   8.9322300e-01   7.7207500e-01  -5.7792300e-02
   9.0607700e-01   7.5549200e-01  -5.2891000e-02
   9.2313700e-01   8.2439400e-01  -3.7486700e-02
   9.5305000e-01   9.2949900e-01  -3.9120500e-02
   9.3622400e-01   1.0177900e+00  -5.4524800e-02
   9.1542500e-01   1.0852900e+00  -6.0359700e-02
   9.2617500e-01   1.1088800e+00  -4.3555100e-02
   9.7922400e-01   1.0472200e+00  -2.1849000e-02
   1.0689600e+00   9.6897100e-01   5.2251200e-03
   1.0944400e+00   9.4654900e-01   2.6697700e-02
   1.0649900e+00   1.0161500e+00   1.0826700e-02
   1.0002600e+00   1.1520900e+00  -1.0179100e-02
   9.3155000e-01   1.2338300e+00   3.5913400e-03
   9.6964200e-01   1.1978700e+00   1.9229000e-02
   1.0124100e+00   1.0960300e+00   1.3860800e-02
   1.0378800e+00   1.0021400e+00   2.4830600e-02
   1.0846200e+00   9.5892800e-01   4.4436000e-02
   1.0381200e+00   1.0451100e+00   4.2568800e-02
   9.8086000e-01   1.2214600e+00   2.8564900e-02
   1.0112400e+00   1.3195500e+00   1.7361800e-02
   1.0514400e+00   1.2656000e+00   2.6697700e-02
   1.0846200e+00   1.1348000e+00   6.4274800e-02
   1.0692000e+00   1.0579600e+00   1.0161800e-01
   9.9371300e-01   1.1186900e+00   1.0208500e-01
   9.4627300e-01   1.2497200e+00   6.8476000e-02
   9.2640800e-01   1.3398700e+00   4.6303200e-02
   9.0187000e-01   1.2915300e+00   5.6105900e-02
   8.8224000e-01   1.1555900e+00   7.1510100e-02
   8.7616400e-01   1.0521200e+00   7.8278700e-02
   9.1589200e-01   9.9910100e-01   7.2910500e-02
   9.2640800e-01   1.0355400e+00   5.9606800e-02
   8.5232700e-01   1.1060700e+00   4.4902800e-02
   8.0021200e-01   1.1728700e+00   2.3430200e-02
   7.6445700e-01   1.1562900e+00   2.7397900e-02
   7.6398900e-01   1.0546900e+00   5.3305100e-02
   8.0488600e-01   9.7387600e-01   4.1635200e-02
   7.9133200e-01   9.5285500e-01   3.3579400e-03
   7.2472800e-01   1.0058700e+00  -1.3913500e-02
   6.3802700e-01   1.0785100e+00  -1.3913500e-02
   5.8264100e-01   1.0976700e+00  -3.2118600e-02
   5.9946700e-01   1.0292300e+00  -5.4758200e-02
   6.4877700e-01   9.0123700e-01  -4.6822600e-02
   6.5041300e-01   8.1061400e-01  -3.8186900e-02
   6.0250500e-01   8.1902200e-01  -5.4291400e-02
   5.2515100e-01   8.5195500e-01  -7.8098000e-02
   4.8472200e-01   9.3230100e-01  -9.3735600e-02
   4.9383600e-01   9.5098700e-01  -1.1450800e-01
   4.8261900e-01   8.4798400e-01  -1.2944600e-01
   5.0692300e-01   7.1928900e-01  -1.1147400e-01
   5.4151000e-01   5.9643400e-01  -9.9804000e-02
   5.0645600e-01   5.8545600e-01  -1.0213800e-01
   4.4662900e-01   6.6533600e-01  -1.1824200e-01
   3.8633600e-01   7.5479100e-01  -1.6375500e-01
   3.4380300e-01   7.3750700e-01  -1.8429400e-01
   3.7862400e-01   6.1231600e-01  -1.5348600e-01
   4.0970500e-01   4.7100900e-01  -1.1777600e-01
   3.7535200e-01   4.2523000e-01  -1.3831500e-01
   3.1389000e-01   4.9973700e-01  -1.7682500e-01
   2.4985700e-01   5.5299000e-01  -1.8126000e-01
   2.4331300e-01   5.5883000e-01  -1.8919500e-01
   2.6902000e-01   4.8946000e-01  -2.0296600e-01
   3.0571000e-01   3.7641500e-01  -1.9456400e-01
   3.2884600e-01   2.5939800e-01  -1.9199600e-01
   3.0384100e-01   2.0240800e-01  -2.1510300e-01
   2.7719900e-01   2.2973500e-01  -2.2163800e-01
   2.6808500e-01   2.7831700e-01  -2.2327100e-01
   2.4121000e-01   2.9536700e-01  -2.5127900e-01
   2.3186200e-01   2.4585100e-01  -2.6715000e-01
   2.6341100e-01   1.3911200e-01  -2.5944800e-01
   2.5780200e-01   1.3078700e-03  -2.5478000e-01
   2.6107400e-01  -1.9479500e-02  -2.8418800e-01
   2.4471500e-01   4.1014100e-02  -3.1989800e-01
   1.9891100e-01   1.2322900e-01  -3.1779800e-01
   2.0779100e-01   1.3070300e-01  -3.2059800e-01
   2.3957400e-01   4.1714800e-02  -3.4510500e-01
   2.8631300e-01  -6.8061200e-02  -3.5887600e-01
   3.1669400e-01  -1.7947200e-01  -3.4347100e-01
   2.8047100e-01  -1.7807100e-01  -3.2946800e-01
   2.4752000e-01  -1.1150400e-01  -3.5070700e-01
   2.3677000e-01  -5.3346500e-02  -3.6727800e-01
   2.3162800e-01  -7.0396800e-02  -3.5327400e-01
   2.8654700e-01  -1.6265500e-01  -3.3997000e-01
   3.2510700e-01  -2.8761300e-01  -3.3576900e-01
   3.2627600e-01  -3.6445600e-01  -3.2760000e-01
   3.0991700e-01  -3.2194700e-01  -3.1943100e-01
   2.4798700e-01  -2.3412700e-01  -3.2806700e-01
   2.3910700e-01  -2.1731000e-01  -3.2690000e-01
   2.6644900e-01  -2.7920500e-01  -2.9492500e-01
   2.4798700e-01  -3.6515700e-01  -2.7228500e-01
   2.5125900e-01  -4.4059900e-01  -2.8628900e-01
   2.4261200e-01  -4.6722500e-01  -3.0029300e-01
   2.0615500e-01  -4.7750200e-01  -2.8022100e-01
   1.9984600e-01  -4.5274400e-01  -2.6201600e-01
   1.8185100e-01  -4.2962100e-01  -2.7858700e-01
   1.9704100e-01  -4.3289100e-01  -3.1056200e-01
   2.2485100e-01  -4.8287400e-01  -3.0986200e-01
   2.0148200e-01  -5.5948400e-01  -2.7882000e-01
   1.7507400e-01  -6.1880900e-01  -2.5221300e-01
   1.4095400e-01  -5.6532300e-01  -2.3937600e-01
   1.0893800e-01  -4.4480300e-01  -2.4147700e-01
   1.0099200e-01  -3.9295100e-01  -2.3657500e-01
   8.0193000e-02  -4.0019200e-01  -1.9526400e-01
   7.6687600e-02  -4.9945700e-01  -1.4951800e-01
   1.0169300e-01  -5.6625700e-01  -1.3061200e-01
   9.2345300e-02  -5.9031400e-01  -9.7003200e-02
   6.8741900e-02  -5.4850600e-01  -5.1257200e-02
   5.1764300e-03  -4.7399900e-01  -3.3985700e-02
  -7.5682600e-02  -4.5858300e-01  -2.5583400e-02
  -9.2275000e-02  -5.3239000e-01   5.4585200e-03
  -7.9188000e-02  -6.9705400e-01   4.1401800e-02
  -4.7872700e-02  -8.1337000e-01   7.7111700e-02
  -5.2079200e-02  -8.2738400e-01   1.1095400e-01
  -1.5093300e-01  -6.8701100e-01   1.0582000e-01
  -2.4674800e-01  -5.3425900e-01   7.4077500e-02
  -2.7011800e-01  -5.0459600e-01   8.6914400e-02
  -2.4908500e-01  -6.0549600e-01   1.4153000e-01
  -2.3062300e-01  -7.4096400e-01   1.6883700e-01
  -2.6264000e-01  -7.3932900e-01   1.7934000e-01
  -3.1568900e-01  -6.5874900e-01   1.9847900e-01
  -3.6196100e-01  -5.7046100e-01   2.1925100e-01
  -3.8533100e-01  -5.3449200e-01   2.3022100e-01
  -3.9935200e-01  -5.8377500e-01   2.3512200e-01
  -4.5193400e-01  -6.6482200e-01   2.6383000e-01
  -4.8324900e-01  -7.2508200e-01   2.9790600e-01
  -4.7740700e-01  -7.5240900e-01   3.2101300e-01
  -5.0030900e-01  -7.3349000e-01   3.2964800e-01
  -5.6060300e-01  -6.8794500e-01   3.4061800e-01
  -6.2346700e-01  -6.4520200e-01   3.6909300e-01
  -6.6833700e-01  -6.6248600e-01   3.8939800e-01
  -6.7347800e-01  -7.5591300e-01   4.1483900e-01
  -6.5595100e-01  -8.1010000e-01   4.3747800e-01
  -6.8633200e-01  -8.2761700e-01   4.3677800e-01
  -7.5667400e-01  -7.9468500e-01   4.2907600e-01
  -8.5202300e-01  -7.3162200e-01   4.2184100e-01
  -9.2540300e-01  -6.8514200e-01   4.0503600e-01
  -9.4036000e-01  -6.9238300e-01   3.8052900e-01
  -9.0460400e-01  -7.9118100e-01   3.8333000e-01
  -8.5506100e-01  -9.1964200e-01   3.9990100e-01
  -8.8030000e-01  -9.6355300e-01   3.9780100e-01
  -9.6980600e-01  -8.5237500e-01   3.7982900e-01
  -1.0646900e+00  -7.1830900e-01   3.4948700e-01
  -1.1177400e+00  -6.8887900e-01   3.2708100e-01
  -1.1039500e+00  -7.8417400e-01   3.3758400e-01
  -1.0703000e+00  -9.2057700e-01   3.5999000e-01
  -1.0992700e+00  -9.8831100e-01   3.6255700e-01
  -1.1696200e+00  -9.0305900e-01   3.5322200e-01
  -1.2488400e+00  -7.7529900e-01   3.4131800e-01
  -1.3245600e+00  -7.1737400e-01   3.2474700e-01
  -1.3423200e+00  -7.2788500e-01   3.1191000e-01
  -1.3140400e+00  -8.3415700e-01   3.3991800e-01
  -1.2708100e+00  -9.6355300e-01   3.8589700e-01
  -1.2598200e+00  -1.0394600e+00   3.8729800e-01
  -1.2874000e+00  -9.5724600e-01   3.4225200e-01
  -1.3320400e+00  -8.2668300e-01   3.0210700e-01
  -1.3540000e+00  -7.7062700e-01   3.1587800e-01
  -1.3390500e+00  -8.5611200e-01   3.5625600e-01
  -1.3063300e+00  -9.6822400e-01   3.6022300e-01
  -1.2792200e+00  -9.7896800e-01   3.2147900e-01
  -1.3028200e+00  -9.3949500e-01   3.0327400e-01
  -1.3512000e+00  -8.4513500e-01   2.9954000e-01
  -1.3949000e+00  -8.1687300e-01   3.0117400e-01
  -1.4049500e+00  -8.0472800e-01   3.0327400e-01
  -1.4096200e+00  -7.9865500e-01   2.7806700e-01
  -1.3935000e+00  -8.2551500e-01   2.5332700e-01
  -1.3526000e+00  -8.9885500e-01   2.5892900e-01
  -1.3430200e+00  -9.3809400e-01   3.0070700e-01
  -1.3575100e+00  -8.8741000e-01   2.9907300e-01
  -1.3949000e+00  -7.9188200e-01   2.4329100e-01
  -1.4107900e+00  -6.8117200e-01   2.1808400e-01
  -1.3586800e+00  -7.2811800e-01   2.3045400e-01
  -1.2523400e+00  -8.3859500e-01   2.3442200e-01
  -1.1915800e+00  -9.6168400e-01   2.1855100e-01
  -1.1887800e+00  -9.9905500e-01   2.0571400e-01
  -1.2042000e+00  -8.9535100e-01   1.7794000e-01
  -1.2149500e+00  -7.6852500e-01   1.4479700e-01
  -1.1686800e+00  -7.0476200e-01   1.2775900e-01
  -1.0941300e+00  -7.6548900e-01   1.0278500e-01
  -1.0359400e+00  -8.2154500e-01   8.4813800e-02
  -1.0172500e+00  -8.4583500e-01   9.2282600e-02
  -1.0326700e+00  -7.8954600e-01   8.3413400e-02
  -1.0728700e+00  -6.5407800e-01   2.4597200e-02
  -1.0819800e+00  -5.1580700e-01  -3.9120500e-02
  -1.0289300e+00  -4.9618700e-01  -4.5188800e-02
  -9.5040900e-01  -6.1694100e-01  -1.5080500e-02
  -8.6417500e-01  -7.3279000e-01   2.1909500e-03
  -8.1439700e-01  -7.5054100e-01  -6.6781800e-03
  -8.2117500e-01  -6.4520200e-01  -3.3752300e-02
  -8.4501200e-01  -5.0739900e-01  -4.2388100e-02
  -8.2958800e-01  -4.2588400e-01  -2.7450600e-02
  -7.6649000e-01  -4.5274400e-01   3.2376400e-04
  -7.0128800e-01  -5.0576400e-01   1.6194800e-02
  -6.4099500e-01  -5.0833300e-01  -8.5453600e-03
  -5.9939700e-01  -4.8147300e-01  -2.2782600e-02
  -5.9075000e-01  -3.8757900e-01  -7.3783700e-03
  -5.8327200e-01  -2.8177400e-01  -1.5080500e-02
  -5.8794600e-01  -2.1006900e-01  -5.6391900e-02
  -5.7579300e-01  -1.7036300e-01  -7.7397800e-02
  -5.1035800e-01  -2.3459400e-01  -4.9390000e-02
  -4.4095000e-01  -3.0069300e-01  -9.9457500e-03
  -4.1547700e-01  -2.8317500e-01  -5.9779800e-03
  -4.4515700e-01  -1.7526800e-01  -3.3052100e-02
  -4.9820600e-01  -1.4341000e-02  -4.8923200e-02
  -5.0101000e-01   7.3479700e-02  -3.6553100e-02
  -4.4165100e-01   3.2605700e-02  -6.6781800e-03
  -3.5798800e-01  -8.2075100e-02   8.9594900e-03
  -3.0143300e-01  -1.4233500e-01   1.3160700e-02
  -3.1592300e-01  -8.0206600e-02   2.4130400e-02
  -3.4700400e-01   7.2078300e-02   1.9462400e-02
  -3.8229300e-01   2.0357600e-01   1.3627400e-02
  -3.8042300e-01   2.7387900e-01   2.8098100e-02
  -3.2433600e-01   2.3230400e-01   4.3502400e-02
  -2.9442300e-01   1.5662900e-01   7.4077500e-02
  -2.9161800e-01   1.6176800e-01   9.4616500e-02
  -3.0353700e-01   2.7458000e-01   6.3107800e-02
  -3.5939000e-01   4.5606100e-01   2.5063900e-02
  -3.7341200e-01   5.6396800e-01   2.9498500e-02
  -3.2433600e-01   5.5462500e-01   5.2371500e-02
  -3.1078100e-01   4.5279100e-01   5.8206500e-02
  -2.7105300e-01   3.9159600e-01   6.7542400e-02
  -2.4815100e-01   4.0514300e-01   8.6681000e-02
  -2.5843300e-01   4.7357800e-01   9.8584300e-02
  -2.5936800e-01   5.5696100e-01   9.9284500e-02
  -2.9909700e-01   6.1231600e-01   1.0068500e-01
  -3.1405300e-01   6.5085500e-01   1.0208500e-01
  -2.7923200e-01   6.2656400e-01   1.1305500e-01
  -2.4137300e-01   5.5042100e-01   1.3266000e-01
  -2.0678600e-01   5.4855300e-01   1.1889000e-01
  -2.1403100e-01   6.5856200e-01   9.9051100e-02
  -2.6427600e-01   7.7884900e-01   1.0908700e-01
  -2.4815100e-01   8.0921200e-01   1.2939300e-01
  -2.0047700e-01   7.3727400e-01   1.4573100e-01
  -1.2662800e-01   6.9546600e-01   1.6416900e-01
  -7.3345600e-02   6.8939300e-01   1.9077700e-01
  -1.2639500e-01   7.5035400e-01   1.9824500e-01
  -1.6331900e-01   8.2766400e-01   1.9264400e-01
  -1.7383500e-01   8.9679900e-01   2.1458300e-01
  -1.7033000e-01   9.2996600e-01   2.3232100e-01
  -9.5313100e-02   8.7157400e-01   2.1691700e-01
  -3.9377300e-03   8.2112400e-01   2.1505000e-01
   4.1633100e-02   7.6810500e-01   2.3862300e-01
   6.6638600e-02   8.1365000e-01   2.3185500e-01
   4.4437500e-02   9.1805400e-01   1.9381100e-01
   4.2567900e-02   9.7224100e-01   1.7257100e-01
   1.0660100e-01   9.2062300e-01   1.8797600e-01
   1.6035100e-01   8.2042300e-01   2.1738400e-01
   1.9236700e-01   7.7861500e-01   2.0944800e-01
   1.6806300e-01   7.7814800e-01   1.9474400e-01
   1.4469300e-01   8.3350300e-01   2.0524700e-01
   1.7811200e-01   8.9119400e-01   2.1505000e-01
   2.1690600e-01   8.9890100e-01   2.0174600e-01
   2.5359600e-01   8.6456700e-01   1.7583900e-01
   2.9916700e-01   8.2416000e-01   1.7443900e-01
   3.4614000e-01   7.6179800e-01   1.9054300e-01
   4.1578100e-01   7.1298300e-01   1.9847900e-01
   4.4592800e-01   7.2629600e-01   1.6346900e-01
   4.1297700e-01   8.0500800e-01   1.0745300e-01
   3.9778700e-01   8.7998300e-01   7.6878300e-02
   4.1087400e-01   8.4518100e-01   7.4544300e-02
   4.7747700e-01   7.0784500e-01   6.5208400e-02
   5.5950500e-01   5.8405500e-01   1.6428200e-02
   5.6604800e-01   5.8265300e-01  -1.8814900e-02
   5.0996100e-01   6.4338000e-01  -1.9515100e-02
   4.6252100e-01   7.1695400e-01  -4.8456400e-02
