**************************************************************************************
  	RED ACELEROGRÁFICA DE LA UNIVERSIDAD AUTONOMA METROPOLITANA (RA-UAM)
	   UNIDAD AZCAPOTZALCO. DIVISIÓN CBI-DEPARTAMENTO DE MATERIALES
     Av. San Pablo 420, Col. Nueva el Rosario, Azcapotzalco, C.P. 02128, Ciudad de México
		Área de Estructuras. e-mail: agb@azc.uam.mx
**************************************************************************************
ARCHIVO ESTANDAR DE ACELERACION:
VERSION DEL FORMATO                    : 2.0
NOMBRE DEL ARCHIVO                     : RIDI202406.061
FECHA Y HORA DE CREACION               : 11:30 a. m. 13/06/2024
REF. CATALOGO ACELEROGRAMAS, SMIS 1999 : REGISTRO NO.      /PAG.    


================================================================================
DATOS DE LA ESTACION:
NOMBRE DE LA ESTACION                  : UAM-IZTAPALAPA.
CLAVE DE LA ESTACION                   : RIDI
LOCALIZACION DE LA ESTACION            : AV. FERROCARRIL SAN RAFAEL ATLIXCO 186,
                                       : COL. LEYES DE REFORMA 1 A SECCION, C.P.09310, 
                                       : IZTAPALAPA, CIUDAD DE MEXICO.
                                       : 
                                       : 
COORDENADAS DE LA ESTACION             : 19.35924 LAT. N
                                       : -99.07343 LONG. W
ALTITUD (msnm)                         : 2240
TIPO DE SUELO                          : DEPOSITOS LACUSTRES
                                       : 
                                       : 
INSTITUCION RESPONSABLE                : UNIVERSIDAD AUTONOMA METROPOLITANA
                                       : 

================================================================================
DATOS DEL ACELEROGRAFO: 
MODELO DEL ACELEROGRAFO                : ETNA2 KINEMETRICS
NUMERO DE SERIE DEL ACELEROGRAFO       : 103843
NUMERO DE CANALES                      : 3
ORIENTACION C1-C6 (rumbo;orientacion)  : /N90E/N00E/V
ORIENTACION C7-C12 (rumbo;orientacion) : 
VEL. DE MUESTREO, C1-C6 (muestras/s)   : /200/200/200
VEL. DE MUESTREO, C7-C12 (muestras/s)  : 
ESC. COMPLETA DE SENSORES, C1-C6, (g)  : /2/2/2
ESC. COMPLETA DE SENSORES, C7-C12 (g)  : 
FREC. NAT. DE SENSORES, C1-C6, (Hz)    : /204/216/222   
FREC. NAT. DE SENSORES, C7-C12 (Hz)    : 
AMORTIGUAMIENTO DE SENSORES, C1-C6     : /0.7/0.7/0.7      
AMORTIGUAMIENTO DE SENSORES, C7-C12    : 
INTERVALO DE MUESTREO, C1-C6 (s)       : /0.005/0.005/0.005
INTERVALO DE MUESTREO, C7-C12 (s)      : 
UMBRAL DE DISPARO, C1-C6 (Gal)         : /2/2/2
UMBRAL DE DISPARO, C7-C12 (Gal)        : 
MEMORIA DE PREEVENTO (s)               : 60
TIEMPO DE POSEVENTO (s)                : 80


================================================================================
DATOS DEL SISMO:
FECHA DEL SISMO [GMT]                  : 2024/06/06
HORA EPICENTRO (GMT)                   : 02:45:48
MAGNITUD(ES)                           : /M=1.7
COORDENADAS DEL EPICENTRO              : 19.3300 LAT. N
                                       : -99.0500 LONG. W
PROFUNDIDAD FOCAL (Km)                 : 1.0
FUENTE DE LOS DATOS EPICENTRALES       : SSN
                                       : INSTITUTO DE GEOFISICA, UNAM

================================================================================
DATOS DE ESTE REGISTRO:
HORA DE LA PRIMERA MUESTRA (GMT)       : 02:44:49.000
EXACTITUD DEL TIEMPO (s)               : 
DURACION DEL REGISTRO (s), C1-C6       : /145/145/145
DURACION DEL REGISTRO (s), C7-C12      : 
NUM. TOTAL DE MUESTRAS, C1-C6          : /29000/29000/29000
NUM. TOTAL DE MUESTRAS, C7-C12         : 
ACEL. MAX.(Gal), C1-C6                 : /-0.979/1.304/-1.190
ACEL. MAX., C1-C6, EN LA MUESTRA       : /12372/12354/12311
ACEL. MAX.(Gal), C7-C12                : 
ACEL. MAX., C7-C12,EN LA MUESTRA       : 
UNIDADES DE LOS DATOS                  : Gal (cm/s/s)
FACTOR DE DECIMACION                   : 1
FORMATO DATOS (FORTRAN,16 campos/dato) : 3E16.7


================================================================================
CALIDAD DEL ACELEROGRAMA:
REGISTRO DIGITAL COMPLETO CON TIEMPO ABSOLUTO CORRECTO


================================================================================
COMENTARIOS:














================================================================================
DATOS DE ACELERACION:
---------+---------+---------+---------+---------+---------+---------+---------+
   CANAL-1   	     CANAL-2          CANAL-3
     N90E             N00E              V
---------+---------+---------+---------+---------+---------+---------+---------+
[...]
  -5.2696600e-02   1.8901200e-02   1.0364400e-01
  -2.3951900e-02   2.3572600e-02   1.5219100e-01
  -5.8225900e-04   5.9074600e-02   1.4518900e-01
  -1.0397500e-02   1.0018200e-01   1.1251400e-01
  -2.5354100e-02   4.1090000e-02   9.2441300e-02
  -1.7875800e-02  -4.7665000e-02   6.2332900e-02
  -9.2290300e-03  -1.2894600e-01   2.4522500e-02
   3.0499400e-02  -8.5035600e-02   5.3838400e-03
   3.1901600e-02   4.5994900e-02   2.5830600e-03
   4.3253700e-03   1.2610800e-01  -1.2821200e-02
   9.7003900e-03   8.0796200e-02  -4.2696100e-02
   1.4608000e-02  -5.3037000e-02  -6.6035900e-02
  -1.1566000e-02  -1.3431800e-01  -8.3074000e-02
  -4.8256400e-02  -1.0161900e-01  -8.9842500e-02
  -9.8501100e-02   1.7733400e-02  -7.5371900e-02
  -1.1906600e-01   7.4957000e-02  -3.2893400e-02
  -5.5033600e-02   6.4213000e-02   2.1488300e-02
  -1.0864900e-02   3.0346000e-02   5.4397400e-02
  -1.9844400e-03  -2.0571400e-02   6.5833900e-02
  -1.2734500e-02  -5.6774100e-02   5.5797800e-02
  -4.3582400e-02  -4.9300000e-02  -1.8656200e-02
  -2.6756300e-02   4.4126300e-02  -8.9609100e-02
   1.5210100e-03   1.0275100e-01  -7.0237100e-02
  -1.2267100e-02   1.0111600e-01  -9.1009500e-02
  -1.7174700e-02   6.1643800e-02  -2.0234000e-01
   3.7042900e-02   2.2404700e-02  -3.0176800e-01
   8.7755100e-02   3.7352900e-02  -3.4307900e-01
   8.9157200e-02   6.4446600e-02  -3.3911200e-01
   3.8678800e-02   1.0158400e-01  -2.8753100e-01
  -2.7924800e-02   6.9818600e-02  -1.9673900e-01
  -2.6055200e-02  -1.9170000e-02  -1.5449400e-01
   1.7412400e-02  -7.3357300e-02  -2.0747500e-01
   5.9477800e-02  -7.8028600e-02  -2.5415500e-01
   7.0227800e-02  -7.6160100e-02  -2.1097600e-01
   3.2602700e-02  -6.4948900e-02  -1.4655800e-01
  -2.9326900e-02  -5.1168500e-02  -9.7077900e-02
  -7.0223800e-02  -1.5900100e-02  -4.3162900e-02
  -8.5647800e-02  -7.4917100e-03  -2.4957900e-02
  -6.6251000e-02  -5.5372700e-02  -2.7525300e-02
  -1.2968200e-02  -1.0138500e-01   2.9890600e-02
   2.8863500e-02  -1.1937000e-01   8.4739200e-02
   3.6341800e-02  -6.0277600e-02   2.2421900e-02
  -5.4898900e-03   4.0856400e-02  -1.1271600e-01
  -3.5403100e-02   1.2540700e-01  -2.0840900e-01
  -5.3164000e-02   1.0929100e-01  -2.4715300e-01
  -3.3533500e-02   3.4083000e-02  -2.9850000e-01
   3.8678800e-02  -4.1358800e-02  -4.0072900e-01
   7.5602800e-02  -5.7007700e-02  -5.0365700e-01
   3.6809200e-02  -3.5210900e-03  -5.5873900e-01
  -2.3718200e-02   5.3469000e-02  -6.3576000e-01
  -4.8022700e-02   4.6228400e-02  -6.8874200e-01
  -4.8490100e-02  -7.5692900e-02  -6.4182900e-01
   1.2037400e-02  -1.9200900e-01  -5.7881100e-01
   5.7608200e-02  -2.8029700e-01  -4.9572200e-01
   6.5787600e-02  -2.7539200e-01  -3.9466000e-01
   7.8640900e-02  -2.2751100e-01  -3.4214600e-01
   4.4053800e-02  -2.0905900e-01  -2.6885900e-01
   1.0868900e-02  -1.9551200e-01  -8.4707800e-02
  -1.6239900e-02  -2.7095400e-01   1.5662600e-01
  -8.8919600e-02  -2.8309900e-01   3.7905400e-01
  -1.6066400e-01  -2.2774400e-01   5.8934600e-01
  -1.4267000e-01  -1.6491500e-01   7.9030100e-01
  -1.0668100e-01  -1.0699100e-01   9.4224300e-01
  -9.5930500e-02  -9.7181000e-02   1.0325700e+00
  -9.7800000e-02  -1.0558900e-01   1.1100600e+00
  -1.3636000e-01  -1.4015700e-01   1.1721400e+00
  -9.1957600e-02  -9.1341800e-02   1.1390000e+00
  -2.2549700e-02  -9.5186100e-04   1.0724800e+00
  -2.0680200e-02   1.6067600e-01   1.0012900e+00
  -1.0631200e-02   3.2674100e-01   8.1107400e-01
   8.2982100e-03   4.4282300e-01   5.3006200e-01
   6.9760400e-02   5.5306600e-01   2.7192400e-01
   1.6581000e-01   5.2457100e-01   7.9137600e-02
   2.0577200e-01   5.0798800e-01  -7.8406000e-02
   2.2563600e-01   4.9677700e-01  -1.8670300e-01
   3.0509300e-01   4.7762500e-01  -2.5135400e-01
   3.5253300e-01   4.6197600e-01  -3.3491000e-01
   3.7356600e-01   3.5149900e-01  -4.5301000e-01
   4.0114200e-01   2.1719900e-01  -5.8277900e-01
   3.4341900e-01   5.8841000e-02  -7.2398500e-01
   2.6933700e-01  -3.2716800e-02  -8.7476000e-01
   1.9595700e-01  -5.0701400e-02  -9.7208700e-01
   1.3098900e-01  -1.1462300e-02  -9.5364800e-01
   1.3706500e-01  -2.5868200e-03  -8.3134800e-01
   1.4898400e-01  -6.9386700e-02  -7.1885000e-01
   1.3332600e-01  -8.9239800e-02  -6.3716100e-01
   1.1463000e-01  -1.3525200e-01  -5.1602700e-01
   1.0434800e-01  -1.2591000e-01  -3.5474900e-01
   9.2896400e-02  -1.2100500e-01  -1.8833600e-01
   8.8456100e-02  -1.2520900e-01   2.0087900e-02
   6.2749500e-02  -8.8071900e-02   2.6095500e-01
   3.8912500e-02  -2.5242700e-02   3.9375800e-01
   6.1113600e-02   9.5277300e-02   4.2876800e-01
   6.8358200e-02   1.1326200e-01   5.2096000e-01
   1.1159200e-01   1.2867700e-01   6.6823400e-01
   1.2771700e-01   1.5670500e-01   7.6952900e-01
   7.7005000e-02   2.6344500e-01   8.4888400e-01
   4.5689700e-02   3.6621400e-01   8.9346300e-01
   3.7744000e-02   3.4846300e-01   8.4445000e-01
   1.0014100e-01   3.3514900e-01   7.6322700e-01
   1.4804900e-01   2.5760600e-01   7.0627800e-01
   8.3548500e-02   3.2160300e-01   6.4816200e-01
  -8.8218500e-02   4.5917300e-01   5.5433600e-01
  -2.2983900e-01   5.6894900e-01   4.5420800e-01
  -3.0976300e-01   5.7642300e-01   3.4777900e-01
  -3.5486600e-01   4.2577300e-01   1.7973200e-01
  -3.4084400e-01   2.6951700e-01   2.1254900e-02
  -3.4364900e-01   5.6038200e-02  -1.3068700e-01
  -3.2448600e-01  -4.0658100e-02  -4.1519900e-01
  -3.3827400e-01  -6.2613200e-02  -7.4219000e-01
  -3.5206200e-01  -8.3867700e-02  -8.7732700e-01
  -3.3173000e-01  -1.8219900e-01  -8.1290900e-01
  -3.5112700e-01  -3.5737300e-01  -7.7906700e-01
  -3.6187700e-01  -4.2674200e-01  -8.3601600e-01
  -3.7309500e-01  -3.9708000e-01  -8.4885300e-01
  -3.5767100e-01  -2.6511500e-01  -7.2958600e-01
  -2.9807800e-01  -2.1162800e-01  -5.1602700e-01
  -2.4152300e-01  -1.8336700e-01  -2.8566300e-01
  -2.6933300e-01  -1.4763100e-01  -5.3199100e-02
  -3.2471900e-01  -1.2193900e-01   8.1938400e-02
  -2.9784400e-01  -9.3443900e-02   8.2405200e-02
  -1.7632200e-01  -1.6748400e-01   1.1951500e-01
  -1.6473600e-02  -2.1723400e-01   3.1066800e-01
   1.9749300e-02  -2.3218200e-01   5.6460500e-01
  -3.2832400e-02  -1.7752800e-01   8.0523900e-01
  -8.7283700e-02  -1.4739800e-01   1.0129600e+00
  -7.3729300e-02  -2.0018400e-01   1.0491400e+00
   4.8260300e-02  -2.5857500e-01   8.7945900e-01
   1.4431000e-01  -2.8099700e-01   6.6566700e-01
   1.1276100e-01  -1.8803800e-01   4.8665000e-01
  -3.9843300e-02  -7.8962900e-02   3.7461900e-01
  -2.0833900e-01   1.9134800e-02   4.0239400e-01
  -2.6559400e-01   4.5294200e-02   5.3589700e-01
  -1.7655600e-01   4.2024300e-02   5.8957900e-01
  -5.6202000e-02   6.6315100e-02   4.4323800e-01
   1.7178700e-02   9.3175200e-02   1.5802600e-01
  -6.6583700e-03   1.4129000e-01  -2.0864200e-01
  -1.0761500e-01   1.6231100e-01  -5.8044500e-01
  -1.8894200e-01   1.6254400e-01  -8.0614100e-01
  -2.5881700e-01   9.4576600e-02  -8.5328700e-01
  -2.7307200e-01   3.4783700e-02  -8.3298200e-01
  -2.0179500e-01   5.9775300e-02  -8.0124000e-01
  -1.0784900e-01   7.0519300e-02  -7.9727200e-01
  -3.1529200e-03  -1.8002200e-02  -8.4371800e-01
   1.2281000e-01  -2.3288300e-01  -9.3170900e-01
   2.5975600e-01  -4.6971900e-01  -9.9939400e-01
   3.9109300e-01  -6.7292100e-01  -9.2844100e-01
   4.4577800e-01  -7.5700500e-01  -7.7299800e-01
   4.5793000e-01  -6.8530000e-01  -5.9024800e-01
   5.5234400e-01  -5.6711500e-01  -2.8122900e-01
   6.9022500e-01  -4.7812700e-01   1.1298000e-01
   7.5986600e-01  -4.3678600e-01   3.9936000e-01
   7.2411100e-01  -3.7208800e-01   6.0848400e-01
   5.7010500e-01  -2.5600600e-01   8.4071500e-01
   3.6047900e-01  -1.2030400e-01   9.8425500e-01
   2.3451700e-01   2.2404700e-02   1.0251000e+00
   2.2890800e-01   1.6441300e-01   1.0801800e+00
   2.7447900e-01   2.8002800e-01   1.1446000e+00
   2.4713600e-01   3.5827200e-01   1.1793800e+00
   8.1445200e-02   3.5453500e-01   1.1775100e+00
  -1.1088700e-01   3.1342800e-01   1.1095900e+00
  -2.2703400e-01   2.4359200e-01   9.4271000e-01
  -2.2119200e-01   1.9851300e-01   6.2342200e-01
  -1.4968100e-01   2.9053800e-01   2.1310800e-01
  -1.4313700e-01   3.8700100e-01  -5.8567200e-02
  -2.0833900e-01   4.4025400e-01  -1.2368500e-01
  -3.1724100e-01   4.0194900e-01  -1.4912600e-01
  -4.0347500e-01   3.1342800e-01  -2.6582500e-01
  -3.6725200e-01   2.5527000e-01  -5.0132300e-01
  -2.1768600e-01   2.0178300e-01  -7.9143700e-01
  -8.0506500e-02   1.9197400e-01  -9.8469000e-01
   3.6242800e-03   1.2470700e-01  -9.8189000e-01
   4.7792900e-02   1.3295700e-02  -8.6472400e-01
   3.6575500e-02  -1.0372100e-01  -7.9120300e-01
   4.4988600e-02  -1.7542600e-01  -8.3088100e-01
   1.2327700e-01  -2.1536500e-01  -9.8865800e-01
   2.9224000e-01  -2.7749400e-01  -1.1900800e+00
   5.2102900e-01  -3.9964900e-01  -1.1781800e+00
   6.7293100e-01  -6.3274700e-01  -8.3484900e-01
   6.6685500e-01  -7.6611400e-01  -4.1706600e-01
   5.3224600e-01  -8.2287000e-01  -8.6808400e-02
   4.0488100e-01  -7.7242000e-01   1.4612300e-01
   3.0439200e-01  -6.7151900e-01   2.2454500e-01
   1.8287000e-01  -5.9934800e-01   1.9326900e-01
  -1.4837800e-02  -4.7789300e-01   2.3878200e-01
  -3.1373600e-01  -3.6765000e-01   4.5350800e-01
  -5.8155200e-01  -1.5884200e-01   6.8924000e-01
  -7.7528600e-01   7.0052200e-02   7.9683600e-01
  -8.0286300e-01   2.7535700e-01   7.7653100e-01
  -6.8928600e-01   4.4796200e-01   6.9670900e-01
  -6.0562300e-01   5.7689000e-01   5.8467800e-01
  -6.1520400e-01   7.0511800e-01   5.0252200e-01
  -7.2737900e-01   7.7425300e-01   4.8525000e-01
  -8.0520000e-01   7.4832700e-01   3.9936000e-01
  -6.7409600e-01   5.9067000e-01   1.6432800e-01
  -3.2074700e-01   4.1829900e-01  -1.0898100e-01
   4.7091800e-02   3.0128200e-01  -2.9289900e-01
   2.4830500e-01   2.5083200e-01  -3.7995600e-01
   2.6793500e-01   1.8660200e-01  -4.2476900e-01
   2.1348400e-01  -1.7067900e-02  -4.3597200e-01
   2.0296700e-01  -2.8636900e-01  -3.9652700e-01
   2.0834200e-01  -4.7462300e-01  -3.1903900e-01
   1.5809800e-01  -4.3888800e-01  -1.7573300e-01
  -1.7174700e-02  -2.8356700e-01   7.9512200e-03
  -2.4292600e-01  -1.9551200e-01   9.4075100e-02
  -3.4692100e-01  -2.9944900e-01   4.6928700e-02
  -2.7517600e-01  -5.9093900e-01  -1.3288000e-02
  -8.7751100e-02  -8.7518900e-01  -2.6358300e-02
   7.1162600e-02  -1.0337800e+00  -3.6627800e-02
   1.4431000e-01  -9.1115800e-01  -5.2732300e-02
   1.3215700e-01  -5.6594800e-01  -5.8567200e-02
   9.3597500e-02  -1.0208600e-01  -5.0865100e-02
   7.1863700e-02   3.6901600e-01   4.2960900e-02
   8.7988700e-02   6.2407000e-01   2.5441900e-01
   2.0974500e-01   6.8246200e-01   4.3203500e-01
   3.8455000e-01   6.7568800e-01   4.0962900e-01
   5.4673500e-01   8.0181400e-01   2.4625100e-01
   5.9113700e-01   1.0349100e+00   1.2651700e-01
   4.6307200e-01   1.2397500e+00   4.8795900e-02
   2.4363100e-01   1.3035100e+00  -3.8495000e-02
   5.5738600e-02   1.1526300e+00  -1.5729500e-01
   1.3439500e-02   8.6441000e-01  -3.2697500e-01
   1.0995600e-01   5.5773800e-01  -4.9432100e-01
   2.6466300e-01   3.4122200e-01  -5.7391000e-01
   3.4528900e-01   1.5413600e-01  -5.3026500e-01
   3.3360400e-01   4.5060600e-02  -4.8031700e-01
   2.9270700e-01  -4.5562900e-02  -4.8381800e-01
   2.6396200e-01  -1.3992400e-01  -5.0179000e-01
   2.3825600e-01  -1.8710400e-01  -4.8521900e-01
   1.6557600e-01  -1.7472500e-01  -4.1940000e-01
   9.6869200e-02  -3.7621700e-02  -3.3724400e-01
   2.2320000e-02   2.8711000e-02  -2.5999000e-01
  -7.7468400e-02  -1.9870700e-02  -1.9253800e-01
  -2.1721900e-01  -1.6071100e-01  -1.3278800e-01
  -4.2591000e-01  -2.8146400e-01  -1.1971700e-01
  -6.5913900e-01  -2.9921500e-01  -1.2205100e-01
  -8.7367300e-01  -2.8660300e-01  -8.7275200e-02
  -9.7930400e-01  -3.0201800e-01  -4.1062400e-02
  -9.2835800e-01  -4.2394000e-01  -5.2965700e-02
  -7.5612300e-01  -4.9447700e-01  -1.6383000e-01
  -5.3761700e-01  -4.9354200e-01  -2.7796100e-01
  -3.1373600e-01  -3.6881800e-01  -2.6465800e-01
  -1.4500700e-01  -1.2380700e-01  -9.8011500e-02
  -4.7555300e-02   8.9671700e-02   1.2955200e-01
   2.6894900e-03   2.8820300e-01   3.3774300e-01
   7.8308200e-03   3.5874000e-01   5.0462200e-01
   7.9575700e-02   2.7769200e-01   5.6577200e-01
   1.3332600e-01   3.5951500e-02   5.2866200e-01
   7.1396300e-02  -2.5413700e-01   5.3076300e-01
  -5.8305300e-02  -5.4422600e-01   6.4092700e-01
  -2.2236000e-01  -7.7382100e-01   7.2961800e-01
  -2.5624600e-01  -7.9203900e-01   7.0977900e-01
  -7.6533600e-02  -7.6868300e-01   7.0371100e-01
   1.8754300e-01  -7.9017100e-01   7.3591900e-01
   4.2731600e-01  -9.2470500e-01   7.2938400e-01
   5.5140900e-01  -1.0816600e+00   7.2471600e-01
   4.9438700e-01  -1.1008100e+00   7.5132400e-01
   4.1796800e-01  -9.4385700e-01   6.9740900e-01
   3.6865800e-01  -6.6194300e-01   5.0252200e-01
   3.3126700e-01  -3.8306600e-01   2.6235500e-01
   3.7824000e-01  -1.2684400e-01   3.8993100e-02
   3.3383800e-01   8.4533200e-02  -1.5169300e-01
   1.6651100e-01   3.0198300e-01  -2.4458500e-01
   3.1568900e-03   4.8066100e-01  -2.4575200e-01
  -1.1930000e-01   6.2500500e-01  -2.8846400e-01
  -1.0971900e-01   7.4669200e-01  -3.8182300e-01
   4.5222300e-02   7.5696900e-01  -4.1286500e-01
   1.7188600e-01   7.2987600e-01  -4.1496600e-01
   1.7959800e-01   6.6611200e-01  -5.0015600e-01
   9.3831200e-02   6.3808400e-01  -6.1312100e-01
  -9.4762000e-02   7.1376000e-01  -6.6867000e-01
  -2.0156100e-01   8.0064600e-01  -7.0181200e-01
  -1.7538700e-01   8.4338900e-01  -7.4055600e-01
  -5.8539000e-02   8.3498000e-01  -7.9470400e-01
   1.9291900e-01   7.7355300e-01  -8.6495700e-01
   4.0581600e-01   6.9927900e-01  -9.1770500e-01
   5.0981100e-01   6.7358600e-01  -9.1350400e-01
   5.3318100e-01   5.7011700e-01  -8.4371800e-01
   4.2311000e-01   4.2367100e-01  -7.2538500e-01
   2.7237500e-01   2.3798600e-01  -5.9304900e-01
   2.0904400e-01   2.0069100e-02  -4.3387100e-01
   1.9104900e-01  -1.4763100e-01  -2.3221500e-01
   2.4737000e-01  -3.8470100e-01  -7.7472400e-02
   3.8852300e-01  -5.9304100e-01   1.6494700e-03
   4.5442500e-01  -7.4789500e-01   5.1830000e-02
   4.6096800e-01  -8.1306000e-01   9.5008700e-02
   3.9740300e-01  -7.6517900e-01   1.5826000e-01
   2.8686500e-01  -6.9300700e-01   2.5418600e-01
   2.8242400e-01  -6.4209000e-01   3.9282400e-01
   2.6185900e-01  -5.5753900e-01   5.0578900e-01
   1.2351100e-01  -3.3845500e-01   4.9598600e-01
  -1.2374000e-01  -4.7665000e-02   4.4603900e-01
  -4.4530700e-01   2.4919700e-01   4.7544700e-01
  -6.9933500e-01   3.9050500e-01   5.8351100e-01
  -8.5895000e-01   3.7298700e-01   7.2214900e-01
  -9.6995600e-01   2.6344500e-01   8.0523900e-01
  -9.6995600e-01   1.7212000e-01   7.2821700e-01
  -9.0311800e-01   2.6391200e-01   5.1652500e-01
  -8.1501500e-01   4.6664700e-01   3.2467200e-01
  -6.3273200e-01   6.4602600e-01   2.1544200e-01
  -4.6096500e-01   7.0768700e-01   1.8206600e-01
  -2.8896400e-01   6.2033300e-01   2.2967900e-01
  -7.0691200e-02   4.2624000e-01   2.5348600e-01
   7.6303900e-02   2.2817600e-01   1.3351900e-01
   2.3802200e-01   5.6038200e-02  -6.4168800e-02
   4.4110400e-01  -1.2801200e-01  -1.7246500e-01
   5.8482800e-01  -2.8076400e-01  -1.5029300e-01
   6.8625200e-01  -3.3938900e-01  -1.1014800e-01
   6.6101300e-01  -3.0505500e-01  -9.4977300e-02
   5.0443600e-01  -2.4479500e-01  -4.1062400e-02
   3.5487000e-01  -2.7656000e-01   2.8490200e-02
   2.2657100e-01  -3.9427700e-01   8.2872000e-02
   1.3542900e-01  -4.3912100e-01   1.5989300e-01
   7.7706100e-02  -3.3658600e-01   2.5932100e-01
