**************************************************************************************
  	RED ACELEROGRÁFICA DE LA UNIVERSIDAD AUTONOMA METROPOLITANA (RA-UAM)
	   UNIDAD AZCAPOTZALCO. DIVISIÓN CBI-DEPARTAMENTO DE MATERIALES
     Av. San Pablo 420, Col. Nueva el Rosario, Azcapotzalco, C.P. 02128, Ciudad de México
		Área de Estructuras. e-mail: agb@azc.uam.mx
**************************************************************************************
ARCHIVO ESTANDAR DE ACELERACION:
VERSION DEL FORMATO                    : 2.0
NOMBRE DEL ARCHIVO                     : RIDI202406.062
FECHA Y HORA DE CREACION               : 11:30 a. m. 13/06/2024
REF. CATALOGO ACELEROGRAMAS, SMIS 1999 : REGISTRO NO.      /PAG.    


================================================================================
DATOS DE LA ESTACION:
NOMBRE DE LA ESTACION                  : UAM-IZTAPALAPA.
CLAVE DE LA ESTACION                   : RIDI
LOCALIZACION DE LA ESTACION            : AV. FERROCARRIL SAN RAFAEL ATLIXCO 186,
                                       : COL. LEYES DE REFORMA 1 A SECCION, C.P.09310, 
                                       : IZTAPALAPA, CIUDAD DE MEXICO.
                                       : 
                                       : 
COORDENADAS DE LA ESTACION             : 19.35924 LAT. N
                                       : -99.07343 LONG. W
ALTITUD (msnm)                         : 2240
TIPO DE SUELO                          : DEPOSITOS LACUSTRES
                                       : 
                                       : 
INSTITUCION RESPONSABLE                : UNIVERSIDAD AUTONOMA METROPOLITANA
                                       : 

================================================================================
DATOS DEL ACELEROGRAFO: 
MODELO DEL ACELEROGRAFO                : ETNA2 KINEMETRICS
NUMERO DE SERIE DEL ACELEROGRAFO       : 103843
NUMERO DE CANALES                      : 3
ORIENTACION C1-C6 (rumbo;orientacion)  : /N90E/N00E/V
ORIENTACION C7-C12 (rumbo;orientacion) : 
VEL. DE MUESTREO, C1-C6 (muestras/s)   : /200/200/200
VEL. DE MUESTREO, C7-C12 (muestras/s)  : 
ESC. COMPLETA DE SENSORES, C1-C6, (g)  : /2/2/2
ESC. COMPLETA DE SENSORES, C7-C12 (g)  : 
FREC. NAT. DE SENSORES, C1-C6, (Hz)    : /204/216/222   
FREC. NAT. DE SENSORES, C7-C12 (Hz)    : 
AMORTIGUAMIENTO DE SENSORES, C1-C6     : /0.7/0.7/0.7      
AMORTIGUAMIENTO DE SENSORES, C7-C12    : 
INTERVALO DE MUESTREO, C1-C6 (s)       : /0.005/0.005/0.005
INTERVALO DE MUESTREO, C7-C12 (s)      : 
UMBRAL DE DISPARO, C1-C6 (Gal)         : /2/2/2
UMBRAL DE DISPARO, C7-C12 (Gal)        : 
MEMORIA DE PREEVENTO (s)               : 60
TIEMPO DE POSEVENTO (s)                : 80


================================================================================
DATOS DEL SISMO:
FECHA DEL SISMO [GMT]                  : 2024/06/06
HORA EPICENTRO (GMT)                   : 23:14:53
MAGNITUD(ES)                           : /M=2.2
COORDENADAS DEL EPICENTRO              : 19.3600 LAT. N
                                       : -99.0800 LONG. W
PROFUNDIDAD FOCAL (Km)                 : 4.0
FUENTE DE LOS DATOS EPICENTRALES       : SSN
                                       : INSTITUTO DE GEOFISICA, UNAM

================================================================================
DATOS DE ESTE REGISTRO:
HORA DE LA PRIMERA MUESTRA (GMT)       : 23:13:54.000
EXACTITUD DEL TIEMPO (s)               : 
DURACION DEL REGISTRO (s), C1-C6       : /145/145/145
DURACION DEL REGISTRO (s), C7-C12      : 
NUM. TOTAL DE MUESTRAS, C1-C6          : /29000/29000/29000
NUM. TOTAL DE MUESTRAS, C7-C12         : 
ACEL. MAX.(Gal), C1-C6                 : /-1.989/1.543/1.414
ACEL. MAX., C1-C6, EN LA MUESTRA       : /12313/12337/12223
ACEL. MAX.(Gal), C7-C12                : 
ACEL. MAX., C7-C12,EN LA MUESTRA       : 
UNIDADES DE LOS DATOS                  : Gal (cm/s/s)
FACTOR DE DECIMACION                   : 1
FORMATO DATOS (FORTRAN,16 campos/dato) : 3E16.7


================================================================================
CALIDAD DEL ACELEROGRAMA:
REGISTRO DIGITAL COMPLETO CON TIEMPO ABSOLUTO CORRECTO


================================================================================
COMENTARIOS:














================================================================================
DATOS DE ACELERACION:
---------+---------+---------+---------+---------+---------+---------+---------+
   CANAL-1   	     CANAL-2          CANAL-3
     N90E             N00E              V
---------+---------+---------+---------+---------+---------+---------+---------+
[...]
  -3.0468100e-02   1.0913900e-01   1.6368700e-02
  -3.7712700e-02   1.4464100e-01   5.3712400e-02
  -2.0886600e-02   7.3403400e-02   8.8255300e-02
   1.8140700e-02  -4.5014400e-02   3.7374500e-02
   3.9874500e-02  -9.1026900e-02  -5.5284400e-02
   5.9738700e-02  -3.9408900e-02  -6.6720900e-02
   6.6749600e-02   5.1214700e-02  -3.4701000e-03
   3.4966900e-02   8.2979600e-02   7.7985800e-02
   3.0760400e-02   3.2763000e-02   1.5524100e-01
   6.0439800e-02  -4.8517900e-02   1.5990800e-01
   1.1722800e-01  -8.6122000e-02   7.4484800e-02
   1.3078200e-01  -4.6182300e-02   2.6171400e-02
   7.9369300e-02   1.3143500e-02   4.9277800e-02
   3.7070200e-02   4.7244100e-02   9.6424200e-02
   1.3145900e-03   2.2019000e-02   1.4427100e-01
  -2.0419200e-02   1.6880500e-02   1.5827500e-01
   2.0711400e-02   1.8982600e-02   1.3166700e-01
   7.6097500e-02   1.2442800e-02   6.2581500e-02
   7.8200800e-02   1.5245500e-02   2.0336500e-02
   5.1793100e-02  -2.8197700e-02   5.4179200e-02
   3.3097300e-02  -4.1978100e-02   1.1136200e-01
   4.1977800e-02  -5.7627000e-02   1.5220600e-01
   8.4043200e-02  -8.9625500e-02   2.0285400e-01
   1.0414100e-01  -1.2606200e-01   2.1312300e-01
   9.8532400e-02  -9.5464700e-02   1.3120100e-01
   9.8065000e-02  -3.0766900e-02   8.9889100e-02
   5.3896300e-02  -4.2912400e-02   1.6060900e-01
  -1.2940900e-02  -5.5524900e-02   2.4369800e-01
  -2.9299700e-02  -2.1657900e-02   2.5653500e-01
  -2.9767100e-02   2.8558800e-02   2.5956900e-01
  -4.3087800e-02   1.2909900e-02   2.6493800e-01
  -4.0984500e-02  -2.2358600e-02   1.9515200e-01
  -9.4354500e-03  -2.3292800e-02   7.8219200e-02
   1.5570100e-02   2.9960200e-02  -6.6932100e-04
  -2.5326800e-02   9.4190800e-02  -1.1361200e-03
  -6.0615000e-02   8.0410400e-02   1.6135300e-02
  -2.3457200e-02   1.1041400e-02   6.7994100e-03
   1.2999400e-02  -5.7860600e-02  -2.7043300e-02
   1.7907000e-02  -5.0386500e-02  -6.2519800e-02
  -1.9484400e-02   2.9726600e-02  -6.2053000e-02
  -8.0011800e-02   8.9986600e-02  -7.2044600e-03
  -7.4403100e-02   6.9900000e-02   4.2976100e-02
  -1.8549600e-02   2.3653900e-02  -2.2375300e-02
   3.7771300e-02  -1.5585100e-02  -1.4444200e-01
   7.0956200e-02  -3.2401900e-02  -1.8948800e-01
   6.5814800e-02   5.6693400e-03  -1.7081600e-01
   4.8988700e-02   7.6439800e-02  -1.8342000e-01
   5.2260400e-02   1.5818800e-01  -2.0792700e-01
   1.5803800e-02   1.6916500e-01  -2.1562900e-01
  -9.6691500e-03   1.3179500e-01  -2.3290000e-01
   1.6738600e-02   2.9493100e-02  -2.0909400e-01
   2.0244000e-02  -6.9772400e-02  -1.7688500e-01
   3.9407100e-02  -5.2488600e-02  -2.2683200e-01
   1.3466800e-02   4.5375500e-02  -3.2532600e-01
  -7.8843300e-02   1.6706300e-01  -3.7527300e-01
  -1.2885400e-01   1.4651000e-01  -3.6056900e-01
  -9.8473900e-02   2.7157400e-02  -3.3863000e-01
  -6.4120500e-02  -4.9685800e-02  -3.2555900e-01
  -2.7196400e-02  -3.1934800e-02  -2.9101600e-01
  -6.8647900e-03   2.2719700e-02  -2.3616800e-01
  -3.0935500e-02   7.5038400e-02  -1.7618500e-01
  -4.1451900e-02   9.2322300e-02  -1.0849900e-01
  -7.3468300e-02   3.8602100e-02  -1.0919900e-01
  -1.0455000e-01  -5.7753800e-03  -1.9228900e-01
  -1.0338100e-01  -4.7583700e-02  -2.4223600e-01
  -1.0361500e-01  -6.1597600e-02  -2.2356400e-01
  -1.1202800e-01  -4.2211700e-02  -1.8972200e-01
  -1.0057700e-01  -2.0723600e-02  -1.5051100e-01
  -6.8327000e-02  -3.1234100e-02  -6.8121300e-02
  -2.6495300e-02  -1.0013600e-01   1.0067000e-02
   1.2064600e-02  -1.7884800e-01   1.1000600e-02
   1.7673400e-02  -2.4424600e-01  -2.0508100e-02
   1.4869000e-02  -2.3210100e-01  -3.7312800e-02
   3.4178600e-03  -1.5595800e-01  -5.8785400e-02
  -2.1908600e-03  -8.6822700e-02  -1.0686500e-01
   2.4830700e-03  -5.3889900e-02  -1.7501800e-01
  -1.3408300e-02  -4.1511000e-02  -2.6977700e-01
  -1.0136500e-02  -2.0957200e-02  -3.7107200e-01
  -8.9680600e-03  -1.5585100e-02  -4.0234700e-01
  -3.3272500e-02  -2.5161300e-02  -4.0001300e-01
  -5.0332400e-02  -3.6839600e-02  -4.3805700e-01
  -6.8794400e-02  -2.3760000e-02  -5.0014100e-01
  -6.4354100e-02  -1.6285800e-02  -5.6152500e-01
  -1.7381100e-02  -7.7713700e-02  -5.7459500e-01
   6.1350200e-04  -1.9893400e-01  -5.1787900e-01
   1.9776600e-02  -3.1151300e-01  -3.8904400e-01
   3.7771300e-02  -3.6570000e-01  -2.1189400e-01
   1.5336400e-02  -3.0544000e-01  -6.1586200e-02
   1.8374400e-02  -2.1271500e-01   6.0247600e-02
   2.2814700e-02  -2.2626200e-01   2.1732400e-01
   3.7771300e-02  -3.6056200e-01   4.4162000e-01
   6.4880100e-02  -5.3667100e-01   6.7828500e-01
   7.2124700e-02  -5.1144500e-01   9.2242000e-01
   2.6320100e-02  -3.0684200e-01   1.1719200e+00
  -4.1919300e-02  -5.0620000e-02   1.3124300e+00
  -5.6642200e-02   1.6939900e-01   1.2813900e+00
  -2.1821400e-02   2.3199500e-01   1.1532500e+00
   6.0206100e-02   2.8664900e-01   9.7680100e-01
   1.3639100e-01   3.5251500e-01   7.3966900e-01
   1.8266300e-01   4.6042200e-01   5.1584000e-01
   1.7144600e-01   6.2602000e-01   3.3168900e-01
   1.8920700e-01   7.4630700e-01   1.2069800e-01
   2.8291900e-01   8.1754400e-01  -6.2053000e-02
   3.3620200e-01   7.8461100e-01  -8.8193600e-02
   3.8294100e-01   6.1107200e-01  -8.6048500e-03
   4.1612600e-01   3.8521400e-01   2.5704700e-02
   4.3435400e-01   2.7917500e-01  -2.7743500e-02
   4.5281600e-01   2.0279900e-01  -8.3992400e-02
   3.9672900e-01   1.6799800e-01  -1.1993600e-01
   2.5674500e-01   1.9789400e-01  -2.3383400e-01
   1.5672300e-01   2.1471100e-01  -4.6559800e-01
   6.9320300e-02   2.3643200e-01  -7.8278600e-01
  -5.9446500e-02   2.1144100e-01  -1.1109400e+00
  -7.6973800e-02   1.6029000e-01  -1.2986000e+00
  -7.4169400e-02   5.4017500e-02  -1.2302100e+00
  -5.5006300e-02   6.8371700e-03  -1.0147800e+00
   4.0809300e-02   8.7057000e-03  -8.3109900e-01
   1.1419000e-01  -1.1614500e-02  -6.9456100e-01
   1.7425000e-01  -3.6606100e-02  -4.9500600e-01
   2.1187500e-01  -1.3493700e-01  -2.3033300e-01
   2.4903300e-01  -1.8398600e-01   3.7841300e-02
   2.4879900e-01  -1.7768000e-01   2.6260400e-01
   1.9294600e-01  -9.6632500e-02   3.7976900e-01
   1.1559200e-01   4.5375500e-02   4.4815500e-01
   6.4646400e-02   1.5888900e-01   6.1596800e-01
   6.3477900e-02   2.3222800e-01   9.1331700e-01
   4.7820200e-02   2.3760000e-01   1.1723900e+00
   2.1178800e-02   3.0720300e-01   1.3234000e+00
  -6.8794400e-02   3.8638200e-01   1.4109200e+00
  -1.5853400e-01   4.6415900e-01   1.4137200e+00
  -2.0901200e-01   5.2418600e-01   1.3245600e+00
  -2.4196400e-01   5.3376200e-01   1.2043600e+00
  -2.3425200e-01   5.4567400e-01   1.1047000e+00
  -2.5271400e-01   5.2605400e-01   8.9931300e-01
  -2.8566500e-01   5.3773200e-01   5.6485400e-01
  -3.5881200e-01   4.8027500e-01   2.7684100e-01
  -4.6210600e-01   3.1911500e-01   6.3281700e-02
  -5.3408400e-01   1.1427700e-01  -1.8785400e-01
  -5.8596500e-01  -6.1130500e-02  -4.8870400e-01
  -6.3340500e-01  -1.2933200e-01  -6.9806200e-01
  -6.9837300e-01  -1.4638200e-01  -8.0145800e-01
  -7.5492800e-01  -1.3283500e-01  -8.4860400e-01
  -7.4137300e-01  -1.8655500e-01  -7.9468900e-01
  -6.6425300e-01  -3.3230000e-01  -6.7822400e-01
  -5.9180700e-01  -4.5071800e-01  -6.5091600e-01
  -5.2824200e-01  -4.9532900e-01  -7.7695100e-01
  -4.4154000e-01  -4.5749200e-01  -8.9108300e-01
  -3.3894800e-01  -4.3086500e-01  -8.6914300e-01
  -1.6203900e-01  -4.2479300e-01  -7.3097200e-01
   5.0858300e-02  -4.0867600e-01  -5.0224200e-01
   1.8172800e-01  -4.0564000e-01  -2.1632900e-01
   2.7894600e-01  -4.4324400e-01   7.0983900e-02
   3.9392500e-01  -5.1915300e-01   2.5583500e-01
   4.7782200e-01  -5.4834900e-01   2.8454300e-01
   4.6099600e-01  -5.0724100e-01   2.2619400e-01
   3.1119600e-01  -3.5121900e-01   2.4556600e-01
   8.0070300e-02  -1.9893400e-01   4.5935800e-01
  -1.1787100e-01  -1.7184100e-01   8.2462600e-01
  -2.2396900e-01  -2.2579400e-01   1.1355100e+00
  -2.5224600e-01  -2.8091600e-01   1.1716900e+00
  -2.0246900e-01  -2.3186700e-01   9.2171900e-01
  -1.2721900e-01  -7.2808800e-02   6.1270100e-01
  -1.1903900e-01   1.6496100e-01   5.2167500e-01
  -2.0761000e-01   3.0883800e-01   6.4000800e-01
  -3.4221900e-01   3.3476400e-01   8.0222000e-01
  -3.9106200e-01   3.6279200e-01   8.1295600e-01
  -2.7655100e-01   4.3332800e-01   5.1000500e-01
  -6.5522600e-02   5.5384800e-01   1.7535700e-02
   1.0250500e-01   5.4053500e-01  -4.4972700e-01
   1.6092900e-01   3.7680500e-01  -7.8745400e-01
   7.0255100e-02   8.1578200e-02  -9.7814000e-01
  -7.0897700e-02  -2.5522400e-01  -9.9424400e-01
  -9.4734700e-02  -4.7641100e-01  -9.0905400e-01
   9.7276700e-03  -5.7497500e-01  -8.7591200e-01
   2.0813600e-01  -6.0697400e-01  -8.6074100e-01
   4.1519100e-01  -7.3099700e-01  -7.2467000e-01
   5.9093100e-01  -8.9846400e-01  -4.9617300e-01
   7.1736100e-01  -1.0168800e+00  -3.2112500e-01
   7.6293200e-01  -1.0056700e+00  -2.3126700e-01
   7.6597000e-01  -8.0270200e-01  -2.3966900e-01
   7.5545300e-01  -4.7430800e-01  -3.1108900e-01
   6.9282300e-01  -1.6530100e-01  -2.9078300e-01
   5.6031700e-01  -3.9642400e-02  -1.2180300e-01
   4.4907700e-01  -3.5905400e-02   7.1917400e-02
   4.5024600e-01  -7.7480100e-02   2.1545700e-01
   5.4676200e-01  -9.3829700e-02   4.2855000e-01
   6.2341500e-01  -5.7627000e-02   7.8704900e-01
   5.3975200e-01   6.3700400e-03   1.1077400e+00
   3.5022400e-01   1.7290200e-01   1.1168400e+00
   1.3265200e-01   3.3803400e-01   8.8741000e-01
  -5.7576900e-02   5.5174600e-01   6.2623800e-01
  -1.3586500e-01   8.1193900e-01   4.4185300e-01
  -2.7795300e-01   8.9065000e-01   4.8596500e-01
  -4.7098600e-01   9.4273600e-01   5.8609300e-01
  -6.2616100e-01   9.5908500e-01   5.0253700e-01
  -7.6567800e-01   8.1380700e-01   2.7007200e-01
  -7.1683500e-01   5.2979100e-01  -8.6559800e-02
  -5.4156300e-01   1.1894900e-01  -4.4856000e-01
  -3.0903400e-01  -2.7297500e-01  -7.1393400e-01
  -1.0127800e-01  -5.6773500e-01  -9.0508600e-01
  -4.6593200e-02  -6.6419800e-01  -1.0385900e+00
   1.4167900e-02  -6.4200900e-01  -1.1417500e+00
   1.7191300e-01  -5.6866900e-01  -1.1935700e+00
   4.1425600e-01  -5.3713800e-01  -1.1676600e+00
   6.7249100e-01  -6.4597900e-01  -1.0600600e+00
   8.4636100e-01  -7.0553900e-01  -8.9038200e-01
   8.9800800e-01  -6.8895500e-01  -6.6515300e-01
   8.1972000e-01  -5.6423100e-01  -4.1868500e-01
   6.4094200e-01  -3.7551000e-01  -2.5764000e-01
   4.0747900e-01  -1.3610500e-01  -1.5097800e-01
   1.6279900e-01   1.0890500e-01  -4.4548100e-02
  -1.9017000e-02   2.1120700e-01   2.4771100e-02
  -1.0057700e-01   2.0700300e-01   6.5849100e-02
  -1.5596300e-01   9.3723700e-02   1.2629900e-01
  -3.0646400e-01  -3.7540300e-02   2.1569100e-01
  -6.6168300e-01  -9.3129000e-02   3.2235300e-01
  -1.1512800e+00  -7.6779400e-02   5.0347000e-01
  -1.6186700e+00  -7.1641000e-02   7.5017200e-01
  -1.9367300e+00  -1.6039600e-01   8.7293900e-01
  -1.9888500e+00  -3.1735200e-01   7.5554000e-01
  -1.7469700e+00  -4.3133200e-01   5.1607400e-01
  -1.2232600e+00  -3.1992100e-01   2.1872500e-01
  -5.3945900e-01   4.3507000e-02  -1.4280900e-01
   6.8619200e-02   5.9845900e-01  -4.3875700e-01
   4.7618600e-01   1.1244500e+00  -5.5008800e-01
   6.8534400e-01   1.3365300e+00  -4.7633400e-01
   7.8489900e-01   1.1725600e+00  -2.4013600e-01
   9.3493200e-01   6.7623700e-01   1.2163100e-01
   1.1328700e+00   1.0003000e-01   4.6425900e-01
   1.2541600e+00  -3.0917700e-01   6.6988300e-01
   1.2069600e+00  -4.5889300e-01   7.7047800e-01
   8.9824200e-01  -3.7200700e-01   7.6814400e-01
   3.2007700e-01  -2.4704900e-01   6.5471200e-01
  -3.2071900e-01  -2.1668500e-01   5.2144200e-01
  -7.9605800e-01  -3.8158300e-01   4.9063300e-01
  -1.0024100e+00  -6.6443100e-01   5.6765500e-01
  -9.1056900e-01  -8.8374900e-01   6.1060000e-01
  -6.0653000e-01  -8.9729600e-01   5.0020300e-01
  -2.5785500e-01  -6.1374700e-01   2.6213700e-01
  -3.9816000e-02  -1.8235100e-01  -5.3372800e-03
  -3.7479000e-02   3.2612200e-01  -2.3780200e-01
  -2.5201300e-01   8.2688700e-01  -4.1985200e-01
  -5.6142700e-01   1.2414700e+00  -6.2804300e-01
  -7.1847100e-01   1.5432300e+00  -8.9318300e-01
  -5.5091000e-01   1.5247800e+00  -1.1373200e+00
  -7.2066100e-02   1.2358600e+00  -1.2701200e+00
   5.7270300e-01   8.2315000e-01  -1.2957900e+00
   1.1195500e+00   4.9662500e-01  -1.2654500e+00
   1.3149200e+00   4.4103600e-01  -1.1996300e+00
   1.1609200e+00   5.1017200e-01  -1.1237800e+00
   9.0455200e-01   5.7043200e-01  -1.0056800e+00
   8.3607900e-01   5.4894400e-01  -8.5397200e-01
   1.0209300e+00   4.3753300e-01  -6.5138300e-01
   1.3315200e+00   2.5722000e-01  -4.0491500e-01
   1.4930000e+00   1.5491800e-01  -1.7898500e-01
   1.3231000e+00   1.2291900e-01   3.3873600e-02
   8.5337200e-01   2.5055300e-02   2.3319500e-01
   1.6747300e-01  -1.3727300e-01   3.7650200e-01
  -4.5836700e-01  -3.6476600e-01   4.3205100e-01
  -8.6570000e-01  -5.8782100e-01   4.8876600e-01
  -1.0748600e+00  -7.6813400e-01   5.5878600e-01
  -1.0970600e+00  -9.0266800e-01   5.7629000e-01
  -1.0283500e+00  -9.4751300e-01   6.2670400e-01
  -1.0122300e+00  -9.2135400e-01   7.6674300e-01
  -1.1019700e+00  -8.7464000e-01   8.7247200e-01
  -1.2473300e+00  -7.5552200e-01   8.1295600e-01
  -1.3592700e+00  -5.1401500e-01   6.0243100e-01
  -1.2926600e+00  -1.8842400e-01   3.2935500e-01
  -1.0456500e+00   1.2899200e-01   8.2887200e-02
  -7.2594900e-01   3.7423600e-01  -9.5662300e-02
  -4.0017600e-01   4.8261100e-01  -1.9462300e-01
  -1.5830000e-01   4.7069900e-01  -2.1866300e-01
  -6.3419400e-02   3.8591500e-01  -1.9719000e-01
  -9.2164000e-02   2.6539500e-01  -1.2670400e-01
  -2.2537100e-01   1.3997000e-01  -9.7718400e-03
  -4.0438300e-01  -2.9365500e-02   1.4800500e-01
  -4.3429600e-01  -2.2509400e-01   3.1581800e-01
  -2.5715400e-01  -4.8738800e-01   4.2458200e-01
   3.9640800e-02  -7.9662900e-01   4.8083100e-01
   3.6331100e-01  -1.1138100e+00   5.1490700e-01
   5.4863200e-01  -1.3086100e+00   4.9133400e-01
   5.4512700e-01  -1.2763700e+00   4.0707700e-01
   4.6894100e-01  -1.0701300e+00   3.1721900e-01
   4.9371300e-01  -7.2445800e-01   2.2829400e-01
   6.7693100e-01  -5.0116900e-01   1.2980000e-01
   9.8844900e-01  -5.1121200e-01   5.9547400e-02
   1.2223800e+00  -6.9899900e-01   6.5148900e-02
   1.1179200e+00  -8.6833400e-01   1.3236800e-01
   7.4774100e-01  -8.2045300e-01   2.1895800e-01
   2.8899500e-01  -4.9836600e-01   2.7077300e-01
  -3.1402900e-02   4.6076200e-02   1.9725200e-01
   8.3254900e-03   5.9168600e-01   1.8235900e-02
   3.5957100e-01   1.0335900e+00  -2.0325900e-01
   7.5522000e-01   1.2426300e+00  -4.3105500e-01
   1.0393900e+00   1.2470700e+00  -6.0236900e-01
   1.0029400e+00   1.1730300e+00  -6.9642900e-01
   5.6896400e-01   1.1251500e+00  -7.6574800e-01
  -1.7614800e-02   1.1482700e+00  -8.5373900e-01
  -6.2195400e-01   1.1910200e+00  -8.7287800e-01
  -1.0346600e+00   1.1921800e+00  -8.3320000e-01
  -1.0578000e+00   1.0462100e+00  -8.5373900e-01
  -7.6006900e-01   7.9558900e-01  -9.1558900e-01
  -3.6185000e-01   5.1390900e-01  -9.2399200e-01
  -3.5843200e-02   2.5955500e-01  -8.6494200e-01
   6.3945300e-02   2.0093000e-01  -7.7298300e-01
   1.8841800e-02   3.1327600e-01  -6.3667900e-01
   5.2961500e-02   4.4757600e-01  -5.0060800e-01
   1.8102700e-01   4.1838000e-01  -3.9324500e-01
   4.9277900e-01   1.2362000e-01  -2.7094400e-01
   8.3981800e-01  -3.3323500e-01  -1.1713500e-01
   9.6788400e-01  -7.5949200e-01   3.8308100e-02
   9.0478600e-01  -9.3957200e-01   1.5944200e-01
   6.7763300e-01  -8.9426000e-01   2.6400400e-01
   3.7476200e-01  -6.9876500e-01   3.7440100e-01
