**************************************************************************************
  	RED ACELEROGRÁFICA DE LA UNIVERSIDAD AUTONOMA METROPOLITANA (RA-UAM)
	   UNIDAD AZCAPOTZALCO. DIVISIÓN CBI-DEPARTAMENTO DE MATERIALES
     Av. San Pablo 420, Col. Nueva el Rosario, Azcapotzalco, C.P. 02128, Ciudad de México
		Área de Estructuras. e-mail: agb@azc.uam.mx
**************************************************************************************
ARCHIVO ESTANDAR DE ACELERACION:
VERSION DEL FORMATO                    : 2.0
NOMBRE DEL ARCHIVO                     : RIDR202402.141
FECHA Y HORA DE CREACION               : 11:30 a. m. 21/02/2024
REF. CATALOGO ACELEROGRAMAS, SMIS 1999 : REGISTRO NO.      /PAG.    


================================================================================
DATOS DE LA ESTACION:
NOMBRE DE LA ESTACION                  : UAM-RECTORIA.
CLAVE DE LA ESTACION                   : RIDR
LOCALIZACION DE LA ESTACION            : PROL. CANAL DE MIRAMONTES 3855, COL. EX
                                       : DE SAN JUAN DE DIOS, C.P.14387 CIUDAD DE MEXICO.
                                       :
                                       : 
                                       : 
COORDENADAS DE LA ESTACION             : 19.287271 LAT. N
                                       : 99.137132 LONG. W
ALTITUD (msnm)                         : 2240
TIPO DE SUELO                          : TRANSICION
                                       : 
                                       : 
INSTITUCION RESPONSABLE                : UNIVERSIDAD AUTONOMA METROPOLITANA
                                       : 

================================================================================
DATOS DEL ACELEROGRAFO: 
MODELO DEL ACELEROGRAFO                : ETNA2 KINEMETRICS
NUMERO DE SERIE DEL ACELEROGRAFO       : 103462
NUMERO DE CANALES                      : 3
ORIENTACION C1-C6 (rumbo;orientacion)  : /N90E/N00E/V
ORIENTACION C7-C12 (rumbo;orientacion) : 
VEL. DE MUESTREO, C1-C6 (muestras/s)   : /200/200/200
VEL. DE MUESTREO, C7-C12 (muestras/s)  : 
ESC. COMPLETA DE SENSORES, C1-C6, (g)  : /2/2/2
ESC. COMPLETA DE SENSORES, C7-C12 (g)  : 
FREC. NAT. DE SENSORES, C1-C6, (Hz)    : /200/200/202   
FREC. NAT. DE SENSORES, C7-C12 (Hz)    : 
AMORTIGUAMIENTO DE SENSORES, C1-C6     : /0.7/0.7/0.7      
AMORTIGUAMIENTO DE SENSORES, C7-C12    : 
INTERVALO DE MUESTREO, C1-C6 (s)       : /0.005/0.005/0.005
INTERVALO DE MUESTREO, C7-C12 (s)      : 
UMBRAL DE DISPARO, C1-C6 (Gal)         : /2/2/2
UMBRAL DE DISPARO, C7-C12 (Gal)        : 
MEMORIA DE PREEVENTO (s)               : 50
TIEMPO DE POSEVENTO (s)                : 60


================================================================================
DATOS DEL SISMO:
FECHA DEL SISMO [GMT]                  : 2024/02/14
HORA EPICENTRO (GMT)                   : 12:42:13
MAGNITUD(ES)                           : /M=2.8
COORDENADAS DEL EPICENTRO              : 19.3780 LAT. N
                                       : -99.2070 LONG. W
PROFUNDIDAD FOCAL (Km)                 : 1.0
FUENTE DE LOS DATOS EPICENTRALES       : SSN
                                       : INSTITUTO DE GEOFISICA, UNAM

================================================================================
DATOS DE ESTE REGISTRO:
HORA DE LA PRIMERA MUESTRA (GMT)       : 12:41:36.000
EXACTITUD DEL TIEMPO (s)               : 
DURACION DEL REGISTRO (s), C1-C6       : /121/121/121
DURACION DEL REGISTRO (s), C7-C12      : 
NUM. TOTAL DE MUESTRAS, C1-C6          : /24200/24200/24200
NUM. TOTAL DE MUESTRAS, C7-C12         : 
ACEL. MAX.(Gal), C1-C6                 : /-2.649/-2.597/-1.191
ACEL. MAX., C1-C6, EN LA MUESTRA       : /14556/10739/14384
ACEL. MAX.(Gal), C7-C12                : 
ACEL. MAX., C7-C12,EN LA MUESTRA       : 
UNIDADES DE LOS DATOS                  : Gal (cm/s/s)
FACTOR DE DECIMACION                   : 1
FORMATO DATOS (FORTRAN,16 campos/dato) : 3E16.7


================================================================================
CALIDAD DEL ACELEROGRAMA:
REGISTRO DIGITAL COMPLETO CON TIEMPO ABSOLUTO CORRECTO


================================================================================
COMENTARIOS:














================================================================================
DATOS DE ACELERACION:
---------+---------+---------+---------+---------+---------+---------+---------+
   CANAL-1   	     CANAL-2          CANAL-3
     N90E             N00E              V
---------+---------+---------+---------+---------+---------+---------+---------+
[...]
   5.2423800e-01   1.0542300e+00  -2.0728100e-02
   1.1595900e-01   9.1293400e-01   1.1057500e-01
   5.1064300e-02   3.3486900e-01   2.2011200e-01
   1.1269100e-01  -4.6218700e-02   2.0045100e-01
  -7.7091600e-02  -9.4410300e-02  -1.0522100e-01
  -1.0487000e-01  -3.3373100e-01  -3.9240300e-01
   2.7487400e-02  -1.6248700e-01  -4.9562000e-01
   1.9299300e-01   6.5045400e-01  -4.5489500e-01
   2.8823500e-01   1.1630200e+00  -1.5437200e-01
   2.3244400e-01   1.2844300e+00   3.0975400e-01
   3.1414600e-01   1.0764600e+00   5.9225500e-01
   1.3766900e-01   4.3242200e-01   5.3701800e-01
  -3.5651400e-01  -3.0869900e-01   2.3602700e-01
  -2.6687400e-01  -5.6088600e-01  -1.2207300e-01
   7.4874700e-02   2.1623800e-02  -2.2669400e-01
  -1.2868100e-01   4.8038000e-01  -1.3237100e-01
  -3.1262800e-01   3.8610200e-01  -1.9392700e-01
   3.1274500e-01   6.0436800e-01  -1.8175600e-01
   5.8539800e-01   8.6872000e-01   2.0372800e-01
   5.0364000e-02   8.1304200e-01   5.4989100e-01
  -6.7287300e-02   5.2670000e-01   4.8154800e-01
  -2.5100100e-01   2.4503600e-01   4.3848200e-01
  -7.3981400e-01   3.4256600e-02   4.8599500e-01
  -3.0772600e-01  -5.4334100e-01  -2.1664300e-02
   2.0933300e-01  -5.9200000e-01  -4.7525700e-01
  -1.3054800e-01   2.4199500e-01  -2.0750200e-01
  -1.7420100e-01   6.0764300e-01  -6.2857500e-02
   1.2132800e-01   3.2691500e-01  -7.6432500e-02
  -6.3085500e-02   1.3999700e-01   2.4258100e-01
  -4.6832900e-01   1.4444200e-01   4.2022600e-01
  -1.7023200e-01   1.7415300e-01   2.8260400e-01
   3.1367900e-01   3.2831900e-01   3.2566900e-01
   2.9197000e-01   6.7876100e-01   4.6797300e-01
   2.9523800e-01   5.6296000e-01   2.1004700e-01
   2.0419800e-01  -3.9200500e-02   3.0997500e-02
  -9.2731800e-02  -4.9702100e-01   7.3581800e-03
  -4.1020400e-01  -8.7740700e-01  -4.2353200e-01
  -6.3103400e-01  -1.1050300e+00  -8.3850600e-01
  -4.4311800e-01  -9.0080100e-01  -9.2580800e-01
  -4.4410700e-02  -1.2388700e-01  -7.5565200e-01
   2.2123900e-01   8.2052800e-01  -2.9339900e-01
   5.6719000e-01   1.3569500e+00   4.2841800e-01
   7.5393800e-01   1.2694600e+00   1.0875100e+00
   3.4776100e-01   5.5196500e-01   1.1350200e+00
  -2.6360600e-01  -3.5689100e-01   5.8102000e-01
  -3.2920200e-01  -9.0524600e-01  -1.1856200e-01
  -2.4423100e-01  -8.2734400e-01  -6.6530800e-01
  -4.3704900e-01  -5.2181800e-01  -1.0309000e+00
  -2.1808700e-01  -4.2730700e-01  -1.1909900e+00
   3.0854300e-01  -2.7618200e-01  -9.8830000e-01
   6.2905000e-01   1.6058400e-01  -2.9854800e-01
   4.8198600e-01   6.6612800e-01   4.3426900e-01
   1.1315800e-01   7.0238900e-01   8.6539300e-01
   1.8412200e-01   1.9848200e-01   1.1860400e+00
   1.5797800e-01  -3.5408300e-01   1.0540400e+00
  -1.7046600e-01  -7.4102000e-01   2.0817500e-01
  -1.7023200e-01  -7.7774800e-01  -5.3540900e-01
  -1.6206200e-01  -3.8075300e-01  -5.7309100e-01
  -2.1832000e-01  -9.6983600e-02  -5.2160000e-01
  -1.6182900e-01  -3.5572100e-01  -6.9854300e-01
  -4.2076300e-02  -5.8638600e-01  -6.0773100e-01
   1.0685500e-01  -4.0344500e-01  -2.1522500e-01
   1.8342200e-01  -1.6997300e-01  -5.8878600e-02
   2.1190100e-01  -2.1722900e-01  -1.1037000e-01
   1.4210400e-01  -2.3664600e-01   9.7936400e-02
   8.2344700e-02  -1.5362200e-03   4.4878100e-01
   2.0717800e-02  -2.0017500e-02   3.9260800e-01
  -2.3372700e-01  -2.2799000e-01   1.0987300e-01
  -2.4096300e-01  -3.2530900e-01   1.1151100e-01
   2.1353500e-01  -2.6261300e-01  -2.8217700e-02
   4.1405600e-01  -2.4881100e-01  -4.8532200e-01
   4.0985400e-01  -3.1548300e-01  -6.4166800e-01
   4.9015600e-01  -7.3355700e-02  -1.8386200e-01
   5.0906400e-01   9.8356100e-02   1.6019400e-01
   1.9462700e-01  -1.7816100e-01   8.2254900e-02
  -2.3606100e-01  -5.4193700e-01   2.3579300e-01
  -2.8228100e-01  -6.5843900e-01   3.9939600e-01
  -3.0048900e-01  -4.9164000e-01   1.6534300e-01
  -2.0501400e-01  -2.7454400e-01  -1.3939300e-01
   5.9234600e-02  -7.8502400e-02  -3.0792300e-02
   4.6727900e-01   9.1337900e-02   2.0419600e-01
   7.4670100e-01   1.2479100e-01   1.4942800e-01
   4.9645900e-01   2.0245900e-01   2.2128200e-01
   3.9584800e-01   1.2970400e-01   4.7476000e-01
   5.1910200e-01  -1.1546500e-01   4.7171800e-01
   3.1648000e-01  -3.4449200e-01   1.3210800e-01
  -2.2579000e-01  -6.1913700e-01  -1.4337100e-01
  -6.4223800e-01  -5.7632600e-01  -7.4560100e-02
  -4.3751600e-01  -3.7092700e-01   9.6987100e-03
  -5.7483100e-02  -2.7969100e-01   1.2728300e-03
  -2.6407300e-01  -1.2178100e-01   1.7728000e-01
  -5.9905300e-01  -1.5104700e-02   3.2941400e-01
  -4.6015900e-01  -5.6512100e-02   2.6200700e-01
  -6.3318900e-02  -3.4077400e-03   2.2596300e-01
   4.3361000e-02   3.3086900e-02   2.8611400e-01
  -1.7700200e-01  -1.3675300e-01   1.9670600e-01
  -6.1218000e-02  -1.9757800e-01   1.4379700e-02
   3.2389500e-02   7.8471200e-02   1.0051100e-01
  -3.7641100e-02   2.3123400e-01   2.1753700e-01
   6.2736100e-02  -9.2070900e-02  -3.8282000e-02
   1.6381400e-01  -2.3032900e-01  -3.0393100e-01
   2.6722500e-01   4.0783300e-03  -1.6186200e-01
   1.1619300e-01   9.5314800e-02   6.7041500e-02
  -2.9208500e-01  -2.3266900e-01   1.6954300e-02
  -7.1693800e-01  -7.3049300e-01  -1.7941500e-01
  -7.6455800e-01  -7.2113500e-01  -2.0773600e-01
  -3.2990200e-01  -2.2027000e-01  -2.4050300e-01
   5.7779000e-03   2.7427900e-01  -3.6501900e-01
   1.5377600e-01   6.5630200e-01  -1.1926400e-01
   3.7157100e-01   8.2240000e-01   3.7177700e-01
   4.0401800e-01   5.7161600e-01   5.3514600e-01
   1.9392700e-01   4.9696600e-02   2.8541200e-01
  -1.9497600e-01  -2.2144000e-01   9.6532100e-02
  -3.8452600e-01  -4.5049000e-02   6.6339300e-02
  -1.9544300e-01   1.1075500e-01  -2.1358700e-01
  -8.3627800e-02   5.4141400e-02  -5.7004900e-01
  -1.7957000e-01   4.0572900e-02  -5.1177000e-01
  -3.7262100e-01   9.6718500e-02  -2.9597300e-01
  -5.3719300e-01   6.7709900e-02  -2.1756600e-01
  -7.5872300e-01  -4.2241700e-02  -1.3658400e-01
  -8.7824100e-01  -4.1539900e-02   4.4104400e-02
  -5.7104100e-01   4.2678400e-02   1.1221400e-01
  -1.6486300e-01   8.8296600e-02   3.0997500e-02
   7.9076600e-02   1.4982300e-01   3.8019000e-02
   2.1516900e-01   3.1194300e-01   7.7105700e-02
   9.8451700e-02   5.1406700e-01   1.1080900e-01
   1.5541000e-01   5.1009000e-01   1.2063900e-01
   1.9112500e-01   3.9405600e-01   9.0680800e-02
  -1.3130400e-02   3.4609800e-01  -6.5198000e-02
  -8.4328100e-02   2.0386300e-01  -3.1142100e-01
   2.7720800e-02   1.2876800e-01  -3.5003900e-01
  -1.7653500e-01   1.6711100e-02  -2.6390800e-01
  -7.7483000e-01  -1.8096800e-01  -3.8327500e-01
  -9.8072000e-01  -1.7207800e-01  -3.9895600e-01
  -8.2291700e-01  -4.4815100e-02  -1.2534900e-01
  -8.4696100e-01   5.8820200e-02   1.4100200e-01
  -7.8720200e-01   1.0139700e-01   1.5387500e-01
  -1.9380900e-01   4.1347300e-01   1.6393900e-01
   8.8647400e-02   8.4953700e-01   5.4544400e-01
   1.1712700e-01   9.1012700e-01   7.2004700e-01
   2.2118400e-02   5.3722700e-01   5.3678400e-01
   3.3556700e-02   6.7943900e-02   3.5328700e-01
  -8.7129300e-02  -4.1841700e-01   1.2906500e-01
  -3.3340400e-01  -4.4298100e-01  -3.1422900e-01
   1.9369300e-01   3.9403200e-02  -5.4523900e-01
   5.6648900e-01   5.6553400e-01  -1.3541400e-01
   4.3599900e-01   7.3537400e-01   2.4445300e-01
  -2.5823700e-01   5.3439600e-02   1.3608700e-01
  -8.3435600e-01  -3.4706500e-01  -6.5666100e-02
  -8.4299300e-01  -2.8647500e-01   6.0254000e-02
  -6.0862400e-01  -2.9375100e-02   1.1806500e-01
  -4.0506800e-01   7.1920900e-02  -1.0334800e-01
  -2.0758200e-01  -8.6924200e-02  -3.3646400e-01
  -4.1142600e-02   2.0456500e-01  -2.8169600e-01
  -3.6007000e-02   6.5349500e-01  -8.7914200e-03
   2.2763700e-03   8.6333900e-01   9.1148900e-02
  -2.6407300e-01   6.8063200e-01   2.6832600e-01
  -3.4460800e-01   4.9324600e-01   5.0261300e-01
  -3.3106900e-01   2.6585700e-01   5.6112600e-01
  -1.0953900e-01   3.2151100e-02   3.1888200e-01
   1.5984500e-01  -1.6599600e-01   7.2190600e-02
   3.0457500e-01  -2.7150300e-01   3.6848800e-02
   6.1947900e-01  -3.0893300e-01  -1.2254100e-01
   6.4329000e-01  -2.7922300e-01  -2.0469300e-01
   5.2213700e-01   2.6302600e-02  -1.1786000e-01
   2.3641200e-01   1.2993800e-01  -1.0592300e-01
   7.2073500e-02   1.2315400e-01  -1.7590500e-01
  -2.4213000e-01   1.4795100e-01  -1.4805200e-01
  -8.8010900e-01   2.1251900e-01  -9.7965300e-02
  -1.0600900e+00   1.1941100e-01  -2.5548200e-01
  -8.9434800e-01  -1.7114300e-01  -3.1376100e-01
  -5.1641700e-01  -2.8203000e-01  -9.1879900e-02
  -6.4486100e-02  -2.7454400e-01  -1.5110800e-02
   2.0863300e-01   8.5231900e-03  -4.9984600e-02
   4.3903400e-01   3.9429000e-01   9.0680800e-02
   7.2219100e-01   5.6810700e-01   2.6294300e-01
   7.7074500e-01   6.4577500e-01   2.2900600e-01
   3.6923700e-01   5.1242900e-01   7.3360900e-02
  -4.7912200e-02   1.8514800e-01  -7.6211500e-03
  -2.3816200e-01  -1.8634900e-01  -1.7262800e-01
  -5.0311100e-01  -4.2777400e-01  -4.5044800e-01
  -6.7958800e-01  -3.8402800e-01  -5.9836900e-01
  -2.0851600e-01  -1.9079300e-01  -4.1393600e-01
   2.5788800e-01   6.6540300e-02  -2.8451800e-02
   2.7166100e-01   2.0012000e-01   3.0975400e-01
   2.1423600e-01   7.4494200e-02   5.5925300e-01
   1.1105700e-01  -9.3240600e-02   7.4696300e-01
  -4.6978500e-02  -2.1021000e-01   6.8119400e-01
  -1.2798100e-01  -1.8751800e-01   3.0717900e-01
  -5.4269900e-03  -2.6801700e-02   1.1198000e-01
   8.1877800e-02   1.8538200e-01   1.1080900e-01
   5.1531200e-02   2.9790700e-01  -3.1728500e-02
   2.3174300e-01   1.5263000e-01  -1.8199000e-01
   2.4715000e-01  -7.0548500e-02  -1.0826400e-01
  -1.0370300e-01  -3.6882200e-01  -7.6432500e-02
  -2.0571400e-01  -6.4767800e-01  -2.5946100e-01
  -2.9161900e-01  -7.0335600e-01  -2.7631300e-01
  -3.3223600e-01  -5.6205600e-01  -1.4103100e-01
  -2.8788400e-01  -2.4389800e-01  -4.4367300e-02
   5.0830900e-02   1.2596100e-01   1.4755500e-01
   4.8688800e-01   3.4118600e-01   3.4018000e-01
   4.6284400e-01   4.0434900e-01   3.8277800e-01
   2.7703000e-01   1.8631700e-01   2.5685800e-01
  -6.7287300e-02  -2.4319600e-01   3.5678500e-02
  -3.1262800e-01  -6.2451800e-01  -2.1639600e-01
  -3.0282400e-01  -7.9529400e-01  -5.9532600e-01
  -3.4839800e-02  -4.9842400e-01  -7.5916300e-01
   4.9645900e-01  -2.3760500e-02  -4.8157700e-01
   7.5300400e-01   3.0726400e-01  -8.8837300e-02
   4.0611900e-01   3.8586800e-01   2.3813400e-01
   1.2366300e-01   1.1636900e-01   4.8388800e-01
  -5.3112300e-01  -4.9889200e-01   4.9957000e-01
  -1.1490300e+00  -1.0315700e+00   1.6955600e-01
  -3.9316300e-01  -8.5869200e-01  -1.7871300e-01
   1.0996600e+00  -9.6281800e-02  -1.8737300e-01
   1.9804100e+00   3.9265200e-01   7.3581800e-03
   1.7801200e+00   3.2130100e-01   1.2766100e-01
   1.2168400e+00   1.2479100e-01   2.1964300e-01
   2.7954200e-02  -1.6318900e-01   2.5217700e-01
  -1.9548400e+00  -7.6651900e-01  -5.3729400e-02
  -2.6490800e+00  -1.3712500e+00  -6.3745600e-01
  -1.2510400e+00  -1.0624500e+00  -9.0708400e-01
   3.9001200e-01  -1.6108300e-01  -5.6887800e-01
   1.2343500e+00   3.2059900e-01  -9.8433400e-02
   1.4187600e+00   4.4014200e-01   2.4398500e-01
   1.3407900e+00   5.2576400e-01   6.5287400e-01
   8.1066300e-01   5.6108900e-01   9.8873900e-01
   9.4716700e-02   1.7462000e-01   8.4620100e-01
  -3.2289900e-01  -5.7351900e-01   2.1332400e-01
  -4.1650600e-01  -7.9365600e-01  -3.3435800e-01
  -8.2927500e-02  -4.9748900e-01  -5.5366500e-01
   2.3477800e-01  -1.5312900e-01  -6.0562400e-01
   2.2894200e-01  -4.9961800e-02  -3.7953000e-01
   2.8146500e-01  -1.1125400e-01   1.0387800e-03
   1.6428000e-01  -1.1780400e-01   3.9143800e-01
   6.0168300e-02  -2.9115400e-01   4.9208000e-01
   2.3524500e-01  -4.5374200e-01   2.3298400e-01
   8.1644400e-02  -3.2320300e-01   5.2062100e-02
   5.0130600e-02   5.5545100e-02  -9.7731200e-02
  -1.3778500e-01   2.3544500e-01  -2.8146200e-01
  -2.7014300e-01   2.8480600e-01  -4.7830000e-01
  -3.9363000e-01   1.2385500e-01  -5.3353600e-01
  -1.9637700e-01   1.5637300e-01  -4.2704300e-01
   6.8694200e-01   2.4924700e-01  -2.3488600e-01
   1.2471900e+00   2.7942500e-01   1.2134200e-01
   1.3494300e+00   3.9686300e-01   3.8792700e-01
   8.6458600e-01   6.1627500e-02   2.8751900e-01
   4.1989200e-01  -1.3698700e-01  -2.7749600e-02
   1.6871600e-01  -2.7992500e-01  -1.2769000e-01
  -1.5365800e-01  -9.9557000e-02  -1.5460600e-01
  -6.0232100e-01  -2.7059200e-03  -2.3207700e-01
  -6.9896300e-01  -8.9965500e-02  -2.6016300e-01
  -4.6249300e-01   9.2507600e-02  -8.4624300e-02
  -3.5884800e-01   1.1660300e-01  -2.0039000e-03
  -5.8183400e-02   7.4026300e-02  -2.5454600e-01
   5.3287500e-01   2.9343800e-02  -3.5261400e-01
   1.1762200e+00   4.1721600e-01  -1.7052100e-01
   9.5819400e-01   8.5234400e-01   2.4351700e-01
   3.4752700e-01   7.6976300e-01   2.3485700e-01
  -1.8213700e-01   1.7157900e-01  -4.5771700e-02
  -5.4816400e-01   7.4728100e-02  -1.1388100e-01
  -5.0054300e-01   3.9733100e-01  -1.7239400e-01
  -3.6164900e-01   4.6774700e-01  -1.3869000e-01
   5.9468000e-02   4.2119300e-01  -4.0154400e-02
   2.1423600e-01   4.8292900e-02   1.3023600e-01
   4.4113500e-01  -1.1078600e-01   1.4778900e-01
   5.6228800e-01  -3.2858400e-01   8.4361300e-02
   2.7026000e-01  -1.5032200e-01   8.8574300e-02
   1.0242000e-01   1.8468000e-01   6.9382000e-02
   5.6666800e-02   2.7615000e-01  -1.6749200e-02
   2.2193900e-01   4.4435300e-01  -3.8750100e-02
   1.6544800e-01   2.4667400e-01  -6.9176900e-02
   1.2833100e-01   3.1849300e-01  -1.4898900e-01
   4.1260100e-02   3.3486900e-01  -5.5601800e-02
   1.6591400e-01   2.0994500e-01   1.0542600e-01
   2.2497400e-01   5.0164500e-02   1.8851500e-01
   1.7688600e-01  -1.9126100e-01   3.0061200e-02
   1.1380300e-02  -2.9232300e-01  -1.6139300e-01
  -2.4049600e-01  -2.4296200e-01  -2.6741900e-01
  -3.0118900e-01  -1.7488600e-01  -3.7414700e-01
  -5.0754600e-01  -6.8676900e-02  -4.1861700e-01
  -3.5884800e-01   7.7769400e-02  -3.2125100e-01
  -2.3489400e-01   1.4935500e-01  -1.2230700e-01
   8.8125600e-03   4.0551900e-01   8.6701900e-02
   2.5321900e-01   5.1383300e-01   2.2338800e-01
   4.8081900e-01   6.8273800e-01   2.8073100e-01
   4.9505800e-01   5.6413000e-01   3.1303000e-01
   5.0626300e-01   3.4516300e-01   1.8968500e-01
   3.8090800e-01   1.2900200e-01   1.2017100e-01
  -9.1619600e-03  -1.1733600e-01   1.6276900e-01
  -2.4586500e-01  -2.1021000e-01   1.9085500e-01
  -4.2421000e-01  -5.7188100e-01   7.1020400e-02
  -2.3396000e-01  -7.3025900e-01  -6.2623400e-02
  -1.3381600e-01  -4.8041100e-01  -1.2417900e-01
  -1.3871900e-01  -1.0049300e-01  -2.7022800e-01
  -5.4215000e-02   1.6713400e-01  -2.7888800e-01
   4.0985400e-01   1.9778000e-01  -1.4056300e-01
   4.0822000e-01   1.5775300e-02   1.1291600e-01
   2.3454400e-01   1.9076200e-01   2.2526100e-01
   9.2615800e-02   2.3521100e-01   1.9834500e-01
  -7.4990700e-02   2.4105900e-01   2.4304900e-01
  -9.8801100e-02   1.8210600e-01   2.5756000e-01
  -2.8765000e-01  -6.1424800e-02   1.5925800e-01
  -3.4064000e-01  -1.7114300e-01   4.8551400e-02
  -2.8204800e-01  -3.2905200e-01   3.0061200e-02
   6.9038900e-02  -3.7888100e-01   2.1167300e-02
   1.8318900e-01  -6.3317400e-01  -1.8621600e-02
   4.2339400e-01  -7.4406100e-01  -1.3283900e-01
   6.0313900e-01  -6.6475500e-01  -2.2084300e-01
   6.8951000e-01  -3.2858400e-01  -2.7256800e-01
   7.0048100e-01   9.2273600e-02  -1.0522100e-01
   3.4916100e-01   3.6925800e-01   8.1318700e-02
  -2.5030100e-01   2.2234400e-01   1.2298000e-01
  -5.3555800e-01   1.6477100e-02   8.7170000e-02
  -3.6328300e-01  -2.9630000e-01  -4.9750500e-02
