**************************************************************************************
  	RED ACELEROGRÁFICA DE LA UNIVERSIDAD AUTONOMA METROPOLITANA (RA-UAM)
	   UNIDAD AZCAPOTZALCO. DIVISIÓN CBI-DEPARTAMENTO DE MATERIALES
     Av. San Pablo 420, Col. Nueva el Rosario, Azcapotzalco, C.P. 02128, Ciudad de México
		Área de Estructuras. e-mail: agb@azc.uam.mx
**************************************************************************************
ARCHIVO ESTANDAR DE ACELERACION:
VERSION DEL FORMATO                    : 2.0
NOMBRE DEL ARCHIVO                     : RIDR202406.231
FECHA Y HORA DE CREACION               : 11:30 a. m. 28/06/2024
REF. CATALOGO ACELEROGRAMAS, SMIS 1999 : REGISTRO NO.      /PAG.    


================================================================================
DATOS DE LA ESTACION:
NOMBRE DE LA ESTACION                  : UAM-RECTORIA.
CLAVE DE LA ESTACION                   : RIDR
LOCALIZACION DE LA ESTACION            : PROL. CANAL DE MIRAMONTES 3855, COL. EX
                                       : DE SAN JUAN DE DIOS, C.P.14387 CIUDAD DE MEXICO.
                                       :
                                       : 
                                       : 
COORDENADAS DE LA ESTACION             : 19.287271 LAT. N
                                       : 99.137132 LONG. W
ALTITUD (msnm)                         : 2240
TIPO DE SUELO                          : TRANSICION
                                       : 
                                       : 
INSTITUCION RESPONSABLE                : UNIVERSIDAD AUTONOMA METROPOLITANA
                                       : 

================================================================================
DATOS DEL ACELEROGRAFO: 
MODELO DEL ACELEROGRAFO                : ETNA2 KINEMETRICS
NUMERO DE SERIE DEL ACELEROGRAFO       : 103462
NUMERO DE CANALES                      : 3
ORIENTACION C1-C6 (rumbo;orientacion)  : /N90E/N00E/V
ORIENTACION C7-C12 (rumbo;orientacion) : 
VEL. DE MUESTREO, C1-C6 (muestras/s)   : /200/200/200
VEL. DE MUESTREO, C7-C12 (muestras/s)  : 
ESC. COMPLETA DE SENSORES, C1-C6, (g)  : /2/2/2
ESC. COMPLETA DE SENSORES, C7-C12 (g)  : 
FREC. NAT. DE SENSORES, C1-C6, (Hz)    : /200/200/202   
FREC. NAT. DE SENSORES, C7-C12 (Hz)    : 
AMORTIGUAMIENTO DE SENSORES, C1-C6     : /0.7/0.7/0.7      
AMORTIGUAMIENTO DE SENSORES, C7-C12    : 
INTERVALO DE MUESTREO, C1-C6 (s)       : /0.005/0.005/0.005
INTERVALO DE MUESTREO, C7-C12 (s)      : 
UMBRAL DE DISPARO, C1-C6 (Gal)         : /2/2/2
UMBRAL DE DISPARO, C7-C12 (Gal)        : 
MEMORIA DE PREEVENTO (s)               : 50
TIEMPO DE POSEVENTO (s)                : 60


================================================================================
DATOS DEL SISMO:
FECHA DEL SISMO [GMT]                  : 2024/06/23
HORA EPICENTRO (GMT)                   : 17:16:18
MAGNITUD(ES)                           : /M=5.2
COORDENADAS DEL EPICENTRO              : 16.6200 LAT. N
                                       : -99.4700 LONG. W
PROFUNDIDAD FOCAL (Km)                 : 11.0
FUENTE DE LOS DATOS EPICENTRALES       : SSN
                                       : INSTITUTO DE GEOFISICA, UNAM

================================================================================
DATOS DE ESTE REGISTRO:
HORA DE LA PRIMERA MUESTRA (GMT)       : 17:16:54.000
EXACTITUD DEL TIEMPO (s)               : 
DURACION DEL REGISTRO (s), C1-C6       : /165/165/165
DURACION DEL REGISTRO (s), C7-C12      : 
NUM. TOTAL DE MUESTRAS, C1-C6          : /33000/33000/33000
NUM. TOTAL DE MUESTRAS, C7-C12         : 
ACEL. MAX.(Gal), C1-C6                 : /4.523/3.872/1.240
ACEL. MAX., C1-C6, EN LA MUESTRA       : /12216/12969/11114
ACEL. MAX.(Gal), C7-C12                : 
ACEL. MAX., C7-C12,EN LA MUESTRA       : 
UNIDADES DE LOS DATOS                  : Gal (cm/s/s)
FACTOR DE DECIMACION                   : 1
FORMATO DATOS (FORTRAN,16 campos/dato) : 3E16.7


================================================================================
CALIDAD DEL ACELEROGRAMA:
REGISTRO DIGITAL COMPLETO CON TIEMPO ABSOLUTO CORRECTO


================================================================================
COMENTARIOS:














================================================================================
DATOS DE ACELERACION:
---------+---------+---------+---------+---------+---------+---------+---------+
   CANAL-1   	     CANAL-2          CANAL-3
     N90E             N00E              V
---------+---------+---------+---------+---------+---------+---------+---------+
[...]
   1.6032000e+00  -3.5873600e-01   4.4721500e-01
   1.5929300e+00  -3.0703600e-01   5.1649500e-01
   1.6400800e+00  -2.5135800e-01   5.8320000e-01
   1.7094100e+00  -1.7930500e-01   6.3328700e-01
   1.7467600e+00  -1.1193000e-01   6.9297000e-01
   1.7269200e+00  -2.7477800e-02   7.4516400e-01
   1.6823400e+00   5.5077500e-03   7.7325000e-01
   1.6688000e+00   1.0420500e-02   7.7559100e-01
   1.7007800e+00   3.8727200e-02   7.7020700e-01
   1.7654400e+00   7.5689700e-02   7.8237800e-01
   1.8238000e+00   1.1873500e-01   7.8776100e-01
   1.8352400e+00   1.6224700e-01   7.7020700e-01
   1.8291700e+00   2.4646600e-01   7.5756900e-01
   1.8525100e+00   3.4238100e-01   7.7254800e-01
   1.8884600e+00   3.8098100e-01   7.9127200e-01
   1.9197400e+00   3.8916900e-01   7.6248400e-01
   1.9384100e+00   3.9338000e-01   7.0139600e-01
   1.9244100e+00   4.5303500e-01   6.3890400e-01
   1.9507900e+00   5.3234000e-01   5.8203000e-01
   2.0422900e+00   5.4006000e-01   4.9683500e-01
   2.0850100e+00   5.2812900e-01   4.0415000e-01
   2.0742700e+00   5.3842300e-01   3.4446700e-01
   2.0525600e+00   5.9901300e-01   3.2293400e-01
   2.0033100e+00   7.2744600e-01   3.4095600e-01
   2.0177800e+00   7.2463900e-01   3.4095600e-01
   2.1326300e+00   7.0452000e-01   3.3253000e-01
   2.2309100e+00   7.4616100e-01   3.2082700e-01
   2.2948700e+00   7.7470200e-01   3.1006100e-01
   2.3352500e+00   8.5751600e-01   2.9765600e-01
   2.2951000e+00   9.0570800e-01   2.8689000e-01
   2.2621900e+00   9.2372100e-01   2.4288800e-01
   2.3182100e+00   8.6944700e-01   1.7665100e-01
   2.3810100e+00   8.9120400e-01   1.6916200e-01
   2.3859100e+00   9.4430800e-01   1.4950100e-01
   2.3649000e+00   9.8197200e-01   1.2352100e-01
   2.3277800e+00   1.0930900e+00   1.2047900e-01
   2.2554200e+00   1.1073600e+00   1.2773400e-01
   2.2134000e+00   1.0916900e+00   1.0784000e-01
   2.2094300e+00   1.0271200e+00   2.4049200e-02
   2.1972900e+00   9.5740900e-01  -5.6230700e-02
   2.1485100e+00   9.9998600e-01  -1.0842400e-01
   2.0815100e+00   1.0727400e+00  -1.2668000e-01
   2.0224500e+00   1.1714600e+00  -8.7593700e-02
   1.9367800e+00   1.2269100e+00  -4.9911300e-02
   1.8378000e+00   1.2046800e+00  -5.3422100e-02
   1.7703400e+00   1.2238700e+00  -9.7658000e-02
   1.7103500e+00   1.2402400e+00  -1.8542800e-01
   1.6501200e+00   1.2697200e+00  -2.6570700e-01
   1.6209400e+00   1.2846900e+00  -3.5254100e-01
   1.5534800e+00   1.2505400e+00  -4.2533100e-01
   1.4393300e+00   1.2596600e+00  -4.6909900e-01
   1.3496900e+00   1.3345200e+00  -4.7401400e-01
   1.2836300e+00   1.4374500e+00  -4.2392700e-01
   1.2035600e+00   1.4659900e+00  -3.9584000e-01
   1.1265300e+00   1.3712500e+00  -4.1386200e-01
   1.0849700e+00   1.2409400e+00  -4.9250400e-01
   9.8996600e-01   1.2311200e+00  -5.4797400e-01
   8.2796200e-01   1.3644600e+00  -5.1918600e-01
   6.9443700e-01   1.4826000e+00  -4.4756600e-01
   5.8775700e-01   1.4982800e+00  -3.5628600e-01
   5.0979000e-01   1.4114900e+00  -3.3030600e-01
   4.9905200e-01   1.2477300e+00  -3.6400900e-01
   4.7174000e-01   1.2044500e+00  -3.8624400e-01
   3.3798200e-01   1.2853900e+00  -3.7969100e-01
   1.7947900e-01   1.3785000e+00  -3.1953900e-01
   8.3070300e-02   1.4112500e+00  -2.2662100e-01
   1.8408700e-02   1.3717200e+00  -1.5195800e-01
  -6.2359900e-02   1.3649300e+00  -1.2340400e-01
  -1.4569600e-01   1.4302000e+00  -1.0889200e-01
  -2.2389700e-01   1.5085700e+00  -6.4188500e-02
  -3.4388300e-01   1.5623800e+00   5.7931000e-03
  -4.6877100e-01   1.5513800e+00   4.9326800e-02
  -5.6541300e-01   1.4582700e+00   3.5517700e-02
  -6.7629500e-01   1.4409600e+00   2.7091900e-02
  -7.9744800e-01   1.5584000e+00   6.3369900e-02
  -8.7098000e-01   1.6466000e+00   1.2445800e-01
  -9.2023400e-01   1.6290500e+00   1.7220400e-01
  -1.0511900e+00   1.5221400e+00   1.8016200e-01
  -1.1940500e+00   1.3609500e+00   1.4996900e-01
  -1.2708500e+00   1.2949800e+00   1.1767000e-01
  -1.3555900e+00   1.3859900e+00   1.2141500e-01
  -1.4517700e+00   1.4769900e+00   1.3709600e-01
  -1.5147900e+00   1.5263500e+00   1.6050200e-01
  -1.5355700e+00   1.5403900e+00   1.8765200e-01
  -1.5523800e+00   1.4002600e+00   1.5605500e-01
  -1.6107400e+00   1.1946200e+00   6.3135900e-02
  -1.7087800e+00   1.1136800e+00  -3.5868200e-02
  -1.7757700e+00   1.1967300e+00  -6.6997100e-02
  -1.8112600e+00   1.2982600e+00  -2.1122900e-02
  -1.8908600e+00   1.2711200e+00   2.3347000e-02
  -1.9625200e+00   1.1270100e+00   4.9326800e-02
  -1.9998700e+00   1.0357800e+00   8.6541100e-02
  -2.0428200e+00   9.8922400e-01   1.1439300e-01
  -2.0799400e+00   9.8899100e-01   1.3826700e-01
  -2.1702800e+00   1.0217400e+00   1.8718400e-01
  -2.2895700e+00   9.5132600e-01   2.2603600e-01
  -2.3701000e+00   8.7412600e-01   2.3844100e-01
  -2.4602100e+00   8.0394400e-01   2.4218600e-01
  -2.5332700e+00   7.3703700e-01   2.2907900e-01
  -2.5542800e+00   6.7925400e-01   2.0941800e-01
  -2.5951300e+00   6.1819600e-01   1.8882200e-01
  -2.6698300e+00   5.9714100e-01   1.7243800e-01
  -2.6983100e+00   5.6579300e-01   1.7150200e-01
  -2.7555000e+00   5.2228100e-01   1.8273700e-01
  -2.8467800e+00   4.9748300e-01   2.0403500e-01
  -2.8815600e+00   4.0811800e-01   1.8531100e-01
  -2.8925300e+00   2.8576800e-01   1.3639400e-01
  -2.8894900e+00   2.2798400e-01   9.3796700e-02
  -2.9214800e+00   1.6903200e-01   6.0561300e-02
  -2.9583600e+00   3.4516300e-02   2.2410800e-02
  -2.9469200e+00  -8.6664500e-02  -4.2889700e-02
  -2.9394500e+00  -1.9030000e-01  -1.0304100e-01
  -2.9028000e+00  -2.4855100e-01  -1.4353200e-01
  -2.8757200e+00  -2.5229400e-01  -1.6015000e-01
  -2.9200700e+00  -2.9346700e-01  -1.4306400e-01
  -2.9231100e+00  -3.7908900e-01  -1.1731800e-01
  -2.9037300e+00  -5.2787500e-01  -1.0444500e-01
  -2.9112000e+00  -6.2800100e-01  -9.9530400e-02
  -2.8817900e+00  -7.2532000e-01  -1.1053100e-01
  -2.9030300e+00  -8.2731800e-01  -1.3955300e-01
  -2.9525200e+00  -8.5211500e-01  -1.3159600e-01
  -2.9478500e+00  -9.1434300e-01  -9.9296300e-02
  -2.9338500e+00  -1.0137700e+00  -1.1965900e-01
  -2.9056000e+00  -1.1185700e+00  -1.4493600e-01
  -2.9289400e+00  -1.1859500e+00  -1.2293600e-01
  -2.9952400e+00  -1.2212700e+00  -6.1145800e-02
  -2.9740000e+00  -1.3312200e+00  -3.1655200e-02
  -2.9329100e+00  -1.3918100e+00  -2.2527200e-02
  -2.9740000e+00  -1.4598900e+00   6.4952600e-03
  -2.9810000e+00  -1.5525300e+00  -1.6965700e-03
  -2.9695600e+00  -1.5375600e+00  -2.9225300e-04
  -3.0069100e+00  -1.5553400e+00   1.6091400e-02
  -2.9982800e+00  -1.5974500e+00   2.4283200e-02
  -2.9742300e+00  -1.6400200e+00   4.2773300e-02
  -2.9511200e+00  -1.6409600e+00   6.0795400e-02
  -2.9259100e+00  -1.6629500e+00   6.0093200e-02
  -2.9520600e+00  -1.6713700e+00   8.5604900e-02
  -2.9242800e+00  -1.6812000e+00   7.2732000e-02
  -2.9023300e+00  -1.7813200e+00  -4.9733000e-03
  -2.9665300e+00  -1.8379400e+00  -3.6336300e-02
  -2.9648900e+00  -1.8257700e+00  -4.8038900e-02
  -2.9849700e+00  -1.7181600e+00   1.6325500e-02
  -3.0078500e+00  -1.6830700e+00   1.1111700e-01
  -2.9193700e+00  -1.7651800e+00   1.0807400e-01
  -2.8780600e+00  -1.8627400e+00   5.5178100e-02
  -2.8663800e+00  -1.8744300e+00   6.7293100e-03
  -2.8526100e+00  -1.8304500e+00   3.9206900e-03
  -2.8852900e+00  -1.8508000e+00   3.5283700e-02
  -2.8374400e+00  -1.9111600e+00   3.2709100e-02
  -2.7291200e+00  -1.9495300e+00   1.2346600e-02
  -2.6658600e+00  -1.8678800e+00   4.3943600e-02
  -2.6023700e+00  -1.8075300e+00   7.4838500e-02
  -2.5311700e+00  -1.8021400e+00   6.4306100e-02
  -2.4450300e+00  -1.7581600e+00   6.8519100e-02
  -2.3516600e+00  -1.7338300e+00   1.0315900e-01
  -2.3276200e+00  -1.6945300e+00   1.3803300e-01
  -2.3297200e+00  -1.6896200e+00   1.3030900e-01
  -2.3017000e+00  -1.6737100e+00   1.0292500e-01
  -2.2335400e+00  -1.6056400e+00   9.0285900e-02
  -2.0906800e+00  -1.5871500e+00   7.9285500e-02
  -1.9496800e+00  -1.4875000e+00   6.7816900e-02
  -1.8950600e+00  -1.4177800e+00   6.5710500e-02
  -1.8072900e+00  -1.3932200e+00   6.9455300e-02
  -1.7057400e+00  -1.3417500e+00   3.7858200e-02
  -1.6387500e+00  -1.2994100e+00  -7.5478700e-03
  -1.5178300e+00  -1.1389300e+00  -1.5037500e-02
  -1.4510700e+00  -1.0165800e+00  -7.6035700e-04
  -1.3826700e+00  -1.0282700e+00  -7.7819200e-03
  -1.2246300e+00  -1.0540100e+00  -6.5358800e-02
  -1.0572600e+00  -1.0469900e+00  -1.1310500e-01
  -8.7168000e-01  -8.6708800e-01  -7.3082500e-02
  -6.9870400e-01  -6.8672000e-01  -2.8846600e-02
  -5.7405000e-01  -7.0988000e-01  -4.1719500e-02
  -4.5709900e-01  -8.4907400e-01  -1.3768100e-01
  -3.6325800e-01  -9.7002100e-01  -2.6055800e-01
  -1.5993600e-01  -9.4896600e-01  -3.4247700e-01
   1.0991500e-01  -8.1585500e-01  -4.0005300e-01
   1.9185100e-01  -5.6811300e-01  -3.6962700e-01
   2.6211500e-01  -3.7090100e-01  -2.8349500e-01
   4.3532400e-01  -3.4774100e-01  -2.2638700e-01
   6.2884200e-01  -5.2506800e-01  -2.9683600e-01
   7.8594400e-01  -6.5630800e-01  -4.1877800e-01
   9.6895700e-01  -5.9829100e-01  -5.7535800e-01
   1.1946900e+00  -4.1885900e-01  -6.8653300e-01
   1.3473600e+00  -9.6723900e-02  -6.3153100e-01
   1.4218200e+00   1.2551900e-01  -5.5008100e-01
   1.5271000e+00   2.2049800e-01  -4.5809800e-01
   1.7687100e+00   1.9219200e-01  -4.4031000e-01
   1.9806700e+00   1.3838600e-01  -4.3937400e-01
   2.1321700e+00   2.2517700e-01  -4.2369300e-01
   2.2829600e+00   3.1009700e-01  -4.6980100e-01
   2.3952500e+00   3.9455000e-01  -4.8712100e-01
   2.5166300e+00   5.3982600e-01  -4.8173800e-01
   2.6557600e+00   6.2287500e-01  -4.5482200e-01
   2.7934900e+00   6.4369500e-01  -4.1362800e-01
   2.9400800e+00   6.5211700e-01  -3.8928700e-01
   3.0824800e+00   6.2544800e-01  -3.8132900e-01
   3.1611500e+00   6.3878300e-01  -3.8086100e-01
   3.2181100e+00   6.7644700e-01  -3.9841500e-01
   3.2907000e+00   7.1224000e-01  -4.1035200e-01
   3.3812800e+00   7.6019700e-01  -3.8507400e-01
   3.5017300e+00   7.4358800e-01  -3.8390400e-01
   3.5995400e+00   6.7878600e-01  -4.1082000e-01
   3.6875400e+00   6.6334600e-01  -4.3328900e-01
   3.7557100e+00   6.7948800e-01  -4.4101200e-01
   3.8045000e+00   7.0241400e-01  -4.2088400e-01
   3.8859600e+00   7.5247700e-01  -4.1690500e-01
   3.9510900e+00   7.7119300e-01  -4.1877800e-01
   4.0236900e+00   7.9692600e-01  -4.0005300e-01
   4.1166000e+00   7.4616100e-01  -4.4335300e-01
   4.1917600e+00   6.2591600e-01  -5.0397300e-01
   4.2575900e+00   6.4182400e-01  -4.9741900e-01
   4.2958800e+00   6.8159400e-01  -4.7073700e-01
   4.3677700e+00   6.6615400e-01  -4.7143900e-01
   4.4427100e+00   6.7059800e-01  -4.8922700e-01
   4.4471400e+00   6.3995200e-01  -4.9227000e-01
   4.4588100e+00   5.9199500e-01  -4.8384400e-01
   4.4707200e+00   5.4427100e-01  -4.7167300e-01
   4.4882300e+00   4.9093300e-01  -4.5154500e-01
   4.5206700e+00   4.6566700e-01  -4.3680000e-01
   4.5232400e+00   4.2940700e-01  -4.4428900e-01
   4.5090000e+00   3.7443100e-01  -4.6324700e-01
   4.4506400e+00   3.2249600e-01  -4.9531300e-01
   4.3817800e+00   2.6424500e-01  -5.4399500e-01
   4.3159500e+00   2.1254400e-01  -5.4516600e-01
   4.2211800e+00   1.8938400e-01  -5.2105800e-01
   4.1341100e+00   1.0306100e-01  -5.3814400e-01
   4.0673400e+00   5.7910300e-02  -5.4095300e-01
   3.9921800e+00   8.0134500e-02  -5.3393100e-01
   3.9237800e+00   8.2240000e-02  -5.3416500e-01
   3.8444100e+00   8.3877600e-02  -5.3042000e-01
   3.7073900e+00   7.0776900e-02  -5.0607900e-01
   3.5864700e+00   3.3814500e-02  -4.9039700e-01
   3.4629800e+00  -1.4143200e-02  -5.1450500e-01
   3.3245500e+00  -1.8354100e-02  -5.2597300e-01
   3.1985000e+00   6.6774500e-03  -5.1473900e-01
   3.0514300e+00   1.7204700e-02  -4.9648300e-01
   2.9211800e+00   4.9488400e-02  -4.6137500e-01
   2.8004900e+00   6.1887200e-02  -4.1269200e-01
   2.6653300e+00  -1.2765000e-03  -3.7594600e-01
   2.5689200e+00  -2.1161400e-02  -3.3849800e-01
   2.4755500e+00  -4.5257200e-02  -3.1743300e-01
   2.3235800e+00  -4.9468100e-02  -2.9824100e-01
   2.1830500e+00  -7.7306900e-02  -2.6477100e-01
   2.0493000e+00  -8.5494800e-02  -2.2428000e-01
   1.8980300e+00  -2.5840200e-02  -1.7723600e-01
   1.7920500e+00  -4.5725100e-02  -1.4961800e-01
   1.6853700e+00  -5.8825700e-02  -1.2714900e-01
   1.5399400e+00  -1.2037700e-02  -8.0806200e-02
   1.4470300e+00  -6.9820900e-02  -7.6593300e-02
   1.3191100e+00  -1.2456300e-01  -8.8529900e-02
   1.1480000e+00  -8.5286400e-03  -4.5698400e-02
   1.0294200e+00   1.1522500e-01   1.3516800e-02
   9.0616300e-01   1.8283400e-01   9.5201000e-02
   8.1325600e-01   5.9547800e-02   1.0549900e-01
   6.6432400e-01  -5.7889900e-02   6.4540200e-02
   4.9064800e-01  -6.1892400e-03   2.9198300e-02
   4.3392300e-01   8.7152700e-02  -4.9733000e-03
   3.4405100e-01   1.9359500e-01  -7.3138200e-03
   1.8998400e-01   1.4259600e-01  -3.2591500e-02
   4.6187500e-02   6.8671500e-02  -3.5166000e-02
  -1.1791700e-01   1.6786200e-01   7.1974200e-03
  -2.3113400e-01   2.6237400e-01   9.3328600e-02
  -3.2404100e-01   3.1313900e-01   2.0848200e-01
  -4.4356000e-01   3.0401500e-01   2.5599500e-01
  -5.0145200e-01   2.3126000e-01   2.3024900e-01
  -5.9319200e-01   1.8423800e-01   1.5652300e-01
  -7.7503800e-01   2.6190600e-01   1.5699100e-01
  -8.9665800e-01   4.1583800e-01   2.5271800e-01
  -9.6598800e-01   4.3431900e-01   3.4423300e-01
  -1.0670700e+00   3.8799900e-01   4.0929900e-01
  -1.1221600e+00   3.2436800e-01   3.7442500e-01
  -1.2059600e+00   3.7092200e-01   3.5429700e-01
  -1.3093700e+00   5.0169400e-01   4.0157500e-01
  -1.3149700e+00   5.2929900e-01   4.0485200e-01
  -1.3759000e+00   5.2906500e-01   4.1444800e-01
  -1.5147900e+00   5.2812900e-01   4.6757800e-01
  -1.6044300e+00   5.7912800e-01   4.9730300e-01
  -1.6775000e+00   6.5305300e-01   4.8981300e-01
  -1.7206800e+00   6.9656600e-01   4.8138700e-01
  -1.7377200e+00   7.6464200e-01   4.7740800e-01
  -1.8138200e+00   8.5377300e-01   4.8957900e-01
  -1.9046300e+00   9.0056100e-01   5.0736700e-01
  -1.9683600e+00   9.1483200e-01   5.3100600e-01
  -1.9982400e+00   9.2161600e-01   5.2702700e-01
  -1.9837700e+00   9.6208700e-01   5.0572900e-01
  -1.9732600e+00   1.0797600e+00   5.1087800e-01
  -1.9907700e+00   1.1866700e+00   5.0853700e-01
  -1.9865700e+00   1.2531100e+00   4.8887700e-01
  -1.9702300e+00   1.2851600e+00   4.5213100e-01
  -1.9823600e+00   1.2617600e+00   3.8285100e-01
  -2.0481900e+00   1.3165100e+00   3.4353000e-01
  -2.0790100e+00   1.3740600e+00   3.0210300e-01
  -2.0292900e+00   1.3420100e+00   1.9724800e-01
  -2.0283500e+00   1.3569800e+00   9.4264800e-02
  -2.0699000e+00   1.3972200e+00   5.3250000e-03
  -2.1095900e+00   1.5649500e+00   1.6559500e-02
  -2.1296600e+00   1.7490600e+00   8.8413500e-02
  -2.0724700e+00   1.7532700e+00   1.0526500e-01
  -1.9653200e+00   1.6487000e+00   3.0836700e-02
  -1.9338100e+00   1.5567600e+00  -7.8699700e-02
  -2.0029100e+00   1.6327900e+00  -1.3885100e-01
  -2.0734000e+00   1.7256700e+00  -1.7981000e-01
  -2.0790100e+00   1.7893000e+00  -1.6506500e-01
  -2.0381600e+00   1.8973800e+00  -1.0631800e-01
  -1.9994100e+00   1.8606500e+00  -5.4124300e-02
  -1.9935700e+00   1.7273000e+00  -3.6336300e-02
  -2.0101400e+00   1.5850700e+00  -1.0491400e-01
  -2.0640700e+00   1.5525500e+00  -1.8261900e-01
  -2.0745700e+00   1.7259000e+00  -1.2738300e-01
  -1.9403500e+00   1.9397200e+00   3.4525800e-03
  -1.8633100e+00   2.0833600e+00   1.2328700e-01
  -1.8598100e+00   2.0328300e+00   1.8624700e-01
  -1.8290000e+00   1.8861500e+00   1.7875800e-01
  -1.8577100e+00   1.8332800e+00   1.5792700e-01
