**************************************************************************************
  	RED ACELEROGRÁFICA DE LA UNIVERSIDAD AUTONOMA METROPOLITANA (RA-UAM)
	   UNIDAD AZCAPOTZALCO. DIVISIÓN CBI-DEPARTAMENTO DE MATERIALES
     Av. San Pablo 420, Col. Nueva el Rosario, Azcapotzalco, C.P. 02128, Ciudad de México
		Área de Estructuras. e-mail: agb@azc.uam.mx
**************************************************************************************
ARCHIVO ESTANDAR DE ACELERACION:
VERSION DEL FORMATO                    : 2.0
NOMBRE DEL ARCHIVO                     : RIDX202405.121
FECHA Y HORA DE CREACION               : 11:30 a. m. 17/05/2024
REF. CATALOGO ACELEROGRAMAS, SMIS 1999 : REGISTRO NO.      /PAG.    


================================================================================
DATOS DE LA ESTACION:
NOMBRE DE LA ESTACION                  : UAM-XOCHIMILCO.
CLAVE DE LA ESTACION                   : RIDX
LOCALIZACION DE LA ESTACION            : CALZADA DEL HUESO 1100, COL. VILLA
                                       : QUIETUD, DEL. COYOACAN, C.P.04960,  
                                       : CIUDAD DE MEXICO.
                                       : 
                                       : 
COORDENADAS DE LA ESTACION             : 19.301345 LAT. N
                                       : 99.10268 LONG. W
ALTITUD (msnm)                         : 2232
TIPO DE SUELO                          : LAGO
                                       : 
                                       : 
INSTITUCION RESPONSABLE                : UNIVERSIDAD AUTONOMA METROPOLITANA
                                       : 

================================================================================
DATOS DEL ACELEROGRAFO: 
MODELO DEL ACELEROGRAFO                : BASALT KINEMETRICS
NUMERO DE SERIE DEL ACELEROGRAFO       : 1729
NUMERO DE CANALES                      : 3
ORIENTACION C1-C6 (rumbo;orientacion)  : /V/N00E/N90E
ORIENTACION C7-C12 (rumbo;orientacion) : 
VEL. DE MUESTREO, C1-C6 (muestras/s)   : /200/200/200
VEL. DE MUESTREO, C7-C12 (muestras/s)  : 
ESC. COMPLETA DE SENSORES, C1-C6, (g)  : /2/2/2
ESC. COMPLETA DE SENSORES, C7-C12 (g)  : 
FREC. NAT. DE SENSORES, C1-C6, (Hz)    : /208/210/200   
FREC. NAT. DE SENSORES, C7-C12 (Hz)    : 
AMORTIGUAMIENTO DE SENSORES, C1-C6     : /0.7/0.7/0.7      
AMORTIGUAMIENTO DE SENSORES, C7-C12    : 
INTERVALO DE MUESTREO, C1-C6 (s)       : /0.005/0.005/0.005
INTERVALO DE MUESTREO, C7-C12 (s)      : 
UMBRAL DE DISPARO, C1-C6 (Gal)         : /2/2/2
UMBRAL DE DISPARO, C7-C12 (Gal)        : 
MEMORIA DE PREEVENTO (s)               : 60
TIEMPO DE POSEVENTO (s)                : 80


================================================================================
DATOS DEL SISMO:
FECHA DEL SISMO [GMT]                  : 2024/05/12
HORA EPICENTRO (GMT)                   : 11:39:11
MAGNITUD(ES)                           : /M=6.2
COORDENADAS DEL EPICENTRO              : 14.2400 LAT. N
                                       : -92.6900 LONG. W
PROFUNDIDAD FOCAL (Km)                 : 10.0
FUENTE DE LOS DATOS EPICENTRALES       : SSN
                                       : INSTITUTO DE GEOFISICA, UNAM

================================================================================
DATOS DE ESTE REGISTRO:
HORA DE LA PRIMERA MUESTRA (GMT)       : 11:42:56.000
EXACTITUD DEL TIEMPO (s)               : 
DURACION DEL REGISTRO (s), C1-C6       : /141/141/141
DURACION DEL REGISTRO (s), C7-C12      : 
NUM. TOTAL DE MUESTRAS, C1-C6          : /28200/28200/28200
NUM. TOTAL DE MUESTRAS, C7-C12         : 
ACEL. MAX.(Gal), C1-C6                 : /-0.109/0.539/-0.433
ACEL. MAX., C1-C6, EN LA MUESTRA       : /13506/12091/13195
ACEL. MAX.(Gal), C7-C12                : 
ACEL. MAX., C7-C12,EN LA MUESTRA       : 
UNIDADES DE LOS DATOS                  : Gal (cm/s/s)
FACTOR DE DECIMACION                   : 1
FORMATO DATOS (FORTRAN,16 campos/dato) : 3E16.7


================================================================================
CALIDAD DEL ACELEROGRAMA:
REGISTRO DIGITAL COMPLETO CON TIEMPO ABSOLUTO CORRECTO


================================================================================
COMENTARIOS:














================================================================================
DATOS DE ACELERACION:
---------+---------+---------+---------+---------+---------+---------+---------+
   CANAL-1   	      CANAL-2          CANAL-3
      V                 N00E             N90E
---------+---------+---------+---------+---------+---------+---------+---------+
[...]
  -1.1489000e-03  -5.8778800e-02   1.0394000e-01
  -5.1112900e-03  -7.7476000e-02   1.0768400e-01
  -7.2090200e-03  -7.9112000e-02   1.0862000e-01
  -9.3067600e-03  -8.8694300e-02   1.1610900e-01
  -9.7729200e-03  -1.1043000e-01   1.2125700e-01
  -7.4421000e-03  -1.1019600e-01   1.2149100e-01
  -8.8405900e-03  -1.1767500e-01   1.2734100e-01
  -6.5097800e-03  -1.2959400e-01   1.3529800e-01
  -7.4421000e-03  -1.2772500e-01   1.3997800e-01
  -1.0006000e-02  -1.4268300e-01   1.4044600e-01
  -7.9082700e-03  -1.6254800e-01   1.4278600e-01
  -1.3036100e-02  -1.6161300e-01   1.5121100e-01
  -1.0705200e-02  -1.7143000e-01   1.5214700e-01
  -1.0472200e-02  -1.8872400e-01   1.5425300e-01
  -1.3502200e-02  -1.8802300e-01   1.6057100e-01
  -4.8782100e-03  -1.9410000e-01   1.6431600e-01
  -8.1413500e-03  -2.0742200e-01   1.7016600e-01
  -1.4434500e-02  -2.0975900e-01   1.7367600e-01
  -1.4201500e-02  -2.1864000e-01   1.7812200e-01
  -1.3735300e-02  -2.3500000e-01   1.7671800e-01
  -1.7464600e-02  -2.3523400e-01   1.8139900e-01
  -2.0028500e-02  -2.3803800e-01   1.9216300e-01
  -1.0705200e-02  -2.5626800e-01   1.8841900e-01
  -1.3269100e-02  -2.5860500e-01   1.9403500e-01
  -1.3968400e-02  -2.6842100e-01   2.0012000e-01
  -1.1171400e-02  -2.8057500e-01   2.0316200e-01
  -1.7697700e-02  -2.7706900e-01   2.0994800e-01
  -1.2336800e-02  -2.9413000e-01   2.0784200e-01
  -1.3968400e-02  -2.9740200e-01   2.1228900e-01
  -1.6066100e-02  -2.9109200e-01   2.1228900e-01
  -1.1404500e-02  -3.0721800e-01   2.1462900e-01
  -8.6075100e-03  -3.1423000e-01   2.2118100e-01
  -8.3744300e-03  -3.1680000e-01   2.1907500e-01
  -1.6765400e-02  -3.2591500e-01   2.2937200e-01
  -9.3067600e-03  -3.3713400e-01   2.2609500e-01
  -1.2103700e-02  -3.3479600e-01   2.2445700e-01
  -1.9562300e-02  -3.3947100e-01   2.3545600e-01
  -8.3744300e-03  -3.5559700e-01   2.2960600e-01
  -1.1870700e-02  -3.5092300e-01   2.3264800e-01
  -1.3502200e-02  -3.5723300e-01   2.4083800e-01
  -1.2336800e-02  -3.7078900e-01   2.4177400e-01
  -1.3502200e-02  -3.7102200e-01   2.4341300e-01
  -1.1404500e-02  -3.7476200e-01   2.4528500e-01
  -1.3269100e-02  -3.8247400e-01   2.4715700e-01
  -1.3269100e-02  -3.8574600e-01   2.4551900e-01
  -1.5366900e-02  -3.8878500e-01   2.4692300e-01
  -9.0736700e-03  -3.9906800e-01   2.5253900e-01
  -9.3067600e-03  -3.9836700e-01   2.5441100e-01
  -1.4434500e-02  -4.0350900e-01   2.5511300e-01
  -6.5097800e-03  -4.1542800e-01   2.5230500e-01
  -1.1637600e-02  -4.0467700e-01   2.5604900e-01
  -1.4201500e-02  -4.1098800e-01   2.5815500e-01
  -9.0736700e-03  -4.2477700e-01   2.5698500e-01
  -1.0705200e-02  -4.1612900e-01   2.6119800e-01
  -9.5398400e-03  -4.2150500e-01   2.5815500e-01
  -1.5366900e-02  -4.2945100e-01   2.6166600e-01
  -1.3968400e-02  -4.3085300e-01   2.6026200e-01
  -8.8405900e-03  -4.3763100e-01   2.5651700e-01
  -1.9795400e-02  -4.3880000e-01   2.6260200e-01
  -1.6066100e-02  -4.3809900e-01   2.6353800e-01
  -8.3744300e-03  -4.4113700e-01   2.6400600e-01
  -1.3735300e-02  -4.4557800e-01   2.6447400e-01
  -1.8396900e-02  -4.4534400e-01   2.6283600e-01
  -2.5622500e-02  -4.4651200e-01   2.5792100e-01
  -2.4457100e-02  -4.4861600e-01   2.5862300e-01
  -2.1660100e-02  -4.4651200e-01   2.5815500e-01
  -2.2592400e-02  -4.5375800e-01   2.5370900e-01
  -2.3990900e-02  -4.5516000e-01   2.6026200e-01
  -2.4923200e-02  -4.5212200e-01   2.6002800e-01
  -2.7021000e-02  -4.5632800e-01   2.5675100e-01
  -3.2148700e-02  -4.5819800e-01   2.5534700e-01
  -2.2592400e-02  -4.5819800e-01   2.4832700e-01
  -2.2126200e-02  -4.5983400e-01   2.5277300e-01
  -2.6088600e-02  -4.6427500e-01   2.5066700e-01
  -2.8419400e-02  -4.5399100e-01   2.4902900e-01
  -3.4246500e-02  -4.5375800e-01   2.4996500e-01
  -2.9351800e-02  -4.6053500e-01   2.3896600e-01
  -3.6577300e-02  -4.4885000e-01   2.3920000e-01
  -3.4712600e-02  -4.5632800e-01   2.3335000e-01
  -3.4712600e-02  -4.5703000e-01   2.3498800e-01
  -3.9141200e-02  -4.4908300e-01   2.3358400e-01
  -3.9141200e-02  -4.5095300e-01   2.2867000e-01
  -4.7066000e-02  -4.4838200e-01   2.3428600e-01
  -4.1472000e-02  -4.4651200e-01   2.2375500e-01
  -4.9629900e-02  -4.4183800e-01   2.2235100e-01
  -5.4058400e-02  -4.4511000e-01   2.1556500e-01
  -5.0795300e-02  -4.3926700e-01   2.1673500e-01
  -4.5900600e-02  -4.3552800e-01   2.1884100e-01
  -3.8908100e-02  -4.3856600e-01   2.1182100e-01
  -5.1727600e-02  -4.2594500e-01   2.1392700e-01
  -5.2193800e-02  -4.2220600e-01   2.0129000e-01
  -5.8487000e-02  -4.2150500e-01   2.0105600e-01
  -6.2915500e-02  -4.1589600e-01   1.9731200e-01
  -6.0351600e-02  -4.1122100e-01   1.8935500e-01
  -6.2216300e-02  -4.1145500e-01   1.9169500e-01
  -5.6156100e-02  -4.0561200e-01   1.9029100e-01
  -6.2915500e-02  -3.9719800e-01   1.9122700e-01
  -6.7344100e-02  -3.9579600e-01   1.8303700e-01
  -6.9674900e-02  -3.8551300e-01   1.7508000e-01
  -7.2938000e-02  -3.8013700e-01   1.7531400e-01
  -7.4103400e-02  -3.7593000e-01   1.7391000e-01
  -7.4103400e-02  -3.7242500e-01   1.6806000e-01
  -7.4802700e-02  -3.7149000e-01   1.6665600e-01
  -7.7832700e-02  -3.5980400e-01   1.6618800e-01
  -7.6434200e-02  -3.5045500e-01   1.6595400e-01
  -7.7832700e-02  -3.4788500e-01   1.5635900e-01
  -8.0862800e-02  -3.4297700e-01   1.5074300e-01
  -8.4125900e-02  -3.3760100e-01   1.5589100e-01
  -8.2261300e-02  -3.3666600e-01   1.4465800e-01
  -8.4592100e-02  -3.2778500e-01   1.4512600e-01
  -8.1328900e-02  -3.1843600e-01   1.4419000e-01
  -7.6434200e-02  -3.1072400e-01   1.4021200e-01
  -8.9719900e-02  -2.9810300e-01   1.3927600e-01
  -9.1584500e-02  -2.9132500e-01   1.2874500e-01
  -8.3193600e-02  -2.8968900e-01   1.2827700e-01
  -8.6689800e-02  -2.8197700e-01   1.2429900e-01
  -9.0652200e-02  -2.7192700e-01   1.2242700e-01
  -8.8088300e-02  -2.7146000e-01   1.1891700e-01
  -8.8321400e-02  -2.6024100e-01   1.1681100e-01
  -9.1351500e-02  -2.4738700e-01   1.1587500e-01
  -9.3682300e-02  -2.4458200e-01   1.0955600e-01
  -8.8554500e-02  -2.3500000e-01   1.0955600e-01
  -8.4125900e-02  -2.2424900e-01   1.0745000e-01
  -8.9020600e-02  -2.2144500e-01   1.0581200e-01
  -8.9953000e-02  -2.1326500e-01   9.9727500e-02
  -9.2749900e-02  -1.9667100e-01   9.4111200e-02
  -9.0885300e-02  -1.9737200e-01   8.9430900e-02
  -8.8554500e-02  -1.8755600e-01   8.7792800e-02
  -8.8554500e-02  -1.7166300e-01   8.8962800e-02
  -8.4592100e-02  -1.7516900e-01   8.4516600e-02
  -9.0186000e-02  -1.6348300e-01   8.4282500e-02
  -9.3449200e-02  -1.4805800e-01   8.1708400e-02
  -9.2516900e-02  -1.4478600e-01   7.6794100e-02
  -8.4125900e-02  -1.3730700e-01   6.8603600e-02
  -8.2727400e-02  -1.2141400e-01   7.0943700e-02
  -8.4125900e-02  -1.1744100e-01   7.1411700e-02
  -8.0163500e-02  -1.1043000e-01   6.2987200e-02
  -8.9020600e-02  -9.0330300e-02   6.7433500e-02
  -8.5524400e-02  -8.8226900e-02   6.1115100e-02
  -8.2494400e-02  -7.7242300e-02   5.6434800e-02
  -8.2494400e-02  -6.2284500e-02   5.5264700e-02
  -7.7366600e-02  -6.1115900e-02   4.9648400e-02
  -8.0163500e-02  -4.4054700e-02   4.7308200e-02
  -7.6900400e-02  -3.0499200e-02   4.6606200e-02
  -7.0840300e-02  -3.4939800e-02   4.8946300e-02
  -7.0840300e-02  -1.9982000e-02   4.1925900e-02
  -7.5968100e-02   8.1864200e-04   4.0989800e-02
  -7.0141000e-02   1.7535000e-03   3.4905400e-02
  -6.9674900e-02   1.9983300e-02   3.0927200e-02
  -7.0374100e-02   3.2603900e-02   3.2331300e-02
  -5.9652400e-02   3.2136500e-02   2.3672700e-02
  -6.0817800e-02   5.2937100e-02   2.7651000e-02
  -5.9652400e-02   6.3921800e-02   2.2736700e-02
  -5.9885400e-02   6.6960100e-02   1.7588400e-02
  -5.8720000e-02   8.2151600e-02   1.9928500e-02
  -5.3592200e-02   9.4071000e-02   1.5716200e-02
  -5.2426800e-02   1.0248500e-01   1.6418300e-02
  -4.5667500e-02   1.1861100e-01   1.2440000e-02
  -4.2171300e-02   1.2609000e-01   1.0801900e-02
  -4.4502100e-02   1.3333500e-01   1.0333900e-02
  -4.1705100e-02   1.4992900e-01   4.4835300e-03
  -3.4712600e-02   1.5787500e-01   4.2495200e-03
  -3.4945700e-02   1.7330100e-01   2.8454300e-03
  -3.1449500e-02   1.8522000e-01  -3.4729700e-03
  -2.8885600e-02   1.9363400e-01   3.7251500e-05
  -3.1682600e-02   2.0695600e-01  -1.8348700e-03
  -2.4690100e-02   2.1817400e-01  -8.1532600e-03
  -2.1193900e-02   2.2822400e-01  -3.9410000e-03
  -2.0727800e-02   2.3453400e-01  -5.8131200e-03
  -1.7231500e-02   2.5066000e-01  -9.3233400e-03
  -1.2336800e-02   2.5860700e-01  -1.0025400e-02
  -8.1413500e-03   2.6748800e-01  -7.6852300e-03
  -7.9082700e-03   2.8805500e-01  -1.0493400e-02
  -6.7428600e-03   2.9202800e-01  -1.2131500e-02
   2.4958700e-04   2.9787100e-01  -1.0259400e-02
   3.9788900e-03   3.1516600e-01  -1.6109800e-02
   2.4958700e-04   3.2591700e-01  -1.0961400e-02
   3.5127300e-03   3.3199300e-01  -1.2599500e-02
   9.3397700e-03   3.4741800e-01  -1.8449900e-02
   7.9412800e-03   3.5606600e-01  -1.6343800e-02
   5.3773800e-03   3.5793600e-01  -1.7513800e-02
   1.2602900e-02   3.7242600e-01  -1.7279800e-02
   1.6332200e-02   3.8177500e-01  -1.6343800e-02
   1.2369800e-02   3.8481300e-01  -1.2131500e-02
   1.8196900e-02   3.9299300e-01  -1.7981900e-02
   1.8196900e-02   4.0818400e-01  -1.8215900e-02
   2.0760800e-02   4.1636400e-01  -1.5641700e-02
   2.3091600e-02   4.2477800e-01  -2.1258100e-02
   1.7963800e-02   4.3506200e-01  -1.8449900e-02
   2.5189300e-02   4.3436000e-01  -2.1960100e-02
   2.4956200e-02   4.4861700e-01  -1.7279800e-02
   2.7753200e-02   4.4815000e-01  -1.4237600e-02
   3.1948700e-02   4.4417700e-01  -2.1024100e-02
   2.8219400e-02   4.6521100e-01  -1.6343800e-02
   3.3347200e-02   4.6451000e-01  -1.8215900e-02
   3.2881000e-02   4.6684700e-01  -1.6577800e-02
   3.4745700e-02   4.8297300e-01  -1.5641700e-02
   4.0572700e-02   4.8250600e-01  -1.7981900e-02
   3.7542600e-02   4.8460900e-01  -1.8683900e-02
   4.0572700e-02   4.9302300e-01  -2.6874400e-02
   4.2670400e-02   4.9746400e-01  -2.2194100e-02
   3.9174200e-02   5.0073600e-01  -1.7747900e-02
   4.1271900e-02   5.0751300e-01  -2.3598200e-02
   4.1971200e-02   5.1172000e-01  -1.8683900e-02
   4.2204300e-02   5.0985100e-01  -1.9620000e-02
   4.6865900e-02   5.1569300e-01  -2.5002300e-02
   5.0595200e-02   5.1803100e-01  -2.5236300e-02
   4.7099000e-02   5.1873200e-01  -2.6640400e-02
   4.6865900e-02   5.3041700e-01  -2.5002300e-02
   5.1993700e-02   5.2971600e-01  -2.7108500e-02
   4.8031300e-02   5.2597700e-01  -2.3364200e-02
   5.1061400e-02   5.3182000e-01  -1.7981900e-02
   5.3159100e-02   5.3252100e-01  -2.2662200e-02
   5.1993700e-02   5.3205300e-01  -3.1554700e-02
   5.6189200e-02   5.3789600e-01  -3.8107100e-02
   5.3159100e-02   5.3368900e-01  -3.9511200e-02
   5.2459900e-02   5.2714500e-01  -4.5829600e-02
   5.2926000e-02   5.3742900e-01  -4.5829600e-02
   5.4790700e-02   5.3485800e-01  -4.4191500e-02
   5.4324500e-02   5.3158600e-01  -4.2085400e-02
   5.5723000e-02   5.3929900e-01  -4.1851400e-02
   5.6189200e-02   5.3649400e-01  -4.4659600e-02
   4.6399700e-02   5.3813000e-01  -4.2553400e-02
   5.0362100e-02   5.3906500e-01  -4.5829600e-02
   5.4091400e-02   5.3602700e-01  -4.6531700e-02
   4.9429800e-02   5.3672800e-01  -5.1914000e-02
   5.2226800e-02   5.3415700e-01  -5.6594300e-02
   5.1294400e-02   5.2878100e-01  -5.1914000e-02
   5.4091400e-02   5.2364000e-01  -5.2148000e-02
   5.6422200e-02   5.2480800e-01  -5.4722200e-02
   4.6399700e-02   5.2504200e-01  -5.3318100e-02
   5.1993700e-02   5.2013400e-01  -5.7998400e-02
   5.0828300e-02   5.2621100e-01  -6.2678700e-02
   4.0805800e-02   5.2597700e-01  -6.1040600e-02
   4.7099000e-02   5.1546000e-01  -6.5954900e-02
   4.2670400e-02   5.1592700e-01  -6.4316800e-02
   4.4068900e-02   5.1101900e-01  -6.7593000e-02
   4.3835800e-02   5.0283900e-01  -7.3677400e-02
   3.9407300e-02   4.9910000e-01  -7.0401200e-02
   4.1271900e-02   4.9652900e-01  -6.7593000e-02
   3.8241900e-02   4.9068600e-01  -7.0635200e-02
   3.6377200e-02   4.8975100e-01  -7.3443400e-02
   2.7287000e-02   4.9068600e-01  -7.0401200e-02
   2.7753200e-02   4.7876600e-01  -7.4145400e-02
   3.2647900e-02   4.7245600e-01  -7.6485500e-02
   3.2647900e-02   4.6754800e-01  -7.8123700e-02
   2.7986300e-02   4.6497700e-01  -7.7889600e-02
   2.6121600e-02   4.6147100e-01  -8.2101900e-02
   2.7054000e-02   4.5282400e-01  -8.9122300e-02
   1.6798400e-02   4.4955200e-01  -8.8186300e-02
   1.4700600e-02   4.4417700e-01  -8.8888300e-02
   1.1903700e-02   4.3810000e-01  -8.6314200e-02
   1.6099100e-02   4.2501200e-01  -8.5144100e-02
   2.0993800e-02   4.2174000e-01  -8.4208000e-02
   1.1204400e-02   4.1987000e-01  -8.7016200e-02
   1.1204400e-02   4.0748300e-01  -9.0526400e-02
   6.5427900e-03   4.0725000e-01  -9.2866600e-02
   4.2119700e-03   4.0351000e-01  -9.7546900e-02
   7.9412800e-03   3.8948700e-01  -9.4972700e-02
   1.4150000e-03   3.8504700e-01  -9.6844800e-02
   2.5804000e-03   3.8060600e-01  -1.0105700e-01
   5.3773800e-03   3.6938800e-01  -1.0058900e-01
   4.8266900e-04   3.6424600e-01  -1.0012100e-01
  -6.2767000e-03   3.6027300e-01  -1.0012100e-01
  -8.6075100e-03   3.5022300e-01  -1.0433300e-01
  -5.8105300e-03   3.4438000e-01  -1.0409900e-01
  -1.2803000e-02   3.4180900e-01  -9.8716900e-02
  -9.0736700e-03   3.2918900e-01  -1.0269500e-01
   4.8266900e-04   3.2030700e-01  -1.0526900e-01
  -5.8105300e-03   3.2100900e-01  -1.0409900e-01
  -5.3443700e-03   3.0979000e-01  -1.0550300e-01
  -6.2767000e-03   3.0207800e-01  -1.0995000e-01
  -7.4421000e-03   2.9997400e-01  -1.1369400e-01
  -5.3443700e-03   2.9062600e-01  -1.1088600e-01
  -6.9759400e-03   2.8618500e-01  -1.0948200e-01
  -4.6451200e-03   2.7800500e-01  -1.0761000e-01
  -5.1112900e-03   2.6655300e-01  -1.0924800e-01
   1.6505800e-05   2.6491700e-01  -1.1158800e-01
  -6.8273900e-04   2.6117700e-01  -1.0831200e-01
  -3.4797200e-03   2.4855700e-01  -1.0901400e-01
   3.0465700e-03   2.4201300e-01  -1.1533200e-01
   4.8266900e-04   2.4458400e-01  -1.1135400e-01
   9.4883200e-04   2.3546900e-01  -1.1088600e-01
   1.8811600e-03   2.2799000e-01  -1.1439600e-01
   3.5127300e-03   2.2728900e-01  -1.0526900e-01
   7.4751100e-03   2.1513600e-01  -1.0878000e-01
   7.0089500e-03   2.0625400e-01  -1.0878000e-01
   1.3069100e-02   2.0181400e-01  -1.0503500e-01
   1.0738300e-02   1.9900900e-01  -1.0152500e-01
   1.1670600e-02   1.9176400e-01  -9.8951000e-02
   2.0061500e-02   1.8171400e-01  -1.0690700e-01
   1.8196900e-02   1.8148100e-01  -9.9419000e-02
   2.0993800e-02   1.7610500e-01  -9.8482900e-02
   2.4023900e-02   1.6792500e-01  -1.0339700e-01
   2.7986300e-02   1.6301700e-01  -1.0012100e-01
   3.2647900e-02   1.5974500e-01  -9.6844800e-02
   3.2414800e-02   1.5273400e-01  -9.2632600e-02
   3.3580200e-02   1.4665700e-01  -9.5440700e-02
   3.2181800e-02   1.4735800e-01  -8.9590400e-02
   3.6144100e-02   1.3543900e-01  -8.9356400e-02
   4.4068900e-02   1.2515500e-01  -9.5674800e-02
   4.5001200e-02   1.2468800e-01  -8.7718300e-02
   4.1971200e-02   1.1697500e-01  -8.2803900e-02
   4.6399700e-02   1.1136600e-01  -8.3506000e-02
   5.1061400e-02   1.0996400e-01  -8.2101900e-02
   4.5234300e-02   1.0271900e-01  -7.8825700e-02
   5.1993700e-02   9.5005900e-02  -8.0229800e-02
   5.5489900e-02   9.5473300e-02  -8.2335900e-02
   5.1993700e-02   8.6124700e-02  -7.3911400e-02
   5.7354600e-02   7.7711000e-02  -6.7827000e-02
   5.5956100e-02   7.8412100e-02  -6.9231100e-02
   5.7820700e-02   6.7661200e-02  -6.8061000e-02
   5.8053800e-02   6.1350900e-02  -6.7125000e-02
   6.2715400e-02   5.6442900e-02  -6.7359000e-02
   6.6211700e-02   4.5458300e-02  -6.1976600e-02
