**************************************************************************************
  	RED ACELEROGRÁFICA DE LA UNIVERSIDAD AUTONOMA METROPOLITANA (RA-UAM)
	   UNIDAD AZCAPOTZALCO. DIVISIÓN CBI-DEPARTAMENTO DE MATERIALES
     Av. San Pablo 420, Col. Nueva el Rosario, Azcapotzalco, C.P. 02128, Ciudad de México
		Área de Estructuras. e-mail: agb@azc.uam.mx
**************************************************************************************
ARCHIVO ESTANDAR DE ACELERACION:
VERSION DEL FORMATO                    : 2.0
NOMBRE DEL ARCHIVO                     : RIDX202405.201
FECHA Y HORA DE CREACION               : 11:30 a. m. 27/05/2024
REF. CATALOGO ACELEROGRAMAS, SMIS 1999 : REGISTRO NO.      /PAG.    


================================================================================
DATOS DE LA ESTACION:
NOMBRE DE LA ESTACION                  : UAM-XOCHIMILCO.
CLAVE DE LA ESTACION                   : RIDX
LOCALIZACION DE LA ESTACION            : CALZADA DEL HUESO 1100, COL. VILLA
                                       : QUIETUD, DEL. COYOACAN, C.P.04960,  
                                       : CIUDAD DE MEXICO.
                                       : 
                                       : 
COORDENADAS DE LA ESTACION             : 19.301345 LAT. N
                                       : 99.10268 LONG. W
ALTITUD (msnm)                         : 2232
TIPO DE SUELO                          : LAGO
                                       : 
                                       : 
INSTITUCION RESPONSABLE                : UNIVERSIDAD AUTONOMA METROPOLITANA
                                       : 

================================================================================
DATOS DEL ACELEROGRAFO: 
MODELO DEL ACELEROGRAFO                : BASALT KINEMETRICS
NUMERO DE SERIE DEL ACELEROGRAFO       : 1729
NUMERO DE CANALES                      : 3
ORIENTACION C1-C6 (rumbo;orientacion)  : /V/N00E/N90E
ORIENTACION C7-C12 (rumbo;orientacion) : 
VEL. DE MUESTREO, C1-C6 (muestras/s)   : /200/200/200
VEL. DE MUESTREO, C7-C12 (muestras/s)  : 
ESC. COMPLETA DE SENSORES, C1-C6, (g)  : /2/2/2
ESC. COMPLETA DE SENSORES, C7-C12 (g)  : 
FREC. NAT. DE SENSORES, C1-C6, (Hz)    : /208/210/200   
FREC. NAT. DE SENSORES, C7-C12 (Hz)    : 
AMORTIGUAMIENTO DE SENSORES, C1-C6     : /0.7/0.7/0.7      
AMORTIGUAMIENTO DE SENSORES, C7-C12    : 
INTERVALO DE MUESTREO, C1-C6 (s)       : /0.005/0.005/0.005
INTERVALO DE MUESTREO, C7-C12 (s)      : 
UMBRAL DE DISPARO, C1-C6 (Gal)         : /2/2/2
UMBRAL DE DISPARO, C7-C12 (Gal)        : 
MEMORIA DE PREEVENTO (s)               : 60
TIEMPO DE POSEVENTO (s)                : 80


================================================================================
DATOS DEL SISMO:
FECHA DEL SISMO [GMT]                  : 2024/05/20
HORA EPICENTRO (GMT)                   : 06:48:14
MAGNITUD(ES)                           : /M=4.9
COORDENADAS DEL EPICENTRO              : 17.4900 LAT. N
                                       : -101.3200 LONG. W
PROFUNDIDAD FOCAL (Km)                 : 40.3
FUENTE DE LOS DATOS EPICENTRALES       : SSN
                                       : INSTITUTO DE GEOFISICA, UNAM

================================================================================
DATOS DE ESTE REGISTRO:
HORA DE LA PRIMERA MUESTRA (GMT)       : 06:48:42.000
EXACTITUD DEL TIEMPO (s)               : 
DURACION DEL REGISTRO (s), C1-C6       : /153/153/153
DURACION DEL REGISTRO (s), C7-C12      : 
NUM. TOTAL DE MUESTRAS, C1-C6          : /30600/30600/30600
NUM. TOTAL DE MUESTRAS, C7-C12         : 
ACEL. MAX.(Gal), C1-C6                 : /0.363/0.449/0.589
ACEL. MAX., C1-C6, EN LA MUESTRA       : /15641/17984/13124
ACEL. MAX.(Gal), C7-C12                : 
ACEL. MAX., C7-C12,EN LA MUESTRA       : 
UNIDADES DE LOS DATOS                  : Gal (cm/s/s)
FACTOR DE DECIMACION                   : 1
FORMATO DATOS (FORTRAN,16 campos/dato) : 3E16.7


================================================================================
CALIDAD DEL ACELEROGRAMA:
REGISTRO DIGITAL COMPLETO CON TIEMPO ABSOLUTO CORRECTO


================================================================================
COMENTARIOS:














================================================================================
DATOS DE ACELERACION:
---------+---------+---------+---------+---------+---------+---------+---------+
   CANAL-1   	      CANAL-2          CANAL-3
      V                 N00E             N90E
---------+---------+---------+---------+---------+---------+---------+---------+
[...]
  -1.3857800e-01  -4.8657500e-02  -1.6903900e-01
  -1.3764600e-01  -6.8523200e-02  -1.8167600e-01
  -1.4160800e-01  -8.4883300e-02  -1.8846200e-01
  -1.3997700e-01  -1.0521700e-01  -1.9899300e-01
  -1.3671300e-01  -1.2718600e-01  -2.1514000e-01
  -1.4557100e-01  -1.4097500e-01  -2.1350200e-01
  -1.5466100e-01  -1.6200900e-01  -2.1935200e-01
  -1.6514900e-01  -1.8187500e-01  -2.2496900e-01
  -1.7773600e-01  -1.9122400e-01  -2.1794800e-01
  -1.8333000e-01  -2.1225800e-01  -2.2613900e-01
  -2.0314200e-01  -2.2254200e-01  -2.2052200e-01
  -2.1549500e-01  -2.3422700e-01  -2.1490600e-01
  -2.2132200e-01  -2.4895100e-01  -2.1467200e-01
  -2.4253200e-01  -2.4427700e-01  -1.9431300e-01
  -2.4742700e-01  -2.5175600e-01  -1.9127000e-01
  -2.5395300e-01  -2.5269100e-01  -1.8635600e-01
  -2.5325400e-01  -2.5082100e-01  -1.7793200e-01
  -2.5045700e-01  -2.5058700e-01  -1.7769800e-01
  -2.5721700e-01  -2.3820100e-01  -1.6903900e-01
  -2.4486300e-01  -2.2931900e-01  -1.6623100e-01
  -2.3717200e-01  -2.0968700e-01  -1.5757200e-01
  -2.2388600e-01  -1.9846900e-01  -1.6272100e-01
  -2.1269800e-01  -1.8234300e-01  -1.6693300e-01
  -2.0081100e-01  -1.6084100e-01  -1.7020900e-01
  -1.7843500e-01  -1.4191000e-01  -1.8120800e-01
  -1.6538200e-01  -1.1479900e-01  -1.8050600e-01
  -1.3974300e-01  -9.9140000e-02  -1.9548300e-01
  -1.1946500e-01  -7.3898700e-02  -2.0016300e-01
  -1.0221700e-01  -5.3331800e-02  -2.0811900e-01
  -8.4037000e-02  -3.2063700e-02  -2.1537400e-01
  -7.2616000e-02  -4.9526900e-03  -2.1209800e-01
  -4.7909400e-02   8.6027900e-03  -2.2309600e-01
  -2.7165100e-02   3.2675500e-02  -2.1724600e-01
  -8.9847400e-03   5.4644700e-02  -2.1514000e-01
   1.5022700e-02   7.4276800e-02  -2.1280000e-01
   3.8330800e-02   9.9985500e-02  -1.9946100e-01
   5.8842000e-02   1.2359100e-01  -1.8776000e-01
   7.9353200e-02   1.4929900e-01  -1.7208100e-01
   1.0709000e-01   1.7010000e-01  -1.5289200e-01
   1.4042100e-01   1.8739500e-01  -1.3346900e-01
   1.6605900e-01   2.1380500e-01  -1.1240700e-01
   1.8983400e-01   2.3110000e-01  -9.2282200e-02
   2.1943500e-01   2.4325300e-01  -7.8943400e-02
   2.3808200e-01   2.5821100e-01  -5.2733700e-02
   2.5766100e-01   2.6475500e-01  -3.1438400e-02
   2.7747200e-01   2.7644000e-01  -1.3653300e-02
   2.8702900e-01   2.8765900e-01   1.3024400e-02
   2.9938200e-01   2.9116500e-01   2.6129200e-02
   3.0404400e-01   2.9256700e-01   4.2744300e-02
   2.9914900e-01   2.9700700e-01   5.8891300e-02
   2.9868300e-01   2.9537100e-01   6.9421900e-02
   2.9355500e-01   2.9724100e-01   8.6271000e-02
   2.8516400e-01   3.0308400e-01   9.5397600e-02
   2.8026900e-01   3.0168200e-01   1.0803400e-01
   2.6931500e-01   3.0635600e-01   1.2207500e-01
   2.6278800e-01   3.0331800e-01   1.3003200e-01
   2.5393100e-01   3.0378500e-01   1.4266900e-01
   2.4460800e-01   3.0121400e-01   1.4945500e-01
   2.4600600e-01   2.8836000e-01   1.5296500e-01
   2.4041200e-01   2.8415300e-01   1.5811400e-01
   2.3132200e-01   2.7807700e-01   1.7051600e-01
   2.3039000e-01   2.6569000e-01   1.7589900e-01
   2.2269800e-01   2.5517200e-01   1.8315300e-01
   1.9869100e-01   2.4839500e-01   1.9742800e-01
   1.8680400e-01   2.3367100e-01   1.9930000e-01
   1.7212000e-01   2.2105000e-01   2.0772500e-01
   1.4951100e-01   2.0959800e-01   2.1170300e-01
   1.3389400e-01   1.9838000e-01   2.1638300e-01
   1.0872100e-01   1.8856400e-01   2.2410600e-01
   8.1217800e-02   1.8015000e-01   2.3346600e-01
   5.5811900e-02   1.7103500e-01   2.3697600e-01
   3.5766900e-02   1.5747900e-01   2.3299800e-01
   1.3391100e-02   1.5467500e-01   2.3510400e-01
  -9.2178300e-03   1.4602700e-01   2.2925400e-01
  -2.6932000e-02   1.3831500e-01   2.2691400e-01
  -4.2548500e-02   1.3597800e-01   2.1802100e-01
  -5.4668700e-02   1.2990100e-01   2.1100100e-01
  -6.3992000e-02   1.2709600e-01   1.9625800e-01
  -6.6789000e-02   1.1985100e-01   1.8011100e-01
  -7.0285200e-02   1.1798200e-01   1.7098400e-01
  -7.2382900e-02   1.1961800e-01   1.5390100e-01
  -7.3781400e-02   1.1891600e-01   1.4805100e-01
  -7.2382900e-02   1.2102000e-01   1.3518000e-01
  -6.9585900e-02   1.2102000e-01   1.2839400e-01
  -6.7255100e-02   1.2008500e-01   1.2020300e-01
  -6.5623600e-02   1.2031900e-01   1.1692700e-01
  -6.0495800e-02   1.2055200e-01   1.2254300e-01
  -4.3480800e-02   1.1891600e-01   1.2113900e-01
  -3.3924500e-02   1.1564400e-01   1.3447800e-01
  -2.2270400e-02   1.1447600e-01   1.4103000e-01
  -7.5862600e-03   1.0769800e-01   1.4968900e-01
   3.8347400e-03   1.0255600e-01   1.5881600e-01
   2.0849700e-02   1.0115400e-01   1.6841000e-01
   3.1105300e-02   9.2506600e-02   1.7940900e-01
   5.3714200e-02   8.7364800e-02   1.8455700e-01
   7.6556200e-02   8.3859100e-02   1.9696000e-01
   8.4247900e-02   7.9418500e-02   2.0398000e-01
   1.0359400e-01   7.6146500e-02   2.0725700e-01
   1.1338300e-01   7.4276800e-02   2.0889500e-01
   1.1851100e-01   7.4276800e-02   2.0725700e-01
   1.2946600e-01   7.0069900e-02   1.9859800e-01
   1.2783400e-01   6.8200200e-02   1.9766200e-01
   1.3412700e-01   7.0537300e-02   1.9579000e-01
   1.3599200e-01   6.9135000e-02   1.8596100e-01
   1.2876600e-01   7.0303600e-02   1.8666300e-01
   1.2969900e-01   7.2874500e-02   1.7402600e-01
   1.2690200e-01   7.3108200e-02   1.6256000e-01
   1.2713500e-01   7.3575600e-02   1.5249700e-01
   1.3203000e-01   6.5629300e-02   1.3354200e-01
   1.4228500e-01   6.2123600e-02   1.2113900e-01
   1.4391700e-01   5.9552700e-02   1.0780000e-01
   1.4135300e-01   4.6932100e-02   9.6567600e-02
   1.5254100e-01   3.9219500e-02   7.8782500e-02
   1.5510500e-01   3.5012600e-02   6.4039600e-02
   1.5999900e-01   2.7767400e-02   5.3743000e-02
   1.7771400e-01   1.8418800e-02   3.5957800e-02
   1.8377400e-01   1.2576000e-02   2.2619000e-02
   1.8307400e-01   8.6027900e-03   9.7481900e-03
   1.8680400e-01   3.6947700e-03  -4.0586700e-03
   1.9123200e-01   1.5913300e-03  -2.1609800e-02
   1.9589400e-01   3.2273400e-03  -3.5884700e-02
   1.9705900e-01   6.0319200e-03  -4.6649300e-02
   1.9496200e-01   8.1353600e-03  -6.2328300e-02
   1.8773600e-01   1.0706200e-02  -7.5199100e-02
   1.7351800e-01   1.3978200e-02  -8.8304000e-02
   1.6489400e-01   1.7250300e-02  -1.0679100e-01
   1.5021000e-01   2.3560600e-02  -1.2410800e-01
   1.3482700e-01   3.1974300e-02  -1.3440500e-01
   1.2014200e-01   3.2675500e-02  -1.4961600e-01
   9.4969600e-02   4.0621800e-02  -1.6482700e-01
   7.6323100e-02   4.5997200e-02  -1.8167600e-01
   5.3947300e-02   4.9503000e-02  -2.0648100e-01
   2.6909800e-02   5.8150400e-02  -2.2403200e-01
   4.0678200e-03   5.3242400e-02  -2.4720000e-01
  -2.5067400e-02   5.1139000e-02  -2.7294200e-01
  -5.1638700e-02   5.0204100e-02  -2.8628000e-01
  -7.4713700e-02   4.3660100e-02  -3.0523600e-01
  -9.7322600e-02   3.4311500e-02  -3.2699900e-01
  -1.2086400e-01   2.0756000e-02  -3.4314600e-01
  -1.4067600e-01   3.4610600e-03  -3.5882500e-01
  -1.5908900e-01  -1.6404700e-02  -3.6771700e-01
  -1.7890100e-01  -3.6971700e-02  -3.7450400e-01
  -1.8636000e-01  -5.8006100e-02  -3.7005800e-01
  -1.9731500e-01  -7.6937000e-02  -3.6490900e-01
  -2.0873600e-01  -1.0147700e-01  -3.6256900e-01
  -2.1805900e-01  -1.2157700e-01  -3.4501800e-01
  -2.3251000e-01  -1.4097500e-01  -3.3378500e-01
  -2.4066800e-01  -1.5967200e-01  -3.1178800e-01
  -2.4439700e-01  -1.7276000e-01  -2.8394000e-01
  -2.3973500e-01  -1.8608200e-01  -2.5890100e-01
  -2.3647200e-01  -1.9426200e-01  -2.2801100e-01
  -2.3740500e-01  -2.0104000e-01  -1.9805700e-01
  -2.3857000e-01  -2.0361100e-01  -1.6365700e-01
  -2.3647200e-01  -2.1202400e-01  -1.3557500e-01
  -2.2924700e-01  -2.1459500e-01  -9.9770700e-02
  -2.1875800e-01  -2.1716600e-01  -6.8646700e-02
  -1.9731500e-01  -2.2908600e-01  -4.1969000e-02
  -1.8939000e-01  -2.2534600e-01  -4.0586700e-03
  -1.7960000e-01  -2.2931900e-01   2.0278900e-02
  -1.6538200e-01  -2.3656500e-01   4.1106200e-02
  -1.6514900e-01  -2.3633100e-01   6.1933500e-02
  -1.5116400e-01  -2.4708200e-01   7.7144400e-02
  -1.3811200e-01  -2.5035400e-01   9.1653300e-02
  -1.2925500e-01  -2.4965300e-01   1.0475800e-01
  -1.1573600e-01  -2.4614700e-01   1.1318300e-01
  -1.1177400e-01  -2.3352600e-01   1.2043700e-01
  -1.0781100e-01  -2.2137300e-01   1.2464900e-01
  -1.0081900e-01  -2.1038800e-01   1.1622500e-01
  -9.9653500e-02  -1.9987100e-01   1.1177900e-01
  -8.8465500e-02  -1.8187500e-01   1.0967200e-01
  -7.1683700e-02  -1.6528100e-01   1.0382200e-01
  -5.9330400e-02  -1.4541600e-01   1.0616200e-01
  -4.1150000e-02  -1.1994100e-01   9.6333600e-02
  -2.6465900e-02  -1.0264600e-01   8.5334900e-02
  -1.3180200e-02  -7.6002100e-02   8.2760800e-02
   4.3009000e-03  -5.6837500e-02   6.7783800e-02
   2.3413600e-02  -4.2347100e-02   6.2401500e-02
   4.5556300e-02  -2.1546500e-02   6.2401500e-02
   7.1428400e-02  -9.1595700e-03   5.4445000e-02
   8.3781700e-02   1.5848000e-02   5.4913000e-02
   9.4037300e-02   3.0805700e-02   4.7424600e-02
   1.0569100e-01   4.4361200e-02   3.6893900e-02
   1.1268400e-01   6.4227000e-02   3.4553800e-02
   1.2993200e-01   6.7265300e-02   2.7065300e-02
   1.3296200e-01   7.7548800e-02   2.3321000e-02
   1.3506000e-01   8.2690500e-02   1.6066600e-02
   1.3925500e-01   8.9935700e-02   4.5998700e-03
   1.3995400e-01   9.6012300e-02  -2.4205700e-03
   1.4741300e-01   9.2506600e-02  -1.7397500e-02
   1.4508200e-01   9.0403100e-02  -2.7694200e-02
   1.4554800e-01   7.9184800e-02  -3.2140400e-02
   1.4554800e-01   7.4977900e-02  -3.5416600e-02
   1.4974400e-01   6.0020200e-02  -4.4309200e-02
   1.4951100e-01   4.9736700e-02  -4.3841200e-02
   1.5044300e-01   3.9686900e-02  -4.1969000e-02
   1.5533800e-01   1.3277100e-02  -5.0627600e-02
   1.4554800e-01   3.2273400e-03  -3.4948600e-02
   1.5347300e-01  -1.8975600e-02  -2.3247900e-02
   1.4764600e-01  -3.4868200e-02  -4.9947300e-03
   1.3133000e-01  -4.4216900e-02   2.0044800e-02
   1.2736800e-01  -6.5017500e-02   3.9702100e-02
   1.0382700e-01  -7.9507900e-02   7.4804300e-02
   8.6112500e-02  -9.7503900e-02   1.0920400e-01
   7.6556200e-02  -1.1456500e-01   1.4968900e-01
   5.8842000e-02  -1.3840400e-01   1.8011100e-01
   4.2526300e-02  -1.5967200e-01   2.2317000e-01
   2.6909800e-02  -1.8281000e-01   2.6505800e-01
   5.6993900e-03  -2.1202400e-01   3.0226700e-01
  -1.0849400e-02  -2.4123900e-01   3.4555900e-01
  -3.0661300e-02  -2.6624600e-01   3.7668300e-01
  -4.9074800e-02  -2.8938400e-01   4.2184800e-01
  -5.3503300e-02  -3.2467500e-01   4.4548400e-01
  -6.8187500e-02  -3.4524200e-01   4.7754400e-01
  -7.8210000e-02  -3.6510800e-01   5.1030600e-01
  -9.1262500e-02  -3.8287000e-01   5.2598500e-01
  -9.9187300e-02  -3.9011500e-01   5.5336400e-01
  -8.8232500e-02  -4.0180100e-01   5.5664000e-01
  -9.3826400e-02  -4.0460600e-01   5.7114900e-01
  -8.8465500e-02  -4.0904600e-01   5.8004200e-01
  -8.2638500e-02  -4.0180100e-01   5.7980800e-01
  -7.9608400e-02  -3.9221900e-01   5.8940300e-01
  -6.7488200e-02  -3.8777800e-01   5.7700000e-01
  -6.3525800e-02  -3.7726100e-01   5.6997900e-01
  -4.6977000e-02  -3.6978200e-01   5.6319300e-01
  -2.6465900e-02  -3.5552600e-01   5.5172600e-01
  -7.8193400e-03  -3.4220400e-01   5.4283400e-01
   5.2332300e-03  -3.2093600e-01   5.3300500e-01
   2.0150400e-02  -3.0223900e-01   5.2387800e-01
   3.7165400e-02  -2.8821600e-01   5.0609300e-01
   4.2060100e-02  -2.6461000e-01   4.9064800e-01
   5.2082600e-02  -2.4357600e-01   4.7520300e-01
   6.2571300e-02  -2.1669900e-01   4.6092800e-01
   6.9330700e-02  -1.9893600e-01   4.4618600e-01
   7.9586200e-02  -1.7603200e-01   4.2933700e-01
   8.7744100e-02  -1.4962200e-01   4.1599800e-01
   8.3315500e-02  -1.2928900e-01   3.9774500e-01
   8.1450900e-02  -1.0404800e-01   3.7949100e-01
   8.0052400e-02  -9.0492500e-02   3.6147200e-01
   7.6090000e-02  -7.1561500e-02   3.4415500e-01
   7.8420800e-02  -5.7071200e-02   3.2824200e-01
   7.7488500e-02  -4.0477400e-02   3.1186100e-01
   7.7721600e-02  -2.3416200e-02   2.9548000e-01
   6.7466000e-02  -1.2899000e-02   2.7839700e-01
   6.4669000e-02   1.8904200e-04   2.5265500e-01
   6.3270500e-02   5.7982100e-03   2.2504200e-01
   5.1150300e-02   2.2625700e-02   2.1006500e-01
   5.2315700e-02   3.0805700e-02   1.8853500e-01
   4.4624000e-02   3.6648600e-02   1.6068800e-01
   3.2503800e-02   4.9035500e-02   1.3658400e-01
   1.5255700e-02   5.2775000e-02   1.1201300e-01
  -5.7216000e-03   5.4177300e-02   8.4398900e-02
  -2.5300500e-02   4.9736700e-02   5.7487200e-02
  -4.9540900e-02   4.6464700e-02   3.5957800e-02
  -6.6555900e-02   3.7583500e-02   1.9342800e-02
  -9.2894100e-02   3.0104600e-02   5.5359300e-03
  -1.1293900e-01   1.4913100e-02  -7.3348800e-03
  -1.3415000e-01  -8.9258500e-03  -1.1781200e-02
  -1.5675800e-01  -2.6921900e-02  -1.4121300e-02
  -1.6794600e-01  -5.3331800e-02  -1.5759400e-02
  -1.9032200e-01  -7.5768400e-02  -1.0845100e-02
  -1.9917900e-01  -1.0030900e-01  -3.3566300e-03
  -2.0384100e-01  -1.2087500e-01   1.1854300e-02
  -2.1083300e-01  -1.3817000e-01   3.0107500e-02
  -2.0990100e-01  -1.6107400e-01   4.6722500e-02
  -2.1736000e-01  -1.7860300e-01   6.3571600e-02
  -2.1549500e-01  -2.0174100e-01   7.6208400e-02
  -2.0850300e-01  -2.0968700e-01   9.4695500e-02
  -1.9638200e-01  -2.1319300e-01   1.1014000e-01
  -1.8030000e-01  -2.2090600e-01   1.2418100e-01
  -1.7260800e-01  -2.1786700e-01   1.4149800e-01
  -1.6398400e-01  -2.1973700e-01   1.4430700e-01
  -1.4277400e-01  -2.1880200e-01   1.4500900e-01
  -1.1969800e-01  -2.1927000e-01   1.4383900e-01
  -1.0851100e-01  -2.0875200e-01   1.4220100e-01
  -9.1029400e-02  -2.0057200e-01   1.3377600e-01
  -7.6578400e-02  -1.9613200e-01   1.2160700e-01
  -6.3758900e-02  -1.8094000e-01   1.1084300e-01
  -5.3969500e-02  -1.7720100e-01   8.8845200e-02
  -4.7443200e-02  -1.6691700e-01   7.3166200e-02
  -2.5999700e-02  -1.6200900e-01   5.2104900e-02
  -2.5533500e-02  -1.5055700e-01   3.5723800e-02
  -2.5533500e-02  -1.3443100e-01   1.7704700e-02
  -1.8308000e-02  -1.2461500e-01  -7.3348800e-03
  -2.5999700e-02  -1.0311300e-01  -1.5759400e-02
  -1.8541100e-02  -9.8906200e-02  -3.7990800e-02
  -2.0405700e-02  -8.7220500e-02  -5.1095600e-02
  -2.5300500e-02  -7.4833600e-02  -5.3201800e-02
  -1.5977200e-02  -7.1094100e-02  -6.2328300e-02
  -1.7841800e-02  -5.2864300e-02  -5.6478000e-02
  -1.5744100e-02  -4.4216900e-02  -5.3669800e-02
  -6.1877700e-03  -3.4868200e-02  -5.3903800e-02
  -5.0223600e-03  -1.8040700e-02  -4.2671100e-02
   3.8347400e-03  -7.5235600e-03  -3.3310500e-02
   1.2225700e-02   6.7330700e-03  -1.9971700e-02
   1.8285800e-02   2.8702300e-02  -4.9947300e-03
   3.2270700e-02   4.6698400e-02   3.8760800e-04
   3.0872200e-02   6.7966500e-02   8.8121400e-03
   3.5766900e-02   8.9000800e-02   8.3441100e-03
   4.3924800e-02   1.0559500e-01   6.4719900e-03
   4.3225500e-02   1.2849900e-01   6.9400200e-03
   4.7187900e-02   1.4766300e-01  -3.1443600e-04
   4.4624000e-02   1.6612700e-01  -7.3348800e-03
   4.4157800e-02   1.8575900e-01  -2.1609800e-02
   3.6233100e-02   1.9954800e-01  -4.1267000e-02
   2.5045200e-02   2.0702700e-01  -6.6774600e-02
   1.6654200e-02   2.1287000e-01  -8.9006000e-02
   1.3624200e-02   2.1847900e-01  -1.1170500e-01
   8.0302100e-03   2.2011500e-01  -1.3393700e-01
  -6.4208500e-03   2.1427200e-01  -1.5570000e-01
  -1.6210300e-02   2.1310400e-01  -1.8027200e-01
  -3.0428200e-02   2.1357100e-01  -2.0133300e-01
  -4.3247700e-02   1.9627600e-01  -2.2707500e-01
  -6.0495800e-02   1.8552500e-01  -2.3783900e-01
  -7.3315200e-02   1.7360600e-01  -2.4813600e-01
  -8.4037000e-02   1.5303900e-01  -2.6147500e-01
