**************************************************************************************
  	RED ACELEROGRÁFICA DE LA UNIVERSIDAD AUTONOMA METROPOLITANA (RA-UAM)
	   UNIDAD AZCAPOTZALCO. DIVISIÓN CBI-DEPARTAMENTO DE MATERIALES
     Av. San Pablo 420, Col. Nueva el Rosario, Azcapotzalco, C.P. 02128, Ciudad de México
		Área de Estructuras. e-mail: agb@azc.uam.mx
**************************************************************************************
ARCHIVO ESTANDAR DE ACELERACION:
VERSION DEL FORMATO                    : 2.0
NOMBRE DEL ARCHIVO                     : RIDX202402.221
FECHA Y HORA DE CREACION               : 11:30 a. m. 29/02/2024
REF. CATALOGO ACELEROGRAMAS, SMIS 1999 : REGISTRO NO.      /PAG.    


================================================================================
DATOS DE LA ESTACION:
NOMBRE DE LA ESTACION                  : UAM-XOCHIMILCO.
CLAVE DE LA ESTACION                   : RIDX
LOCALIZACION DE LA ESTACION            : CALZADA DEL HUESO 1100, COL. VILLA
                                       : QUIETUD, DEL. COYOACAN, C.P.04960,  
                                       : CIUDAD DE MEXICO.
                                       : 
                                       : 
COORDENADAS DE LA ESTACION             : 19.301345 LAT. N
                                       : 99.10268 LONG. W
ALTITUD (msnm)                         : 2232
TIPO DE SUELO                          : LAGO
                                       : 
                                       : 
INSTITUCION RESPONSABLE                : UNIVERSIDAD AUTONOMA METROPOLITANA
                                       : 

================================================================================
DATOS DEL ACELEROGRAFO: 
MODELO DEL ACELEROGRAFO                : BASALT KINEMETRICS
NUMERO DE SERIE DEL ACELEROGRAFO       : 1729
NUMERO DE CANALES                      : 3
ORIENTACION C1-C6 (rumbo;orientacion)  : /V/N00E/N90E
ORIENTACION C7-C12 (rumbo;orientacion) : 
VEL. DE MUESTREO, C1-C6 (muestras/s)   : /200/200/200
VEL. DE MUESTREO, C7-C12 (muestras/s)  : 
ESC. COMPLETA DE SENSORES, C1-C6, (g)  : /2/2/2
ESC. COMPLETA DE SENSORES, C7-C12 (g)  : 
FREC. NAT. DE SENSORES, C1-C6, (Hz)    : /208/210/200   
FREC. NAT. DE SENSORES, C7-C12 (Hz)    : 
AMORTIGUAMIENTO DE SENSORES, C1-C6     : /0.7/0.7/0.7      
AMORTIGUAMIENTO DE SENSORES, C7-C12    : 
INTERVALO DE MUESTREO, C1-C6 (s)       : /0.005/0.005/0.005
INTERVALO DE MUESTREO, C7-C12 (s)      : 
UMBRAL DE DISPARO, C1-C6 (Gal)         : /2/2/2
UMBRAL DE DISPARO, C7-C12 (Gal)        : 
MEMORIA DE PREEVENTO (s)               : 60
TIEMPO DE POSEVENTO (s)                : 80


================================================================================
DATOS DEL SISMO:
FECHA DEL SISMO [GMT]                  : 2024/02/22
HORA EPICENTRO (GMT)                   : 20:43:11
MAGNITUD(ES)                           : /M=4.7
COORDENADAS DEL EPICENTRO              : 17.9300 LAT. N
                                       : -100.4000 LONG. W
PROFUNDIDAD FOCAL (Km)                 : 49.2
FUENTE DE LOS DATOS EPICENTRALES       : SSN
                                       : INSTITUTO DE GEOFISICA, UNAM

================================================================================
DATOS DE ESTE REGISTRO:
HORA DE LA PRIMERA MUESTRA (GMT)       : 20:43:09.000
EXACTITUD DEL TIEMPO (s)               : 
DURACION DEL REGISTRO (s), C1-C6       : /141/141/141
DURACION DEL REGISTRO (s), C7-C12      : 
NUM. TOTAL DE MUESTRAS, C1-C6          : /28200/28200/28200
NUM. TOTAL DE MUESTRAS, C7-C12         : 
ACEL. MAX.(Gal), C1-C6                 : /0.502/-0.504/-0.446
ACEL. MAX., C1-C6, EN LA MUESTRA       : /13620/12182/14237
ACEL. MAX.(Gal), C7-C12                : 
ACEL. MAX., C7-C12,EN LA MUESTRA       : 
UNIDADES DE LOS DATOS                  : Gal (cm/s/s)
FACTOR DE DECIMACION                   : 1
FORMATO DATOS (FORTRAN,16 campos/dato) : 3E16.7


================================================================================
CALIDAD DEL ACELEROGRAMA:
REGISTRO DIGITAL COMPLETO CON TIEMPO ABSOLUTO CORRECTO


================================================================================
COMENTARIOS:














================================================================================
DATOS DE ACELERACION:
---------+---------+---------+---------+---------+---------+---------+---------+
   CANAL-1   	      CANAL-2          CANAL-3
      V                 N00E             N90E
---------+---------+---------+---------+---------+---------+---------+---------+
[...]
  -4.8138800e-02  -1.7959000e-01  -1.9536000e-01
  -6.5619900e-02  -1.9665100e-01  -1.8599900e-01
  -7.9138700e-02  -2.1207600e-01  -1.7266000e-01
  -8.8228800e-02  -2.2937100e-01  -1.6657600e-01
  -1.1759700e-01  -2.3194200e-01  -1.5721500e-01
  -1.2342400e-01  -2.4129100e-01  -1.4808900e-01
  -1.2295800e-01  -2.5087300e-01  -1.4013200e-01
  -1.2016100e-01  -2.4923700e-01  -1.2328300e-01
  -1.0804100e-01  -2.4503000e-01  -1.1041200e-01
  -1.0407800e-01  -2.3825200e-01  -9.7307400e-02
  -8.9860400e-02  -2.3170800e-01  -8.3032500e-02
  -7.8672500e-02  -2.1955500e-01  -7.1331700e-02
  -6.1191400e-02  -2.0553200e-01  -6.6417400e-02
  -4.1612500e-02  -1.8870500e-01  -5.5886800e-02
  -2.3898300e-02  -1.6837200e-01  -4.2547900e-02
  -4.3195000e-03  -1.4944100e-01  -3.6697600e-02
   8.7330700e-03  -1.3284700e-01  -2.7805000e-02
   2.9011200e-02  -1.1344800e-01  -1.9380500e-02
   5.4417000e-02  -9.4984900e-02  -1.5168200e-02
   7.7958300e-02  -7.5119100e-02  -1.0019900e-02
   9.5672500e-02  -4.7540700e-02  -6.9776900e-03
   1.1268700e-01  -2.6272600e-02  -1.0955900e-02
   1.2410800e-01  -3.1348300e-03  -1.1190000e-02
   1.3366500e-01   1.5796100e-02  -1.3296100e-02
   1.4928100e-01   2.5845900e-02  -2.0082500e-02
   1.5907100e-01   4.3841900e-02  -2.4762800e-02
   1.6629600e-01   5.1087100e-02  -3.7867600e-02
   1.7025900e-01   5.2022000e-02  -5.1674500e-02
   1.6722900e-01   5.9734600e-02  -6.1503100e-02
   1.6699500e-01   5.7163700e-02  -7.6012000e-02
   1.7398800e-01   5.9968300e-02  -8.6776700e-02
   1.7631900e-01   6.3006600e-02  -9.1691000e-02
   1.7398800e-01   5.6930000e-02  -1.0549800e-01
   1.6862700e-01   6.6512300e-02  -1.1415600e-01
   1.5464200e-01   7.4692400e-02  -1.1743300e-01
   1.4159000e-01   7.5393500e-02  -1.2772900e-01
   1.2620600e-01   7.7964400e-02  -1.2749500e-01
   1.0686000e-01   8.1937500e-02  -1.2468700e-01
   9.0544700e-02   8.4742100e-02  -1.2281500e-01
   6.8401900e-02   8.7780400e-02  -1.1930500e-01
   3.8101300e-02   9.4090700e-02  -1.1953900e-01
   7.5676600e-03   9.6194200e-02  -1.1275200e-01
  -1.7139000e-02   9.6427900e-02  -1.0994400e-01
  -4.7905700e-02   9.2221000e-02  -1.0503000e-01
  -8.8228800e-02   8.9883800e-02  -9.4031100e-02
  -1.1759700e-01   8.4975800e-02  -9.1223000e-02
  -1.5232600e-01   8.4041000e-02  -7.9756300e-02
  -1.8425800e-01   8.0301500e-02  -7.2501800e-02
  -2.0593500e-01   6.6979700e-02  -6.4077300e-02
  -2.3460400e-01   6.5577500e-02  -4.8632300e-02
  -2.5464900e-01   4.7815100e-02  -4.8164300e-02
  -2.7446100e-01   3.1455000e-02  -3.8569700e-02
  -2.8914500e-01   1.9769300e-02  -2.9911100e-02
  -2.9613800e-01  -1.4988300e-03  -2.7337000e-02
  -2.9940100e-01  -1.2016000e-02  -1.7274300e-02
  -3.0965600e-01  -2.4636600e-02  -7.4457200e-03
  -3.2434000e-01  -3.3517800e-02  -4.1695100e-03
  -3.2364100e-01  -3.7958400e-02   2.7676800e-04
  -3.3343100e-01  -3.1180700e-02   1.6423800e-02
  -3.2946800e-01  -2.9778400e-02   2.1806100e-02
  -3.2527300e-01  -3.1180700e-02   3.9357200e-02
  -3.2807000e-01  -2.0429800e-02   6.5098800e-02
  -3.1408500e-01  -2.6272600e-02   7.6097500e-02
  -3.1245300e-01  -2.3000600e-02   1.0137100e-01
  -2.9753600e-01  -2.2065800e-02   1.2056000e-01
  -2.8798000e-01  -2.5805200e-02   1.3670700e-01
  -2.7609300e-01  -1.6690300e-02   1.5964100e-01
  -2.4742400e-01  -1.7625200e-02   1.7719200e-01
  -2.3390500e-01  -1.0847400e-02   2.0574200e-01
  -2.1083000e-01  -6.6405600e-03   2.2914300e-01
  -1.8822100e-01  -3.3685500e-03   2.5114100e-01
  -1.6631100e-01   4.1103400e-03   2.7898800e-01
  -1.3950700e-01   2.0069000e-03   2.9419900e-01
  -1.0874000e-01   6.9149200e-03   3.0987800e-01
  -7.5875500e-02   9.4857900e-03   3.1783500e-01
  -5.1168900e-02   8.7846400e-03   3.2204700e-01
  -1.6439700e-02   7.1486400e-03   3.2672700e-01
   2.2251800e-02   3.1754800e-03   3.2368500e-01
   5.9311800e-02   1.5394700e-03   3.2579100e-01
   9.7537100e-02   2.4743300e-03   3.2251500e-01
   1.3343200e-01   1.1355500e-02   3.1947300e-01
   1.6932600e-01   2.2106400e-02   3.1315400e-01
   2.0312300e-01   3.4727000e-02   3.0075200e-01
   2.2992700e-01   4.8983700e-02   2.9396500e-01
   2.5859600e-01   6.4175200e-02   2.8226400e-01
   2.8167200e-01   8.2171200e-02   2.6962800e-01
   2.8540100e-01   1.0040100e-01   2.5394900e-01
   2.9635600e-01   1.1933200e-01   2.3218500e-01
   3.0031800e-01   1.4060000e-01   2.1416600e-01
   3.0078400e-01   1.5789500e-01   1.9357300e-01
   3.1173900e-01   1.7074900e-01   1.7204400e-01
   3.1593500e-01   1.8407100e-01   1.5449200e-01
   3.2828800e-01   1.9178400e-01   1.2804900e-01
   3.2362600e-01   2.0580700e-01   1.0745500e-01
   3.1989700e-01   2.1632400e-01   8.4756100e-02
   3.2782200e-01   2.1702500e-01   5.8780400e-02
   3.2712200e-01   2.2006300e-01   4.6377700e-02
   3.4507000e-01   2.0978000e-01   2.4614300e-02
   3.5439300e-01   2.0089900e-01   1.3147600e-02
   3.5975400e-01   1.8991400e-01   1.6808600e-03
   3.6651300e-01   1.7542400e-01  -1.4934200e-02
   3.6115200e-01   1.6443900e-01  -2.8507000e-02
   3.6045300e-01   1.4597600e-01  -4.8632300e-02
   3.5019800e-01   1.3078400e-01  -6.0801100e-02
   3.3248300e-01   1.1956600e-01  -7.5778000e-02
   3.1197200e-01   1.0811400e-01  -8.8882800e-02
   2.9122800e-01   9.5493000e-02  -1.0315800e-01
   2.6489000e-01   8.6845500e-02  -1.1485800e-01
   2.3645400e-01   7.2588900e-02  -1.3077100e-01
   2.0172500e-01   6.3707700e-02  -1.4645000e-01
   1.6163500e-01   5.7631100e-02  -1.5674700e-01
   1.3296600e-01   4.6880200e-02  -1.7991500e-01
   9.1243900e-02   5.8098600e-02  -1.8389300e-01
   6.3274100e-02   6.0669400e-02  -1.8693500e-01
   4.7657700e-02   6.0669400e-02  -1.8950900e-01
   2.5048800e-02   7.0018000e-02  -1.7968100e-01
   1.7124000e-02   7.8431800e-02  -1.7968100e-01
   1.0413800e-03   9.2922100e-02  -1.8108500e-01
  -1.9886800e-03   1.0063500e-01  -1.8412700e-01
  -2.9210100e-03   1.0788000e-01  -1.8459500e-01
  -7.5826400e-03   1.1045100e-01  -1.8436100e-01
   6.6353400e-03   1.1091800e-01  -1.8365900e-01
  -1.2894400e-03   1.1161900e-01  -1.8459500e-01
  -6.8833900e-03   1.1068500e-01  -1.9044500e-01
  -1.8304400e-02   1.1372300e-01  -1.8997700e-01
  -4.2078700e-02   1.1582600e-01  -1.8623300e-01
  -4.6973400e-02   1.2424000e-01  -1.7734000e-01
  -6.4454500e-02   1.3265400e-01  -1.6353400e-01
  -7.4943200e-02   1.3709400e-01  -1.5206700e-01
  -8.3101100e-02   1.4691000e-01  -1.3358000e-01
  -8.7063400e-02   1.5649300e-01  -1.1322000e-01
  -7.9138700e-02   1.5392200e-01  -9.8243400e-02
  -8.7762700e-02   1.5252000e-01  -7.8586200e-02
  -8.9394300e-02   1.5883000e-01  -6.6417400e-02
  -9.8484400e-02   1.5789500e-01  -6.2439200e-02
  -1.1363500e-01   1.6467300e-01  -6.1503100e-02
  -1.1876300e-01   1.7425500e-01  -6.4077300e-02
  -1.2389000e-01   1.8009800e-01  -6.2439200e-02
  -1.2319100e-01   1.9458800e-01  -5.7524900e-02
  -1.2459000e-01   2.0043100e-01  -5.4014600e-02
  -1.2528900e-01   2.0697500e-01  -4.7228200e-02
  -1.1969500e-01   2.1866100e-01  -3.5293500e-02
  -1.1130400e-01   2.2053100e-01  -3.6931600e-02
  -1.0640900e-01   2.2356900e-01  -4.0909800e-02
  -1.0011600e-01   2.2216700e-01  -4.6994200e-02
  -9.1492000e-02   2.1422000e-01  -6.2205200e-02
  -9.7085900e-02   2.1094800e-01  -6.4311300e-02
  -1.0640900e-01   2.0089900e-01  -7.2969800e-02
  -1.1060500e-01   1.7472200e-01  -8.8180800e-02
  -1.2109300e-01   1.5462300e-01  -9.2393000e-02
  -1.3391300e-01   1.3288700e-01  -9.8711400e-02
  -1.3997300e-01   9.9699900e-02  -1.0386000e-01
  -1.3740900e-01   7.4224900e-02  -1.1392200e-01
  -1.3624400e-01   4.5010500e-02  -1.2281500e-01
  -1.3764200e-01   1.6731000e-02  -1.3638800e-01
  -1.3018400e-01  -7.5754200e-03  -1.6072500e-01
  -1.2808600e-01  -3.4219000e-02  -1.7032000e-01
  -1.1806300e-01  -5.3383600e-02  -1.8436100e-01
  -1.1130400e-01  -6.8341400e-02  -1.9699800e-01
  -1.1573200e-01  -8.0728300e-02  -2.0214600e-01
  -1.0874000e-01  -8.7973500e-02  -2.1384700e-01
  -1.1619900e-01  -9.3348900e-02  -2.0940000e-01
  -1.1573200e-01  -9.9425500e-02  -2.0472000e-01
  -1.1783000e-01  -1.0293100e-01  -2.0355000e-01
  -1.2692000e-01  -1.0410000e-01  -1.9442300e-01
  -1.1713100e-01  -1.0970900e-01  -1.9395500e-01
  -1.2319100e-01  -1.2046000e-01  -1.9184900e-01
  -1.1946200e-01  -1.2747100e-01  -1.8646700e-01
  -1.1293500e-01  -1.3354800e-01  -1.8693500e-01
  -1.1596600e-01  -1.3448300e-01  -1.8178700e-01
  -1.0058200e-01  -1.2723800e-01  -1.8506300e-01
  -9.3822800e-02  -1.1601900e-01  -1.8787100e-01
  -9.1958200e-02  -9.9659200e-02  -1.7593600e-01
  -8.1702600e-02  -9.2414100e-02  -1.6634200e-01
  -8.6830400e-02  -8.2831700e-02  -1.4879100e-01
  -9.3822800e-02  -6.9743700e-02  -1.2632500e-01
  -9.0792700e-02  -6.0862500e-02  -1.1017800e-01
  -1.0034900e-01  -4.4502400e-02  -9.2627100e-02
  -1.0990500e-01  -2.5337800e-02  -7.5778000e-02
  -1.1200300e-01  -7.3417100e-03  -6.4077300e-02
  -1.1783000e-01   1.2290400e-02  -4.7696200e-02
  -1.1596600e-01   3.2156200e-02  -3.6229500e-02
  -1.0501100e-01   4.9217400e-02  -3.2485300e-02
  -1.0617600e-01   7.2121500e-02  -1.4700200e-02
  -1.1340200e-01   9.1052400e-02  -1.8293600e-03
  -1.0594300e-01   1.0507500e-01   1.3147600e-02
  -1.1200300e-01   1.2914800e-01   3.9825200e-02
  -1.1829600e-01   1.4761200e-01   5.8312400e-02
  -9.8251400e-02   1.5836200e-01   7.0247200e-02
  -9.1725100e-02   1.6747700e-01   8.1713900e-02
  -8.1003300e-02   1.6771100e-01   9.4116700e-02
  -5.3732800e-02   1.6514000e-01   1.0722100e-01
  -4.2777900e-02   1.6630900e-01   1.2196400e-01
  -2.6462200e-02   1.5929700e-01   1.3272900e-01
  -5.9510700e-03   1.5462300e-01   1.3623900e-01
   8.9661500e-03   1.5088400e-01   1.3132500e-01
   2.6214200e-02   1.4270300e-01   1.2149600e-01
   4.3462200e-02   1.3078400e-01   1.1541200e-01
   6.4439600e-02   9.4090700e-02   1.1307200e-01
   7.6792900e-02   6.0202000e-02   1.2126200e-01
   8.7281500e-02   3.0286400e-02   1.3881300e-01
   8.9612400e-02  -1.0613700e-02   1.4887600e-01
   8.9146200e-02  -4.4035000e-02   1.4653600e-01
   9.2875500e-02  -8.2598000e-02   1.3109100e-01
   7.8424400e-02  -1.2022600e-01   1.0230700e-01
   7.5394400e-02  -1.6112600e-01   6.8375000e-02
   7.6326700e-02  -2.0132500e-01   3.6081000e-02
   6.4206500e-02  -2.3381200e-01   1.8997900e-02
   4.9988500e-02  -2.7331000e-01   9.4033400e-03
   3.8334400e-02  -3.0696500e-01   2.3829000e-03
   3.4139000e-02  -3.3244000e-01  -6.7436700e-03
   2.1785600e-02  -3.4365800e-01  -3.6229500e-02
   1.1297000e-02  -3.4739700e-01  -6.5481400e-02
  -5.9510700e-03  -3.5861600e-01  -6.6183400e-02
  -2.9958500e-02  -3.8268800e-01  -4.8398300e-02
  -4.0913300e-02  -4.1611000e-01  -3.1783200e-02
  -4.3477200e-02  -4.4625900e-01  -2.1954600e-02
  -4.4409500e-02  -4.6776100e-01  -4.8715500e-03
  -4.9304200e-02  -4.7897900e-01   3.2102800e-02
  -5.3732800e-02  -4.9300200e-01   6.0886600e-02
  -3.6018600e-02  -5.0445400e-01   6.3226700e-02
   5.0037600e-03  -5.0375300e-01   4.6143600e-02
   2.6447300e-02  -4.9861100e-01   3.5145000e-02
   2.8078800e-02  -4.9253500e-01   4.6143600e-02
   8.4999900e-03  -4.8645800e-01   6.1120600e-02
  -9.6803700e-03  -4.7968000e-01   6.4162800e-02
   2.6729500e-03  -4.7851200e-01   3.2336800e-02
   6.6353400e-03  -4.6799500e-01   6.3611500e-03
   7.1015000e-03  -4.4041600e-01   2.8358500e-02
  -1.1311900e-02  -4.2335500e-01   8.0309800e-02
  -4.4875700e-02  -4.2709400e-01   1.4279200e-01
  -6.9582300e-02  -4.4438900e-01   1.6385300e-01
  -7.9837900e-02  -4.6519000e-01   1.2079400e-01
  -6.1424500e-02  -4.5560800e-01   4.6611700e-02
  -3.2755400e-02  -4.0161900e-01   3.0849400e-03
  -2.9210100e-03  -3.3407600e-01   2.1104100e-02
   7.8007400e-03  -2.7377700e-01   8.1245800e-02
   2.4815700e-02  -2.5601500e-01   1.3600500e-01
   3.6003600e-02  -2.7307600e-01   1.6127900e-01
   1.6424800e-02  -2.8452800e-01   1.8608400e-01
   9.4323100e-03  -2.9037100e-01   2.0246500e-01
   4.3045200e-03  -2.6139000e-01   2.0667800e-01
   2.5981100e-02  -1.9828700e-01   1.7391600e-01
   9.8469500e-02  -1.3167800e-01   8.4288000e-02
   1.9333400e-01  -6.7874000e-02  -2.7654200e-03
   2.8726500e-01  -4.2632700e-02  -3.8803700e-02
   3.4716700e-01  -6.4835700e-02   2.5550400e-02
   3.5322800e-01  -1.1391600e-01   1.7017100e-01
   3.2409200e-01  -1.6276200e-01   3.0636800e-01
   2.8936300e-01  -1.7772000e-01   3.7212600e-01
   2.5020600e-01  -1.5037500e-01   3.4568200e-01
   2.3365700e-01  -9.4050100e-02   2.5769300e-01
   2.4344600e-01  -4.0061800e-02   1.3460100e-01
   2.6116000e-01  -7.3417100e-03   2.4848300e-02
   2.8540100e-01  -6.1731300e-03  -5.2376500e-02
   3.0404700e-01  -3.0713200e-02  -9.7775400e-02
   3.0684400e-01  -4.9877900e-02  -7.2969800e-02
   2.8889700e-01  -4.3100100e-02   5.6591100e-03
   2.6465700e-01  -2.0429800e-02   9.5754800e-02
   2.1524300e-01   1.6263500e-02   1.7227800e-01
   1.7305600e-01   4.0569900e-02   2.0176300e-01
   1.5650700e-01   2.4209900e-02   1.6876700e-01
   1.3389800e-01  -5.4719900e-03   9.6222800e-02
   1.3832600e-01  -5.8057900e-02   4.2550200e-03
   1.4811600e-01  -9.9425500e-02  -6.9225600e-02
   1.6210100e-01  -1.1695400e-01  -1.0994400e-01
   1.7492000e-01  -1.2747100e-01  -1.1813500e-01
   1.7282200e-01  -1.0456700e-01  -8.1628400e-02
   1.7608600e-01  -8.0260900e-02  -3.5059400e-02
   1.6140100e-01  -4.2866400e-02   1.6423800e-02
   1.4205600e-01  -1.1314900e-02   5.4100100e-02
   9.8236400e-02   3.6429100e-03   6.8609100e-02
   4.5560000e-02   1.1355500e-02   6.4162800e-02
  -3.1540900e-03  -9.9125800e-03   4.3569500e-02
  -6.5853000e-02  -3.7491000e-02   2.6018400e-02
  -1.0640900e-01  -8.3532900e-02  -1.3613300e-03
  -1.4370200e-01  -1.1578600e-01  -6.7436700e-03
  -1.6537900e-01  -1.3331400e-01  -6.9776900e-03
  -1.8262700e-01  -1.3775500e-01  -9.7858600e-03
  -2.0407000e-01  -1.1204600e-01   8.2332700e-03
  -2.0803300e-01  -8.9375800e-02   2.0168000e-02
  -2.2038600e-01  -5.6655600e-02   3.9123200e-02
  -2.4136300e-01  -2.6038900e-02   6.5332800e-02
  -2.6863400e-01   5.9800600e-03   8.6160200e-02
  -2.8681400e-01   4.5477900e-02   9.2244500e-02
  -3.1641600e-01   8.6611800e-02   9.2946600e-02
  -3.4275400e-01   1.2868100e-01   9.0606400e-02
  -3.4811500e-01   1.6584100e-01   8.6628200e-02
  -3.6862600e-01   2.0837700e-01   9.2244500e-02
  -3.7235500e-01   2.3198300e-01   8.8032300e-02
  -3.7585100e-01   2.5138100e-01   8.4054000e-02
  -3.7958100e-01   2.6540400e-01   7.2353300e-02
  -3.6023500e-01   2.6306700e-01   4.4739600e-02
  -3.3902500e-01   2.6073000e-01   1.7125800e-02
  -3.1315300e-01   2.5021300e-01  -4.8715500e-03
  -2.9590400e-01   2.5208200e-01  -1.1424000e-02
  -2.7143100e-01   2.5582200e-01  -1.2594000e-02
  -2.3740100e-01   2.5441900e-01  -1.1424000e-02
  -1.9987500e-01   2.6657300e-01  -3.4674700e-03
  -1.5162700e-01   2.7498600e-01  -1.5953500e-03
  -1.0780800e-01   2.8737300e-01  -3.4674700e-03
  -7.3311600e-02   2.9695600e-01  -7.4457200e-03
  -5.3732800e-02   2.9485200e-01  -1.5168200e-02
  -4.3710300e-02   2.9929300e-01  -1.1190000e-02
  -4.4409500e-02   3.0022800e-01  -9.5518500e-03
  -4.4409500e-02   3.0092900e-01  -1.2594000e-02
  -4.9770400e-02   3.0817400e-01  -9.3178300e-03
  -6.0492100e-02   3.1378300e-01  -8.1477600e-03
  -5.9792900e-02   3.1728900e-01  -8.9330500e-04
  -6.8183800e-02   3.2617000e-01   1.7593900e-02
  -6.1424500e-02   3.3318100e-01   3.2570800e-02
  -3.1357000e-02   3.3341500e-01   3.1868700e-02
  -6.8833900e-03   3.3318100e-01   2.2274100e-02
   1.4093900e-02   3.2102800e-01   9.7881200e-04
   3.6236700e-02   3.0560300e-01  -2.3124700e-02
