**************************************************************************************
  	RED ACELEROGRÁFICA DE LA UNIVERSIDAD AUTONOMA METROPOLITANA (RA-UAM)
	   UNIDAD AZCAPOTZALCO. DIVISIÓN CBI-DEPARTAMENTO DE MATERIALES
     Av. San Pablo 420, Col. Nueva el Rosario, Azcapotzalco, C.P. 02128, Ciudad de México
		Área de Estructuras. e-mail: agb@azc.uam.mx
**************************************************************************************
ARCHIVO ESTANDAR DE ACELERACION:
VERSION DEL FORMATO                    : 2.0
NOMBRE DEL ARCHIVO                     : RIDX202402.141
FECHA Y HORA DE CREACION               : 11:30 a. m. 21/02/2024
REF. CATALOGO ACELEROGRAMAS, SMIS 1999 : REGISTRO NO.      /PAG.    


================================================================================
DATOS DE LA ESTACION:
NOMBRE DE LA ESTACION                  : UAM-XOCHIMILCO.
CLAVE DE LA ESTACION                   : RIDX
LOCALIZACION DE LA ESTACION            : CALZADA DEL HUESO 1100, COL. VILLA
                                       : QUIETUD, DEL. COYOACAN, C.P.04960,  
                                       : CIUDAD DE MEXICO.
                                       : 
                                       : 
COORDENADAS DE LA ESTACION             : 19.301345 LAT. N
                                       : 99.10268 LONG. W
ALTITUD (msnm)                         : 2232
TIPO DE SUELO                          : LAGO
                                       : 
                                       : 
INSTITUCION RESPONSABLE                : UNIVERSIDAD AUTONOMA METROPOLITANA
                                       : 

================================================================================
DATOS DEL ACELEROGRAFO: 
MODELO DEL ACELEROGRAFO                : BASALT KINEMETRICS
NUMERO DE SERIE DEL ACELEROGRAFO       : 1729
NUMERO DE CANALES                      : 3
ORIENTACION C1-C6 (rumbo;orientacion)  : /V/N00E/N90E
ORIENTACION C7-C12 (rumbo;orientacion) : 
VEL. DE MUESTREO, C1-C6 (muestras/s)   : /200/200/200
VEL. DE MUESTREO, C7-C12 (muestras/s)  : 
ESC. COMPLETA DE SENSORES, C1-C6, (g)  : /2/2/2
ESC. COMPLETA DE SENSORES, C7-C12 (g)  : 
FREC. NAT. DE SENSORES, C1-C6, (Hz)    : /208/210/200   
FREC. NAT. DE SENSORES, C7-C12 (Hz)    : 
AMORTIGUAMIENTO DE SENSORES, C1-C6     : /0.7/0.7/0.7      
AMORTIGUAMIENTO DE SENSORES, C7-C12    : 
INTERVALO DE MUESTREO, C1-C6 (s)       : /0.005/0.005/0.005
INTERVALO DE MUESTREO, C7-C12 (s)      : 
UMBRAL DE DISPARO, C1-C6 (Gal)         : /2/2/2
UMBRAL DE DISPARO, C7-C12 (Gal)        : 
MEMORIA DE PREEVENTO (s)               : 60
TIEMPO DE POSEVENTO (s)                : 80


================================================================================
DATOS DEL SISMO:
FECHA DEL SISMO [GMT]                  : 2024/02/14
HORA EPICENTRO (GMT)                   : 12:42:13
MAGNITUD(ES)                           : /M=2.8
COORDENADAS DEL EPICENTRO              : 19.3780 LAT. N
                                       : -99.2070 LONG. W
PROFUNDIDAD FOCAL (Km)                 : 1.0
FUENTE DE LOS DATOS EPICENTRALES       : SSN
                                       : INSTITUTO DE GEOFISICA, UNAM

================================================================================
DATOS DE ESTE REGISTRO:
HORA DE LA PRIMERA MUESTRA (GMT)       : 12:41:28.000
EXACTITUD DEL TIEMPO (s)               : 
DURACION DEL REGISTRO (s), C1-C6       : /168/168/168
DURACION DEL REGISTRO (s), C7-C12      : 
NUM. TOTAL DE MUESTRAS, C1-C6          : /33600/33600/33600
NUM. TOTAL DE MUESTRAS, C7-C12         : 
ACEL. MAX.(Gal), C1-C6                 : /1.187/-1.265/-1.538
ACEL. MAX., C1-C6, EN LA MUESTRA       : /12609/14604/14365
ACEL. MAX.(Gal), C7-C12                : 
ACEL. MAX., C7-C12,EN LA MUESTRA       : 
UNIDADES DE LOS DATOS                  : Gal (cm/s/s)
FACTOR DE DECIMACION                   : 1
FORMATO DATOS (FORTRAN,16 campos/dato) : 3E16.7


================================================================================
CALIDAD DEL ACELEROGRAMA:
REGISTRO DIGITAL COMPLETO CON TIEMPO ABSOLUTO CORRECTO


================================================================================
COMENTARIOS:














================================================================================
DATOS DE ACELERACION:
---------+---------+---------+---------+---------+---------+---------+---------+
   CANAL-1   	      CANAL-2          CANAL-3
      V                 N00E             N90E
---------+---------+---------+---------+---------+---------+---------+---------+
[...]
   1.9794700e-01   3.6241000e-02   6.2447700e-01
   1.8093200e-01  -1.1436900e-02   6.2354100e-01
   1.6275100e-01  -5.1869600e-02   6.2611500e-01
   1.5133000e-01  -9.0432700e-02   6.4249600e-01
   1.3408200e-01  -1.4278500e-01   6.4319800e-01
   1.1077400e-01  -1.7994600e-01   6.5209100e-01
   9.3992300e-02  -2.2388400e-01   6.6121700e-01
   8.3037400e-02  -2.6665400e-01   6.6098300e-01
   6.8353300e-02  -3.0428200e-01   6.6964200e-01
   5.2037600e-02  -3.5686800e-01   6.7666200e-01
   4.3413600e-02  -3.9963800e-01   6.9351100e-01
   3.0361000e-02  -4.4404400e-01   7.0802000e-01
   1.0782100e-02  -4.8774900e-01   7.1808300e-01
   1.2879900e-02  -5.3145300e-01   7.3048600e-01
   2.9347500e-04  -5.7492400e-01   7.4499400e-01
  -2.2082400e-02  -6.1091700e-01   7.5458900e-01
  -2.7443200e-02  -6.5555600e-01   7.6020500e-01
  -4.4924300e-02  -6.8991200e-01   7.7097000e-01
  -5.0518300e-02  -7.3034500e-01   7.7073600e-01
  -6.4503200e-02  -7.7124500e-01   7.7588400e-01
  -8.8976800e-02  -7.9368200e-01   7.9109500e-01
  -9.7833900e-02  -8.2336400e-01   8.0817800e-01
  -1.0762300e-01  -8.5538300e-01   8.2151700e-01
  -1.2300700e-01  -8.7945500e-01   8.4281300e-01
  -1.3536000e-01  -8.9488100e-01   8.7557500e-01
  -1.3372800e-01  -9.1661600e-01   8.8306300e-01
  -1.4934500e-01  -9.3928700e-01   8.9780600e-01
  -1.6682600e-01  -9.4559700e-01   9.2167600e-01
  -1.8011200e-01  -9.5658100e-01   9.3337600e-01
  -1.9479600e-01  -9.6522900e-01   9.5326800e-01
  -2.0248700e-01  -9.6032100e-01   9.7409500e-01
  -2.2975800e-01  -9.6382700e-01   9.9024200e-01
  -2.4817100e-01  -9.6733200e-01   1.0028800e+00
  -2.6075800e-01  -9.6429400e-01   1.0171500e+00
  -2.8686300e-01  -9.6265800e-01   1.0248800e+00
  -3.0667500e-01  -9.5915200e-01   1.0288500e+00
  -3.1926100e-01  -9.6148900e-01   1.0328300e+00
  -3.3091500e-01  -9.6008700e-01   1.0405600e+00
  -3.5119300e-01  -9.5003700e-01   1.0452400e+00
  -3.6471200e-01  -9.4746700e-01   1.0407900e+00
  -3.7333600e-01  -9.4092300e-01   1.0396200e+00
  -3.8895300e-01  -9.3087300e-01   1.0295600e+00
  -4.0014100e-01  -9.2432900e-01   1.0237100e+00
  -4.0876500e-01  -9.1427900e-01   1.0183200e+00
  -4.1668900e-01  -9.0843600e-01   1.0092000e+00
  -4.2834300e-01  -8.9417900e-01   1.0164500e+00
  -4.3999800e-01  -8.8155900e-01   1.0108400e+00
  -4.4792200e-01  -8.7501500e-01   9.9375200e-01
  -4.4932100e-01  -8.5514900e-01   1.0000700e+00
  -4.5444900e-01  -8.4696900e-01   9.9188000e-01
  -4.7193000e-01  -8.4182700e-01   9.7549900e-01
  -4.6307300e-01  -8.2780400e-01   9.7900900e-01
  -4.6120800e-01  -8.1565100e-01   9.7011700e-01
  -4.7705800e-01  -8.0606900e-01   9.5654400e-01
  -4.7589200e-01  -7.8924100e-01   9.4835300e-01
  -4.8265100e-01  -7.6610400e-01   9.3992900e-01
  -4.8614800e-01  -7.5511900e-01   9.2518600e-01
  -4.8708000e-01  -7.3385100e-01   9.1863300e-01
  -4.8335100e-01  -7.1188200e-01   9.1722900e-01
  -4.8032100e-01  -6.9575500e-01   9.0810300e-01
  -4.8568200e-01  -6.7846000e-01   8.9406200e-01
  -4.8055400e-01  -6.5952900e-01   8.7768100e-01
  -4.8171900e-01  -6.2938000e-01   8.7861700e-01
  -4.6913300e-01  -6.1909700e-01   8.5942800e-01
  -4.6284000e-01  -6.0530700e-01   8.3087800e-01
  -4.6517000e-01  -5.7282100e-01   8.1847500e-01
  -4.4605800e-01  -5.4991700e-01   8.0209400e-01
  -4.4535800e-01  -5.2677900e-01   8.0045600e-01
  -4.4442600e-01  -5.0527700e-01   7.8594700e-01
  -4.3603500e-01  -4.8681400e-01   7.6348200e-01
  -4.2904300e-01  -4.6414300e-01   7.5365300e-01
  -4.0526800e-01  -4.4194000e-01   7.3516600e-01
  -3.8941900e-01  -4.2534700e-01   7.2416700e-01
  -3.9058400e-01  -4.0922000e-01   7.2089100e-01
  -3.8685500e-01  -3.9449600e-01   7.0731800e-01
  -3.7496800e-01  -3.7766900e-01   6.8438500e-01
  -3.6541100e-01  -3.6271100e-01   6.6425900e-01
  -3.5166000e-01  -3.5266100e-01   6.5185700e-01
  -3.3860700e-01  -3.3256200e-01   6.4764400e-01
  -3.2881800e-01  -3.1596800e-01   6.3758200e-01
  -3.2019400e-01  -3.0568400e-01   6.2822100e-01
  -3.0481000e-01  -2.9002600e-01   6.2049900e-01
  -2.8826100e-01  -2.7273100e-01   6.0482000e-01
  -2.8360000e-01  -2.6384900e-01   6.0060700e-01
  -2.6821600e-01  -2.6338200e-01   5.8492800e-01
  -2.5376500e-01  -2.5193000e-01   5.6012300e-01
  -2.4048000e-01  -2.4071200e-01   5.4584800e-01
  -2.2393100e-01  -2.4188000e-01   5.3672100e-01
  -2.1484100e-01  -2.4141300e-01   5.2782900e-01
  -2.0108900e-01  -2.3393400e-01   5.2595700e-01
  -1.8733700e-01  -2.3299900e-01   5.2338300e-01
  -1.7148800e-01  -2.2855800e-01   4.9249300e-01
  -1.5563800e-01  -2.1663900e-01   4.6768700e-01
  -1.4095400e-01  -2.1032900e-01   4.6441100e-01
  -1.2580400e-01  -1.9467000e-01   4.6441100e-01
  -1.1694700e-01  -1.8298400e-01   4.6300700e-01
  -1.1088600e-01  -1.8088000e-01   4.6324100e-01
  -1.0389400e-01  -1.8064700e-01   4.5809300e-01
  -9.2006800e-02  -1.7316800e-01   4.4639200e-01
  -7.3593400e-02  -1.6008000e-01   4.4007300e-01
  -5.9841600e-02  -1.6545500e-01   4.2884100e-01
  -5.2616000e-02  -1.6381900e-01   4.1433200e-01
  -3.7698800e-02  -1.5891100e-01   4.0403500e-01
  -2.9074800e-02  -1.6241700e-01   3.9514300e-01
  -2.4413200e-02  -1.5540600e-01   3.6799700e-01
  -1.7420700e-02  -1.5517200e-01   3.4295700e-01
  -1.5089900e-02  -1.5844400e-01   3.3359700e-01
  -2.9696700e-03  -1.6031400e-01   3.2025800e-01
   5.4212700e-03  -1.6779200e-01   3.0668500e-01
   7.9851700e-03  -1.6452000e-01   2.8913400e-01
   1.6143000e-02  -1.6031400e-01   2.7415700e-01
   2.2669300e-02  -1.6405300e-01   2.4584100e-01
   3.0594100e-02  -1.6615600e-01   2.2197200e-01
   4.1082700e-02  -1.7106400e-01   2.1869500e-01
   5.1804500e-02  -1.7503800e-01   2.0137800e-01
   6.5323200e-02  -1.7901100e-01   1.8406100e-01
   7.8608900e-02  -1.8672300e-01   1.6417000e-01
   8.0939700e-02  -1.9560500e-01   1.3374800e-01
   8.3969700e-02  -1.9700700e-01   1.0402800e-01
   9.4924600e-02  -1.9560500e-01   7.6414600e-02
   1.0541300e-01  -2.0191500e-01   5.9799500e-02
   1.1497000e-01  -2.0705700e-01   3.2887800e-02
   1.1566900e-01  -2.0986100e-01   7.1462200e-03
   1.1986400e-01  -2.0869300e-01  -5.4905800e-03
   1.2755600e-01  -2.0939400e-01  -2.9828100e-02
   1.2732300e-01  -2.1243200e-01  -4.9719400e-02
   1.3361600e-01  -2.0939400e-01  -6.9610600e-02
   1.4853300e-01  -2.1149700e-01  -9.7926400e-02
   1.5669100e-01  -2.0588800e-01  -1.2390200e-01
   1.5342800e-01  -1.9724100e-01  -1.4941000e-01
   1.5459300e-01  -1.9396900e-01  -1.7444900e-01
   1.5855600e-01  -1.8789200e-01  -1.9434000e-01
   1.6275100e-01  -1.9046300e-01  -2.1938000e-01
   1.5972100e-01  -1.8672300e-01  -2.4769600e-01
   1.5226300e-01  -1.8041300e-01  -2.6945900e-01
   1.5739000e-01  -1.7644000e-01  -2.9239300e-01
   1.5016500e-01  -1.7340200e-01  -3.0877400e-01
   1.4200700e-01  -1.7036300e-01  -3.3357900e-01
   1.3827800e-01  -1.5493800e-01  -3.5604500e-01
   1.3338300e-01  -1.4909500e-01  -3.6868100e-01
   1.3268400e-01  -1.4418700e-01  -3.8155200e-01
   1.1543600e-01  -1.3717600e-01  -3.8997700e-01
   1.0774400e-01  -1.3927900e-01  -4.0425200e-01
   1.0471400e-01  -1.3577300e-01  -4.1782400e-01
   8.9796800e-02  -1.3974700e-01  -4.3373700e-01
   7.9075000e-02  -1.4044800e-01  -4.3771600e-01
   7.1849500e-02  -1.3740900e-01  -4.4216200e-01
   6.1827000e-02  -1.3998000e-01  -4.5479900e-01
   4.0616600e-02  -1.3974700e-01  -4.5152300e-01
   2.3135500e-02  -1.4629100e-01  -4.5573500e-01
   1.4511400e-02  -1.5353600e-01  -4.5713900e-01
   1.1481400e-02  -1.6405300e-01  -4.5316100e-01
  -2.7365900e-03  -1.7573900e-01  -4.5433100e-01
  -2.6510900e-02  -1.8111400e-01  -4.4660800e-01
  -3.2337900e-02  -1.9490300e-01  -4.4824600e-01
  -4.6789000e-02  -2.0285000e-01  -4.4380000e-01
  -6.6600900e-02  -2.1243200e-01  -4.3701400e-01
  -7.5458000e-02  -2.2692200e-01  -4.4029000e-01
  -8.7345200e-02  -2.3673800e-01  -4.3303500e-01
  -1.0133000e-01  -2.5263100e-01  -4.3326900e-01
  -1.1648000e-01  -2.7319800e-01  -4.3139700e-01
  -1.3163100e-01  -2.9259600e-01  -4.1946300e-01
  -1.4095400e-01  -3.0825500e-01  -4.1548400e-01
  -1.4491600e-01  -3.2929000e-01  -4.1454800e-01
  -1.6426200e-01  -3.4798700e-01  -4.0916600e-01
  -1.7987900e-01  -3.6411300e-01  -4.0893200e-01
  -1.8081100e-01  -3.8140800e-01  -4.0799600e-01
  -1.9572800e-01  -3.9870300e-01  -4.0448600e-01
  -2.0551800e-01  -4.1973700e-01  -4.1010200e-01
  -2.1087800e-01  -4.3446200e-01  -4.1595200e-01
  -2.1926900e-01  -4.5269100e-01  -4.1993100e-01
  -2.2393100e-01  -4.7466100e-01  -4.2531300e-01
  -2.3745000e-01  -4.8938500e-01  -4.3514200e-01
  -2.4304400e-01  -5.0153800e-01  -4.4380000e-01
  -2.4630700e-01  -5.1345700e-01  -4.5222500e-01
  -2.5399800e-01  -5.2818100e-01  -4.6135100e-01
  -2.5353200e-01  -5.4384000e-01  -4.7492400e-01
  -2.5353200e-01  -5.5552600e-01  -4.9458100e-01
  -2.5842700e-01  -5.6323900e-01  -5.1213200e-01
  -2.6332200e-01  -5.7282100e-01  -5.3413000e-01
  -2.6448700e-01  -5.7936500e-01  -5.5659500e-01
  -2.6728400e-01  -5.7913100e-01  -5.7484800e-01
  -2.6681800e-01  -5.8287100e-01  -6.0035600e-01
  -2.7194600e-01  -5.8310400e-01  -6.2726800e-01
  -2.7148000e-01  -5.7983200e-01  -6.4739300e-01
  -2.5842700e-01  -5.7796300e-01  -6.7594300e-01
  -2.5749500e-01  -5.7796300e-01  -7.0519400e-01
  -2.5772800e-01  -5.7282100e-01  -7.3702000e-01
  -2.5469800e-01  -5.6440700e-01  -7.7212300e-01
  -2.4607400e-01  -5.6113500e-01  -8.0184300e-01
  -2.4024700e-01  -5.4197100e-01  -8.3811500e-01
  -2.3278800e-01  -5.2561100e-01  -8.7625900e-01
  -2.1740500e-01  -5.1112000e-01  -9.1065900e-01
  -2.1600600e-01  -4.8868300e-01  -9.4482500e-01
  -2.1157800e-01  -4.7816600e-01  -9.8741600e-01
  -2.0458500e-01  -4.5993700e-01  -1.0215800e+00
  -1.9829200e-01  -4.3983700e-01  -1.0587900e+00
  -1.8570600e-01  -4.2230800e-01  -1.1018500e+00
  -1.7917900e-01  -4.0033900e-01  -1.1350800e+00
  -1.6682600e-01  -3.7930500e-01  -1.1715900e+00
  -1.6099900e-01  -3.5102500e-01  -1.2013100e+00
  -1.5913400e-01  -3.2438200e-01  -1.2357100e+00
  -1.4258600e-01  -3.0568400e-01  -1.2743200e+00
  -1.3326200e-01  -2.7576900e-01  -1.3063800e+00
  -1.2883400e-01  -2.4655400e-01  -1.3332900e+00
  -1.2277400e-01  -2.2411800e-01  -1.3604400e+00
  -1.1205200e-01  -1.9560500e-01  -1.3910900e+00
  -9.8533100e-02  -1.6195000e-01  -1.4109800e+00
  -9.1074500e-02  -1.2689200e-01  -1.4346200e+00
  -8.6879000e-02  -1.0141700e-01  -1.4580200e+00
  -8.1751200e-02  -6.1685700e-02  -1.4762700e+00
  -7.0563300e-02  -2.4992400e-02  -1.4924200e+00
  -7.0097100e-02   6.5591800e-03  -1.5031800e+00
  -6.4736300e-02   4.5823400e-02  -1.5233100e+00
  -4.8886700e-02   7.5505200e-02  -1.5275200e+00
  -4.3059700e-02   1.2575400e-01  -1.5277600e+00
  -3.8398100e-02   1.5940900e-01  -1.5373500e+00
  -3.0473300e-02   1.9399900e-01  -1.5303300e+00
  -1.8120000e-02   2.3934000e-01  -1.5228400e+00
  -1.1826800e-02   2.6247700e-01  -1.5291600e+00
  -7.1651300e-03   3.0127400e-01  -1.5378200e+00
   9.6167400e-03   3.3656500e-01  -1.5223700e+00
   2.5699400e-02   3.7115500e-01  -1.5137200e+00
   3.1526400e-02   3.9733100e-01  -1.5158200e+00
   3.8751900e-02   4.2841500e-01  -1.5078600e+00
   5.4135300e-02   4.7562600e-01  -1.4919500e+00
   7.0917200e-02   5.0273700e-01  -1.4622300e+00
   8.1872000e-02   5.2914700e-01  -1.4486600e+00
   8.5601300e-02   5.5181700e-01  -1.4327500e+00
   1.0331600e-01   5.8266700e-01  -1.4133200e+00
   1.2965400e-01   6.1468600e-01  -1.3885200e+00
   1.3944300e-01   6.3572100e-01  -1.3534200e+00
   1.4270600e-01   6.5488500e-01  -1.3361000e+00
   1.6042000e-01   6.7031100e-01  -1.3119900e+00
   1.8372900e-01   7.0747100e-01  -1.2724500e+00
   1.9794700e-01   7.3434900e-01  -1.2275200e+00
   2.0633800e-01   7.4299600e-01  -1.2015400e+00
   2.1472800e-01   7.5935600e-01  -1.1802400e+00
   2.3244300e-01   7.8085800e-01  -1.1460800e+00
   2.4875800e-01   8.0352800e-01  -1.1091000e+00
   2.6134500e-01   8.1147500e-01  -1.0662800e+00
   2.7416400e-01   8.1685000e-01  -1.0393700e+00
   2.7789400e-01   8.2199200e-01  -1.0075400e+00
   2.8698400e-01   8.2970400e-01  -9.7290700e-01
   3.0423200e-01   8.4419500e-01  -9.4412300e-01
   3.1518700e-01   8.5003800e-01  -9.0200100e-01
   3.1472000e-01   8.5237500e-01  -8.6783500e-01
   3.1518700e-01   8.5237500e-01  -8.3647700e-01
   3.2497600e-01   8.5751700e-01  -8.0839500e-01
   3.4152500e-01   8.6195700e-01  -7.8593000e-01
   3.4828400e-01   8.6125600e-01  -7.5691200e-01
   3.4595300e-01   8.6078900e-01  -7.1338500e-01
   3.5434400e-01   8.5401100e-01  -6.7734700e-01
   3.5714100e-01   8.4980400e-01  -6.6026400e-01
   3.6250200e-01   8.4489600e-01  -6.2726800e-01
   3.7578800e-01   8.4489600e-01  -6.0644000e-01
   3.7532200e-01   8.4302600e-01  -5.9099500e-01
   3.7415600e-01   8.4209100e-01  -5.5846700e-01
   3.8254700e-01   8.4910300e-01  -5.2289700e-01
   3.8767500e-01   8.4606400e-01  -4.9107100e-01
   3.8720900e-01   8.4045500e-01  -4.8147600e-01
   3.8744200e-01   8.3227500e-01  -4.6205300e-01
   3.9047200e-01   8.2269300e-01  -4.4356600e-01
   4.0352500e-01   8.0633300e-01  -4.3443900e-01
   4.0375800e-01   8.0352800e-01  -4.0729400e-01
   4.0049400e-01   8.0563200e-01  -3.8272200e-01
   4.0841900e-01   7.9394600e-01  -3.6634100e-01
   4.0212600e-01   7.9511500e-01  -3.4808800e-01
   4.0375800e-01   7.7665100e-01  -3.3217500e-01
   4.0818600e-01   7.6590000e-01  -3.1977200e-01
   4.0492300e-01   7.6052500e-01  -3.0924200e-01
   4.0935200e-01   7.4393100e-01  -3.0151900e-01
   4.1541200e-01   7.4883900e-01  -2.7999000e-01
   4.1075000e-01   7.4556700e-01  -2.5752400e-01
   4.0585500e-01   7.4276200e-01  -2.3318700e-01
   4.1028400e-01   7.3458200e-01  -2.0908300e-01
   3.9769700e-01   7.2383100e-01  -1.9995700e-01
   3.9210400e-01   7.1682000e-01  -1.9012800e-01
   4.0096100e-01   7.1121100e-01  -1.8147000e-01
   3.9629900e-01   7.0770500e-01  -1.7351300e-01
   3.8417900e-01   6.9298100e-01  -1.6134400e-01
   3.6926200e-01   6.9485100e-01  -1.3770900e-01
   3.6739700e-01   6.9157900e-01  -1.1594600e-01
   3.5411100e-01   6.9017600e-01  -9.8862400e-02
   3.2660800e-01   6.7919200e-01  -7.9907200e-02
   3.1402100e-01   6.5979300e-01  -6.4228300e-02
   3.0423200e-01   6.5745600e-01  -3.7550600e-02
   2.9654000e-01   6.3712300e-01  -3.4225300e-04
   2.8628500e-01   6.2356800e-01   2.2357200e-02
   2.6810400e-01   6.1188200e-01   4.1078300e-02
   2.4782600e-01   6.0557100e-01   6.7522000e-02
   2.3034500e-01   6.0720700e-01   9.0923500e-02
   2.1333000e-01   5.9365200e-01   1.2345200e-01
   2.0004400e-01   5.8477100e-01   1.5855400e-01
   1.8745800e-01   5.7215000e-01   1.9833600e-01
   1.6088700e-01   5.6186700e-01   2.3835300e-01
   1.3524800e-01   5.4901200e-01   2.6503000e-01
   1.1660100e-01   5.3615800e-01   2.8866600e-01
   9.9353100e-02   5.2891300e-01   3.2587400e-01
   8.3270500e-02   5.1115000e-01   3.6776300e-01
   5.9729300e-02   4.9175200e-01   4.0239700e-01
   4.2248200e-02   4.7375600e-01   4.4779600e-01
   2.6631700e-02   4.6136900e-01   4.8219600e-01
  -1.3381000e-03   4.4664500e-01   5.0910800e-01
  -1.6721500e-02   4.2888300e-01   5.4187000e-01
  -2.3247800e-02   4.1930000e-01   5.6924900e-01
  -4.2593500e-02   4.1112000e-01   5.9686300e-01
  -6.1706200e-02   3.9335800e-01   6.2658300e-01
  -7.5924200e-02   3.7396000e-01   6.5349500e-01
  -8.7811300e-02   3.6344200e-01   6.6823800e-01
  -1.0412700e-01   3.4123900e-01   6.9070300e-01
  -1.2137500e-01   3.2838500e-01   7.1738100e-01
  -1.3302900e-01   3.1716700e-01   7.3586800e-01
  -1.4794600e-01   3.0010600e-01   7.6231200e-01
  -1.5727000e-01   3.0033900e-01   7.8524500e-01
