**************************************************************************************
  	RED ACELEROGRÁFICA DE LA UNIVERSIDAD AUTONOMA METROPOLITANA (RA-UAM)
	   UNIDAD AZCAPOTZALCO. DIVISIÓN CBI-DEPARTAMENTO DE MATERIALES
     Av. San Pablo 420, Col. Nueva el Rosario, Azcapotzalco, C.P. 02128, Ciudad de México
		Área de Estructuras. e-mail: agb@azc.uam.mx
**************************************************************************************
ARCHIVO ESTANDAR DE ACELERACION:
VERSION DEL FORMATO                    : 2.0
NOMBRE DEL ARCHIVO                     : RIDX202402.181
FECHA Y HORA DE CREACION               : 11:30 a. m. 23/02/2024
REF. CATALOGO ACELEROGRAMAS, SMIS 1999 : REGISTRO NO.      /PAG.    


================================================================================
DATOS DE LA ESTACION:
NOMBRE DE LA ESTACION                  : UAM-XOCHIMILCO.
CLAVE DE LA ESTACION                   : RIDX
LOCALIZACION DE LA ESTACION            : CALZADA DEL HUESO 1100, COL. VILLA
                                       : QUIETUD, DEL. COYOACAN, C.P.04960,  
                                       : CIUDAD DE MEXICO.
                                       : 
                                       : 
COORDENADAS DE LA ESTACION             : 19.301345 LAT. N
                                       : 99.10268 LONG. W
ALTITUD (msnm)                         : 2232
TIPO DE SUELO                          : LAGO
                                       : 
                                       : 
INSTITUCION RESPONSABLE                : UNIVERSIDAD AUTONOMA METROPOLITANA
                                       : 

================================================================================
DATOS DEL ACELEROGRAFO: 
MODELO DEL ACELEROGRAFO                : BASALT KINEMETRICS
NUMERO DE SERIE DEL ACELEROGRAFO       : 1729
NUMERO DE CANALES                      : 3
ORIENTACION C1-C6 (rumbo;orientacion)  : /V/N00E/N90E
ORIENTACION C7-C12 (rumbo;orientacion) : 
VEL. DE MUESTREO, C1-C6 (muestras/s)   : /200/200/200
VEL. DE MUESTREO, C7-C12 (muestras/s)  : 
ESC. COMPLETA DE SENSORES, C1-C6, (g)  : /2/2/2
ESC. COMPLETA DE SENSORES, C7-C12 (g)  : 
FREC. NAT. DE SENSORES, C1-C6, (Hz)    : /208/210/200   
FREC. NAT. DE SENSORES, C7-C12 (Hz)    : 
AMORTIGUAMIENTO DE SENSORES, C1-C6     : /0.7/0.7/0.7      
AMORTIGUAMIENTO DE SENSORES, C7-C12    : 
INTERVALO DE MUESTREO, C1-C6 (s)       : /0.005/0.005/0.005
INTERVALO DE MUESTREO, C7-C12 (s)      : 
UMBRAL DE DISPARO, C1-C6 (Gal)         : /2/2/2
UMBRAL DE DISPARO, C7-C12 (Gal)        : 
MEMORIA DE PREEVENTO (s)               : 60
TIEMPO DE POSEVENTO (s)                : 80


================================================================================
DATOS DEL SISMO:
FECHA DEL SISMO [GMT]                  : 2024/02/18
HORA EPICENTRO (GMT)                   : 00:01:32
MAGNITUD(ES)                           : /M=5.0
COORDENADAS DEL EPICENTRO              : 17.2100 LAT. N
                                       : -100.0700 LONG. W
PROFUNDIDAD FOCAL (Km)                 : 23.4
FUENTE DE LOS DATOS EPICENTRALES       : SSN
                                       : INSTITUTO DE GEOFISICA, UNAM

================================================================================
DATOS DE ESTE REGISTRO:
HORA DE LA PRIMERA MUESTRA (GMT)       : 00:01:43.000
EXACTITUD DEL TIEMPO (s)               : 
DURACION DEL REGISTRO (s), C1-C6       : /187/187/187
DURACION DEL REGISTRO (s), C7-C12      : 
NUM. TOTAL DE MUESTRAS, C1-C6          : /37400/37400/37400
NUM. TOTAL DE MUESTRAS, C7-C12         : 
ACEL. MAX.(Gal), C1-C6                 : /-0.621/1.049/0.694
ACEL. MAX., C1-C6, EN LA MUESTRA       : /14224/16110/12277
ACEL. MAX.(Gal), C7-C12                : 
ACEL. MAX., C7-C12,EN LA MUESTRA       : 
UNIDADES DE LOS DATOS                  : Gal (cm/s/s)
FACTOR DE DECIMACION                   : 1
FORMATO DATOS (FORTRAN,16 campos/dato) : 3E16.7


================================================================================
CALIDAD DEL ACELEROGRAMA:
REGISTRO DIGITAL COMPLETO CON TIEMPO ABSOLUTO CORRECTO


================================================================================
COMENTARIOS:














================================================================================
DATOS DE ACELERACION:
---------+---------+---------+---------+---------+---------+---------+---------+
   CANAL-1   	      CANAL-2          CANAL-3
      V                 N00E             N90E
---------+---------+---------+---------+---------+---------+---------+---------+
[...]
   3.0897100e-01  -1.6128000e-01   4.0429100e-01
   3.0314400e-01  -1.5052900e-01   4.0312100e-01
   3.0547500e-01  -1.3019600e-01   4.0429100e-01
   2.9545300e-01  -1.0448700e-01   4.0943900e-01
   2.8263300e-01  -9.6307200e-02   4.0148200e-01
   2.7004700e-01  -8.0882000e-02   3.9961000e-01
   2.6212200e-01  -6.3587000e-02   3.9001600e-01
   2.4464100e-01  -5.5640700e-02   3.7808100e-01
   2.1550600e-01  -5.0499000e-02   3.6731600e-01
   1.9499400e-01  -4.2552700e-02   3.5538200e-01
   1.7122000e-01  -3.3437800e-02   3.4040500e-01
   1.4255100e-01  -3.2035500e-02   3.1957700e-01
   1.0176200e-01  -2.8296000e-02   3.0460000e-01
   6.3303300e-02  -2.2920600e-02   2.8728300e-01
   3.3935000e-02  -2.3855400e-02   2.7300800e-01
  -1.2681300e-02  -2.4790300e-02   2.5873300e-01
  -5.8365200e-02  -3.5774900e-02   2.4258600e-01
  -9.4259800e-02  -4.4422400e-02   2.2995000e-01
  -1.3201900e-01  -5.4939600e-02   2.1497300e-01
  -1.7816900e-01  -7.5973900e-02   2.0257000e-01
  -2.1616100e-01  -9.4904900e-02   1.8993300e-01
  -2.4716100e-01  -1.1500400e-01   1.8338100e-01
  -2.8795100e-01  -1.3931100e-01   1.7425400e-01
  -3.2967200e-01  -1.6875900e-01   1.6723400e-01
  -3.6043900e-01  -1.9049400e-01   1.6559600e-01
  -3.8864200e-01  -2.1456700e-01   1.5880900e-01
  -4.2104000e-01  -2.4354800e-01   1.5880900e-01
  -4.4551400e-01  -2.7089200e-01   1.5155500e-01
  -4.6975400e-01  -2.9426400e-01   1.5412900e-01
  -4.8583700e-01  -3.1693400e-01   1.6138300e-01
  -5.0798000e-01  -3.4451300e-01   1.6068100e-01
  -5.2919000e-01  -3.6391100e-01   1.6466000e-01
  -5.3501700e-01  -3.7699900e-01   1.6676600e-01
  -5.5389700e-01  -3.8611400e-01   1.7753000e-01
  -5.5809200e-01  -4.0013700e-01   1.7823200e-01
  -5.5692700e-01  -4.0621400e-01   1.8689100e-01
  -5.5832500e-01  -4.0457800e-01   1.9484700e-01
  -5.5552800e-01  -4.0504500e-01   1.9601800e-01
  -5.5459600e-01  -3.9803400e-01   2.0303800e-01
  -5.4177600e-01  -3.8728300e-01   2.0186800e-01
  -5.3291900e-01  -3.7396100e-01   2.0912200e-01
  -5.2429500e-01  -3.6134000e-01   2.0795200e-01
  -5.0984400e-01  -3.4054000e-01   2.1239900e-01
  -4.9236300e-01  -3.1763600e-01   2.1497300e-01
  -4.7791200e-01  -2.9660100e-01   2.1871700e-01
  -4.6532600e-01  -2.7439800e-01   2.2339700e-01
  -4.4970900e-01  -2.5149400e-01   2.1965300e-01
  -4.3013000e-01  -2.3396500e-01   2.2807800e-01
  -4.0658900e-01  -2.1620300e-01   2.2761000e-01
  -3.8328100e-01  -1.9236400e-01   2.2761000e-01
  -3.6090500e-01  -1.7764000e-01   2.2199300e-01
  -3.4878500e-01  -1.6244900e-01   2.2433300e-01
  -3.2128100e-01  -1.5286600e-01   2.2105700e-01
  -3.0030400e-01  -1.3627200e-01   2.1637700e-01
  -2.8352200e-01  -1.2248300e-01   2.2035500e-01
  -2.4319900e-01  -1.2645600e-01   2.0397400e-01
  -2.2431900e-01  -1.1056400e-01   2.0654800e-01
  -2.0310900e-01  -1.0565600e-01   1.9789000e-01
  -1.7863500e-01  -1.1734200e-01   1.8548700e-01
  -1.5695900e-01  -1.1196600e-01   1.8618900e-01
  -1.2619200e-01  -1.1173200e-01   1.7168000e-01
  -1.0707900e-01  -1.1640700e-01   1.6231900e-01
  -7.2583200e-02  -1.2014600e-01   1.4781100e-01
  -4.7177300e-02  -1.2458700e-01   1.3142900e-01
  -3.4124800e-02  -1.3183200e-01   1.1855900e-01
  -1.1282800e-02  -1.4959400e-01   9.7731400e-02
   1.2258500e-02  -1.5754100e-01   7.6436000e-02
   3.4867400e-02  -1.6805800e-01   5.5140700e-02
   3.5566600e-02  -1.8044500e-01   3.1271200e-02
   5.2348500e-02  -1.9657100e-01   8.8058000e-03
   7.1927300e-02  -2.1620300e-01  -1.4361700e-02
   6.7964900e-02  -2.2648700e-01  -3.2380800e-02
   7.7288200e-02  -2.4939100e-01  -5.4846200e-02
   8.4513700e-02  -2.6832200e-01  -7.6843600e-02
   8.2882200e-02  -2.8608400e-01  -9.1586500e-02
   7.9152900e-02  -3.0945500e-01  -1.1428600e-01
   7.6122800e-02  -3.3072400e-01  -1.3581500e-01
   7.2859700e-02  -3.4708400e-01  -1.5219600e-01
   6.6566500e-02  -3.6694900e-01  -1.6062100e-01
   5.9107800e-02  -3.8891900e-01  -1.7372600e-01
   4.4423700e-02  -3.9663100e-01  -1.8472400e-01
   3.5100400e-02  -4.1673100e-01  -1.9244700e-01
   2.7175700e-02  -4.3262300e-01  -2.0461600e-01
   1.4822400e-02  -4.4407500e-01  -2.1070000e-01
  -2.4256800e-03  -4.6324000e-01  -2.2052900e-01
  -1.5245200e-02  -4.7796400e-01  -2.2310300e-01
  -1.8741400e-02  -4.8965000e-01  -2.3152700e-01
  -3.8553300e-02  -4.9759600e-01  -2.3691000e-01
  -5.1839000e-02  -5.0904800e-01  -2.3574000e-01
  -5.3936700e-02  -5.1606000e-01  -2.4205800e-01
  -6.0463000e-02  -5.1909800e-01  -2.3714400e-01
  -6.6290000e-02  -5.2657700e-01  -2.3620800e-01
  -7.7477900e-02  -5.3382200e-01  -2.3527200e-01
  -7.3748600e-02  -5.3195200e-01  -2.2988900e-01
  -7.5613300e-02  -5.3709400e-01  -2.2708100e-01
  -8.0508000e-02  -5.4363800e-01  -2.1889000e-01
  -6.6523100e-02  -5.4831300e-01  -2.1233800e-01
  -5.7432900e-02  -5.5672600e-01  -2.0438200e-01
  -5.1605900e-02  -5.5742700e-01  -1.9221300e-01
  -4.6711200e-02  -5.6701000e-01  -1.7957600e-01
  -3.5057100e-02  -5.6934700e-01  -1.6553500e-01
  -2.2237600e-02  -5.7635800e-01  -1.5500400e-01
  -1.7342900e-02  -5.8640800e-01  -1.3909100e-01
  -5.6888200e-03  -5.8617400e-01  -1.1826400e-01
   7.1306600e-03  -5.9458800e-01  -9.9543000e-02
   1.7852400e-02  -5.9458800e-01  -7.5907500e-02
   3.1371100e-02  -5.9645800e-01  -6.0696600e-02
   3.8829800e-02  -6.0113200e-01  -4.5017600e-02
   4.4423700e-02  -6.0440400e-01  -2.9572600e-02
   5.4446200e-02  -6.0907800e-01  -1.5297700e-02
   5.9107800e-02  -6.1281800e-01   8.4929800e-04
   6.4002600e-02  -6.2520500e-01   3.6574700e-03
   7.1461200e-02  -6.2894400e-01   1.4422100e-02
   7.8220500e-02  -6.3198300e-01   2.1676600e-02
   7.9852100e-02  -6.4460300e-01   2.0740500e-02
   9.1040000e-02  -6.5044600e-01   1.5358200e-02
   1.0619000e-01  -6.5699000e-01   4.5935300e-03
   1.0502500e-01  -6.7101300e-01  -7.3412200e-03
   1.1318300e-01  -6.8924300e-01  -3.4720900e-02
   1.2413800e-01  -6.9578700e-01  -5.2974100e-02
   1.3113000e-01  -7.0396700e-01  -7.0525200e-02
   1.3509200e-01  -7.2359900e-01  -9.5330700e-02
   1.4301700e-01  -7.3201300e-01  -1.1849800e-01
   1.5863400e-01  -7.4206200e-01  -1.4190000e-01
   1.5886700e-01  -7.5421600e-01  -1.6366300e-01
   1.6073100e-01  -7.6964100e-01  -1.9572300e-01
   1.6399500e-01  -7.7501600e-01  -2.1678400e-01
   1.6469400e-01  -7.8062500e-01  -2.3199500e-01
   1.6516000e-01  -7.9324600e-01  -2.5118500e-01
   1.7098700e-01  -7.9324600e-01  -2.6545900e-01
   1.7494900e-01  -7.9745300e-01  -2.7505400e-01
   1.6329500e-01  -7.9301200e-01  -2.8324500e-01
   1.6422800e-01  -7.8857200e-01  -2.9447700e-01
   1.6026500e-01  -7.8039200e-01  -2.9634900e-01
   1.4977700e-01  -7.6707000e-01  -3.0103000e-01
   1.5117500e-01  -7.5655300e-01  -3.0828400e-01
   1.5001000e-01  -7.3808900e-01  -3.1179400e-01
   1.3952100e-01  -7.2336500e-01  -3.1436800e-01
   1.3346100e-01  -6.9999400e-01  -3.1787900e-01
   1.3788900e-01  -6.7498600e-01  -3.2396300e-01
   1.3066400e-01  -6.5114700e-01  -3.2513300e-01
   1.2973200e-01  -6.2450400e-01  -3.2957900e-01
   1.3439300e-01  -5.9622400e-01  -3.3870600e-01
   1.2180700e-01  -5.6560700e-01  -3.4362000e-01
   1.1458100e-01  -5.3849600e-01  -3.4432200e-01
   1.1807700e-01  -5.0764600e-01  -3.5087500e-01
   1.1481400e-01  -4.7305600e-01  -3.4713100e-01
   1.1108500e-01  -4.4197200e-01  -3.4221600e-01
   1.0852100e-01  -4.0995300e-01  -3.4245000e-01
   1.0922000e-01  -3.7396100e-01  -3.2864300e-01
   1.0525800e-01  -3.3750100e-01  -3.1647500e-01
   9.4070100e-02  -2.9777000e-01  -3.0407200e-01
   9.4769300e-02  -2.6037500e-01  -2.9190300e-01
   8.5446100e-02  -2.1550200e-01  -2.6475700e-01
   7.8453600e-02  -1.7577000e-01  -2.4135600e-01
   7.4258100e-02  -1.4211500e-01  -2.2029500e-01
   6.4934900e-02  -1.0028000e-01  -1.8004400e-01
   6.4468700e-02  -6.3820700e-02  -1.5523800e-01
   5.6077800e-02  -2.8529700e-02  -1.2294400e-01
   5.3047700e-02   7.2287000e-03  -8.6906200e-02
   5.0250700e-02   4.6259200e-02  -5.4612200e-02
   4.7919900e-02   8.1082700e-02  -2.0446000e-02
   4.5589100e-02   1.1286800e-01   7.4017100e-03
   3.9995200e-02   1.4628900e-01   3.5951500e-02
   4.2559100e-02   1.8017800e-01   5.4438700e-02
   3.3468900e-02   2.1079500e-01   7.8308200e-02
   2.7175700e-02   2.3206300e-01   9.5625200e-02
   2.7408800e-02   2.5987500e-01   1.0966600e-01
   2.6709500e-02   2.8044200e-01   1.3564200e-01
   2.5777200e-02   2.9399700e-01   1.4827900e-01
   1.5288500e-02   3.1596700e-01   1.5576700e-01
   1.4589300e-02   3.3115800e-01   1.6114900e-01
   2.2047900e-02   3.3980600e-01   1.6091500e-01
   2.2047900e-02   3.5266000e-01   1.5834100e-01
   2.0416300e-02   3.6200800e-01   1.5295900e-01
   1.9950100e-02   3.6785100e-01   1.5178900e-01
   2.5077900e-02   3.7275900e-01   1.3985400e-01
   1.9717100e-02   3.8117300e-01   1.3166400e-01
   1.8085500e-02   3.8351000e-01   1.2300500e-01
   3.0438800e-02   3.8444500e-01   1.0241200e-01
   3.6032800e-02   3.9519600e-01   9.5391200e-02
   4.1160600e-02   3.9122300e-01   7.5500000e-02
   3.2769600e-02   3.9589700e-01   5.9353000e-02
   3.4401200e-02   4.0454500e-01   4.9992400e-02
   3.7198200e-02   4.0197400e-01   2.7058900e-02
   3.5100400e-02   4.0571300e-01   1.2082000e-02
   4.3258300e-02   4.1319200e-01  -5.9371300e-03
   3.8130500e-02   4.2698100e-01  -1.9276000e-02
   4.6754500e-02   4.3469400e-01  -3.9401200e-02
   4.0461300e-02   4.4801600e-01  -5.5782300e-02
   3.3468900e-02   4.6507700e-01  -7.0525200e-02
   3.9295900e-02   4.8143700e-01  -9.5798800e-02
   3.3002700e-02   4.9195400e-01  -1.0937200e-01
   4.4190600e-02   5.0036800e-01  -1.3207100e-01
   4.7453800e-02   5.2070100e-01  -1.4587800e-01
   5.6310900e-02   5.3472400e-01  -1.5898300e-01
   6.7032600e-02   5.5038300e-01  -1.7910800e-01
   7.4724300e-02   5.7422200e-01  -1.8987300e-01
   8.8010000e-02   5.9899600e-01  -2.0742400e-01
   9.8032500e-02   6.1839400e-01  -2.2146500e-01
   1.1667900e-01   6.4246700e-01  -2.3761200e-01
   1.2180700e-01   6.7355100e-01  -2.5212100e-01
   1.4464900e-01   6.9715600e-01  -2.5937500e-01
   1.6096400e-01   7.2847400e-01  -2.6405500e-01
   1.6376100e-01   7.6049300e-01  -2.6616100e-01
   1.8380600e-01   7.8877300e-01  -2.7037400e-01
   1.8520500e-01   8.2289500e-01  -2.6826800e-01
   1.9919000e-01   8.4766900e-01  -2.5960900e-01
   2.0618200e-01   8.7688300e-01  -2.4650400e-01
   2.0501700e-01   9.1030500e-01  -2.2918700e-01
   2.1014500e-01   9.3391000e-01  -2.1280600e-01
   1.9988900e-01   9.5891700e-01  -1.9665900e-01
   2.0012200e-01   9.7854900e-01  -1.8542600e-01
   1.9359600e-01   9.9374100e-01  -1.7302400e-01
   1.8637000e-01   1.0061300e+00  -1.5570700e-01
   1.7611500e-01   1.0164100e+00  -1.4470800e-01
   1.6143100e-01   1.0276300e+00  -1.2902900e-01
   1.5327300e-01   1.0400200e+00  -1.2060400e-01
   1.3322800e-01   1.0460900e+00  -1.1873200e-01
   1.1644600e-01   1.0470300e+00  -1.0890400e-01
   9.9664000e-02   1.0486600e+00  -1.1054200e-01
   8.5446100e-02   1.0397800e+00  -1.1194600e-01
   6.3070200e-02   1.0367400e+00  -1.1101000e-01
   3.9762100e-02   1.0288000e+00  -1.1522200e-01
   3.0438800e-02   1.0220200e+00  -1.1686000e-01
   4.7998500e-03   1.0243600e+00  -1.2224200e-01
  -1.9440600e-02   1.0159400e+00  -1.1194600e-01
  -4.2981900e-02   1.0080000e+00  -1.0141500e-01
  -6.9320100e-02   9.8205500e-01  -1.2294400e-01
  -9.5425200e-02   9.5214000e-01  -1.4447400e-01
  -1.2409400e-01   9.3507800e-01  -1.5711100e-01
  -1.3761300e-01   9.1100600e-01  -1.7396000e-01
  -1.5672600e-01   8.8459600e-01  -1.9244700e-01
  -1.8679300e-01   8.6379500e-01  -1.9455300e-01
  -2.0986800e-01   8.4346200e-01  -1.8706400e-01
  -2.2128900e-01   8.1775300e-01  -1.8051200e-01
  -2.3084600e-01   7.8643500e-01  -1.7396000e-01
  -2.4786100e-01   7.4763900e-01  -1.6810900e-01
  -2.5089100e-01   7.1585300e-01  -1.5594100e-01
  -2.4366500e-01   6.8827500e-01  -1.5289800e-01
  -2.4180000e-01   6.6420200e-01  -1.3909100e-01
  -2.3317600e-01   6.4246700e-01  -1.3019900e-01
  -2.3224400e-01   6.1792700e-01  -1.3487900e-01
  -2.2968000e-01   6.0039800e-01  -1.1498800e-01
  -2.1522900e-01   5.7866300e-01  -1.0515900e-01
  -2.1219900e-01   5.5832900e-01  -1.0211700e-01
  -2.0753700e-01   5.4991600e-01  -8.9246400e-02
  -1.9215400e-01   5.3589300e-01  -8.4566100e-02
  -1.8236500e-01   5.2280500e-01  -7.8013600e-02
  -1.8306400e-01   5.1813000e-01  -7.0993200e-02
  -1.6907900e-01   5.0667800e-01  -7.1695300e-02
  -1.5532700e-01   5.0410700e-01  -6.8887100e-02
  -1.5416200e-01   5.0878200e-01  -6.7015000e-02
  -1.3901100e-01   5.0504200e-01  -6.2100700e-02
  -1.2968800e-01   5.2116900e-01  -4.9229800e-02
  -1.1850000e-01   5.3589300e-01  -4.3145500e-02
  -1.0288400e-01   5.4033300e-01  -3.5657000e-02
  -9.4726000e-02   5.6347100e-01  -2.8168500e-02
  -7.4447900e-02   5.7539100e-01  -2.6530400e-02
  -5.5568300e-02   5.8216800e-01  -2.6764400e-02
  -4.1117200e-02   5.9221800e-01  -2.0212000e-02
  -2.2004500e-02   5.9595700e-01  -8.9793200e-03
  -4.2903300e-03   6.1138300e-01   5.5295900e-03
   2.0649400e-02   6.2143200e-01   2.5654900e-02
   3.7664300e-02   6.3405300e-01   3.9461700e-02
   4.5589100e-02   6.6046300e-01   5.7948900e-02
   6.9363400e-02   6.7401800e-01   6.8011500e-02
   8.1483700e-02   6.7822500e-01   7.3861900e-02
   9.4303200e-02   6.9108000e-01   9.3753100e-02
   1.2367100e-01   7.0042800e-01   1.1294200e-01
   1.3905500e-01   7.0673900e-01   1.3166400e-01
   1.4604700e-01   7.1982700e-01   1.4289600e-01
   1.5583700e-01   7.2333200e-01   1.4921500e-01
   1.7168600e-01   7.2286500e-01   1.6044700e-01
   1.8100900e-01   7.2309900e-01   1.6419200e-01
   1.8893400e-01   7.2146300e-01   1.5997900e-01
   2.0501700e-01   7.1538600e-01   1.5319300e-01
   2.0664800e-01   7.1445100e-01   1.4617200e-01
   2.0315200e-01   7.1608700e-01   1.4242800e-01
   2.0198700e-01   7.0884200e-01   1.3260000e-01
   1.9592700e-01   7.0206400e-01   1.2487700e-01
   1.9825800e-01   6.8593800e-01   1.1692100e-01
   1.9685900e-01   6.7892600e-01   1.0334800e-01
   1.8217500e-01   6.6794200e-01   9.2349000e-02
   1.6865600e-01   6.5321800e-01   7.3861900e-02
   1.4581400e-01   6.5017900e-01   5.7714900e-02
   1.1901000e-01   6.3031400e-01   3.8291600e-02
   9.5235500e-02   6.1816000e-01   2.4016800e-02
   7.2160400e-02   6.0530600e-01   1.0677900e-02
   4.7220700e-02   5.7983100e-01  -7.1072000e-03
   1.4123100e-02   5.5973200e-01  -1.4829700e-02
  -8.9519600e-03   5.3519200e-01  -3.5189000e-02
  -3.7387900e-02   5.1392300e-01  -4.7123700e-02
  -7.5147100e-02   4.9546000e-01  -5.6718300e-02
  -9.5891400e-02   4.7232200e-01  -7.4971500e-02
  -1.1780100e-01   4.5315700e-01  -8.6438200e-02
  -1.4344000e-01   4.3282400e-01  -9.4862700e-02
  -1.5998900e-01   4.0711600e-01  -1.0422300e-01
  -1.7933500e-01   3.8280900e-01  -1.1709400e-01
  -1.9355300e-01   3.5733400e-01  -1.1709400e-01
  -2.0217700e-01   3.4144200e-01  -1.1990200e-01
  -2.1639500e-01   3.2671700e-01  -1.2575300e-01
  -2.2198800e-01   3.1690100e-01  -1.2739100e-01
  -2.2455200e-01   3.0544900e-01  -1.3207100e-01
  -2.2968000e-01   2.8114300e-01  -1.4049600e-01
  -2.2944700e-01   2.5263000e-01  -1.5149400e-01
  -2.3550700e-01   2.2575200e-01  -1.4868600e-01
  -2.3807100e-01   2.1032700e-01  -1.4821800e-01
  -2.3014600e-01   1.8625500e-01  -1.4985600e-01
  -2.1965800e-01   1.7643900e-01  -1.4166600e-01
  -2.0730400e-01   1.7012800e-01  -1.2973100e-01
  -1.9821400e-01   1.6148100e-01  -1.1639200e-01
  -1.8935700e-01   1.6451900e-01  -1.0422300e-01
  -1.7537200e-01   1.4722400e-01  -9.4628700e-02
  -1.6115400e-01   1.4138100e-01  -8.5502100e-02
