**************************************************************************************
  	RED ACELEROGRÁFICA DE LA UNIVERSIDAD AUTONOMA METROPOLITANA (RA-UAM)
	   UNIDAD AZCAPOTZALCO. DIVISIÓN CBI-DEPARTAMENTO DE MATERIALES
     Av. San Pablo 420, Col. Nueva el Rosario, Azcapotzalco, C.P. 02128, Ciudad de México
		Área de Estructuras. e-mail: agb@azc.uam.mx
**************************************************************************************
ARCHIVO ESTANDAR DE ACELERACION:
VERSION DEL FORMATO                    : 2.0
NOMBRE DEL ARCHIVO                     : RIDX202406.231
FECHA Y HORA DE CREACION               : 11:30 a. m. 28/06/2024
REF. CATALOGO ACELEROGRAMAS, SMIS 1999 : REGISTRO NO.      /PAG.    


================================================================================
DATOS DE LA ESTACION:
NOMBRE DE LA ESTACION                  : UAM-XOCHIMILCO.
CLAVE DE LA ESTACION                   : RIDX
LOCALIZACION DE LA ESTACION            : CALZADA DEL HUESO 1100, COL. VILLA
                                       : QUIETUD, DEL. COYOACAN, C.P.04960,  
                                       : CIUDAD DE MEXICO.
                                       : 
                                       : 
COORDENADAS DE LA ESTACION             : 19.301345 LAT. N
                                       : 99.10268 LONG. W
ALTITUD (msnm)                         : 2232
TIPO DE SUELO                          : LAGO
                                       : 
                                       : 
INSTITUCION RESPONSABLE                : UNIVERSIDAD AUTONOMA METROPOLITANA
                                       : 

================================================================================
DATOS DEL ACELEROGRAFO: 
MODELO DEL ACELEROGRAFO                : BASALT KINEMETRICS
NUMERO DE SERIE DEL ACELEROGRAFO       : 1729
NUMERO DE CANALES                      : 3
ORIENTACION C1-C6 (rumbo;orientacion)  : /V/N00E/N90E
ORIENTACION C7-C12 (rumbo;orientacion) : 
VEL. DE MUESTREO, C1-C6 (muestras/s)   : /200/200/200
VEL. DE MUESTREO, C7-C12 (muestras/s)  : 
ESC. COMPLETA DE SENSORES, C1-C6, (g)  : /2/2/2
ESC. COMPLETA DE SENSORES, C7-C12 (g)  : 
FREC. NAT. DE SENSORES, C1-C6, (Hz)    : /208/210/200   
FREC. NAT. DE SENSORES, C7-C12 (Hz)    : 
AMORTIGUAMIENTO DE SENSORES, C1-C6     : /0.7/0.7/0.7      
AMORTIGUAMIENTO DE SENSORES, C7-C12    : 
INTERVALO DE MUESTREO, C1-C6 (s)       : /0.005/0.005/0.005
INTERVALO DE MUESTREO, C7-C12 (s)      : 
UMBRAL DE DISPARO, C1-C6 (Gal)         : /2/2/2
UMBRAL DE DISPARO, C7-C12 (Gal)        : 
MEMORIA DE PREEVENTO (s)               : 60
TIEMPO DE POSEVENTO (s)                : 80


================================================================================
DATOS DEL SISMO:
FECHA DEL SISMO [GMT]                  : 2024/06/23
HORA EPICENTRO (GMT)                   : 17:16:18
MAGNITUD(ES)                           : /M=5.2
COORDENADAS DEL EPICENTRO              : 16.6200 LAT. N
                                       : -99.4700 LONG. W
PROFUNDIDAD FOCAL (Km)                 : 11.0
FUENTE DE LOS DATOS EPICENTRALES       : SSN
                                       : INSTITUTO DE GEOFISICA, UNAM

================================================================================
DATOS DE ESTE REGISTRO:
HORA DE LA PRIMERA MUESTRA (GMT)       : 17:16:43.000
EXACTITUD DEL TIEMPO (s)               : 
DURACION DEL REGISTRO (s), C1-C6       : /275/275/275
DURACION DEL REGISTRO (s), C7-C12      : 
NUM. TOTAL DE MUESTRAS, C1-C6          : /55000/55000/55000
NUM. TOTAL DE MUESTRAS, C7-C12         : 
ACEL. MAX.(Gal), C1-C6                 : /-1.281/4.553/-3.455
ACEL. MAX., C1-C6, EN LA MUESTRA       : /14817/15156/18212
ACEL. MAX.(Gal), C7-C12                : 
ACEL. MAX., C7-C12,EN LA MUESTRA       : 
UNIDADES DE LOS DATOS                  : Gal (cm/s/s)
FACTOR DE DECIMACION                   : 1
FORMATO DATOS (FORTRAN,16 campos/dato) : 3E16.7


================================================================================
CALIDAD DEL ACELEROGRAMA:
REGISTRO DIGITAL COMPLETO CON TIEMPO ABSOLUTO CORRECTO


================================================================================
COMENTARIOS:














================================================================================
DATOS DE ACELERACION:
---------+---------+---------+---------+---------+---------+---------+---------+
   CANAL-1   	      CANAL-2          CANAL-3
      V                 N00E             N90E
---------+---------+---------+---------+---------+---------+---------+---------+
[...]
  -5.3951700e-01  -2.1271100e+00   9.8746600e-01
  -5.4930700e-01  -2.1380900e+00   9.9495400e-01
  -5.5863000e-01  -2.1514100e+00   1.0001000e+00
  -5.7051700e-01  -2.1617000e+00   1.0085300e+00
  -5.7494600e-01  -2.1759500e+00   1.0071200e+00
  -5.7960700e-01  -2.1836700e+00   1.0148500e+00
  -5.7937400e-01  -2.1953500e+00   1.0167200e+00
  -5.7797600e-01  -2.2051700e+00   1.0211600e+00
  -5.7308100e-01  -2.2121800e+00   1.0251400e+00
  -5.6725400e-01  -2.2248000e+00   1.0223300e+00
  -5.6492300e-01  -2.2329800e+00   1.0272500e+00
  -5.5676500e-01  -2.2413900e+00   1.0302900e+00
  -5.4208100e-01  -2.2516800e+00   1.0373100e+00
  -5.3066000e-01  -2.2572900e+00   1.0412900e+00
  -5.1830700e-01  -2.2610300e+00   1.0436300e+00
  -5.0385600e-01  -2.2645300e+00   1.0441000e+00
  -4.8870600e-01  -2.2650000e+00   1.0410600e+00
  -4.7169100e-01  -2.2657000e+00   1.0410600e+00
  -4.6027000e-01  -2.2628900e+00   1.0333300e+00
  -4.4675100e-01  -2.2577500e+00   1.0253800e+00
  -4.3230000e-01  -2.2500400e+00   1.0167200e+00
  -4.1365300e-01  -2.2399900e+00   1.0052500e+00
  -3.9920200e-01  -2.2294700e+00   9.9308200e-01
  -3.9290900e-01  -2.2154500e+00   9.7319100e-01
  -3.8172100e-01  -2.2009600e+00   9.4932100e-01
  -3.7053300e-01  -2.1822600e+00   9.1936800e-01
  -3.5934500e-01  -2.1668400e+00   8.8403100e-01
  -3.5421800e-01  -2.1455700e+00   8.5243900e-01
  -3.4349600e-01  -2.1184600e+00   8.1733700e-01
  -3.3044300e-01  -2.0913500e+00   7.7427900e-01
  -3.2881200e-01  -2.0574600e+00   7.2958200e-01
  -3.2601500e-01  -2.0280100e+00   6.8418300e-01
  -3.1669100e-01  -1.9950600e+00   6.3199800e-01
  -3.0690200e-01  -1.9646700e+00   5.7723800e-01
  -2.9897700e-01  -1.9345200e+00   5.2341500e-01
  -2.8452600e-01  -1.9018000e+00   4.6210300e-01
  -2.6914300e-01  -1.8728200e+00   4.0359900e-01
  -2.4769900e-01  -1.8363600e+00   3.4111700e-01
  -2.2648900e-01  -1.7994400e+00   2.7606100e-01
  -2.0318100e-01  -1.7620400e+00   2.0983500e-01
  -1.7078200e-01  -1.7269900e+00   1.4103500e-01
  -1.4164700e-01  -1.6888900e+00   7.9957000e-02
  -1.0365500e-01  -1.6475200e+00   1.3028800e-02
  -6.8692700e-02  -1.6080200e+00  -5.6707600e-02
  -3.5128900e-02  -1.5640900e+00  -1.2457200e-01
   4.7280000e-03  -1.5248200e+00  -1.9196800e-01
   3.7359400e-02  -1.4862600e+00  -2.5913000e-01
   6.9757700e-02  -1.4453600e+00  -3.2114400e-01
   1.0425400e-01  -1.4021200e+00  -3.8549800e-01
   1.3618600e-01  -1.3584200e+00  -4.5710700e-01
   1.5949400e-01  -1.3156500e+00  -5.2122700e-01
   1.8210300e-01  -1.2724100e+00  -5.8815500e-01
   2.0750900e-01  -1.2347800e+00  -6.5578500e-01
   2.2335800e-01  -1.1920100e+00  -7.2037300e-01
   2.3454600e-01  -1.1550800e+00  -7.8168500e-01
   2.5296000e-01  -1.1254000e+00  -8.3972100e-01
   2.6181700e-01  -1.0931500e+00  -8.8769400e-01
   2.6624500e-01  -1.0709500e+00  -9.3239100e-01
   2.8116300e-01  -1.0531800e+00  -9.8598000e-01
   2.8372700e-01  -1.0321500e+00  -1.0231900e+00
   2.9281700e-01  -1.0146200e+00  -1.0662500e+00
   3.0074200e-01  -1.0010700e+00  -1.1060300e+00
   3.0260600e-01  -9.8049900e-01  -1.1369200e+00
   3.1729000e-01  -9.6086700e-01  -1.1837200e+00
   3.1938800e-01  -9.4403900e-01  -1.2190600e+00
   3.3453800e-01  -9.3001700e-01  -1.2611800e+00
   3.4759100e-01  -9.1622700e-01  -1.2974500e+00
   3.5108700e-01  -8.9776400e-01  -1.3232000e+00
   3.6180900e-01  -8.8420800e-01  -1.3561900e+00
   3.6810200e-01  -8.6784800e-01  -1.3810000e+00
   3.8581600e-01  -8.5896700e-01  -1.4097800e+00
   3.9234300e-01  -8.4798300e-01  -1.4327100e+00
   4.0189900e-01  -8.3466100e-01  -1.4617300e+00
   4.1658300e-01  -8.2624700e-01  -1.4944900e+00
   4.1751500e-01  -8.0731600e-01  -1.5202400e+00
   4.2753800e-01  -7.9002100e-01  -1.5558100e+00
   4.3243300e-01  -7.7155800e-01  -1.5916100e+00
   4.3872600e-01  -7.6080700e-01  -1.6306900e+00
   4.5154500e-01  -7.5356200e-01  -1.6683700e+00
   4.5410900e-01  -7.4374500e-01  -1.7053400e+00
   4.6250000e-01  -7.4421300e-01  -1.7402100e+00
   4.6832700e-01  -7.3837000e-01  -1.7711000e+00
   4.7741700e-01  -7.3650000e-01  -1.8078400e+00
   4.8674100e-01  -7.3369600e-01  -1.8347500e+00
   4.8534200e-01  -7.2808700e-01  -1.8628300e+00
   4.9653000e-01  -7.2738500e-01  -1.9000400e+00
   5.0119200e-01  -7.1827100e-01  -1.9262500e+00
   5.1074800e-01  -7.1780300e-01  -1.9597100e+00
   5.1517700e-01  -7.1289500e-01  -1.9880300e+00
   5.0888300e-01  -7.0284500e-01  -2.0074500e+00
   5.1937200e-01  -6.9560000e-01  -2.0353000e+00
   5.1354500e-01  -6.7737000e-01  -2.0423200e+00
   5.1051500e-01  -6.6288000e-01  -2.0507500e+00
   5.1051500e-01  -6.4371500e-01  -2.0540200e+00
   5.0072500e-01  -6.2221400e-01  -2.0427900e+00
   4.9023700e-01  -6.0001100e-01  -2.0397500e+00
   4.7298900e-01  -5.7710600e-01  -2.0238400e+00
   4.5387600e-01  -5.4929400e-01  -2.0030100e+00
   4.3849300e-01  -5.1517200e-01  -1.9821800e+00
   4.1984600e-01  -4.8899600e-01  -1.9552700e+00
   3.8838000e-01  -4.5393900e-01  -1.9239100e+00
   3.6717000e-01  -4.2308800e-01  -1.8937200e+00
   3.3570400e-01  -3.9223800e-01  -1.8537100e+00
   3.0726800e-01  -3.6442600e-01  -1.8113500e+00
   2.8069700e-01  -3.4082000e-01  -1.7697000e+00
   2.4620000e-01  -3.0552900e-01  -1.7114300e+00
   2.2499000e-01  -2.8098900e-01  -1.6590100e+00
   1.8256900e-01  -2.5808500e-01  -1.5979300e+00
   1.4481000e-01  -2.3564800e-01  -1.5307700e+00
   1.1124600e-01  -2.1905500e-01  -1.4687500e+00
   7.8614800e-02  -2.1134200e-01  -1.3943400e+00
   5.0178900e-02  -2.0783600e-01  -1.3152400e+00
   1.2885900e-02  -1.9661800e-01  -1.2286500e+00
  -9.2568900e-03  -1.8703600e-01  -1.1425400e+00
  -4.5151400e-02  -1.7979100e-01  -1.0564200e+00
  -8.4309100e-02  -1.7535000e-01  -9.6515300e-01
  -1.1694100e-01  -1.7207800e-01  -8.7505700e-01
  -1.5656400e-01  -1.7044200e-01  -7.8425900e-01
  -1.9921800e-01  -1.6506600e-01  -6.8550500e-01
  -2.4420300e-01  -1.6202800e-01  -5.8136900e-01
  -2.7776700e-01  -1.5875600e-01  -4.7793400e-01
  -3.1925500e-01  -1.5384800e-01  -3.6326700e-01
  -3.5724800e-01  -1.5501700e-01  -2.5117400e-01
  -3.9710500e-01  -1.4964100e-01  -1.3908100e-01
  -4.4162300e-01  -1.4823900e-01  -2.6753700e-02
  -4.7658500e-01  -1.4450000e-01   7.8552900e-02
  -5.2296900e-01  -1.3655300e-01   1.9275200e-01
  -5.6562300e-01  -1.3187900e-01   2.9688900e-01
  -6.1037400e-01  -1.1692100e-01   4.0219500e-01
  -6.5326100e-01  -1.0196300e-01   5.0914000e-01
  -6.9288500e-01  -8.6304400e-02   6.0555400e-01
  -7.3693700e-01  -7.1346600e-02   7.0594600e-01
  -7.6234300e-01  -5.7090000e-02   7.9346800e-01
  -7.9054600e-01  -4.0028800e-02   8.7911700e-01
  -8.2294500e-01  -2.3902400e-02   9.6219200e-01
  -8.3856100e-01  -7.7760800e-03   1.0305200e+00
  -8.5883900e-01   1.5595400e-02   1.0981500e+00
  -8.7958300e-01   3.8265800e-02   1.1529100e+00
  -8.8727500e-01   5.3691000e-02   1.1983100e+00
  -8.9450100e-01   7.6127700e-02   1.2427800e+00
  -8.9450100e-01   9.3656300e-02   1.2816200e+00
  -8.9729800e-01   1.1282100e-01   1.3178900e+00
  -8.8960600e-01   1.3432300e-01   1.3494900e+00
  -8.6932800e-01   1.5465600e-01   1.3759300e+00
  -8.5790700e-01   1.7989700e-01   1.3955900e+00
  -8.4042600e-01   2.0443700e-01   1.4129000e+00
  -8.1105700e-01   2.3271700e-01   1.4269500e+00
  -7.8238800e-01   2.6239900e-01   1.4430900e+00
  -7.5838100e-01   2.9441800e-01   1.4580700e+00
  -7.1432900e-01   3.1778900e-01   1.4625200e+00
  -6.8402800e-01   3.5401500e-01   1.4807700e+00
  -6.4300600e-01   3.8930600e-01   1.4877900e+00
  -5.9475800e-01   4.1688500e-01   1.4915300e+00
  -5.7238200e-01   4.6456200e-01   1.5109600e+00
  -5.1411100e-01   4.9471200e-01   1.5133000e+00
  -4.7635200e-01   5.3421000e-01   1.5292100e+00
  -4.4255500e-01   5.7955000e-01   1.5413800e+00
  -3.9943500e-01   6.1858100e-01   1.5465300e+00
  -3.7356300e-01   6.6766100e-01   1.5598700e+00
  -3.2531500e-01   7.0295200e-01   1.5528500e+00
  -2.9944300e-01   7.4852700e-01   1.5549500e+00
  -2.6308300e-01   7.9012800e-01   1.5493400e+00
  -2.2136100e-01   8.3172900e-01   1.5352900e+00
  -1.9572200e-01   8.8080900e-01   1.5301500e+00
  -1.5679800e-01   9.1960600e-01   1.5140000e+00
  -1.2836200e-01   9.6377800e-01   1.5060400e+00
  -9.0369300e-02   1.0046800e+00   1.4882600e+00
  -5.1677700e-02   1.0495500e+00   1.4660300e+00
  -2.8136500e-02   1.0984000e+00   1.4566700e+00
   4.7280000e-03   1.1463100e+00   1.4337300e+00
   4.2487200e-02   1.1888500e+00   1.4115000e+00
   6.5562300e-02   1.2299800e+00   1.3909100e+00
   8.5607300e-02   1.2767200e+00   1.3661000e+00
   1.1031400e-01   1.3169200e+00   1.3415300e+00
   1.2966000e-01   1.3632000e+00   1.3120400e+00
   1.4947200e-01   1.4106400e+00   1.2825600e+00
   1.5762900e-01   1.4597200e+00   1.2598600e+00
   1.7021600e-01   1.5076300e+00   1.2322500e+00
   1.8070500e-01   1.5590500e+00   1.2027600e+00
   1.7627600e-01   1.6132700e+00   1.1791200e+00
   1.8303500e-01   1.6593100e+00   1.1473000e+00
   1.7860700e-01   1.7196100e+00   1.1231900e+00
   1.7581000e-01   1.7773400e+00   1.1021300e+00
   1.7441100e-01   1.8381100e+00   1.0803700e+00
   1.6905000e-01   1.8998100e+00   1.0635200e+00
   1.7254700e-01   1.9559000e+00   1.0431600e+00
   1.6672000e-01   2.0194700e+00   1.0221000e+00
   1.5366700e-01   2.0860800e+00   9.9986900e-01
   1.5040400e-01   2.1634400e+00   9.7950900e-01
   1.5879500e-01   2.2342500e+00   9.5517200e-01
   1.5250200e-01   2.3167600e+00   9.4042900e-01
   1.5996000e-01   2.3964500e+00   9.2030400e-01
   1.5996000e-01   2.4745100e+00   9.0251900e-01
   1.5110300e-01   2.5637900e+00   8.9198800e-01
   1.6858400e-01   2.6390500e+00   8.5712000e-01
   1.6042600e-01   2.7306700e+00   8.4214300e-01
   1.6998300e-01   2.8169100e+00   8.3114400e-01
   1.8862900e-01   2.8998800e+00   8.1078500e-01
   1.8373500e-01   2.9975700e+00   8.0633900e-01
   1.9935100e-01   3.0884800e+00   7.8948900e-01
   2.0844100e-01   3.1843100e+00   7.7170400e-01
   2.1100500e-01   3.2817700e+00   7.5977000e-01
   2.1426800e-01   3.3789900e+00   7.4479300e-01
   2.1846400e-01   3.4783200e+00   7.3028400e-01
   2.3081700e-01   3.5718100e+00   7.1905100e-01
   2.3314800e-01   3.6652900e+00   7.1764700e-01
   2.3734300e-01   3.7599500e+00   7.1437100e-01
   2.4643400e-01   3.8468900e+00   7.1109500e-01
   2.5249400e-01   3.9352300e+00   7.1109500e-01
   2.6228300e-01   4.0177400e+00   7.0711600e-01
   2.7044100e-01   4.0948600e+00   7.1015800e-01
   2.8162900e-01   4.1719900e+00   7.1460500e-01
   2.9235100e-01   4.2388300e+00   7.1951900e-01
   2.9934300e-01   4.3084800e+00   7.3426200e-01
   3.1565900e-01   4.3699400e+00   7.4736700e-01
   3.3034300e-01   4.4180900e+00   7.5789700e-01
   3.3943300e-01   4.4667000e+00   7.7825700e-01
   3.5668100e-01   4.5057300e+00   7.9721200e-01
   3.6950100e-01   4.5307400e+00   8.1289100e-01
   3.8348500e-01   4.5482700e+00   8.4284500e-01
   4.0632700e-01   4.5529400e+00   8.7209700e-01
   4.2171100e-01   4.5485000e+00   8.9971000e-01
   4.3989100e-01   4.5471000e+00   9.2638800e-01
   4.5667300e-01   4.5382200e+00   9.4885300e-01
   4.6809400e-01   4.5232600e+00   9.7131900e-01
   4.8044700e-01   4.5017600e+00   9.8746600e-01
   4.8254500e-01   4.4748800e+00   1.0061900e+00
   4.9932700e-01   4.4445000e+00   1.0221000e+00
   5.1261300e-01   4.4089800e+00   1.0405900e+00
   5.1168000e-01   4.3739200e+00   1.0562700e+00
   5.1820700e-01   4.3281100e+00   1.0607100e+00
   5.1307900e-01   4.2841700e+00   1.0733500e+00
   5.1774000e-01   4.2315900e+00   1.0803700e+00
   5.1750700e-01   4.1750300e+00   1.0841100e+00
   5.1191300e-01   4.1240800e+00   1.0909000e+00
   5.1983800e-01   4.0602700e+00   1.0932400e+00
   5.1238000e-01   4.0076900e+00   1.0976900e+00
   5.1307900e-01   3.9558000e+00   1.1000300e+00
   5.1844000e-01   3.9004100e+00   1.0986200e+00
   5.1820700e-01   3.8471200e+00   1.0972200e+00
   5.1727400e-01   3.7947700e+00   1.0960500e+00
   5.1004900e-01   3.7487300e+00   1.0941800e+00
   5.1144700e-01   3.6935700e+00   1.0836500e+00
   5.0725200e-01   3.6477600e+00   1.0756900e+00
   5.0492100e-01   3.6047600e+00   1.0763900e+00
   5.1004900e-01   3.5535800e+00   1.0630500e+00
   5.0422200e-01   3.5180500e+00   1.0581400e+00
   5.0492100e-01   3.4799600e+00   1.0532200e+00
   5.0585300e-01   3.4327500e+00   1.0300600e+00
   4.9862800e-01   3.3939500e+00   1.0197600e+00
   5.0538700e-01   3.3500100e+00   9.9916700e-01
   5.0422200e-01   3.3088800e+00   9.7529700e-01
   4.9956000e-01   3.2710200e+00   9.5564000e-01
   5.0655300e-01   3.2268400e+00   9.2521800e-01
   5.0748500e-01   3.1831400e+00   9.0158200e-01
   5.0911600e-01   3.1291500e+00   8.7326700e-01
   5.1587600e-01   3.0768000e+00   8.4167500e-01
   5.2007100e-01   3.0277200e+00   8.0914700e-01
   5.1844000e-01   2.9744300e+00   7.8106500e-01
   5.2613100e-01   2.9232500e+00   7.4970700e-01
   5.3125900e-01   2.8748700e+00   7.0992400e-01
   5.3359000e-01   2.8206500e+00   6.7458800e-01
   5.3708600e-01   2.7643200e+00   6.3363600e-01
   5.2356700e-01   2.7166400e+00   5.9268300e-01
   5.1331200e-01   2.6638200e+00   5.4985800e-01
   5.0445500e-01   2.6103000e+00   5.0469400e-01
   4.8487600e-01   2.5595900e+00   4.6210300e-01
   4.6879300e-01   2.5065300e+00   4.1834200e-01
   4.4921400e-01   2.4516100e+00   3.7364500e-01
   4.2007900e-01   2.3948200e+00   3.2941700e-01
   3.9583900e-01   2.3431700e+00   2.7629500e-01
   3.5947800e-01   2.2929200e+00   2.1826000e-01
   3.2381700e-01   2.2375300e+00   1.6209600e-01
   2.8932100e-01   2.1854100e+00   1.0078400e-01
   2.3804300e-01   2.1431100e+00   3.9238400e-02
   2.0098300e-01   2.0959000e+00  -2.6051700e-02
   1.5063700e-01   2.0489200e+00  -8.9235700e-02
   9.4930600e-02   2.0056800e+00  -1.4680300e-01
   5.5073600e-02   1.9559000e+00  -2.1443400e-01
   4.9610800e-03   1.9044800e+00  -2.8440400e-01
  -4.7948400e-02   1.8556400e+00  -3.4688600e-01
  -9.8760200e-02   1.7981400e+00  -4.1638800e-01
  -1.5097000e-01   1.7383100e+00  -4.8565700e-01
  -2.0714300e-01   1.6838600e+00  -5.4837200e-01
  -2.5725600e-01   1.6228600e+00  -6.1600300e-01
  -3.0527000e-01   1.5670000e+00  -6.7403800e-01
  -3.6004500e-01   1.5141800e+00  -7.3090400e-01
  -4.1715000e-01   1.4627600e+00  -7.8449300e-01
  -4.6912700e-01   1.4132100e+00  -8.3363600e-01
  -5.1900600e-01   1.3559500e+00  -8.9026800e-01
  -5.7098300e-01   1.3003300e+00  -9.4034700e-01
  -6.1270500e-01   1.2423700e+00  -9.8434200e-01
  -6.5932100e-01   1.1778600e+00  -1.0185100e+00
  -7.0500500e-01   1.1124200e+00  -1.0545500e+00
  -7.3344100e-01   1.0504900e+00  -1.0849700e+00
  -7.6723800e-01   9.8574800e-01  -1.1050900e+00
  -7.9753900e-01   9.2147600e-01  -1.1352800e+00
  -8.1338800e-01   8.5626900e-01  -1.1624300e+00
  -8.3226800e-01   7.8358400e-01  -1.1797400e+00
  -8.4835000e-01   7.2445400e-01  -1.1893400e+00
  -8.5650800e-01   6.6812800e-01  -1.2012700e+00
  -8.6489900e-01   6.0853100e-01  -1.2139100e+00
  -8.7701900e-01   5.4823300e-01  -1.2174200e+00
  -8.8331300e-01   4.8980400e-01  -1.2256100e+00
  -8.7632000e-01   4.3511400e-01  -1.2309900e+00
  -8.7212500e-01   3.7247900e-01  -1.2319300e+00
  -8.6280100e-01   3.1147900e-01  -1.2345000e+00
  -8.5371100e-01   2.4907700e-01  -1.2319300e+00
  -8.4229000e-01   1.8784400e-01  -1.2317000e+00
  -8.1898200e-01   1.2824600e-01  -1.2277200e+00
  -8.0313300e-01   7.6828800e-02  -1.2214000e+00
  -7.7306500e-01   3.4059000e-02  -1.2232700e+00
  -7.4043400e-01  -2.0630400e-02  -1.2237400e+00
  -7.0850100e-01  -6.5737500e-02  -1.2239700e+00
  -6.6375000e-01  -1.0546900e-01  -1.2207000e+00
