**************************************************************************************
  	RED ACELEROGRÁFICA DE LA UNIVERSIDAD AUTONOMA METROPOLITANA (RA-UAM)
	   UNIDAD AZCAPOTZALCO. DIVISIÓN CBI-DEPARTAMENTO DE MATERIALES
     Av. San Pablo 420, Col. Nueva el Rosario, Azcapotzalco, C.P. 02128, Ciudad de México
		Área de Estructuras. e-mail: agb@azc.uam.mx
**************************************************************************************
ARCHIVO ESTANDAR DE ACELERACION:
VERSION DEL FORMATO                    : 2.0
NOMBRE DEL ARCHIVO                     : RUMC202406.231
FECHA Y HORA DE CREACION               : 11:30 a. m. 28/06/2024
REF. CATALOGO ACELEROGRAMAS, SMIS 1999 : REGISTRO NO.      /PAG.    


================================================================================
DATOS DE LA ESTACION:
NOMBRE DE LA ESTACION                  : UAM-CUAJIMALPA.
CLAVE DE LA ESTACION                   : RUMC
LOCALIZACION DE LA ESTACION            : AV. VASCO DE QUIROGA 4871, COL. SANTA FE,
                                       : CUAJIMALPA DE MORELOS, C.P 05348, CIUDAD DE MEXICO.   
                                       : 
                                       : 
                                       : 
COORDENADAS DE LA ESTACION             : 19.35303 LAT. N
                                       : -99.28219 LONG. W
ALTITUD (msnm)                         : 2671
TIPO DE SUELO                          : DEPOSITOS LACUSTRES
                                       : 
                                       : 
INSTITUCION RESPONSABLE                : UNIVERSIDAD AUTONOMA METROPOLITANA
                                       : 

================================================================================
DATOS DEL ACELEROGRAFO: 
MODELO DEL ACELEROGRAFO                : ETNA2 KINEMETRICS
NUMERO DE SERIE DEL ACELEROGRAFO       : 104252
NUMERO DE CANALES                      : 3
ORIENTACION C1-C6 (rumbo;orientacion)  : /N90E/N00E/V 
ORIENTACION C7-C12 (rumbo;orientacion) : 
VEL. DE MUESTREO, C1-C6 (muestras/s)   : /200/200/200
VEL. DE MUESTREO, C7-C12 (muestras/s)  : 
ESC. COMPLETA DE SENSORES, C1-C6, (g)  : /2/2/2
ESC. COMPLETA DE SENSORES, C7-C12 (g)  : 
FREC. NAT. DE SENSORES, C1-C6, (Hz)    : /204/216/208   
FREC. NAT. DE SENSORES, C7-C12 (Hz)    : 
AMORTIGUAMIENTO DE SENSORES, C1-C6     : /0.7/0.7/0.7      
AMORTIGUAMIENTO DE SENSORES, C7-C12    : 
INTERVALO DE MUESTREO, C1-C6 (s)       : /0.005/0.005/0.005
INTERVALO DE MUESTREO, C7-C12 (s)      : 
UMBRAL DE DISPARO, C1-C6 (Gal)         : /2/2/2
UMBRAL DE DISPARO, C7-C12 (Gal)        : 
MEMORIA DE PREEVENTO (s)               : 50
TIEMPO DE POSEVENTO (s)                : 60


================================================================================
DATOS DEL SISMO:
FECHA DEL SISMO [GMT]                  : 2024/06/23
HORA EPICENTRO (GMT)                   : 17:16:18
MAGNITUD(ES)                           : /M=5.2
COORDENADAS DEL EPICENTRO              : 16.6200 LAT. N
                                       : -99.4700 LONG. W
PROFUNDIDAD FOCAL (Km)                 : 11.0
FUENTE DE LOS DATOS EPICENTRALES       : SSN
                                       : INSTITUTO DE GEOFISICA, UNAM

================================================================================
DATOS DE ESTE REGISTRO:
HORA DE LA PRIMERA MUESTRA (GMT)       : 17:15:56.000
EXACTITUD DEL TIEMPO (s)               : 
DURACION DEL REGISTRO (s), C1-C6       : /226/226/226
DURACION DEL REGISTRO (s), C7-C12      : 
NUM. TOTAL DE MUESTRAS, C1-C6          : /45200/45200/45200
NUM. TOTAL DE MUESTRAS, C7-C12         : 
ACEL. MAX.(Gal), C1-C6                 : /1.993/-1.572/-0.979
ACEL. MAX., C1-C6, EN LA MUESTRA       : /22835/22794/22228
ACEL. MAX.(Gal), C7-C12                : 
ACEL. MAX., C7-C12,EN LA MUESTRA       : 
UNIDADES DE LOS DATOS                  : Gal (cm/s/s)
FACTOR DE DECIMACION                   : 1
FORMATO DATOS (FORTRAN,16 campos/dato) : 3E16.7


================================================================================
CALIDAD DEL ACELEROGRAMA:
REGISTRO DIGITAL COMPLETO CON TIEMPO ABSOLUTO CORRECTO


================================================================================
COMENTARIOS:














================================================================================
DATOS DE ACELERACION:
---------+---------+---------+---------+---------+---------+---------+---------+
   CANAL-1   	     CANAL-2          CANAL-3
     N90E              N00E              V
---------+---------+---------+---------+---------+---------+---------+---------+
[...]
   9.0630200e-01   1.0413200e+00   1.3409000e-01
   8.4443700e-01   1.0712400e+00   1.5418200e-01
   7.6272800e-01   1.1135500e+00   1.5067700e-01
   6.3969800e-01   1.1715200e+00   1.9156100e-01
   5.7783300e-01   1.1537500e+00   2.1212000e-01
   5.0382800e-01   1.1245400e+00   2.2824000e-01
   3.9433800e-01   1.1469800e+00   2.4459300e-01
   3.2103300e-01   1.1165900e+00   2.6678700e-01
   2.3512200e-01   1.0838600e+00   3.0533500e-01
   1.4220800e-01   1.0350100e+00   3.2285700e-01
   6.5634600e-02   9.4688300e-01   3.5649800e-01
   5.1700700e-03   8.8774400e-01   3.8383200e-01
  -8.1674800e-02   8.3468200e-01   4.0322300e-01
  -1.5918100e-01   7.4305100e-01   4.0322300e-01
  -2.4042300e-01   6.4043400e-01   4.4083600e-01
  -3.0999300e-01   5.2098600e-01   4.4761100e-01
  -3.9263500e-01   4.4057500e-01   4.5602100e-01
  -4.8555000e-01   3.4310000e-01   4.9713900e-01
  -5.3994500e-01   2.4258700e-01   4.9036400e-01
  -6.4313100e-01   2.2271800e-01   5.0157700e-01
  -7.2507400e-01   1.2641100e-01   4.8709300e-01
  -7.7409900e-01   3.7585500e-02   4.7985100e-01
  -8.5510800e-01   1.9352800e-02   4.6046000e-01
  -9.4592100e-01   4.1881000e-04   4.3172400e-01
  -9.6483100e-01  -3.3709100e-02   3.8897200e-01
  -1.0299600e+00  -3.2774100e-02   3.6981500e-01
  -1.0869300e+00  -2.8800300e-02   3.2682800e-01
  -1.0705900e+00  -2.5527700e-02   2.6889000e-01
  -1.1007000e+00   2.5897800e-02   2.7636600e-01
  -1.0668500e+00   4.5299300e-02   1.9366400e-01
  -1.0682500e+00   1.2033400e-01   1.7380600e-01
  -1.0213300e+00   1.2407400e-01   1.4320100e-01
  -9.6296300e-01   1.1752900e-01   6.6106300e-02
  -9.7603700e-01   1.9934200e-01   4.9519100e-02
  -8.8662400e-01   2.0308200e-01  -5.3820200e-03
  -8.4763700e-01   2.2528900e-01  -4.2761500e-02
  -8.3339600e-01   2.5591000e-01  -8.8317800e-02
  -7.6032500e-01   2.6292300e-01  -1.3457500e-01
  -7.1807000e-01   2.6409200e-01  -1.8129900e-01
  -7.0172800e-01   2.7531200e-01  -2.3222900e-01
  -6.7744900e-01   2.7648100e-01  -2.8035500e-01
  -6.7137900e-01   2.8068800e-01  -3.0535200e-01
  -6.5293700e-01   2.6175400e-01  -3.5628200e-01
  -6.4569900e-01   2.2365300e-01  -4.0417500e-01
  -6.4336500e-01   2.3534000e-01  -4.0721200e-01
  -5.9947600e-01   2.1780900e-01  -4.8033500e-01
  -6.1418300e-01   2.1897800e-01  -5.2729300e-01
  -5.9714100e-01   1.9162800e-01  -5.5439300e-01
  -5.5745400e-01   1.5189100e-01  -5.9551100e-01
  -5.5698700e-01   1.3669700e-01  -6.3055400e-01
  -5.2873900e-01   8.3868500e-02  -6.5017800e-01
  -4.9232000e-01   5.6285700e-02  -6.3896400e-01
  -4.4796400e-01   4.7169300e-02  -6.5835500e-01
  -3.9800500e-01   2.5430300e-02  -6.6279400e-01
  -3.1909700e-01  -1.8281400e-02  -6.4340300e-01
  -2.2571600e-01  -3.5345300e-02  -6.3405800e-01
  -1.4587500e-01  -5.8925100e-03  -6.2541400e-01
  -5.3660300e-02   2.3326600e-02  -5.8219400e-01
   7.4972800e-02   2.5196600e-02  -5.4715100e-01
   1.6858800e-01   5.4415700e-02  -5.1724700e-01
   2.6360400e-01   1.0794500e-01  -4.5463700e-01
   3.9900700e-01   1.3412500e-01  -3.9973600e-01
   4.6647500e-01   1.9420000e-01  -3.2964900e-01
   5.6102400e-01   2.6759800e-01  -2.7942000e-01
   6.5860800e-01   3.2556900e-01  -2.0466100e-01
   7.3027800e-01   3.7722800e-01  -1.4158400e-01
   7.9774600e-01   4.5623600e-01  -1.0700800e-01
   8.2506000e-01   5.4646500e-01  -2.4305400e-02
   9.0186700e-01   6.0092900e-01  -3.2794200e-03
   9.2101000e-01   7.1079300e-01   3.7137200e-02
   9.3198200e-01   8.0546300e-01   8.8300300e-02
   9.9875000e-01   8.5992700e-01   1.0862500e-01
   1.0001500e+00   9.4898700e-01   1.5021000e-01
   1.0090200e+00   1.0429600e+00   1.7310500e-01
   1.0456700e+00   1.1161200e+00   2.0721400e-01
   1.0480100e+00   1.1474400e+00   2.2800600e-01
   1.0517400e+00   1.1829700e+00   2.4249100e-01
   1.0848900e+00   1.2227100e+00   2.7543100e-01
   1.1066100e+00   1.2673600e+00   3.0790500e-01
   1.1519000e+00   1.2626800e+00   2.8664500e-01
   1.1743100e+00   1.2573100e+00   2.8641200e-01
   1.1878500e+00   1.2605800e+00   3.0907300e-01
   1.2434100e+00   1.2070500e+00   2.7636600e-01
   1.2298700e+00   1.1939600e+00   3.0533500e-01
   1.2632500e+00   1.1100400e+00   3.2425800e-01
   1.3150800e+00   1.0621200e+00   3.2332400e-01
   1.2877700e+00   1.0614200e+00   3.6350700e-01
   1.3309500e+00   9.4548100e-01   3.8570100e-01
   1.3512700e+00   9.0550900e-01   4.2705200e-01
   1.3143800e+00   8.8751000e-01   4.5321800e-01
   1.3211500e+00   8.1154000e-01   4.5345100e-01
   1.2971000e+00   7.5567400e-01   4.8896200e-01
   1.2487800e+00   7.0565100e-01   4.9737200e-01
   1.2023200e+00   6.5890000e-01   4.8008400e-01
   1.1278500e+00   6.0747400e-01   5.0928700e-01
   1.0575800e+00   5.1864800e-01   4.9830700e-01
   9.4995800e-01   4.9200100e-01   4.8101900e-01
   8.3556600e-01   4.8031300e-01   4.9176500e-01
   7.5128900e-01   3.9218800e-01   4.6887000e-01
   6.1822000e-01   3.6343700e-01   4.4714400e-01
   4.7301200e-01   3.3632100e-01   4.3032300e-01
   3.8359900e-01   2.8653200e-01   3.9294300e-01
   2.6056900e-01   2.9518100e-01   3.5719900e-01
   1.0088600e-01   2.9681700e-01   3.3430400e-01
   3.0383100e-02   2.3697600e-01   2.7005800e-01
  -8.3775900e-02   2.3697600e-01   2.3805200e-01
  -1.9980200e-01   2.4118400e-01   1.7871200e-01
  -2.4439200e-01   2.0004400e-01   8.8300300e-02
  -3.4734500e-01   2.0775700e-01   4.0174200e-02
  -4.2158400e-01   1.8952500e-01  -4.5331400e-02
  -4.5403400e-01   1.6801900e-01  -1.1915600e-01
  -4.9278700e-01   1.5937100e-01  -1.7732800e-01
  -4.9815700e-01   1.5095600e-01  -2.8292500e-01
  -5.3130700e-01   1.7175900e-01  -3.8151300e-01
  -5.6772600e-01   1.4861800e-01  -4.3758200e-01
  -5.4391400e-01   1.0023100e-01  -5.2916200e-01
  -5.9597400e-01   1.4324200e-01  -5.7425100e-01
  -6.1044800e-01   1.3482700e-01  -6.2144300e-01
  -5.7262800e-01   1.1098400e-01  -6.8405300e-01
  -6.3449400e-01   1.7970700e-01  -6.8405300e-01
  -6.1978600e-01   1.6872100e-01  -7.3755300e-01
  -6.1161500e-01   1.9209600e-01  -7.5040200e-01
  -6.6881100e-01   2.3627500e-01  -7.4222500e-01
  -6.5527100e-01   2.2435400e-01  -7.8124000e-01
  -6.9495800e-01   3.0196000e-01  -7.4059000e-01
  -7.3277800e-01   3.4497000e-01  -7.0227600e-01
  -7.2880900e-01   3.6811200e-01  -7.0881700e-01
  -7.8460500e-01   4.4828900e-01  -6.4457100e-01
  -7.7830100e-01   4.6815800e-01  -6.2214400e-01
  -7.9324200e-01   5.0088300e-01  -6.2728300e-01
  -8.7565200e-01   5.7287900e-01  -5.5696300e-01
  -8.5370700e-01   5.7802200e-01  -5.3360100e-01
  -8.6841400e-01   6.0046200e-01  -5.1047200e-01
  -9.1814000e-01   6.1869500e-01  -4.7145800e-01
  -8.9736300e-01   5.7591800e-01  -4.5930900e-01
  -9.3191400e-01   5.9461800e-01  -4.1585600e-01
  -9.6459700e-01   5.5675000e-01  -4.1375300e-01
  -9.7276800e-01   4.8568900e-01  -4.0347400e-01
  -1.0138600e+00   4.6511900e-01  -3.5511400e-01
  -1.0355700e+00   3.8587700e-01  -3.6305700e-01
  -1.0484100e+00   3.0640100e-01  -3.5558100e-01
  -1.0806200e+00   2.2809400e-01  -3.2614500e-01
  -1.1030400e+00   1.2781400e-01  -3.4086300e-01
  -1.1277800e+00   5.7454500e-02  -3.5277800e-01
  -1.1707400e+00  -3.0202800e-02  -3.1376300e-01
  -1.1508900e+00  -1.4567700e-01  -3.3455500e-01
  -1.1894100e+00  -2.0458200e-01  -3.4717100e-01
  -1.2333000e+00  -3.2099100e-01  -3.2778000e-01
  -1.2092600e+00  -4.4978900e-01  -3.5698300e-01
  -1.3066100e+00  -4.6802100e-01  -3.1376300e-01
  -1.3133800e+00  -5.5895100e-01  -2.8619500e-01
  -1.2743900e+00  -6.2487000e-01  -2.3713500e-01
  -1.3217800e+00  -6.3655700e-01  -1.4812500e-01
  -1.2543100e+00  -6.8260600e-01  -1.4719000e-01
  -1.2136900e+00  -6.5385500e-01  -8.9252300e-02
  -1.2036500e+00  -6.7465900e-01  -3.8789900e-02
  -1.1186800e+00  -6.9780000e-01  -5.8180600e-02
  -1.0918300e+00  -6.6975000e-01  -6.5501300e-03
  -1.0395400e+00  -7.0294300e-01   2.8259500e-02
  -9.5806100e-01  -7.0364400e-01   3.2231100e-02
  -9.4919000e-01  -6.7746400e-01   8.9468500e-02
  -8.6981500e-01  -7.1556600e-01   1.1540000e-01
  -7.9907900e-01  -7.1463100e-01   1.2731500e-01
  -8.1168500e-01  -7.0481300e-01   1.8875800e-01
  -7.2017100e-01  -7.8896400e-01   2.0137300e-01
  -6.8655400e-01  -8.0158700e-01   2.3478100e-01
  -7.2344000e-01  -8.4342800e-01   2.6468500e-01
  -6.7278000e-01  -9.5773300e-01   2.3244500e-01
  -7.1830400e-01  -9.7830400e-01   2.9131800e-01
  -7.6639500e-01  -1.0577800e+00   2.9785900e-01
  -7.8227000e-01  -1.1699800e+00   2.8057100e-01
  -8.6117700e-01  -1.2076100e+00   3.5673200e-01
  -8.8452300e-01  -1.2943400e+00   3.5930200e-01
  -9.2864600e-01  -1.3481000e+00   3.7892600e-01
  -9.6086200e-01  -1.4163600e+00   4.3896700e-01
  -9.4708800e-01  -1.5002700e+00   4.5415200e-01
  -9.8911000e-01  -1.4752600e+00   4.9527000e-01
  -9.6436400e-01  -1.5220100e+00   5.2680900e-01
  -8.9969700e-01  -1.5715700e+00   5.4993700e-01
  -8.9082600e-01  -1.5262200e+00   5.7984100e-01
  -8.1798800e-01  -1.5339300e+00   5.7937300e-01
  -7.1480200e-01  -1.5414100e+00   5.7329900e-01
  -6.8188500e-01  -1.4799400e+00   5.9152200e-01
  -5.8803600e-01  -1.4376300e+00   5.6816000e-01
  -4.7434400e-01  -1.3990600e+00   5.6956100e-01
  -4.0080600e-01  -1.3375800e+00   6.0296900e-01
  -2.9131600e-01  -1.2721300e+00   5.7563600e-01
  -2.0120300e-01  -1.2062100e+00   5.8638200e-01
  -9.3814400e-02  -1.1681100e+00   5.8100900e-01
   2.2912600e-02  -1.1005600e+00   5.4409700e-01
   9.4816400e-02  -9.9700400e-01   5.2797700e-01
   2.1597900e-01  -9.6755100e-01   4.6863700e-01
   3.1799800e-01  -9.1729400e-01   4.0812900e-01
   3.4671300e-01  -8.3150700e-01   3.7448700e-01
   4.5573600e-01  -8.1958500e-01   3.0767100e-01
   5.3697800e-01  -7.6605600e-01   2.6281600e-01
   5.5238600e-01  -6.9896900e-01   2.5697500e-01
   6.6257600e-01  -6.9429400e-01   2.2380100e-01
   7.3914900e-01  -6.3609000e-01   2.3151100e-01
   7.8397200e-01  -5.8022300e-01   2.4038800e-01
   8.9089400e-01  -5.5193900e-01   2.0955000e-01
   9.4132000e-01  -5.1430500e-01   2.3244500e-01
   1.0216300e+00  -5.1243400e-01   2.0207400e-01
   1.0884000e+00  -4.4955500e-01   1.9459800e-01
   1.1245800e+00  -4.1309000e-01   2.3314600e-01
   1.2478500e+00  -4.0210300e-01   1.9576600e-01
   1.2884700e+00  -2.9808300e-01   2.2800600e-01
   1.3531300e+00  -2.5086500e-01   2.5160200e-01
   1.5011400e+00  -2.4385300e-01   2.3805200e-01
   1.5387300e+00  -1.4661200e-01   2.7916900e-01
   1.5868200e+00  -7.5550800e-02   3.0743800e-01
   1.7070500e+00  -5.1474300e-02   3.0697000e-01
   1.7292300e+00   3.1741700e-02   3.5182600e-01
   1.7752200e+00   7.9427200e-02   3.7892600e-01
   1.8681300e+00   1.0864600e-01   3.7425300e-01
   1.8772400e+00   1.5399400e-01   4.0976400e-01
   1.9304600e+00   1.6264300e-01   3.8593500e-01
   1.9491400e+00   2.2599000e-01   4.1163300e-01
   1.9645500e+00   2.4258700e-01   4.1724000e-01
   1.9935000e+00   2.3650900e-01   3.7659000e-01
   1.9374700e+00   3.0453100e-01   4.1724000e-01
   1.9391000e+00   2.8489600e-01   3.8733600e-01
   1.9253300e+00   2.9775200e-01   3.6023600e-01
   1.8623000e+00   3.7255300e-01   3.6397400e-01
   1.8503900e+00   3.5595700e-01   3.2215600e-01
   1.8552900e+00   3.6320300e-01   2.4809800e-01
   1.7675100e+00   4.5904200e-01   1.9670100e-01
   1.7266600e+00   4.8428700e-01   1.1586800e-01
   1.7357600e+00   5.1140200e-01   3.0283700e-03
   1.6106300e+00   5.9905900e-01  -6.0516800e-02
   1.5926600e+00   6.4253700e-01  -1.8457000e-01
   1.5599700e+00   7.3300000e-01  -2.4928300e-01
   1.4511800e+00   7.8489300e-01  -3.1446400e-01
   1.4446500e+00   8.3772100e-01  -4.4272200e-01
   1.3335200e+00   9.6792100e-01  -4.6281400e-01
   1.2667600e+00   9.9106300e-01  -5.5509400e-01
   1.2366400e+00   1.0452900e+00  -6.5882200e-01
   1.0732200e+00   1.1537500e+00  -6.5555200e-01
   1.0524400e+00   1.1399600e+00  -7.6745600e-01
   9.6653300e-01   1.2208400e+00  -8.3076800e-01
   7.7066500e-01   1.2848900e+00  -7.9876200e-01
   7.7300000e-01   1.2292600e+00  -8.7235300e-01
   6.3479500e-01   1.3295400e+00  -8.4431800e-01
   4.8538500e-01   1.3286000e+00  -8.1324600e-01
   4.7674700e-01   1.2687600e+00  -8.3824400e-01
   2.9091800e-01   1.3428600e+00  -7.4105700e-01
   1.8819800e-01   1.2933000e+00  -7.3031100e-01
   1.3006800e-01   1.2554400e+00  -7.0321000e-01
  -5.6461800e-02   1.2689900e+00  -5.7939100e-01
  -1.0572100e-01   1.1890500e+00  -5.9924900e-01
  -2.2384800e-01   1.1883500e+00  -5.4247900e-01
  -3.6999000e-01   1.1521200e+00  -4.3664800e-01
  -3.8049600e-01   1.0476300e+00  -4.5790800e-01
  -5.3924400e-01   1.0735800e+00  -3.7403700e-01
  -6.0624600e-01   1.0039200e+00  -3.2894800e-01
  -6.2282100e-01   9.1836500e-01  -3.3525600e-01
  -7.8390400e-01   9.3589700e-01  -2.5535700e-01
  -7.8530500e-01   8.3000700e-01  -2.6213200e-01
  -8.1261900e-01   7.6432200e-01  -2.4881600e-01
  -9.3775000e-01   7.5193400e-01  -1.8760700e-01
  -9.2397700e-01   6.2103200e-01  -2.2078100e-01
  -9.8420800e-01   5.6913900e-01  -1.7919700e-01
  -1.0484100e+00   5.3828400e-01  -1.5560100e-01
  -1.0411700e+00   4.2397900e-01  -1.9671800e-01
  -1.1147100e+00   4.0247300e-01  -1.2312700e-01
  -1.1186800e+00   3.0780400e-01  -1.1635200e-01
  -1.1555600e+00   2.0682200e-01  -1.2219300e-01
  -1.2309700e+00   1.9139500e-01  -6.6123700e-02
  -1.2515100e+00   7.0544600e-02  -4.9770200e-02
  -1.3152500e+00   2.2391600e-02  -2.5707100e-02
  -1.3885500e+00   7.4313900e-03   3.3165600e-02
  -1.4128300e+00  -1.1645800e-01   7.1245900e-02
  -1.4448100e+00  -1.5853300e-01   8.6898600e-02
  -1.5531300e+00  -1.7559700e-01   1.5231300e-01
  -1.5580400e+00  -2.9411000e-01   1.6586300e-01
  -1.6019300e+00  -3.2332900e-01   2.1819400e-01
  -1.6992800e+00  -3.6914400e-01   2.8033800e-01
  -1.6595900e+00  -4.3997100e-01   2.7800100e-01
  -1.7186500e+00  -4.1425800e-01   3.7238500e-01
  -1.7249600e+00  -4.9747400e-01   3.8359800e-01
  -1.6885400e+00  -5.4562700e-01   3.8710300e-01
  -1.7366300e+00  -5.6175600e-01   4.6326300e-01
  -1.6703300e+00  -6.4403700e-01   4.2167900e-01
  -1.6829400e+00  -6.5245200e-01   4.4410600e-01
  -1.6724300e+00  -7.1790300e-01   4.8382200e-01
  -1.5484700e+00  -7.9387300e-01   4.2892100e-01
  -1.5876900e+00  -7.7493900e-01   4.6746900e-01
  -1.5356300e+00  -8.4857100e-01   4.4550800e-01
  -1.4527500e+00  -9.3342300e-01   3.9855000e-01
  -1.5003700e+00  -9.1519000e-01   4.2191200e-01
  -1.4434100e+00  -9.7573200e-01   3.6023600e-01
  -1.4256700e+00  -1.0633900e+00   3.4762100e-01
  -1.4529800e+00  -1.0958800e+00   3.3453800e-01
  -1.4301000e+00  -1.1538500e+00   2.7963700e-01
  -1.4245000e+00  -1.1935900e+00   2.7286200e-01
  -1.4142300e+00  -1.2592700e+00   2.4342500e-01
  -1.4133000e+00  -1.3181800e+00   2.0090600e-01
  -1.4259000e+00  -1.3062600e+00   1.8268400e-01
  -1.4065300e+00  -1.3651600e+00   1.6469500e-01
  -1.3757100e+00  -1.4257100e+00   1.1470000e-01
  -1.4004600e+00  -1.3969500e+00   1.2264300e-01
  -1.3388200e+00  -1.4315500e+00   9.3440000e-02
  -1.2785900e+00  -1.4313200e+00   3.5034600e-02
  -1.3003000e+00  -1.4056000e+00   4.8584600e-02
  -1.1807800e+00  -1.4514200e+00  -1.1456200e-02
  -1.1177400e+00  -1.3782500e+00  -1.6829500e-02
  -1.0654500e+00  -1.3483300e+00  -2.2903700e-02
  -9.0973600e-01  -1.3583900e+00  -5.8414200e-02
  -8.2545900e-01  -1.2693300e+00  -1.6829500e-02
  -6.9169000e-01  -1.2578700e+00  -4.9069300e-02
  -5.4181200e-01  -1.2062100e+00  -5.5377100e-02
  -4.3675800e-01  -1.1108400e+00  -9.1199700e-03
  -2.6400200e-01  -1.0926100e+00  -5.0237400e-02
  -1.1085700e-01  -9.8812100e-01  -5.4209000e-02
