**************************************************************************************
  	RED ACELEROGRÁFICA DE LA UNIVERSIDAD AUTONOMA METROPOLITANA (RA-UAM)
	   UNIDAD AZCAPOTZALCO. DIVISIÓN CBI-DEPARTAMENTO DE MATERIALES
     Av. San Pablo 420, Col. Nueva el Rosario, Azcapotzalco, C.P. 02128, Ciudad de México
		Área de Estructuras. e-mail: agb@azc.uam.mx
**************************************************************************************
ARCHIVO ESTANDAR DE ACELERACION:
VERSION DEL FORMATO                    : 2.0
NOMBRE DEL ARCHIVO                     : RUMC202405.071
FECHA Y HORA DE CREACION               : 11:30 a. m. 14/05/2024
REF. CATALOGO ACELEROGRAMAS, SMIS 1999 : REGISTRO NO.      /PAG.    


================================================================================
DATOS DE LA ESTACION:
NOMBRE DE LA ESTACION                  : UAM-CUAJIMALPA.
CLAVE DE LA ESTACION                   : RUMC
LOCALIZACION DE LA ESTACION            : AV. VASCO DE QUIROGA 4871, COL. SANTA FE,
                                       : CUAJIMALPA DE MORELOS, C.P 05348, CIUDAD DE MEXICO.   
                                       : 
                                       : 
                                       : 
COORDENADAS DE LA ESTACION             : 19.35303 LAT. N
                                       : -99.28219 LONG. W
ALTITUD (msnm)                         : 2671
TIPO DE SUELO                          : DEPOSITOS LACUSTRES
                                       : 
                                       : 
INSTITUCION RESPONSABLE                : UNIVERSIDAD AUTONOMA METROPOLITANA
                                       : 

================================================================================
DATOS DEL ACELEROGRAFO: 
MODELO DEL ACELEROGRAFO                : ETNA2 KINEMETRICS
NUMERO DE SERIE DEL ACELEROGRAFO       : 104252
NUMERO DE CANALES                      : 3
ORIENTACION C1-C6 (rumbo;orientacion)  : /N90E/N00E/V 
ORIENTACION C7-C12 (rumbo;orientacion) : 
VEL. DE MUESTREO, C1-C6 (muestras/s)   : /200/200/200
VEL. DE MUESTREO, C7-C12 (muestras/s)  : 
ESC. COMPLETA DE SENSORES, C1-C6, (g)  : /2/2/2
ESC. COMPLETA DE SENSORES, C7-C12 (g)  : 
FREC. NAT. DE SENSORES, C1-C6, (Hz)    : /204/216/208   
FREC. NAT. DE SENSORES, C7-C12 (Hz)    : 
AMORTIGUAMIENTO DE SENSORES, C1-C6     : /0.7/0.7/0.7      
AMORTIGUAMIENTO DE SENSORES, C7-C12    : 
INTERVALO DE MUESTREO, C1-C6 (s)       : /0.005/0.005/0.005
INTERVALO DE MUESTREO, C7-C12 (s)      : 
UMBRAL DE DISPARO, C1-C6 (Gal)         : /2/2/2
UMBRAL DE DISPARO, C7-C12 (Gal)        : 
MEMORIA DE PREEVENTO (s)               : 50
TIEMPO DE POSEVENTO (s)                : 60


================================================================================
DATOS DEL SISMO:
FECHA DEL SISMO [GMT]                  : 2024/05/07
HORA EPICENTRO (GMT)                   : 11:58:17
MAGNITUD(ES)                           : /M=4.7
COORDENADAS DEL EPICENTRO              : 18.3700 LAT. N
                                       : -100.7900 LONG. W
PROFUNDIDAD FOCAL (Km)                 : 46.0
FUENTE DE LOS DATOS EPICENTRALES       : SSN
                                       : INSTITUTO DE GEOFISICA, UNAM

================================================================================
DATOS DE ESTE REGISTRO:
HORA DE LA PRIMERA MUESTRA (GMT)       : 11:58:10.000
EXACTITUD DEL TIEMPO (s)               : 
DURACION DEL REGISTRO (s), C1-C6       : /137/137/137
DURACION DEL REGISTRO (s), C7-C12      : 
NUM. TOTAL DE MUESTRAS, C1-C6          : /27400/27400/27400
NUM. TOTAL DE MUESTRAS, C7-C12         : 
ACEL. MAX.(Gal), C1-C6                 : /0.378/0.331/-0.331
ACEL. MAX., C1-C6, EN LA MUESTRA       : /13318/13974/13978
ACEL. MAX.(Gal), C7-C12                : 
ACEL. MAX., C7-C12,EN LA MUESTRA       : 
UNIDADES DE LOS DATOS                  : Gal (cm/s/s)
FACTOR DE DECIMACION                   : 1
FORMATO DATOS (FORTRAN,16 campos/dato) : 3E16.7


================================================================================
CALIDAD DEL ACELEROGRAMA:
REGISTRO DIGITAL COMPLETO CON TIEMPO ABSOLUTO CORRECTO


================================================================================
COMENTARIOS:














================================================================================
DATOS DE ACELERACION:
---------+---------+---------+---------+---------+---------+---------+---------+
   CANAL-1   	     CANAL-2          CANAL-3
     N90E              N00E              V
---------+---------+---------+---------+---------+---------+---------+---------+
[...]
   2.3810500e-01  -6.9363500e-02   4.0465600e-02
   1.9591800e-02   4.2136500e-02   1.7760200e-01
   1.5756300e-01  -1.9106700e-02   5.2380300e-02
   1.7320500e-01  -3.3131900e-02  -6.5181300e-04
   3.4999800e-02   1.2839100e-01   1.2176600e-01
   2.0542100e-01  -1.8171700e-02  -6.3963300e-02
   1.2488000e-01   2.3985400e-03  -8.8543500e-04
   1.3024900e-01   8.8887000e-02  -2.9620900e-02
   1.6316600e-01   9.4964600e-02  -8.5222900e-02
   1.2674700e-01   1.0057500e-01  -8.5456500e-02
   1.6083100e-01   1.1179500e-01  -9.7604900e-02
   2.1756100e-01   2.4605000e-02  -1.4526400e-01
   1.5266100e-01   1.0314600e-01  -1.2984500e-01
   1.9888400e-01   9.0055800e-02  -1.2657400e-01
   2.0612200e-01   5.7096700e-02  -1.5694500e-01
   1.4332200e-01   1.5153300e-01  -7.7279800e-02
   2.2713200e-01  -1.9574200e-02  -1.1559400e-01
   1.7717300e-01   4.9616600e-02  -9.1764300e-02
   1.4378900e-01   9.7302100e-02  -3.2190800e-02
   1.4519000e-01   1.6423700e-02  -2.6817500e-02
   1.6246600e-01   1.5488700e-02  -3.2424400e-02
   8.4725500e-02  -1.3496600e-02   2.0374200e-02
   9.7798900e-02  -5.2533300e-02  -1.8173500e-02
   7.2352400e-02  -4.7858300e-02  -1.7706200e-02
  -3.2935300e-02  -4.9962100e-02   1.9206000e-02
   2.7062400e-02  -1.5585200e-01  -5.9524500e-02
  -2.6165100e-02  -1.5351400e-01   1.5935300e-02
  -3.7370900e-02  -1.8834400e-01   1.2171600e-03
  -6.0015900e-02  -1.1938700e-01   3.7870000e-03
  -9.1999100e-02  -1.5585200e-01   5.8921800e-02
  -3.4336000e-02  -2.7156000e-01   1.0328400e-02
  -4.5074900e-02  -1.6216300e-01   4.9810500e-02
  -8.8497300e-02  -1.6800700e-01   9.6301300e-02
  -4.9208200e-03  -1.8553900e-01   6.9902000e-02
  -1.8227700e-02  -1.9652500e-01   7.9480500e-02
  -6.6085700e-02  -1.9278500e-01   1.1452400e-01
   5.3676100e-02  -2.1195300e-01   4.8642400e-02
  -7.1922100e-02  -1.5141100e-01   1.3134500e-01
  -4.6008700e-02  -1.6286500e-01   1.0120700e-01
  -4.4539100e-03  -2.3509400e-01   5.2847600e-02
  -1.1674500e-01  -1.7992900e-01   1.5096900e-01
  -5.1845100e-02  -1.9769400e-01   5.3314800e-02
  -1.7300800e-01  -1.0980300e-01   1.0307600e-01
  -1.8047800e-01  -1.1681500e-01   1.2620500e-01
  -1.2328200e-01  -1.9792700e-01   3.7428500e-02
  -2.3884200e-01  -1.2756800e-01   8.8124500e-02
  -1.8211200e-01  -7.9181100e-02   6.4995900e-02
  -1.8958300e-01  -4.3417000e-02   4.5838900e-02
  -2.7175900e-01  -9.5228400e-03   7.3406300e-02
  -1.4966200e-01  -6.0714700e-02  -1.0931200e-02
  -1.8094500e-01  -1.6067900e-02   5.4223500e-03
  -2.0055500e-01   1.0782100e-01   6.5904600e-03
  -1.0413900e-01   8.8887000e-02  -4.5740800e-02
  -1.2678400e-01   3.8630200e-02  -1.1632000e-02
  -4.6008700e-02   2.5306300e-02  -5.0880500e-02
  -3.6203600e-02   7.5329400e-02  -2.6116600e-02
  -5.1378100e-02   1.1039200e-01   7.5249500e-03
   2.1226000e-02   1.9462500e-02  -4.3638200e-02
   2.0525700e-02   7.5411000e-03  -4.4339100e-02
   3.1964900e-02   5.0551600e-02  -8.3613300e-03
   6.7683400e-02   1.5488700e-02  -2.5649400e-02
   4.2236900e-02   1.0579900e-02  -5.7188300e-02
   4.3404100e-02   1.3852400e-02  -5.1114100e-02
   1.1764200e-01  -4.2482000e-02  -1.1022000e-01
   6.9551000e-02   2.1566300e-02  -8.2185800e-02
   9.4997500e-02   2.7877600e-02  -5.5552900e-02
   1.3818600e-01  -4.1079500e-02  -1.1162200e-01
   8.1457100e-02   3.9565200e-02  -9.1998000e-02
   1.3024900e-01  -4.8477900e-03  -1.8427900e-01
   9.7565500e-02   3.4890200e-02  -1.9385700e-01
   1.0620300e-01   4.5642800e-02  -1.8170900e-01
   1.1414100e-01  -4.1313200e-02  -2.4899200e-01
   7.4220100e-02  -1.1392900e-02  -2.1792000e-01
   8.6593100e-02  -7.6528200e-03  -1.8404500e-01
   6.3714600e-02  -6.4024300e-04  -1.5974800e-01
   2.7762700e-02   3.8010600e-03  -1.1349100e-01
  -1.8461100e-02   2.1332500e-02  -2.0042400e-02
  -1.4190100e-03   4.5023100e-03  -3.9666700e-02
  -8.1026800e-02   8.8653300e-02   2.0374200e-02
  -9.1765700e-02   1.1506700e-01   8.0882200e-02
  -6.0716300e-02   8.9120800e-02   5.1212200e-02
  -1.2958500e-01   1.1483400e-01   8.3218400e-02
  -9.8068900e-02   1.1997600e-01   4.9109600e-02
  -1.0950800e-01   1.7701200e-01   7.5742500e-02
  -1.4405900e-01   1.4685800e-01   6.8967500e-02
  -9.2699500e-02   1.0735300e-01   2.9952600e-02
  -1.0483900e-01   1.0618500e-01   6.4061400e-02
  -1.2351500e-01   1.3914400e-01   7.9714100e-02
  -7.4490100e-02   1.2137900e-01   3.6961300e-02
  -1.4639400e-01   1.2535200e-01   8.7890900e-02
  -6.1183200e-02   6.5278000e-02   5.4482900e-02
  -3.3168700e-02   4.0967700e-02   1.6402600e-02
  -1.0810700e-01   1.2745600e-01   1.1966300e-01
   8.8529600e-03   5.1252800e-02   5.4015700e-02
  -5.6047200e-02   1.1460000e-01   8.8825400e-02
  -2.1496000e-02   8.3043200e-02   7.2939100e-02
   5.1575000e-02   8.9588300e-02   3.5793200e-02
  -6.0880900e-03   1.9828300e-01   8.2517600e-02
   2.8696500e-02   1.3563800e-01   1.6169000e-02
   8.1457100e-02   1.0828800e-01  -9.9966900e-03
   5.8345200e-02   1.4288400e-01   1.4507800e-03
   9.1962600e-02   1.4381900e-01  -3.9900300e-02
   1.4262200e-01   3.8396400e-02  -9.2698800e-02
   8.2157500e-02   7.2056800e-02  -1.6538100e-02
   1.6480000e-01  -2.1444200e-02  -7.1205600e-02
   1.3165000e-01  -4.9728300e-02  -5.9524500e-02
   1.0503600e-01  -1.8405400e-02   4.0206200e-03
   1.6480000e-01  -1.0676400e-01  -5.7655500e-02
   1.0947200e-01  -8.5024900e-02  -2.1677800e-02
   1.3538500e-01  -1.2616500e-01  -4.3897600e-03
   1.6036500e-01  -1.1307500e-01  -1.9575200e-02
   1.0410200e-01  -6.5156000e-02   1.6636200e-02
   1.2371200e-01  -9.6478800e-02   4.7941500e-02
   1.8767900e-01  -1.5912500e-01   4.0465600e-02
   1.2768100e-01  -9.2505000e-02   1.1405700e-01
   1.3445100e-01  -4.5988300e-02   1.2807400e-01
   1.1157300e-01  -3.6638200e-02   1.4816500e-01
   7.0951700e-02  -2.6586800e-02   1.4606300e-01
   6.7216400e-02  -3.2430600e-02   1.1265500e-01
   4.3637600e-02  -3.9127800e-03   1.2059800e-01
   3.7169800e-03   3.3335500e-03   1.0704800e-01
  -5.5813800e-02   4.7746600e-02   7.6443400e-02
  -7.5657400e-02   7.1355600e-02   4.8642400e-02
  -9.5034000e-02   8.9436200e-03   5.4249300e-02
  -6.8186800e-02  -1.5132900e-02  -1.8173500e-02
  -1.6156800e-01   7.6965600e-02   2.9952600e-02
  -1.6927200e-01   4.7512800e-02   1.2898300e-02
  -1.4686100e-01   3.7227700e-02  -2.8686400e-02
  -2.2039900e-01   2.7410100e-02   8.2258200e-03
  -1.4476000e-01  -2.6353000e-02  -5.8122800e-02
  -1.6903900e-01   5.4525400e-02  -2.6116600e-02
  -2.2623500e-01   6.5745500e-02  -9.2958200e-03
  -1.3075200e-01  -2.0743000e-02  -6.0926300e-02
  -1.4756100e-01  -1.2327900e-02   1.2171600e-03
  -1.2958500e-01   1.9310400e-03  -2.5207900e-03
  -9.1065300e-02  -9.0553400e-03  -1.0463900e-02
  -1.3845600e-01   9.9602500e-04   5.2380300e-02
  -5.7681400e-02  -2.7288000e-02   3.5533800e-03
  -1.1744600e-01   2.6708800e-02   5.4249300e-02
  -8.4295100e-02  -3.2898100e-02   1.8738800e-02
  -3.5970200e-02  -4.2248200e-02  -8.5949600e-03
  -1.4102400e-01   8.1874400e-02   5.4716600e-02
  -4.6242200e-02  -8.8215900e-03  -1.4669100e-02
  -5.3012300e-02  -7.5207300e-02  -3.6889000e-03
  -1.0577300e-01  -1.3496600e-02   4.9551100e-03
  -9.6434800e-02   1.7592500e-02  -5.5578700e-03
  -1.0647300e-01  -2.3080500e-02  -2.1677800e-02
  -9.3866800e-02  -4.8325800e-02  -2.5415700e-02
  -1.2468300e-01  -8.3540800e-03  -2.7284700e-02
  -1.0507300e-01  -4.8477900e-03  -3.5227800e-02
  -8.7096600e-02  -1.5834200e-02  -1.3734600e-02
  -7.7991900e-02   2.1647900e-03  -3.7096800e-02
  -4.3207300e-02   1.0579900e-02   1.3365500e-02
  -1.3792100e-02   2.2501300e-02   2.5981100e-02
   1.4922800e-02   5.4525400e-02  -5.3242500e-03
  -2.5698200e-02   1.2184600e-01   3.6260400e-02
   7.1885500e-02   1.1717100e-01  -2.2871700e-03
   1.0690400e-01   8.1173200e-02  -1.9575200e-02
   4.8306700e-02   1.6672700e-01   2.9485400e-02
   1.7717300e-01   1.2348200e-01  -5.1815000e-02
   9.5230900e-02   1.8542700e-01  -2.3079500e-02
   1.6316600e-01   1.8495900e-01  -6.2328000e-02
   2.3693700e-01   6.0135400e-02  -1.0695000e-01
   1.5873000e-01   1.2137900e-01  -1.5603600e-02
   2.6191700e-01   7.0186800e-02  -1.1232300e-01
   1.4075400e-01   1.0548300e-01  -6.4897800e-02
   2.0752200e-01   2.3903800e-02  -1.0531400e-01
   2.1382600e-01  -6.0714700e-02  -1.3241500e-01
   1.2954900e-01  -1.2795400e-02  -6.2795200e-02
   1.9841800e-01  -7.5441100e-02  -1.0718300e-01
   8.6593100e-02  -5.4637100e-02  -6.2561600e-02
   1.1554100e-01  -7.0999800e-02  -1.1208900e-01
   5.4843400e-02  -9.6478800e-02  -6.4897800e-02
   3.6167100e-02  -1.2289300e-01  -5.0880500e-02
   3.8501600e-02  -9.9751400e-02  -8.7325500e-02
  -1.0087000e-01  -2.3781800e-02   1.0328400e-02
  -2.8197300e-03  -1.1401000e-01  -7.4476300e-02
  -1.0624000e-01  -6.0013400e-02   2.1516500e-03
  -1.3332000e-01  -4.7858300e-02   4.7707900e-02
  -3.8538200e-02  -1.0676400e-01  -4.1535600e-02
  -1.9308500e-01   9.6448700e-03   9.6768500e-02
  -8.4528600e-02  -6.9597300e-02  -8.8285800e-03
  -1.0227100e-01  -4.8325800e-02   1.3365500e-02
  -1.3705600e-01  -5.4637100e-02   9.8170200e-02
  -1.9861900e-02  -1.1868500e-01  -4.2937400e-02
  -1.7324100e-01  -1.1077500e-03   6.6164000e-02
  -1.0250500e-01  -8.0349900e-02   4.4670800e-02
  -5.7681400e-02  -1.0536100e-01  -3.2216500e-03
  -2.1222800e-01  -5.3234600e-02   9.9572000e-02
  -9.7135100e-02  -1.0956900e-01   1.5000900e-02
  -1.6647100e-01  -5.0897100e-02   4.8408800e-02
  -2.6218700e-01  -3.0560600e-02   7.9947700e-02
  -1.1020900e-01  -9.0401300e-02  -1.7239000e-02
  -2.3253800e-01  -3.8274400e-02   7.9480500e-02
  -2.0592500e-01  -3.9209400e-02   3.9764800e-02
  -1.2374900e-01  -6.3987200e-02  -4.7142600e-02
  -2.5751800e-01   2.7877600e-02   6.3127000e-02
  -9.1298800e-02  -1.1077500e-03  -3.4527000e-02
  -1.2374900e-01  -2.7288000e-02  -6.0225400e-02
  -1.6810500e-01   3.5591400e-02   3.9063900e-02
   2.4727800e-02  -5.6507100e-02  -1.1092100e-01
  -1.5783300e-01   6.6914300e-02  -3.5695100e-02
  -4.8343200e-02   8.1406900e-02  -2.3780400e-02
   6.1613500e-02  -4.0378200e-02  -1.1395800e-01
  -1.2164800e-01   8.9354500e-02   1.9206000e-02
   7.3519700e-02   1.9696200e-02  -9.2231600e-02
   3.4835200e-03   2.4838800e-02  -4.2236500e-02
  -1.7994200e-02   5.9200400e-02   1.7804300e-02
   1.2744800e-01  -1.1392900e-02  -7.7513400e-02
  -2.0328800e-02   3.1150100e-02   5.4482900e-02
   9.1729100e-02  -2.4950500e-02   1.3599100e-02
   1.1787600e-01  -8.4557400e-02  -4.2236500e-02
   2.8696500e-02  -2.5102600e-03   8.9759800e-02
   2.0752200e-01  -8.0349900e-02   3.5793200e-02
   1.6503400e-01  -1.4229400e-01   2.4112100e-02
   1.3258400e-01  -4.8793300e-02   1.0377700e-01
   3.1164300e-01  -1.6239700e-01   7.2913300e-03
   2.2900000e-01  -1.3084000e-01   5.6118300e-02
   2.5374600e-01  -5.0429600e-02   9.7235700e-02
   3.7841100e-01  -1.5000800e-01  -5.7914900e-03
   2.3507000e-01   1.9310400e-03   8.8825400e-02
   3.3498800e-01   7.3073500e-03   4.0465600e-02
   3.5319700e-01  -5.5104600e-02  -5.0880500e-02
   2.0822300e-01   1.6719400e-01   8.8591700e-02
   3.6743800e-01   7.0420600e-02  -4.3871900e-02
   2.2176300e-01   1.2137900e-01  -4.5273600e-02
   2.0425400e-01   2.3661900e-01   3.1588000e-02
   3.1677900e-01   7.8368200e-02  -1.0952000e-01
   8.3324800e-02   2.2867100e-01  -1.9341600e-02
   1.8931300e-01   1.8168700e-01  -3.9666700e-02
   1.7203700e-01   1.0384700e-01  -1.0297800e-01
   1.9825300e-02   2.1511300e-01  -4.3897600e-03
   1.5312700e-01   2.9513800e-02  -7.8214300e-02
   5.8345200e-02   4.9382800e-02  -8.2185800e-02
  -8.1891700e-03   1.4942900e-01   1.5000900e-02
   8.6359700e-02  -1.9340500e-02  -8.5923800e-02
   5.8180600e-03   2.6708800e-02  -3.3826100e-02
   6.7518800e-03   2.4605000e-02   2.2476700e-02
   7.5620800e-02  -8.9466200e-02  -8.8260000e-02
   1.3755500e-02  -8.8215900e-03   1.4066400e-02
   3.5933600e-02  -3.7105700e-02   6.4295100e-02
   1.0036700e-01  -1.1658200e-01  -2.8920100e-02
  -2.7799300e-02   9.1773700e-03   1.3741900e-01
   4.8306700e-02  -9.9985100e-02   1.1172000e-01
   8.2157500e-02  -1.3832100e-01   3.5793200e-02
  -1.0320500e-01   3.6058900e-02   2.3133500e-01
   7.1652100e-02  -1.2943800e-01   1.0214200e-01
  -1.8694600e-02  -4.5520800e-02   1.3905400e-01
  -1.4172500e-01   2.6007600e-02   2.1101000e-01
   4.7372900e-02  -1.2149000e-01   6.6397700e-02
  -1.3005200e-01   6.1385800e-03   1.6381800e-01
  -1.2981900e-01  -1.3029100e-02   1.0985100e-01
  -3.4102600e-02  -7.2402300e-02   1.6844100e-03
  -2.2810300e-01   6.7148000e-02   1.1592500e-01
  -8.4995500e-02  -5.7909600e-02  -1.2099300e-02
  -1.2538300e-01  -4.2248200e-02  -4.5040000e-02
  -2.3580700e-01   6.1771700e-02   6.1958800e-02
  -5.2312000e-02  -8.6895000e-02  -1.0274500e-01
  -1.9518600e-01   2.8111300e-02  -8.5949600e-03
  -1.6226900e-01  -3.5001900e-02   1.6844100e-03
  -5.5113400e-02  -1.0559500e-01  -8.9194500e-02
  -1.4826200e-01  -2.1444200e-02   9.1603000e-03
  -1.0250500e-01  -9.3673800e-02  -1.1865700e-02
  -6.0880900e-03  -1.0021900e-01  -2.9387300e-02
  -8.8497300e-02  -5.5338400e-02   4.9343300e-02
  -3.8304700e-02  -1.1938700e-01   2.5981100e-02
   8.9628000e-02  -1.9559000e-01  -2.9620900e-02
  -6.7019600e-02  -6.9363500e-02   8.3218400e-02
   5.4843400e-02  -1.2523000e-01  -5.0906300e-03
   6.2547400e-02  -1.2826900e-01   2.5046600e-02
  -2.6165100e-02  -9.3907500e-02   7.9480500e-02
   1.1437400e-01  -1.5702100e-01  -5.4852100e-02
   4.8842500e-03  -4.0845700e-02   3.0653500e-02
   4.6507900e-03  -3.8040700e-02   1.9180300e-03
   8.7993800e-02  -6.8428500e-02  -8.8026400e-02
  -4.4374500e-02   4.2837700e-02  -2.7518300e-02
   3.4066000e-02   1.6189900e-02  -6.5598700e-02
   9.8032400e-02  -3.7105700e-02  -1.3895600e-01
  -5.1144700e-02   9.1458300e-02  -4.4806300e-02
   6.5348800e-02   2.2267500e-02  -1.0087600e-01
   3.1498000e-02   6.2005500e-02  -9.9240200e-02
  -4.0172400e-02   8.1173200e-02  -5.1815000e-02
   4.7139400e-02  -9.9903500e-03  -1.2143400e-01
  -3.0531900e-03   4.7746600e-02  -4.6908900e-02
  -3.1768000e-02   1.5488700e-02  -6.3028800e-02
  -2.9900400e-02   6.9719300e-02  -5.9991800e-02
  -2.5231300e-02   5.1252800e-02  -2.9854500e-02
  -7.9159200e-02   3.6292700e-02  -1.9808800e-02
   1.2588200e-02   1.3852400e-02  -5.3216700e-02
  -8.4295100e-02   5.7096700e-02   3.5533800e-03
  -7.6357700e-02   8.0705700e-02   2.2009500e-02
   3.7567800e-02   2.7410100e-02  -5.2048600e-02
  -1.5806700e-01   1.6205200e-01   9.9338300e-02
   3.0330700e-02   2.9513800e-02   8.9266800e-03
  -4.6873600e-03   5.5927900e-02  -1.3968300e-02
  -1.2608300e-01   1.8285600e-01   1.2200000e-01
   7.9122600e-02   2.7643800e-02  -2.1210500e-02
  -5.6981000e-02   1.3306600e-01   4.0699300e-02
  -5.0677800e-02   8.7250800e-02   4.6539800e-02
   5.1575000e-02  -7.8865800e-03  -6.7701300e-02
  -8.7096600e-02   9.5198300e-02   4.0699300e-02
  -4.0639300e-02  -8.7399600e-04  -4.3171000e-02
  -3.9705400e-02  -7.8865800e-03  -6.4430600e-02
  -1.3635500e-01  -2.3548000e-02   7.2913300e-03
  -5.0444300e-02  -1.0863400e-01  -8.1952200e-02
  -1.1627800e-01  -8.1752400e-02  -3.9199400e-02
  -1.8444700e-01  -5.4169600e-02   4.1867400e-02
  -5.1845100e-02  -1.5491700e-01  -5.2749500e-02
  -1.7090700e-01  -1.0793300e-01   2.7850100e-02
  -1.3005200e-01  -8.8998700e-02   7.3873600e-02
  -9.1229900e-03  -1.8600600e-01  -3.1723500e-02
  -1.4919500e-01  -3.4534400e-02   9.1395200e-02
   4.4173400e-03  -1.0232300e-01   4.2334600e-02
   4.3871100e-02  -1.4837200e-01   5.6559800e-03
