**************************************************************************************
  	RED ACELEROGRÁFICA DE LA UNIVERSIDAD AUTONOMA METROPOLITANA (RA-UAM)
	   UNIDAD AZCAPOTZALCO. DIVISIÓN CBI-DEPARTAMENTO DE MATERIALES
     Av. San Pablo 420, Col. Nueva el Rosario, Azcapotzalco, C.P. 02128, Ciudad de México
		Área de Estructuras. e-mail: agb@azc.uam.mx
**************************************************************************************
ARCHIVO ESTANDAR DE ACELERACION:
VERSION DEL FORMATO                    : 2.0
NOMBRE DEL ARCHIVO                     : RUMC202402.181
FECHA Y HORA DE CREACION               : 11:30 a. m. 23/02/2024
REF. CATALOGO ACELEROGRAMAS, SMIS 1999 : REGISTRO NO.      /PAG.    


================================================================================
DATOS DE LA ESTACION:
NOMBRE DE LA ESTACION                  : UAM-CUAJIMALPA.
CLAVE DE LA ESTACION                   : RUMC
LOCALIZACION DE LA ESTACION            : AV. VASCO DE QUIROGA 4871, COL. SANTA FE,
                                       : CUAJIMALPA DE MORELOS, C.P 05348, CIUDAD DE MEXICO.   
                                       : 
                                       : 
                                       : 
COORDENADAS DE LA ESTACION             : 19.35303 LAT. N
                                       : -99.28219 LONG. W
ALTITUD (msnm)                         : 2671
TIPO DE SUELO                          : DEPOSITOS LACUSTRES
                                       : 
                                       : 
INSTITUCION RESPONSABLE                : UNIVERSIDAD AUTONOMA METROPOLITANA
                                       : 

================================================================================
DATOS DEL ACELEROGRAFO: 
MODELO DEL ACELEROGRAFO                : ETNA2 KINEMETRICS
NUMERO DE SERIE DEL ACELEROGRAFO       : 104252
NUMERO DE CANALES                      : 3
ORIENTACION C1-C6 (rumbo;orientacion)  : /N90E/N00E/V 
ORIENTACION C7-C12 (rumbo;orientacion) : 
VEL. DE MUESTREO, C1-C6 (muestras/s)   : /200/200/200
VEL. DE MUESTREO, C7-C12 (muestras/s)  : 
ESC. COMPLETA DE SENSORES, C1-C6, (g)  : /2/2/2
ESC. COMPLETA DE SENSORES, C7-C12 (g)  : 
FREC. NAT. DE SENSORES, C1-C6, (Hz)    : /204/216/208   
FREC. NAT. DE SENSORES, C7-C12 (Hz)    : 
AMORTIGUAMIENTO DE SENSORES, C1-C6     : /0.7/0.7/0.7      
AMORTIGUAMIENTO DE SENSORES, C7-C12    : 
INTERVALO DE MUESTREO, C1-C6 (s)       : /0.005/0.005/0.005
INTERVALO DE MUESTREO, C7-C12 (s)      : 
UMBRAL DE DISPARO, C1-C6 (Gal)         : /2/2/2
UMBRAL DE DISPARO, C7-C12 (Gal)        : 
MEMORIA DE PREEVENTO (s)               : 50
TIEMPO DE POSEVENTO (s)                : 60


================================================================================
DATOS DEL SISMO:
FECHA DEL SISMO [GMT]                  : 2024/02/18
HORA EPICENTRO (GMT)                   : 00:01:32
MAGNITUD(ES)                           : /M=5.0
COORDENADAS DEL EPICENTRO              : 17.2100 LAT. N
                                       : -100.0700 LONG. W
PROFUNDIDAD FOCAL (Km)                 : 23.4
FUENTE DE LOS DATOS EPICENTRALES       : SSN
                                       : INSTITUTO DE GEOFISICA, UNAM

================================================================================
DATOS DE ESTE REGISTRO:
HORA DE LA PRIMERA MUESTRA (GMT)       : 00:01:19.000
EXACTITUD DEL TIEMPO (s)               : 
DURACION DEL REGISTRO (s), C1-C6       : /192/192/192
DURACION DEL REGISTRO (s), C7-C12      : 
NUM. TOTAL DE MUESTRAS, C1-C6          : /38400/38400/38400
NUM. TOTAL DE MUESTRAS, C7-C12         : 
ACEL. MAX.(Gal), C1-C6                 : /-0.881/-0.787/-0.621
ACEL. MAX., C1-C6, EN LA MUESTRA       : /16724/18420/16866
ACEL. MAX.(Gal), C7-C12                : 
ACEL. MAX., C7-C12,EN LA MUESTRA       : 
UNIDADES DE LOS DATOS                  : Gal (cm/s/s)
FACTOR DE DECIMACION                   : 1
FORMATO DATOS (FORTRAN,16 campos/dato) : 3E16.7


================================================================================
CALIDAD DEL ACELEROGRAMA:
REGISTRO DIGITAL COMPLETO CON TIEMPO ABSOLUTO CORRECTO


================================================================================
COMENTARIOS:














================================================================================
DATOS DE ACELERACION:
---------+---------+---------+---------+---------+---------+---------+---------+
   CANAL-1   	     CANAL-2          CANAL-3
     N90E              N00E              V
---------+---------+---------+---------+---------+---------+---------+---------+
[...]
  -2.5690400e-01  -3.2276900e-01  -5.8089100e-02
  -2.8328400e-01  -3.4357300e-01  -7.7713300e-02
  -2.9822500e-01  -3.6157200e-01  -9.4767700e-02
  -3.1339900e-01  -3.2744400e-01  -7.2340000e-02
  -2.9145500e-01  -3.2580800e-01  -9.6169400e-02
  -3.1153200e-01  -2.9822500e-01  -1.0177600e-01
  -2.9635700e-01  -3.0523700e-01  -8.4955600e-02
  -2.3472600e-01  -3.0336700e-01  -1.2233500e-01
  -2.7044400e-01  -2.0051600e-01  -8.7058200e-02
  -2.0554400e-01  -2.1804800e-01  -1.0878500e-01
  -1.5628500e-01  -2.3043700e-01  -1.2373700e-01
  -1.5511800e-01  -1.4207800e-01  -1.0925200e-01
  -1.0515900e-01  -1.0818400e-01  -1.3308200e-01
  -6.5004500e-02  -8.8081200e-02  -1.2233500e-01
  -3.6056200e-02  -3.9694400e-02  -1.2303600e-01
  -1.9714500e-02  -1.4449100e-02  -1.2957700e-01
   3.4680300e-02   2.5990100e-02  -1.1999900e-01
   5.8492600e-02   4.7027900e-02  -1.0154300e-01
   9.3510700e-02   3.6509000e-02  -1.2583900e-01
   1.0191500e-01   9.2843400e-02  -8.9160800e-02
   1.2689500e-01   5.4040500e-02  -8.4722000e-02
   1.4090200e-01   5.8715500e-02  -9.6169400e-02
   1.0751800e-01   8.7233300e-02  -4.8277000e-02
   1.6261300e-01   7.2899300e-03  -6.7200300e-02
   1.3670000e-01   3.0197700e-02  -2.1644100e-02
   1.1312100e-01   3.0823800e-03   1.0128500e-02
   1.3366500e-01  -5.5355800e-02   2.6949300e-02
   1.0098100e-01  -6.9848400e-02   7.6477100e-02
   9.7479400e-02  -1.0584600e-01   7.5542600e-02
   1.0051400e-01  -1.3342900e-01   1.0147500e-01
   9.7245900e-02  -1.6335000e-01   1.3815300e-01
   1.0401600e-01  -1.8111500e-01   1.2647200e-01
   9.5144900e-02  -1.7924500e-01   1.3161200e-01
   1.0495000e-01  -1.8555600e-01   1.4142400e-01
   1.2479400e-01  -1.7270000e-01   1.1852900e-01
   1.1031900e-01  -1.1917000e-01   1.1852900e-01
   1.0891900e-01  -1.0514500e-01   1.1969700e-01
   1.2899600e-01  -1.0514500e-01   9.6335000e-02
   9.4444500e-02  -3.8993100e-02   8.8859100e-02
   6.9698400e-02   1.5003800e-02   1.0497900e-01
   1.1008600e-01  -6.5766100e-04   8.2317600e-02
   5.7558800e-02   5.6611700e-02   8.1850400e-02
   4.0283200e-02   1.1224500e-01   8.3719400e-02
   5.9193000e-02   9.4713400e-02   5.9189100e-02
   2.2302000e-03   1.4123000e-01   5.5918400e-02
  -8.0469900e-04   1.5221700e-01   5.6896800e-03
  -3.4422100e-02   1.6203400e-01   4.9888100e-03
  -4.8195800e-02   1.5993000e-01  -1.6504400e-02
  -7.0607400e-02   1.2603600e-01  -5.8556300e-02
  -1.2360100e-01   1.3117900e-01  -4.6641600e-02
  -1.0399100e-01   9.7284700e-02  -7.6078000e-02
  -1.3690800e-01   8.3960800e-02  -7.5143500e-02
  -1.4437900e-01   4.6560400e-02  -6.6733100e-02
  -9.8855300e-02  -1.9357900e-02  -6.6265900e-02
  -9.7221200e-02  -4.0161900e-02  -5.6220100e-02
  -8.6482300e-02  -4.2031900e-02  -2.6550100e-02
  -2.9519500e-02  -1.1426100e-01  -1.9775100e-02
  -3.3779100e-04  -1.3740300e-01  -1.2299200e-02
   1.2268700e-02  -1.3787000e-01  -4.8233100e-03
   6.1994400e-02  -1.7994600e-01  -3.4215700e-03
   9.0709200e-02  -1.7737500e-01   1.6202700e-02
   1.1102000e-01  -2.2552800e-01  -2.3980300e-02
   1.2152500e-01  -2.1010000e-01  -2.3045800e-02
   1.3459900e-01  -2.1687900e-01  -1.9775100e-02
   1.4276900e-01  -2.9284800e-01  -7.5844300e-02
   1.1872400e-01  -3.1225000e-01  -9.8739300e-02
   1.1545500e-01  -3.1061400e-01  -9.1964300e-02
   1.1755600e-01  -3.7045400e-01  -1.3892200e-01
   8.3005300e-02  -4.0528300e-01  -1.7770300e-01
   5.6158100e-02  -4.0972500e-01  -1.8938500e-01
   5.8259100e-02  -4.5109900e-01  -2.2910000e-01
   3.6081000e-02  -4.5624200e-01  -2.6017200e-01
  -1.7385100e-03  -4.5343700e-01  -2.6671300e-01
   1.1101500e-02  -4.5226800e-01  -2.7255400e-01
  -8.9755900e-03  -4.3006100e-01  -2.6834900e-01
  -3.1854100e-02  -3.6063700e-01  -2.4989300e-01
  -1.2710800e-02  -3.2534000e-01  -2.2536200e-01
  -5.7072300e-03  -2.8934200e-01  -1.8798300e-01
   1.4136400e-02  -2.0332100e-01  -1.6018200e-01
   2.4636600e-03  -1.1776800e-01  -8.4254700e-02
   5.6158100e-02  -3.6889300e-02  -3.8231200e-02
   6.6896900e-02   3.8145300e-02   2.6525900e-03
   6.2461300e-02   7.9052000e-02   3.3957900e-02
   1.1008600e-01   1.6670900e-01   6.6665000e-02
   9.3510700e-02   2.8007900e-01   1.1736100e-01
   9.8413200e-02   3.1046700e-01   1.2366900e-01
   1.0565000e-01   3.6259400e-01   1.6128200e-01
   1.0961900e-01   4.3505700e-01   1.8020500e-01
   7.9036500e-02   5.1219600e-01   2.0987500e-01
   1.0308200e-01   5.2739000e-01   2.0707200e-01
   1.1125300e-01   5.6759500e-01   2.2693000e-01
   8.6974000e-02   6.3351300e-01   2.4188100e-01
   1.2432700e-01   6.0312500e-01   2.0426800e-01
   1.1055300e-01   6.3959100e-01   2.4491800e-01
   1.4720500e-01   6.3608500e-01   2.1875300e-01
   1.6564800e-01   6.3070800e-01   1.9936200e-01
   1.8735900e-01   6.2556600e-01   2.2669600e-01
   2.5599500e-01   5.4866100e-01   2.0356700e-01
   2.4362200e-01   5.5497200e-01   2.1361300e-01
   2.7910700e-01   5.0915700e-01   2.4258200e-01
   3.3093300e-01   4.2664200e-01   2.4491800e-01
   3.0502000e-01   4.1308500e-01   2.5776800e-01
   3.1249000e-01   3.7942400e-01   2.7155100e-01
   3.2556400e-01   3.2706400e-01   2.9374500e-01
   3.0898900e-01   2.4899000e-01   2.9257700e-01
   2.8354200e-01   2.0504500e-01   2.8229800e-01
   2.4548900e-01   2.1977100e-01   3.2785400e-01
   2.3218200e-01   1.4964500e-01   2.9304500e-01
   1.8432400e-01   1.1037500e-01   2.6150600e-01
   1.3740000e-01   1.3164600e-01   2.7832600e-01
   1.2619400e-01   8.4895800e-02   2.3767600e-01
   8.4872900e-02   6.3624300e-02   1.9118500e-01
   2.3474500e-02   6.6896900e-02   1.6945900e-01
   2.3241100e-02   3.6742800e-02   1.0427800e-01
  -1.5745700e-02   5.7313000e-02   5.9422700e-02
  -5.8701300e-02   5.1702900e-02   1.8772500e-02
  -4.5861300e-02   5.1861600e-03  -5.2014900e-02
  -8.0412500e-02   3.9314000e-02  -7.0471000e-02
  -7.8544900e-02   3.9781500e-02  -1.4266000e-01
  -8.3213900e-02   9.8612100e-03  -1.8097400e-01
  -5.7067100e-02   9.3937000e-03  -2.1952200e-01
  -5.4032200e-02  -9.3065100e-03  -2.7909500e-01
  -5.8701300e-02  -1.4215300e-02  -2.9381400e-01
  -1.9714500e-02  -3.8058100e-02  -3.1811000e-01
  -4.9363100e-02  -6.6342200e-02  -3.4217300e-01
  -6.5704900e-02  -5.5589500e-02  -3.6904000e-01
  -6.6638700e-02  -7.1017200e-02  -3.6086300e-01
  -7.7144100e-02  -1.1122300e-01  -3.7908600e-01
  -1.2126700e-01  -9.5561200e-02  -3.7931900e-01
  -1.4624600e-01  -9.9535000e-02  -3.5969500e-01
  -1.6795800e-01  -1.3740300e-01  -3.5011600e-01
  -2.2678800e-01  -1.3319500e-01  -3.3703400e-01
  -2.6367400e-01  -1.1940400e-01  -3.1390500e-01
  -2.8795300e-01  -1.1356000e-01  -2.6461100e-01
  -3.0219400e-01  -1.3880500e-01  -2.4241700e-01
  -3.2413800e-01  -1.4371400e-01  -1.9919700e-01
  -3.2997500e-01  -1.2548200e-01  -1.3261400e-01
  -3.1036500e-01  -1.2267700e-01  -9.5468600e-02
  -3.0756300e-01  -1.3039000e-01  -6.2294300e-02
  -2.8468500e-01  -1.2758500e-01  -8.3276300e-03
  -2.3916100e-01  -1.1987200e-01   2.2744100e-02
  -2.3122400e-01  -8.6678600e-02   6.7132200e-02
  -1.7869700e-01  -9.5561200e-02   9.6802200e-02
  -1.4437900e-01  -1.1379400e-01   1.2530400e-01
  -1.1869900e-01  -5.0680700e-02   1.4095700e-01
  -9.1384800e-02  -3.2448000e-02   1.4913300e-01
  -6.5938300e-02  -6.5173400e-02   1.6291700e-01
  -2.2515900e-02  -3.6655600e-02   1.4866600e-01
  -4.3059900e-02   9.7860800e-04   1.6945900e-01
   1.0629300e-03  -3.4551800e-02   1.3978900e-01
   7.3661900e-03  -3.9694400e-02   1.3254600e-01
  -1.8313700e-02  -2.4500400e-02   1.0217600e-01
  -2.7651900e-02  -1.3514100e-02   6.5263200e-02
  -4.0491900e-02  -5.8628300e-02   4.4237300e-02
  -5.4966000e-02  -7.6627300e-02  -1.0196600e-02
  -1.1939900e-01  -2.8941700e-02  -6.6922800e-03
  -1.2827100e-01  -7.1484700e-02  -4.3137300e-02
  -1.5465100e-01  -9.7665000e-02  -8.0283200e-02
  -2.2258600e-01  -4.0629400e-02  -8.7058200e-02
  -2.4429700e-01  -2.4967900e-02  -1.1299000e-01
  -2.4569800e-01  -4.7875700e-02  -1.3518400e-01
  -2.9845800e-01  -1.9124100e-02  -1.4266000e-01
  -3.2647300e-01   2.4587600e-02  -1.5994800e-01
  -3.1339900e-01   7.2740700e-02  -1.7583400e-01
  -3.4748400e-01   1.2790600e-01  -1.6789100e-01
  -3.3697800e-01   1.5806000e-01  -1.8681500e-01
  -3.1760200e-01   1.9265600e-01  -1.8658100e-01
  -3.1456700e-01   2.5156100e-01  -1.7980600e-01
  -2.9659100e-01   3.0158500e-01  -1.9522500e-01
  -2.8281700e-01   3.2729700e-01  -1.9102000e-01
  -2.4102900e-01   3.5651600e-01  -1.9826200e-01
  -2.2352000e-01   3.7848900e-01  -2.1461600e-01
  -2.0951200e-01   4.0490300e-01  -2.0830800e-01
  -1.7052600e-01   4.3716100e-01  -1.8074100e-01
  -1.3830900e-01   4.3412200e-01  -1.9779500e-01
  -1.3597500e-01   4.5936800e-01  -1.7630200e-01
  -7.5276500e-02   4.6053600e-01  -1.4733300e-01
  -1.8080300e-02   4.4768000e-01  -1.4709900e-01
  -2.2282500e-02   4.7432800e-01  -8.4021100e-02
   7.0398700e-02   4.4394000e-01  -4.5473500e-02
   1.3273100e-01   3.9461800e-01  -1.0853600e-03
   1.6401400e-01   3.9134600e-01   5.4049400e-02
   2.5109200e-01   3.6937300e-01   8.4420200e-02
   3.1295700e-01   2.9457200e-01   1.3091100e-01
   3.8322700e-01   2.6371700e-01   1.6245000e-01
   4.2968400e-01   2.2631600e-01   1.9702600e-01
   4.8921500e-01   1.3725600e-01   2.3697500e-01
   5.6322000e-01   9.4245900e-02   2.5403000e-01
   5.6718900e-01   7.7649500e-02   2.8790500e-01
   6.2952100e-01  -1.0942800e-02   2.8159700e-01
   6.8181500e-01  -7.6627300e-02   2.8627000e-01
   6.6640700e-01  -8.5042400e-02   2.8907300e-01
   6.9325400e-01  -1.3740300e-01   2.4748800e-01
   7.0726100e-01  -1.6031100e-01   2.4795600e-01
   6.8718400e-01  -1.9233500e-01   2.1081000e-01
   6.6127100e-01  -1.9490600e-01   1.6268400e-01
   6.3815900e-01  -1.7293300e-01   1.5474000e-01
   6.0781000e-01  -2.0495700e-01   1.0988500e-01
   5.5178100e-01  -1.8602400e-01   6.9234800e-02
   5.0695800e-01  -1.7012800e-01   6.4796000e-02
   4.8127800e-01  -1.8111500e-01   2.6014800e-02
   3.9956900e-01  -1.4838900e-01   1.0829400e-02
   3.4354000e-01  -1.3506500e-01  -1.5086900e-04
   2.8307500e-01  -1.3272800e-01   2.1853500e-03
   1.7918800e-01  -9.5795000e-02   6.8577900e-03
   9.2110000e-02  -5.2550700e-02  -8.5173400e-04
  -1.9014100e-02  -2.6604200e-02   2.9285500e-02
  -9.2785500e-02  -2.7539200e-02   6.8577900e-03
  -2.0577700e-01   2.4353900e-02   2.3211300e-02
  -3.2227100e-01   7.0403100e-02   5.9656300e-02
  -3.7549800e-01   5.4040500e-02   4.4237300e-02
  -4.9876200e-01   8.7467100e-02   6.7132200e-02
  -5.9611200e-01   1.0640100e-01   1.0427800e-01
  -6.2225900e-01   6.5961800e-02   1.0451200e-01
  -7.2778000e-01   6.7831900e-02   1.3885400e-01
  -7.8007400e-01   4.4222800e-02   1.5053500e-01
  -7.9291400e-01  -1.0942800e-02   1.5404000e-01
  -8.5734700e-01  -4.3901900e-02   1.8464400e-01
  -8.5547900e-01  -7.9432300e-02   1.5380600e-01
  -8.8092600e-01  -1.0701500e-01   1.8371000e-01
  -8.6178300e-01  -1.7597200e-01   1.8861600e-01
  -8.2886600e-01  -2.0636000e-01   1.6408500e-01
  -8.5431200e-01  -1.9584100e-01   2.1478100e-01
  -7.7820600e-01  -2.4820200e-01   2.1127700e-01
  -7.3735200e-01  -2.6970700e-01   2.0193200e-01
  -7.3595100e-01  -2.4189000e-01   2.3090100e-01
  -6.2856200e-01  -2.7718700e-01   1.9749300e-01
  -5.8420600e-01  -2.6666800e-01   1.9025100e-01
  -5.2584300e-01  -2.5801900e-01   1.7623400e-01
  -4.0841500e-01  -3.2931400e-01   1.1245500e-01
  -3.6009000e-01  -2.8607000e-01   1.0778200e-01
  -2.6507500e-01  -2.7227800e-01   4.0265700e-02
  -2.0461000e-01  -3.0430200e-01  -2.4213900e-02
  -1.4391200e-01  -2.7461600e-01  -6.9770200e-02
  -9.5353500e-02  -2.5614900e-01  -1.4406200e-01
  -8.0879400e-02  -2.6970700e-01  -2.1228000e-01
  -3.8857700e-02  -2.5427900e-01  -2.6648000e-01
  -5.1931100e-02  -1.9794500e-01  -2.9685100e-01
  -6.0102000e-02  -1.5844100e-01  -3.5455500e-01
  -5.0997300e-02  -1.7877700e-01  -3.7931900e-01
  -4.0025000e-02  -1.8929600e-01  -4.0758700e-01
  -7.7611000e-02  -8.4808600e-02  -4.1202600e-01
  -8.7649600e-02  -6.9147200e-02  -4.1389500e-01
  -6.2436500e-02  -9.5327500e-02  -4.1109200e-01
  -8.2280100e-02  -3.8993100e-02  -3.8656100e-01
  -8.8816800e-02   1.1030000e-02  -3.6156400e-01
  -4.8429300e-02   1.2900000e-02  -3.2091400e-01
  -3.8390800e-02   3.0431400e-02  -2.8587000e-01
  -2.6951500e-02   8.4428300e-02  -2.4849100e-01
   3.8182100e-02   1.0476500e-01  -2.1484900e-01
   6.7597300e-02   1.4777500e-01  -1.4639800e-01
   1.3203100e-01   1.5245000e-01  -1.2770800e-01
   1.9226200e-01   1.6483900e-01  -8.9160800e-02
   2.4875800e-01   2.1977100e-01  -1.0196600e-02
   3.3233400e-01   2.2655000e-01   1.2464700e-02
   3.6128200e-01   2.2468000e-01   6.2693400e-02
   4.3482000e-01   2.3122500e-01   1.1058600e-01
   4.9738600e-01   2.6091200e-01   1.4002200e-01
   5.0135500e-01   2.7750800e-01   1.8511100e-01
   5.8679900e-01   2.3496500e-01   1.9445600e-01
   6.0897700e-01   2.1018700e-01   2.1665000e-01
   5.7536000e-01   2.4291300e-01   2.4515200e-01
   6.2298400e-01   1.8050100e-01   2.2015500e-01
   5.9100100e-01   1.2627000e-01   2.4234900e-01
   5.5691700e-01   1.1411500e-01   2.2506100e-01
   5.3707300e-01   7.7883200e-02   1.9375500e-01
   4.7334000e-01   3.5807800e-02   2.1851900e-01
   4.6120100e-01  -6.3303400e-02   1.5847800e-01
   3.7342200e-01  -5.9095800e-02   1.4516200e-01
   3.0408600e-01  -8.9249900e-02   1.5731000e-01
   2.9264700e-01  -2.1384000e-01   8.9092700e-02
   1.7848800e-01  -2.0893100e-01   9.4699600e-02
   1.3576600e-01  -2.2693000e-01   9.2830600e-02
   1.2806200e-01  -3.2604100e-01   5.1479600e-02
   5.1722400e-02  -3.2674300e-01   6.9001200e-02
   3.5847600e-02  -3.3141800e-01   6.1992500e-02
   3.7248300e-02  -3.7185700e-01   5.3348500e-02
   2.6976300e-02  -3.6928600e-01   5.8488200e-02
   2.2540700e-02  -3.5105300e-01   4.6573500e-02
   3.0945000e-02  -3.2674300e-01   3.9097600e-02
   4.3318100e-02  -3.1131500e-01   4.3536400e-02
   5.4057000e-02  -2.9004300e-01   1.2932000e-02
   4.8220600e-02  -2.2435900e-01   8.2595200e-03
   7.1099100e-02  -1.7410200e-01   1.9707000e-02
   1.0121500e-01  -1.5633700e-01  -2.8886400e-02
   6.3862000e-02  -9.8366300e-02  -3.8698500e-02
   9.4911400e-02  -3.4785500e-02  -4.7342500e-02
   1.3179700e-01   8.6924500e-03  -8.0750400e-02
   1.0565000e-01   3.6275300e-02  -9.5235000e-02
   1.4347000e-01   8.7700800e-02  -1.0060800e-01
   1.7171800e-01   1.3725600e-01  -1.1836400e-01
   1.3973500e-01   1.5876200e-01  -1.4593100e-01
   1.7988900e-01   1.6998200e-01  -1.7326500e-01
   1.9529700e-01   1.8494200e-01  -1.7723600e-01
   1.6471400e-01   2.0878500e-01  -1.8681500e-01
   2.0183300e-01   1.7629300e-01  -2.1695200e-01
   1.7685400e-01   1.6554000e-01  -1.8471200e-01
   1.6798200e-01   1.7115100e-01  -1.8915100e-01
   1.6074500e-01   1.5338500e-01  -1.9826200e-01
   1.0074800e-01   1.2814000e-01  -1.4990200e-01
   1.1172000e-01   7.8117000e-02  -1.6345300e-01
   5.4057000e-02   8.7467100e-02  -1.4990200e-01
  -2.2054200e-03   8.9337100e-02  -1.1018700e-01
  -3.1392400e-03   3.5106500e-02  -8.3320200e-02
  -5.7067100e-02   2.1315100e-02  -4.8510600e-02
  -1.0562600e-01   5.2170400e-02   6.3905400e-03
  -9.2552100e-02   1.8977600e-02   5.0545100e-02
  -9.0917900e-02   8.6924500e-03   7.5075400e-02
  -1.0562600e-01   5.0066700e-02   1.1479100e-01
  -6.4304200e-02   5.0300400e-02   1.3698500e-01
  -4.7962400e-02   9.0505900e-02   1.7600000e-01
  -1.7146500e-02   1.0009000e-01   1.7693400e-01
   4.0978300e-03   1.3585400e-01   2.0146500e-01
   2.8843900e-02   1.8330600e-01   2.3347100e-01
