**************************************************************************************
  	RED ACELEROGRÁFICA DE LA UNIVERSIDAD AUTONOMA METROPOLITANA (RA-UAM)
	   UNIDAD AZCAPOTZALCO. DIVISIÓN CBI-DEPARTAMENTO DE MATERIALES
     Av. San Pablo 420, Col. Nueva el Rosario, Azcapotzalco, C.P. 02128, Ciudad de México
		Área de Estructuras. e-mail: agb@azc.uam.mx
**************************************************************************************
ARCHIVO ESTANDAR DE ACELERACION:
VERSION DEL FORMATO                    : 2.0
NOMBRE DEL ARCHIVO                     : RUMC202402.141
FECHA Y HORA DE CREACION               : 11:30 a. m. 21/02/2024
REF. CATALOGO ACELEROGRAMAS, SMIS 1999 : REGISTRO NO.      /PAG.    


================================================================================
DATOS DE LA ESTACION:
NOMBRE DE LA ESTACION                  : UAM-CUAJIMALPA.
CLAVE DE LA ESTACION                   : RUMC
LOCALIZACION DE LA ESTACION            : AV. VASCO DE QUIROGA 4871, COL. SANTA FE,
                                       : CUAJIMALPA DE MORELOS, C.P 05348, CIUDAD DE MEXICO.   
                                       : 
                                       : 
                                       : 
COORDENADAS DE LA ESTACION             : 19.35303 LAT. N
                                       : -99.28219 LONG. W
ALTITUD (msnm)                         : 2671
TIPO DE SUELO                          : DEPOSITOS LACUSTRES
                                       : 
                                       : 
INSTITUCION RESPONSABLE                : UNIVERSIDAD AUTONOMA METROPOLITANA
                                       : 

================================================================================
DATOS DEL ACELEROGRAFO: 
MODELO DEL ACELEROGRAFO                : ETNA2 KINEMETRICS
NUMERO DE SERIE DEL ACELEROGRAFO       : 104252
NUMERO DE CANALES                      : 3
ORIENTACION C1-C6 (rumbo;orientacion)  : /N90E/N00E/V 
ORIENTACION C7-C12 (rumbo;orientacion) : 
VEL. DE MUESTREO, C1-C6 (muestras/s)   : /200/200/200
VEL. DE MUESTREO, C7-C12 (muestras/s)  : 
ESC. COMPLETA DE SENSORES, C1-C6, (g)  : /2/2/2
ESC. COMPLETA DE SENSORES, C7-C12 (g)  : 
FREC. NAT. DE SENSORES, C1-C6, (Hz)    : /204/216/208   
FREC. NAT. DE SENSORES, C7-C12 (Hz)    : 
AMORTIGUAMIENTO DE SENSORES, C1-C6     : /0.7/0.7/0.7      
AMORTIGUAMIENTO DE SENSORES, C7-C12    : 
INTERVALO DE MUESTREO, C1-C6 (s)       : /0.005/0.005/0.005
INTERVALO DE MUESTREO, C7-C12 (s)      : 
UMBRAL DE DISPARO, C1-C6 (Gal)         : /2/2/2
UMBRAL DE DISPARO, C7-C12 (Gal)        : 
MEMORIA DE PREEVENTO (s)               : 50
TIEMPO DE POSEVENTO (s)                : 60


================================================================================
DATOS DEL SISMO:
FECHA DEL SISMO [GMT]                  : 2024/02/14
HORA EPICENTRO (GMT)                   : 12:42:13
MAGNITUD(ES)                           : /M=2.8
COORDENADAS DEL EPICENTRO              : 19.3780 LAT. N
                                       : -99.2070 LONG. W
PROFUNDIDAD FOCAL (Km)                 : 1.0
FUENTE DE LOS DATOS EPICENTRALES       : SSN
                                       : INSTITUTO DE GEOFISICA, UNAM

================================================================================
DATOS DE ESTE REGISTRO:
HORA DE LA PRIMERA MUESTRA (GMT)       : 12:41:29.000
EXACTITUD DEL TIEMPO (s)               : 
DURACION DEL REGISTRO (s), C1-C6       : /170/170/170
DURACION DEL REGISTRO (s), C7-C12      : 
NUM. TOTAL DE MUESTRAS, C1-C6          : /34000/34000/34000
NUM. TOTAL DE MUESTRAS, C7-C12         : 
ACEL. MAX.(Gal), C1-C6                 : /1.250/-1.408/-0.956
ACEL. MAX., C1-C6, EN LA MUESTRA       : /11376/11268/11445
ACEL. MAX.(Gal), C7-C12                : 
ACEL. MAX., C7-C12,EN LA MUESTRA       : 
UNIDADES DE LOS DATOS                  : Gal (cm/s/s)
FACTOR DE DECIMACION                   : 1
FORMATO DATOS (FORTRAN,16 campos/dato) : 3E16.7


================================================================================
CALIDAD DEL ACELEROGRAMA:
REGISTRO DIGITAL COMPLETO CON TIEMPO ABSOLUTO CORRECTO


================================================================================
COMENTARIOS:














================================================================================
DATOS DE ACELERACION:
---------+---------+---------+---------+---------+---------+---------+---------+
   CANAL-1   	     CANAL-2          CANAL-3
     N90E              N00E              V
---------+---------+---------+---------+---------+---------+---------+---------+
[...]
   9.1337600e-01   7.1429500e-01   7.6143200e-02
   9.2364800e-01   6.7829700e-01   1.4225800e-01
   8.7859200e-01   7.1125600e-01   2.1351300e-01
   7.7213700e-01   7.9470600e-01   2.8640300e-01
   7.0396800e-01   8.1130300e-01   3.4036900e-01
   6.2085800e-01   7.4234500e-01   3.5672300e-01
   4.8125300e-01   7.5239700e-01   3.7120800e-01
   3.5752200e-01   7.6712300e-01   3.9223400e-01
   2.5853800e-01   6.7759600e-01   4.0438200e-01
   1.4414600e-01   6.2967700e-01   3.8662700e-01
   9.2091900e-03   6.0560000e-01   3.7424500e-01
  -5.4523700e-02   5.0789200e-01   3.5392000e-01
  -1.2129200e-01   3.9195000e-01   3.3102500e-01
  -1.9833100e-01   3.3678500e-01   3.0532600e-01
  -2.0370100e-01   2.7390500e-01   2.7542300e-01
  -1.8969400e-01   1.7456000e-01   2.6724600e-01
  -1.7335200e-01   1.3412100e-01   2.4365000e-01
  -1.5024000e-01   1.1986200e-01   2.2893200e-01
  -6.1060400e-02   7.3579200e-02   2.0370100e-01
   2.2055800e-03   5.7450200e-02   1.9295400e-01
   5.1230900e-02   5.2073900e-02   1.6935800e-01
   1.3060500e-01   2.4023600e-02   1.5604200e-01
   1.7542800e-01   7.6609100e-03   1.5043500e-01
   1.7729600e-01  -4.0258400e-02   1.0604700e-01
   1.6422300e-01  -1.1646200e-01   7.0069000e-02
   1.1659800e-01  -1.9102900e-01   2.5213600e-02
  -2.2307100e-02  -2.2983200e-01  -4.9236300e-03
  -1.3459800e-01  -3.0673600e-01  -6.5431700e-02
  -2.6136400e-01  -4.3553400e-01  -1.0911900e-01
  -4.2594900e-01  -4.7270100e-01  -1.4626500e-01
  -6.0337400e-01  -4.6825900e-01  -1.7126200e-01
  -7.2407000e-01  -5.5311200e-01  -2.1308100e-01
  -8.1978600e-01  -6.0126500e-01  -2.8480300e-01
  -9.4818500e-01  -5.0823100e-01  -2.9321300e-01
  -9.6616100e-01  -4.8579100e-01  -3.1867800e-01
  -9.4561700e-01  -4.9280400e-01  -3.3970400e-01
  -9.0919900e-01  -4.1543100e-01  -3.5512300e-01
  -8.2982400e-01  -3.1047600e-01  -3.3853600e-01
  -6.7994700e-01  -2.3567600e-01  -3.1494000e-01
  -5.2400000e-01  -1.6905600e-01  -3.0022200e-01
  -3.8486100e-01  -9.0982700e-02  -2.8386800e-01
  -1.8502400e-01  -6.9010000e-02  -2.7429000e-01
  -1.4136200e-02  -2.5532000e-02  -2.2709800e-01
   8.9283900e-02   3.5010000e-02  -1.6752400e-01
   2.2492100e-01   6.9596500e-03  -1.3481700e-01
   3.2600600e-01  -7.2750000e-02  -9.7437900e-02
   3.2577300e-01  -7.1815000e-02  -3.8798800e-02
   3.5425400e-01  -9.9164100e-02  -2.3847000e-02
   3.4258100e-01  -2.0154800e-01   1.0962700e-02
   3.1386700e-01  -2.7190700e-01   1.0495400e-02
   2.5667000e-01  -3.1071000e-01   2.1242000e-02
   2.0577700e-01  -3.7592700e-01   4.3903300e-02
   1.9060300e-01  -4.3717000e-01   4.0165400e-02
   1.0936100e-01  -4.0771800e-01   7.9881100e-02
   1.0889400e-01  -4.1519800e-01   7.3339700e-02
   1.4578000e-01  -4.2221000e-01   7.2872400e-02
   1.2360200e-01  -3.0650300e-01   1.0090700e-01
   1.6562300e-01  -2.1954700e-01   8.7824200e-02
   2.5923800e-01  -2.0084600e-01   4.9043000e-02
   2.9379000e-01  -6.7607400e-02   4.2968900e-02
   3.5635500e-01   7.5916700e-02   1.8672200e-02
   4.5043700e-01   1.2827700e-01  -1.1698700e-02
   5.2887800e-01   1.7432700e-01  -4.4873000e-02
   5.8700800e-01   2.2622000e-01  -7.6178300e-02
   6.5074100e-01   2.6502300e-01  -8.9728400e-02
   7.1704100e-01   2.3370000e-01  -1.1168900e-01
   7.3571800e-01   1.9887100e-01  -1.3621900e-01
   7.5346000e-01   1.8087200e-01  -1.5724500e-01
   7.8567700e-01   1.1355100e-01  -1.4135900e-01
   8.0435300e-01   3.0802400e-02  -1.5327400e-01
   7.6186500e-01   3.5945000e-02  -1.3271500e-01
   7.7563800e-01  -1.3610600e-02  -1.1285700e-01
   7.8124100e-01  -8.0931300e-02  -1.0327800e-01
   7.2311100e-01  -5.2179800e-02  -6.1927400e-02
   7.2638000e-01  -7.7425100e-02  -5.5152300e-02
   7.2031000e-01  -9.0749000e-02  -3.6929800e-02
   6.6474800e-01  -6.4802400e-02   4.1876200e-03
   6.3976800e-01  -5.6387300e-02   2.2176500e-02
   6.2506100e-01  -8.4905100e-02   2.7316200e-02
   5.5455800e-01  -8.6307700e-02   5.7453400e-02
   5.0436500e-01  -8.0697600e-02   6.1191400e-02
   4.4320000e-01  -1.1833200e-01   7.9647500e-02
   3.6942900e-01  -1.5152500e-01   9.5767400e-02
   2.7628000e-01  -1.8214600e-01   9.0160500e-02
   1.7426100e-01  -2.3403900e-01   9.8804500e-02
   1.0959400e-01  -3.2006000e-01   9.3664800e-02
  -2.6969600e-03  -3.6517500e-01   1.1071900e-01
  -8.8141100e-02  -4.1893800e-01   1.2356800e-01
  -1.1055300e-01  -5.2412600e-01   1.2310100e-01
  -1.5817700e-01  -5.4539800e-01   1.4693100e-01
  -1.7662000e-01  -5.2763300e-01   1.6258300e-01
  -1.3109700e-01  -5.6105900e-01   1.5487400e-01
  -7.7168800e-02  -5.5428000e-01   1.3968800e-01
  -3.2112100e-02  -4.6358400e-01   1.3478200e-01
   4.2826600e-02  -3.8060200e-01   1.3852000e-01
   1.2897100e-01  -2.9878900e-01   1.4646300e-01
   1.6819100e-01  -1.6975700e-01   1.4786500e-01
   2.1161400e-01  -2.5064500e-02   1.4459400e-01
   2.4990000e-01   8.9006800e-02   1.5207000e-01
   2.4616500e-01   1.6824900e-01   1.3221200e-01
   2.1301400e-01   2.8535900e-01   1.1796100e-01
   1.8009700e-01   3.4449800e-01   9.5300100e-02
   1.4671400e-01   3.4777100e-01   4.2501600e-02
   6.7105800e-02   3.8236600e-01   1.3999700e-02
   8.9757400e-03   3.6390000e-01  -3.1556500e-02
  -2.4174700e-02   3.1598100e-01  -9.5802500e-02
  -9.8646500e-02   2.9634500e-01  -1.2827600e-01
  -1.3926700e-01   2.4211500e-01  -1.8551300e-01
  -1.6821600e-01   2.1079200e-01  -2.1074400e-01
  -2.2354400e-01   2.1032400e-01  -2.0280100e-01
  -2.6299800e-01   1.7222300e-01  -2.3667700e-01
  -3.0338600e-01   1.8157300e-01  -2.2593000e-01
  -3.5918100e-01   2.1055800e-01  -2.0443700e-01
  -4.1567700e-01   2.2692100e-01  -2.0023100e-01
  -4.6073400e-01   2.2505100e-01  -1.6822500e-01
  -4.8337900e-01   2.2458300e-01  -1.4065800e-01
  -5.0649100e-01   2.6362000e-01  -1.2500500e-01
  -5.5831700e-01   2.8652800e-01  -8.5523200e-02
  -5.3380500e-01   2.3931000e-01  -1.2640700e-01
  -5.4921300e-01   2.4585500e-01  -1.5818000e-01
  -5.7442600e-01   2.8489200e-01  -1.5911400e-01
  -5.0882500e-01   2.0354600e-01  -2.1728600e-01
  -4.7987700e-01   1.5656100e-01  -2.4485300e-01
  -4.6587000e-01   1.6731400e-01  -2.5770200e-01
  -4.1987900e-01   1.3669200e-01  -2.7312200e-01
  -3.6268300e-01   7.1475400e-02  -3.0255800e-01
  -3.4517400e-01   3.7581200e-02  -3.1821100e-01
  -3.1132300e-01   2.0283500e-02  -3.4017100e-01
  -2.7980700e-01  -1.6415600e-02  -3.3643300e-01
  -2.4945800e-01  -7.6957600e-02  -3.5185200e-01
  -2.7140200e-01  -7.2516300e-02  -3.5068400e-01
  -2.7677200e-01  -6.3633700e-02  -3.2264900e-01
  -2.5482700e-01  -1.1576000e-01  -3.1821100e-01
  -3.0361900e-01  -9.0047700e-02  -2.8129800e-01
  -3.0408600e-01  -7.8126300e-02  -2.5466500e-01
  -2.9381400e-01  -6.4802400e-02  -2.1471600e-01
  -3.0385300e-01  -3.9790900e-02  -1.8341100e-01
  -3.0221800e-01  -1.4545600e-02  -1.4719900e-01
  -2.5762900e-01  -7.2992600e-03  -1.2617300e-01
  -2.3801900e-01   1.8413500e-02  -9.4868000e-02
  -2.1117100e-01   6.1657800e-02  -6.7067000e-02
  -1.5374200e-01   6.3995300e-02  -5.5152300e-02
  -9.8880000e-02   1.0934300e-01  -4.0667800e-02
  -6.4328800e-02   1.5749600e-01  -2.6416800e-02
  -2.1373300e-02   1.8391000e-01  -2.1744400e-02
   4.2593100e-02   1.8227400e-01  -3.7630700e-02
   5.7067200e-02   2.2925800e-01  -1.8006500e-02
   9.5587100e-02   2.6759400e-01  -4.2227600e-03
   1.4507900e-01   2.3627100e-01   1.7504100e-02
   1.9807300e-01   2.6806100e-01   3.5025700e-02
   2.0624400e-01   3.4426500e-01   9.6935500e-02
   2.5340200e-01   3.1364300e-01   1.0908400e-01
   3.2577300e-01   2.3907600e-01   6.4462100e-02
   3.0639600e-01   2.7507400e-01   6.4929300e-02
   3.2437200e-01   2.6432100e-01   3.5960200e-02
   3.7900000e-01   1.4557500e-01  -2.8285800e-02
   3.4048000e-01   7.3345400e-02  -8.9027500e-02
   3.1246600e-01   1.7946000e-02  -1.5561000e-01
   3.1176500e-01  -5.9192400e-02  -2.4205000e-01
   2.3939500e-01  -1.3773300e-01  -2.9741800e-01
   2.1581600e-01  -2.1533900e-01  -3.7941900e-01
   1.5932000e-01  -2.6302500e-01  -4.1913500e-01
   1.0632600e-01  -3.2683900e-01  -4.6095300e-01
   4.6795300e-02  -3.2333300e-01  -4.8875400e-01
  -4.0983400e-02  -2.8359500e-01  -4.5651500e-01
  -5.6157900e-02  -2.9130900e-01  -4.5487900e-01
  -1.0214800e-01  -2.5320700e-01  -4.1002400e-01
  -1.5631000e-01  -1.7186100e-01  -3.1704200e-01
  -1.3996800e-01  -1.0056700e-01  -2.1892100e-01
  -1.0681700e-01  -2.3194400e-02  -1.2500500e-01
  -9.5378200e-02   9.8824400e-02   1.1196300e-02
   4.5401200e-03   1.5632800e-01   8.4787200e-02
   8.5081700e-02   2.3603700e-01   1.7333000e-01
   1.5255000e-01   3.4753700e-01   2.7332000e-01
   2.5316900e-01   3.7769100e-01   3.1887600e-01
   3.2413900e-01   4.1439100e-01   3.7938400e-01
   3.6242500e-01   4.4968700e-01   4.2096900e-01
   3.5869000e-01   4.7002400e-01   4.6675900e-01
   3.3814600e-01   4.2841600e-01   4.7820600e-01
   2.4593100e-01   3.7278300e-01   4.7890700e-01
   1.1683100e-01   3.5992600e-01   4.9783100e-01
  -2.4408200e-02   2.9447500e-01   5.3357500e-01
  -1.5257400e-01   1.7362500e-01   5.2516400e-01
  -3.3023300e-01   1.2851100e-01   5.5390000e-01
  -4.9108300e-01   1.0817500e-01   6.0482900e-01
  -5.9123400e-01   1.7011000e-02   5.8473800e-01
  -7.2967200e-01  -1.1974300e-02   5.8380300e-01
  -8.2538900e-01   8.1284100e-03   5.8006500e-01
  -8.6601000e-01  -5.6629900e-03   5.5857200e-01
  -8.9519100e-01   4.1457400e-04   5.2703300e-01
  -9.0102800e-01   3.4776200e-02   4.9946600e-01
  -8.5923900e-01   7.0306600e-02   4.6582400e-01
  -8.1231500e-01   9.8824400e-02   4.1863300e-01
  -7.5161700e-01   1.2430300e-01   3.7447800e-01
  -6.7060900e-01   1.6895000e-01   3.5018200e-01
  -5.8189600e-01   1.9326100e-01   3.1513800e-01
  -4.9458400e-01   2.3580300e-01   2.6724600e-01
  -4.3505400e-01   2.6268500e-01   2.4551900e-01
  -3.5497900e-01   2.3650500e-01   1.9902800e-01
  -2.9474800e-01   2.4842600e-01   1.5347200e-01
  -2.7793900e-01   2.4492000e-01   1.3641800e-01
  -2.2121000e-01   1.7409300e-01   8.5721600e-02
  -1.9646400e-01   9.8824400e-02   3.5960200e-02
  -2.0837000e-01   5.3476400e-02   1.0962700e-02
  -1.8152300e-01  -5.8724800e-02  -2.9220300e-02
  -1.7125100e-01  -2.0762500e-01  -8.5523200e-02
  -1.8525800e-01  -3.1842400e-01  -1.2874300e-01
  -2.0230000e-01  -4.4067700e-01  -1.4743300e-01
  -1.8665900e-01  -5.9588800e-01  -1.9041900e-01
  -1.9856500e-01  -7.4034800e-01  -2.2265900e-01
  -2.3008100e-01  -8.5628900e-01  -2.4064800e-01
  -2.2891400e-01  -1.0112700e+00  -2.6634600e-01
  -2.6556600e-01  -1.1339900e+00  -2.9438100e-01
  -3.2393000e-01  -1.1821400e+00  -3.1704200e-01
  -3.6291600e-01  -1.2609100e+00  -3.2194800e-01
  -4.0096900e-01  -1.3595600e+00  -3.4601200e-01
  -4.4649300e-01  -1.3988300e+00  -3.6306600e-01
  -4.8641300e-01  -1.3906500e+00  -3.5559000e-01
  -4.9084900e-01  -1.4058400e+00  -3.4554400e-01
  -4.6820400e-01  -1.4077100e+00  -3.4017100e-01
  -4.6680300e-01  -1.3836300e+00  -3.1330400e-01
  -4.0680600e-01  -1.3469400e+00  -2.9671700e-01
  -3.4587400e-01  -1.2529700e+00  -2.7522400e-01
  -3.0525300e-01  -1.1772300e+00  -2.6003900e-01
  -2.0510100e-01  -1.1239400e+00  -2.6751500e-01
  -1.4837200e-01  -1.0072900e+00  -2.5513300e-01
  -1.0331600e-01  -8.7826200e-01  -2.6868300e-01
  -3.1645200e-02  -8.0743500e-01  -2.8924100e-01
   2.2055800e-03  -7.3310100e-01  -2.9274600e-01
   2.6017900e-02  -6.1295200e-01  -3.1377200e-01
   4.2826600e-02  -5.1851600e-01  -3.4928200e-01
   5.6833800e-02  -4.8322000e-01  -3.8806300e-01
   7.6677400e-02  -4.2875500e-01  -4.5114100e-01
   5.8934900e-02  -3.4740900e-01  -4.7637300e-01
   7.4809700e-02  -3.0276300e-01  -4.7917600e-01
   1.0749300e-01  -2.5975200e-01  -5.0861200e-01
   1.1543100e-01  -1.6578400e-01  -5.1024800e-01
   1.6609000e-01  -5.8491100e-02  -4.8034400e-01
   2.3659300e-01   5.7908800e-03  -4.6142100e-01
   2.9262200e-01   1.2617300e-01  -4.4623500e-01
   3.6639400e-01   2.5917900e-01  -4.1282700e-01
   4.4763600e-01   3.7441900e-01  -3.6002900e-01
   5.1090200e-01   5.2215000e-01  -3.0279100e-01
   5.5969400e-01   6.6520700e-01  -2.4718900e-01
   5.9657900e-01   7.9891400e-01  -1.6705700e-01
   6.4093500e-01   8.5384500e-01  -9.5335300e-02
   6.4723900e-01   9.4547700e-01  -1.7072000e-02
   6.4186900e-01   1.0476300e+00   8.9226000e-02
   6.4210300e-01   1.0782500e+00   2.0463500e-01
   6.3276500e-01   1.0663300e+00   2.6771300e-01
   5.9307700e-01   1.0523000e+00   3.6373200e-01
   5.4708700e-01   1.0649200e+00   4.7189900e-01
   5.1487000e-01   1.0466900e+00   5.1698800e-01
   4.5347200e-01   1.0282200e+00   5.6628200e-01
   4.3129400e-01   9.7189100e-01   5.9712000e-01
   4.0024400e-01   9.6861800e-01   6.3706900e-01
   3.4935200e-01   1.0085900e+00   6.5505800e-01
   3.3767900e-01   9.7890300e-01   6.5015200e-01
   3.1853600e-01   9.5342400e-01   6.2819200e-01
   2.8305100e-01   9.9573300e-01   5.9875500e-01
   2.5200100e-01   1.0329000e+00   5.8684100e-01
   2.3636000e-01   1.0067200e+00   5.6090800e-01
   2.2048500e-01   1.0029800e+00   5.1441800e-01
   1.7986400e-01   1.0254200e+00   4.8918700e-01
   1.6258800e-01   9.9760300e-01   4.7516900e-01
   1.6282200e-01   9.3075000e-01   4.1793200e-01
   1.2640300e-01   9.0457000e-01   3.5882600e-01
   1.0189000e-01   8.6272800e-01   3.3102500e-01
   1.2173400e-01   7.4865700e-01   2.9294400e-01
   1.0399100e-01   6.5609100e-01   2.4622000e-01
   7.9712300e-02   6.0723600e-01   2.3547300e-01
   9.6521000e-02   5.1537200e-01   2.4318300e-01
   8.6015500e-02   3.9124900e-01   2.4224800e-01
   8.3214100e-02   2.8302200e-01   2.3780900e-01
   6.9206800e-02   2.1920700e-01   2.9387900e-01
   5.9168300e-02   1.4557500e-01   3.3523000e-01
   4.3526900e-02   5.2307700e-02   3.5251800e-01
   8.5088300e-03  -2.4129500e-02   4.0741900e-01
   8.9757400e-03  -1.0290400e-01   4.5531100e-01
  -2.6042300e-02  -1.6321200e-01   5.0086800e-01
  -6.3395000e-02  -2.6232300e-01   5.1955700e-01
  -7.4367300e-02  -3.5722700e-01   5.4502200e-01
  -9.7712700e-02  -4.4815700e-01   5.4712500e-01
  -1.2572700e-01  -5.4516400e-01   5.1488500e-01
  -1.3740000e-01  -6.5011900e-01   4.8942000e-01
  -1.5070700e-01  -7.5951500e-01   4.2610900e-01
  -1.8455800e-01  -8.4857500e-01   3.4784500e-01
  -1.7195100e-01  -9.6708800e-01   2.7962800e-01
  -1.5654300e-01  -1.0762500e+00   2.0743900e-01
  -1.5747700e-01  -1.1367900e+00   1.1679300e-01
  -1.2806200e-01  -1.1777000e+00   2.6615300e-02
  -9.9813800e-02  -1.2847600e+00  -6.4497200e-02
  -5.8025500e-02  -1.3525500e+00  -2.0560500e-01
  -5.9659700e-02  -1.3151500e+00  -3.1143500e-01
  -5.4056800e-02  -1.3079000e+00  -3.8128800e-01
  -1.2968900e-02  -1.3359500e+00  -4.8595100e-01
  -3.6781200e-02  -1.2971500e+00  -5.6000900e-01
  -4.3317900e-02  -1.2288900e+00  -6.0673400e-01
  -4.9621200e-02  -1.1695200e+00  -6.3570300e-01
  -9.0942500e-02  -1.0739100e+00  -6.7074600e-01
  -1.4020100e-01  -9.5890600e-01  -6.8429600e-01
  -1.7988800e-01  -8.7498900e-01  -6.7448400e-01
  -2.5506100e-01  -7.9504600e-01  -6.6911100e-01
  -3.5754700e-01  -7.0598600e-01  -6.6420400e-01
  -4.4579200e-01  -6.1529000e-01  -6.5369200e-01
  -5.8189600e-01  -5.1734800e-01  -6.0626600e-01
  -6.8274800e-01  -4.7877800e-01  -6.1164000e-01
  -7.9900800e-01  -4.5750700e-01  -5.9295000e-01
  -8.9052200e-01  -4.4254700e-01  -5.6398100e-01
  -9.5262100e-01  -4.0374400e-01  -5.6771900e-01
  -1.0277900e+00  -3.8223900e-01  -5.4575800e-01
  -1.0109800e+00  -4.0070500e-01  -5.2566700e-01
  -1.0042100e+00  -3.9719900e-01  -4.9926700e-01
  -9.6499400e-01  -3.8551100e-01  -4.8782000e-01
