**************************************************************************************
  	RED ACELEROGRÁFICA DE LA UNIVERSIDAD AUTONOMA METROPOLITANA (RA-UAM)
	   UNIDAD AZCAPOTZALCO. DIVISIÓN CBI-DEPARTAMENTO DE MATERIALES
     Av. San Pablo 420, Col. Nueva el Rosario, Azcapotzalco, C.P. 02128, Ciudad de México
		Área de Estructuras. e-mail: agb@azc.uam.mx
**************************************************************************************
ARCHIVO ESTANDAR DE ACELERACION:
VERSION DEL FORMATO                    : 2.0
NOMBRE DEL ARCHIVO                     : RUMC202402.221
FECHA Y HORA DE CREACION               : 11:30 a. m. 29/02/2024
REF. CATALOGO ACELEROGRAMAS, SMIS 1999 : REGISTRO NO.      /PAG.    


================================================================================
DATOS DE LA ESTACION:
NOMBRE DE LA ESTACION                  : UAM-CUAJIMALPA.
CLAVE DE LA ESTACION                   : RUMC
LOCALIZACION DE LA ESTACION            : AV. VASCO DE QUIROGA 4871, COL. SANTA FE,
                                       : CUAJIMALPA DE MORELOS, C.P 05348, CIUDAD DE MEXICO.   
                                       : 
                                       : 
                                       : 
COORDENADAS DE LA ESTACION             : 19.35303 LAT. N
                                       : -99.28219 LONG. W
ALTITUD (msnm)                         : 2671
TIPO DE SUELO                          : DEPOSITOS LACUSTRES
                                       : 
                                       : 
INSTITUCION RESPONSABLE                : UNIVERSIDAD AUTONOMA METROPOLITANA
                                       : 

================================================================================
DATOS DEL ACELEROGRAFO: 
MODELO DEL ACELEROGRAFO                : ETNA2 KINEMETRICS
NUMERO DE SERIE DEL ACELEROGRAFO       : 104252
NUMERO DE CANALES                      : 3
ORIENTACION C1-C6 (rumbo;orientacion)  : /N90E/N00E/V 
ORIENTACION C7-C12 (rumbo;orientacion) : 
VEL. DE MUESTREO, C1-C6 (muestras/s)   : /200/200/200
VEL. DE MUESTREO, C7-C12 (muestras/s)  : 
ESC. COMPLETA DE SENSORES, C1-C6, (g)  : /2/2/2
ESC. COMPLETA DE SENSORES, C7-C12 (g)  : 
FREC. NAT. DE SENSORES, C1-C6, (Hz)    : /204/216/208   
FREC. NAT. DE SENSORES, C7-C12 (Hz)    : 
AMORTIGUAMIENTO DE SENSORES, C1-C6     : /0.7/0.7/0.7      
AMORTIGUAMIENTO DE SENSORES, C7-C12    : 
INTERVALO DE MUESTREO, C1-C6 (s)       : /0.005/0.005/0.005
INTERVALO DE MUESTREO, C7-C12 (s)      : 
UMBRAL DE DISPARO, C1-C6 (Gal)         : /2/2/2
UMBRAL DE DISPARO, C7-C12 (Gal)        : 
MEMORIA DE PREEVENTO (s)               : 50
TIEMPO DE POSEVENTO (s)                : 60


================================================================================
DATOS DEL SISMO:
FECHA DEL SISMO [GMT]                  : 2024/02/22
HORA EPICENTRO (GMT)                   : 20:43:11
MAGNITUD(ES)                           : /M=4.7
COORDENADAS DEL EPICENTRO              : 17.9300 LAT. N
                                       : -100.4000 LONG. W
PROFUNDIDAD FOCAL (Km)                 : 49.2
FUENTE DE LOS DATOS EPICENTRALES       : SSN
                                       : INSTITUTO DE GEOFISICA, UNAM

================================================================================
DATOS DE ESTE REGISTRO:
HORA DE LA PRIMERA MUESTRA (GMT)       : 20:42:52.000
EXACTITUD DEL TIEMPO (s)               : 
DURACION DEL REGISTRO (s), C1-C6       : /168/168/168
DURACION DEL REGISTRO (s), C7-C12      : 
NUM. TOTAL DE MUESTRAS, C1-C6          : /33600/33600/33600
NUM. TOTAL DE MUESTRAS, C7-C12         : 
ACEL. MAX.(Gal), C1-C6                 : /-0.962/0.738/-0.550
ACEL. MAX., C1-C6, EN LA MUESTRA       : /16786/16208/14415
ACEL. MAX.(Gal), C7-C12                : 
ACEL. MAX., C7-C12,EN LA MUESTRA       : 
UNIDADES DE LOS DATOS                  : Gal (cm/s/s)
FACTOR DE DECIMACION                   : 1
FORMATO DATOS (FORTRAN,16 campos/dato) : 3E16.7


================================================================================
CALIDAD DEL ACELEROGRAMA:
REGISTRO DIGITAL COMPLETO CON TIEMPO ABSOLUTO CORRECTO


================================================================================
COMENTARIOS:














================================================================================
DATOS DE ACELERACION:
---------+---------+---------+---------+---------+---------+---------+---------+
   CANAL-1   	     CANAL-2          CANAL-3
     N90E              N00E              V
---------+---------+---------+---------+---------+---------+---------+---------+
[...]
  -1.6794500e-02  -1.5118800e-02   2.4951100e-01
   2.2425700e-02  -5.2051700e-02   2.1960700e-01
   4.8806000e-02  -8.8517100e-02   1.6797700e-01
   2.6627900e-02  -3.4052800e-02   1.3854000e-01
   3.8300600e-02  -5.7194300e-02   1.0817000e-01
   4.6004600e-02  -8.5010900e-02   9.5320400e-02
   2.6627900e-02  -7.4725700e-02   8.5274700e-02
  -1.2825800e-02  -4.8311700e-02   9.5320400e-02
  -1.0958200e-02  -4.5272900e-02   1.0910400e-01
  -3.9545700e-03  -7.3557000e-02   9.9292000e-02
  -3.7571900e-02  -4.8337000e-03   1.0957100e-01
  -5.0178400e-02   4.6124400e-02   1.3900800e-01
  -2.3203900e-03  -1.5352600e-02   8.9713500e-02
  -3.5704300e-02   1.9242800e-02   7.1023800e-02
  -5.6948600e-02   5.7344500e-02   7.5229000e-02
  -2.8934100e-02   1.6671500e-02   2.7570100e-02
  -7.5391500e-02   1.9242800e-02   2.3598500e-02
  -6.3251900e-02  -1.1378800e-02  -1.5182700e-02
  -8.3562400e-02   2.0411600e-02   5.6096400e-03
  -8.2862000e-02  -4.3661900e-03  -1.4014600e-02
  -8.6363800e-02  -4.7610400e-02  -4.6020800e-02
  -1.0340600e-01  -2.6105200e-02  -1.2379200e-02
  -8.1227800e-02  -3.9429100e-02  -3.5507800e-02
  -1.0900900e-01  -2.4001400e-02  -4.2750100e-02
  -1.0714100e-01  -5.1584200e-02  -4.1348300e-02
  -1.2675100e-01  -6.5843100e-02  -3.7143200e-02
  -1.5173100e-01  -7.4258200e-02  -7.8494200e-02
  -2.0192300e-01  -8.2673300e-02  -8.4101100e-02
  -2.2690300e-01  -9.9737300e-02  -9.0876200e-02
  -2.5024800e-01  -1.2007400e-01  -1.0980000e-01
  -2.9857300e-01  -1.1610000e-01  -1.1610700e-01
  -3.1444800e-01  -1.2007400e-01  -1.2358300e-01
  -3.3872700e-01  -8.0102100e-02  -9.4380500e-02
  -3.3592600e-01  -7.4024500e-02  -1.2545200e-01
  -3.6113900e-01  -4.3402900e-02  -9.3913300e-02
  -3.2822200e-01   1.3165300e-02  -7.4522700e-02
  -3.3125700e-01   5.3604500e-02  -7.1251900e-02
  -3.3545900e-01   6.2720800e-02  -4.7422500e-02
  -2.8736800e-01   4.7293100e-02  -3.9479400e-02
  -2.9904000e-01   8.7264800e-02   1.6380700e-03
  -2.6285500e-01   7.1135900e-02   6.5441300e-03
  -2.2970500e-01   2.5320400e-02   5.5838300e-02
  -1.8184600e-01   2.0411600e-02   1.0770200e-01
  -1.3235400e-01   2.7190400e-02   1.3573700e-01
  -7.7726000e-02   2.9060400e-02   1.8479800e-01
   4.9166800e-03   5.1734400e-02   2.3292400e-01
   9.1294600e-02   6.4123300e-02   2.1213100e-01
   1.5759600e-01   9.0771100e-02   1.9133900e-01
   2.3813700e-01   1.0245900e-01   1.8503100e-01
   3.3245300e-01   5.4539500e-02   1.1821500e-01
   3.5836600e-01   6.5759600e-02   1.0513300e-01
   4.4357700e-01   3.5371800e-02   8.5741900e-02
   5.0590900e-01   2.6255400e-02   8.9012600e-02
   5.3485700e-01   6.0850800e-02   1.1260800e-01
   6.2030100e-01   3.8644300e-02   1.0116100e-01
   6.8216600e-01   7.7681000e-02   1.0957100e-01
   7.1765100e-01   1.5879300e-01   9.7423000e-02
   7.6340800e-01   1.7936300e-01   5.3969400e-02
   8.0262900e-01   1.8076600e-01   1.9393300e-02
   7.9842700e-01   1.9035000e-01  -2.7798300e-02
   7.8255200e-01   1.6393600e-01  -1.1400500e-01
   7.5056800e-01   1.2793800e-01  -1.4040400e-01
   7.2535500e-01   3.9111800e-02  -1.7918500e-01
   6.6745900e-01   5.9189200e-03  -2.1749900e-01
   6.1306400e-01  -2.2832700e-02  -2.1633100e-01
   6.0022400e-01  -1.3106000e-01  -2.3572200e-01
   5.4933100e-01  -1.6682400e-01  -2.4576700e-01
   4.9493600e-01  -1.9090100e-01  -2.6609300e-01
   4.4147500e-01  -2.2082100e-01  -2.6352300e-01
   3.8287900e-01  -2.4139100e-01  -2.7683900e-01
   2.9976900e-01  -2.5798800e-01  -2.9155700e-01
   2.2226200e-01  -2.7388300e-01  -2.7870800e-01
   1.5059200e-01  -2.6429900e-01  -2.6469100e-01
   4.9739800e-02  -2.8393400e-01  -2.6328900e-01
  -2.4265100e-02  -3.1946500e-01  -2.5464500e-01
  -8.0527500e-02  -3.0544000e-01  -2.3992700e-01
  -1.8815000e-01  -2.9608900e-01  -2.3665600e-01
  -2.4931500e-01  -3.3395700e-01  -2.5885000e-01
  -3.0044100e-01  -3.6060500e-01  -2.7123200e-01
  -3.9779100e-01  -2.9024600e-01  -2.3946000e-01
  -4.2720700e-01  -2.8907700e-01  -2.6492400e-01
  -4.8136800e-01  -3.0731000e-01  -2.5277600e-01
  -5.2572400e-01  -2.4770300e-01  -2.3151700e-01
  -5.7194800e-01  -1.7710900e-01  -2.3058200e-01
  -6.0206300e-01  -1.4508500e-01  -2.0114600e-01
  -5.9762800e-01  -1.2661900e-01  -1.6236400e-01
  -6.0906700e-01  -7.3790700e-02  -1.5348700e-01
  -6.1443700e-01   1.4567800e-02  -1.2264900e-01
  -5.7591700e-01   5.9448300e-02  -6.0038100e-02
  -4.9817700e-01   7.6044700e-02  -6.8214900e-02
  -5.0004400e-01   2.0858200e-01  -1.6326300e-03
  -4.1693500e-01   2.7333200e-01   2.9672700e-02
  -3.4713200e-01   2.9998000e-01   6.1445300e-02
  -3.1771700e-01   3.3200400e-01   1.0069400e-01
  -2.4791400e-01   3.7618300e-01   1.1307600e-01
  -2.1383000e-01   4.2971200e-01   1.9554400e-01
  -1.5336500e-01   4.1919400e-01   2.2404600e-01
  -1.1881400e-01   4.4303600e-01   2.9086200e-01
  -4.6443200e-02   4.3976400e-01   3.4716500e-01
  -5.5887500e-03   4.8628100e-01   3.8033900e-01
   2.8028600e-02   5.0381200e-01   3.8874900e-01
   8.8259700e-02   4.8721600e-01   3.8804900e-01
   1.1043800e-01   4.9726700e-01   3.9155300e-01
   1.2234400e-01   4.7529400e-01   3.5440700e-01
   1.1557400e-01   4.2246600e-01   3.6538700e-01
   1.1394000e-01   3.3667900e-01   3.6235000e-01
   8.4291000e-02   3.2429000e-01   3.7192900e-01
   7.3785600e-02   2.7590300e-01   3.6865800e-01
   8.1723000e-02   2.1816600e-01   3.7730200e-01
   1.0320100e-01   1.5972800e-01   3.4249200e-01
   7.5653200e-02   1.3658700e-01   2.8291900e-01
   7.4019000e-02   1.1157500e-01   2.4577300e-01
   1.0880400e-01  -5.3012000e-03   1.4204500e-01
   6.9350000e-02  -3.6390300e-02   7.4294500e-02
   7.3785600e-02  -7.3790700e-02   1.7991600e-02
   8.8259700e-02  -1.5022800e-01  -3.9245800e-02
   8.1256100e-02  -2.1264000e-01  -1.0045500e-01
   7.4019000e-02  -2.5915700e-01  -1.3292800e-01
   8.6392100e-02  -2.9772600e-01  -1.4647800e-01
   8.9427000e-02  -3.3278900e-01  -1.7264400e-01
   9.2461900e-02  -3.6083900e-01  -2.1516300e-01
   9.1061200e-02  -3.3746400e-01  -2.1749900e-01
   9.8064800e-02  -3.2811400e-01  -2.2894700e-01
   8.7092500e-02  -3.4704800e-01  -2.7917500e-01
   3.8300600e-02  -3.1782800e-01  -2.6328900e-01
   3.7366800e-02  -3.2624400e-01  -2.6959700e-01
  -9.3240100e-03  -3.0099800e-01  -2.5581300e-01
  -5.0878800e-02  -2.9702500e-01  -2.3432000e-01
  -6.2551500e-02  -3.0170000e-01  -2.0955600e-01
  -1.0667400e-01  -2.5541700e-01  -1.7825100e-01
  -1.5710000e-01  -2.3180800e-01  -1.6002800e-01
  -1.7017400e-01  -2.5915700e-01  -1.5138400e-01
  -2.0052300e-01  -2.5167600e-01  -1.3269400e-01
  -2.5421700e-01  -2.0469200e-01  -1.1680800e-01
  -2.8059700e-01  -1.9300500e-01  -9.9052900e-02
  -2.8643400e-01  -1.9323800e-01  -4.0881100e-02
  -2.9577200e-01  -2.0843200e-01  -3.2470700e-02
  -3.5016700e-01  -1.4111100e-01   2.9906300e-02
  -3.3919400e-01  -1.0862000e-01   7.1023800e-02
  -3.5880500e-01  -1.0020500e-01   1.0583300e-01
  -3.8168300e-01  -5.5090500e-02   1.4718400e-01
  -3.7327900e-01  -1.5820100e-02   1.8596600e-01
  -3.8074900e-01   2.9060400e-02   2.5698700e-01
  -3.6790900e-01   4.0748100e-02   2.7287300e-01
  -3.6674200e-01   8.0719800e-02   3.1212200e-01
  -3.3499200e-01   1.4336500e-01   3.4482900e-01
  -3.1865000e-01   1.8100000e-01   3.6235000e-01
  -2.6355500e-01   1.5692300e-01   3.3922200e-01
  -2.0892700e-01   1.8777800e-01   3.4085700e-01
  -1.5850100e-01   2.4364500e-01   3.1913000e-01
  -1.0270600e-01   2.3803500e-01   2.5815500e-01
  -6.6286800e-02   2.2658100e-01   2.5044500e-01
   2.8155900e-03   2.1021900e-01   2.1189800e-01
   2.3593000e-02   2.1208900e-01   1.5816500e-01
   6.0945600e-02   2.0157000e-01   1.1751500e-01
   1.2911400e-01   1.7422100e-01   8.2938500e-02
   1.2864700e-01   1.8544100e-01   5.0932300e-02
   1.4895800e-01   1.8450600e-01   1.1450200e-02
   1.8981200e-01   1.4546900e-01  -1.7986200e-02
   1.8491000e-01   1.6884500e-01  -3.2003500e-02
   2.1129000e-01   1.7959700e-01  -8.1998600e-02
   2.3510200e-01   1.6837700e-01  -1.0723000e-01
   2.6638500e-01   1.7539000e-01  -1.3152600e-01
   2.9930200e-01   1.7702600e-01  -1.7614800e-01
   3.1984600e-01   2.0554400e-01  -1.8782900e-01
   3.8054400e-01   2.0788100e-01  -2.2263900e-01
   4.0809200e-01   2.1886800e-01  -2.6772800e-01
   4.3003600e-01   2.2517900e-01  -3.1118200e-01
   4.5711700e-01   2.0507600e-01  -3.3898300e-01
   4.6365400e-01   1.9806400e-01  -3.7682900e-01
   4.5454900e-01   2.1559500e-01  -4.0556500e-01
   4.5408200e-01   2.1512800e-01  -3.8360400e-01
   4.8279700e-01   1.6978000e-01  -3.9224800e-01
   4.5898500e-01   1.5949400e-01  -3.9248200e-01
   4.4684500e-01   1.6066300e-01  -3.7753000e-01
   4.6458700e-01   1.1788600e-01  -3.9902300e-01
   4.2793500e-01   9.9186200e-02  -4.0019200e-01
   4.0412300e-01   7.9317300e-02  -3.9131400e-01
   3.9431800e-01   1.5035300e-02  -3.7075500e-01
   3.7073900e-01  -2.2131400e-02  -3.3804800e-01
   3.4412500e-01  -5.2051700e-02  -3.1865700e-01
   3.3875600e-01  -8.8750900e-02  -2.6796200e-01
   3.3992300e-01  -1.2498300e-01  -2.0418300e-01
   3.1797800e-01  -1.5911000e-01  -1.6703700e-01
   2.9813500e-01  -1.6285000e-01  -9.0642600e-02
   2.9159800e-01  -1.8575800e-01  -2.1490500e-02
   2.9136500e-01  -2.0913400e-01  -1.6326300e-03
   2.6358400e-01  -1.8318700e-01   4.7661600e-02
   2.6755200e-01  -1.7594100e-01   8.1069500e-02
   2.7082100e-01  -1.8622600e-01   9.0881600e-02
   2.3603600e-01  -1.7523900e-01   9.8357500e-02
   2.3183400e-01  -1.6308400e-01   1.2008400e-01
   2.2833200e-01  -1.5256500e-01   1.5886600e-01
   2.1595900e-01  -1.4789000e-01   1.7498500e-01
   2.1269100e-01  -1.4274800e-01   2.2264400e-01
   2.2949900e-01  -1.3526800e-01   2.7170500e-01
   2.2016100e-01  -1.3596900e-01   2.9389900e-01
   2.0942200e-01  -1.5607200e-01   2.8946000e-01
   2.0171800e-01  -1.5934400e-01   2.7193900e-01
   1.6553300e-01  -1.4859200e-01   2.2428000e-01
   1.1977600e-01  -1.7407100e-01   1.4531600e-01
   8.1723000e-02  -2.4162500e-01   9.7890300e-02
   4.8339100e-02  -3.0146600e-01   3.7382200e-02
  -3.5237400e-02  -3.1245200e-01   1.0282100e-02
  -8.7297600e-02  -3.4961900e-01   3.0398000e-03
  -1.4659500e-01  -3.8187700e-01   1.4020000e-02
  -2.4044300e-01  -3.8211000e-01   2.2196800e-02
  -3.1118000e-01  -3.9239600e-01   9.3475900e-03
  -3.8751900e-01  -3.7205900e-01   2.7570100e-02
  -4.5638800e-01  -3.5709900e-01   2.6869200e-02
  -5.2759200e-01  -3.6341000e-01   2.5725600e-03
  -6.0883400e-01  -3.2928200e-01   4.6751600e-03
  -6.6789800e-01  -3.1385500e-01  -7.7068000e-03
  -7.3793400e-01  -2.9421900e-01  -5.6767400e-02
  -8.1287200e-01  -2.4817000e-01  -5.4431200e-02
  -8.3365000e-01  -2.4045600e-01  -6.0038100e-02
  -8.9901700e-01  -1.5163000e-01  -3.0835400e-02
  -9.4430700e-01  -1.1259400e-01   1.1708300e-03
  -9.2609800e-01  -1.0838600e-01   4.2079100e-03
  -9.6228300e-01   1.6437800e-02   6.2379800e-02
  -9.5457900e-01   7.9083500e-02   8.9012600e-02
  -9.0181800e-01   6.7863400e-02   1.0069400e-01
  -9.0812200e-01   1.2676900e-01   1.6330400e-01
  -8.6049700e-01   1.9970000e-01   1.7638700e-01
  -8.2104300e-01   2.2517900e-01   1.9741300e-01
  -7.5707700e-01   2.3102300e-01   2.3502600e-01
  -6.5669200e-01   2.2962000e-01   2.0582400e-01
  -6.4642000e-01   3.0652500e-01   2.5465100e-01
  -5.1311800e-01   2.6094300e-01   2.3596100e-01
  -4.4261400e-01   2.1395900e-01   2.2077500e-01
  -4.2323800e-01   2.6047600e-01   2.2755000e-01
  -3.1981800e-01   1.9736200e-01   1.9577800e-01
  -2.6378900e-01   1.5201400e-01   2.0816000e-01
  -2.2083300e-01   1.4032700e-01   2.1096300e-01
  -1.5966800e-01   1.3144400e-01   2.3409200e-01
  -7.2823500e-02   1.2139300e-01   2.4530600e-01
  -3.4303600e-02   1.1321100e-01   2.6843400e-01
   3.7600200e-02   7.7914700e-02   2.3362500e-01
   7.8921600e-02   1.0526400e-01   2.3549400e-01
   1.3868600e-01   8.8667400e-02   1.8573200e-01
   1.9611500e-01   6.9733400e-02   1.1751500e-01
   2.2646400e-01   9.7550000e-02   1.1307600e-01
   3.0957400e-01   7.5811000e-02   4.9530600e-02
   3.3081800e-01   1.3985900e-01   3.4578800e-02
   3.8077700e-01   1.6791000e-01   1.4720900e-02
   4.6995700e-01   1.8684300e-01  -2.7097400e-02
   4.9260200e-01   2.7777300e-01  -3.7610400e-02
   5.1944900e-01   3.4743200e-01  -3.9245800e-02
   6.1119600e-01   3.2616000e-01  -7.9195100e-02
   6.2333600e-01   3.7594900e-01  -9.2511500e-02
   6.2707100e-01   4.3812800e-01  -1.4858100e-01
   6.4691500e-01   4.4093300e-01  -1.9951000e-01
   6.6208900e-01   4.2807600e-01  -2.4226300e-01
   6.6442400e-01   4.0026000e-01  -3.1982600e-01
   6.1493200e-01   4.7529400e-01  -3.0487400e-01
   6.3734300e-01   4.2059600e-01  -3.2683400e-01
   6.0932900e-01   3.5865200e-01  -3.2076000e-01
   5.6614000e-01   3.8904000e-01  -2.8104400e-01
   5.5937000e-01   3.8623400e-01  -2.3829200e-01
   5.4723000e-01   3.6426200e-01  -1.8736200e-01
   5.4582900e-01   3.0933000e-01  -1.7077500e-01
   5.1197900e-01   3.0068100e-01  -1.3503100e-01
   4.8956700e-01   2.9600600e-01  -1.3923600e-01
   4.4754500e-01   2.5042400e-01  -1.6119600e-01
   3.9828700e-01   2.0040100e-01  -1.6984000e-01
   3.9175000e-01   1.3822300e-01  -1.7988600e-01
   3.7680900e-01   9.1706100e-02  -1.8876400e-01
   3.2194700e-01   7.1135900e-02  -1.3456300e-01
   3.2474900e-01  -4.3169100e-02  -8.6671000e-02
   2.9463300e-01  -9.2958400e-02  -2.9900900e-02
   2.2109500e-01  -7.0284400e-02   7.2659100e-02
   2.2809900e-01  -1.5770800e-01   1.2405600e-01
   2.2226200e-01  -2.4045600e-01   1.5793100e-01
   1.9518200e-01  -2.8042800e-01   1.7078000e-01
   1.7020200e-01  -3.0590700e-01   1.8292900e-01
   1.7650500e-01  -3.6691700e-01   1.6961200e-01
   1.4942500e-01  -4.3306900e-01   1.5115600e-01
   9.9932400e-02  -4.6906600e-01   1.3129800e-01
   6.1646000e-02  -5.0038900e-01   1.3270000e-01
   9.3523000e-03  -5.3101100e-01   1.3083100e-01
  -3.5003900e-02  -5.7612500e-01   1.2125200e-01
  -9.1966700e-02  -5.7706000e-01   1.6026700e-01
  -1.3258800e-01  -5.6186600e-01   1.7311700e-01
  -1.9025100e-01  -5.9389000e-01   1.6937900e-01
  -2.6262200e-01  -5.9038400e-01   1.7358400e-01
  -2.9367100e-01  -5.6724300e-01   1.6400500e-01
  -3.3849400e-01  -5.5228200e-01   1.2826100e-01
  -3.9358900e-01  -5.2727100e-01   1.2172000e-01
  -3.8051600e-01  -5.6069700e-01   8.9947100e-02
  -4.1273200e-01  -5.1792100e-01   8.1536700e-02
  -4.4915100e-01  -4.3634100e-01   8.2704900e-02
  -4.2837400e-01  -4.2675700e-01   7.3360000e-02
  -4.1273200e-01  -3.8912300e-01   8.2938500e-02
  -4.1179900e-01  -2.9655700e-01   6.8220300e-02
  -4.0176000e-01  -1.9604300e-01   6.2146100e-02
  -3.6090600e-01  -1.3737100e-01   4.6259800e-02
  -3.3195700e-01  -6.9349400e-02   1.8692500e-02
  -3.3219100e-01   2.6255400e-02  -1.0977500e-02
  -3.2495400e-01   1.1788600e-01  -1.5649900e-02
  -2.8783500e-01   1.4617100e-01  -5.6533800e-02
  -2.9717300e-01   1.7702600e-01  -6.9149300e-02
  -2.6892500e-01   2.1255600e-01  -7.4522700e-02
  -2.4791400e-01   2.3943800e-01  -8.9007200e-02
  -2.4254400e-01   2.7941000e-01  -1.0279100e-01
  -2.1032800e-01   2.6374800e-01  -1.2778800e-01
  -1.7951200e-01   2.5346300e-01  -1.2498500e-01
  -1.5173100e-01   2.9016200e-01  -1.3105900e-01
  -1.4309300e-01   2.9366800e-01  -1.2662000e-01
  -9.1499800e-02   2.4598300e-01  -1.4063800e-01
  -8.2628500e-02   2.6444900e-01  -1.2895700e-01
  -8.9865600e-02   2.7496800e-01  -1.3199400e-01
  -8.0760900e-02   2.2891900e-01  -1.3619900e-01
  -5.0411900e-02   1.6510400e-01  -1.6376600e-01
  -8.1461300e-02   1.8941500e-01  -1.7287700e-01
