**************************************************************************************
  	RED ACELEROGRÁFICA DE LA UNIVERSIDAD AUTONOMA METROPOLITANA (RA-UAM)
	   UNIDAD AZCAPOTZALCO. DIVISIÓN CBI-DEPARTAMENTO DE MATERIALES
     Av. San Pablo 420, Col. Nueva el Rosario, Azcapotzalco, C.P. 02128, Ciudad de México
		Área de Estructuras. e-mail: agb@azc.uam.mx
**************************************************************************************
ARCHIVO ESTANDAR DE ACELERACION:
VERSION DEL FORMATO                    : 2.0
NOMBRE DEL ARCHIVO                     : RUMC202405.201
FECHA Y HORA DE CREACION               : 11:30 a. m. 27/05/2024
REF. CATALOGO ACELEROGRAMAS, SMIS 1999 : REGISTRO NO.      /PAG.    


================================================================================
DATOS DE LA ESTACION:
NOMBRE DE LA ESTACION                  : UAM-CUAJIMALPA.
CLAVE DE LA ESTACION                   : RUMC
LOCALIZACION DE LA ESTACION            : AV. VASCO DE QUIROGA 4871, COL. SANTA FE,
                                       : CUAJIMALPA DE MORELOS, C.P 05348, CIUDAD DE MEXICO.   
                                       : 
                                       : 
                                       : 
COORDENADAS DE LA ESTACION             : 19.35303 LAT. N
                                       : -99.28219 LONG. W
ALTITUD (msnm)                         : 2671
TIPO DE SUELO                          : DEPOSITOS LACUSTRES
                                       : 
                                       : 
INSTITUCION RESPONSABLE                : UNIVERSIDAD AUTONOMA METROPOLITANA
                                       : 

================================================================================
DATOS DEL ACELEROGRAFO: 
MODELO DEL ACELEROGRAFO                : ETNA2 KINEMETRICS
NUMERO DE SERIE DEL ACELEROGRAFO       : 104252
NUMERO DE CANALES                      : 3
ORIENTACION C1-C6 (rumbo;orientacion)  : /N90E/N00E/V 
ORIENTACION C7-C12 (rumbo;orientacion) : 
VEL. DE MUESTREO, C1-C6 (muestras/s)   : /200/200/200
VEL. DE MUESTREO, C7-C12 (muestras/s)  : 
ESC. COMPLETA DE SENSORES, C1-C6, (g)  : /2/2/2
ESC. COMPLETA DE SENSORES, C7-C12 (g)  : 
FREC. NAT. DE SENSORES, C1-C6, (Hz)    : /204/216/208   
FREC. NAT. DE SENSORES, C7-C12 (Hz)    : 
AMORTIGUAMIENTO DE SENSORES, C1-C6     : /0.7/0.7/0.7      
AMORTIGUAMIENTO DE SENSORES, C7-C12    : 
INTERVALO DE MUESTREO, C1-C6 (s)       : /0.005/0.005/0.005
INTERVALO DE MUESTREO, C7-C12 (s)      : 
UMBRAL DE DISPARO, C1-C6 (Gal)         : /2/2/2
UMBRAL DE DISPARO, C7-C12 (Gal)        : 
MEMORIA DE PREEVENTO (s)               : 50
TIEMPO DE POSEVENTO (s)                : 60


================================================================================
DATOS DEL SISMO:
FECHA DEL SISMO [GMT]                  : 2024/05/20
HORA EPICENTRO (GMT)                   : 06:48:14
MAGNITUD(ES)                           : /M=4.9
COORDENADAS DEL EPICENTRO              : 17.4900 LAT. N
                                       : -101.3200 LONG. W
PROFUNDIDAD FOCAL (Km)                 : 40.3
FUENTE DE LOS DATOS EPICENTRALES       : SSN
                                       : INSTITUTO DE GEOFISICA, UNAM

================================================================================
DATOS DE ESTE REGISTRO:
HORA DE LA PRIMERA MUESTRA (GMT)       : 06:48:14.000
EXACTITUD DEL TIEMPO (s)               : 
DURACION DEL REGISTRO (s), C1-C6       : /170/170/170
DURACION DEL REGISTRO (s), C7-C12      : 
NUM. TOTAL DE MUESTRAS, C1-C6          : /34000/34000/34000
NUM. TOTAL DE MUESTRAS, C7-C12         : 
ACEL. MAX.(Gal), C1-C6                 : /0.699/0.558/-0.512
ACEL. MAX., C1-C6, EN LA MUESTRA       : /16751/17016/16561
ACEL. MAX.(Gal), C7-C12                : 
ACEL. MAX., C7-C12,EN LA MUESTRA       : 
UNIDADES DE LOS DATOS                  : Gal (cm/s/s)
FACTOR DE DECIMACION                   : 1
FORMATO DATOS (FORTRAN,16 campos/dato) : 3E16.7


================================================================================
CALIDAD DEL ACELEROGRAMA:
REGISTRO DIGITAL COMPLETO CON TIEMPO ABSOLUTO CORRECTO


================================================================================
COMENTARIOS:














================================================================================
DATOS DE ACELERACION:
---------+---------+---------+---------+---------+---------+---------+---------+
   CANAL-1   	     CANAL-2          CANAL-3
     N90E              N00E              V
---------+---------+---------+---------+---------+---------+---------+---------+
[...]
  -3.4923400e-01   2.5722000e-01   1.4377700e-01
  -3.2051900e-01   2.2753300e-01   1.4494500e-01
  -3.1118100e-01   2.1678100e-01   1.5195400e-01
  -3.1188200e-01   1.8896400e-01   1.4564600e-01
  -2.8386700e-01   1.6465400e-01   1.2228400e-01
  -2.5632000e-01   1.6722500e-01   1.4167400e-01
  -2.1663200e-01   1.3379900e-01   1.2625500e-01
  -1.6667300e-01   1.0598200e-01   1.0616400e-01
  -1.2815300e-01   1.2094200e-01   1.3910400e-01
  -4.5744100e-02   8.9385700e-02   1.1807800e-01
   6.5495400e-03   8.8216900e-02   1.1270500e-01
   4.4369100e-02   8.8918200e-02   1.4611300e-01
   1.6506500e-01   3.0480000e-02   1.0779900e-01
   1.8420800e-01   7.0919200e-02   1.3349800e-01
   2.2366200e-01   3.7726300e-02   1.3046000e-01
   3.0933900e-01  -2.0478100e-02   9.2146500e-02
   3.0256900e-01   1.5519800e-02   1.1831200e-01
   3.3525300e-01  -2.8425700e-02   6.1775600e-02
   3.4202300e-01  -6.0449800e-02   4.1917800e-02
   3.5066100e-01  -6.1384800e-02   1.6686600e-02
   3.4459100e-01  -8.8266300e-02  -5.1764600e-02
   3.0817200e-01  -9.0370100e-02  -8.1668200e-02
   3.1751000e-01  -1.1888800e-01  -1.5292300e-01
   2.6895200e-01  -1.3548400e-01  -2.1646800e-01
   2.3720200e-01  -1.4132800e-01  -2.7884500e-01
   2.2039300e-01  -1.8948100e-01  -3.3584900e-01
   1.7533700e-01  -2.2033700e-01  -3.9799200e-01
   1.2421000e-01  -2.1963500e-01  -4.4611800e-01
   8.5457000e-02  -2.5236100e-01  -4.5803300e-01
   7.4951500e-02  -3.1009800e-01  -5.1223300e-01
  -9.2098300e-04  -2.8742400e-01  -5.0265500e-01
  -1.9130400e-02  -3.0285100e-01  -5.0312200e-01
  -3.0336200e-02  -3.1968100e-01  -4.9494500e-01
  -8.9166600e-02  -2.6568500e-01  -4.3934300e-01
  -7.9361500e-02  -2.7503500e-01  -4.3046600e-01
  -9.5703300e-02  -2.4277700e-01  -3.6178100e-01
  -1.1414600e-01  -1.7802700e-01  -3.1482300e-01
  -1.3002100e-01  -1.4997700e-01  -2.7160300e-01
  -1.4519600e-01  -1.1678400e-01  -2.0759000e-01
  -1.3912600e-01  -6.9332400e-02  -1.5969800e-01
  -1.7297700e-01  -1.6738000e-02  -9.2414800e-02
  -1.8441600e-01  -8.3229300e-03  -4.2186100e-02
  -1.6550600e-01   5.7022200e-03   8.5098400e-03
  -1.9562200e-01   6.9516700e-02   7.0653300e-02
  -2.0659400e-01   7.4191700e-02   1.1270500e-01
  -1.8441600e-01   4.8011500e-02   1.5288800e-01
  -2.0122400e-01   6.7412900e-02   2.0778900e-01
  -2.3017300e-01   8.1204300e-02   2.5077600e-01
  -2.1639900e-01   4.3803900e-02   2.8091300e-01
  -2.3344100e-01   2.1597400e-02   3.2903900e-01
  -2.7196100e-01   3.5856300e-02   3.5824200e-01
  -2.6659200e-01  -1.9776800e-02   3.6384900e-01
  -2.9530600e-01  -4.6190900e-02   4.0847000e-01
  -3.0721300e-01  -6.9098600e-02   3.9375200e-01
  -3.4573200e-01  -9.1071400e-02   4.0613400e-01
  -3.5133500e-01  -1.2660200e-01   4.1921700e-01
  -3.3802800e-01  -1.7241700e-01   3.8417400e-01
  -3.8705400e-01  -1.4483400e-01   4.1104000e-01
  -3.3195900e-01  -2.0607800e-01   3.6898800e-01
  -3.2775600e-01  -2.3132300e-01   3.5286800e-01
  -3.4013000e-01  -1.9368900e-01   3.3955200e-01
  -2.8293300e-01  -2.3062200e-01   2.8395000e-01
  -2.6449000e-01  -2.4721800e-01   2.5474700e-01
  -2.2713800e-01  -2.1566200e-01   1.9260400e-01
  -2.0496000e-01  -2.1262300e-01   1.4377700e-01
  -1.5266600e-01  -2.3927100e-01   6.4345500e-02
  -1.0130600e-01  -2.2501200e-01  -8.0773100e-03
  -9.5236400e-02  -2.0000000e-01  -7.1856100e-02
  -2.1698400e-02  -2.2618000e-01  -1.6857600e-01
   2.9194600e-02  -2.3669900e-01  -2.2978400e-01
   5.1606100e-02  -2.0023400e-01  -2.9589900e-01
   1.0530100e-01  -2.0140300e-01  -3.6061300e-01
   1.5175800e-01  -2.2267400e-01  -4.0920600e-01
   1.9051100e-01  -1.9298800e-01  -4.5686500e-01
   1.9798200e-01  -1.6891100e-01  -4.7041500e-01
   2.6241500e-01  -2.0397400e-01  -5.0008500e-01
   2.8646100e-01  -1.9439000e-01  -5.0101900e-01
   2.6778400e-01  -1.5418500e-01  -4.7532100e-01
   3.1144000e-01  -1.6002800e-01  -4.6784500e-01
   3.0607100e-01  -1.4132800e-01  -4.2766200e-01
   2.8552700e-01  -9.4343900e-02  -3.9238500e-01
   2.8015800e-01  -3.9412000e-02  -3.3911900e-01
   2.8365900e-01  -2.9828200e-02  -3.0407600e-01
   2.3720200e-01   3.4921300e-02  -2.5571600e-01
   2.1642500e-01   1.1860500e-01  -1.9684400e-01
   2.1572400e-01   1.1954000e-01  -1.5525900e-01
   1.6413100e-01   1.8943200e-01  -9.1480300e-02
   1.5292500e-01   2.5768800e-01  -5.1764600e-02
   1.1347100e-01   2.9391900e-01   2.0658200e-02
   1.1580600e-01   2.9181500e-01   4.6823800e-02
   8.9192200e-02   3.4534500e-01   9.1212000e-02
   4.2268000e-02   3.7853800e-01   1.6620500e-01
   8.2655500e-02   3.3038500e-01   1.7134400e-01
   3.6198200e-02   3.4347500e-01   2.2834800e-01
   4.2150000e-03   3.2267100e-01   2.6269000e-01
   2.4758900e-02   2.8363400e-01   2.7600700e-01
  -2.1464900e-02   2.5464900e-01   3.2109600e-01
  -5.3448100e-02   2.1701500e-01   3.1525500e-01
  -5.2047400e-02   1.7914700e-01   3.2343200e-01
  -8.5664800e-02   1.5623900e-01   3.4702800e-01
  -1.0247300e-01   1.0107300e-01   3.1058300e-01
  -1.0574200e-01   8.8450700e-02   2.9726600e-01
  -1.2278400e-01   1.0013800e-01   3.1432100e-01
  -9.7337400e-02   4.6375200e-02   2.5030800e-01
  -1.2371800e-01   7.3256700e-02   2.5287800e-01
  -9.8504700e-02   8.0503100e-02   2.7343700e-01
  -3.6872900e-02   3.5155100e-02   2.1152700e-01
  -7.2357900e-02   8.4243100e-02   2.5848500e-01
   2.0556800e-02   5.5257800e-02   2.4750500e-01
   7.3550800e-02   2.5805000e-02   2.4423400e-01
   8.3822800e-02   6.1101600e-02   2.8465100e-01
   1.8304100e-01   2.0896100e-02   2.5661600e-01
   1.9844900e-01   1.6688600e-02   2.9890200e-01
   2.6241500e-01   3.3647000e-03   2.7624000e-01
   3.0420300e-01  -7.6216800e-03   2.7063400e-01
   3.2241300e-01   1.1546000e-02   3.0661100e-01
   4.0972400e-01  -3.8009500e-02   2.5568200e-01
   4.0598900e-01  -2.6088100e-02   2.5451400e-01
   4.3797200e-01  -5.7516600e-03   2.3909500e-01
   4.9283400e-01  -3.2633200e-02   1.8816500e-01
   4.8396300e-01  -1.0193000e-02   1.4541200e-01
   5.0497400e-01   4.7672100e-03   1.0873400e-01
   5.3135400e-01   6.1697300e-03   6.6214400e-02
   5.2341700e-01   7.8060000e-03  -9.4790400e-03
   4.9727000e-01   1.9259900e-02  -4.9895600e-02
   5.1034300e-01   1.1779800e-02  -1.1974900e-01
   4.7789300e-01   1.8792400e-02  -1.7745300e-01
   4.3447100e-01  -8.0891800e-03  -2.4053100e-01
   4.2139700e-01  -3.3568200e-02  -3.0267400e-01
   3.5603000e-01  -2.8425700e-02  -3.2580300e-01
   2.9813300e-01  -8.7097600e-02  -4.0827200e-01
   2.3790200e-01  -8.3825000e-02  -4.2812900e-01
   1.5922800e-01  -1.0953800e-01  -4.3093300e-01
   1.0319900e-01  -1.6984600e-01  -4.9845000e-01
   7.2499000e-03  -1.6447000e-01  -4.8676800e-01
  -6.7922300e-02  -2.0490900e-01  -4.7251800e-01
  -1.0060600e-01  -2.2828400e-01  -4.9681400e-01
  -2.0425900e-01  -2.2571300e-01  -4.4985600e-01
  -2.3180700e-01  -2.4862100e-01  -4.2789600e-01
  -2.5795400e-01  -2.3366000e-01  -3.9612300e-01
  -3.3709500e-01  -2.1402500e-01  -3.3351300e-01
  -3.3242600e-01  -2.2033700e-01  -3.1388800e-01
  -3.7584800e-01  -1.6937900e-01  -2.2184100e-01
  -3.9359000e-01  -1.5067800e-01  -1.8282600e-01
  -3.9592500e-01  -1.5792500e-01  -1.5362400e-01
  -4.3304400e-01  -1.0135600e-01  -5.1063700e-02
  -4.1740300e-01  -9.8084000e-02  -3.8214500e-02
  -4.5568900e-01  -6.8864900e-02   8.0426000e-03
  -4.7039700e-01  -3.0295700e-02   7.0186000e-02
  -4.5802400e-01  -5.9854100e-03   9.7753400e-02
  -4.9210800e-01   4.2167600e-02   1.3396500e-01
  -4.8767200e-01   6.0400300e-02   1.6083100e-01
  -4.7063000e-01   1.1276100e-01   2.0054700e-01
  -4.7086400e-01   1.6371900e-01   2.1877000e-01
  -4.4471700e-01   1.8288700e-01   2.2928200e-01
  -3.8261800e-01   2.1000200e-01   2.4820600e-01
  -3.4993500e-01   2.8199800e-01   2.6829700e-01
  -2.9530600e-01   3.0747700e-01   2.6339100e-01
  -2.1429800e-01   3.2290500e-01   2.7717500e-01
  -1.4683000e-01   3.8321300e-01   3.0661100e-01
  -6.2786300e-02   3.8344600e-01   2.8535200e-01
   6.3160900e-03   3.9419900e-01   2.9983600e-01
   8.9659100e-02   4.0588700e-01   3.1642300e-01
   1.4358700e-01   4.1593800e-01   2.9726600e-01
   1.8304100e-01   4.1874300e-01   3.0427500e-01
   2.5681200e-01   3.6918800e-01   2.9049100e-01
   2.6731800e-01   3.8929000e-01   2.8511800e-01
   2.7665600e-01   3.8531700e-01   2.6759600e-01
   3.0747200e-01   3.1776200e-01   2.3862700e-01
   2.9953400e-01   3.0584100e-01   2.2414300e-01
   2.9603200e-01   2.8410200e-01   1.6807400e-01
   2.8482700e-01   2.3618200e-01   1.2275100e-01
   2.6801800e-01   1.9527600e-01   8.1633500e-02
   2.5704600e-01   1.6114800e-01   4.3046500e-03
   2.0475200e-01   1.3543500e-01  -4.6391300e-02
   2.0428500e-01   8.0736800e-02  -1.0199300e-01
   1.9751500e-01   3.2350000e-02  -1.8165800e-01
   1.2374300e-01   3.1882500e-02  -2.1646800e-01
   1.5129100e-01  -3.3334500e-02  -2.9239500e-01
   1.1697300e-01  -6.1618500e-02  -3.3327900e-01
   6.1644700e-02  -6.3254800e-02  -3.6481800e-01
   8.2422100e-02  -1.2893900e-01  -4.2509200e-01
   3.3396700e-02  -1.3899100e-01  -4.0359900e-01
   1.3319700e-02  -1.6750800e-01  -4.4097900e-01
  -1.7963100e-02  -1.8831200e-01  -4.3490400e-01
  -4.6211000e-02  -2.1612900e-01  -3.9308600e-01
  -6.1152100e-02  -2.6077600e-01  -4.0406600e-01
  -1.3469000e-01  -2.3810200e-01  -3.4753000e-01
  -1.4566200e-01  -2.5236100e-01  -3.0103900e-01
  -1.6737400e-01  -2.6124300e-01  -2.5781900e-01
  -2.2877200e-01  -2.1262300e-01  -1.9030200e-01
  -2.4534700e-01  -2.0070100e-01  -1.3423300e-01
  -2.7009300e-01  -1.8410500e-01  -7.5360400e-02
  -3.1561700e-01  -1.2052400e-01  -2.8636000e-02
  -3.5250300e-01  -9.0603900e-02   2.2059900e-02
  -3.5670500e-01  -8.2422500e-02   5.2664400e-02
  -3.9709200e-01  -3.6139500e-02   9.8921500e-02
  -4.3491200e-01  -1.5101800e-02   1.2158300e-01
  -4.4961900e-01  -7.3879200e-03   1.4377700e-01
  -4.7693400e-01   1.0143500e-02   1.8723100e-01
  -4.8930700e-01  -2.0116100e-03   1.7391400e-01
  -5.2199000e-01   2.6038700e-02   2.2461000e-01
  -4.9420900e-01   4.0659600e-03   2.4867300e-01
  -4.8020200e-01  -1.7673000e-02   2.5381300e-01
  -4.7740000e-01   1.6688600e-02   3.1128400e-01
  -3.9125600e-01  -3.8009500e-02   3.2576800e-01
  -3.3802800e-01  -4.1282100e-02   3.4843000e-01
  -2.7919800e-01  -1.7439300e-02   3.7225900e-01
  -1.6177100e-01  -3.9412000e-02   3.8767800e-01
  -5.1813900e-02  -3.4269500e-02   3.9445300e-01
   4.0166900e-02  -1.2530500e-02   3.9351900e-01
   1.7020100e-01  -6.6866700e-03   3.8394000e-01
   2.9930100e-01  -1.1361700e-02   3.5941000e-01
   3.9361600e-01   2.0896100e-02   3.1338600e-01
   4.8886500e-01   3.5155100e-02   2.5568200e-01
   5.6870700e-01   5.2920300e-02   2.1433100e-01
   6.3991000e-01   4.7076400e-02   1.1036900e-01
   6.5461800e-01   7.6996800e-02   4.5655700e-02
   6.8333200e-01   1.0177500e-01  -1.8590300e-02
   6.9850700e-01   8.0736800e-02  -1.2909300e-01
   6.5181600e-01   1.1042300e-01  -1.8492900e-01
   6.4668000e-01   9.9670800e-02  -2.7066800e-01
   5.9998900e-01   9.4294500e-02  -3.2370000e-01
   5.4816300e-01   8.8918200e-02  -3.8304000e-01
   4.9703600e-01   9.6865800e-02  -4.2392400e-01
   4.3190300e-01   8.9385700e-02  -4.1831700e-01
   4.0598900e-01   4.3102600e-02  -4.5943500e-01
   3.2708200e-01   4.8245200e-02  -4.3583900e-01
   2.8412600e-01   2.3467400e-02  -3.9565600e-01
   2.9066300e-01  -3.4503200e-02  -3.8631100e-01
   2.2156100e-01  -4.4087100e-02  -3.2510200e-01
   2.2249400e-01  -8.2422500e-02  -2.7744300e-01
   2.2996500e-01  -1.0977200e-01  -2.1343100e-01
   1.9074500e-01  -1.0860300e-01  -1.4825000e-01
   2.0872100e-01  -1.3665300e-01  -1.0713300e-01
   1.9798200e-01  -1.2800400e-01  -1.3917900e-02
   2.0755300e-01  -1.5067800e-01   2.9029200e-03
   1.8257400e-01  -1.4319800e-01   3.4675500e-02
   1.7883900e-01  -1.2005700e-01   8.3502500e-02
   1.9097800e-01  -1.4226300e-01   6.5980800e-02
   1.3424900e-01  -1.2496600e-01   6.8784300e-02
   1.3448200e-01  -1.0790200e-01   5.1963500e-02
   9.9697700e-02  -1.1561500e-01   4.6590200e-02
   5.7442500e-02  -1.1842000e-01  -1.0880800e-02
   2.5808300e-03  -1.0509700e-01  -3.4476600e-02
  -5.2280800e-02  -1.2169300e-01  -4.3587800e-02
  -9.5002900e-02  -1.3548400e-01  -9.7554500e-02
  -1.8418200e-01  -1.3548400e-01  -9.2414800e-02
  -2.1196300e-01  -1.5021100e-01  -1.1133800e-01
  -2.6962600e-01  -1.3712100e-01  -1.0316100e-01
  -3.1748400e-01  -1.4413300e-01  -1.0082500e-01
  -3.2962400e-01  -1.4483400e-01  -9.5218300e-02
  -3.6114000e-01  -1.0953800e-01  -2.9336900e-02
  -3.3476000e-01  -1.1818700e-01  -2.2795500e-02
  -3.4946800e-01  -8.7331300e-02   3.0236700e-02
  -3.1981900e-01  -4.6190900e-02   1.1971400e-01
  -2.5258400e-01  -2.9126900e-02   1.4751500e-01
  -2.5421800e-01   1.7156100e-02   2.2040500e-01
  -1.6107000e-01   2.2999900e-02   2.6783000e-01
  -1.0177300e-01   8.1438100e-02   3.1852600e-01
  -7.3058200e-02   1.2164400e-01   3.6104500e-01
   2.0089900e-02   1.2678600e-01   3.6268100e-01
   6.4679600e-02   1.9013300e-01   4.1150800e-01
   1.0716800e-01   1.9223700e-01   3.8370700e-01
   1.4195300e-01   2.1631300e-01   3.6104500e-01
   1.7487000e-01   2.3618200e-01   3.5730700e-01
   1.8957700e-01   2.4483100e-01   3.0100400e-01
   1.8537500e-01   2.6563500e-01   2.4703800e-01
   1.8584200e-01   2.5371400e-01   2.0685500e-01
   1.8630900e-01   2.7147900e-01   1.4354300e-01
   1.5852800e-01   2.9742600e-01   7.1587700e-02
   1.4218600e-01   3.1191800e-01   2.3928900e-02
   1.6716600e-01   2.7872500e-01  -5.8539600e-02
   1.2724500e-01   3.1682700e-01  -9.3582900e-02
   1.4288700e-01   3.2126800e-01  -1.5082000e-01
   1.6296400e-01   2.7989400e-01  -1.8679800e-01
   1.6296400e-01   3.0794400e-01  -1.8960100e-01
   1.9074500e-01   2.8059500e-01  -2.2067300e-01
   1.9284600e-01   2.5698600e-01  -1.9544200e-01
   2.2926500e-01   2.2706600e-01  -1.9637700e-01
   2.1128900e-01   2.2098800e-01  -1.7605100e-01
   2.1922600e-01   1.7914700e-01  -1.5853000e-01
   2.3533400e-01   1.2725400e-01  -1.4591400e-01
   1.8957700e-01   1.2304600e-01  -1.2091700e-01
   1.6926700e-01   8.8216900e-02  -1.2185100e-01
   1.4802300e-01   6.6711700e-02  -9.7554500e-02
   1.0086500e-01   4.9647700e-02  -9.0312200e-02
   3.1529100e-02   4.6141400e-02  -9.2414800e-02
   9.4664900e-04   5.4684700e-03  -8.1901800e-02
  -5.6249600e-02  -1.4166800e-02  -8.1901800e-02
  -1.5243300e-01   1.9621800e-03  -8.1434600e-02
  -1.8394900e-01  -3.5204500e-02  -1.0105900e-01
  -2.5001600e-01  -5.8112200e-02  -8.9377700e-02
  -3.2262000e-01  -7.7046200e-02  -1.0152600e-01
  -3.8051700e-01  -7.8682500e-02  -1.1390800e-01
  -4.5055300e-01  -1.0299300e-01  -7.7696600e-02
  -4.8487100e-01  -1.4670500e-01  -1.0619800e-01
  -5.7685200e-01  -1.1117400e-01  -6.1343100e-02
  -5.9506100e-01  -1.6283300e-01  -4.6624900e-02
  -6.1117000e-01  -1.9672800e-01  -4.4755900e-02
  -6.8284000e-01  -1.5792500e-01   2.2994400e-02
  -6.5529200e-01  -2.1168800e-01   1.2014200e-02
  -6.6089500e-01  -2.3529700e-01   5.6869600e-02
  -6.6182900e-01  -2.2173900e-01   1.0055700e-01
  -6.3708300e-01  -2.3482900e-01   1.2625500e-01
  -5.9926300e-01  -2.6217800e-01   1.7578300e-01
  -5.5584100e-01  -2.4184200e-01   2.1573200e-01
  -5.3319600e-01  -2.1566200e-01   2.6596100e-01
  -4.5942400e-01  -2.2010300e-01   2.8371600e-01
  -4.0059400e-01  -1.8831200e-01   3.0988200e-01
  -3.4970100e-01  -1.3361400e-01   3.1268500e-01
  -2.9413900e-01  -7.8916200e-02   3.2086200e-01
  -2.1383100e-01  -8.9902600e-02   3.0240600e-01
  -1.6270500e-01  -2.0010600e-02   2.5498100e-01
