**************************************************************************************
  	RED ACELEROGRÁFICA DE LA UNIVERSIDAD AUTONOMA METROPOLITANA (RA-UAM)
	   UNIDAD AZCAPOTZALCO. DIVISIÓN CBI-DEPARTAMENTO DE MATERIALES
     Av. San Pablo 420, Col. Nueva el Rosario, Azcapotzalco, C.P. 02128, Ciudad de México
		Área de Estructuras. e-mail: agb@azc.uam.mx
**************************************************************************************
ARCHIVO ESTANDAR DE ACELERACION:
VERSION DEL FORMATO                    : 2.0
NOMBRE DEL ARCHIVO                     : RUML202402.181
FECHA Y HORA DE CREACION               : 11:30 a. m. 23/02/2024
REF. CATALOGO ACELEROGRAMAS, SMIS 1999 : REGISTRO NO.      /PAG.    


================================================================================
DATOS DE LA ESTACION:
NOMBRE DE LA ESTACION                  : UAM-LERMA.
CLAVE DE LA ESTACION                   : RUML
LOCALIZACION DE LA ESTACION            : AV. DE LAS GARZAS 10, EL PANTEON, C.P.52005,
                                       : LERMA DE VILLADA, ESTADO DE MEXICO.   
                                       : 
                                       : 
                                       : 
COORDENADAS DE LA ESTACION             : 19.291278 LAT. N
                                       : 99.500578 LONG. W
ALTITUD (msnm)                         : 2570
TIPO DE SUELO                          : DEPOSITOS LACUSTRES
                                       : 
                                       : 
INSTITUCION RESPONSABLE                : UNIVERSIDAD AUTONOMA METROPOLITANA
                                       : 

================================================================================
DATOS DEL ACELEROGRAFO: 
MODELO DEL ACELEROGRAFO                : ETNA2 KINEMETRICS
NUMERO DE SERIE DEL ACELEROGRAFO       : 103733
NUMERO DE CANALES                      : 3
ORIENTACION C1-C6 (rumbo;orientacion)  : /N90E/N00E/V 
ORIENTACION C7-C12 (rumbo;orientacion) : 
VEL. DE MUESTREO, C1-C6 (muestras/s)   : /200/200/200
VEL. DE MUESTREO, C7-C12 (muestras/s)  : 
ESC. COMPLETA DE SENSORES, C1-C6, (g)  : /2/2/2
ESC. COMPLETA DE SENSORES, C7-C12 (g)  : 
FREC. NAT. DE SENSORES, C1-C6, (Hz)    : /212/206/208   
FREC. NAT. DE SENSORES, C7-C12 (Hz)    : 
AMORTIGUAMIENTO DE SENSORES, C1-C6     : /0.7/0.7/0.7      
AMORTIGUAMIENTO DE SENSORES, C7-C12    : 
INTERVALO DE MUESTREO, C1-C6 (s)       : /0.005/0.005/0.005
INTERVALO DE MUESTREO, C7-C12 (s)      : 
UMBRAL DE DISPARO, C1-C6 (Gal)         : /2/2/2
UMBRAL DE DISPARO, C7-C12 (Gal)        : 
MEMORIA DE PREEVENTO (s)               : 50
TIEMPO DE POSEVENTO (s)                : 60


================================================================================
DATOS DEL SISMO:
FECHA DEL SISMO [GMT]                  : 2024/02/18
HORA EPICENTRO (GMT)                   : 00:01:32
MAGNITUD(ES)                           : /M=5.0
COORDENADAS DEL EPICENTRO              : 17.2100 LAT. N
                                       : -100.0700 LONG. W
PROFUNDIDAD FOCAL (Km)                 : 23.4
FUENTE DE LOS DATOS EPICENTRALES       : SSN
                                       : INSTITUTO DE GEOFISICA, UNAM

================================================================================
DATOS DE ESTE REGISTRO:
HORA DE LA PRIMERA MUESTRA (GMT)       : 00:01:46.000
EXACTITUD DEL TIEMPO (s)               : 
DURACION DEL REGISTRO (s), C1-C6       : /167/167/167
DURACION DEL REGISTRO (s), C7-C12      : 
NUM. TOTAL DE MUESTRAS, C1-C6          : /33400/33400/33400
NUM. TOTAL DE MUESTRAS, C7-C12         : 
ACEL. MAX.(Gal), C1-C6                 : /-1.146/-1.271/-0.577
ACEL. MAX., C1-C6, EN LA MUESTRA       : /11639/11692/13193
ACEL. MAX.(Gal), C7-C12                : 
ACEL. MAX., C7-C12,EN LA MUESTRA       : 
UNIDADES DE LOS DATOS                  : Gal (cm/s/s)
FACTOR DE DECIMACION                   : 1
FORMATO DATOS (FORTRAN,16 campos/dato) : 3E16.7


================================================================================
CALIDAD DEL ACELEROGRAMA:
REGISTRO DIGITAL COMPLETO CON TIEMPO ABSOLUTO CORRECTO


================================================================================
COMENTARIOS:














================================================================================
DATOS DE ACELERACION:
---------+---------+---------+---------+---------+---------+---------+---------+
   CANAL-1   	     CANAL-2          CANAL-3
     N90E              N00E              V
---------+---------+---------+---------+---------+---------+---------+---------+
[...]
  -5.4656600e-01  -1.8536300e-01   1.0993800e-02
  -4.6652000e-01  -2.9404100e-01   5.3364000e-02
  -4.1549700e-01  -3.5293700e-01   1.6245000e-01
  -4.2883800e-01  -3.6438900e-01   2.6381100e-01
  -4.3000800e-01  -3.0338900e-01   2.8722000e-01
  -3.7289900e-01  -2.7417500e-01   2.2939900e-01
  -2.9800200e-01  -3.5737800e-01   1.9569100e-01
  -1.7676300e-01  -4.1019700e-01   2.7481300e-01
  -6.8397200e-02  -3.9453800e-01   3.7172600e-01
  -8.4546800e-02  -3.5176900e-01   4.0449900e-01
  -7.3780400e-02  -2.9287200e-01   3.6985300e-01
   7.3906500e-02  -3.0642800e-01   2.7715400e-01
   1.8437900e-01  -3.7747700e-01   2.5819200e-01
   2.6512700e-01  -4.0786000e-01   3.5159400e-01
   3.3908800e-01  -3.7607500e-01   4.2767300e-01
   2.9812900e-01  -3.0666200e-01   4.0356200e-01
   3.0187300e-01  -2.5150500e-01   3.0875600e-01
   4.4136800e-01  -2.9848100e-01   2.3384700e-01
   5.2211600e-01  -3.7958100e-01   2.6498100e-01
   5.2586100e-01  -3.6111700e-01   3.3076000e-01
   5.1018000e-01  -2.9334000e-01   3.3193100e-01
   4.6079500e-01  -2.4145500e-01   2.6357700e-01
   4.8747700e-01  -2.4940100e-01   1.4161600e-01
   5.6939500e-01  -2.9894900e-01   9.5968400e-02
   6.0895000e-01  -3.3096800e-01   1.3974300e-01
   6.0075800e-01  -3.0362300e-01   1.7040900e-01
   5.3522300e-01  -2.2042100e-01   1.3810400e-01
   5.2281900e-01  -1.7391100e-01   2.8082400e-02
   6.0052400e-01  -2.1481100e-01  -7.7258000e-02
   6.4522800e-01  -2.8399100e-01  -9.2005600e-02
   6.5061100e-01  -2.6319000e-01  -3.9803600e-02
   6.3727000e-01  -1.9681500e-01  -1.9203800e-02
   5.7758700e-01  -1.1828700e-01  -7.5385300e-02
   5.7267200e-01  -5.5417600e-02  -1.7932100e-01
   6.6418600e-01  -9.5149200e-02  -2.3058700e-01
   7.1567800e-01  -1.2483100e-01  -1.8517300e-01
   6.8314400e-01  -6.5233600e-02  -1.1049900e-01
   6.4897300e-01   3.0823400e-02  -7.1405800e-02
   6.4054700e-01   1.0911800e-01  -1.1635100e-01
   6.6301600e-01   1.1846700e-01  -1.9711200e-01
   7.2480600e-01   9.5796200e-02  -1.8891900e-01
   7.7442500e-01   1.1379200e-01  -9.3176100e-02
   7.3838100e-01   1.7759700e-01  -2.2715100e-02
   6.5131300e-01   2.9305200e-01  -3.9803600e-02
   6.7284600e-01   3.5078000e-01  -1.4046200e-01
   7.4048700e-01   2.7739300e-01  -2.2590500e-01
   7.5546600e-01   2.4490700e-01  -1.8845100e-01
   7.7442500e-01   2.8557300e-01  -9.9262400e-02
   7.2457200e-01   3.5288300e-01  -7.1873900e-02
   6.4405800e-01   4.1809000e-01  -1.3648300e-01
   6.7986800e-01   4.0920800e-01  -2.3222500e-01
   7.5874300e-01   3.4376800e-01  -2.3924800e-01
   7.6997800e-01   2.8861100e-01  -1.5146400e-01
   7.1567800e-01   3.0801000e-01  -6.8362600e-02
   6.4335500e-01   3.7929300e-01  -6.5085300e-02
   6.2861000e-01   3.8700500e-01  -1.4467600e-01
   6.6231400e-01   2.8931200e-01  -2.0366600e-01
   6.9812400e-01   2.0634400e-01  -1.4163300e-01
   7.1333700e-01   1.8157000e-01  -4.3549100e-02
   6.3469600e-01   2.0517500e-01  -1.1947000e-02
   5.5675600e-01   2.5706000e-01  -5.2210400e-02
   6.0192800e-01   2.1522500e-01  -1.4210100e-01
   6.4850500e-01   1.0140500e-01  -1.5825300e-01
   6.6184600e-01   6.4244600e-02  -6.6021700e-02
   6.6886700e-01   8.3643000e-02   2.8082400e-02
   5.9935400e-01   1.3599500e-01   5.6407200e-02
   5.5862900e-01   1.9465800e-01   5.6097500e-03
   6.3118500e-01   1.4604500e-01  -3.8867300e-02
   7.0444300e-01   7.8968700e-02   1.6143800e-02
   7.1731600e-01   8.1072100e-02   1.2382500e-01
   6.6816500e-01   1.4020200e-01   1.9662700e-01
   6.3493000e-01   2.1312100e-01   1.8937000e-01
   6.5716500e-01   2.0704500e-01   1.1375900e-01
   6.9250600e-01   1.5025200e-01   9.5968400e-02
   7.6155200e-01   1.3132100e-01   1.8632700e-01
   7.5967900e-01   1.5188800e-01   2.7762200e-01
   6.4171700e-01   2.0751200e-01   3.0290400e-01
   6.0192800e-01   2.8113200e-01   2.4484900e-01
   6.4522800e-01   2.3649300e-01   1.5776800e-01
   6.4756800e-01   1.4838200e-01   1.4863900e-01
   6.3188700e-01   1.5796400e-01   2.1160900e-01
   5.7711900e-01   1.6497600e-01   2.4578600e-01
   4.6313500e-01   2.0190300e-01   1.9686100e-01
   4.0930300e-01   2.3392200e-01   9.1988800e-02
   4.3341100e-01   1.6357400e-01   2.3166500e-02
   4.3598500e-01   9.1121900e-02   6.1323100e-02
   3.7255700e-01   7.1723500e-02   1.3763600e-01
   2.7144700e-01   1.3085300e-01   1.7064300e-01
   1.9467700e-01   1.8063500e-01   1.2850700e-01
   1.6542100e-01   1.2337500e-01   5.1023100e-02
   1.6940000e-01   7.5696700e-02   5.5704900e-02
   1.7103800e-01   6.5179500e-02   1.3318900e-01
   9.1928500e-02   5.1390300e-02   1.9452000e-01
  -2.8842400e-02   1.3272300e-01   1.8609300e-01
  -6.6524800e-02   1.9512500e-01   8.4498000e-02
  -5.7396700e-02   9.6731100e-02  -9.3719900e-03
  -4.5694100e-02   4.9520600e-02   2.8006700e-03
  -4.3353600e-02   6.8217800e-02   6.8111700e-02
  -9.6483500e-02   1.0818300e-01   1.0322500e-01
  -1.5265600e-01   2.0260400e-01   5.8514000e-02
  -1.2339900e-01   2.0330500e-01  -2.8801400e-02
  -3.7502300e-02   1.4067000e-01  -3.1376400e-02
   4.2777600e-02   1.5071900e-01   6.1791300e-02
   5.7288800e-02   2.0143600e-01   1.6338600e-01
   3.1777100e-02   2.8954600e-01   2.0365000e-01
   7.8353500e-02   3.8326600e-01   1.3482700e-01
   1.7220800e-01   3.3301700e-01   6.4132200e-02
   2.8314900e-01   3.0707500e-01   1.1375900e-01
   3.7325900e-01   3.4937700e-01   2.0107500e-01
   3.5336500e-01   4.0687100e-01   2.2542000e-01
   3.3604500e-01   5.3377900e-01   1.7883600e-01
   4.2732500e-01   5.6042200e-01   6.0854900e-02
   4.8864700e-01   5.1110800e-01  -2.2012800e-02
   5.4739400e-01   4.9942200e-01   1.4505200e-02
   6.0941800e-01   5.3190900e-01   5.4300400e-02
   5.3779800e-01   6.0179000e-01   3.0891400e-02
   5.0573300e-01   6.7260500e-01  -5.7828600e-02
   5.7524600e-01   6.5133700e-01  -1.5801900e-01
   6.1058800e-01   6.0552900e-01  -1.7229800e-01
   6.1761000e-01   6.0389300e-01  -1.1588300e-01
   5.8039500e-01   6.1861700e-01  -7.8896600e-02
   4.9403000e-01   6.9130300e-01  -1.1869200e-01
   4.6477400e-01   6.9013400e-01  -2.2309600e-01
   4.8232800e-01   6.0412700e-01  -2.8887500e-01
   4.9637100e-01   5.5995500e-01  -2.3620500e-01
   4.7530600e-01   5.2863700e-01  -1.4935800e-01
   3.6436500e-01   5.6369400e-01  -1.1658500e-01
   2.8993700e-01   6.3614600e-01  -1.6621200e-01
   2.8806400e-01   5.7538000e-01  -2.4767500e-01
   2.8829800e-01   4.8540000e-01  -2.4510000e-01
   2.9812900e-01   4.6413100e-01  -1.5684800e-01
   2.4429700e-01   4.4894000e-01  -7.6789800e-02
   1.2282300e-01   4.7044200e-01  -6.8362600e-02
   7.9523800e-02   5.1578300e-01  -1.3086500e-01
   1.0948200e-01   4.6039200e-01  -1.7463900e-01
   1.1884500e-01   3.7976000e-01  -1.2033000e-01
   9.6843600e-02   3.8279900e-01  -2.1310600e-02
   1.1648700e-02   3.9495200e-01   2.6911900e-02
  -6.9099300e-02   4.6787100e-01  -2.1076500e-02
  -7.5886900e-02   4.6483300e-01  -1.1916000e-01
  -5.5758400e-02   3.5311700e-01  -1.4818700e-01
  -3.0714800e-02   3.3114700e-01  -8.7792000e-02
  -8.5483000e-02   3.3605600e-01  -4.4719500e-02
  -2.2029700e-01   3.7415100e-01  -5.5487700e-02
  -2.5259600e-01   4.2229600e-01  -1.3952600e-01
  -2.4019100e-01   3.6410100e-01  -2.5352800e-01
  -2.6874600e-01   2.7435500e-01  -2.6312500e-01
  -2.5891600e-01   2.5051600e-01  -1.9687800e-01
  -3.4504700e-01   2.6710900e-01  -1.7440500e-01
  -5.0209600e-01   3.0240100e-01  -2.3105500e-01
  -5.1801100e-01   3.0403700e-01  -3.2398900e-01
  -4.8641400e-01   2.0166900e-01  -3.7033800e-01
  -5.2433100e-01   1.4651200e-01  -3.1626400e-01
  -5.7465200e-01   1.7993400e-01  -2.2567100e-01
  -6.7880500e-01   2.1078400e-01  -2.0647500e-01
  -7.9793800e-01   2.4958100e-01  -2.7576600e-01
  -8.0261900e-01   2.0050100e-01  -3.6144300e-01
  -7.9044800e-01   1.1192300e-01  -3.5020700e-01
  -8.1876800e-01   9.3459000e-02  -2.5071800e-01
  -8.9975000e-01   1.1496100e-01  -1.8587600e-01
  -1.0235600e+00   1.7175400e-01  -1.8962100e-01
  -1.0537600e+00   1.7759700e-01  -2.5797500e-01
  -1.0238000e+00   9.8133300e-02  -2.9051400e-01
  -1.0146700e+00   4.7650900e-02  -1.9687800e-01
  -1.0062400e+00   3.7133700e-02  -7.4917100e-02
  -1.0783300e+00   5.3260000e-02  -4.4561100e-03
  -1.1464400e+00   1.0327500e-01  -2.6460500e-02
  -1.0654600e+00   6.7516600e-02  -7.1171700e-02
  -9.8752000e-01  -2.4567200e-02  -2.3885500e-02
  -9.6060400e-01  -3.6019200e-02   7.6773000e-02
  -9.5100800e-01  -3.2990800e-03   1.5893800e-01
  -9.7886000e-01   3.9237100e-02   1.5612900e-01
  -9.6271100e-01   7.4060700e-02   6.8579900e-02
  -8.8172800e-01   2.2643300e-02   3.2688500e-03
  -7.8061800e-01  -3.9524900e-02   2.5975500e-02
  -7.3942500e-01  -3.8122700e-02   8.4029800e-02
  -7.8506500e-01  -6.5710900e-03   1.0720500e-01
  -7.9653300e-01   8.5512700e-02   6.7877600e-02
  -7.3287100e-01   1.1542800e-01  -3.0206000e-02
  -6.8184800e-01   3.4796500e-02  -6.8596700e-02
  -6.2380300e-01   3.0823400e-02  -1.1712900e-02
  -6.0648300e-01   8.0371000e-02   3.2764100e-02
  -7.0127400e-01   1.2501100e-01   2.5039200e-02
  -7.2374300e-01   1.6287200e-01  -4.9167200e-02
  -6.3597400e-01   1.1963500e-01  -1.2220300e-01
  -5.8448200e-01   4.2742800e-02  -9.9730600e-02
  -5.7207700e-01   4.6472400e-03  -1.0776500e-02
  -5.9641900e-01   4.1808000e-02   6.2025400e-02
  -6.5563400e-01   7.4060700e-02   3.9552800e-02
  -6.4322900e-01   1.9605000e-02  -4.8230900e-02
  -5.4071400e-01  -7.7620500e-02  -6.6021700e-02
  -4.6722200e-01  -1.9798400e-01   2.2464200e-02
  -4.7915900e-01  -2.2509500e-01   1.3061400e-01
  -5.2105400e-01  -1.9073900e-01   1.7930400e-01
  -5.1848000e-01  -2.1691500e-01   1.3740200e-01
  -4.5739200e-01  -3.0479200e-01   7.5602600e-02
  -3.7828200e-01  -4.1019700e-01   1.0205500e-01
  -3.4364300e-01  -4.6558800e-01   2.0365000e-01
  -3.5511100e-01  -4.8825800e-01   2.5912900e-01
  -4.0402800e-01  -4.6792500e-01   2.1020400e-01
  -4.0730500e-01  -5.1209700e-01   1.0299100e-01
  -2.9378900e-01  -6.4601600e-01   4.9852700e-02
  -2.4276600e-01  -7.2080500e-01   1.0158700e-01
  -2.6359700e-01  -7.6077000e-01   1.7017500e-01
  -2.6546900e-01  -7.4511100e-01   1.8375200e-01
  -3.0853500e-01  -7.2898500e-01   9.5032000e-02
  -2.7249100e-01  -8.0704600e-01  -2.3885500e-02
  -1.6248600e-01  -9.0053200e-01  -4.9635400e-02
  -1.3674000e-01  -9.8163100e-01  -1.1712900e-02
  -1.6576300e-01  -9.8467000e-01   6.0779300e-03
  -1.8214700e-01  -9.4937900e-01  -3.8399100e-02
  -1.6272000e-01  -9.8233200e-01  -1.3788700e-01
  -9.6483500e-02  -1.0669400e+00  -2.1162500e-01
  -1.5267300e-02  -1.1431300e+00  -1.8657800e-01
   9.5421800e-03  -1.1585500e+00  -1.1377600e-01
  -1.9246200e-02  -1.1440600e+00  -7.6087500e-02
  -5.8098900e-02  -1.1085400e+00  -1.1986200e-01
  -2.7672100e-02  -1.1113400e+00  -2.1654100e-01
   7.0395700e-02  -1.2165200e+00  -2.4205700e-01
   9.5439300e-02  -1.2712000e+00  -1.6293500e-01
   6.8757400e-02  -1.2202500e+00  -7.3746600e-02
   1.8202100e-02  -1.1594900e+00  -5.2444500e-02
  -3.2353200e-02  -1.1218600e+00  -1.1190300e-01
   1.2584900e-02  -1.1494400e+00  -1.6738300e-01
   6.8523300e-02  -1.1989900e+00  -1.0886000e-01
   4.9799200e-02  -1.2193200e+00   6.9386600e-04
  -1.4799200e-02  -1.1611200e+00   6.1791300e-02
  -7.0035600e-02  -1.0571200e+00   4.2361800e-02
  -7.3078200e-02  -1.0529100e+00  -5.5253600e-02
  -3.0948800e-02  -1.0994200e+00  -9.7389700e-02
   1.3287000e-02  -1.1218600e+00  -3.4653700e-02
  -3.5647400e-03  -1.0994200e+00   2.6677800e-02
  -8.8993800e-02  -9.9705600e-01   2.5741500e-02
  -1.0818600e-01  -9.1993000e-01  -4.4953600e-02
  -3.6800100e-02  -9.2600700e-01  -1.3226900e-01
   3.9249300e-03  -9.7835900e-01  -1.1354200e-01
   3.2011200e-02  -9.8443600e-01  -1.3117400e-02
   2.1010700e-02  -8.9492300e-01   4.7980000e-02
  -3.0012600e-02  -7.8390800e-01   3.7211900e-02
  -1.2224700e-02  -7.1192400e-01  -4.7294500e-02
   5.8693100e-02  -7.5048700e-01  -1.0488100e-01
   1.2305700e-01  -7.8016900e-01  -6.9298900e-02
   1.2820700e-01  -7.3412700e-01  -1.0308300e-02
   7.6949200e-02  -6.5700100e-01   7.2483800e-03
   6.5480600e-02  -5.6000900e-01  -4.3080900e-02
   1.1018500e-01  -5.6351500e-01  -1.3273700e-01
   1.6027200e-01  -6.1984000e-01  -1.3765300e-01
   2.1059300e-01  -6.1773700e-01  -2.9737800e-02
   1.9491100e-01  -5.6608500e-01   6.2493500e-02
   1.1486600e-01  -4.6535400e-01   8.8009300e-02
   1.2984500e-01  -4.1019700e-01   3.0891400e-02
   2.2018900e-01  -4.7166400e-01  -1.7096900e-02
   2.5131800e-01  -5.2775600e-01   4.8682200e-02
   2.4616900e-01  -4.9176400e-01   1.4606400e-01
   2.2416800e-01  -4.1674100e-01   1.9943600e-01
   1.8133600e-01  -3.6018200e-01   1.6151300e-01
   1.8367700e-01  -3.4429000e-01   7.6070700e-02
   2.5389300e-01  -3.8963000e-01   7.1857100e-02
   3.0046900e-01  -4.3941200e-01   1.6877000e-01
   2.3610500e-01  -4.0879500e-01   2.7340800e-01
   1.6518700e-01  -3.1601000e-01   2.9962600e-01
   1.5465500e-01  -2.7581100e-01   2.4391300e-01
   1.6729300e-01  -3.3797900e-01   1.9475400e-01
   1.8250700e-01  -3.7654200e-01   2.4133800e-01
   1.6191000e-01  -3.6672600e-01   3.2959000e-01
   1.0456700e-01  -3.2909800e-01   3.7055600e-01
   8.6059700e-03  -2.3070400e-01   3.2046000e-01
  -5.4371600e-03  -2.2509500e-01   2.1488600e-01
   5.5182400e-02  -2.9871500e-01   1.6362000e-01
   4.3479700e-02  -3.1904800e-01   2.0107500e-01
   1.8436200e-02  -3.0455800e-01   2.7153600e-01
  -1.2224700e-02  -2.0826700e-01   2.8230400e-01
  -6.4652400e-02  -1.2716800e-01   1.9639300e-01
  -3.8906600e-02  -1.5194200e-01   1.0088400e-01
   4.4884100e-02  -1.9050500e-01   1.0556600e-01
   6.2203900e-02  -1.9985400e-01   1.7321800e-01
   2.0308600e-02  -1.3044000e-01   2.2378100e-01
  -6.1393100e-03  -2.2463700e-02   1.9615900e-01
   3.9249300e-03  -2.6078100e-04   7.9816200e-02
   4.3245700e-02  -5.8222200e-02   1.9655100e-02
   9.9886300e-02  -7.9490300e-02   7.9816200e-02
   1.0105700e-01  -3.5785500e-02   1.6760000e-01
   1.7968100e-02   3.6198800e-02   1.9077500e-01
  -2.5565600e-02   1.3412600e-01   1.3599800e-01
   1.5861600e-02   1.2571200e-01   5.3130000e-02
   4.8394800e-02   4.1808000e-02   4.7277700e-02
   5.1203500e-02   3.6899900e-02   1.4653200e-01
   2.0308600e-02   7.2658400e-02   2.2284500e-01
  -7.1205800e-02   1.5025200e-01   1.9990400e-01
  -9.5781300e-02   1.9325500e-01   1.0158700e-01
  -3.0012600e-02   1.2384200e-01   4.0020900e-02
  -9.1819900e-03   6.2842300e-02   9.2457000e-02
  -3.7502300e-02   9.6731100e-02   1.6525900e-01
  -8.8057600e-02   1.7339000e-01   1.7883600e-01
  -1.3650600e-01   2.3462300e-01   1.2640000e-01
  -1.1778200e-01   2.4654300e-01   3.7211900e-02
  -7.3312300e-02   2.1405600e-01   2.4805100e-02
  -4.8268700e-02   2.1148500e-01   1.2335700e-01
  -6.2077800e-02   2.7832800e-01   2.1277900e-01
  -1.5523100e-01   4.0196300e-01   2.1605600e-01
  -1.7231600e-01   4.8586700e-01   1.4840400e-01
  -1.0795200e-01   4.8212800e-01   7.7475300e-02
  -1.0022800e-01   4.4894000e-01   9.3861600e-02
  -9.8121800e-02   4.7745300e-01   1.8070900e-01
  -1.2808000e-01   5.7725000e-01   2.1160900e-01
  -2.1795700e-01   6.6769700e-01   1.4138200e-01
  -2.3082900e-01   6.8148700e-01   4.4234500e-02
  -1.4657100e-01   6.3614600e-01  -9.4476200e-04
  -1.4469800e-01   6.3077000e-01   2.7146000e-02
  -1.9057200e-01   6.4853300e-01   9.2457000e-02
  -2.1889300e-01   7.1257100e-01   9.3627500e-02
  -2.6266000e-01   7.8782700e-01  -1.2181100e-02
  -2.4089400e-01   7.2939800e-01  -1.3063000e-01
  -1.5195400e-01   6.4759800e-01  -1.4795300e-01
