**************************************************************************************
  	RED ACELEROGRÁFICA DE LA UNIVERSIDAD AUTONOMA METROPOLITANA (RA-UAM)
	   UNIDAD AZCAPOTZALCO. DIVISIÓN CBI-DEPARTAMENTO DE MATERIALES
     Av. San Pablo 420, Col. Nueva el Rosario, Azcapotzalco, C.P. 02128, Ciudad de México
		Área de Estructuras. e-mail: agb@azc.uam.mx
**************************************************************************************
ARCHIVO ESTANDAR DE ACELERACION:
VERSION DEL FORMATO                    : 2.0
NOMBRE DEL ARCHIVO                     : RUML202406.231
FECHA Y HORA DE CREACION               : 11:30 a. m. 28/06/2024
REF. CATALOGO ACELEROGRAMAS, SMIS 1999 : REGISTRO NO.      /PAG.    


================================================================================
DATOS DE LA ESTACION:
NOMBRE DE LA ESTACION                  : UAM-LERMA.
CLAVE DE LA ESTACION                   : RUML
LOCALIZACION DE LA ESTACION            : AV. DE LAS GARZAS 10, EL PANTEON, C.P.52005,
                                       : LERMA DE VILLADA, ESTADO DE MEXICO.   
                                       : 
                                       : 
                                       : 
COORDENADAS DE LA ESTACION             : 19.291278 LAT. N
                                       : 99.500578 LONG. W
ALTITUD (msnm)                         : 2570
TIPO DE SUELO                          : DEPOSITOS LACUSTRES
                                       : 
                                       : 
INSTITUCION RESPONSABLE                : UNIVERSIDAD AUTONOMA METROPOLITANA
                                       : 

================================================================================
DATOS DEL ACELEROGRAFO: 
MODELO DEL ACELEROGRAFO                : ETNA2 KINEMETRICS
NUMERO DE SERIE DEL ACELEROGRAFO       : 103733
NUMERO DE CANALES                      : 3
ORIENTACION C1-C6 (rumbo;orientacion)  : /N90E/N00E/V 
ORIENTACION C7-C12 (rumbo;orientacion) : 
VEL. DE MUESTREO, C1-C6 (muestras/s)   : /200/200/200
VEL. DE MUESTREO, C7-C12 (muestras/s)  : 
ESC. COMPLETA DE SENSORES, C1-C6, (g)  : /2/2/2
ESC. COMPLETA DE SENSORES, C7-C12 (g)  : 
FREC. NAT. DE SENSORES, C1-C6, (Hz)    : /212/206/208   
FREC. NAT. DE SENSORES, C7-C12 (Hz)    : 
AMORTIGUAMIENTO DE SENSORES, C1-C6     : /0.7/0.7/0.7      
AMORTIGUAMIENTO DE SENSORES, C7-C12    : 
INTERVALO DE MUESTREO, C1-C6 (s)       : /0.005/0.005/0.005
INTERVALO DE MUESTREO, C7-C12 (s)      : 
UMBRAL DE DISPARO, C1-C6 (Gal)         : /2/2/2
UMBRAL DE DISPARO, C7-C12 (Gal)        : 
MEMORIA DE PREEVENTO (s)               : 50
TIEMPO DE POSEVENTO (s)                : 60


================================================================================
DATOS DEL SISMO:
FECHA DEL SISMO [GMT]                  : 2024/06/23
HORA EPICENTRO (GMT)                   : 17:16:18
MAGNITUD(ES)                           : /M=5.2
COORDENADAS DEL EPICENTRO              : 16.6200 LAT. N
                                       : -99.4700 LONG. W
PROFUNDIDAD FOCAL (Km)                 : 11.0
FUENTE DE LOS DATOS EPICENTRALES       : SSN
                                       : INSTITUTO DE GEOFISICA, UNAM

================================================================================
DATOS DE ESTE REGISTRO:
HORA DE LA PRIMERA MUESTRA (GMT)       : 17:16:46.000
EXACTITUD DEL TIEMPO (s)               : 
DURACION DEL REGISTRO (s), C1-C6       : /197/197/197
DURACION DEL REGISTRO (s), C7-C12      : 
NUM. TOTAL DE MUESTRAS, C1-C6          : /39400/39400/39400
NUM. TOTAL DE MUESTRAS, C7-C12         : 
ACEL. MAX.(Gal), C1-C6                 : /-3.575/4.060/-1.265
ACEL. MAX., C1-C6, EN LA MUESTRA       : /13142/12384/13691
ACEL. MAX.(Gal), C7-C12                : 
ACEL. MAX., C7-C12,EN LA MUESTRA       : 
UNIDADES DE LOS DATOS                  : Gal (cm/s/s)
FACTOR DE DECIMACION                   : 1
FORMATO DATOS (FORTRAN,16 campos/dato) : 3E16.7


================================================================================
CALIDAD DEL ACELEROGRAMA:
REGISTRO DIGITAL COMPLETO CON TIEMPO ABSOLUTO CORRECTO


================================================================================
COMENTARIOS:














================================================================================
DATOS DE ACELERACION:
---------+---------+---------+---------+---------+---------+---------+---------+
   CANAL-1   	     CANAL-2          CANAL-3
     N90E              N00E              V
---------+---------+---------+---------+---------+---------+---------+---------+
[...]
   7.8015500e-01   1.7690800e+00   3.1427200e-01
   7.2445100e-01   1.7831000e+00   2.8665000e-01
   7.5745200e-01   1.8053100e+00   2.5785700e-01
   7.3381300e-01   1.7873100e+00   2.2789300e-01
   6.6757600e-01   1.8153600e+00   2.0190900e-01
   7.0502400e-01   1.8085800e+00   1.7335000e-01
   6.9449200e-01   1.7847400e+00   1.4643000e-01
   6.5212900e-01   1.8083400e+00   1.0640100e-01
   6.6336300e-01   1.7842700e+00   7.3159900e-02
   6.5025600e-01   1.7634700e+00   3.9919100e-02
   6.3574500e-01   1.7543600e+00  -8.3033300e-03
   5.9946700e-01   1.7153300e+00  -4.6928100e-02
   5.8612600e-01   1.6938200e+00  -7.7828000e-02
   5.7442300e-01   1.6571300e+00  -1.1247300e-01
   5.0397400e-01   1.6178700e+00  -1.4618200e-01
   4.8244100e-01   1.5844400e+00  -1.7567700e-01
   4.5809900e-01   1.5318600e+00  -2.0002300e-01
   3.7454300e-01   1.4876900e+00  -2.2249500e-01
   3.2703000e-01   1.4369700e+00  -2.3911600e-01
   3.0081600e-01   1.3829800e+00  -2.5269300e-01
   2.2077100e-01   1.3254900e+00  -2.7095200e-01
   1.4938500e-01   1.2612200e+00  -2.7937900e-01
   1.2059600e-01   1.2058300e+00  -2.8593400e-01
   6.1615100e-02   1.1415500e+00  -3.0115000e-01
  -1.6090300e-02   1.0772800e+00  -3.0864000e-01
  -5.8921800e-02   1.0225900e+00  -3.0747000e-01
  -8.8880500e-02   9.4967400e-01  -3.1894000e-01
  -1.5394700e-01   8.8727200e-01  -3.3345400e-01
  -2.0660900e-01   8.4543700e-01  -3.3415600e-01
  -2.2229000e-01   7.7976300e-01  -3.3743300e-01
  -2.6559000e-01   7.2998200e-01  -3.4656300e-01
  -3.0163400e-01   6.8066800e-01  -3.5382000e-01
  -3.1076200e-01   6.1195500e-01  -3.6341700e-01
  -3.2550700e-01   5.7783300e-01  -3.8027200e-01
  -3.5218900e-01   5.2875300e-01  -3.9689200e-01
  -3.5312500e-01   4.6985700e-01  -4.0414900e-01
  -3.3089000e-01   4.3152700e-01  -4.1491700e-01
  -3.4938100e-01   3.8081100e-01  -4.3341000e-01
  -3.3814600e-01   3.3126300e-01  -4.3481500e-01
  -2.8829300e-01   2.7563900e-01  -4.3621900e-01
  -2.8337800e-01   2.3427200e-01  -4.4558300e-01
  -2.6605800e-01   1.7397300e-01  -4.4347600e-01
  -2.2158800e-01   1.0479300e-01  -4.3411200e-01
  -1.9607600e-01   5.5245600e-02  -4.2802600e-01
  -1.8320400e-01  -1.1597000e-02  -4.2755800e-01
  -1.5558500e-01  -7.3064100e-02  -4.2147200e-01
  -1.0807300e-01  -1.6374600e-01  -4.2568500e-01
  -1.1837100e-01  -2.4204000e-01  -4.3856000e-01
  -1.1603100e-01  -3.0163800e-01  -4.4581700e-01
  -7.1326600e-02  -4.0821200e-01  -4.6196900e-01
  -1.0222100e-01  -4.9188200e-01  -4.8584600e-01
  -1.1907300e-01  -5.6526800e-01  -5.1206400e-01
  -1.0339200e-01  -6.6483100e-01  -5.2774800e-01
  -1.4388300e-01  -7.4780000e-01  -5.4460300e-01
  -1.7805400e-01  -8.3778000e-01  -5.6754400e-01
  -2.0052300e-01  -9.1046600e-01  -5.7152300e-01
  -2.2650300e-01  -9.9787500e-01  -5.7363000e-01
  -2.7261100e-01  -1.0852800e+00  -5.7433200e-01
  -3.2503900e-01  -1.1406800e+00  -5.6192500e-01
  -3.3978400e-01  -1.2201400e+00  -5.4577300e-01
  -3.8987200e-01  -1.2825400e+00  -5.2657800e-01
  -4.4885300e-01  -1.3416700e+00  -5.0082800e-01
  -4.5727900e-01  -1.4073400e+00  -4.7437600e-01
  -5.0245100e-01  -1.4580600e+00  -4.5962800e-01
  -5.7009200e-01  -1.5122800e+00  -4.4394400e-01
  -5.7805000e-01  -1.5767900e+00  -4.2849400e-01
  -6.1643400e-01  -1.6186200e+00  -4.2755800e-01
  -6.6933000e-01  -1.6693400e+00  -4.3387800e-01
  -7.1028900e-01  -1.7065000e+00  -4.4675300e-01
  -7.3954600e-01  -1.7604900e+00  -4.6594900e-01
  -7.8144100e-01  -1.8130700e+00  -5.0059400e-01
  -8.6289100e-01  -1.8320100e+00  -5.3453700e-01
  -8.7553000e-01  -1.8955800e+00  -5.6730900e-01
  -9.2234000e-01  -1.9217500e+00  -6.1225500e-01
  -9.9630100e-01  -1.9551700e+00  -6.4549500e-01
  -1.0162000e+00  -1.9946700e+00  -6.6843600e-01
  -1.0606700e+00  -2.0217800e+00  -6.8810000e-01
  -1.1135600e+00  -2.0514600e+00  -7.0940200e-01
  -1.1578000e+00  -2.0703900e+00  -7.2134000e-01
  -1.1659900e+00  -2.0996100e+00  -7.2204300e-01
  -1.2057800e+00  -2.1250800e+00  -7.2180900e-01
  -1.2546900e+00  -2.1489200e+00  -7.1502000e-01
  -1.2289500e+00  -2.1634100e+00  -7.0401800e-01
  -1.2598400e+00  -2.2015100e+00  -6.8575900e-01
  -1.2813800e+00  -2.2195100e+00  -6.6562700e-01
  -1.2446300e+00  -2.2473200e+00  -6.4479300e-01
  -1.2380800e+00  -2.2779300e+00  -6.2372500e-01
  -1.2371400e+00  -2.2926600e+00  -5.9142100e-01
  -1.2202900e+00  -2.3366000e+00  -5.4553900e-01
  -1.1688000e+00  -2.3562300e+00  -5.0176400e-01
  -1.1449200e+00  -2.3742200e+00  -4.5752100e-01
  -1.1453900e+00  -2.4053100e+00  -4.0976700e-01
  -1.0824300e+00  -2.4153600e+00  -3.5194700e-01
  -1.0466200e+00  -2.4448100e+00  -2.9576500e-01
  -1.0679200e+00  -2.4665400e+00  -2.4918200e-01
  -1.0190000e+00  -2.4571900e+00  -2.0564100e-01
  -9.9466200e-01  -2.4838400e+00  -1.6163200e-01
  -1.0220500e+00  -2.4822000e+00  -1.2886000e-01
  -1.0080000e+00  -2.4768300e+00  -1.1013200e-01
  -1.0049600e+00  -2.4936500e+00  -9.5852900e-02
  -1.0145600e+00  -2.4789300e+00  -9.1171100e-02
  -1.0456900e+00  -2.4826700e+00  -8.1573400e-02
  -1.0475600e+00  -2.4646700e+00  -7.4784800e-02
  -1.0660500e+00  -2.4244700e+00  -8.9298400e-02
  -1.1334600e+00  -2.4039100e+00  -9.9832400e-02
  -1.1395400e+00  -2.3623100e+00  -1.0076900e-01
  -1.1505400e+00  -2.3529600e+00  -1.1013200e-01
  -1.2083500e+00  -2.3443100e+00  -1.2698700e-01
  -1.2509500e+00  -2.3027100e+00  -1.4103200e-01
  -1.2554000e+00  -2.2800400e+00  -1.4594800e-01
  -1.3045500e+00  -2.2480200e+00  -1.5578000e-01
  -1.3553400e+00  -2.2279200e+00  -1.6069600e-01
  -1.3773400e+00  -2.1966000e+00  -1.5788700e-01
  -1.4173600e+00  -2.1846800e+00  -1.6631400e-01
  -1.4599600e+00  -2.1879500e+00  -1.6678200e-01
  -1.4936600e+00  -2.1704200e+00  -1.4969300e-01
  -1.4997500e+00  -2.1694900e+00  -1.3330700e-01
  -1.5456200e+00  -2.1645800e+00  -1.2090000e-01
  -1.5608300e+00  -2.1802400e+00  -8.8127900e-02
  -1.5540500e+00  -2.1823400e+00  -5.3248500e-02
  -1.5779200e+00  -2.1825800e+00  -2.5626000e-02
  -1.5751100e+00  -2.2033800e+00   2.0255600e-02
  -1.5650500e+00  -2.2160000e+00   6.4030400e-02
  -1.5409400e+00  -2.2583000e+00   9.7973400e-02
  -1.5652800e+00  -2.2744300e+00   1.3308700e-01
  -1.5411700e+00  -2.2982700e+00   1.7288200e-01
  -1.4929600e+00  -2.3431400e+00   2.1197500e-01
  -1.5353200e+00  -2.3543600e+00   2.4732300e-01
  -1.4948300e+00  -2.3789000e+00   2.8688400e-01
  -1.4840700e+00  -2.3985300e+00   3.2597700e-01
  -1.4976400e+00  -2.4305500e+00   3.6109000e-01
  -1.4896800e+00  -2.4310200e+00   3.9714000e-01
  -1.5133200e+00  -2.4478500e+00   4.3670100e-01
  -1.4913200e+00  -2.4749600e+00   4.6455800e-01
  -1.5341500e+00  -2.4564900e+00   4.8890300e-01
  -1.5592000e+00  -2.4784600e+00   5.2378200e-01
  -1.5538100e+00  -2.4651400e+00   5.4368000e-01
  -1.6050700e+00  -2.4639700e+00   5.5515000e-01
  -1.6392400e+00  -2.4455100e+00   5.6943000e-01
  -1.6502400e+00  -2.4153600e+00   5.7855900e-01
  -1.6776300e+00  -2.4004000e+00   5.7785700e-01
  -1.7295900e+00  -2.3506200e+00   5.8230500e-01
  -1.7377800e+00  -2.3321600e+00   5.8909300e-01
  -1.7277100e+00  -2.2498900e+00   5.7481400e-01
  -1.7806100e+00  -2.2043100e+00   5.8253900e-01
  -1.7852900e+00  -2.1678500e+00   5.8979600e-01
  -1.7504200e+00  -2.0858200e+00   5.6966400e-01
  -1.7686700e+00  -2.0472600e+00   5.7340900e-01
  -1.7541600e+00  -1.9558700e+00   5.7715500e-01
  -1.7202200e+00  -1.8857600e+00   5.6802500e-01
  -1.7036100e+00  -1.8147100e+00   5.4812800e-01
  -1.6797300e+00  -1.7261300e+00   5.3057100e-01
  -1.6270700e+00  -1.6751800e+00   5.2682600e-01
  -1.5636400e+00  -1.5936200e+00   5.0809800e-01
  -1.5311100e+00  -1.5279400e+00   4.8656200e-01
  -1.4616000e+00  -1.4487100e+00   4.7041000e-01
  -1.3558000e+00  -1.3613000e+00   4.5308700e-01
  -1.3073600e+00  -1.3201700e+00   4.3131700e-01
  -1.2289500e+00  -1.2278500e+00   4.2054900e-01
  -1.1070100e+00  -1.1654500e+00   4.1914400e-01
  -1.0426400e+00  -1.1222100e+00   4.1001500e-01
  -9.5510800e-01  -1.0336300e+00   4.1282400e-01
  -8.3410300e-01  -1.0013800e+00   4.2523100e-01
  -7.5265200e-01  -8.9854600e-01   4.2148500e-01
  -6.7564900e-01  -8.2562700e-01   4.2569900e-01
  -5.7758100e-01  -7.9875000e-01   4.5144900e-01
  -4.8676900e-01  -6.9521400e-01   4.7064400e-01
  -4.2076600e-01  -6.3491600e-01   4.8515800e-01
  -3.5616800e-01  -5.3932600e-01   5.0880100e-01
  -2.5435500e-01  -4.5285100e-01   5.2916700e-01
  -1.9724700e-01  -3.6918100e-01   5.4016900e-01
  -1.6213900e-01  -2.4204000e-01   5.5327800e-01
  -7.0390400e-02  -1.6281100e-01   5.5374600e-01
  -2.0537300e-02  -4.6186800e-02   5.4251000e-01
   1.5974900e-02   6.8333700e-02   5.3618900e-01
   7.3317700e-02   1.8215300e-01   5.4110500e-01
   1.4868200e-01   3.1911000e-01   5.3923200e-01
   1.9081200e-01   4.2101000e-01   5.2401700e-01
   2.1960000e-01   5.6497900e-01   5.1465300e-01
   3.2796600e-01   6.9305500e-01   4.9616000e-01
   3.6798900e-01   8.0406900e-01   4.7415500e-01
   4.1175700e-01   9.5388100e-01   4.6315300e-01
   5.2620900e-01   1.0658300e+00   4.5847100e-01
   5.8284900e-01   1.1817500e+00   4.4606500e-01
   6.4674500e-01   1.3184800e+00   4.2967800e-01
   7.3638700e-01   1.4311300e+00   4.2382600e-01
   8.3281700e-01   1.5510200e+00   4.1305800e-01
   8.9413900e-01   1.6655400e+00   3.9316000e-01
   9.5639600e-01   1.7856700e+00   3.6717600e-01
   1.0575100e+00   1.9090800e+00   3.4049000e-01
   1.1064200e+00   2.0035000e+00   3.1240000e-01
   1.1530000e+00   2.1329700e+00   2.7752000e-01
   1.2187700e+00   2.2496000e+00   2.5130200e-01
   1.2726000e+00   2.3367700e+00   2.1501800e-01
   1.3018600e+00   2.4576000e+00   1.7826600e-01
   1.3374300e+00   2.5658200e+00   1.5134600e-01
   1.3961800e+00   2.6775300e+00   1.1810500e-01
   1.4149000e+00   2.7630700e+00   9.1184800e-02
   1.4305900e+00   2.8612300e+00   6.1689500e-02
   1.4879300e+00   2.9806600e+00   3.1491900e-02
   1.5230400e+00   3.0437600e+00  -1.0465500e-03
   1.5127400e+00   3.1433300e+00  -3.5223600e-02
   1.5925500e+00   3.2281600e+00  -6.4016700e-02
   1.6309300e+00   3.3095000e+00  -9.9832400e-02
   1.6147900e+00   3.3969100e+00  -1.3213700e-01
   1.7013800e+00   3.4527600e+00  -1.6163200e-01
   1.7259600e+00   3.5348000e+00  -1.9323400e-01
   1.7477300e+00   3.5972000e+00  -2.2085700e-01
   1.7816600e+00   3.6591400e+00  -2.4637300e-01
   1.8228600e+00   3.7154600e+00  -2.7048400e-01
   1.8652200e+00   3.7696800e+00  -2.9997900e-01
   1.8568000e+00   3.8269400e+00  -3.2479300e-01
   1.9298200e+00   3.8629300e+00  -3.4656300e-01
   1.9471400e+00   3.9012600e+00  -3.7090800e-01
   1.9520500e+00   3.9561900e+00  -3.9174200e-01
   2.0096300e+00   3.9856400e+00  -4.0204200e-01
   2.0255500e+00   3.9914800e+00  -4.1187400e-01
   2.0611200e+00   4.0326100e+00  -4.3177200e-01
   2.0641700e+00   4.0548200e+00  -4.2966500e-01
   2.1098100e+00   4.0471000e+00  -4.2147200e-01
   2.1320400e+00   4.0601900e+00  -4.1725800e-01
   2.1149500e+00   4.0538800e+00  -4.0391500e-01
   2.1762800e+00   4.0438300e+00  -3.8495400e-01
   2.1652800e+00   4.0333100e+00  -3.6529000e-01
   2.1538100e+00   3.9998900e+00  -3.5826700e-01
   2.1786200e+00   3.9837700e+00  -3.3509300e-01
   2.1683200e+00   3.9395900e+00  -3.1004500e-01
   2.1566200e+00   3.9080400e+00  -2.9061500e-01
   2.1297000e+00   3.8750900e+00  -2.7235600e-01
   2.1390600e+00   3.8253100e+00  -2.5152200e-01
   2.1135500e+00   3.7977300e+00  -2.1992000e-01
   2.0346700e+00   3.7542600e+00  -2.0189500e-01
   2.0440400e+00   3.7194300e+00  -1.7474100e-01
   2.0124400e+00   3.6631100e+00  -1.4828900e-01
   1.9190500e+00   3.6355300e+00  -1.2441200e-01
   1.9171800e+00   3.6163700e+00  -8.8830200e-02
   1.8631100e+00   3.5728900e+00  -6.1675800e-02
   1.7964100e+00   3.5553700e+00  -3.9437300e-02
   1.7603700e+00   3.5226500e+00  -1.6028300e-02
   1.6967000e+00   3.5020800e+00   6.4443200e-03
   1.6742300e+00   3.4660900e+00   2.2830600e-02
   1.5850600e+00   3.4525300e+00   3.7110100e-02
   1.5459700e+00   3.4445800e+00   5.3730400e-02
   1.5368500e+00   3.4039200e+00   6.7541700e-02
   1.4305900e+00   3.3945700e+00   8.0182600e-02
   1.4118600e+00   3.3665200e+00   9.5632500e-02
   1.3872900e+00   3.3459600e+00   1.0897600e-01
   1.3060700e+00   3.3279600e+00   1.1857300e-01
   1.2838400e+00   3.2936000e+00   1.3051200e-01
   1.2534100e+00   3.2620500e+00   1.4315300e-01
   1.2084700e+00   3.2295700e+00   1.5415500e-01
   1.1647000e+00   3.1931100e+00   1.6445500e-01
   1.1373200e+00   3.1447300e+00   1.8552300e-01
   1.1293600e+00   3.0958800e+00   2.0542100e-01
   1.0664000e+00   3.0552100e+00   2.2391400e-01
   1.0556300e+00   3.0091700e+00   2.5083400e-01
   1.0626600e+00   2.9362500e+00   2.7166800e-01
   1.0020400e+00   2.8703500e+00   2.9250200e-01
   1.0055500e+00   2.8116800e+00   3.1286800e-01
   9.9782400e-01   2.7333900e+00   3.3370200e-01
   9.7348200e-01   2.6653800e+00   3.5102400e-01
   9.6154600e-01   2.5838100e+00   3.6694200e-01
   9.4539600e-01   2.5078500e+00   3.8356300e-01
   9.5054500e-01   2.4368000e+00   3.8941500e-01
   9.0279900e-01   2.3234500e+00   3.9362900e-01
   9.0092600e-01   2.2596500e+00   4.0275800e-01
   9.0279900e-01   2.1787800e+00   4.0907900e-01
   8.4686000e-01   2.0860000e+00   4.0088500e-01
   8.3328500e-01   2.0243000e+00   3.9690600e-01
   8.0753900e-01   1.9184200e+00   3.9456500e-01
   7.7664400e-01   1.8518100e+00   3.7817900e-01
   7.2632300e-01   1.7861400e+00   3.6951700e-01
   7.0642900e-01   1.6907900e+00   3.5757900e-01
   6.9027900e-01   1.6181000e+00   3.3580800e-01
   6.0438200e-01   1.5557000e+00   3.1263400e-01
   5.9782900e-01   1.4956300e+00   2.9624700e-01
   5.8284900e-01   1.3960700e+00   2.8430900e-01
   5.1520800e-01   1.3339000e+00   2.5668600e-01
   4.9203700e-01   1.2817800e+00   2.3351100e-01
   4.7612100e-01   1.1780100e+00   2.1525200e-01
   4.4429000e-01   1.1200500e+00   1.8599100e-01
   4.0426700e-01   1.0527400e+00   1.6937100e-01
   3.9537300e-01   9.6790400e-01   1.5509100e-01
   3.7852200e-01   8.8072800e-01   1.3378900e-01
   3.3849900e-01   7.7882800e-01   1.1225300e-01
   3.1977500e-01   7.0894700e-01   9.7037000e-02
   3.1158300e-01   6.2527700e-01   8.9078000e-02
   2.6453800e-01   5.1449600e-01   7.7607600e-02
   2.3036700e-01   4.1423200e-01   7.1053100e-02
   2.3200500e-01   3.1303400e-01   6.2391700e-02
   1.7583300e-01   2.0692700e-01   5.1857700e-02
   1.3510700e-01   8.7732000e-02   4.4132800e-02
   1.0561700e-01  -3.0294200e-02   3.7578200e-02
   6.9104700e-02  -1.4855400e-01   3.1257800e-02
   9.8895300e-03  -2.7335800e-01   1.7680600e-02
  -6.1730400e-02  -3.9021600e-01   7.6147600e-03
  -6.2666600e-02  -5.3675500e-01  -6.6647100e-03
  -1.5511700e-01  -6.6272800e-01  -2.3753300e-02
  -2.3516300e-01  -7.8309100e-01  -2.6562300e-02
  -2.4944000e-01  -9.4388700e-01  -3.8735000e-02
  -3.4470000e-01  -1.0778100e+00  -5.3482600e-02
  -4.2989400e-01  -1.1942000e+00  -5.3950800e-02
  -4.9215200e-01  -1.3337200e+00  -5.5121300e-02
  -5.5651700e-01  -1.4678800e+00  -6.2612100e-02
  -6.6628700e-01  -1.5917500e+00  -6.4250800e-02
  -7.4843900e-01  -1.7219300e+00  -5.7228100e-02
  -8.0110100e-01  -1.8338700e+00  -5.8164400e-02
  -9.1742500e-01  -1.9535400e+00  -6.9634800e-02
  -9.9981200e-01  -2.0601100e+00  -7.7359800e-02
  -1.0700300e+00  -2.1715900e+00  -7.8764300e-02
  -1.1585000e+00  -2.2812100e+00  -9.2809700e-02
  -1.2436900e+00  -2.3482800e+00  -1.0943000e-01
  -1.3111000e+00  -2.4567300e+00  -1.2488000e-01
  -1.3572100e+00  -2.5441400e+00  -1.4711900e-01
  -1.4435700e+00  -2.6219600e+00  -1.6303700e-01
