**************************************************************************************
  	RED ACELEROGRÁFICA DE LA UNIVERSIDAD AUTONOMA METROPOLITANA (RA-UAM)
	   UNIDAD AZCAPOTZALCO. DIVISIÓN CBI-DEPARTAMENTO DE MATERIALES
     Av. San Pablo 420, Col. Nueva el Rosario, Azcapotzalco, C.P. 02128, Ciudad de México
		Área de Estructuras. e-mail: agb@azc.uam.mx
**************************************************************************************
ARCHIVO ESTANDAR DE ACELERACION:
VERSION DEL FORMATO                    : 2.0
NOMBRE DEL ARCHIVO                     : RUML202405.201
FECHA Y HORA DE CREACION               : 11:30 a. m. 27/05/2024
REF. CATALOGO ACELEROGRAMAS, SMIS 1999 : REGISTRO NO.      /PAG.    


================================================================================
DATOS DE LA ESTACION:
NOMBRE DE LA ESTACION                  : UAM-LERMA.
CLAVE DE LA ESTACION                   : RUML
LOCALIZACION DE LA ESTACION            : AV. DE LAS GARZAS 10, EL PANTEON, C.P.52005,
                                       : LERMA DE VILLADA, ESTADO DE MEXICO.   
                                       : 
                                       : 
                                       : 
COORDENADAS DE LA ESTACION             : 19.291278 LAT. N
                                       : 99.500578 LONG. W
ALTITUD (msnm)                         : 2570
TIPO DE SUELO                          : DEPOSITOS LACUSTRES
                                       : 
                                       : 
INSTITUCION RESPONSABLE                : UNIVERSIDAD AUTONOMA METROPOLITANA
                                       : 

================================================================================
DATOS DEL ACELEROGRAFO: 
MODELO DEL ACELEROGRAFO                : ETNA2 KINEMETRICS
NUMERO DE SERIE DEL ACELEROGRAFO       : 103733
NUMERO DE CANALES                      : 3
ORIENTACION C1-C6 (rumbo;orientacion)  : /N90E/N00E/V 
ORIENTACION C7-C12 (rumbo;orientacion) : 
VEL. DE MUESTREO, C1-C6 (muestras/s)   : /200/200/200
VEL. DE MUESTREO, C7-C12 (muestras/s)  : 
ESC. COMPLETA DE SENSORES, C1-C6, (g)  : /2/2/2
ESC. COMPLETA DE SENSORES, C7-C12 (g)  : 
FREC. NAT. DE SENSORES, C1-C6, (Hz)    : /212/206/208   
FREC. NAT. DE SENSORES, C7-C12 (Hz)    : 
AMORTIGUAMIENTO DE SENSORES, C1-C6     : /0.7/0.7/0.7      
AMORTIGUAMIENTO DE SENSORES, C7-C12    : 
INTERVALO DE MUESTREO, C1-C6 (s)       : /0.005/0.005/0.005
INTERVALO DE MUESTREO, C7-C12 (s)      : 
UMBRAL DE DISPARO, C1-C6 (Gal)         : /2/2/2
UMBRAL DE DISPARO, C7-C12 (Gal)        : 
MEMORIA DE PREEVENTO (s)               : 50
TIEMPO DE POSEVENTO (s)                : 60


================================================================================
DATOS DEL SISMO:
FECHA DEL SISMO [GMT]                  : 2024/05/20
HORA EPICENTRO (GMT)                   : 06:48:14
MAGNITUD(ES)                           : /M=4.9
COORDENADAS DEL EPICENTRO              : 17.4900 LAT. N
                                       : -101.3200 LONG. W
PROFUNDIDAD FOCAL (Km)                 : 40.3
FUENTE DE LOS DATOS EPICENTRALES       : SSN
                                       : INSTITUTO DE GEOFISICA, UNAM

================================================================================
DATOS DE ESTE REGISTRO:
HORA DE LA PRIMERA MUESTRA (GMT)       : 06:48:37.000
EXACTITUD DEL TIEMPO (s)               : 
DURACION DEL REGISTRO (s), C1-C6       : /150/150/150
DURACION DEL REGISTRO (s), C7-C12      : 
NUM. TOTAL DE MUESTRAS, C1-C6          : /30000/30000/30000
NUM. TOTAL DE MUESTRAS, C7-C12         : 
ACEL. MAX.(Gal), C1-C6                 : /0.823/-0.926/-0.479
ACEL. MAX., C1-C6, EN LA MUESTRA       : /12910/11318/11981
ACEL. MAX.(Gal), C7-C12                : 
ACEL. MAX., C7-C12,EN LA MUESTRA       : 
UNIDADES DE LOS DATOS                  : Gal (cm/s/s)
FACTOR DE DECIMACION                   : 1
FORMATO DATOS (FORTRAN,16 campos/dato) : 3E16.7


================================================================================
CALIDAD DEL ACELEROGRAMA:
REGISTRO DIGITAL COMPLETO CON TIEMPO ABSOLUTO CORRECTO


================================================================================
COMENTARIOS:














================================================================================
DATOS DE ACELERACION:
---------+---------+---------+---------+---------+---------+---------+---------+
   CANAL-1   	     CANAL-2          CANAL-3
     N90E              N00E              V
---------+---------+---------+---------+---------+---------+---------+---------+
[...]
  -1.3744000e-02  -3.5718300e-01   4.0019200e-01
  -2.7084900e-02  -3.5788400e-01   3.6437600e-01
   1.5512600e-02  -3.7027100e-01   3.2528300e-01
   4.1258300e-02  -3.7073800e-01   2.8033800e-01
   2.3938400e-02  -3.7821700e-01   2.2673200e-01
   4.2194500e-02  -3.5858500e-01   1.8623400e-01
   6.5833800e-02  -3.6466200e-01   1.4082100e-01
   6.3961400e-02  -3.5905300e-01   9.7748100e-02
   7.0514800e-02  -3.4105700e-01   6.6848300e-02
   1.0726100e-01  -3.3311000e-01   3.2671200e-02
   9.1579500e-02  -3.0927100e-01  -7.8263400e-03
   7.6834200e-02  -3.1044000e-01  -2.8192100e-02
   1.2621900e-01  -2.7842100e-01  -5.0430700e-02
   1.1873000e-01  -2.7561600e-01  -8.1330500e-02
   1.0936700e-01  -2.8426400e-01  -9.0694100e-02
   1.4190100e-01  -2.5949000e-01  -9.6780400e-02
   1.4705000e-01  -2.6369700e-01  -9.9589500e-02
   1.2692100e-01  -2.4920600e-01  -9.7248600e-02
   1.4447500e-01  -2.5668500e-01  -8.8587300e-02
   1.6858300e-01  -2.6322900e-01  -7.6180500e-02
   1.5664600e-01  -2.5224500e-01  -7.5010100e-02
   1.5805000e-01  -2.5855500e-01  -7.1966900e-02
   1.6811500e-01  -2.5201100e-01  -5.8155600e-02
   1.9362600e-01  -2.6650100e-01  -6.1432900e-02
   1.8613700e-01  -2.4990800e-01  -7.1030600e-02
   1.8613700e-01  -2.4453200e-01  -6.7987400e-02
   2.3154300e-01  -2.5504900e-01  -7.1966900e-02
   2.1937200e-01  -2.3004200e-01  -7.9926000e-02
   2.3084100e-01  -2.2419900e-01  -8.5544100e-02
   2.7297000e-01  -2.0386600e-01  -8.8587300e-02
   2.6711900e-01  -1.9311500e-01  -9.2566800e-02
   2.7226800e-01  -1.6109600e-01  -9.7950900e-02
   3.0878000e-01  -1.3608800e-01  -9.8887200e-02
   3.1486500e-01  -1.2814200e-01  -9.3737300e-02
   3.0784400e-01  -9.0513700e-02  -9.2566800e-02
   3.2890800e-01  -7.5322200e-02  -9.1864500e-02
   3.3358900e-01  -4.5173000e-02  -8.4373700e-02
   3.3054700e-01  -4.0498700e-02  -8.0862300e-02
   3.1697200e-01  -2.3437500e-02  -6.8455600e-02
   3.2071700e-01   7.4129700e-03  -5.5814700e-02
   3.1907800e-01  -6.5923300e-05  -4.8323900e-02
   2.6243800e-01   2.8914800e-02  -2.3978500e-02
   2.6735300e-01   3.4290200e-02  -7.3581600e-03
   2.5752200e-01   5.2286300e-02   6.4531300e-03
   1.7677400e-01   7.0048700e-02   2.9628000e-02
   1.6460400e-01   7.6125300e-02   4.7418800e-02
   1.4236900e-01   1.0604100e-01   6.1698300e-02
   6.5599700e-02   9.6692200e-02   6.4507400e-02
   1.9023300e-02   1.2777600e-01   7.1764100e-02
  -1.1637500e-02   1.4016300e-01   7.4339100e-02
  -7.5299700e-02   1.4273400e-01   5.1398300e-02
  -1.5230300e-01   1.6143100e-01   4.7184700e-02
  -1.8273000e-01   1.5792600e-01   4.4141600e-02
  -2.2930600e-01   1.7685700e-01   2.4712100e-02
  -3.1731000e-01   1.6961100e-01   1.7221300e-02
  -3.3931100e-01   1.7288300e-01   1.3475800e-02
  -3.5382200e-01   1.7545400e-01   2.7076900e-03
  -4.2778200e-01   1.6330100e-01  -1.2742200e-02
  -4.4323000e-01   1.6961100e-01  -1.8594500e-02
  -4.2146300e-01   1.4670700e-01  -3.6619400e-02
  -4.6265600e-01   1.3712500e-01  -5.8389700e-02
  -4.6686900e-01   1.4250000e-01  -7.1966900e-02
  -4.1327100e-01   1.0954700e-01  -8.4841800e-02
  -4.1116500e-01   1.1165000e-01  -8.9991800e-02
  -3.9033400e-01   1.1024800e-01  -1.0005800e-01
  -3.3392700e-01   1.0347000e-01  -9.5610000e-02
  -2.9250000e-01   1.1538900e-01  -9.8653100e-02
  -2.5130700e-01   1.2029700e-01  -1.1012400e-01
  -2.1690100e-01   1.3689100e-01  -9.9355400e-02
  -1.3966400e-01   1.3315200e-01  -1.0239900e-01
  -9.5194100e-02   1.6563800e-01  -1.1574200e-01
  -8.2789400e-02   1.8714000e-01  -1.2721200e-01
   2.1715800e-03   1.9789100e-01  -1.2978700e-01
   4.5237200e-02   2.2126200e-01  -1.2159400e-01
   5.0854400e-02   2.3598700e-01  -1.1480500e-01
   1.0889900e-01   2.7127800e-01  -9.4439500e-02
   1.4283700e-01   2.7034300e-01  -7.4776000e-02
   1.3370900e-01   2.9651900e-01  -4.8792000e-02
   1.5617800e-01   3.2503200e-01  -1.3210400e-02
   1.7560400e-01   3.2783700e-01   1.3475800e-02
   1.4541200e-01   3.5751800e-01   2.7287100e-02
   1.3487900e-01   3.6079000e-01   2.3073500e-02
   1.2668700e-01   3.7200900e-01   1.5114400e-02
   9.8133000e-02   3.6569800e-01  -6.6558900e-03
   5.6237600e-02   3.6359500e-01  -4.1301200e-02
   2.6044900e-02   3.8299300e-01  -7.9691900e-02
   2.5108700e-02   3.5050700e-01  -1.1550800e-01
  -2.7319000e-02   3.5681700e-01  -1.4781200e-01
  -6.4767300e-02   3.5705100e-01  -1.6934800e-01
  -5.4235000e-02   3.4115800e-01  -1.6583700e-01
  -8.0214800e-02   3.5284400e-01  -1.5506900e-01
  -1.1228000e-01   3.3812000e-01  -1.3002100e-01
  -1.0806700e-01   3.5284400e-01  -8.5778200e-02
  -9.6364400e-02   3.5518100e-01  -4.4344300e-02
  -1.1579100e-01   3.5167600e-01   7.8576600e-03
  -1.1719500e-01   3.7761800e-01   6.4039200e-02
  -7.8342400e-02   3.9047200e-01   9.7748100e-02
  -8.5832000e-02   4.0169100e-01   1.1975300e-01
  -8.3491500e-02   4.0800100e-01   1.4128900e-01
  -2.8021100e-02   4.3511200e-01   1.4503400e-01
  -1.6552600e-02   4.3744900e-01   1.3660700e-01
  -6.9564500e-03   4.4703100e-01   1.2958400e-01
   5.1790600e-02   4.6806600e-01   1.1249600e-01
   9.1345500e-02   4.4773300e-01   9.6109500e-02
   1.0375000e-01   4.6432600e-01   8.0893600e-02
   1.5898700e-01   4.5848300e-01   6.3102800e-02
   2.1632900e-01   4.5404300e-01   3.8523400e-02
   2.3247900e-01   4.6806600e-01   1.7713300e-03
   2.7437400e-01   4.5404300e-01  -2.7255800e-02
   3.3124900e-01   4.6900100e-01  -6.0262400e-02
   3.5559000e-01   4.7531100e-01  -1.0871900e-01
   3.6916500e-01   4.8559400e-01  -1.4945100e-01
   4.1901800e-01   5.0335700e-01  -1.8128700e-01
   4.5342400e-01   5.1924900e-01  -2.1265500e-01
   4.3423200e-01   5.4869800e-01  -2.3770200e-01
   4.6559500e-01   5.7066700e-01  -2.5783400e-01
   4.9368100e-01   6.0151700e-01  -2.7305000e-01
   4.6091400e-01   6.2886200e-01  -2.9037300e-01
   4.6161600e-01   6.6415300e-01  -3.0839700e-01
   4.7074400e-01   6.9173100e-01  -3.1612200e-01
   4.4219000e-01   7.1206500e-01  -3.2525200e-01
   4.0989000e-01   7.4758900e-01  -3.3250900e-01
   4.0006000e-01   7.5273100e-01  -3.2408100e-01
   3.7384600e-01   7.6418300e-01  -3.1659100e-01
   3.2375900e-01   7.8685300e-01  -2.9833200e-01
   3.0152400e-01   7.8825600e-01  -2.6228200e-01
   2.9263000e-01   7.8241300e-01  -2.2646600e-01
   2.3879800e-01   7.7797200e-01  -1.7964800e-01
   2.1071200e-01   7.8451600e-01  -1.3306400e-01
   2.3505300e-01   7.8217900e-01  -9.0694100e-02
   1.9409400e-01   7.6488400e-01  -4.2471600e-02
   1.8075300e-01   7.6535200e-01  -2.4422800e-03
   2.2592500e-01   7.6044400e-01   3.0330300e-02
   2.0228600e-01   7.3496900e-01   5.8889200e-02
   2.0415900e-01   7.1837500e-01   8.1595900e-02
   2.4301100e-01   6.9103000e-01   1.1249600e-01
   2.4511800e-01   6.7303400e-01   1.3988400e-01
   2.3692600e-01   6.3634100e-01   1.5673900e-01
   2.4418200e-01   5.9146700e-01   1.8295700e-01
   2.5003300e-01   5.6155200e-01   2.0098200e-01
   2.1469100e-01   5.0849900e-01   2.0168400e-01
   1.9783900e-01   4.4679800e-01   2.1713400e-01
   2.0837200e-01   3.8626500e-01   2.2813600e-01
   1.6483800e-01   3.3040700e-01   2.1526100e-01
   8.1281200e-02   2.5842300e-01   2.0987700e-01
   7.6366100e-02   1.8363400e-01   2.1596300e-01
   5.5769500e-02   1.0580700e-01   2.1268600e-01
  -4.1596200e-02   4.1301700e-02   1.9793800e-01
  -5.8447900e-02  -2.6943200e-02   1.8904300e-01
  -7.6938000e-02  -1.0243300e-01   1.8576600e-01
  -1.5113300e-01  -1.5198100e-01   1.7101800e-01
  -1.8483600e-01  -2.0199600e-01   1.5439800e-01
  -1.9232600e-01  -2.5504900e-01   1.4409800e-01
  -2.2041200e-01  -2.9080800e-01   1.1764600e-01
  -2.6254100e-01  -3.0740200e-01   9.8918500e-02
  -2.6464800e-01  -3.2189200e-01   9.5407200e-02
  -2.3890200e-01  -3.3287600e-01   8.5809500e-02
  -2.6581800e-01  -3.3124000e-01   8.3234500e-02
  -2.6745700e-01  -3.1768500e-01   9.1661800e-02
  -2.1830600e-01  -3.1277700e-01   1.1109100e-01
  -2.2064600e-01  -2.9641700e-01   1.2935000e-01
  -2.2392300e-01  -2.5528300e-01   1.5486600e-01
  -1.7079300e-01  -2.3962400e-01   1.9372500e-01
  -1.4434500e-01  -2.1999200e-01   2.2602900e-01
  -1.6189900e-01  -1.7044400e-01   2.5224700e-01
  -1.1883300e-01  -1.4263200e-01   2.8876500e-01
  -7.5299700e-02  -1.1832600e-01   3.2387900e-01
  -8.9810900e-02  -8.7241700e-02   3.3722200e-01
  -7.5299700e-02  -5.1950700e-02   3.4401000e-01
  -2.9893600e-02  -3.7694100e-02   3.4471300e-01
  -3.0595700e-02  -2.9046600e-02   3.2996500e-01
  -4.4404800e-02  -7.6706900e-04   3.1381300e-01
   4.5121000e-03  -4.9739400e-03   2.8291300e-01
   5.4483100e-03  -1.8763100e-02   2.4382000e-01
  -2.1467700e-02  -2.2736300e-02   2.0191800e-01
   8.9591000e-03  -3.9096400e-02   1.5837700e-01
   7.7888300e-03  -7.6958200e-02   1.2888200e-01
  -1.5850400e-02  -1.1271700e-01   8.8384500e-02
  -2.7084900e-02  -1.4356700e-01   5.1632400e-02
  -3.5510800e-02  -1.9007600e-01   2.2371200e-02
  -5.0256100e-02  -2.3775400e-01  -7.3581600e-03
  -8.6768200e-02  -2.8800300e-01  -2.5149000e-02
  -1.1111000e-01  -3.3871900e-01  -4.3642100e-02
  -1.1672700e-01  -3.9130500e-01  -6.3305600e-02
  -1.6424000e-01  -4.5581100e-01  -7.4073700e-02
  -1.9724100e-01  -4.9484100e-01  -7.1498700e-02
  -1.8787900e-01  -5.4742700e-01  -6.8923700e-02
  -2.4451900e-01  -6.0702400e-01  -6.8455600e-02
  -2.8384000e-01  -6.2969500e-01  -7.1732800e-02
  -2.6698800e-01  -6.8344900e-01  -7.8989600e-02
  -3.2362900e-01  -7.2341500e-01  -8.0862300e-02
  -3.6178000e-01  -7.4468300e-01  -9.0225900e-02
  -3.4797000e-01  -7.7716900e-01  -9.8887200e-02
  -3.8471700e-01  -7.9890500e-01  -1.1948700e-01
  -4.1678200e-01  -8.2531500e-01  -1.4453500e-01
  -4.1888800e-01  -8.3723400e-01  -1.5155700e-01
  -4.2146300e-01  -8.3723400e-01  -1.6607100e-01
  -4.4252800e-01  -8.4588200e-01  -1.8035000e-01
  -4.6499700e-01  -8.5476300e-01  -1.8596900e-01
  -4.5306000e-01  -8.4775100e-01  -1.9416200e-01
  -4.6195400e-01  -8.3840300e-01  -2.0165300e-01
  -4.9846600e-01  -8.2882000e-01  -2.0141800e-01
  -4.8255000e-01  -8.2274400e-01  -2.0399300e-01
  -4.8676300e-01  -8.0965600e-01  -2.0937800e-01
  -5.2936100e-01  -7.9282800e-01  -2.2529600e-01
  -5.1414700e-01  -7.8628400e-01  -2.3653200e-01
  -5.1040300e-01  -7.7997400e-01  -2.3746800e-01
  -5.3521200e-01  -7.7646800e-01  -2.4402300e-01
  -5.3357400e-01  -7.7039100e-01  -2.4425700e-01
  -5.1040300e-01  -7.7600100e-01  -2.3700000e-01
  -5.1250900e-01  -7.9352900e-01  -2.2365700e-01
  -5.2116900e-01  -8.0708500e-01  -1.9720500e-01
  -4.8278500e-01  -8.1433000e-01  -1.6373000e-01
  -4.6429400e-01  -8.4915400e-01  -1.3681000e-01
  -4.8933800e-01  -8.6411100e-01  -1.0520800e-01
  -4.5774100e-01  -8.6504600e-01  -8.2500900e-02
  -4.2427100e-01  -8.9987000e-01  -6.1901100e-02
  -4.6686900e-01  -9.2090400e-01  -3.2405800e-02
  -4.4767700e-01  -9.1950200e-01  -2.1871700e-02
  -4.2263300e-01  -9.1506100e-01  -1.8360400e-02
  -4.6780500e-01  -9.2604600e-01  -7.3581600e-03
  -4.6967800e-01  -9.1926800e-01   6.2190400e-03
  -4.6195400e-01  -8.9729900e-01   2.6116700e-02
  -4.9799800e-01  -8.7392700e-01   3.4778000e-02
  -5.1695600e-01  -8.5780100e-01   4.0630200e-02
  -5.1625400e-01  -8.5406200e-01   5.5377900e-02
  -5.2678600e-01  -8.2017300e-01   5.8655100e-02
  -5.4363800e-01  -7.9586600e-01   5.7952900e-02
  -5.5183000e-01  -7.8838800e-01   5.7718800e-02
  -5.2585000e-01  -7.7179400e-01   4.5312000e-02
  -5.2561600e-01  -7.7179400e-01   2.0264400e-02
  -5.4082900e-01  -7.5496600e-01   6.2190400e-03
  -4.8348700e-01  -7.6034200e-01  -7.1240700e-03
  -4.6452800e-01  -7.6548300e-01  -2.6085300e-02
  -4.8184800e-01  -7.4468300e-01  -3.8960300e-02
  -4.1256900e-01  -7.6595100e-01  -5.0196600e-02
  -3.7301400e-01  -7.6151000e-01  -5.9092000e-02
  -3.7395000e-01  -7.5473300e-01  -7.9223700e-02
  -3.3088500e-01  -7.5847200e-01  -8.6948700e-02
  -2.7705300e-01  -7.5379800e-01  -9.3269100e-02
  -2.4756200e-01  -7.4818900e-01  -1.1738000e-01
  -2.3375300e-01  -7.3510000e-01  -1.1831700e-01
  -1.7570800e-01  -7.3019200e-01  -9.8419000e-02
  -1.2187600e-01  -6.9980900e-01  -8.8587300e-02
  -1.2140800e-01  -6.8204700e-01  -7.3605500e-02
  -8.3491500e-02  -6.4839200e-01  -3.8258000e-02
  -1.8425000e-02  -6.1777500e-01  -2.4422800e-03
  -2.0063400e-02  -5.8131600e-01   3.4778000e-02
  -1.5732500e-03  -5.1727800e-01   7.5743700e-02
   6.5365700e-02  -4.9624300e-01   1.1577300e-01
   6.6067800e-02  -4.3103700e-01   1.4433200e-01
   6.7940200e-02  -3.7237400e-01   1.6727300e-01
   1.2013400e-01  -3.3100700e-01   2.0191800e-01
   1.2762400e-01  -2.7094200e-01   2.1713400e-01
   1.0936700e-01  -2.2139400e-01   2.1994300e-01
   1.3160200e-01  -1.5104600e-01   2.2111300e-01
   1.5524200e-01  -1.2019600e-01   2.1268600e-01
   1.2130400e-01  -6.6674800e-02   2.0472700e-01
   1.1124000e-01   1.6995300e-02   1.8553200e-01
   1.3651800e-01   6.0933800e-02   1.6493200e-01
   1.0070800e-01   1.1328600e-01   1.4409800e-01
   7.5195900e-02   1.8176500e-01   1.2373200e-01
   7.9174700e-02   2.4299800e-01   1.0875000e-01
   6.5599700e-02   2.8296300e-01   9.5641300e-02
   4.4301000e-02   3.4256100e-01   8.0893600e-02
   3.4002700e-02   4.0122300e-01   7.3402800e-02
   4.6173400e-02   4.2693200e-01   7.2700500e-02
   3.3534600e-02   4.8419200e-01   5.7016500e-02
   2.4406500e-02   5.2182000e-01   5.4675600e-02
   5.8812200e-02   5.4051800e-01   6.1698300e-02
   6.7004000e-02   5.6996600e-01   5.1398300e-02
   5.4365200e-02   5.8352100e-01   4.8355200e-02
   1.0117600e-01   6.1413800e-01   4.6482500e-02
   1.3019800e-01   6.0665900e-01   3.1266600e-02
   1.1287800e-01   6.0362100e-01   2.3307600e-02
   1.6390200e-01   6.1600800e-01   1.2539500e-02
   2.0626500e-01   5.7604200e-01  -5.6956400e-04
   1.9081800e-01   5.5944800e-01  -2.9104600e-03
   2.4465000e-01   5.4776300e-01  -2.6763700e-03
   2.9941800e-01   5.2182000e-01  -2.9104600e-03
   2.9871600e-01   4.9681300e-01   2.4736000e-03
   3.5488800e-01   4.6619600e-01   1.2539500e-02
   4.0169900e-01   4.5170600e-01   1.5348500e-02
   4.1527400e-01   4.3113900e-01   1.8157600e-02
   4.6161600e-01   4.0496300e-01   2.4243900e-02
   4.8970200e-01   3.8766800e-01   3.0798500e-02
   5.0725600e-01   3.8205900e-01   2.9628000e-02
   5.3042700e-01   3.7107400e-01   2.6818900e-02
   5.4025800e-01   3.5097400e-01   3.2905300e-02
   5.5710900e-01   3.4793600e-01   3.2437100e-02
   5.6249200e-01   3.4606600e-01   2.5648500e-02
   5.5055600e-01   3.3227700e-01   2.3307600e-02
   5.7396100e-01   3.1895500e-01   3.0330300e-02
   5.6834400e-01   3.1708600e-01   2.8925700e-02
   5.3768300e-01   3.1942300e-01   2.0030300e-02
   5.5921600e-01   2.9324700e-01   1.8859900e-02
   5.4751300e-01   2.7992500e-01   1.9094000e-02
   5.1334200e-01   2.7525100e-01   1.4178100e-02
   5.1076700e-01   2.5772200e-01   1.9562100e-02
   5.0117100e-01   2.5374900e-01   2.9628000e-02
   4.7191400e-01   2.3224700e-01   3.5714300e-02
   4.4453000e-01   2.2406700e-01   5.3739200e-02
   4.3633800e-01   2.3294800e-01   7.1764100e-02
   4.1480600e-01   2.2991000e-01   8.8384500e-02
   3.7361200e-01   2.3575300e-01   1.0523900e-01
   3.5839900e-01   2.6146100e-01   1.1483700e-01
   3.5137700e-01   2.7268000e-01   1.2068900e-01
   3.1486500e-01   2.8226200e-01   1.2232800e-01
   2.9380100e-01   3.1755300e-01   1.2139100e-01
   3.0433300e-01   3.3858800e-01   1.1624100e-01
   2.8256600e-01   3.6616600e-01   1.0149400e-01
   2.5424600e-01   3.8509700e-01   8.8384500e-02
   2.7648100e-01   4.1945300e-01   7.6914100e-02
   2.7694900e-01   4.6339100e-01   5.4207400e-02
   2.4394700e-01   4.6689700e-01   4.2971100e-02
