**************************************************************************************
  	RED ACELEROGRÁFICA DE LA UNIVERSIDAD AUTONOMA METROPOLITANA (RA-UAM)
	   UNIDAD AZCAPOTZALCO. DIVISIÓN CBI-DEPARTAMENTO DE MATERIALES
     Av. San Pablo 420, Col. Nueva el Rosario, Azcapotzalco, C.P. 02128, Ciudad de México
		Área de Estructuras. e-mail: agb@azc.uam.mx
**************************************************************************************
ARCHIVO ESTANDAR DE ACELERACION:
VERSION DEL FORMATO                    : 2.0
NOMBRE DEL ARCHIVO                     : RUML202402.221
FECHA Y HORA DE CREACION               : 11:30 a. m. 29/02/2024
REF. CATALOGO ACELEROGRAMAS, SMIS 1999 : REGISTRO NO.      /PAG.    


================================================================================
DATOS DE LA ESTACION:
NOMBRE DE LA ESTACION                  : UAM-LERMA.
CLAVE DE LA ESTACION                   : RUML
LOCALIZACION DE LA ESTACION            : AV. DE LAS GARZAS 10, EL PANTEON, C.P.52005,
                                       : LERMA DE VILLADA, ESTADO DE MEXICO.   
                                       : 
                                       : 
                                       : 
COORDENADAS DE LA ESTACION             : 19.291278 LAT. N
                                       : 99.500578 LONG. W
ALTITUD (msnm)                         : 2570
TIPO DE SUELO                          : DEPOSITOS LACUSTRES
                                       : 
                                       : 
INSTITUCION RESPONSABLE                : UNIVERSIDAD AUTONOMA METROPOLITANA
                                       : 

================================================================================
DATOS DEL ACELEROGRAFO: 
MODELO DEL ACELEROGRAFO                : ETNA2 KINEMETRICS
NUMERO DE SERIE DEL ACELEROGRAFO       : 103733
NUMERO DE CANALES                      : 3
ORIENTACION C1-C6 (rumbo;orientacion)  : /N90E/N00E/V 
ORIENTACION C7-C12 (rumbo;orientacion) : 
VEL. DE MUESTREO, C1-C6 (muestras/s)   : /200/200/200
VEL. DE MUESTREO, C7-C12 (muestras/s)  : 
ESC. COMPLETA DE SENSORES, C1-C6, (g)  : /2/2/2
ESC. COMPLETA DE SENSORES, C7-C12 (g)  : 
FREC. NAT. DE SENSORES, C1-C6, (Hz)    : /212/206/208   
FREC. NAT. DE SENSORES, C7-C12 (Hz)    : 
AMORTIGUAMIENTO DE SENSORES, C1-C6     : /0.7/0.7/0.7      
AMORTIGUAMIENTO DE SENSORES, C7-C12    : 
INTERVALO DE MUESTREO, C1-C6 (s)       : /0.005/0.005/0.005
INTERVALO DE MUESTREO, C7-C12 (s)      : 
UMBRAL DE DISPARO, C1-C6 (Gal)         : /2/2/2
UMBRAL DE DISPARO, C7-C12 (Gal)        : 
MEMORIA DE PREEVENTO (s)               : 50
TIEMPO DE POSEVENTO (s)                : 60


================================================================================
DATOS DEL SISMO:
FECHA DEL SISMO [GMT]                  : 2024/02/22
HORA EPICENTRO (GMT)                   : 20:43:11
MAGNITUD(ES)                           : /M=4.7
COORDENADAS DEL EPICENTRO              : 17.9300 LAT. N
                                       : -100.4000 LONG. W
PROFUNDIDAD FOCAL (Km)                 : 49.2
FUENTE DE LOS DATOS EPICENTRALES       : SSN
                                       : INSTITUTO DE GEOFISICA, UNAM

================================================================================
DATOS DE ESTE REGISTRO:
HORA DE LA PRIMERA MUESTRA (GMT)       : 20:43:02.000
EXACTITUD DEL TIEMPO (s)               : 
DURACION DEL REGISTRO (s), C1-C6       : /149/149/149
DURACION DEL REGISTRO (s), C7-C12      : 
NUM. TOTAL DE MUESTRAS, C1-C6          : /29800/29800/29800
NUM. TOTAL DE MUESTRAS, C7-C12         : 
ACEL. MAX.(Gal), C1-C6                 : /-0.939/1.267/-0.517
ACEL. MAX., C1-C6, EN LA MUESTRA       : /13572/12643/11828
ACEL. MAX.(Gal), C7-C12                : 
ACEL. MAX., C7-C12,EN LA MUESTRA       : 
UNIDADES DE LOS DATOS                  : Gal (cm/s/s)
FACTOR DE DECIMACION                   : 1
FORMATO DATOS (FORTRAN,16 campos/dato) : 3E16.7


================================================================================
CALIDAD DEL ACELEROGRAMA:
REGISTRO DIGITAL COMPLETO CON TIEMPO ABSOLUTO CORRECTO


================================================================================
COMENTARIOS:














================================================================================
DATOS DE ACELERACION:
---------+---------+---------+---------+---------+---------+---------+---------+
   CANAL-1   	     CANAL-2          CANAL-3
     N90E              N00E              V
---------+---------+---------+---------+---------+---------+---------+---------+
[...]
   3.0971800e-01  -4.0357600e-01  -5.7356700e-02
   3.2493200e-01  -3.6104000e-01  -2.7393200e-02
   3.1767600e-01  -3.9399400e-01   8.4225400e-03
   3.2329400e-01  -3.6197500e-01   3.3704200e-02
   3.2961300e-01  -3.7179100e-01   1.8488400e-02
   3.5138000e-01  -4.3653000e-01  -2.2945500e-02
   3.4997500e-01  -3.6618200e-01  -2.3413700e-02
   3.7501900e-01  -3.7786800e-01   3.0384800e-03
   3.3686900e-01  -3.2317800e-01   3.1831500e-02
   2.7905800e-01  -2.8648500e-01   4.8451900e-02
   3.1135700e-01  -3.2528200e-01   4.3301900e-02
   2.9216500e-01  -2.2104500e-01   4.3770100e-02
   2.6712100e-01  -2.1076100e-01   6.1795000e-02
   2.7718500e-01  -1.4742500e-01   1.0674000e-01
   2.4816300e-01  -7.9880800e-02   1.3576700e-01
   2.1516100e-01  -1.2241700e-01   1.2359500e-01
   2.1890600e-01  -4.9731500e-02   1.2617000e-01
   2.7180200e-01  -6.4455600e-02   1.2734000e-01
   2.7578100e-01  -2.4724000e-02   1.5098300e-01
   2.4792900e-01   4.9130000e-02   1.8796900e-01
   2.9333500e-01   1.6858200e-03   1.8750100e-01
   3.1159100e-01   3.4172200e-02   1.8047800e-01
   3.2212300e-01   7.0612700e-03   1.7017800e-01
   3.8180700e-01   4.2566800e-03   2.0014200e-01
   4.1434000e-01   5.4505500e-02   2.4555500e-01
   4.2229800e-01   2.0850500e-02   2.6475100e-01
   4.0380700e-01   4.9363700e-02   2.8558500e-01
   4.4359600e-01  -2.0536300e-03   2.6919800e-01
   4.8104500e-01  -3.7578300e-02   2.5211000e-01
   4.4172400e-01   4.0229700e-03   2.5023700e-01
   4.7308700e-01  -4.9965300e-02   2.3736200e-01
   4.4032000e-01  -3.3371500e-02   2.1957100e-01
   3.7455100e-01  -8.3152800e-02   1.8235100e-01
   4.0170100e-01  -1.3293400e-01   1.5355800e-01
   3.9327500e-01  -1.2054700e-01   1.4162000e-01
   3.4880500e-01  -1.8785700e-01   1.5145100e-01
   2.7952600e-01  -1.3620600e-01   1.9124700e-01
   2.4980100e-01  -1.6121400e-01   2.0576000e-01
   2.1656600e-01  -2.2361600e-01   1.8586300e-01
   1.6179800e-01  -1.9860800e-01   1.6479400e-01
   1.8099000e-01  -2.5306400e-01   1.4887600e-01
   1.3277500e-01  -1.9977700e-01   1.4279000e-01
   3.6813700e-02  -1.8855800e-01   1.1493300e-01
   3.3442000e-03  -2.3226300e-01   5.1495000e-02
  -1.0698900e-02  -2.0889200e-01  -3.7693100e-02
  -3.0827400e-02  -2.5353100e-01  -1.2407200e-01
  -9.4957700e-02  -1.7687300e-01  -1.4677900e-01
  -1.3966200e-01  -1.3901100e-01  -1.5146100e-01
  -1.9513200e-01  -1.3503800e-01  -1.7955100e-01
  -2.7517800e-01  -7.3336800e-02  -2.1513300e-01
  -2.5153900e-01  -1.0862800e-01  -2.6382400e-01
  -2.7705000e-01  -3.1501800e-02  -2.7646500e-01
  -3.6575600e-01   2.0383000e-02  -2.6569600e-01
  -3.9243800e-01   5.8478600e-02  -2.6499400e-01
  -4.2543900e-01   1.1176600e-01  -2.9706400e-01
  -4.4790800e-01   6.8061000e-02  -3.6846200e-01
  -4.6639800e-01   1.2789200e-01  -3.9327500e-01
  -4.5820700e-01   1.5126400e-01  -3.8438000e-01
  -4.6920700e-01   1.5453600e-01  -3.5301200e-01
  -5.3825300e-01   2.0642000e-01  -3.2351700e-01
  -5.0033600e-01   1.5266600e-01  -3.2983700e-01
  -4.6827100e-01   1.6248200e-01  -3.2281400e-01
  -4.9425100e-01   1.7042800e-01  -2.9097800e-01
  -4.7295200e-01   1.5453600e-01  -2.1443100e-01
  -4.8091000e-01   1.9450100e-01  -1.4514000e-01
  -4.9823000e-01   1.2088100e-01  -1.2805200e-01
  -5.0782600e-01   1.1363500e-01  -1.0698400e-01
  -4.7810100e-01   9.6807900e-02  -7.3040700e-02
  -4.7599500e-01   5.4505500e-02  -2.1306800e-02
  -5.4480600e-01   1.2649000e-01   4.7983700e-02
  -5.3216700e-01   8.6057000e-02   8.5906200e-02
  -5.4667800e-01   7.5539800e-02   9.5738000e-02
  -5.9114800e-01   9.0497600e-02   9.4333400e-02
  -5.5650900e-01   7.9513000e-02   1.2031700e-01
  -5.5884900e-01   1.4752400e-01   1.7532800e-01
  -5.9325500e-01   1.4027900e-01   1.9990800e-01
  -6.1244700e-01   1.7089600e-01   2.2004000e-01
  -5.8272200e-01   1.8982700e-01   2.2706200e-01
  -5.5159300e-01   1.8071200e-01   2.2238000e-01
  -5.6750900e-01   2.7162700e-01   2.4321400e-01
  -5.2069900e-01   2.7373000e-01   2.7364600e-01
  -5.0689000e-01   3.0855400e-01   2.7130500e-01
  -5.3169900e-01   3.4524700e-01   2.2846700e-01
  -4.6733500e-01   3.0247700e-01   1.8679900e-01
  -4.0624700e-01   3.4851900e-01   1.5753800e-01
  -3.8494800e-01   3.3870300e-01   1.4677000e-01
  -3.7652200e-01   3.5716700e-01   1.6619900e-01
  -3.4750000e-01   3.6511300e-01   1.7603100e-01
  -3.0934900e-01   3.0154300e-01   1.4372600e-01
  -3.1613700e-01   3.3566500e-01   1.2640400e-01
  -2.5153900e-01   3.0388000e-01   1.2359500e-01
  -2.1432400e-01   3.0808700e-01   1.4021500e-01
  -2.9296600e-01   3.1720100e-01   1.5285600e-01
  -2.6581600e-01   2.5479900e-01   1.2406300e-01
  -2.3117600e-01   2.6788800e-01   8.8481200e-02
  -2.3983600e-01   2.3937400e-01   5.3835900e-02
  -2.2836700e-01   2.3984200e-01   8.4267600e-02
  -2.3515500e-01   2.5643500e-01   1.3787400e-01
  -2.4475100e-01   2.0198000e-01   1.6807200e-01
  -2.8243300e-01   1.9753900e-01   1.8984200e-01
  -2.5387900e-01   1.8281500e-01   1.8820300e-01
  -2.4873000e-01   1.7206400e-01   2.0739900e-01
  -3.0443400e-01   1.9473500e-01   2.3338300e-01
  -3.2573300e-01   1.6318300e-01   2.3221200e-01
  -3.6037300e-01   1.3139800e-01   1.8539400e-01
  -3.7113900e-01   5.0298600e-02   9.5503900e-02
  -3.8892700e-01   1.4540200e-02   3.4640600e-02
  -4.0390700e-01   1.6877300e-02   2.8788300e-02
  -4.3199300e-01  -6.0015000e-02   4.4238300e-02
  -5.0876200e-01  -6.2585900e-02   4.5642800e-02
  -4.9097400e-01  -1.3901100e-01   9.1248100e-03
  -4.6733500e-01  -1.9720600e-01  -2.4115900e-02
  -5.0548500e-01  -1.8435200e-01  -1.9902300e-02
  -4.9588900e-01  -2.3273100e-01  -7.7296500e-03
  -4.9542100e-01  -2.0117900e-01  -1.8497800e-02
  -4.9869800e-01  -2.6311400e-01  -8.4745100e-02
  -4.6124900e-01  -3.0635100e-01  -1.6082400e-01
  -4.0835400e-01  -2.7970700e-01  -2.0389700e-01
  -3.7488400e-01  -3.3065700e-01  -2.2473100e-01
  -3.6505400e-01  -2.8929000e-01  -2.1021700e-01
  -3.0045600e-01  -3.1943900e-01  -2.2894400e-01
  -2.4147400e-01  -3.5963800e-01  -2.7599600e-01
  -1.9934500e-01  -3.4047300e-01  -3.0034200e-01
  -8.9574500e-02  -3.7997100e-01  -3.1789800e-01
  -3.5976600e-02  -3.1523200e-01  -3.1555800e-01
  -1.2805400e-02  -3.4421300e-01  -3.4060500e-01
   6.0452900e-02  -3.7786800e-01  -3.8344400e-01
   1.2622200e-01  -3.4935500e-01  -4.1247100e-01
   2.0182000e-01  -4.0941900e-01  -4.4149800e-01
   2.3786400e-01  -3.6291000e-01  -4.2206800e-01
   2.8514300e-01  -3.7272600e-01  -3.9631800e-01
   3.4295400e-01  -3.8184100e-01  -3.8461400e-01
   3.3054900e-01  -3.5636600e-01  -3.6822800e-01
   3.8999800e-01  -4.0848400e-01  -3.6097100e-01
   4.4172400e-01  -3.6594800e-01  -3.2819800e-01
   4.2768100e-01  -3.6384500e-01  -2.9987400e-01
   4.3844700e-01  -3.4935500e-01  -2.6780300e-01
   4.4078800e-01  -3.2364600e-01  -2.3058300e-01
   4.6278900e-01  -3.8558000e-01  -2.1489900e-01
   4.6325700e-01  -3.4164200e-01  -1.8680800e-01
   4.8432100e-01  -3.4397900e-01  -1.4443800e-01
   4.9696000e-01  -3.4210900e-01  -9.2001900e-02
   4.3774500e-01  -3.1219400e-01  -5.1036200e-02
   4.4898000e-01  -3.7366100e-01  -2.8797700e-02
   4.9813000e-01  -3.8137400e-01  -8.1978300e-03
   5.1170600e-01  -4.2461100e-01   7.2520900e-03
   5.0281200e-01  -4.4424300e-01   5.8283600e-02
   4.9438600e-01  -4.4354200e-01   1.2687200e-01
   4.9602400e-01  -5.2651100e-01   1.6011300e-01
   4.6981000e-01  -5.5175200e-01   1.7907400e-01
   5.0117300e-01  -5.9452200e-01   1.7322200e-01
   5.2715300e-01  -6.3098100e-01   1.6854000e-01
   4.5600100e-01  -5.9615800e-01   1.7860600e-01
   4.2955300e-01  -6.2560600e-01   1.6385800e-01
   4.0099900e-01  -6.4126500e-01   1.3576700e-01
   3.6659300e-01  -6.7468600e-01   8.2160800e-02
   3.7876400e-01  -6.7188200e-01   4.7983700e-02
   3.3897500e-01  -5.9709300e-01   7.6074500e-02
   2.7952600e-01  -6.0387000e-01   1.1891300e-01
   2.3763000e-01  -5.4801300e-01   1.4840800e-01
   2.4324800e-01  -5.1646100e-01   1.4396000e-01
   2.5846100e-01  -5.3141900e-01   1.2897900e-01
   2.3154500e-01  -4.3185600e-01   1.4162000e-01
   2.3552400e-01  -3.6361100e-01   1.6924200e-01
   2.2218300e-01  -2.9606700e-01   1.7977600e-01
   1.9994800e-01  -2.6825500e-01   1.3670400e-01
   2.3084300e-01  -2.5633600e-01   6.5306300e-02
   2.5518400e-01  -1.7547000e-01   2.6681500e-02
   2.5541800e-01  -1.7266600e-01   1.8488400e-02
   2.1914000e-01  -9.9980300e-02   3.4172400e-02
   2.1375700e-01  -6.8896200e-02   1.5679300e-02
   2.4137500e-01  -1.2148200e-01  -3.7224900e-02
   2.1914000e-01  -8.7359700e-02  -6.1102100e-02
   2.4324800e-01  -1.0395300e-01  -5.9463500e-02
   2.5331200e-01  -5.7677900e-02  -1.9200000e-02
   2.2101300e-01  -4.9264100e-02   7.2520900e-03
   2.5050300e-01  -1.0372000e-01  -2.1115000e-03
   2.6033300e-01  -6.5624200e-02  -8.1978300e-03
   2.6454600e-01  -9.1099100e-02  -2.3877900e-04
   2.8256800e-01  -5.1133800e-02   4.7047300e-02
   2.9333500e-01   1.7578500e-02   1.0393100e-01
   3.0152700e-01  -9.0650900e-03   1.3670400e-01
   2.7671700e-01   3.6275700e-02   1.5004700e-01
   2.9988800e-01   6.5957500e-02   1.2921300e-01
   3.5021000e-01   9.9612500e-02   1.4770600e-01
   3.4061300e-01   1.4822500e-01   2.1886900e-01
   3.1440000e-01   1.7603700e-01   2.5211000e-01
   3.2914500e-01   2.2231300e-01   2.6521900e-01
   3.6776300e-01   1.6762400e-01   2.5655800e-01
   3.5184800e-01   2.2091100e-01   2.3736200e-01
   3.7080600e-01   2.7302900e-01   2.5632300e-01
   4.2112700e-01   2.2394900e-01   2.8698900e-01
   3.5465600e-01   3.0925500e-01   2.9471400e-01
   3.3546400e-01   3.1650000e-01   2.5211000e-01
   4.1317000e-01   2.6671900e-01   2.2027400e-01
   3.8555100e-01   2.8728600e-01   2.1114400e-01
   3.5395400e-01   3.3426300e-01   1.6783800e-01
   3.9912600e-01   3.5599800e-01   1.6245400e-01
   3.9467900e-01   2.8752000e-01   2.2097600e-01
   3.0831400e-01   3.6885300e-01   2.2191200e-01
   2.8256800e-01   4.7986700e-01   1.3108600e-01
   3.5582700e-01   3.8007100e-01   1.1938100e-01
   3.0316500e-01   4.4481000e-01   1.8281900e-01
   2.5237600e-01   5.4133400e-01   1.9826900e-01
   2.5939700e-01   5.0043400e-01   2.1395300e-01
   1.6437200e-01   5.8620800e-01   2.1793300e-01
   1.3558400e-01   7.0142900e-01   1.6058100e-01
   1.7186200e-01   7.6803800e-01   1.4887600e-01
   1.2809400e-01   7.6687000e-01   1.9944000e-01
   3.6345600e-02   8.5872000e-01   1.6854000e-01
   4.1494700e-02   9.6529400e-01   6.8115400e-02
   9.9071500e-02   9.1925200e-01   3.7407400e-03
   4.6877900e-02   1.0468600e+00  -1.2177400e-02
   1.7621400e-02   1.1688600e+00  -3.7693100e-02
   6.5602100e-02   1.1260900e+00  -6.6486200e-02
   4.1728800e-02   1.1525000e+00  -8.7320100e-02
   2.9089900e-02   1.1728300e+00  -1.4560800e-01
   8.3624100e-02   1.2125600e+00  -1.7650800e-01
   6.1623200e-02   1.2396800e+00  -1.6784700e-01
  -1.4677800e-02   1.2660900e+00  -1.8423300e-01
   1.6217100e-02   1.2665500e+00  -2.2894400e-01
   7.7070600e-02   1.1611500e+00  -2.9051000e-01
  -1.0698900e-02   1.1959700e+00  -3.4294600e-01
  -1.0464900e-02   1.2055500e+00  -3.7618700e-01
   7.0049100e-02   1.1506300e+00  -3.5816200e-01
  -4.8381300e-02   1.1735300e+00  -3.1906900e-01
  -9.9872800e-02   1.1052900e+00  -3.4060500e-01
  -2.9891200e-02   1.0398500e+00  -3.5933200e-01
  -5.1190000e-02   9.7300700e-01  -3.4786200e-01
  -7.6233500e-02   9.3865000e-01  -3.0666200e-01
  -6.1956400e-02   9.3491100e-01  -2.1653800e-01
  -6.0318000e-02   8.2413000e-01  -1.6691100e-01
  -1.1063900e-01   8.1711800e-01  -1.6363300e-01
  -1.0478800e-01   7.8883900e-01  -1.5473800e-01
  -2.9189100e-02   7.1124500e-01  -1.1822000e-01
  -6.6403300e-02   7.2596900e-01  -6.8827100e-02
  -9.0978800e-02   6.5375100e-01  -5.0802100e-02
  -4.7211100e-02   6.0747600e-01  -4.7056700e-02
  -5.4934800e-02   5.9555600e-01  -5.8995300e-02
  -4.2296000e-02   5.4460600e-01  -6.1336200e-02
  -2.5210200e-02   5.6961400e-01  -3.2075000e-02
  -1.7954600e-02   5.3502400e-01  -1.0772800e-02
  -4.5806800e-02   5.0440700e-01  -3.5160300e-03
  -5.7743400e-02   4.8384000e-01   2.1021200e-03
  -1.9124800e-02   4.0297500e-01   1.0295300e-02
  -6.2190400e-02   4.2915100e-01   4.7749600e-02
  -7.2956800e-02   3.9713200e-01   1.1095400e-01
  -6.4999000e-02   3.9643100e-01   1.6760400e-01
  -1.2444800e-01   3.7983700e-01   1.9709900e-01
  -1.4996000e-01   3.0481500e-01   1.7649900e-01
  -1.5440700e-01   3.3075700e-01   1.5402600e-01
  -1.5089600e-01   2.6695300e-01   1.2336100e-01
  -1.8179100e-01   2.5900600e-01   9.9249300e-02
  -2.2509100e-01   2.4965800e-01   8.8949400e-02
  -2.2017600e-01   1.6598800e-01   3.5811000e-02
  -2.4919800e-01   1.4074600e-01   6.9757900e-04
  -2.4358100e-01   8.5823300e-02  -1.8731900e-02
  -2.2509100e-01   8.5122200e-02  -1.7795500e-02
  -3.0490300e-01   6.3152900e-02   6.9757900e-04
  -3.2830800e-01  -3.2436600e-02  -1.4284200e-02
  -3.0817900e-01  -4.5524700e-02  -3.9097700e-02
  -3.2269000e-01  -1.1283500e-01  -7.1402000e-02
  -3.4258500e-01  -1.6331700e-01  -7.1870200e-02
  -3.6833100e-01  -1.5537100e-01  -3.6990900e-02
  -3.7933100e-01  -2.3226300e-01  -1.6156900e-02
  -4.2426900e-01  -2.6498300e-01  -7.7296500e-03
  -4.2333300e-01  -3.3486400e-01  -3.1840900e-02
  -3.8143800e-01  -3.6945400e-01  -5.3611200e-02
  -4.1116200e-01  -3.7179100e-01  -2.9500000e-02
  -4.4510000e-01  -4.2367600e-01  -7.0695900e-04
  -4.5235500e-01  -4.1012100e-01   7.0180000e-03
  -4.1865200e-01  -4.8888300e-01  -3.4650000e-02
  -4.0999200e-01  -5.1552600e-01  -7.8892900e-02
  -4.0390700e-01  -4.8327300e-01  -6.7656600e-02
  -3.4445700e-01  -5.2861400e-01  -3.5118100e-02
  -3.8424600e-01  -5.1318900e-01  -5.6228400e-03
  -3.7348000e-01  -5.2604300e-01  -9.6023700e-03
  -2.5926200e-01  -5.4590900e-01  -2.7627300e-02
  -2.5107100e-01  -5.1318900e-01  -2.2477300e-02
  -2.4919800e-01  -5.0360700e-01   1.0061200e-02
  -2.0355800e-01  -4.4915100e-01   4.7515500e-02
  -1.7640800e-01  -4.5522800e-01   4.1663300e-02
  -1.7664200e-01  -4.7252200e-01   3.9748300e-03
  -1.4387500e-01  -4.1619700e-01  -1.7093200e-02
  -8.4191300e-02  -4.3255700e-01  -2.2009100e-02
  -1.0946900e-01  -3.6431200e-01  -6.7932900e-03
  -1.2093800e-01  -3.5309400e-01   3.9748300e-03
  -8.7936100e-02  -3.9329300e-01  -8.1978300e-03
  -8.7468000e-02  -3.7810200e-01  -1.5220500e-02
  -7.0850300e-02  -4.1339300e-01  -1.4050100e-02
  -5.7275300e-02  -3.8277600e-01   3.1363300e-02
  -5.0955900e-02  -4.0077200e-01   6.8817700e-02
  -7.5765400e-02  -4.0988700e-01   7.3967600e-02
  -1.1227800e-01  -4.1456100e-01   6.9754000e-02
  -6.0786100e-02  -5.0150300e-01   3.4172400e-02
  -6.4999000e-02  -5.0360700e-01   1.1933900e-02
  -9.6128000e-02  -5.2394000e-01   1.6381600e-02
  -7.4595200e-02  -5.4661000e-01   3.0427000e-02
  -1.1766100e-01  -5.5549100e-01   3.6513300e-02
  -1.2983100e-01  -6.1929600e-01   2.1999700e-02
  -9.2383100e-02  -6.0503900e-01   2.4340600e-02
  -8.2318900e-02  -6.1275200e-01   5.6645000e-02
  -1.0993700e-01  -5.9779400e-01   9.8781100e-02
  -1.3966200e-01  -5.4450700e-01   1.2312600e-01
  -1.1742700e-01  -5.8797800e-01   1.0908100e-01
  -1.1251200e-01  -5.7699300e-01   8.2394900e-02
  -9.4021500e-02  -5.5479000e-01   7.8649400e-02
  -5.3764500e-02  -5.4006600e-01   1.0650600e-01
  -7.8106000e-02  -4.7322400e-01   1.3576700e-01
  -7.4829200e-02  -4.6574500e-01   1.2851100e-01
  -2.5444200e-02  -4.5452600e-01   9.0822100e-02
   1.8089500e-02  -4.5429300e-01   5.1963200e-02
   3.4239100e-02  -4.3559500e-01   5.0792800e-02
   3.5175300e-02  -3.4514800e-01   9.1290300e-02
   7.2389600e-02  -3.4842000e-01   1.0580400e-01
