**************************************************************************************
  	RED ACELEROGRÁFICA DE LA UNIVERSIDAD AUTONOMA METROPOLITANA (RA-UAM)
	   UNIDAD AZCAPOTZALCO. DIVISIÓN CBI-DEPARTAMENTO DE MATERIALES
     Av. San Pablo 420, Col. Nueva el Rosario, Azcapotzalco, C.P. 02128, Ciudad de México
		Área de Estructuras. e-mail: agb@azc.uam.mx
**************************************************************************************
ARCHIVO ESTANDAR DE ACELERACION:
VERSION DEL FORMATO                    : 2.0
NOMBRE DEL ARCHIVO                     : RUML202405.071
FECHA Y HORA DE CREACION               : 11:30 a. m. 14/05/2024
REF. CATALOGO ACELEROGRAMAS, SMIS 1999 : REGISTRO NO.      /PAG.    


================================================================================
DATOS DE LA ESTACION:
NOMBRE DE LA ESTACION                  : UAM-LERMA.
CLAVE DE LA ESTACION                   : RUML
LOCALIZACION DE LA ESTACION            : AV. DE LAS GARZAS 10, EL PANTEON, C.P.52005,
                                       : LERMA DE VILLADA, ESTADO DE MEXICO.   
                                       : 
                                       : 
                                       : 
COORDENADAS DE LA ESTACION             : 19.291278 LAT. N
                                       : 99.500578 LONG. W
ALTITUD (msnm)                         : 2570
TIPO DE SUELO                          : DEPOSITOS LACUSTRES
                                       : 
                                       : 
INSTITUCION RESPONSABLE                : UNIVERSIDAD AUTONOMA METROPOLITANA
                                       : 

================================================================================
DATOS DEL ACELEROGRAFO: 
MODELO DEL ACELEROGRAFO                : ETNA2 KINEMETRICS
NUMERO DE SERIE DEL ACELEROGRAFO       : 103733
NUMERO DE CANALES                      : 3
ORIENTACION C1-C6 (rumbo;orientacion)  : /N90E/N00E/V 
ORIENTACION C7-C12 (rumbo;orientacion) : 
VEL. DE MUESTREO, C1-C6 (muestras/s)   : /200/200/200
VEL. DE MUESTREO, C7-C12 (muestras/s)  : 
ESC. COMPLETA DE SENSORES, C1-C6, (g)  : /2/2/2
ESC. COMPLETA DE SENSORES, C7-C12 (g)  : 
FREC. NAT. DE SENSORES, C1-C6, (Hz)    : /212/206/208   
FREC. NAT. DE SENSORES, C7-C12 (Hz)    : 
AMORTIGUAMIENTO DE SENSORES, C1-C6     : /0.7/0.7/0.7      
AMORTIGUAMIENTO DE SENSORES, C7-C12    : 
INTERVALO DE MUESTREO, C1-C6 (s)       : /0.005/0.005/0.005
INTERVALO DE MUESTREO, C7-C12 (s)      : 
UMBRAL DE DISPARO, C1-C6 (Gal)         : /2/2/2
UMBRAL DE DISPARO, C7-C12 (Gal)        : 
MEMORIA DE PREEVENTO (s)               : 50
TIEMPO DE POSEVENTO (s)                : 60


================================================================================
DATOS DEL SISMO:
FECHA DEL SISMO [GMT]                  : 2024/05/07
HORA EPICENTRO (GMT)                   : 11:58:17
MAGNITUD(ES)                           : /M=4.7
COORDENADAS DEL EPICENTRO              : 18.3700 LAT. N
                                       : -100.7900 LONG. W
PROFUNDIDAD FOCAL (Km)                 : 46.0
FUENTE DE LOS DATOS EPICENTRALES       : SSN
                                       : INSTITUTO DE GEOFISICA, UNAM

================================================================================
DATOS DE ESTE REGISTRO:
HORA DE LA PRIMERA MUESTRA (GMT)       : 11:58:20.000
EXACTITUD DEL TIEMPO (s)               : 
DURACION DEL REGISTRO (s), C1-C6       : /112/112/112
DURACION DEL REGISTRO (s), C7-C12      : 
NUM. TOTAL DE MUESTRAS, C1-C6          : /22400/22400/22400
NUM. TOTAL DE MUESTRAS, C7-C12         : 
ACEL. MAX.(Gal), C1-C6                 : /-0.418/-0.498/0.301
ACEL. MAX., C1-C6, EN LA MUESTRA       : /11484/10180/7378
ACEL. MAX.(Gal), C7-C12                : 
ACEL. MAX., C7-C12,EN LA MUESTRA       : 
UNIDADES DE LOS DATOS                  : Gal (cm/s/s)
FACTOR DE DECIMACION                   : 1
FORMATO DATOS (FORTRAN,16 campos/dato) : 3E16.7


================================================================================
CALIDAD DEL ACELEROGRAMA:
REGISTRO DIGITAL COMPLETO CON TIEMPO ABSOLUTO CORRECTO


================================================================================
COMENTARIOS:














================================================================================
DATOS DE ACELERACION:
---------+---------+---------+---------+---------+---------+---------+---------+
   CANAL-1   	     CANAL-2          CANAL-3
     N90E              N00E              V
---------+---------+---------+---------+---------+---------+---------+---------+
[...]
  -1.9661400e-01  -8.0132400e-02  -1.7864500e-02
  -1.9497600e-01  -5.9565400e-02  -1.2480400e-02
  -1.8163500e-01  -4.9749400e-02  -4.0531700e-03
  -1.9380600e-01  -2.2638400e-02   1.1864900e-02
  -2.1744500e-01  -1.6094400e-02   3.2933000e-02
  -1.9731600e-01  -6.0446500e-03   5.4469200e-02
  -1.9333800e-01   1.6392000e-02   6.8514600e-02
  -2.2985000e-01   8.9131300e-03   8.0687300e-02
  -2.2399800e-01   3.2752100e-02   1.0081900e-01
  -1.9380600e-01   2.7610400e-02   9.3094000e-02
  -2.4529700e-01   2.1066300e-02   7.8112300e-02
  -2.5512700e-01   2.7142900e-02   6.4769200e-02
  -2.0784900e-01   1.7093200e-02   4.0189800e-02
  -2.6285100e-01   1.7326900e-02   1.9824000e-02
  -2.7759600e-01   3.7713900e-03  -7.7591300e-04
  -2.3336000e-01   4.7062500e-03  -2.6759900e-02
  -2.8087300e-01  -2.7726400e-03  -5.1339300e-02
  -3.1410800e-01  -7.9143700e-03  -7.1002800e-02
  -2.6636200e-01  -5.5772200e-03  -8.9730000e-02
  -2.9140500e-01  -6.6919800e-04  -1.0354100e-01
  -3.1996000e-01  -1.8377700e-03  -1.2484300e-01
  -2.7549000e-01  -1.3523500e-02  -1.4520900e-01
  -2.7829800e-01  -2.5389200e-03  -1.5808400e-01
  -2.7970300e-01  -1.7964100e-02  -1.7095900e-01
  -2.4951000e-01  -1.8665300e-02  -1.7283200e-01
  -2.1721100e-01  -4.3548300e-04  -1.7728000e-01
  -2.0387000e-01  -2.0535000e-02  -1.7774800e-01
  -1.8374100e-01  -4.6423600e-03  -1.7189500e-01
  -1.2850500e-01   1.8495500e-02  -1.6463900e-01
  -1.1422800e-01   1.3587400e-02  -1.4591200e-01
  -1.0065300e-01   3.1583500e-02  -1.3139800e-01
  -5.0331600e-02   5.2851600e-02  -1.2016200e-01
  -3.2075600e-02   5.9395600e-02  -9.6986800e-02
  -1.7096200e-02   6.1265400e-02  -7.7791400e-02
   1.4500800e-02   8.0663700e-02  -6.1405100e-02
   3.4395200e-02   8.1364900e-02  -4.7359800e-02
   6.2247400e-02   7.3886000e-02  -4.3848400e-02
   7.2311700e-02   8.1598600e-02  -2.5589400e-02
   1.1163200e-01   7.8560300e-02  -7.0963300e-03
   1.3597400e-01   8.4636900e-02  -7.7591300e-04
   1.2356900e-01   7.1548800e-02   1.0460400e-02
   1.7810300e-01   9.8192400e-02   2.5442100e-02
   2.0338100e-01   1.0263300e-01   3.2698900e-02
   1.7623100e-01   7.5288300e-02   4.2530700e-02
   2.1602000e-01   1.1011200e-01   5.6576100e-02
   2.6634100e-01   1.0964400e-01   5.4001100e-02
   2.2327500e-01   1.0497000e-01   5.2830600e-02
   2.4831900e-01   9.4686600e-02   5.0957900e-02
   2.9185300e-01   1.1104700e-01   3.1528500e-02
   2.5159600e-01   1.0754100e-01   2.8017100e-02
   2.8693800e-01   7.6456800e-02   1.5610400e-02
   3.0027900e-01   9.5387800e-02  -1.2714500e-02
   2.7172400e-01   8.2066000e-02  -3.5889400e-02
   3.1127900e-01   8.8142600e-02  -5.6723300e-02
   3.0776800e-01   8.6974000e-02  -7.0768700e-02
   2.7102200e-01   8.9077500e-02  -7.9430000e-02
   3.0566200e-01   1.0894300e-01  -8.2239100e-02
   2.9957600e-01   1.0520400e-01  -8.3643700e-02
   2.5417000e-01   1.2320000e-01  -6.6086900e-02
   2.7827800e-01   1.1735700e-01  -5.1339300e-02
   2.7102200e-01   1.4026100e-01  -4.5252900e-02
   2.3006300e-01   1.6877400e-01  -2.8866700e-02
   2.3614800e-01   1.3815800e-01  -1.9503100e-02
   2.3614800e-01   1.5919200e-01  -2.3482600e-02
   2.0970000e-01   1.8466700e-01  -2.3248500e-02
   2.1133900e-01   1.7508500e-01  -2.6525800e-02
   2.1508400e-01   1.6854100e-01  -4.0337100e-02
   1.9682700e-01   1.8606900e-01  -5.1105200e-02
   2.0338100e-01   1.9752100e-01  -5.2743800e-02
   2.0010400e-01   1.5685500e-01  -4.0805200e-02
   1.8769900e-01   1.6526900e-01  -2.9334900e-02
   1.9121000e-01   1.8443300e-01  -1.8098500e-02
   1.7178400e-01   1.6082800e-01  -7.3644200e-05
   1.5680500e-01   1.5872500e-01   1.8419400e-02
   1.6008100e-01   1.6620400e-01   2.9187600e-02
   1.2778200e-01   1.7578600e-01   3.4103400e-02
   1.1959000e-01   1.5077800e-01   3.1996600e-02
   1.0952600e-01   1.5077800e-01   2.0526200e-02
   6.5056100e-02   1.5895800e-01   1.0226300e-02
   7.1843600e-02   1.3488600e-01   9.5240300e-03
   5.3821600e-02   1.5147900e-01   1.4439900e-02
   1.8011600e-02   1.4890900e-01   2.2633100e-02
   3.1820700e-02   1.6433400e-01   3.5508000e-02
   3.6501700e-02   1.7087800e-01   4.5105700e-02
   5.1387200e-03   1.7602000e-01   6.1960100e-02
   1.5437000e-02   1.9798900e-01   8.0453200e-02
   5.8268600e-02   1.8209600e-01   8.7710000e-02
   4.0714600e-02   2.0944100e-01   9.1221300e-02
   4.6331900e-02   2.0640300e-01   9.0987200e-02
   1.0484500e-01   1.9378200e-01   8.0687300e-02
   1.0578100e-01   2.0710400e-01   6.2194200e-02
   1.0039800e-01   1.8980900e-01   6.3130600e-02
   1.6172000e-01   1.7952500e-01   5.4001100e-02
   1.6827300e-01   1.7368200e-01   3.9253400e-02
   1.5329400e-01   1.8653700e-01   6.1257800e-02
   2.2304100e-01   1.6363300e-01   7.8580500e-02
   2.2538200e-01   1.5101200e-01   8.8412200e-02
   1.9963600e-01   1.7274800e-01   1.0971400e-01
   2.6306400e-01   1.5311500e-01   1.2305800e-01
   2.5931900e-01   1.5919200e-01   1.3757100e-01
   2.3099900e-01   1.6223000e-01   1.3593200e-01
   2.6797900e-01   1.6223000e-01   1.1720500e-01
   2.7242600e-01   1.6550200e-01   1.0831000e-01
   2.7008600e-01   1.4961000e-01   8.3730500e-02
   2.5955300e-01   1.5241400e-01   6.3364700e-02
   2.7570300e-01   1.3371700e-01   5.4703300e-02
   3.0706600e-01   1.2296600e-01   4.7680600e-02
   2.5534000e-01   9.6088900e-02   4.4403400e-02
   2.7055400e-01   7.9495100e-02   5.1894300e-02
   3.1923700e-01   7.2717400e-02   6.3130600e-02
   2.6283000e-01   3.8595000e-02   7.2962300e-02
   2.6306400e-01   4.1633300e-02   9.5200800e-02
   3.2485400e-01  -7.6806600e-03   1.0035100e-01
   2.7453300e-01  -5.3435000e-03   1.0269200e-01
   2.5908500e-01  -9.3166600e-03   1.1088500e-01
   3.1759800e-01  -5.5592300e-02   1.1580100e-01
   2.6657500e-01  -3.0584800e-02   1.0971400e-01
   2.4574400e-01  -3.9232200e-02   9.2625900e-02
   2.8015000e-01  -4.1803100e-02   8.0687300e-02
   2.4200000e-01  -6.6576900e-02   5.9619200e-02
   2.1391300e-01  -5.6527100e-02   4.2764800e-02
   2.1836000e-01  -5.5124900e-02   3.2933000e-02
   1.9635900e-01  -1.0794500e-01   2.0994400e-02
   1.5750700e-01  -9.6492500e-02   1.4439900e-02
   1.4252700e-01  -1.0747700e-01   1.0928600e-02
   1.3222900e-01  -1.2266900e-01   1.4439900e-02
   1.0180200e-01  -1.3295200e-01   1.3308900e-03
   7.7226800e-02  -1.3879500e-01  -2.8632600e-02
   7.5120300e-02  -1.3599000e-01  -6.2341500e-02
   6.5992300e-02  -1.5936200e-01  -9.6050400e-02
   3.2522800e-02  -1.5281800e-01  -1.2109800e-01
   3.9310300e-02  -1.6286800e-01  -1.4193200e-01
   5.6630200e-02  -1.5632400e-01  -1.5668000e-01
   3.2756900e-02  -1.4627400e-01  -1.7353400e-01
   3.7437900e-02  -1.7618900e-01  -1.5504100e-01
   6.8332800e-02  -1.2851100e-01  -1.1267100e-01
   5.4055600e-02  -8.8312400e-02  -1.0213700e-01
   3.5331400e-02  -8.1534700e-02  -8.9730000e-02
   7.4418200e-02  -6.1668900e-02  -6.2809700e-02
   8.6120800e-02  -3.0351000e-02  -4.1507500e-02
   5.2183200e-02   1.2005200e-03  -3.2846200e-02
   7.6056500e-02  -1.2121200e-02  -2.1141700e-02
   9.5716900e-02   1.8729200e-02  -1.7162200e-02
   5.9906900e-02   4.3970400e-02  -2.3248500e-02
   5.7098300e-02   3.2518400e-02  -8.5008700e-03
   8.8461300e-02   3.6024100e-02   3.2036100e-03
   7.5120300e-02   4.3269300e-02   8.1194900e-03
   5.6162100e-02   5.3085300e-02   2.0760300e-02
   9.1738000e-02   2.9246400e-02   3.1294400e-02
   9.4078500e-02   3.9062400e-02   3.5273900e-02
   6.6694400e-02   5.0280700e-02   3.7146600e-02
   8.2844000e-02   3.8361300e-02   4.1594300e-02
   1.0110000e-01   5.2384200e-02   3.7848900e-02
   6.9503100e-02   5.4020200e-02   2.1930800e-02
   4.3289200e-02   6.7341900e-02   1.9121700e-02
   5.4991800e-02   6.8978000e-02   3.2698900e-02
   1.8947800e-02   6.7341900e-02   3.7146600e-02
  -5.2438100e-02   9.9360900e-02   3.7614800e-02
  -5.2672200e-02   1.1408500e-01   3.9721600e-02
  -6.8119600e-02   1.2203100e-01   3.1528500e-02
  -1.5682500e-01   1.3301600e-01   1.9355800e-02
  -1.6010200e-01   1.4306600e-01   8.3535800e-03
  -1.3974000e-01   1.5171300e-01  -2.2078100e-02
  -2.2001900e-01   1.3161400e-01  -5.8127900e-02
  -2.3944600e-01   1.2857500e-01  -7.5216400e-02
  -1.8655000e-01   1.1782400e-01  -8.9027700e-02
  -2.3780700e-01   8.7441500e-02  -8.5984600e-02
  -2.6940400e-01   6.7341900e-02  -6.8896000e-02
  -2.0550800e-01   5.4253900e-02  -5.8362000e-02
  -2.2376400e-01   4.9579600e-02  -3.6591600e-02
  -2.5138200e-01   2.5273200e-02  -3.8190800e-03
  -1.9310300e-01   1.4054900e-02   2.0292200e-02
  -1.8280500e-01   8.2119800e-03   2.9187600e-02
  -2.0176300e-01  -1.6328100e-02   3.4571600e-02
  -1.7227300e-01  -2.1703600e-02   3.9487500e-02
  -1.5635700e-01  -2.7312700e-02   4.3935200e-02
  -1.7742200e-01  -3.3389300e-02   4.9787500e-02
  -1.7835800e-01  -3.6661400e-02   4.9553400e-02
  -1.6618700e-01  -3.2921900e-02   4.6744300e-02
  -1.9638000e-01  -2.1469900e-02   4.7680600e-02
  -2.0597600e-01  -3.1519600e-02   4.8382900e-02
  -1.9825300e-01  -2.0067600e-02   5.1894300e-02
  -2.1674300e-01  -1.9833900e-02   4.9319300e-02
  -2.3242400e-01  -1.8665300e-02   3.7146600e-02
  -2.3172200e-01  -1.9600100e-02   4.7212500e-02
  -2.1580700e-01  -2.5443000e-02   6.3130600e-02
  -2.3757300e-01  -2.2404700e-02   6.1023800e-02
  -2.5302100e-01  -5.4657400e-02   6.5939600e-02
  -2.1838100e-01  -4.0400800e-02   7.6941900e-02
  -2.2119000e-01  -4.6010000e-02   7.0153300e-02
  -2.6870200e-01  -8.5507800e-02   6.5003300e-02
  -2.3616900e-01  -1.0069900e-01   6.9919200e-02
  -1.9731600e-01  -1.1729300e-01   4.8148800e-02
  -2.6121300e-01  -1.3505500e-01   2.4505800e-02
  -2.4225400e-01  -1.6263400e-01   1.2801300e-02
  -1.8584800e-01  -1.4463800e-01  -1.9503100e-02
  -2.3546700e-01  -1.5235000e-01  -5.5787000e-02
  -2.3031800e-01  -1.7361900e-01  -8.9964100e-02
  -1.7601800e-01  -1.7315100e-01  -1.1407500e-01
  -2.0316800e-01  -1.8226600e-01  -1.3935700e-01
  -2.0504000e-01  -1.7011300e-01  -1.6604300e-01
  -1.6478300e-01  -2.0517000e-01  -1.6721400e-01
  -1.6712400e-01  -2.2199800e-01  -1.6791600e-01
  -1.7086900e-01  -2.1311600e-01  -1.6393600e-01
  -1.5097400e-01  -2.4373300e-01  -1.4474100e-01
  -1.3435600e-01  -2.5799000e-01  -1.2554600e-01
  -1.5214400e-01  -2.7925800e-01  -1.2086400e-01
  -1.4512300e-01  -2.8346500e-01  -1.2063000e-01
  -1.1867500e-01  -2.8767200e-01  -1.0962800e-01
  -1.4091000e-01  -3.4306200e-01  -1.0447800e-01
  -1.6501700e-01  -3.5287800e-01  -1.0237100e-01
  -1.5214400e-01  -3.5311200e-01  -8.8091400e-02
  -1.6993200e-01  -3.8372900e-01  -7.6621000e-02
  -2.2189200e-01  -4.1738400e-01  -6.4214200e-02
  -2.3031800e-01  -4.2790100e-01  -4.5487000e-02
  -2.3710500e-01  -4.1084000e-01  -3.7293900e-02
  -2.8578800e-01  -4.5921900e-01  -2.4184900e-02
  -3.1691700e-01  -4.8095400e-01  -1.2480400e-02
  -3.0310800e-01  -4.4916900e-01  -1.3650800e-02
  -3.1434200e-01  -4.6365900e-01  -1.2246300e-02
  -3.4102400e-01  -4.9824900e-01   4.8422400e-03
  -3.1317200e-01  -4.9217200e-01   1.8185300e-02
  -2.9187300e-01  -4.5734900e-01   9.5240300e-03
  -3.0404400e-01  -4.7207300e-01   2.7354300e-03
  -2.7361700e-01  -4.7674700e-01  -1.0100000e-03
  -2.2680700e-01  -4.3491200e-01  -2.0673500e-02
  -2.2165800e-01  -4.2112300e-01  -6.1873300e-02
  -2.0316800e-01  -4.0616500e-01  -9.6050400e-02
  -1.4535700e-01  -3.9447900e-01  -1.3233400e-01
  -1.3178200e-01  -3.7438000e-01  -1.6908600e-01
  -1.2990900e-01  -3.4166000e-01  -1.7166100e-01
  -7.6077400e-02  -3.3745300e-01  -1.6346800e-01
  -6.3906700e-02  -3.2179400e-01  -1.4755000e-01
  -7.0460100e-02  -2.9444900e-01  -1.1384100e-01
  -4.2373900e-02  -2.6500100e-01  -5.9766500e-02
  -2.2245400e-02  -2.4630400e-01  -4.0531700e-03
  -2.2011300e-02  -2.3181400e-01   3.1996600e-02
  -1.5223800e-02  -2.0259900e-01   6.9685100e-02
   1.8947800e-02  -1.7478700e-01   9.8478100e-02
   3.2756900e-02  -1.9091300e-01   8.9114500e-02
   2.5735300e-02  -1.7782500e-01   7.0621400e-02
   7.0439300e-02  -1.3061500e-01   5.5171500e-02
   1.1116400e-01  -1.4674100e-01   1.7483100e-02
   8.2844000e-02  -1.4697500e-01  -1.2714500e-02
   1.2754800e-01  -1.0934700e-01  -3.0739400e-02
   1.7786900e-01  -1.0280300e-01  -3.5187100e-02
   1.4252700e-01  -1.1682600e-01  -2.1844000e-02
   1.7178400e-01  -8.5274100e-02  -1.1075900e-02
   2.0127400e-01  -5.5124900e-02   1.1396700e-02
   1.7576300e-01  -6.6576900e-02   5.0723800e-02
   1.8091200e-01  -5.1619100e-02   7.5771400e-02
   1.8114600e-01  -2.4975600e-02   8.7007700e-02
   1.5516600e-01  -1.9600100e-02   1.0784200e-01
   1.6874100e-01  -7.9143700e-03   1.1767300e-01
   1.4791100e-01   2.6441800e-02   1.1439600e-01
   1.1842000e-01   4.8177300e-02   1.0409600e-01
   1.5142100e-01   5.2150500e-02   9.2157700e-02
   1.2731400e-01   1.0286700e-01   7.2026000e-02
   1.1678200e-01   1.3558700e-01   4.6042000e-02
   1.4931500e-01   1.3932600e-01   1.9355800e-02
   1.4837900e-01   1.9822300e-01  -1.2948600e-02
   1.4252700e-01   2.2486600e-01  -4.1507500e-02
   1.6195400e-01   2.3561700e-01  -7.0300500e-02
   1.9074200e-01   2.8423000e-01  -9.8625400e-02
   1.8512500e-01   3.0619900e-01  -1.0518000e-01
   1.9191200e-01   3.0479700e-01  -9.4411800e-02
   2.3053100e-01   3.2419500e-01  -9.1602700e-02
   2.2561600e-01   3.5691500e-01  -7.4046000e-02
   2.2023300e-01   3.5668100e-01  -4.2443900e-02
   2.6587300e-01   3.6088800e-01  -1.7396300e-02
   2.5253200e-01   3.8355900e-01   8.8217600e-03
   2.4457400e-01   3.9547800e-01   3.9487500e-02
   2.8834200e-01   3.9290700e-01   6.5705600e-02
   2.7500100e-01   3.8285800e-01   8.0219100e-02
   2.4855300e-01   4.0178900e-01   1.0269200e-01
   2.7336300e-01   3.9267400e-01   1.3148500e-01
   2.8529900e-01   3.8332500e-01   1.4318900e-01
   2.1953100e-01   3.9010300e-01   1.5887300e-01
   2.1742400e-01   3.6509500e-01   1.8485700e-01
   2.5978700e-01   3.7771600e-01   1.8953900e-01
   1.8863600e-01   3.7467800e-01   1.9375300e-01
   1.5703900e-01   3.5060500e-01   2.1411800e-01
   2.2327500e-01   3.6229100e-01   2.2020500e-01
   1.8325200e-01   3.6532900e-01   2.1037300e-01
   1.3105900e-01   3.5504500e-01   2.0709600e-01
   1.9659300e-01   3.4219100e-01   2.0264800e-01
   1.9238000e-01   3.6439400e-01   1.7315300e-01
   1.3901700e-01   3.7795000e-01   1.4623200e-01
   1.6920900e-01   3.4593100e-01   1.3171900e-01
   1.9893400e-01   3.5340900e-01   9.8478100e-02
   1.5306000e-01   3.6930200e-01   7.2962300e-02
   1.4440000e-01   3.5037100e-01   6.1491900e-02
   1.8699700e-01   3.4078900e-01   4.3935200e-02
   1.5118700e-01   3.4242500e-01   3.1762600e-02
   1.1514300e-01   3.4780000e-01   3.4103400e-02
   1.5844300e-01   3.3658200e-01   4.2530700e-02
   1.4416600e-01   3.1671600e-01   4.5105700e-02
   7.5354400e-02   3.3377700e-01   5.4469200e-02
   1.1514300e-01   3.3190800e-01   6.5003300e-02
   1.2708000e-01   3.1508000e-01   6.2896500e-02
   4.5863800e-02   3.0596500e-01   6.3598700e-02
   6.4119900e-02   3.0432900e-01   5.5405600e-02
   9.2440200e-02   3.1157400e-01   4.6276100e-02
   3.8140100e-02   2.7511500e-01   3.6912500e-02
   1.8713700e-02   2.7581600e-01   2.3569400e-02
   5.6630200e-02   2.7160900e-01   1.7717200e-02
   4.2587100e-02   2.4473200e-01   3.6717900e-03
  -2.8190500e-03   2.3865500e-01   1.7990700e-03
   4.6331900e-02   2.2696900e-01  -1.2948600e-02
   6.7396600e-02   2.4660200e-01  -2.3482600e-02
   1.2862400e-02   2.2019200e-01  -2.2078100e-02
   4.4927600e-02   2.1154400e-01  -4.0571200e-02
   9.3610400e-02   2.2720300e-01  -4.6657500e-02
   5.7332400e-02   2.1388100e-01  -4.9466600e-02
   5.4523700e-02   2.1411500e-01  -3.8698400e-02
