**************************************************************************************
  RED ACELEROGRÁFICA DE LA UNIVERSIDAD AUTONOMA METROPOLITANA (RAUAM)
				UNIDAD AZCAPOTZALCO
                        DIVISIÓN CBI-DEPARTAMENTO DE MATERIALES
     Av. San Pablo 180, Col. Reynosa, Azcapotzalco, C.P. 02200, Ciudad de México
**************************************************************************************
ARCHIVO ESTANDAR DE ACELERACION:
VERSION DEL FORMATO                    : 2.0
NOMBRE DEL ARCHIVO                     : RIDA202103201
FECHA Y HORA DE CREACION               : 07:58 p. m. 20/03/2021
REF. CATALOGO ACELEROGRAMAS, SMIS 1995 : REGISTRO NO.      /PAG.    


================================================================================
DATOS DE LA ESTACION:
NOMBRE DE LA ESTACION                  : UAM-AZCAPOTZALCO.
CLAVE DE LA ESTACION                   : RIDA
LOCALIZACION DE LA ESTACION            : AV. SAN PABLO 180, COL.REYNOSA, AZCAPOTZALCO,
                                       : C.P.02200 CIUDAD DE MEXICO.
                                       :
                                       : 
                                       : 
COORDENADAS DE LA ESTACION             : 19.498596 LAT. N
                                       : 99.195595 LONG. W
ALTITUD (msnm)                         : 2246
TIPO DE SUELO                          : ZONA DE TRANSICION 
                                       : 
                                       : 
INSTITUCION RESPONSABLE                : UAM-AZCAPOTZALCO
                                       : 

================================================================================
DATOS DEL ACELEROGRAFO: 
MODELO DEL ACELEROGRAFO                : BASALT KINEMETRICS
NUMERO DE SERIE DEL ACELEROGRAFO       : 1730
NUMERO DE CANALES                      : 3
ORIENTACION C1-C6 (rumbo;orientacion)  : /V/N00E/N90E
ORIENTACION C7-C12 (rumbo;orientacion) : 
VEL. DE MUESTREO, C1-C6 (muestras/s)   : /200/200/200
VEL. DE MUESTREO, C7-C12 (muestras/s)  : 
ESC. COMPLETA DE SENSORES, C1-C6, (g)  : /2/2/2
ESC. COMPLETA DE SENSORES, C7-C12 (g)  : 
FREC. NAT. DE SENSORES, C1-C6, (Hz)    : /210/206/212
FREC. NAT. DE SENSORES, C7-C12 (Hz)    : 
AMORTIGUAMIENTO DE SENSORES, C1-C6     : /0.70/0.70/0.70   
AMORTIGUAMIENTO DE SENSORES, C7-C12    : 
INTERVALO DE MUESTREO, C1-C6 (s)       : /0.005/0.005/0.005
INTERVALO DE MUESTREO, C7-C12 (s)      : 
UMBRAL DE DISPARO, C1-C6 (Gal)         : /2/2/2
UMBRAL DE DISPARO, C7-C12 (Gal)        : 
MEMORIA DE PREEVENTO (s)               : 60
TIEMPO DE POSEVENTO (s)                : 90


================================================================================
DATOS DEL SISMO:
FECHA DEL SISMO [GMT]                  : 2021/03/20
HORA EPICENTRO (GMT)                   : 03:06:31
MAGNITUD(ES)                           : /M=5.7
COORDENADAS DEL EPICENTRO              : 16.45 LAT. N
                                       : 98.97 LONG. W
PROFUNDIDAD FOCAL (Km)                 : 19.0
FUENTE DE LOS DATOS EPICENTRALES       : SSN
                                       : INSTITUTO DE GEOFISICA, UNAM

================================================================================
DATOS DE ESTE REGISTRO:
HORA DE LA PRIMERA MUESTRA (GMT)       : 02:59:39.00
EXACTITUD DEL TIEMPO (s)               : 
DURACION DEL REGISTRO (s), C1-C6       : /235.00/235.00/235.00
DURACION DEL REGISTRO (s), C7-C12      : 
NUM. TOTAL DE MUESTRAS, C1-C6          : /47000/47000/47000
NUM. TOTAL DE MUESTRAS, C7-C12         : 
ACEL. MAX.(Gal), C1-C6                 : /-0.800/-1.600/-2.000
ACEL. MAX., C1-C6, EN LA MUESTRA       : /13423/23672/21687
ACEL. MAX.(Gal), C7-C12                : 
ACEL. MAX., C7-C12,EN LA MUESTRA       : 
UNIDADES DE LOS DATOS                  : Gal (cm/s/s)
FACTOR DE DECIMACION                   : 1
FORMATO DATOS (FORTRAN,16 campos/dato) : 3E16.7


================================================================================
CALIDAD DEL ACELEROGRAMA:
REGISTRO DIGITAL COMPLETO CON TIEMPO ABSOLUTO CORRECTO


================================================================================
COMENTARIOS:














================================================================================
DATOS DE ACELERACION:
---------+---------+---------+---------+---------+---------+---------+---------+
   CANAL-1  	    CANAL-2 	     CANAL-3
       V     	     N00E              N90E
---------+---------+---------+---------+---------+---------+---------+---------+ 
[...]
   1.9845100e-01   5.1060163e-02  -8.3093986e-01
   1.3156588e-01   4.9421890e-02  -7.7857790e-01
   1.8330278e-01   4.7549186e-02  -7.2574885e-01
   1.6629031e-01   4.8485342e-02  -6.6029669e-01
   6.8409262e-02   3.6080495e-02  -6.1307778e-01
   9.4511134e-02   3.6314534e-02  -5.7474136e-01
   7.3070283e-02   3.4910300e-02  -5.1162660e-01
   8.0494151e-03   3.0229129e-02  -4.7726454e-01
  -6.0000862e-02   1.8760045e-02  -4.4921344e-01
  -2.0615413e-02  -2.3050278e-03  -4.1321482e-01
  -1.3317861e-01  -1.6582579e-02  -3.7651497e-01
  -2.0216141e-01  -2.7115115e-02  -3.4051595e-01
  -1.2735244e-01  -4.3030939e-02  -3.1129655e-01
  -2.3199178e-01  -6.6436401e-02  -2.7155769e-01
  -2.5110154e-01  -7.8139524e-02  -2.4771430e-01
  -2.2593218e-01  -9.3821309e-02  -2.1241689e-01
  -2.8442778e-01  -1.2073775e-01  -1.5748379e-01
  -2.5832630e-01  -1.4344148e-01  -9.8109254e-02
  -2.4783910e-01  -1.6169770e-01  -2.0268116e-02
  -2.5133457e-01  -1.8674182e-01   5.9209591e-02
  -2.2406793e-01  -2.0523247e-01   1.4616735e-01
  -2.2523309e-01  -2.0336016e-01   2.3055398e-01
  -1.7955540e-01  -1.8791241e-01   3.2101823e-01
  -1.5112321e-01  -1.6146366e-01   4.0891095e-01
  -1.3411074e-01  -1.4203686e-01   4.8020738e-01
  -1.1290331e-01  -1.1839736e-01   5.5313960e-01
  -7.7013724e-02  -1.0622616e-01   6.0947514e-01
  -3.4831506e-02  -9.5927659e-02   6.5131804e-01
  -9.6822965e-02  -7.2522198e-02   6.9853695e-01
  -5.0445789e-02  -6.3627934e-02   7.3921076e-01
   7.3503206e-03  -5.0520577e-02   7.6328789e-01
  -2.4111276e-02  -3.5540909e-02   7.9484507e-01
   2.2964603e-02  -2.7583193e-02   8.2523356e-01
  -1.8285098e-02  -2.6647038e-02   8.4907695e-01
  -1.4556203e-02  -3.2264364e-02   8.8203658e-01
   5.2794979e-02  -3.5540909e-02   9.1733399e-01
  -2.2047523e-03  -3.4136675e-02   9.4304769e-01
   4.1142623e-02  -2.1965867e-02   9.5099522e-01
   6.0485800e-02  -2.5390667e-03   9.7016343e-01
   4.0909592e-02   2.4845842e-02   9.7857884e-01
   1.0732865e-01   5.4571139e-02   9.6572199e-01
   9.9171764e-02   7.7742562e-02   9.5496919e-01
   1.3809115e-01   1.0348881e-01   9.3907372e-01
   1.6559121e-01   1.3766123e-01   9.2037299e-01
   1.9309088e-01   1.8564314e-01   8.9769869e-01
   2.1243406e-01   2.5328549e-01   8.9232229e-01
   2.4948880e-01   3.2280054e-01   8.7595896e-01
   3.0612015e-01   3.9301771e-01   8.5258344e-01
   2.2315429e-01   4.5668100e-01   8.5071313e-01
   3.6834424e-01   5.0536502e-01   8.4206438e-01
   3.2546332e-01   5.4960191e-01   8.2920753e-01
   2.4389566e-01   5.9407284e-01   8.0629909e-01
   3.9864068e-01   6.3737318e-01   7.7474191e-01
   2.2898047e-01   6.7177965e-01   7.4108067e-01
   2.7232784e-01   7.0946305e-01   7.1980881e-01
   2.7046359e-01   7.3006005e-01   7.0321213e-01
   1.6069716e-01   7.4503972e-01   6.7516104e-01
   1.9868403e-01   7.6587075e-01   6.4407133e-01
   1.0126944e-01   7.6610479e-01   6.0456621e-01
   1.2853608e-01   7.7102000e-01   5.7604803e-01
   5.0464665e-02   7.6189169e-01   5.3607544e-01
   5.8388126e-02   7.4082662e-01   4.9306384e-01
   9.2646492e-02   7.1976155e-01   4.5846765e-01
   1.6439331e-02   6.8816355e-01   3.9395045e-01
   6.6311979e-02   6.6733251e-01   3.3714743e-01
   2.9490267e-02   6.4720360e-01   2.8057816e-01
   5.8621158e-02   6.1888293e-01   2.2307393e-01
   4.5337581e-02   5.8307183e-01   1.7865989e-01
   3.2053613e-02   5.4609094e-01   1.2863571e-01
   5.5125685e-02   5.2268508e-01   9.4974481e-02
   6.5379853e-02   5.0723734e-01   4.4950305e-02
   9.6608418e-02   4.9413037e-01  -3.6714344e-03
   2.3430666e-02   4.7634184e-01  -3.6397318e-02
   1.1059148e-01   4.4568039e-01  -8.3849968e-02
   8.5655156e-02   4.2087030e-01  -1.2171891e-01
   4.6968801e-02   3.9325175e-01  -1.6613294e-01
   1.7328164e-01   3.7171821e-01  -2.1405307e-01
   7.6100083e-02   3.6844166e-01  -2.6197359e-01
   7.4235440e-02   3.3778021e-01  -3.0077749e-01
   1.0243460e-01   2.9073446e-01  -3.2625705e-01
   8.3790513e-02   2.4345507e-01  -3.6248942e-01
   1.0756168e-01   1.9219662e-01  -3.7744993e-01
  -3.1368783e-03   1.4889589e-01  -3.7885236e-01
   6.3515210e-02   9.3892424e-02  -3.9381287e-01
   3.7413728e-02   3.3037596e-02  -3.9474783e-01
  -7.5648675e-03  -2.4072217e-02  -3.7207352e-01
   5.3494074e-02  -9.6161698e-02  -3.5407401e-01
  -7.3284830e-02  -1.7035792e-01  -3.3607490e-01
   4.4871518e-02  -2.3448969e-01  -3.1480264e-01
  -3.8094338e-02  -2.9885549e-01  -3.0451732e-01
  -7.2818767e-02  -3.5034798e-01  -2.9166086e-01
  -1.0395949e-03  -3.9107389e-01  -2.7950523e-01
  -1.3644145e-01  -4.4654543e-01  -2.7366135e-01
   2.9723298e-02  -4.9710176e-01  -2.6033741e-01
  -1.1430150e-01  -5.3408266e-01  -2.4187042e-01
  -8.6801829e-02  -5.7270222e-01  -2.4490904e-01
  -1.6420846e-02  -5.9376729e-01  -2.5776589e-01
  -1.6067828e-01  -6.0312963e-01  -2.6197359e-01
  -9.8951824e-03  -6.0570406e-01  -2.7225891e-01
  -8.4005060e-02  -6.0827888e-01  -2.8675194e-01
  -3.9958590e-02  -6.1834334e-01  -3.0171244e-01
  -6.1399442e-02  -6.1272601e-01  -3.0241366e-01
  -1.0125095e-01  -6.0453387e-01  -3.0568641e-01
   3.9511403e-02  -5.9072479e-01  -3.2999688e-01
  -1.3857109e-02  -5.7480857e-01  -3.4121756e-01
  -6.8657731e-03  -5.6380796e-01  -3.5384027e-01
  -1.1992857e-02  -5.3782767e-01  -3.6950200e-01
  -1.1992857e-02  -5.0810238e-01  -3.7744993e-01
   8.1926261e-02  -4.7392995e-01  -3.9568278e-01
   1.2477404e-02  -4.4092810e-01  -4.1040955e-01
  -4.4619611e-02  -4.1213896e-01  -4.1882496e-01
   1.3249800e-01  -3.8966966e-01  -4.2303266e-01
   8.5189093e-02  -3.6883823e-01  -4.2840906e-01
   4.5803644e-02  -3.4075160e-01  -4.2653914e-01
   1.6139625e-01  -3.1898441e-01  -4.2022739e-01
   1.3086678e-01  -3.0236608e-01  -4.2396762e-01
   1.8703167e-01  -2.8481198e-01  -4.0596811e-01
   2.0987071e-01  -2.6093805e-01  -3.8820273e-01
   2.4016715e-01  -2.3191487e-01  -3.8212511e-01
   2.8234898e-01  -1.8791241e-01  -3.7604749e-01
   2.6556954e-01  -1.4110070e-01  -3.7885236e-01
   3.2872576e-01  -8.8906099e-02  -3.7534588e-01
   3.9887372e-01  -2.6412999e-02  -3.7370970e-01
   3.1823857e-01   2.3441216e-02  -3.5477523e-01
   2.6743379e-01   8.2657771e-02  -3.2976314e-01
   3.8162821e-01   1.4655550e-01  -3.2508796e-01
   2.9330224e-01   2.1864498e-01  -3.1223151e-01
   2.6813289e-01   2.9401140e-01  -2.9703726e-01
   3.3688265e-01   3.5767509e-01  -2.9142712e-01
   2.2641712e-01   4.2765822e-01  -2.8862185e-01
   2.3340846e-01   4.8242725e-01  -2.8137554e-01
   2.3806948e-01   5.1987662e-01  -2.7109021e-01
   2.0031564e-01   5.4515478e-01  -2.6898617e-01
   2.2618409e-01   5.7581623e-01  -2.6524594e-01
   1.9145966e-01   6.1443579e-01  -2.6921991e-01
   1.7491325e-01   6.3105374e-01  -2.8698568e-01
   1.8773077e-01   6.3784126e-01  -2.8815438e-01
   1.7561235e-01   6.2754276e-01  -2.9095964e-01
   1.4042186e-01   6.0273267e-01  -2.9703726e-01
   1.1804888e-01   5.8354030e-01  -2.7880401e-01
   1.1525250e-01   5.5896425e-01  -2.7225891e-01
   8.4956062e-02   5.3345205e-01  -2.7085648e-01
   1.1618463e-01   5.0840792e-01  -2.4631187e-01
   4.0909592e-02   4.7563973e-01  -2.2340343e-01
  -5.3475589e-02   4.4755309e-01  -1.9628769e-01
   3.3451802e-02   4.2087030e-01  -1.5374357e-01
  -2.3412182e-02   4.0495448e-01  -1.0442101e-01
  -1.0964048e-01   4.1080584e-01  -4.8786296e-02
  -5.7437516e-02   4.2812629e-01   6.3801487e-03
  -1.0055147e-01   4.4802117e-01   6.6689647e-02
  -1.8141965e-01   4.6510719e-01   1.2933693e-01
  -1.5089018e-01   4.9576864e-01   1.8684117e-01
  -1.6883517e-01   5.2408971e-01   2.3148894e-01
  -1.8048752e-01   5.4960191e-01   2.6094247e-01
  -1.7675902e-01   5.8307183e-01   2.8174686e-01
  -2.1241557e-01   6.0483941e-01   2.8759074e-01
  -1.7419528e-01   6.2215947e-01   2.9951263e-01
  -1.6021222e-01   6.1794638e-01   3.1610931e-01
  -1.5531817e-01   5.9898805e-01   3.3457630e-01
  -2.0029676e-01   5.8190164e-01   3.6356196e-01
  -1.6324202e-01   5.4000553e-01   3.8787283e-01
  -1.4156853e-01   4.9202363e-01   4.1545644e-01
  -1.8957653e-01   4.4591443e-01   4.4888355e-01
  -1.6813607e-01   3.8974077e-01   4.8605126e-01
  -2.1218254e-01   3.3356711e-01   5.2859499e-01
  -2.0775455e-01   2.8020192e-01   5.7698299e-01
  -2.1684356e-01   2.2777328e-01   6.1905924e-01
  -2.2966108e-01   1.8166408e-01   6.6090214e-01
  -2.8512687e-01   1.3883143e-01   6.9316055e-01
  -2.3408907e-01   8.9913763e-02   7.1139380e-01
  -2.2639825e-01   5.6443450e-02   7.3734084e-01
  -3.6110100e-01   2.1568904e-02   7.4108067e-01
  -2.5552953e-01  -2.2199906e-02   7.5183387e-01
  -2.7044472e-01  -5.0754616e-02   7.6866429e-01
  -2.6578370e-01  -8.2118578e-02   7.6632650e-01
  -2.6555066e-01  -1.1629061e-01   7.6749559e-01
  -2.9980903e-01  -1.6099558e-01   7.5533996e-01
  -1.9843251e-01  -2.0476439e-01   7.4622334e-01
  -2.6088964e-01  -2.3027659e-01   7.2799048e-01
  -1.9936464e-01  -2.5953381e-01   7.1489989e-01
  -2.0868668e-01  -2.9136546e-01   7.1793889e-01
  -2.3968221e-01  -3.2787828e-01   6.9269307e-01
  -1.5042412e-01  -3.6368898e-01   6.6791472e-01
  -2.3082624e-01  -3.8920158e-01   6.5155178e-01
  -1.8002146e-01  -4.2103323e-01   6.1648811e-01
  -1.7559347e-01  -4.4537524e-01   5.6459362e-01
  -2.2057207e-01  -4.6971685e-01   5.1550479e-01
  -1.6300899e-01  -4.9991023e-01   4.7436311e-01
  -1.9470362e-01  -5.2027358e-01   4.2457307e-01
  -1.8887744e-01  -5.4625386e-01   3.7057493e-01
  -1.9260633e-01  -5.5350946e-01   3.2195319e-01
  -2.1917388e-01  -5.5982890e-01   2.5533233e-01
  -2.0379263e-01  -5.7948974e-01   1.8099729e-01
  -2.3968221e-01  -5.8721381e-01   1.2185648e-01
  -2.4690697e-01  -5.9002228e-01   4.0742601e-02
  -1.9936464e-01  -5.7176606e-01  -5.2994000e-02
  -2.4247898e-01  -5.5561620e-01  -1.2242012e-01
  -2.7487271e-01  -5.3852979e-01  -1.9909256e-01
  -2.0658901e-01  -5.1652856e-01  -2.8792064e-01
  -1.8911047e-01  -4.9382482e-01  -3.5524271e-01
  -2.3152533e-01  -4.5824816e-01  -4.2233144e-01
  -1.9866554e-01  -4.4256638e-01  -5.2097696e-01
  -1.7046639e-01  -4.2313958e-01  -6.2032410e-01
  -1.9610181e-01  -4.0371278e-01  -6.8951648e-01
  -1.5019109e-01  -3.9411640e-01  -7.7156532e-01
  -1.4366581e-01  -3.9107389e-01  -8.7114620e-01
  -1.0334824e-01  -3.9739333e-01  -9.4618246e-01
  -3.8094338e-02  -3.8030732e-01  -1.0319715e+00
  -1.1220422e-01  -3.7468999e-01  -1.1387987e+00
  -3.7162212e-02  -3.7375344e-01  -1.2203801e+00
   3.8112823e-02  -3.7328536e-01  -1.2979879e+00
  -3.3699098e-03  -3.8615868e-01  -1.3978025e+00
   8.9150628e-02  -3.7047690e-01  -1.4779810e+00
   6.5146821e-02  -3.5081606e-01  -1.5467059e+00
   8.2625356e-02  -3.3443216e-01  -1.6441827e+00
   1.8586652e-01  -3.0587705e-01  -1.7274007e+00
   1.4624803e-01  -2.6959827e-01  -1.7823338e+00
   1.8773077e-01  -2.2980852e-01  -1.8512924e+00
   2.2548500e-01  -1.8557163e-01  -1.9090304e+00
   2.2338732e-01  -1.2705719e-01  -1.9368477e+00
   2.5088738e-01  -8.0011835e-02  -1.9733139e+00
   2.6370490e-01  -3.8583807e-02  -1.9917808e+00
   2.1965843e-01   7.7594307e-03  -1.9677037e+00
   2.7908615e-01   5.3634591e-02  -1.9310035e+00
   2.8374717e-01   9.5531089e-02  -1.9013166e+00
   1.4345127e-01   1.2970313e-01  -1.8545648e+00
   2.6300580e-01   1.7487617e-01  -1.7746196e+00
   2.2967956e-01   1.9266470e-01  -1.7089337e+00
   1.5090906e-01   2.0179300e-01  -1.6236121e+00
   1.6931972e-01   2.2145384e-01  -1.5111748e+00
   8.4723030e-02   2.1911306e-01  -1.4440864e+00
   1.5510401e-01   2.2262403e-01  -1.3788680e+00
   5.5591748e-02   2.1724075e-01  -1.2881700e+00
   3.6214258e-03   2.0038837e-01  -1.2138350e+00
   4.6968801e-02   1.6176921e-01  -1.1397337e+00
   2.9223314e-03   1.1987310e-01  -1.0282313e+00
   5.0200057e-03   8.6636826e-02  -9.2257281e-01
  -5.2776495e-02   3.0931246e-02  -8.4940685e-01
   2.6926529e-02  -6.0496503e-03  -7.3767035e-01
  -5.5572873e-02  -6.4798128e-02  -6.0676603e-01
  -1.1406847e-01  -1.3641953e-01  -4.9409496e-01
   1.7371457e-02  -2.0031726e-01  -3.4939883e-01
  -7.5615145e-02  -2.7076847e-01  -1.9021007e-01
  -1.0777623e-01  -3.1383516e-01  -5.5565527e-02
  -7.4683019e-02  -3.7094497e-01   9.1000517e-02
  -5.6971453e-02  -4.2056515e-01   2.7356558e-01
  -1.1966161e-01  -4.6550415e-01   4.3906570e-01
  -1.2665334e-01  -5.1395374e-01   5.8516427e-01
  -9.6589933e-02  -5.4157269e-01   7.5744401e-01
  -1.9190724e-01  -5.7761743e-01   9.0564623e-01
  -9.3560133e-02  -6.0195944e-01   1.0157462e+00
  -1.2851759e-01  -6.2349259e-01   1.1370664e+00
  -2.4364414e-01  -6.4174920e-01   1.2495037e+00
  -1.7303013e-01  -6.5813310e-01   1.3282802e+00
  -2.0682243e-01  -6.7896413e-01   1.3918624e+00
  -2.3036017e-01  -6.9160341e-01   1.4545093e+00
  -2.0122889e-01  -7.2858431e-01   1.4914433e+00
  -2.4550839e-01  -7.6018191e-01   1.5183253e+00
  -2.2756379e-01  -7.7609774e-01   1.5508175e+00
  -2.2546612e-01  -8.1354710e-01   1.5440386e+00
  -2.6508460e-01  -8.5005992e-01   1.5388960e+00
  -2.0495779e-01  -8.8142349e-01   1.5575967e+00
  -2.4923729e-01  -9.2776673e-01   1.5524540e+00
  -2.4364414e-01  -9.8230212e-01   1.5386622e+00
  -2.0146192e-01  -1.0190494e+00   1.5251042e+00
  -2.2476703e-01  -1.0494768e+00   1.4958844e+00
  -1.7186497e-01  -1.0876279e+00   1.4402500e+00
  -2.0402566e-01  -1.1131401e+00   1.3956027e+00
  -1.6114435e-01  -1.1295240e+00   1.3624089e+00
  -1.2339051e-01  -1.1384182e+00   1.2894763e+00
  -1.8002146e-01  -1.1262474e+00   1.2364135e+00
  -1.4599613e-01  -1.0937133e+00   1.1873243e+00
  -6.0466925e-02  -1.0614135e+00   1.1050417e+00
  -5.2077400e-02  -1.0181128e+00   1.0515111e+00
  -7.3051798e-02  -9.4789565e-01   1.0045259e+00
   1.3875593e-02  -8.8001926e-01   9.3019084e-01
   4.5539428e-03  -8.0605707e-01   8.5468709e-01
   3.5782508e-02  -7.0705116e-01   8.0326048e-01
   8.3091419e-02  -6.0055481e-01   7.2775674e-01
   6.7710168e-02  -4.9616561e-01   6.3799371e-01
   1.4065489e-01  -3.9177601e-01   5.7604803e-01
   1.0336672e-01  -2.9206758e-01   4.7997364e-01
   1.5300634e-01  -1.9329570e-01   3.6566601e-01
   1.9262482e-01  -8.4927045e-02   2.9273340e-01
   1.1012542e-01   1.2674640e-02   2.0717807e-01
   1.7258255e-01   1.0278669e-01   8.2351763e-02
   1.8773077e-01   1.9523913e-01   6.1464092e-03
   1.4997693e-01   2.5983897e-01  -7.3564645e-02
   1.6862062e-01   3.1437435e-01  -1.9067755e-01
   1.5207421e-01   3.7991035e-01  -2.6571381e-01
   1.2853608e-01   4.2999861e-01  -3.3373711e-01
   1.6815456e-01   4.7634184e-01  -4.2069487e-01
   1.3063375e-01   5.2689817e-01  -5.0251037e-01
   1.0359975e-01   5.8073144e-01  -5.3710656e-01
   1.3366316e-01   6.4041608e-01  -5.8946813e-01
   6.7011073e-02   6.9378087e-01  -6.5936173e-01
   4.4172032e-02   7.5697648e-01  -6.5211502e-01
   3.9511403e-02   8.1712920e-01  -6.6053043e-01
   5.1163759e-02   8.7400497e-01  -6.9512662e-01
  -3.3699098e-03   9.3579595e-01  -6.8133481e-01
  -5.1378306e-02   9.9688521e-01  -6.5211502e-01
  -1.8285098e-02   1.0626553e+00  -6.5258250e-01
  -8.3305966e-02   1.1249143e+00  -6.3481712e-01
  -7.5848176e-02   1.1911524e+00  -5.8175394e-01
  -7.0954124e-02   1.2405386e+00  -5.7637754e-01
  -1.0241611e-01   1.2974143e+00  -5.6422230e-01
  -7.8877976e-02   1.3496093e+00  -5.0251037e-01
  -7.8178882e-02   1.3725467e+00  -4.8614703e-01
  -8.0276165e-02   1.4179538e+00  -4.8825108e-01
  -9.0530333e-02   1.4619567e+00  -4.5178497e-01
  -8.0975260e-02   1.4870008e+00  -4.3495416e-01
  -5.7670547e-02   1.4956610e+00  -4.4874597e-01
  -9.0763364e-02   1.4968312e+00  -4.3168180e-01
  -9.3327101e-02   1.4778725e+00  -3.9568278e-01
  -2.3645213e-02   1.4305931e+00  -3.9428035e-01
  -6.0000862e-02   1.3870583e+00  -3.8890395e-01
