**************************************************************************************
  	RED ACELEROGRÁFICA DE LA UNIVERSIDAD AUTONOMA METROPOLITANA (RAUAM)
	   UNIDAD AZCAPOTZALCO. DIVISIÓN CBI-DEPARTAMENTO DE MATERIALES
     Av. San Pablo 180, Col. Reynosa, Azcapotzalco, C.P. 02200, Ciudad de México
		Área de Estructuras. e-mail: agb@azc.uam.mx
**************************************************************************************
ARCHIVO ESTANDAR DE ACELERACION:
VERSION DEL FORMATO                    : 2.0
NOMBRE DEL ARCHIVO                     : RIDR202109081
FECHA Y HORA DE CREACION               : 11:50 a. m. 09/09/2021
REF. CATALOGO ACELEROGRAMAS, SMIS 1999 : REGISTRO NO.      /PAG.    


================================================================================
DATOS DE LA ESTACION:
NOMBRE DE LA ESTACION                  : UAM-RECTORIA.
CLAVE DE LA ESTACION                   : RIDR
LOCALIZACION DE LA ESTACION            : PROL. CANAL DE MIRAMONTES 3855, COL. EX
                                       : DE SAN JUAN DE DIOS, C.P.14387 CIUDAD DE MEXICO. 
                                       :
                                       : 
                                       : 
COORDENADAS DE LA ESTACION             : 19.286151 LAT. N
                                       : 99.136658 LONG. W
ALTITUD (msnm)                         : 2250
TIPO DE SUELO                          : ZONA DEL LAGO
                                       : 
                                       : 
INSTITUCION RESPONSABLE                : UNIVERSIDAD AUTONOMA METROPOLITANA
                                       : 

================================================================================
DATOS DEL ACELEROGRAFO: 
MODELO DEL ACELEROGRAFO                : ETNA2 KINEMETRICS
NUMERO DE SERIE DEL ACELEROGRAFO       : 103462
NUMERO DE CANALES                      : 3
ORIENTACION C1-C6 (rumbo;orientacion)  : /N90E/N00E/V
ORIENTACION C7-C12 (rumbo;orientacion) : 
VEL. DE MUESTREO, C1-C6 (muestras/s)   : /200/200/200
VEL. DE MUESTREO, C7-C12 (muestras/s)  : 
ESC. COMPLETA DE SENSORES, C1-C6, (g)  : /2/2/2
ESC. COMPLETA DE SENSORES, C7-C12 (g)  : 
FREC. NAT. DE SENSORES, C1-C6, (Hz)    : /200/200/202   
FREC. NAT. DE SENSORES, C7-C12 (Hz)    : 
AMORTIGUAMIENTO DE SENSORES, C1-C6     : /0.7/0.7/0.7      
AMORTIGUAMIENTO DE SENSORES, C7-C12    : 
INTERVALO DE MUESTREO, C1-C6 (s)       : /0.005/0.005/0.005
INTERVALO DE MUESTREO, C7-C12 (s)      : 
UMBRAL DE DISPARO, C1-C6 (Gal)         : /2/2/2
UMBRAL DE DISPARO, C7-C12 (Gal)        : 
MEMORIA DE PREEVENTO (s)               : 50
TIEMPO DE POSEVENTO (s)                : 60


================================================================================
DATOS DEL SISMO:
FECHA DEL SISMO [GMT]                  : 2021/09/08
HORA EPICENTRO (GMT)                   : 01:47:46
MAGNITUD(ES)                           : /M=7.1
COORDENADAS DEL EPICENTRO              : 16.78 LAT. N
                                       : 99.93 LONG. W
PROFUNDIDAD FOCAL (Km)                 : 10.0
FUENTE DE LOS DATOS EPICENTRALES       : SSN
                                       : INSTITUTO DE GEOFISICA, UNAM

================================================================================
DATOS DE ESTE REGISTRO:
HORA DE LA PRIMERA MUESTRA (GMT)       : 01:47:43.000
EXACTITUD DEL TIEMPO (s)               : 
DURACION DEL REGISTRO (s), C1-C6       : /296.00/296.00/296.00
DURACION DEL REGISTRO (s), C7-C12      : 
NUM. TOTAL DE MUESTRAS, C1-C6          : /59200/59200/59200
NUM. TOTAL DE MUESTRAS, C7-C12         : 
ACEL. MAX.(Gal), C1-C6                 : /-36.20/47.20/-12.20
ACEL. MAX., C1-C6, EN LA MUESTRA       : /20627/18492/18941
ACEL. MAX.(Gal), C7-C12                : 
ACEL. MAX., C7-C12,EN LA MUESTRA       : 
UNIDADES DE LOS DATOS                  : Gal (cm/s/s)
FACTOR DE DECIMACION                   : 1
FORMATO DATOS (FORTRAN,16 campos/dato) : 3E16.7


================================================================================
CALIDAD DEL ACELEROGRAMA:
REGISTRO DIGITAL COMPLETO CON TIEMPO ABSOLUTO CORRECTO


================================================================================
COMENTARIOS:














================================================================================
DATOS DE ACELERACION:
---------+---------+---------+---------+---------+---------+---------+---------+
   CANAL-1   	     CANAL-2       CANAL-3
     N90E             N00E           V
---------+---------+---------+---------+---------+---------+---------+---------+ 
[...]
   6.1951743e+00  -1.1772785e+01   9.6065000e-04
   5.4736125e+00  -1.1811632e+01  -1.9360328e-01
   4.7172574e+00  -1.1842289e+01  -3.2659054e-01
   3.9875224e+00  -1.1857735e+01  -3.5866687e-01
   3.2939826e+00  -1.1919750e+01  -3.8489035e-01
   2.5948389e+00  -1.1885817e+01  -3.4157651e-01
   2.0042790e+00  -1.1911794e+01  -2.0718451e-01
   1.4284310e+00  -1.2046355e+01  -6.2959734e-02
   8.9718397e-01  -1.2213679e+01   2.2498534e-02
   3.2086817e-01  -1.2355729e+01   1.0538076e-01
  -2.8253483e-01  -1.2472974e+01   2.0675956e-01
  -9.8401353e-01  -1.2498247e+01   3.3553204e-01
  -1.7716604e+00  -1.2565646e+01   4.7882036e-01
  -2.5948011e+00  -1.2634916e+01   6.6916950e-01
  -3.4310185e+00  -1.2746309e+01   8.8410217e-01
  -4.2413153e+00  -1.2917612e+01   1.0908409e+00
  -5.0892090e+00  -1.2970734e+01   1.3240360e+00
  -5.8075011e+00  -1.3042578e+01   1.5359252e+00
  -6.5269614e+00  -1.3059662e+01   1.8248433e+00
  -7.2209682e+00  -1.3121443e+01   2.1273417e+00
  -7.8481894e+00  -1.3262089e+01   2.4139195e+00
  -8.4898890e+00  -1.3281045e+01   2.7506008e+00
  -9.1028662e+00  -1.3325275e+01   3.1486254e+00
  -9.6873544e+00  -1.3351017e+01   3.5883247e+00
  -1.0118657e+01  -1.3363654e+01   3.9432685e+00
  -1.0585453e+01  -1.3378866e+01   4.3195189e+00
  -1.1096384e+01  -1.3263260e+01   4.7514925e+00
  -1.1516245e+01  -1.3034155e+01   5.1516234e+00
  -1.1842932e+01  -1.2727122e+01   5.5325561e+00
  -1.2086723e+01  -1.2415875e+01   5.8802424e+00
  -1.2346625e+01  -1.2109076e+01   6.1251440e+00
  -1.2631747e+01  -1.1715689e+01   6.2281616e+00
  -1.3074725e+01  -1.1114025e+01   6.2944209e+00
  -1.3662949e+01  -1.0446835e+01   6.3449931e+00
  -1.4319594e+01  -9.6497640e+00   6.3787075e+00
  -1.5025510e+01  -8.7366191e+00   6.4299820e+00
  -1.5811755e+01  -7.9264435e+00   6.5255079e+00
  -1.6621352e+01  -7.1686873e+00   6.6151794e+00
  -1.7301581e+01  -6.5279420e+00   6.5845078e+00
  -1.8086659e+01  -5.8972588e+00   6.5306573e+00
  -1.8980321e+01  -5.1844348e+00   6.5107557e+00
  -1.9882157e+01  -4.5083522e+00   6.4920246e+00
  -2.0821821e+01  -3.8573101e+00   6.4779766e+00
  -2.1777832e+01  -3.2425406e+00   6.4887463e+00
  -2.2658884e+01  -2.7410364e+00   6.5259732e+00
  -2.3395858e+01  -2.1971748e+00   6.6238395e+00
  -2.4173697e+01  -1.6441863e+00   6.7594021e+00
  -2.4831508e+01  -1.2269297e+00   6.8322166e+00
  -2.5320956e+01  -7.9305746e-01   6.8624193e+00
  -2.5632466e+01  -5.5154928e-01   6.8359617e+00
  -2.5879291e+01  -3.4771769e-01   6.7741505e+00
  -2.6154839e+01  -1.2118717e-01   6.6938428e+00
  -2.6432255e+01  -4.6066583e-02   6.6093211e+00
  -2.6802143e+01   1.1119401e-01   6.5505534e+00
  -2.7043364e+01   2.5254172e-01   6.4369992e+00
  -2.7247690e+01   4.3811963e-01   6.3756562e+00
  -2.7433335e+01   7.1379437e-01   6.3662905e+00
  -2.7646067e+01   8.0084982e-01   6.2550774e+00
  -2.7796451e+01   8.2097536e-01   6.0591080e+00
  -2.7863704e+01   8.6520462e-01   5.8778894e+00
  -2.8024829e+01   8.0927341e-01   5.7116556e+00
  -2.8133414e+01   7.8821155e-01   5.5369929e+00
  -2.8253207e+01   6.9015773e-01   5.3642023e+00
  -2.8413399e+01   4.9475067e-01   5.1562931e+00
  -2.8600445e+01   3.9646205e-01   4.9579826e+00
  -2.8701790e+01   3.3257479e-01   4.7718476e+00
  -2.8880897e+01   3.9973855e-01   4.6863886e+00
  -2.9124219e+01   5.6987079e-01   4.6632093e+00
  -2.9170456e+01   6.9343282e-01   4.6290252e+00
  -2.9131926e+01   8.7081911e-01   4.6629745e+00
  -2.9043891e+01   9.0639031e-01   4.6526723e+00
  -2.8964730e+01   8.3805624e-01   4.5562092e+00
  -2.8894675e+01   8.0739954e-01   4.4400797e+00
  -2.8887203e+01   8.1488822e-01   4.3031117e+00
  -2.8791696e+01   9.3751424e-01   4.1069090e+00
  -2.8482522e+01   1.0491414e+00   3.9004037e+00
  -2.8116838e+01   1.0044438e+00   3.6238936e+00
  -2.7726401e+01   8.7011587e-01   3.1982412e+00
  -2.7298835e+01   7.4468152e-01   2.7302103e+00
  -2.6825967e+01   5.8765383e-01   2.2478976e+00
  -2.6340957e+01   4.9006801e-01   1.7421720e+00
  -2.5614025e+01   3.2601950e-01   1.2135016e+00
  -2.4805129e+01   1.2827321e-01   8.2390512e-01
  -2.4155491e+01  -1.7127235e-01   5.5090675e-01
  -2.3368313e+01  -6.3556748e-01   2.7158653e-01
  -2.2421175e+01  -9.6015276e-01   7.7959058e-02
  -2.1412391e+01  -1.3352863e+00  -5.7837573e-02
  -2.0370914e+01  -1.7286735e+00  -1.9363499e-01
  -1.9172282e+01  -2.0932769e+00  -3.7344896e-01
  -1.7978554e+01  -2.5695069e+00  -5.5045277e-01
  -1.6822655e+01  -2.9715530e+00  -6.6892419e-01
  -1.5443982e+01  -3.3293688e+00  -7.8552270e-01
  -1.4066711e+01  -3.6291484e+00  -8.9931106e-01
  -1.2760896e+01  -3.7609015e+00  -9.2085147e-01
  -1.1436399e+01  -3.8959315e+00  -8.4077861e-01
  -9.9820672e+00  -3.9326723e+00  -6.8016429e-01
  -8.4957443e+00  -3.8208111e+00  -3.9569430e-01
  -6.9828012e+00  -3.7866447e+00  -7.8211108e-02
  -5.3390897e+00  -3.6794635e+00   2.3903718e-01
  -3.7280693e+00  -3.6275114e+00   5.3334074e-01
  -2.1922420e+00  -3.6186188e+00   7.5951245e-01
  -7.1128953e-01  -3.4538693e+00   9.8240578e-01
   7.1945642e-01  -3.3600271e+00   1.1676036e+00
   1.9848741e+00  -3.3001181e+00   1.3129998e+00
   3.2465550e+00  -3.2165735e+00   1.4242121e+00
   4.4029211e+00  -3.1618134e+00   1.5518132e+00
   5.3636019e+00  -3.0763959e+00   1.7363095e+00
   6.3530044e+00  -3.0082962e+00   1.9041814e+00
   7.1938920e+00  -2.9928515e+00   2.0694788e+00
   7.9406725e+00  -3.0249122e+00   2.2417996e+00
   8.7516702e+00  -3.1784290e+00   2.3356859e+00
   9.6058679e+00  -3.2891205e+00   2.3696344e+00
   1.0409626e+01  -3.3876431e+00   2.4026473e+00
   1.1228096e+01  -3.6799338e+00   2.3136766e+00
   1.2051937e+01  -3.9293992e+00   2.0994455e+00
   1.2751081e+01  -4.2071802e+00   1.8318318e+00
   1.3448823e+01  -4.5638269e+00   1.5305033e+00
   1.4223625e+01  -4.8259290e+00   1.2111464e+00
   1.5048400e+01  -5.2041046e+00   8.3583244e-01
   1.5857296e+01  -5.6442960e+00   5.0289621e-01
   1.6803732e+01  -6.0624897e+00   1.8166646e-01
   1.7805044e+01  -6.5717163e+00  -1.8404807e-01
   1.8817331e+01  -7.0877296e+00  -5.4788969e-01
   1.9920923e+01  -7.6491432e+00  -9.4544606e-01
   2.0909859e+01  -8.2990164e+00  -1.3703969e+00
   2.1811694e+01  -8.9762693e+00  -1.7817668e+00
   2.2596537e+01  -9.6874548e+00  -2.1257079e+00
   2.3418744e+01  -1.0413384e+01  -2.4642629e+00
   2.4254260e+01  -1.1116145e+01  -2.7836197e+00
   2.5000107e+01  -1.1830842e+01  -3.0545111e+00
   2.5727739e+01  -1.2409572e+01  -3.2959017e+00
   2.6296114e+01  -1.2929564e+01  -3.4736079e+00
   2.6753570e+01  -1.3508764e+01  -3.5951228e+00
   2.7097303e+01  -1.3930233e+01  -3.6667675e+00
   2.7434266e+01  -1.4320110e+01  -3.6925227e+00
   2.7702808e+01  -1.4574255e+01  -3.5766273e+00
   2.7968080e+01  -1.4729177e+01  -3.3881519e+00
   2.8274919e+01  -1.4934412e+01  -3.2244941e+00
   2.8465700e+01  -1.5016319e+01  -3.0341449e+00
   2.8684270e+01  -1.5112736e+01  -2.8461369e+00
   2.8813637e+01  -1.5165858e+01  -2.6677284e+00
   2.8889063e+01  -1.5124203e+01  -2.4811258e+00
   2.8797524e+01  -1.5125373e+01  -2.2008699e+00
   2.8578487e+01  -1.5129117e+01  -1.8744904e+00
   2.8441880e+01  -1.5213131e+01  -1.5792496e+00
   2.8280755e+01  -1.5397304e+01  -1.2746442e+00
   2.8048641e+01  -1.5589434e+01  -9.6676126e-01
   2.7629014e+01  -1.5749270e+01  -6.5794107e-01
   2.7183934e+01  -1.5834921e+01  -2.9433431e-01
   2.6680009e+01  -1.5876577e+01   1.4372696e-01
   2.6282799e+01  -1.6059581e+01   5.1342069e-01
   2.5925988e+01  -1.6224331e+01   8.4963456e-01
   2.5285690e+01  -1.6300387e+01   1.2434444e+00
   2.4537741e+01  -1.6460456e+01   1.6405318e+00
   2.3841166e+01  -1.6499538e+01   2.0460481e+00
   2.3257144e+01  -1.6598763e+01   2.4560133e+00
   2.2532080e+01  -1.6772873e+01   2.8842402e+00
   2.1878004e+01  -1.6799786e+01   3.2832013e+00
   2.1263159e+01  -1.6760705e+01   3.6306527e+00
   2.0590869e+01  -1.6597827e+01   3.9764660e+00
   2.0058921e+01  -1.6347426e+01   4.2815396e+00
   1.9429832e+01  -1.6185953e+01   4.4817223e+00
   1.8652461e+01  -1.6035244e+01   4.6130700e+00
   1.7891902e+01  -1.5816905e+01   4.6891622e+00
   1.7317922e+01  -1.5551994e+01   4.6786259e+00
   1.6790411e+01  -1.5036215e+01   4.7029757e+00
   1.6358408e+01  -1.4400852e+01   4.7247495e+00
   1.5871996e+01  -1.3656903e+01   4.6840102e+00
   1.5303620e+01  -1.2832920e+01   4.6086189e+00
   1.4845230e+01  -1.2062761e+01   4.5325260e+00
   1.4232253e+01  -1.1047116e+01   4.4931913e+00
   1.3524236e+01  -1.0056511e+01   4.4433208e+00
   1.2652057e+01  -9.0567794e+00   4.4318480e+00
   1.1711224e+01  -7.9699920e+00   4.3667585e+00
   1.0790942e+01  -6.9346889e+00   4.2197236e+00
   9.8468401e+00  -5.8034382e+00   4.0890775e+00
   8.8625741e+00  -4.6813135e+00   3.9593678e+00
   7.7087760e+00  -3.6017810e+00   3.8343412e+00
   6.6530544e+00  -2.5236525e+00   3.6372013e+00
   5.6522093e+00  -1.4012946e+00   3.3759094e+00
   4.6828879e+00  -2.9508352e-01   3.1001017e+00
   3.8237863e+00   8.8999150e-01   2.7596730e+00
   2.9245193e+00   2.0355179e+00   2.3084998e+00
   1.9652398e+00   3.1850224e+00   1.7922383e+00
   9.7256703e-01   4.4639398e+00   1.2741038e+00
   1.1448663e-03   5.7728118e+00   8.3510539e-01
  -1.0298245e+00   7.1715474e+00   5.3588391e-01
  -1.8900943e+00   8.4621657e+00   2.0365081e-01
  -2.5574801e+00   9.6778980e+00  -1.8922328e-01
  -3.1980123e+00   1.0973430e+01  -5.8560987e-01
  -3.6846575e+00   1.2327234e+01  -9.6466968e-01
  -4.1381438e+00   1.3826364e+01  -1.2484389e+00
  -4.5876606e+00   1.5391019e+01  -1.4631381e+00
  -5.0502540e+00   1.6906765e+01  -1.6445909e+00
  -5.4687127e+00   1.8390683e+01  -1.8351749e+00
  -5.8570487e+00   1.9867348e+01  -1.9559875e+00
  -6.1559483e+00   2.1427791e+01  -1.9728448e+00
  -6.4810012e+00   2.3080906e+01  -1.9456864e+00
  -6.8964244e+00   2.4745019e+01  -1.8972213e+00
  -7.1967250e+00   2.6325822e+01  -1.8880904e+00
  -7.5413940e+00   2.7850928e+01  -1.9281274e+00
  -7.8722842e+00   2.9292021e+01  -2.0248247e+00
  -8.3442183e+00   3.0785768e+01  -2.0402773e+00
  -8.9347782e+00   3.2290047e+01  -1.9904075e+00
  -9.5204339e+00   3.3702355e+01  -1.9332794e+00
  -9.9487010e+00   3.5163340e+01  -1.7991223e+00
  -1.0236159e+01   3.6535397e+01  -1.6586433e+00
  -1.0537860e+01   3.7858076e+01  -1.5752929e+00
  -1.0610950e+01   3.9076850e+01  -1.6345288e+00
  -1.0764136e+01   4.0208803e+01  -1.7714960e+00
  -1.0952116e+01   4.1249489e+01  -1.9229798e+00
  -1.1099697e+01   4.2255773e+01  -2.0325541e+00
  -1.1258955e+01   4.3255739e+01  -2.0910876e+00
  -1.1365905e+01   4.4090254e+01  -2.2013643e+00
  -1.1395796e+01   4.4783887e+01  -2.3732176e+00
  -1.1285110e+01   4.5379702e+01  -2.5757422e+00
  -1.1162048e+01   4.5913032e+01  -2.7497025e+00
  -1.0924329e+01   4.6358372e+01  -2.9231954e+00
  -1.0752696e+01   4.6791074e+01  -3.0728056e+00
  -1.0523618e+01   4.7063707e+01  -3.1563917e+00
  -1.0272590e+01   4.7203182e+01  -3.2432546e+00
  -1.0195296e+01   4.7203181e+01  -3.3930996e+00
  -1.0127578e+01   4.7007073e+01  -3.5745524e+00
  -1.0109130e+01   4.6786860e+01  -3.7862082e+00
  -1.0050051e+01   4.6518440e+01  -4.0191699e+00
  -1.0009653e+01   4.6153369e+01  -4.1729957e+00
  -9.9064399e+00   4.5748281e+01  -4.2867840e+00
  -9.7023475e+00   4.5151764e+01  -4.4843914e+00
  -9.4461821e+00   4.4439876e+01  -4.7138415e+00
  -9.1813766e+00   4.3852487e+01  -4.8650912e+00
  -9.0646191e+00   4.3202848e+01  -4.9734949e+00
  -8.9254442e+00   4.2598843e+01  -4.9884794e+00
  -8.7778635e+00   4.2004199e+01  -4.8749259e+00
  -8.6155702e+00   4.1262356e+01  -4.7070540e+00
  -8.3615063e+00   4.0586742e+01  -4.4886089e+00
  -8.0749840e+00   3.9877661e+01  -4.2519012e+00
  -7.7662772e+00   3.9067017e+01  -4.0463339e+00
  -7.3956890e+00   3.8246311e+01  -3.8936802e+00
  -7.0232328e+00   3.7290106e+01  -3.7731025e+00
  -6.9092780e+00   3.6146685e+01  -3.6426913e+00
  -6.7838803e+00   3.4789839e+01  -3.5726861e+00
  -6.6654882e+00   3.3416611e+01  -3.5680042e+00
  -6.6935104e+00   3.2152203e+01  -3.5621509e+00
  -6.6454064e+00   3.0900198e+01  -3.5392065e+00
  -6.5389243e+00   2.9666446e+01  -3.5527863e+00
  -6.3990490e+00   2.8261158e+01  -3.6703213e+00
  -6.3446405e+00   2.6715223e+01  -3.8428769e+00
  -6.3112476e+00   2.5164374e+01  -4.0369726e+00
  -6.3742967e+00   2.3613760e+01  -4.1797935e+00
  -6.3395035e+00   2.2119544e+01  -4.3139521e+00
  -6.1914550e+00   2.0755678e+01  -4.4680112e+00
  -5.9733528e+00   1.9445635e+01  -4.6176221e+00
  -5.5555944e+00   1.8173036e+01  -4.7948600e+00
  -5.2116272e+00   1.6959878e+01  -4.9880193e+00
  -4.8945137e+00   1.5568163e+01  -5.1963975e+00
  -4.7224134e+00   1.4143217e+01  -5.3467107e+00
  -4.6250385e+00   1.2679891e+01  -5.4750157e+00
  -4.5472780e+00   1.1149169e+01  -5.5173938e+00
  -4.4517702e+00   9.7289035e+00  -5.4553493e+00
  -4.3658373e+00   8.2440480e+00  -5.3762129e+00
  -4.3139974e+00   6.7360255e+00  -5.2928625e+00
  -4.1341910e+00   5.2474260e+00  -5.2500161e+00
  -4.0956611e+00   3.6745796e+00  -5.2017858e+00
  -4.1101389e+00   2.0603119e+00  -5.1961667e+00
  -4.1173783e+00   5.4292784e-01  -5.2165365e+00
  -4.1402628e+00  -9.3537484e-01  -5.2137275e+00
  -4.1748237e+00  -2.3879350e+00  -5.1765006e+00
  -4.2238622e+00  -3.7663112e+00  -5.1500446e+00
  -4.2698645e+00  -5.2186374e+00  -5.1669019e+00
  -4.3023231e+00  -6.6288402e+00  -5.1359969e+00
  -4.2077501e+00  -7.9377125e+00  -5.1301444e+00
  -4.1694537e+00  -9.1826969e+00  -5.1128188e+00
  -4.0354166e+00  -1.0366369e+01  -5.0556907e+00
  -3.7523968e+00  -1.1506981e+01  -5.0304052e+00
  -3.3960527e+00  -1.2587216e+01  -5.0048848e+00
  -2.8678424e+00  -1.3629774e+01  -4.9578243e+00
  -2.2317472e+00  -1.4627400e+01  -4.9133399e+00
  -1.4270548e+00  -1.5552011e+01  -4.9444798e+00
  -5.1027523e-01  -1.6408523e+01  -4.9842827e+00
   4.9056941e-01  -1.7196000e+01  -4.9760883e+00
   1.5178015e+00  -1.7972477e+01  -4.9653186e+00
   2.6099513e+00  -1.8796227e+01  -4.9571242e+00
   3.7158781e+00  -1.9475352e+01  -4.9248145e+00
   4.7417092e+00  -2.0141841e+01  -4.8047050e+00
   5.8140102e+00  -2.0821199e+01  -4.5635492e+00
   6.7765582e+00  -2.1447202e+01  -4.2107125e+00
   7.8306448e+00  -2.2157218e+01  -3.8075373e+00
   9.0311457e+00  -2.2783923e+01  -3.3800128e+00
   1.0236082e+01  -2.3333402e+01  -3.0166401e+00
   1.1384509e+01  -2.3902538e+01  -2.7408331e+00
   1.2341453e+01  -2.4366131e+01  -2.4341200e+00
   1.3154319e+01  -2.4705694e+01  -2.1250656e+00
   1.3928188e+01  -2.4982539e+01  -1.8396592e+00
   1.4880928e+01  -2.5081529e+01  -1.5493356e+00
   1.5762914e+01  -2.5135120e+01  -1.2873421e+00
   1.6647235e+01  -2.5347844e+01  -1.1019101e+00
   1.7503534e+01  -2.5483342e+01  -9.8812251e-01
   1.8129355e+01  -2.5618605e+01  -9.4995917e-01
   1.8680216e+01  -2.5759251e+01  -8.9119225e-01
   1.9082562e+01  -2.5779611e+01  -7.8185279e-01
   1.9394538e+01  -2.5844435e+01  -6.9030756e-01
   1.9720058e+01  -2.5814480e+01  -5.1447505e-01
   2.0156497e+01  -2.5871815e+01  -2.6793387e-01
   2.0473610e+01  -2.6076349e+01  -2.1861695e-02
   2.0912851e+01  -2.6356705e+01   1.6825333e-01
   2.1531666e+01  -2.6675907e+01   3.2933588e-01
   2.1976278e+01  -2.6966794e+01   4.8409657e-01
   2.2381894e+01  -2.7315718e+01   6.2902448e-01
   2.2778869e+01  -2.7574543e+01   7.6903521e-01
   2.3276723e+01  -2.7864962e+01   8.3201618e-01
   2.3718066e+01  -2.8090791e+01   9.5868085e-01
   2.4104767e+01  -2.8190249e+01   1.1078228e+00
   2.4598651e+01  -2.8383550e+01   1.2138847e+00
   2.5073620e+01  -2.8411632e+01   1.3981461e+00
   2.5511694e+01  -2.8265604e+01   1.6329800e+00
