**************************************************************************************
  RED ACELEROGRÁFICA DE LA UNIVERSIDAD AUTONOMA METROPOLITANA (RAUAM)
				UNIDAD AZCAPOTZALCO
                        DIVISIÓN CBI-DEPARTAMENTO DE MATERIALES
     Av. San Pablo 180, Col. Reynosa, Azcapotzalco, C.P. 02200, Ciudad de México
**************************************************************************************
ARCHIVO ESTANDAR DE ACELERACION:
VERSION DEL FORMATO                    : 2.0
NOMBRE DEL ARCHIVO                     : RIDX202105061
FECHA Y HORA DE CREACION               : 08:23 p. m. 21/05/2021
REF. CATALOGO ACELEROGRAMAS, SMIS 1995 : REGISTRO NO.      /PAG.    


================================================================================
DATOS DE LA ESTACION:
NOMBRE DE LA ESTACION                  : UAM-XOCHIMILCO.
CLAVE DE LA ESTACION                   : RIDX
LOCALIZACION DE LA ESTACION            : CALZADA DEL HUESO 1100, COL. VILLA
                                       : QUIETUD, DEL. COYOACAN, C.P.04960, 
                                       : CIUDAD DE MEXICO.
                                       : 
                                       : 
COORDENADAS DE LA ESTACION             : 19.301345 LAT. N
                                       : 99.10268 LONG. W
ALTITUD (msnm)                         : 2232
TIPO DE SUELO                          : LAGO
                                       : 
                                       : 
INSTITUCION RESPONSABLE                : UNIVERSIDAD AUTONOMA METROPOLITANA
                                       : 

================================================================================
DATOS DEL ACELEROGRAFO: 
MODELO DEL ACELEROGRAFO                : BASALT KINEMETRICS
NUMERO DE SERIE DEL ACELEROGRAFO       : 1729
NUMERO DE CANALES                      : 3
ORIENTACION C1-C6 (rumbo;orientacion)  : /V/N00E/N90E
ORIENTACION C7-C12 (rumbo;orientacion) : 
VEL. DE MUESTREO, C1-C6 (muestras/s)   : /200/200/200
VEL. DE MUESTREO, C7-C12 (muestras/s)  : 
ESC. COMPLETA DE SENSORES, C1-C6, (g)  : /2/2/2
ESC. COMPLETA DE SENSORES, C7-C12 (g)  : 
FREC. NAT. DE SENSORES, C1-C6, (Hz)    : /208/210/200   
FREC. NAT. DE SENSORES, C7-C12 (Hz)    : 
AMORTIGUAMIENTO DE SENSORES, C1-C6     : /0.7/0.7/0.7      
AMORTIGUAMIENTO DE SENSORES, C7-C12    : 
INTERVALO DE MUESTREO, C1-C6 (s)       : /0.005/0.005/0.005
INTERVALO DE MUESTREO, C7-C12 (s)      : 
UMBRAL DE DISPARO, C1-C6 (Gal)         : /2/2/2
UMBRAL DE DISPARO, C7-C12 (Gal)        : 
MEMORIA DE PREEVENTO (s)               : 60
TIEMPO DE POSEVENTO (s)                : 80


================================================================================
DATOS DEL SISMO:
FECHA DEL SISMO [GMT]                  : 2021/05/06
HORA EPICENTRO (GMT)                   : 13:31:16
MAGNITUD(ES)                           : /M=4.7
COORDENADAS DEL EPICENTRO              : 16.8112 LAT. N
                                       : 100.223 LONG. W
PROFUNDIDAD FOCAL (Km)                 : 6.0
FUENTE DE LOS DATOS EPICENTRALES       : SSN
                                       : INSTITUTO DE GEOFISICA, UNAM

================================================================================
DATOS DE ESTE REGISTRO:
HORA DE LA PRIMERA MUESTRA (GMT)       : 13:31:47.00
EXACTITUD DEL TIEMPO (s)               : 
DURACION DEL REGISTRO (s), C1-C6       : /154.00/154.00/154.00
DURACION DEL REGISTRO (s), C7-C12      : 
NUM. TOTAL DE MUESTRAS, C1-C6          : /30800/30800/30800
NUM. TOTAL DE MUESTRAS, C7-C12         : 
ACEL. MAX.(Gal), C1-C6                 : /-0.3534/0.6321/-0.38031
ACEL. MAX., C1-C6, EN LA MUESTRA       : /10486/12563/12916
ACEL. MAX.(Gal), C7-C12                : 
ACEL. MAX., C7-C12,EN LA MUESTRA       : 
UNIDADES DE LOS DATOS                  : Gal (cm/s/s)
FACTOR DE DECIMACION                   : 1
FORMATO DATOS (FORTRAN,16 campos/dato) : 3E16.7


================================================================================
CALIDAD DEL ACELEROGRAMA:
REGISTRO DIGITAL COMPLETO CON TIEMPO ABSOLUTO CORRECTO


================================================================================
COMENTARIOS:














================================================================================
DATOS DE ACELERACION:
---------+---------+---------+---------+---------+---------+---------+---------+
   CANAL-1   	     CANAL-2       CANAL-3
         V             N00E           N90E
---------+---------+---------+---------+---------+---------+---------+---------+ 
[...]
 -1.1951122e-001 -4.6090797e-001  1.0833688e-001
 -1.1834551e-001 -4.6441501e-001  1.0553043e-001
 -1.2627315e-001 -4.6324613e-001  1.0178812e-001
 -1.3210212e-001 -4.6114175e-001  1.0132037e-001
 -1.3000383e-001 -4.6067419e-001  9.7344186e-002
 -1.3909680e-001 -4.5482938e-001  9.4537348e-002
 -1.4072919e-001 -4.5576449e-001  9.2198644e-002
 -1.4609187e-001 -4.5716715e-001  9.5005482e-002
 -1.4632501e-001 -4.5553071e-001  9.6642574e-002
 -1.5145455e-001 -4.5599826e-001  9.5473222e-002
 -1.5331969e-001 -4.5646582e-001  9.5940963e-002
 -1.5192084e-001 -4.5015345e-001  9.2666385e-002
 -1.6357877e-001 -4.4033403e-001  9.0561552e-002
 -1.5914866e-001 -4.3659321e-001  8.7053103e-002
 -1.6451134e-001 -4.3425544e-001  8.8456326e-002
 -1.7057384e-001 -4.2887818e-001  9.0795422e-002
 -1.6148048e-001 -4.2513736e-001  9.0093811e-002
 -1.6287934e-001 -4.2186409e-001  9.2666385e-002
 -1.5751666e-001 -4.1555172e-001  9.0561552e-002
 -1.6241305e-001 -4.1017446e-001  9.2198644e-002
 -1.6614373e-001 -4.0736914e-001  9.2666385e-002
 -1.6521116e-001 -4.0035505e-001  9.3601867e-002
 -1.6661002e-001 -3.9427646e-001  9.4537348e-002
 -1.5215398e-001 -3.9006808e-001  9.3835737e-002
 -1.5262026e-001 -3.8001489e-001  1.0132037e-001
 -1.5168769e-001 -3.7300119e-001  1.0272360e-001
 -1.4888959e-001 -3.6668843e-001  1.0646592e-001
 -1.5285341e-001 -3.5616769e-001  1.1301468e-001
 -1.3956308e-001 -3.4938776e-001  1.1044211e-001
 -1.4002976e-001 -3.3910080e-001  1.1909570e-001
 -1.3443355e-001 -3.3161954e-001  1.2681421e-001
 -1.2534058e-001 -3.2881383e-001  1.2962066e-001
 -1.2720572e-001 -3.1946197e-001  1.4365406e-001
 -1.0668757e-001 -3.1385093e-001  1.4599315e-001
 -1.0085861e-001 -3.0145997e-001  1.5184031e-001
 -9.6195357e-002 -2.8743218e-001  1.6330074e-001
 -8.1506175e-002 -2.8158737e-001  1.6072817e-001
 -8.4303890e-002 -2.6849468e-001  1.6868015e-001
 -7.4511102e-002 -2.6007793e-001  1.7172086e-001
 -6.2853170e-002 -2.5212913e-001  1.7382569e-001
 -5.2127810e-002 -2.3646490e-001  1.8201194e-001
 -3.7671771e-002 -2.2500865e-001  1.8084259e-001
 -3.5107198e-002 -2.1285147e-001  1.8575426e-001
 -2.4381447e-002 -2.0256450e-001  1.8552039e-001
 -1.1557800e-002 -1.9251131e-001  1.8201194e-001
 -4.0964417e-003 -1.8105546e-001  1.8271355e-001
  8.0277764e-003 -1.6726145e-001  1.8107646e-001
  2.1784387e-002 -1.5042833e-001  1.7569705e-001
  3.0177926e-002 -1.4060892e-001  1.7242247e-001
  3.8338713e-002 -1.3008778e-001  1.6657532e-001
  4.8131501e-002 -1.2260653e-001  1.5581649e-001
  5.5359325e-002 -1.1278712e-001  1.5277579e-001
  7.0281650e-002 -9.7356665e-002  1.4154922e-001
  7.8908723e-002 -8.4731536e-002  1.3312910e-001
  8.4504546e-002 -7.0937915e-002  1.2751582e-001
  9.7561727e-002 -6.0417171e-002  1.1558765e-001
  1.0478955e-001 -4.6155604e-002  1.0857075e-001
  1.1691416e-001 -3.6803744e-002  9.7344186e-002
  1.2670695e-001 -2.6516776e-002  8.9157937e-002
  1.3463420e-001 -9.6836635e-003  7.5826539e-002
  1.4069631e-001  2.4739114e-003  6.2027008e-002
  1.3486734e-001  2.1645185e-002  5.5478245e-002
  1.4139613e-001  3.0061546e-002  4.0041621e-002
  1.5282092e-001  4.3621782e-002  3.2323113e-002
  1.6191428e-001  5.7649572e-002  2.4371127e-002
  1.6914210e-001  5.7883349e-002  5.8937960e-003
  1.6121446e-001  7.4248908e-002  1.2159956e-003
  1.6681067e-001  7.2144916e-002 -1.4688369e-002
  1.7054096e-001  8.0561276e-002 -2.7786288e-002
  1.7170707e-001  9.2952628e-002 -3.3399570e-002
  1.8196614e-001  9.2251297e-002 -4.9537805e-002
  1.7520421e-001  1.1305901e-001 -5.0707157e-002
  1.7963432e-001  1.0557736e-001 -6.9886100e-002
  1.7613678e-001  1.1422789e-001 -7.6200993e-002
  1.6914210e-001  1.3059345e-001 -7.9241700e-002
  1.7194021e-001  1.2802191e-001 -1.0239683e-001
  1.5795046e-001  1.4064664e-001 -1.0099322e-001
  1.5725103e-001  1.2942457e-001 -1.1642984e-001
  1.5305406e-001  1.2498242e-001 -1.2087377e-001
  1.4629252e-001  1.2521619e-001 -1.1853507e-001
  1.5188835e-001  1.1867005e-001 -1.3210073e-001
  1.4745824e-001  1.2124159e-001 -1.3373782e-001
  1.3719917e-001  1.2381353e-001 -1.4543212e-001
  1.3067038e-001  1.3059345e-001 -1.5127928e-001
  1.2647381e-001  1.2965835e-001 -1.5642482e-001
  1.1434920e-001  1.2615130e-001 -1.6133649e-001
  1.0828709e-001  1.2100782e-001 -1.6414333e-001
  1.0828709e-001  1.1282523e-001 -1.7092596e-001
  9.5463049e-002  1.0955196e-001 -1.6390946e-001
  8.8235225e-002  1.0487603e-001 -1.6531268e-001
  8.8002082e-002  9.1549967e-002 -1.6882113e-001
  7.5644330e-002  8.3600768e-002 -1.6718364e-001
  6.7717077e-002  7.8457284e-002 -1.7256345e-001
  5.8390575e-002  7.4248908e-002 -1.6718364e-001
  4.9064073e-002  7.1911139e-002 -1.6578042e-001
  4.3934536e-002  6.4663271e-002 -1.6648203e-001
  3.0177926e-002  6.3026833e-002 -1.6390946e-001
  2.1318101e-002  5.7649572e-002 -1.6765177e-001
  8.4940624e-003  5.1804758e-002 -1.5853004e-001
  4.0639543e-003  4.1284013e-002 -1.5969940e-001
 -9.2259787e-003  3.0997045e-002 -1.5478773e-001
 -2.0184873e-002  2.1645185e-002 -1.4543212e-001
 -2.2050017e-002  9.2538335e-003 -1.5010993e-001
 -4.3733880e-002  5.7471801e-003 -1.4075432e-001
 -3.9303772e-002 -6.6441717e-003 -1.4847283e-001
 -4.8630274e-002 -1.0384994e-002 -1.4636761e-001
 -6.1221169e-002 -1.2255209e-002 -1.3888336e-001
 -6.2853170e-002 -2.1607069e-002 -1.3958497e-001
 -7.8708067e-002 -2.8153215e-002 -1.3116485e-001
 -8.0340460e-002 -4.0310789e-002 -1.4309342e-001
 -9.1532106e-002 -4.8960927e-002 -1.4005271e-001
 -9.7127929e-002 -6.2287386e-002 -1.3818175e-001
 -1.0272375e-001 -7.3977015e-002 -1.4660148e-001
 -1.0482204e-001 -8.5199482e-002 -1.3560878e-001
 -1.0505557e-001 -9.6421558e-002 -1.3654426e-001
 -1.1811236e-001 -1.0507209e-001 -1.4098819e-001
 -1.1997790e-001 -1.1489111e-001 -1.4215794e-001
 -1.2860458e-001 -1.1746305e-001 -1.4847283e-001
 -1.3489983e-001 -1.2354164e-001 -1.4683535e-001
 -1.4236119e-001 -1.2728246e-001 -1.4636761e-001
 -1.4888959e-001 -1.3172461e-001 -1.4613374e-001
 -1.4982216e-001 -1.3897209e-001 -1.4449664e-001
 -1.6311248e-001 -1.4224536e-001 -1.4426277e-001
 -1.7057384e-001 -1.5229855e-001 -1.4145594e-001
 -1.7360470e-001 -1.5814336e-001 -1.4145594e-001
 -1.8106606e-001 -1.6048152e-001 -1.3794788e-001
 -1.8642874e-001 -1.6188419e-001 -1.3537491e-001
 -1.8899331e-001 -1.5790959e-001 -1.3467330e-001
 -1.8712817e-001 -1.5884469e-001 -1.3420556e-001
 -1.9435599e-001 -1.4925906e-001 -1.3327008e-001
 -2.0018496e-001 -1.4201158e-001 -1.2859228e-001
 -1.9831981e-001 -1.4715506e-001 -1.3116485e-001
 -2.0671374e-001 -1.3873831e-001 -1.2976163e-001
 -2.0927831e-001 -1.3476371e-001 -1.2882615e-001
 -2.0951146e-001 -1.3312727e-001 -1.2601931e-001
 -2.0648060e-001 -1.2611358e-001 -1.2321287e-001
 -1.9925238e-001 -1.2775001e-001 -1.2508383e-001
 -2.0251678e-001 -1.2260653e-001 -1.1830120e-001
 -1.9948553e-001 -1.1816438e-001 -1.1970442e-001
 -1.9785353e-001 -1.1418978e-001 -1.2157538e-001
 -1.9295713e-001 -1.0203260e-001 -1.1806733e-001
 -1.9225770e-001 -9.1979404e-002 -1.1432501e-001
 -1.9645467e-001 -7.9821829e-002 -1.0777624e-001
 -1.8456320e-001 -6.9768639e-002 -1.0754237e-001
 -1.7896738e-001 -6.3456270e-002 -1.0520328e-001
 -1.7640281e-001 -5.5039910e-002 -1.0029161e-001
 -1.6800888e-001 -4.9662650e-002 -9.9122254e-002
 -1.6241305e-001 -4.2648558e-002 -9.5847676e-002
 -1.6031477e-001 -2.8153215e-002 -9.0702135e-002
 -1.5308655e-001 -1.8333801e-002 -9.0936005e-002
 -1.4329376e-001 -2.9033492e-003 -8.7661820e-002
 -1.3676537e-001  1.2527102e-002 -8.2750149e-002
 -1.2394133e-001  1.7436809e-002 -8.3451760e-002
 -1.2184304e-001  3.3101037e-002 -7.7370737e-002
 -1.1741293e-001  4.1284013e-002 -7.4330030e-002
 -1.0458890e-001  5.0869258e-002 -7.5031641e-002
 -1.0015918e-001  5.7649572e-002 -7.4797770e-002
 -9.1298963e-002  6.0454895e-002 -7.6669126e-002
 -8.6635712e-002  7.8691061e-002 -7.1055452e-002
 -7.4744637e-002  7.7288400e-002 -7.0353840e-002
 -6.3552599e-002  8.5704760e-002 -6.5208299e-002
 -6.0055454e-002  9.5290397e-002 -6.2635725e-002
 -4.7697702e-002  9.5290397e-002 -6.8249007e-002
 -4.2801308e-002  1.1072085e-001 -6.4038947e-002
 -3.3474806e-002  1.1072085e-001 -6.8482877e-002
 -2.5081267e-002  1.2077404e-001 -6.4506688e-002
 -1.3889230e-002  1.3129478e-001 -5.9127276e-002
  2.1988103e-003  1.3316539e-001 -6.1700243e-002
  8.0277764e-003  1.3994531e-001 -5.5852698e-002
  1.8286850e-002  1.4088042e-001 -5.5852698e-002
  2.9478497e-002  1.5163494e-001 -5.5618828e-002
  4.2768821e-002  1.5958414e-001 -5.5384958e-002
  4.6965786e-002  1.6729956e-001 -5.2110772e-002
  5.4659896e-002  1.7688520e-001 -5.2344642e-002
  7.5877473e-002  1.8436645e-001 -5.1408768e-002
  8.1706830e-002  1.9582230e-001 -4.7199101e-002
  8.5670261e-002  2.0564172e-001 -4.7432972e-002
  9.7794870e-002  2.1405847e-001 -4.5561616e-002
  1.0175869e-001  2.1756552e-001 -4.6965231e-002
  1.0478955e-001  2.2785248e-001 -4.3456782e-002
  1.1947873e-001  2.3603507e-001 -4.5093875e-002
  1.2600713e-001  2.4655581e-001 -4.2053560e-002
  1.3510049e-001  2.5614145e-001 -4.0883816e-002
  1.4466013e-001  2.6292176e-001 -4.1351556e-002
  1.4023002e-001  2.7905354e-001 -3.6440278e-002
  1.4652567e-001  2.8910674e-001 -4.2287430e-002
  1.5375349e-001  3.0243280e-001 -4.1117686e-002
  1.5795046e-001  3.1599304e-001 -4.3924523e-002
  1.5911617e-001  3.2791684e-001 -4.0182204e-002
  1.6191428e-001  3.3984024e-001 -3.6206015e-002
  1.7147392e-001  3.4942588e-001 -4.2755171e-002
  1.7357221e-001  3.6275195e-001 -4.0416075e-002
  1.7473793e-001  3.7303891e-001 -4.2521301e-002
  1.8033375e-001  3.8589782e-001 -4.6731360e-002
  1.8243243e-001  3.9758745e-001 -4.6497490e-002
  1.7613678e-001  4.1465473e-001 -4.1117686e-002
  1.7870175e-001  4.2985141e-001 -4.8836194e-002
  1.7916803e-001  4.4060593e-001 -5.4215606e-002
  1.7567050e-001  4.5767282e-001 -4.6965231e-002
  1.7776918e-001  4.7006417e-001 -5.0473287e-002
  1.7637032e-001  4.8245513e-001 -4.9070064e-002
  1.7776918e-001  4.9367720e-001 -4.9070064e-002
  1.7124039e-001  5.0349662e-001 -5.1408768e-002
  1.6704382e-001  5.1308225e-001 -5.5151087e-002
  1.6284685e-001  5.2781137e-001 -5.6788572e-002
  1.5655160e-001  5.4254050e-001 -5.2578513e-002
  1.5911617e-001  5.5165858e-001 -5.5852698e-002
  1.5608492e-001  5.6568637e-001 -5.2110772e-002
  1.5468606e-001  5.7527201e-001 -5.3513994e-002
  1.4582585e-001  5.9280645e-001 -5.1174898e-002
  1.4186242e-001  6.0449608e-001 -5.0239416e-002
  1.4092945e-001  6.0683424e-001 -5.7957924e-002
  1.2973781e-001  6.1852387e-001 -4.9303935e-002
  1.3090352e-001  6.1501721e-001 -5.1408768e-002
  1.3043724e-001  6.1525099e-001 -4.9303935e-002
  1.2927152e-001  6.2156336e-001 -4.1819690e-002
  1.3067038e-001  6.1922520e-001 -4.3924523e-002
  1.2787266e-001  6.2343358e-001 -3.7843500e-002
  1.2041131e-001  6.2951217e-001 -3.8778982e-002
  1.1061852e-001  6.2998011e-001 -4.0883816e-002
  1.0642194e-001  6.3208410e-001 -3.9246723e-002
  9.8261156e-002  6.3185033e-001 -4.1585819e-002
  9.1732761e-002  6.2390113e-001 -4.1351556e-002
  9.0333512e-002  6.1922520e-001 -3.6206015e-002
  9.0799798e-002  6.0589913e-001 -3.6908019e-002
  7.8908723e-002  5.9304023e-001 -3.1762478e-002
  7.1214613e-002  5.8649408e-001 -2.5447192e-002
  7.7976151e-002  5.7270007e-001 -2.9189511e-002
  6.4452684e-002  5.6615392e-001 -2.1471395e-002
  6.2354397e-002  5.5773717e-001 -2.1003262e-002
  5.7691146e-002  5.5095725e-001 -1.8664558e-002
  4.8364644e-002  5.4300805e-001 -1.4220628e-002
  4.9996645e-002  5.2734382e-001 -1.5857721e-002
  3.2509747e-002  5.1939501e-001 -7.6718644e-003
  3.7406141e-002  4.9858691e-001 -9.7766980e-003
  3.3209176e-002  4.7544143e-001 -1.1414183e-002
  2.2950102e-002  4.5860792e-001 -7.6718644e-003
  2.9478497e-002  4.3896949e-001 -2.5263232e-003
  1.6188564e-002  4.2844835e-001  6.3615368e-003
  1.8053707e-002  4.1395340e-001  1.1039337e-002
  8.9603483e-003  3.9992561e-001  1.4313915e-002
 -3.3970127e-003  3.8893731e-001  1.4781656e-002
 -2.4644407e-003  3.7233758e-001  1.5483267e-002
 -1.9018767e-002  3.5854396e-001  1.8055842e-002
 -2.4848124e-002  3.4381484e-001  1.6652619e-002
 -3.3008520e-002  3.2885194e-001  1.8757453e-002
 -4.0469878e-002  3.1178466e-001  2.4838868e-002
 -4.3967023e-002  2.8934051e-001  2.3435253e-002
 -5.8889348e-002  2.7203945e-001  2.6709831e-002
 -5.9355634e-002  2.5123174e-001  2.6943702e-002
 -6.2153741e-002  2.3463241e-001  2.3669124e-002
 -7.2645958e-002  2.2715076e-001  2.4371127e-002
 -7.2412815e-002  2.1242203e-001  1.8757453e-002
 -7.4977779e-002  2.0353773e-001  2.1798160e-002
 -8.2671889e-002  1.9628986e-001  2.2499772e-002
 -8.7101998e-002  1.8576911e-001  1.9927197e-002
 -8.5703140e-002  1.7337815e-001  2.1798160e-002
 -8.7801427e-002  1.5724637e-001  1.8757453e-002
 -8.9200284e-002  1.4345236e-001  1.7588101e-002
 -9.0832677e-002  1.2989212e-001  1.7120360e-002
 -9.6195357e-002  1.2311220e-001  1.8523582e-002
 -8.5003711e-002  1.1165635e-001  1.5717138e-002
 -8.1739317e-002  9.9498773e-002  1.8055842e-002
 -8.4070747e-002  9.5056620e-002  2.2265901e-002
 -7.5910351e-002  8.6172314e-002  1.8055842e-002
 -8.0806746e-002  8.4068322e-002  2.6008220e-002
 -7.8474924e-002  8.0327499e-002  2.5774350e-002
 -7.3578530e-002  7.2378693e-002  2.6475961e-002
 -7.4277959e-002  6.6300101e-002  3.1855372e-002
 -6.3319456e-002  5.2272311e-002  2.6242090e-002
 -6.3086313e-002  4.8063935e-002  3.2790854e-002
 -6.5184991e-002  4.3388005e-002  3.6533173e-002
 -5.2594096e-002  3.0529099e-002  3.4428339e-002
 -5.1195238e-002  3.6374306e-002  3.6299302e-002
 -4.7464559e-002  3.6608083e-002  3.9105747e-002
 -3.6739199e-002  3.1464599e-002  4.0977103e-002
 -3.9070629e-002  2.9827769e-002  4.4485551e-002
 -3.0210804e-002  2.1645185e-002  4.7291996e-002
 -2.6713268e-002  2.7256223e-002  5.0098833e-002
 -2.3215732e-002  2.5853562e-002  5.7816949e-002
 -1.0625228e-002  2.1878962e-002  5.3139148e-002
 -9.6926559e-003  2.4684285e-002  6.1559268e-002
 -4.0964417e-003  2.2814070e-002  6.9979387e-002
 -5.9929676e-004  2.3281624e-002  7.0680998e-002
  6.3957754e-003  1.7203032e-002  7.6762021e-002
  1.0126063e-002  1.9307024e-002  7.5826539e-002
  1.7121135e-002  1.8371917e-002  8.2141432e-002
  2.6214495e-002  2.1177632e-002  8.1205951e-002
  2.2716959e-002  3.2399707e-002  9.0327681e-002
  3.0177926e-002  2.5385616e-002  9.5239352e-002
  3.0411068e-002  2.7723777e-002  9.4771611e-002
  3.0411068e-002  2.7723777e-002  1.0436069e-001
  3.6007283e-002  2.3515400e-002  9.3134126e-002
  3.2276604e-002  2.8658884e-002  1.0108650e-001
  3.8105570e-002  2.5853562e-002  1.0319134e-001
  3.9970714e-002  3.0762876e-002  1.0225586e-001
  3.9737571e-002  3.3334814e-002  1.0903849e-001
  4.2069392e-002  3.2165930e-002  9.8045797e-002
  3.5540606e-002  3.8478298e-002  1.0576430e-001
  4.1369963e-002  3.4036145e-002  9.8513538e-002
  3.9271285e-002  3.5672583e-002  9.2666385e-002
  3.4374891e-002  4.4556889e-002  1.0529656e-001
  4.2535678e-002  4.4323113e-002  9.8981278e-002
  4.0670143e-002  4.6895051e-002  9.3601867e-002
  3.8571856e-002  4.9700373e-002  9.1029292e-002
  3.1110889e-002  4.9934150e-002  8.9391807e-002
  3.0644211e-002  5.2038534e-002  8.3310784e-002
  3.0877746e-002  5.5545188e-002  8.0738210e-002
  2.6447638e-002  5.9052233e-002  7.9334595e-002
  3.0411068e-002  6.2091725e-002  7.2785832e-002
  2.9245354e-002  6.5598378e-002  7.1850350e-002
  3.1110889e-002  6.9806755e-002  6.6470938e-002
  2.8779068e-002  7.4248908e-002  6.3664101e-002
  2.9478497e-002  7.4950239e-002  5.8518560e-002
  2.9711640e-002  7.4482685e-002  5.0098833e-002
