**************************************************************************************
  RED ACELEROGRÁFICA DE LA UNIVERSIDAD AUTONOMA METROPOLITANA (RAUAM)
				UNIDAD AZCAPOTZALCO
                        DIVISIÓN CBI-DEPARTAMENTO DE MATERIALES
     Av. San Pablo 180, Col. Reynosa, Azcapotzalco, C.P. 02200, Ciudad de México
**************************************************************************************
ARCHIVO ESTANDAR DE ACELERACION:
VERSION DEL FORMATO                    : 2.0
NOMBRE DEL ARCHIVO                     : RIDX202103201
FECHA Y HORA DE CREACION               : 08:23 p. m. 21/03/2021
REF. CATALOGO ACELEROGRAMAS, SMIS 1995 : REGISTRO NO.      /PAG.    


================================================================================
DATOS DE LA ESTACION:
NOMBRE DE LA ESTACION                  : UAM-XOCHIMILCO.
CLAVE DE LA ESTACION                   : RIDX
LOCALIZACION DE LA ESTACION            : CALZADA DEL HUESO 1100, COL. VILLA
                                       : QUIETUD, DEL. COYOACAN, C.P.04960, 
                                       : CIUDAD DE MEXICO.
                                       : 
                                       : 
COORDENADAS DE LA ESTACION             : 19.301345 LAT. N
                                       : 99.10268 LONG. W
ALTITUD (msnm)                         : 2232
TIPO DE SUELO                          : LAGO
                                       : 
                                       : 
INSTITUCION RESPONSABLE                : UNIVERSIDAD AUTONOMA METROPOLITANA
                                       : 

================================================================================
DATOS DEL ACELEROGRAFO: 
MODELO DEL ACELEROGRAFO                : BASALT KINEMETRICS
NUMERO DE SERIE DEL ACELEROGRAFO       : 1729
NUMERO DE CANALES                      : 3
ORIENTACION C1-C6 (rumbo;orientacion)  : /V/N00E/N90E
ORIENTACION C7-C12 (rumbo;orientacion) : 
VEL. DE MUESTREO, C1-C6 (muestras/s)   : /200/200/200
VEL. DE MUESTREO, C7-C12 (muestras/s)  : 
ESC. COMPLETA DE SENSORES, C1-C6, (g)  : /2/2/2
ESC. COMPLETA DE SENSORES, C7-C12 (g)  : 
FREC. NAT. DE SENSORES, C1-C6, (Hz)    : /208/210/200   
FREC. NAT. DE SENSORES, C7-C12 (Hz)    : 
AMORTIGUAMIENTO DE SENSORES, C1-C6     : /0.7/0.7/0.7      
AMORTIGUAMIENTO DE SENSORES, C7-C12    : 
INTERVALO DE MUESTREO, C1-C6 (s)       : /0.005/0.005/0.005
INTERVALO DE MUESTREO, C7-C12 (s)      : 
UMBRAL DE DISPARO, C1-C6 (Gal)         : /2/2/2
UMBRAL DE DISPARO, C7-C12 (Gal)        : 
MEMORIA DE PREEVENTO (s)               : 60
TIEMPO DE POSEVENTO (s)                : 80


================================================================================
DATOS DEL SISMO:
FECHA DEL SISMO [GMT]                  : 2021/03/20
HORA EPICENTRO (GMT)                   : 03:06:31
MAGNITUD(ES)                           : /M=5.7
COORDENADAS DEL EPICENTRO              : 16.45 LAT. N
                                       : 98.97 LONG. W
PROFUNDIDAD FOCAL (Km)                 : 19.0
FUENTE DE LOS DATOS EPICENTRALES       : SSN
                                       : INSTITUTO DE GEOFISICA, UNAM

================================================================================
DATOS DE ESTE REGISTRO:
HORA DE LA PRIMERA MUESTRA (GMT)       : 03:06:28.00
EXACTITUD DEL TIEMPO (s)               : 
DURACION DEL REGISTRO (s), C1-C6       : /276.00/276.00/276.00
DURACION DEL REGISTRO (s), C7-C12      : 
NUM. TOTAL DE MUESTRAS, C1-C6          : /55200/55200/55200
NUM. TOTAL DE MUESTRAS, C7-C12         : 
ACEL. MAX.(Gal), C1-C6                 : /-1.1/2.7/-2.1
ACEL. MAX., C1-C6, EN LA MUESTRA       : /20140/21968/21435
ACEL. MAX.(Gal), C7-C12                : 
ACEL. MAX., C7-C12,EN LA MUESTRA       : 
UNIDADES DE LOS DATOS                  : Gal (cm/s/s)
FACTOR DE DECIMACION                   : 1
FORMATO DATOS (FORTRAN,16 campos/dato) : 3E16.7


================================================================================
CALIDAD DEL ACELEROGRAMA:
REGISTRO DIGITAL COMPLETO CON TIEMPO ABSOLUTO CORRECTO


================================================================================
COMENTARIOS:














================================================================================
DATOS DE ACELERACION:
---------+---------+---------+---------+---------+---------+---------+---------+
   CANAL-1   	     CANAL-2       CANAL-3
         V             N00E           N90E
---------+---------+---------+---------+---------+---------+---------+---------+ 
[...]
  -5.7677468e-01  -6.8866885e-01   7.9373034e-01
  -5.4927501e-01  -6.9381810e-01   7.7643244e-01
  -5.2806758e-01  -6.9803080e-01   7.5726424e-01
  -4.9870327e-01  -7.0177582e-01   7.4417365e-01
  -4.7073715e-01  -7.0622295e-01   7.2523957e-01
  -4.3904252e-01  -7.2003242e-01   7.0233114e-01
  -4.0897911e-01  -7.2003242e-01   6.8222797e-01
  -3.8217853e-01  -7.1488317e-01   6.6469633e-01
  -3.4931836e-01  -7.1441509e-01   6.4459317e-01
  -3.2647932e-01  -7.0505275e-01   6.2425626e-01
  -2.9758146e-01  -6.9873331e-01   6.0415309e-01
  -2.7054746e-01  -6.9943543e-01   5.8404993e-01
  -2.5376802e-01  -7.0598891e-01   5.6301141e-01
  -2.3069595e-01  -7.1511721e-01   5.4173955e-01
  -1.9923435e-01  -7.2799014e-01   5.2187012e-01
  -1.5984890e-01  -7.5045984e-01   4.9452064e-01
  -1.3165014e-01  -7.6122641e-01   4.7114473e-01
  -9.5993192e-02  -7.7035471e-01   4.5057408e-01
  -5.2180144e-02  -7.9024959e-01   4.1948437e-01
  -2.3980988e-02  -7.9937789e-01   3.9073206e-01
   9.1118288e-03  -8.1459160e-01   3.6408380e-01
   4.8730309e-02  -8.2886876e-01   3.3463027e-01
   8.6018475e-02  -8.3027339e-01   3.0938444e-01
   1.1678098e-01  -8.4057188e-01   2.8483983e-01
   1.4474671e-01  -8.4197612e-01   2.5585378e-01
   1.7247980e-01  -8.4689133e-01   2.2827056e-01
   1.9764916e-01  -8.6187099e-01   1.9834955e-01
   2.2025517e-01  -8.6514793e-01   1.7006471e-01
   2.4076350e-01  -8.7333969e-01   1.4318271e-01
   2.6430125e-01  -8.7427584e-01   1.1162552e-01
   2.8178017e-01  -8.6655217e-01   8.3340689e-02
   2.9063615e-01  -8.5625367e-01   5.7159903e-02
   2.9832658e-01  -8.3612475e-01   3.1680336e-02
   3.0858075e-01  -8.2699645e-01  -2.2146374e-03
   3.1230964e-01  -8.1529372e-01  -2.9564120e-02
   3.2116562e-01  -8.0827177e-01  -5.7615214e-02
   3.3375010e-01  -8.0101617e-01  -8.8471182e-02
   3.4283911e-01  -7.7924898e-01  -1.0880809e-01
   3.5891946e-01  -7.6356680e-01  -1.3685918e-01
   3.6358048e-01  -7.3735248e-01  -1.5836478e-01
   3.8944893e-01  -7.2073454e-01  -1.8875327e-01
   4.0925817e-01  -6.9803080e-01  -2.1540154e-01
   4.1322010e-01  -6.7111436e-01  -2.3971241e-01
   4.3605914e-01  -6.5309180e-01  -2.7664600e-01
   4.4002067e-01  -6.1377051e-01  -2.9721664e-01
   4.5167342e-01  -5.8591752e-01  -3.2994292e-01
   4.5353767e-01  -5.5502203e-01  -3.6150010e-01
   4.4328350e-01  -5.2155172e-01  -3.8861624e-01
   4.4444866e-01  -5.0072069e-01  -4.1830351e-01
   4.3862248e-01  -4.8433678e-01  -4.5009443e-01
   4.2906741e-01  -4.6701673e-01  -4.8983329e-01
   4.1648293e-01  -4.3846162e-01  -5.1484538e-01
   4.0413109e-01  -4.1622597e-01  -5.4780500e-01
   3.7756354e-01  -3.8462836e-01  -5.7795975e-01
   3.6334745e-01  -3.5677576e-01  -6.0577710e-01
   3.4633498e-01  -3.2845470e-01  -6.4200947e-01
   3.2163168e-01  -2.9966556e-01  -6.7450162e-01
   3.0391973e-01  -2.8164338e-01  -7.1096812e-01
   2.6733105e-01  -2.5449251e-01  -7.4626553e-01
   2.4146260e-01  -2.3132109e-01  -7.8693934e-01
   2.0836939e-01  -2.0300003e-01  -8.2317171e-01
   1.7341193e-01  -1.8638209e-01  -8.5356020e-01
   1.4870864e-01  -1.8029668e-01  -8.8698769e-01
   1.1957736e-01  -1.6789144e-01  -9.1620709e-01
   9.5806580e-02  -1.6204008e-01  -9.4729719e-01
   5.8751445e-02  -1.4823060e-01  -9.7651659e-01
   2.7522880e-02  -1.3371901e-01  -1.0033990e+00
   1.1883672e-03  -1.1710107e-01  -1.0281773e+00
  -2.9341103e-02  -1.0141929e-01  -1.0417350e+00
  -4.8218218e-02  -9.6504078e-02  -1.0630073e+00
  -6.8959584e-02  -8.8077892e-02  -1.0812401e+00
  -8.1777489e-02  -8.2694604e-02  -1.0903567e+00
  -8.7137604e-02  -8.0822293e-02  -1.1125640e+00
  -9.8090866e-02  -7.0757834e-02  -1.1258879e+00
  -9.9022992e-02  -5.1096995e-02  -1.1300956e+00
  -9.2031656e-02  -3.9862342e-02  -1.1445886e+00
  -8.7137604e-02  -2.6989024e-02  -1.1541727e+00
  -7.5484857e-02  -7.7962633e-03  -1.1574451e+00
  -5.1947113e-02  -2.4129757e-03  -1.1665617e+00
  -2.7010789e-02   1.5375159e-02  -1.1728731e+00
   2.3209793e-05   3.9717169e-02  -1.1724056e+00
   2.7289849e-02   5.8207814e-02  -1.1693670e+00
   5.4323456e-02   8.4890213e-02  -1.1653930e+00
   8.8581822e-02   1.0899818e-01  -1.1602504e+00
   1.2050987e-01   1.3099941e-01  -1.1485626e+00
   1.5243753e-01   1.5885240e-01  -1.1403809e+00
   1.8902621e-01   1.8342845e-01  -1.1303293e+00
   2.1978871e-01   2.1174912e-01  -1.1116286e+00
   2.4495807e-01   2.5504985e-01  -1.0943307e+00
   2.7082691e-01   2.9226479e-01  -1.0796039e+00
   2.9226737e-01   3.3065031e-01  -1.0606695e+00
   3.1114449e-01   3.6856736e-01  -1.0412675e+00
   3.2792393e-01   3.9805862e-01  -1.0270086e+00
   3.4330518e-01   4.2989027e-01  -1.0111128e+00
   3.6148320e-01   4.6289250e-01  -1.0003600e+00
   3.7430071e-01   5.0549072e-01  -9.8937344e-01
   3.8525397e-01   5.4481240e-01  -9.7558163e-01
   3.9061409e-01   5.8483620e-01  -9.7230928e-01
   3.9177964e-01   6.1900863e-01  -9.6927027e-01
   3.9014802e-01   6.4288256e-01  -9.6482883e-01
   3.8921590e-01   6.6956496e-01  -9.6646501e-01
   3.9294479e-01   6.8828964e-01  -9.6740036e-01
   3.8595346e-01   7.1356780e-01  -9.6599753e-01
   3.7430071e-01   7.3837789e-01  -9.6927027e-01
   3.5985159e-01   7.4961255e-01  -9.7698446e-01
   3.4703407e-01   7.6037912e-01  -9.8703604e-01
   3.2326291e-01   7.6716664e-01  -9.9404862e-01
   2.9646233e-01   7.6669856e-01  -1.0036327e+00
   2.8108108e-01   7.6482625e-01  -1.0153205e+00
   2.5008515e-01   7.6225143e-01  -1.0213981e+00
   2.1862356e-01   7.5874085e-01  -1.0291123e+00
   1.8739499e-01   7.5757026e-01  -1.0312159e+00
   1.5360269e-01   7.4797427e-01  -1.0319172e+00
   1.2610302e-01   7.3322864e-01  -1.0349562e+00
   9.0446464e-02   7.2035533e-01  -1.0279436e+00
   6.0150025e-02   7.0631181e-01  -1.0190607e+00
   3.1484806e-02   6.9460908e-01  -1.0155542e+00
  -4.1717480e-03   6.9156618e-01  -1.0073729e+00
  -3.8430113e-02   6.8922579e-01  -9.9217870e-01
  -7.4785762e-02   6.8267231e-01  -9.7628285e-01
  -1.0787897e-01   6.8033153e-01  -9.5921869e-01
  -1.4306946e-01   6.7003303e-01  -9.4332323e-01
  -1.8338704e-01   6.6207493e-01  -9.2158388e-01
  -2.2044178e-01   6.5458529e-01  -8.9937667e-01
  -2.6169187e-01   6.4054178e-01  -8.8301373e-01
  -3.0690350e-01   6.3703119e-01  -8.5613172e-01
  -3.5654273e-01   6.3398829e-01  -8.2784689e-01
  -4.0245384e-01   6.2228556e-01  -8.0587381e-01
  -4.4719901e-01   6.1081648e-01  -7.7525119e-01
  -4.8891517e-01   5.9630489e-01  -7.4813544e-01
  -5.2736810e-01   5.8132522e-01  -7.2288962e-01
  -5.7444437e-01   5.7711252e-01  -6.8618977e-01
  -6.0217707e-01   5.6587747e-01  -6.5907363e-01
  -6.3107532e-01   5.5417474e-01  -6.2938636e-01
  -6.6276995e-01   5.4691914e-01  -5.8497272e-01
  -6.7488876e-01   5.3076889e-01  -5.5014279e-01
  -6.8560899e-01   5.1695981e-01  -5.1157263e-01
  -6.8257919e-01   5.0057551e-01  -4.7043134e-01
  -6.8304525e-01   4.9355395e-01  -4.3092623e-01
  -6.8304525e-01   4.9449011e-01  -3.8113579e-01
  -6.6813046e-01   4.9074509e-01  -3.3718923e-01
  -6.6067267e-01   4.9425607e-01  -2.8716506e-01
  -6.4622354e-01   4.9449011e-01  -2.3153074e-01
  -6.1755832e-01   4.9331991e-01  -1.7916917e-01
  -5.8959259e-01   5.0010744e-01  -1.2143120e-01
  -5.6745264e-01   5.0525668e-01  -7.0705411e-02
  -5.4904198e-01   5.1813000e-01  -1.9045058e-02
  -5.2853365e-01   5.3474794e-01   3.1446597e-02
  -5.0336429e-01   5.4387625e-01   8.2405731e-02
  -4.7539817e-01   5.5698360e-01   1.3640387e-01
  -4.4090677e-01   5.7243135e-01   1.8198660e-01
  -4.0594931e-01   5.8600639e-01   2.2686812e-01
  -3.7728448e-01   6.0566723e-01   2.7081428e-01
  -3.4116147e-01   6.2064690e-01   3.0330682e-01
  -3.0573795e-01   6.3281810e-01   3.3042256e-01
  -2.7217907e-01   6.5224490e-01   3.6501876e-01
  -2.2510280e-01   6.5762819e-01   3.8886215e-01
  -1.7499712e-01   6.6113877e-01   4.0966653e-01
  -1.2722215e-01   6.7026707e-01   4.3678227e-01
  -7.7349500e-02   6.7377805e-01   4.5057408e-01
  -2.2116736e-02   6.8384251e-01   4.5828827e-01
   2.2162765e-02   6.9929025e-01   4.6506711e-01
   6.9005613e-02   7.0631181e-01   4.6483337e-01
   1.1957736e-01   7.1052491e-01   4.6833985e-01
   1.5639946e-01   7.1637627e-01   4.7979387e-01
   2.0067896e-01   7.1637627e-01   4.8306662e-01
   2.3353875e-01   7.2363226e-01   4.8984546e-01
   2.6523376e-01   7.2995171e-01   4.9872834e-01
   2.9226737e-01   7.3908001e-01   5.0293565e-01
   3.0648347e-01   7.4469734e-01   5.0690962e-01
   3.2512716e-01   7.4399522e-01   5.0994862e-01
   3.3375010e-01   7.5405968e-01   5.1555876e-01
   3.4353821e-01   7.5429372e-01   5.1625998e-01
   3.5192812e-01   7.5686814e-01   5.1649372e-01
   3.4983045e-01   7.6669856e-01   5.1439007e-01
   3.4167396e-01   7.8074208e-01   5.1696120e-01
   3.4330518e-01   7.9501963e-01   5.1275350e-01
   3.3398314e-01   8.0929718e-01   5.0340352e-01
   3.2093259e-01   8.2614916e-01   5.0223443e-01
   3.2233078e-01   8.3808593e-01   4.9755925e-01
   3.1067842e-01   8.5329964e-01   4.9966330e-01
   3.0555134e-01   8.7249240e-01   5.0059826e-01
   3.0322063e-01   8.9964327e-01   4.9802712e-01
   3.0322063e-01   9.2843202e-01   4.9709177e-01
   3.0671650e-01   9.6096617e-01   4.9288446e-01
   3.0741559e-01   9.9092551e-01   4.9078041e-01
   3.1044539e-01   1.0213529e+00   4.8867676e-01
   3.1883492e-01   1.0548228e+00   4.8470279e-01
   3.3072069e-01   1.0875910e+00   4.8423532e-01
   3.3258495e-01   1.1353385e+00   4.8166379e-01
   3.4493640e-01   1.1753623e+00   4.7862518e-01
   3.5798733e-01   1.2224081e+00   4.8189753e-01
   3.6567815e-01   1.2731984e+00   4.8330036e-01
   3.8152547e-01   1.3141584e+00   4.8961172e-01
   3.9387692e-01   1.3675232e+00   4.9288446e-01
   4.0389806e-01   1.4204203e+00   4.9475438e-01
   4.1741505e-01   1.4777641e+00   5.0106574e-01
   4.2347426e-01   1.5486834e+00   5.0924740e-01
   4.3466056e-01   1.6146879e+00   5.1345511e-01
   4.5120736e-01   1.6799895e+00   5.1789616e-01
   4.6029598e-01   1.7520793e+00   5.2958431e-01
   4.7311388e-01   1.8183174e+00   5.3168797e-01
   4.7847400e-01   1.8861938e+00   5.4057085e-01
   4.9665202e-01   1.9521983e+00   5.4688221e-01
   5.0504154e-01   2.0226491e+00   5.5553136e-01
   5.1180024e-01   2.0968453e+00   5.7119308e-01
   5.3533798e-01   2.1593388e+00   5.7633574e-01
   5.3230857e-01   2.2267471e+00   5.8778976e-01
   5.4256274e-01   2.2861977e+00   5.9527021e-01
   5.4256274e-01   2.3426054e+00   6.0368562e-01
   5.3673656e-01   2.3978429e+00   6.0929576e-01
   5.4629163e-01   2.4472291e+00   6.1443842e-01
   5.4349486e-01   2.4998918e+00   6.1794451e-01
   5.4349486e-01   2.5445967e+00   6.1981482e-01
   5.3487192e-01   2.5801734e+00   6.2635992e-01
   5.3370676e-01   2.6061537e+00   6.2168473e-01
   5.1809248e-01   2.6347088e+00   6.2402252e-01
   5.0480851e-01   2.6541356e+00   6.2145099e-01
   5.0154607e-01   2.6660723e+00   6.1467216e-01
   4.7917309e-01   2.6805839e+00   6.0976324e-01
   4.7194872e-01   2.6840949e+00   6.0462057e-01
   4.5540192e-01   2.6899463e+00   6.0298400e-01
   4.4328350e-01   2.6805839e+00   5.9059503e-01
   4.3302934e-01   2.6585827e+00   5.8475115e-01
   4.1088978e-01   2.6426669e+00   5.7703696e-01
   3.9224570e-01   2.6180908e+00   5.7142682e-01
   3.6870756e-01   2.5876634e+00   5.6464798e-01
   3.4983045e-01   2.5595764e+00   5.6137524e-01
   3.1650460e-01   2.5268086e+00   5.7025812e-01
   2.9319950e-01   2.4802309e+00   5.6418050e-01
   2.7175904e-01   2.4289725e+00   5.6534920e-01
   2.3307268e-01   2.3800544e+00   5.7236178e-01
   2.0580604e-01   2.3222425e+00   5.7306300e-01
   1.7154768e-01   2.2632600e+00   5.8030970e-01
   1.4381458e-01   2.2073203e+00   5.9059503e-01
   1.1328511e-01   2.1455294e+00   6.0438683e-01
   7.8094623e-02   2.0771845e+00   6.1490590e-01
   6.8539550e-02   2.0004139e+00   6.2612618e-01
   4.6633026e-02   1.9269201e+00   6.4552812e-01
   2.3560954e-02   1.8550643e+00   6.5908619e-01
   1.3306787e-02   1.7747827e+00   6.7054021e-01
  -3.4726535e-03   1.7010549e+00   6.8994216e-01
  -1.6057527e-02   1.6266247e+00   7.0092870e-01
  -2.6777757e-02   1.5444707e+00   7.0864250e-01
  -2.7010789e-02   1.4669976e+00   7.1892782e-01
  -2.7942915e-02   1.3937379e+00   7.2640827e-01
  -2.6078663e-02   1.3111155e+00   7.2617453e-01
  -1.9552999e-02   1.2341108e+00   7.2594079e-01
  -2.2349768e-02   1.1657659e+00   7.3061597e-01
  -1.3027726e-02   1.0854847e+00   7.2126561e-01
  -8.8327687e-03   1.0124587e+00   7.1542173e-01
  -2.3074961e-03   9.4317764e-01   7.1542173e-01
   1.4938398e-02   8.7085412e-01   7.1308394e-01
   2.3094891e-02   8.0485005e-01   7.1588921e-01
   3.8942205e-02   7.4142040e-01   7.1775912e-01
   5.8751445e-02   6.8150173e-01   7.1659042e-01
   7.4365728e-02   6.1994478e-01   7.1261646e-01
   8.6950601e-02   5.6494132e-01   7.1355142e-01
   1.0023457e-01   5.1087401e-01   7.1378516e-01
   1.2214109e-01   4.5376420e-01   7.0981159e-01
   1.3495900e-01   4.0414402e-01   7.1074655e-01
   1.4637832e-01   3.5990753e-01   7.1472051e-01
   1.6805181e-01   3.1215966e-01   7.0817502e-01
   1.7644173e-01   2.6909336e-01   6.9952626e-01
   1.8156881e-01   2.2883553e-01   6.9344825e-01
   1.9158995e-01   1.8483268e-01   6.8012432e-01
   1.9834825e-01   1.4855390e-01   6.6913778e-01
   2.1000061e-01   1.0712548e-01   6.4996957e-01
   2.1372950e-01   7.3655560e-02   6.3197006e-01
   2.2025517e-01   4.3228145e-02   6.0976324e-01
   2.2841166e-01   5.3107009e-03   5.7960849e-01
   2.1978871e-01  -2.1605737e-02   5.6137524e-01
   2.1000061e-01  -5.6714322e-02   5.3145423e-01
   2.0277624e-01  -8.8545969e-02   5.0200069e-01
   1.9601794e-01  -1.1850531e-01   4.7488495e-01
   1.8110275e-01  -1.5525256e-01   4.4706760e-01
   1.6735272e-01  -1.8521189e-01   4.2532825e-01
   1.5290359e-01  -2.2195875e-01   3.9774503e-01
   1.2493786e-01  -2.5238616e-01   3.8208292e-01
   1.0745894e-01  -2.8749475e-01   3.5987609e-01
   8.7183633e-02  -3.3219971e-01   3.3229287e-01
   5.7120225e-02  -3.6473348e-01   3.2504616e-01
   3.7077953e-02  -4.0452323e-01   3.0517674e-01
   1.2141629e-02  -4.4618530e-01   2.8086587e-01
  -1.9319968e-02  -4.8480486e-01   2.7899595e-01
  -4.4256292e-02  -5.2670097e-01   2.7034680e-01
  -7.5717888e-02  -5.6719284e-01   2.5515256e-01
  -1.1160787e-01  -6.1564282e-01   2.4627007e-01
  -1.4819655e-01  -6.6104990e-01   2.3294574e-01
  -1.8991231e-01  -7.0645699e-01   2.1962141e-01
  -2.2813260e-01  -7.5818351e-01   2.0442717e-01
  -2.7847131e-01  -8.0522926e-01   1.9203819e-01
  -3.2671235e-01  -8.5718982e-01   1.7964882e-01
  -3.6772941e-01  -9.0821423e-01   1.5931191e-01
  -4.2412733e-01  -9.5947268e-01   1.4365019e-01
  -4.7120321e-01  -1.0207956e+00   1.2307954e-01
  -5.2527082e-01  -1.0807143e+00   1.0134020e-01
  -5.8283428e-01  -1.1460162e+00   8.9184569e-02
  -6.2385095e-01  -1.2145951e+00   7.2120408e-02
  -6.6976168e-01  -1.2770882e+00   5.6224945e-02
  -7.0192237e-01  -1.3444969e+00   4.6173362e-02
  -7.3967660e-01  -1.4126073e+00   3.7056737e-02
  -7.7976114e-01  -1.4783774e+00   2.6537675e-02
  -8.0120160e-01  -1.5455520e+00   1.8122268e-02
  -8.2916772e-01  -1.6066409e+00   1.5784873e-02
  -8.4361646e-01  -1.6667936e+00   1.3680826e-02
  -8.5293850e-01  -1.7264783e+00   1.2278389e-02
  -8.6389215e-01  -1.7796090e+00   1.6486092e-02
  -8.7134955e-01  -1.8336763e+00   2.5602717e-02
  -8.8440049e-01  -1.8910202e+00   2.7940112e-02
  -8.8416746e-01  -1.9455556e+00   3.2147815e-02
  -8.8276888e-01  -1.9958779e+00   4.0095743e-02
  -8.8067159e-01  -2.0387101e+00   4.5238404e-02
  -8.7577754e-01  -2.0803726e+00   5.8094861e-02
  -8.6785369e-01  -2.1187577e+00   5.8562340e-02
  -8.5223941e-01  -2.1552709e+00   6.1601346e-02
