**************************************************************************************
  	RED ACELEROGRÁFICA DE LA UNIVERSIDAD AUTONOMA METROPOLITANA (RAUAM)
	   UNIDAD AZCAPOTZALCO. DIVISIÓN CBI-DEPARTAMENTO DE MATERIALES
     Av. San Pablo 180, Col. Reynosa, Azcapotzalco, C.P. 02200, Ciudad de México
		Área de Estructuras. e-mail: agb@azc.uam.mx
**************************************************************************************
ARCHIVO ESTANDAR DE ACELERACION:
VERSION DEL FORMATO                    : 2.0
NOMBRE DEL ARCHIVO                     : RIDX202109083
FECHA Y HORA DE CREACION               : 11:30 a. m. 09/09/2021
REF. CATALOGO ACELEROGRAMAS, SMIS 1999 : REGISTRO NO.      /PAG.    


================================================================================
DATOS DE LA ESTACION:
NOMBRE DE LA ESTACION                  : UAM-XOCHIMILCO.
CLAVE DE LA ESTACION                   : RIDX
LOCALIZACION DE LA ESTACION            : CALZADA DEL HUESO 1100, COL. VILLA
                                       : QUIETUD, DEL. COYOACAN, C.P.04960, 
                                       : CIUDAD DE MEXICO.
                                       : 
                                       : 
COORDENADAS DE LA ESTACION             : 19.305234 LAT. N
                                       : 99.103399 LONG. W
ALTITUD (msnm)                         : 2240
TIPO DE SUELO                          : LAGO
                                       : 
                                       : 
INSTITUCION RESPONSABLE                : UNIVERSIDAD AUTONOMA METROPOLITANA
                                       : 

================================================================================
DATOS DEL ACELEROGRAFO: 
MODELO DEL ACELEROGRAFO                : BASALT KINEMETRICS
NUMERO DE SERIE DEL ACELEROGRAFO       : 1729
NUMERO DE CANALES                      : 3
ORIENTACION C1-C6 (rumbo;orientacion)  : /V/N00E/N90E
ORIENTACION C7-C12 (rumbo;orientacion) : 
VEL. DE MUESTREO, C1-C6 (muestras/s)   : /200/200/200
VEL. DE MUESTREO, C7-C12 (muestras/s)  : 
ESC. COMPLETA DE SENSORES, C1-C6, (g)  : /2/2/2
ESC. COMPLETA DE SENSORES, C7-C12 (g)  : 
FREC. NAT. DE SENSORES, C1-C6, (Hz)    : /208/210/200   
FREC. NAT. DE SENSORES, C7-C12 (Hz)    : 
AMORTIGUAMIENTO DE SENSORES, C1-C6     : /0.7/0.7/0.7      
AMORTIGUAMIENTO DE SENSORES, C7-C12    : 
INTERVALO DE MUESTREO, C1-C6 (s)       : /0.005/0.005/0.005
INTERVALO DE MUESTREO, C7-C12 (s)      : 
UMBRAL DE DISPARO, C1-C6 (Gal)         : /2/2/2
UMBRAL DE DISPARO, C7-C12 (Gal)        : 
MEMORIA DE PREEVENTO (s)               : 60
TIEMPO DE POSEVENTO (s)                : 80


================================================================================
DATOS DEL SISMO:
FECHA DEL SISMO [GMT]                  : 2021/09/08
HORA EPICENTRO (GMT)                   : 02:58:22
MAGNITUD(ES)                           : /M=5.0
COORDENADAS DEL EPICENTRO              : 16.88 LAT. N
                                       : 99.89 LONG. W
PROFUNDIDAD FOCAL (Km)                 : 10.0
FUENTE DE LOS DATOS EPICENTRALES       : SSN
                                       : INSTITUTO DE GEOFISICA, UNAM

================================================================================
DATOS DE ESTE REGISTRO:
HORA DE LA PRIMERA MUESTRA (GMT)       : 02:58:45.000
EXACTITUD DEL TIEMPO (s)               : 
DURACION DEL REGISTRO (s), C1-C6       : /149.00/149.00/149.00
DURACION DEL REGISTRO (s), C7-C12      : 
NUM. TOTAL DE MUESTRAS, C1-C6          : /29800/29800/29800
NUM. TOTAL DE MUESTRAS, C7-C12         : 
ACEL. MAX.(Gal), C1-C6                 : /0.40/0.50/0.60
ACEL. MAX., C1-C6, EN LA MUESTRA       : /14914/13405/12081
ACEL. MAX.(Gal), C7-C12                : 
ACEL. MAX., C7-C12,EN LA MUESTRA       : 
UNIDADES DE LOS DATOS                  : Gal (cm/s/s)
FACTOR DE DECIMACION                   : 1
FORMATO DATOS (FORTRAN,16 campos/dato) : 3E16.7


================================================================================
CALIDAD DEL ACELEROGRAMA:
REGISTRO DIGITAL COMPLETO CON TIEMPO ABSOLUTO CORRECTO


================================================================================
COMENTARIOS:














================================================================================
DATOS DE ACELERACION:
---------+---------+---------+---------+---------+---------+---------+---------+
   CANAL-1   	     CANAL-2       CANAL-3
        V             N00E           N90E
---------+---------+---------+---------+---------+---------+---------+---------+ 
[...]
   8.8019828e-02   6.3750450e-03   1.3231523e-02
   8.0092426e-02   1.6661881e-02   1.1125064e-02
   8.1025241e-02   3.3728638e-02   2.9852975e-02
   7.6828910e-02   4.9159350e-02   4.2025962e-02
   6.5403972e-02   5.6640470e-02   4.8580722e-02
   5.7943248e-02   6.7628637e-02   5.9349251e-02
   5.5844813e-02   7.6746588e-02   5.6306486e-02
   4.8617231e-02   7.6746456e-02   6.1690865e-02
   4.2555365e-02   8.2824915e-02   5.6306944e-02
   3.5094250e-02   8.4695391e-02   4.8347791e-02
   3.2529919e-02   9.2877842e-02   4.3432023e-02
   3.3229591e-02   9.9190078e-02   2.7982032e-02
   1.6675508e-02   1.0199566e-01   1.8384343e-02
   1.3178214e-02   1.0947717e-01   1.0617415e-03
   7.8157770e-03   1.0830777e-01  -1.6729406e-02
  -3.8423035e-03   1.1695816e-01  -3.1711244e-02
  -1.2770967e-03   1.1485404e-01  -5.8631763e-02
  -1.1535928e-02   1.2163383e-01  -7.0102063e-02
  -1.7597794e-02   1.3028423e-01  -8.6956905e-02
  -2.4359481e-02   1.2280245e-01  -1.0896143e-01
  -4.2079279e-02   1.3051774e-01  -1.1996357e-01
  -4.1845893e-02   1.2303596e-01  -1.3752065e-01
  -4.2545080e-02   1.2701043e-01  -1.5180025e-01
  -4.8606946e-02   1.2724407e-01  -1.6350463e-01
  -4.8373560e-02   1.2093157e-01  -1.7240009e-01
  -5.5834676e-02   1.3145219e-01  -1.7989070e-01
  -6.1197113e-02   1.2607479e-01  -1.8621092e-01
  -6.3994977e-02   1.3004926e-01  -1.9136077e-01
  -6.3294914e-02   1.2794474e-01  -1.9416985e-01
  -5.6533134e-02   1.3636136e-01  -1.9276516e-01
  -5.4900890e-02   1.4477799e-01  -1.9393531e-01
  -5.7465220e-02   1.4010192e-01  -1.9440324e-01
  -6.0729371e-02   1.5272653e-01  -1.9533931e-01
  -6.2827415e-02   1.4337454e-01  -1.9955285e-01
  -6.6324708e-02   1.4056908e-01  -2.0353232e-01
  -5.7930535e-02   1.3448997e-01  -2.0704323e-01
  -4.5339789e-02   1.2747613e-01  -2.0868193e-01
  -4.6738404e-02   1.3659409e-01  -2.0423386e-01
  -6.0028485e-02   1.2420260e-01  -2.0376548e-01
  -7.0054174e-02   1.2490419e-01  -2.0119001e-01
  -5.8162465e-02   1.1905885e-01  -2.0025348e-01
  -6.0260900e-02   1.1298013e-01  -2.0306256e-01
  -7.9613091e-02   1.2163053e-01  -1.9557110e-01
  -7.4483311e-02   1.1274609e-01  -1.9486864e-01
  -7.5182497e-02   1.1952627e-01  -1.8433419e-01
  -9.0804008e-02   1.2887761e-01  -1.6630851e-01
  -9.4767588e-02   1.2139622e-01  -1.6701090e-01
  -9.8031347e-02   1.2233120e-01  -1.4945337e-01
  -9.6165960e-02   1.2303240e-01  -1.3798262e-01
  -9.8963433e-02   1.2443493e-01  -1.2978893e-01
  -1.0898912e-01   1.2840939e-01  -1.0989064e-01
  -1.0735688e-01   1.2583772e-01  -1.0122879e-01
  -1.0502521e-01   1.3027974e-01  -7.5478199e-02
  -1.1015450e-01   1.3004583e-01  -6.6582675e-02
  -1.1714894e-01   1.2536977e-01  -5.2770761e-02
  -1.0502448e-01   1.2209637e-01  -3.8490694e-02
  -9.5930875e-02   1.1578387e-01  -3.1233704e-02
  -1.0618971e-01   1.1835528e-01  -1.3676176e-02
  -9.9427926e-02   1.1134145e-01  -1.6719332e-02
  -9.3831469e-02   1.0339212e-01  -4.5459530e-03
  -9.3364940e-02   9.3338794e-02  -9.4617210e-03
  -9.3830984e-02   7.5804219e-02  -7.8229573e-03
  -8.4271487e-02   6.4114458e-02  -6.8864228e-03
  -5.9089845e-02   4.8215928e-02  -1.8356722e-02
  -5.9322745e-02   3.9098105e-02  -1.2036038e-02
  -4.7897322e-02   2.4135076e-02  -2.3740414e-02
  -3.7404862e-02   1.7120853e-02  -2.2101650e-02
  -3.5772619e-02   1.8289605e-02  -2.5612567e-02
  -1.7119372e-02   4.4958521e-03  -3.0996881e-02
  -2.0150379e-02   2.8734378e-04  -3.0996652e-02
  -5.6456030e-04  -1.8034202e-04  -3.2869034e-02
   1.9487545e-02   2.8707973e-04  -3.0293572e-02
   1.5990251e-02  -4.1438296e-04  -2.8654808e-02
   2.4151281e-02  -1.8175686e-03  -2.0227044e-02
   2.8348489e-02   6.8328288e-03  -1.6247516e-02
   4.2804771e-02   1.0339742e-02  -6.8834465e-03
   4.9333409e-02   1.5483094e-02  -2.4353735e-03
   5.3297473e-02   3.0913414e-02   1.1376541e-02
   6.3556790e-02   4.2369134e-02   2.0974687e-02
   5.6095675e-02   5.1487085e-02   2.7763524e-02
   4.9334379e-02   6.5280966e-02   4.4852900e-02
   4.6070229e-02   7.7905570e-02   4.8364275e-02
   4.9568008e-02   8.9595460e-02   6.1708036e-02
   5.7262752e-02   1.0034985e-01   6.8496873e-02
   5.3066029e-02   1.1227312e-01   7.8095019e-02
   5.3998844e-02   1.2396262e-01   9.0502475e-02
   5.6330517e-02   1.3308057e-01   9.3545697e-02
   5.3766187e-02   1.4102964e-01   1.0665538e-01
   6.1694074e-02   1.3845757e-01   1.0548523e-01
   7.1020427e-02   1.4570530e-01   1.1438075e-01
   9.2005495e-02   1.5692725e-01   1.2093591e-01
   1.0133185e-01   1.6253815e-01   1.1765867e-01
   1.0109895e-01   1.7422765e-01   1.2163859e-01
   1.2278345e-01   1.8007272e-01   1.1625467e-01
   1.3234333e-01   1.9526927e-01   1.2093682e-01
   1.3957140e-01   2.0672499e-01   1.1578698e-01
   1.4703300e-01   2.1140078e-01   1.1297790e-01
   1.5426107e-01   2.3220836e-01   1.1063736e-01
   1.5845828e-01   2.4459919e-01   1.0431674e-01
   1.4936516e-01   2.4810611e-01   1.0150806e-01
   1.5426180e-01   2.5722406e-01   9.1910367e-02
   1.5729329e-01   2.6260119e-01   9.0740215e-02
   1.4983217e-01   2.6540677e-01   7.5524300e-02
   1.3980649e-01   2.7148523e-01   7.1310761e-02
   1.4003987e-01   2.6727672e-01   6.2883455e-02
   1.3910754e-01   2.6634148e-01   4.8837922e-02
   1.2744985e-01   2.6751023e-01   4.1113238e-02
   1.2418570e-01   2.5418364e-01   2.1215403e-02
   1.2348652e-01   2.4833869e-01   9.2765577e-03
   1.2488562e-01   2.4225997e-01  -3.3641238e-03
   1.2022261e-01   2.3314176e-01  -1.2025507e-02
   1.2092228e-01   2.2285466e-01  -3.3561876e-02
   1.2418692e-01   2.0532008e-01  -4.6437027e-02
   1.2255516e-01   1.9012327e-01  -6.4227782e-02
   1.2581940e-01   1.6721105e-01  -8.9275690e-02
   1.2651907e-01   1.4383126e-01  -9.9809684e-02
   1.3747821e-01   1.3073884e-01  -1.2251683e-01
   1.3701217e-01   1.1671092e-01  -1.3094374e-01
   1.2139026e-01   1.0408566e-01  -1.4662781e-01
   1.1626097e-01   8.7252413e-02  -1.6207819e-01
   1.1019910e-01   7.1354276e-02  -1.7261219e-01
   9.5510165e-02   6.0599623e-02  -1.8970071e-01
   8.1987332e-02   4.3298432e-02  -1.9602094e-01
   7.7557466e-02   3.4881940e-02  -2.0421417e-01
   6.5199957e-02   2.7867716e-02  -2.0655470e-01
   4.5381480e-02   1.3840187e-02  -2.0842748e-01
   2.4630432e-02   6.3584096e-03  -2.0725687e-01
   9.9414924e-03  -4.1624669e-03  -2.0678809e-01
   3.8208998e-04  -1.0474967e-02  -2.0842679e-01
  -1.3373886e-02  -1.4917252e-02  -2.0491502e-01
  -2.1068145e-02  -2.2165252e-02  -2.0046695e-01
  -2.6663725e-02  -1.8658339e-02  -1.8688911e-01
  -3.5756841e-02  -1.5618979e-02  -1.7799359e-01
  -4.8347103e-02  -1.7723495e-02  -1.6652244e-01
  -5.0911824e-02  -2.1230281e-02  -1.5551983e-01
  -4.8812903e-02  -1.8892644e-02  -1.4779469e-01
  -5.2310197e-02  -1.2346631e-02  -1.3468501e-01
  -5.3009383e-02  -1.0242379e-02  -1.3562108e-01
  -5.0444567e-02  -2.5274810e-03  -1.2532071e-01
  -4.6014216e-02   5.8891395e-03  -1.1689334e-01
  -5.4407904e-02   1.3370260e-02  -1.1642456e-01
  -6.0236627e-02   2.0384219e-02  -1.0846534e-01
  -5.2775026e-02   2.6462679e-02  -1.1291296e-01
  -4.9743925e-02   4.1425444e-02  -1.0729450e-01
  -5.4173790e-02   5.2413611e-02  -1.0284643e-01
  -5.2774298e-02   5.8725847e-02  -1.0073912e-01
  -4.8577090e-02   7.5792997e-02  -9.2311749e-02
  -4.7177990e-02   9.0755762e-02  -8.9970364e-02
  -4.0183066e-02   9.6600445e-02  -9.0438288e-02
  -4.3679968e-02   1.1226454e-01  -8.4819833e-02
  -3.5053043e-02   1.2769486e-01  -7.6392461e-02
  -2.1995619e-02   1.3891680e-01  -7.9201149e-02
  -3.2953880e-02   1.4686587e-01  -8.1542076e-02
  -2.9922778e-02   1.5387944e-01  -8.3648535e-02
  -1.7098497e-02   1.6299739e-01  -8.8330226e-02
  -1.0103573e-02   1.6510164e-01  -9.8864220e-02
  -1.4766582e-02   1.7188143e-01  -1.0775968e-01
  -1.8496627e-02   1.8006427e-01  -1.1501621e-01
  -1.7330669e-02   1.8637651e-01  -1.2578428e-01
  -3.1087037e-02   1.8731149e-01  -1.3467974e-01
  -3.5283759e-02   1.8076521e-01  -1.5153419e-01
  -3.5050373e-02   1.7515404e-01  -1.6417526e-01
  -4.3443669e-02   1.6813982e-01  -1.7400703e-01
  -4.9972213e-02   1.5925538e-01  -1.8805256e-01
  -6.9557546e-02   1.4756562e-01  -1.9460686e-01
  -8.0515807e-02   1.3494075e-01  -2.0139524e-01
  -8.5645101e-02   1.1343118e-01  -2.1895231e-01
  -1.0686244e-01   9.1688229e-02  -2.2855000e-01
  -1.0732848e-01   6.9243947e-02  -2.3627469e-01
  -1.0266498e-01   4.4929057e-02  -2.5078837e-01
  -1.0522971e-01   2.4121213e-02  -2.5664045e-01
  -1.0569575e-01   5.0765395e-04  -2.6670629e-01
  -1.1338962e-01  -1.7494868e-02  -2.7138798e-01
  -1.0313030e-01  -3.6900050e-02  -2.8051751e-01
  -1.0546188e-01  -5.3499518e-02  -2.9456305e-01
  -1.1268946e-01  -7.2203370e-02  -2.9783989e-01
  -9.5435462e-02  -9.0439276e-02  -3.0696942e-01
  -9.7766649e-02  -9.4881562e-02  -3.0509658e-01
  -1.0103080e-01  -1.1148103e-01  -3.0720304e-01
  -9.9631699e-02  -1.2434007e-01  -3.1165066e-01
  -1.0709242e-01  -1.3462717e-01  -3.0486182e-01
  -9.5434248e-02  -1.5216174e-01  -3.0626605e-01
  -9.5200863e-02  -1.6174751e-01  -3.0275428e-01
  -9.8464622e-02  -1.7904870e-01  -3.0017921e-01
  -8.4708160e-02  -1.8793314e-01  -2.8894253e-01
  -8.2376096e-02  -2.0032423e-01  -2.7419431e-01
  -8.1443281e-02  -2.1505348e-01  -2.6483024e-01
  -8.6106290e-02  -2.1715761e-01  -2.4422972e-01
  -8.0277081e-02  -2.3212064e-01  -2.2760889e-01
  -6.3255835e-02  -2.3141944e-01  -2.0934913e-01
  -6.5354270e-02  -2.2557476e-01  -1.8266223e-01
  -6.0690777e-02  -2.2838060e-01  -1.5433640e-01
  -4.8099639e-02  -2.1785999e-01  -1.2249943e-01
  -3.8073465e-02  -2.1107981e-01  -8.8555374e-02
  -3.5042363e-02  -2.0733912e-01  -6.0697698e-02
  -2.4549903e-02  -2.0032555e-01  -2.8158495e-02
  -1.1259336e-02  -1.8606412e-01   8.1263231e-03
  -1.0326522e-02  -1.6923114e-01   3.9495144e-02
  -1.2329199e-03  -1.5941185e-01   7.1098435e-02
   1.5654299e-03  -1.3766917e-01   1.0387171e-01
   8.5603536e-03  -1.1779669e-01   1.4226361e-01
   1.2990704e-02  -1.1452356e-01   1.7012090e-01
   6.6956952e-03  -1.0119723e-01   2.0031934e-01
   1.0193083e-02  -8.8572626e-02   2.3192263e-01
   1.6955255e-02  -7.6181406e-02   2.5977991e-01
   1.9986356e-02  -6.4024356e-02   2.9395804e-01
   1.5090205e-02  -5.5373958e-02   3.2509278e-01
   2.9080201e-02  -4.5087123e-02   3.5669568e-01
   4.0971519e-02  -4.3918370e-02   3.8666004e-01
   4.4702441e-02  -4.0879010e-02   4.1615625e-01
   5.6594149e-02  -3.5501882e-02   4.4495024e-01
   5.9625251e-02  -3.0358530e-02   4.7491460e-01
   6.0558066e-02  -2.7787116e-02   4.9715366e-01
   5.5195629e-02  -2.1240711e-02   5.1986126e-01
   6.6154374e-02  -1.7266636e-02   5.4537778e-01
   7.5481119e-02  -1.8201875e-02   5.6153045e-01
   7.1517540e-02  -1.6331400e-02   5.8306728e-01
   7.7813426e-02  -2.0773685e-02   5.9828365e-01
   6.9886024e-02  -1.2123680e-02   6.1326595e-01
   6.0093479e-02  -7.2141052e-03   6.2473710e-01
   5.1233506e-02  -6.0449605e-03   6.2614179e-01
   5.0068033e-02  -5.5775387e-03   6.2590794e-01
   6.1493065e-02  -1.1422485e-02   6.0952164e-01
   5.5897485e-02  -3.4738108e-03   5.9711465e-01
   5.3333155e-02  -7.6823191e-03   5.7721681e-01
   5.3333397e-02  -7.2148973e-03   5.4491214e-01
   5.0302390e-02  -4.3471507e-04   5.1892793e-01
   5.0069490e-02  -3.4743389e-03   4.7304526e-01
   4.7505159e-02   3.0716742e-03   4.2599260e-01
   5.7531333e-02   4.0070420e-03   3.7613063e-01
   6.7324364e-02   8.2148940e-03   3.2299159e-01
   7.0355466e-02   1.5228853e-02   2.7172516e-01
   6.2195313e-02   1.5462498e-02   2.1577642e-01
   5.6366198e-02   1.7566358e-02   1.6848969e-01
   7.0822480e-02   1.6631118e-02   1.1160503e-01
   7.3154544e-02   2.1306916e-02   6.5020527e-02
   7.1989072e-02   2.4580053e-02   2.0308631e-02
   8.3880389e-02   2.7151467e-02  -2.6276268e-02
   8.1082525e-02   3.9542687e-02  -5.6240173e-02
   7.6419517e-02   4.2114100e-02  -8.7608537e-02
   7.6652902e-02   4.0477530e-02  -1.1616759e-01
   7.8285537e-02   4.8893758e-02  -1.3676805e-01
   9.3674391e-02   5.9882317e-02  -1.4917465e-01
   9.1575956e-02   7.1338037e-02  -1.6368834e-01
   9.4141163e-02   8.6300802e-02  -1.7188118e-01
   1.0136923e-01   1.0500439e-01  -1.7305172e-01
   9.3442219e-02   1.1388817e-01  -1.8592648e-01
   9.3442462e-02   1.2347368e-01  -1.9482194e-01
   9.7173384e-02   1.4054083e-01  -1.9341725e-01
   1.1419424e-01   1.4685306e-01  -2.0582386e-01
   1.1955716e-01   1.6134828e-01  -2.1097370e-01
   1.1512730e-01   1.7537593e-01  -2.0863271e-01
   1.1349554e-01   1.8238950e-01  -2.2384862e-01
   1.1536092e-01   1.9431277e-01  -2.3344631e-01
   1.1372917e-01   2.0156051e-01  -2.4538476e-01
   1.0510234e-01   2.1231490e-01  -2.6036660e-01
   1.1023212e-01   2.1699070e-01  -2.6598460e-01
   9.9273855e-02   2.2680998e-01  -2.7464598e-01
   8.2486629e-02   2.2751118e-01  -2.8588220e-01
   5.9170616e-02   2.1886052e-01  -2.8564790e-01
   3.5388318e-02   2.1348312e-01  -2.8307283e-01
   3.7720381e-02   1.9080506e-01  -2.8330668e-01
   2.7461550e-02   1.7514070e-01  -2.7604929e-01
   1.0907076e-02   1.5667063e-01  -2.6223738e-01
   4.3789233e-03   1.3726545e-01  -2.4444617e-01
  -3.7816212e-03   1.2230242e-01  -2.2267526e-01
  -1.2408060e-02   1.0079324e-01  -1.9832913e-01
  -1.9636033e-02   8.6063989e-02  -1.7749453e-01
  -1.2407575e-02   6.5723699e-02  -1.5244616e-01
  -2.8311415e-04   5.3799769e-02  -1.3278195e-01
  -5.4124085e-03   5.2163198e-02  -1.0351981e-01
  -6.3447377e-03   4.6318252e-02  -7.8705522e-02
   1.5831492e-03   4.5850566e-02  -6.4659532e-02
  -2.8214324e-04   4.6084211e-02  -4.3590857e-02
   4.3813505e-03   3.6030888e-02  -3.2822329e-02
   1.9537061e-02   3.5095648e-02  -1.4562571e-02
   2.7698091e-02   4.1641662e-02  -2.1555077e-03
   2.8397763e-02   3.7666930e-02   9.0811733e-03
   3.2361828e-02   3.9771182e-02   1.4231476e-02
   3.6325501e-02   4.6083419e-02   2.2191087e-02
   3.9590137e-02   4.7018394e-02   3.3427768e-02
   4.0989238e-02   4.0705894e-02   2.8512000e-02
   4.2388730e-02   3.8601378e-02   3.5535306e-02
   6.0109014e-02   4.0238076e-02   3.3662531e-02
   6.7104329e-02   3.5795791e-02   3.9046910e-02
   6.3373892e-02   3.1587283e-02   3.8344910e-02
   6.3140992e-02   2.7378774e-02   3.2726913e-02
   5.5913019e-02   2.4573320e-02   3.3429371e-02
   5.7778797e-02   2.1299919e-02   2.6640992e-02
   5.5680362e-02   1.6623857e-02   2.4065988e-02
   5.5214319e-02   1.2415349e-02   1.6809456e-02
   5.4515132e-02   1.5688485e-02   1.7511914e-02
   4.5188873e-02   1.5922130e-02   1.0255382e-02
   3.8893864e-02   1.1947399e-02   7.4463018e-03
   2.7469317e-02   9.8432747e-03   1.8976996e-04
   2.3738881e-02   3.7645513e-03  -1.2217228e-02
   1.7210729e-02  -4.4395694e-04  -1.9707836e-02
   1.1615148e-02  -3.9511345e-03  -3.9605671e-02
   6.0191770e-03   1.8935479e-03  -4.5691821e-02
  -9.3691914e-03   5.1666846e-03  -6.2546663e-02
  -2.3125168e-02   6.3354370e-03  -7.7762577e-02
  -4.1311643e-02   1.3816950e-02  -9.1105488e-02
  -4.6907223e-02   1.6388364e-02  -1.1428078e-01
  -5.3435376e-02   2.1999269e-02  -1.2364440e-01
  -6.9989850e-02   2.2232914e-02  -1.4541484e-01
  -8.4212504e-02   2.3635443e-02  -1.6156706e-01
  -1.0053344e-01   3.2052064e-02  -1.7186698e-01
  -1.1335685e-01   3.3922539e-02  -1.9316967e-01
  -1.2524807e-01   3.7896614e-02  -2.0861966e-01
  -1.3434119e-01   4.2572412e-02  -2.2289927e-01
  -1.4366706e-01   4.8417095e-02  -2.3483772e-01
  -1.5882228e-01   5.3326670e-02  -2.4677617e-01
  -1.8097258e-01   4.8884384e-02  -2.5403310e-01
  -2.0055791e-01   4.3740769e-02  -2.6246001e-01
  -2.0941750e-01   3.5558053e-02  -2.7135547e-01
