**************************************************************************************
  	RED ACELEROGRÁFICA DE LA UNIVERSIDAD AUTONOMA METROPOLITANA (RAUAM)
	   UNIDAD AZCAPOTZALCO. DIVISIÓN CBI-DEPARTAMENTO DE MATERIALES
     Av. San Pablo 180, Col. Reynosa, Azcapotzalco, C.P. 02200, Ciudad de México
		Área de Estructuras. e-mail: agb@azc.uam.mx
**************************************************************************************
ARCHIVO ESTANDAR DE ACELERACION:
VERSION DEL FORMATO                    : 2.0
NOMBRE DEL ARCHIVO                     : RIDX202109082
FECHA Y HORA DE CREACION               : 11:25 a. m. 09/09/2021
REF. CATALOGO ACELEROGRAMAS, SMIS 1999 : REGISTRO NO.      /PAG.    


================================================================================
DATOS DE LA ESTACION:
NOMBRE DE LA ESTACION                  : UAM-XOCHIMILCO.
CLAVE DE LA ESTACION                   : RIDX
LOCALIZACION DE LA ESTACION            : CALZADA DEL HUESO 1100, COL. VILLA
                                       : QUIETUD, DEL. COYOACAN, C.P.04960, 
                                       : CIUDAD DE MEXICO.
                                       : 
                                       : 
COORDENADAS DE LA ESTACION             : 19.305234 LAT. N
                                       : 99.103399 LONG. W
ALTITUD (msnm)                         : 2240
TIPO DE SUELO                          : LAGO
                                       : 
                                       : 
INSTITUCION RESPONSABLE                : UNIVERSIDAD AUTONOMA METROPOLITANA
                                       : 

================================================================================
DATOS DEL ACELEROGRAFO: 
MODELO DEL ACELEROGRAFO                : BASALT KINEMETRICS
NUMERO DE SERIE DEL ACELEROGRAFO       : 1729
NUMERO DE CANALES                      : 3
ORIENTACION C1-C6 (rumbo;orientacion)  : /V/N00E/N90E
ORIENTACION C7-C12 (rumbo;orientacion) : 
VEL. DE MUESTREO, C1-C6 (muestras/s)   : /200/200/200
VEL. DE MUESTREO, C7-C12 (muestras/s)  : 
ESC. COMPLETA DE SENSORES, C1-C6, (g)  : /2/2/2
ESC. COMPLETA DE SENSORES, C7-C12 (g)  : 
FREC. NAT. DE SENSORES, C1-C6, (Hz)    : /208/210/200   
FREC. NAT. DE SENSORES, C7-C12 (Hz)    : 
AMORTIGUAMIENTO DE SENSORES, C1-C6     : /0.7/0.7/0.7      
AMORTIGUAMIENTO DE SENSORES, C7-C12    : 
INTERVALO DE MUESTREO, C1-C6 (s)       : /0.005/0.005/0.005
INTERVALO DE MUESTREO, C7-C12 (s)      : 
UMBRAL DE DISPARO, C1-C6 (Gal)         : /2/2/2
UMBRAL DE DISPARO, C7-C12 (Gal)        : 
MEMORIA DE PREEVENTO (s)               : 60
TIEMPO DE POSEVENTO (s)                : 80


================================================================================
DATOS DEL SISMO:
FECHA DEL SISMO [GMT]                  : 2021/09/08
HORA EPICENTRO (GMT)                   : 02:18:03
MAGNITUD(ES)                           : /M=5.2
COORDENADAS DEL EPICENTRO              : 16.89 LAT. N
                                       : 99.93 LONG. W
PROFUNDIDAD FOCAL (Km)                 : 10.0
FUENTE DE LOS DATOS EPICENTRALES       : SSN
                                       : INSTITUTO DE GEOFISICA, UNAM

================================================================================
DATOS DE ESTE REGISTRO:
HORA DE LA PRIMERA MUESTRA (GMT)       : 02:18:26.000
EXACTITUD DEL TIEMPO (s)               : 
DURACION DEL REGISTRO (s), C1-C6       : /159.00/159.00/159.00
DURACION DEL REGISTRO (s), C7-C12      : 
NUM. TOTAL DE MUESTRAS, C1-C6          : /31800/31800/31800
NUM. TOTAL DE MUESTRAS, C7-C12         : 
ACEL. MAX.(Gal), C1-C6                 : /0.60/-0.80/0.70
ACEL. MAX., C1-C6, EN LA MUESTRA       : /12447/14882/13246
ACEL. MAX.(Gal), C7-C12                : 
ACEL. MAX., C7-C12,EN LA MUESTRA       : 
UNIDADES DE LOS DATOS                  : Gal (cm/s/s)
FACTOR DE DECIMACION                   : 1
FORMATO DATOS (FORTRAN,16 campos/dato) : 3E16.7


================================================================================
CALIDAD DEL ACELEROGRAMA:
REGISTRO DIGITAL COMPLETO CON TIEMPO ABSOLUTO CORRECTO


================================================================================
COMENTARIOS:














================================================================================
DATOS DE ACELERACION:
---------+---------+---------+---------+---------+---------+---------+---------+
   CANAL-1   	     CANAL-2       CANAL-3
        V             N00E           N90E
---------+---------+---------+---------+---------+---------+---------+---------+ 
[...]
  -2.0921769e-01  -1.6242109e-01   1.5571362e-01
  -2.1201516e-01  -1.4839350e-01   1.5618204e-01
  -2.1014977e-01  -1.4067868e-01   1.5571415e-01
  -2.1271449e-01  -1.3109324e-01   1.4798911e-01
  -2.1084871e-01  -1.2665129e-01   1.4166892e-01
  -1.8823203e-01  -1.1519525e-01   1.3839211e-01
  -1.7261003e-01  -9.9998773e-02   1.2247361e-01
  -1.7680635e-01  -8.6906684e-02   1.2341058e-01
  -1.6981143e-01  -6.2592128e-02   1.2247414e-01
  -1.5838639e-01  -3.8511349e-02   1.0679011e-01
  -1.5348975e-01  -1.2092801e-02   1.0538592e-01
  -1.3227193e-01   7.6590334e-04   9.9533880e-02
  -1.1291925e-01   2.3209852e-02   9.4852224e-02
  -9.6364288e-02   4.4484916e-02   9.3916184e-02
  -8.4239824e-02   6.7163034e-02   9.2745674e-02
  -7.7244897e-02   1.0059528e-01   1.0000309e-01
  -5.3928395e-02   1.1555798e-01   9.7194048e-02
  -4.1104111e-02   1.4758796e-01   1.0093993e-01
  -2.0352574e-02   1.6792791e-01   9.5556043e-02
   6.9273579e-03   1.9341135e-01   8.5490237e-02
   1.6953535e-02   2.3362391e-01   9.6258802e-02
   3.7471929e-02   2.5162571e-01   9.1577146e-02
   5.3560215e-02   2.7874598e-01   9.0641105e-02
   7.0814607e-02   3.0376187e-01   9.2982527e-02
   9.3198145e-02   3.3999983e-01   8.6661944e-02
   1.0998625e-01   3.7249697e-01   7.8235066e-02
   1.2304329e-01   3.9891591e-01   6.6530333e-02
   1.3376889e-01   4.3585520e-01   6.3955758e-02
   1.4472803e-01   4.5642894e-01   5.3421800e-02
   1.4193017e-01   4.8097727e-01   4.4994529e-02
   1.5009121e-01   5.0646071e-01   3.9844721e-02
   1.6804464e-01   5.3007393e-01   3.2353756e-02
   1.7037670e-01   5.4737440e-01   2.7906569e-02
   1.7177581e-01   5.6748058e-01   1.8542993e-02
   1.7877073e-01   5.8314461e-01   1.5031719e-02
   1.8250166e-01   5.9249626e-01   1.4563831e-02
   1.8320133e-01   6.0582252e-01   9.8821757e-03
   1.8040386e-01   6.0605610e-01   8.4779822e-03
   1.7830543e-01   6.1657664e-01   6.3711669e-03
   1.8250264e-01   6.0839346e-01  -8.1424825e-03
   1.6361674e-01   6.0535416e-01  -4.3966027e-03
   1.5359106e-01   6.1306899e-01  -5.3326434e-03
   1.5382444e-01   6.0441826e-01  -1.0716528e-02
   1.3353969e-01   6.0184651e-01  -5.5661901e-03
   1.2258143e-01   5.7916799e-01  -2.0313916e-02
   1.1278889e-01   5.6139957e-01  -1.7504342e-02
   1.1045770e-01   5.4363075e-01  -1.9611157e-02
   1.0019887e-01   5.2212151e-01  -2.2887962e-02
   7.6882865e-02   5.0014471e-01  -2.1015086e-02
   5.7297535e-02   4.7021872e-01  -2.7101200e-02
   4.6805563e-02   4.4566998e-01  -2.9910244e-02
   4.6106380e-02   4.2205635e-01  -3.4825976e-02
   3.0018586e-02   4.0428793e-01  -2.6866329e-02
   1.6495365e-02   3.7693348e-01  -3.7166210e-02
  -7.5814412e-04   3.5706067e-01  -3.7400022e-02
  -1.3348793e-02   3.2503068e-01  -3.6697528e-02
  -2.2675050e-02   2.9042876e-01  -4.0911031e-02
  -2.7104912e-02   2.6517869e-01  -3.4824387e-02
  -1.5446343e-02   2.2590083e-01  -4.3953887e-02
  -2.4073170e-02   2.0743108e-01  -3.2950853e-02
  -3.5031427e-02   1.8007663e-01  -2.7332362e-02
  -4.5756541e-02   1.5529411e-01  -3.0141407e-02
  -4.0859901e-02   1.3682436e-01  -2.8502607e-02
  -3.8528225e-02   1.1648400e-01  -2.8268266e-02
  -4.6455232e-02   1.0526133e-01  -2.5926845e-02
  -3.3631339e-02   8.3284535e-02  -2.8501813e-02
  -2.6869555e-02   7.4867581e-02  -1.7966932e-02
  -3.1765703e-02   6.5983465e-02  -1.7264438e-02
  -4.5288533e-02   5.3124358e-02  -1.8200872e-02
  -3.9226178e-02   5.1020165e-02  -1.9605065e-02
  -3.9459075e-02   4.9149356e-02  -3.1777558e-02
  -4.0624545e-02   4.1667901e-02  -3.4118450e-02
  -2.5935116e-02   3.1848286e-02  -4.9334328e-02
  -3.3163086e-02   3.0912977e-02  -5.2377056e-02
  -3.1064162e-02   3.3484321e-02  -5.7292788e-02
  -3.8058988e-02   4.2134649e-02  -6.7124517e-02
  -4.6918958e-02   5.1018753e-02  -6.8060558e-02
  -4.5286320e-02   5.5928259e-02  -8.4915364e-02
  -4.8783610e-02   6.8552794e-02  -9.1235554e-02
  -4.5518971e-02   9.2867350e-02  -1.0200359e-01
  -4.6917974e-02   1.1460997e-01  -1.0270555e-01
  -4.3653335e-02   1.3050777e-01  -1.0317344e-01
  -3.9922410e-02   1.5201700e-01  -1.0247095e-01
  -4.6450559e-02   1.7399340e-01  -9.7320609e-02
  -4.4818312e-02   1.9129386e-01  -1.0808864e-01
  -3.0362027e-02   2.0976361e-01  -1.0410908e-01
  -2.1035279e-02   2.2940223e-01  -1.0527920e-01
  -1.2641494e-02   2.4342982e-01  -1.0574708e-01
  -1.6838213e-02   2.6540622e-01  -9.9894518e-02
  -2.3366363e-02   2.8785056e-01  -8.7252950e-02
  -1.1708185e-02   3.0444969e-01  -8.0932230e-02
  -9.1429745e-03   3.2549098e-01  -7.4377433e-02
   2.5152035e-03   3.3858346e-01  -6.1501789e-02
   7.4118435e-03   3.6243007e-01  -5.3776610e-02
  -1.9144127e-03   3.7739277e-01  -3.5984969e-02
  -2.6135957e-03   3.8300360e-01  -3.1536860e-02
  -2.1470638e-03   4.0381150e-01  -1.8895685e-02
   9.7446484e-03   4.1059122e-01  -1.0936037e-02
   4.8485003e-03   4.2157932e-01  -8.8290850e-03
  -1.6800400e-03   4.2742393e-01  -8.6943750e-04
  -3.3117950e-03   4.2718996e-01  -1.5714018e-03
  -8.6742291e-03   4.2976169e-01   8.9630860e-03
  -7.5082682e-03   4.2321495e-01   1.2708966e-02
  -7.9743082e-03   4.1924054e-01   1.5284071e-02
   5.3162619e-03   4.0591388e-01   1.8093645e-02
  -5.1245817e-04   3.9819865e-01   2.1136903e-02
   3.2180757e-03   3.8931414e-01   3.0735085e-02
   8.3478587e-03   3.8393668e-01   2.6989735e-02
  -4.7086854e-03   3.8019566e-01   3.0501539e-02
   1.8795457e-04   3.5775091e-01   3.0969956e-02
  -5.8739085e-03   3.3974872e-01   2.4883842e-02
  -7.4412552e-04   3.1426487e-01   2.8161569e-02
  -5.8734166e-03   2.8878103e-01   2.7459605e-02
  -1.7298351e-02   2.7031088e-01   3.2609943e-02
  -1.9862678e-02   2.5791972e-01   3.2610208e-02
  -2.8023219e-02   2.4389173e-01   2.9801163e-02
  -2.9888117e-02   2.2612292e-01   2.7928817e-02
  -4.3644481e-02   2.1513442e-01   2.6524231e-02
  -4.9240058e-02   1.9502783e-01   2.3949656e-02
  -5.7866886e-02   1.7725941e-01   1.6692767e-02
  -6.6493322e-02   1.6533541e-01   2.1374952e-02
  -7.9317114e-02   1.5738640e-01   1.9268530e-02
  -8.9109656e-02   1.4218953e-01   1.2245717e-02
  -9.0275125e-02   1.2886287e-01   1.2436066e-03
  -1.0636292e-01   1.2161519e-01  -5.5447365e-03
  -1.0426439e-01   1.0969119e-01  -1.8185775e-02
  -1.0263214e-01   1.0337862e-01  -3.1294573e-02
  -1.0916029e-01   9.4494111e-02  -2.8485392e-02
  -1.1289072e-01   9.0051757e-02  -4.4169423e-02
  -1.1941887e-01   8.1635195e-02  -5.2830377e-02
  -1.1988491e-01   7.7426617e-02  -6.5003263e-02
  -1.2035095e-01   7.8127746e-02  -8.4198833e-02
  -1.1871870e-01   6.7606800e-02  -9.5669096e-02
  -1.1498778e-01   6.7372822e-02  -1.0854382e-01
  -1.1848507e-01   6.8541504e-02  -1.1580071e-01
  -1.3177476e-01   7.3918564e-02  -1.2586651e-01
  -1.3433947e-01   7.6022746e-02  -1.2750478e-01
  -1.2361387e-01   7.1580391e-02  -1.3125013e-01
  -1.1382083e-01   7.8827666e-02  -1.3546363e-01
  -1.1825070e-01   7.7892357e-02  -1.3429299e-01
  -1.2454570e-01   7.9996147e-02  -1.4248579e-01
  -1.2291346e-01   9.0282913e-02  -1.3991068e-01
  -1.1988196e-01   9.0282711e-02  -1.3639888e-01
  -1.1125464e-01   8.7710964e-02  -1.4412392e-01
  -1.1055497e-01   9.6361292e-02  -1.4037804e-01
  -9.3767251e-02   9.8698859e-02  -1.4459155e-01
  -8.0942966e-02   9.8932434e-02  -1.5114581e-01
  -8.2808256e-02   1.0664765e-01  -1.4833624e-01
  -6.8351970e-02   1.0524440e-01  -1.5184751e-01
  -6.4854188e-02   1.0851747e-01  -1.6238147e-01
  -4.3869508e-02   1.0758216e-01  -1.7408581e-01
  -2.1019293e-02   1.1272544e-01  -1.8415161e-01
  -7.7291141e-03   1.2207710e-01  -1.9843119e-01
   1.8618637e-02   1.2722038e-01  -2.0779476e-01
   3.1209387e-02   1.4031247e-01  -2.2605403e-01
   4.4033671e-02   1.4522197e-01  -2.3541760e-01
   6.1987101e-02   1.4966393e-01  -2.4876048e-01
   9.2531427e-02   1.4358513e-01  -2.7263797e-01
   1.0908639e-01   1.5410568e-01  -2.7685147e-01
   1.2913850e-01   1.5924896e-01  -3.0377196e-01
   1.5571900e-01   1.5761232e-01  -3.2390383e-01
   1.5478667e-01   1.7841983e-01  -3.3584264e-01
   1.7413935e-01   1.6883399e-01  -3.6042197e-01
   1.8556439e-01   1.7327594e-01  -3.7001962e-01
   1.9838828e-01   1.7795167e-01  -3.8429919e-01
   2.1820725e-01   1.6766450e-01  -3.9530130e-01
   2.2753400e-01   1.7631444e-01  -3.9904665e-01
   2.4315600e-01   1.8332833e-01  -3.9811008e-01
   2.4572121e-01   1.9829102e-01  -3.9132121e-01
   2.5155042e-01   2.0179747e-01  -3.9108687e-01
   2.4665427e-01   2.1091536e-01  -3.8757507e-01
   2.5364920e-01   2.1839680e-01  -3.8008357e-01
   2.6577405e-01   2.2470897e-01  -3.6791055e-01
   2.6973812e-01   2.3546329e-01  -3.5667383e-01
   2.8372773e-01   2.2798183e-01  -3.4637342e-01
   2.6251040e-01   2.3663177e-01  -3.2624101e-01
   2.6087864e-01   2.3476135e-01  -3.1242907e-01
   2.7067168e-01   2.2961766e-01  -3.0049012e-01
   2.6297742e-01   2.3405962e-01  -2.8340071e-01
   2.6670834e-01   2.2727949e-01  -2.7614368e-01
   2.4968798e-01   2.3359166e-01  -2.6607735e-01
   2.3406608e-01   2.3359146e-01  -2.5062686e-01
   2.1308189e-01   2.1839458e-01  -2.3915568e-01
   1.9606153e-01   2.1044518e-01  -2.1598028e-01
   1.8999966e-01   1.8355868e-01  -2.0170017e-01
   1.8253855e-01   1.4732031e-01  -1.9608168e-01
   1.8067365e-01   1.5456758e-01  -1.6564913e-01
   1.3217624e-01   1.2697975e-01  -1.5277349e-01
   1.0629566e-01   8.1623301e-02  -1.4715500e-01
   1.0886087e-01   8.2558207e-02  -1.1602022e-01
   7.0389393e-02   4.4916788e-02  -1.0548573e-01
   5.8731707e-02   3.0673855e-03  -1.0314431e-01
   5.1037452e-02  -2.3351566e-02  -7.5755141e-02
   2.7488300e-02  -6.6370245e-02  -5.4218277e-02
   5.3383966e-03  -9.8634011e-02  -3.8533716e-02
  -2.4272865e-02  -1.2949512e-01  -1.5592002e-02
  -3.6863514e-02  -1.6105794e-01   2.1992468e-03
  -5.2718165e-02  -2.0010163e-01   2.3970579e-02
  -6.0178886e-02  -2.4312031e-01   4.0825522e-02
  -7.5100965e-02  -2.7328008e-01   6.5405772e-02
  -1.0308023e-01  -3.0858334e-01   9.2560861e-02
  -1.1776916e-01  -3.3967822e-01   1.1105473e-01
  -1.4085164e-01  -3.7474770e-01   1.4055098e-01
  -1.5624000e-01  -4.1612955e-01   1.6115154e-01
  -1.6719826e-01  -4.4792616e-01   1.8315655e-01
  -1.7116184e-01  -4.8626851e-01   1.9650035e-01
  -1.8212009e-01  -5.0450488e-01   2.1569645e-01
  -2.0193857e-01  -5.3583354e-01   2.3746739e-01
  -2.0496957e-01  -5.7441007e-01   2.4378811e-01
  -2.1452897e-01  -5.9124338e-01   2.6298421e-01
  -2.1546130e-01  -6.3028746e-01   2.6813455e-01
  -2.1336276e-01  -6.5881040e-01   2.7539196e-01
  -2.1382880e-01  -6.8148892e-01   2.8499015e-01
  -2.0426891e-01  -7.0673899e-01   2.8873563e-01
  -1.9517531e-01  -7.2216964e-01   2.9552490e-01
  -1.9261049e-01  -7.4017224e-01   3.0020708e-01
  -1.8165135e-01  -7.5326473e-01   3.0699596e-01
  -1.5040759e-01  -7.6892916e-01   3.0465546e-01
  -1.3082177e-01  -7.7570967e-01   3.0746464e-01
  -1.1053652e-01  -7.8132091e-01   3.0933752e-01
  -8.8386125e-02  -7.8950370e-01   3.0676294e-01
  -7.5095555e-02  -7.7968449e-01   3.0442205e-01
  -5.4810304e-02  -7.7664559e-01   2.9903816e-01
  -4.4084698e-02  -7.7851600e-01   2.9248390e-01
  -1.4706087e-02  -7.6331953e-01   2.8944078e-01
   3.1226849e-02  -7.5139633e-01   2.8312059e-01
   5.0113242e-02  -7.3573230e-01   2.8569608e-01
   5.6408740e-02  -7.1585990e-01   2.9178273e-01
   7.3662741e-02  -6.9855904e-01   2.8265323e-01
   9.4647812e-02  -6.7354315e-01   2.9108103e-01
   1.0327474e-01  -6.5484003e-01   2.8312191e-01
   1.2449295e-01  -6.3637029e-01   2.6205373e-01
   1.5037403e-01  -6.0784735e-01   2.5854246e-01
   1.6599603e-01  -5.7745421e-01   2.5011558e-01
   1.7299096e-01  -5.4355440e-01   2.4473169e-01
   1.6483081e-01  -5.0591339e-01   2.3700665e-01
   1.6669620e-01  -4.8487210e-01   2.2530231e-01
   1.6762901e-01  -4.6312948e-01   2.2225919e-01
   1.6832869e-01  -4.3600921e-01   2.0961855e-01
   1.7579029e-01  -4.2361845e-01   1.8620921e-01
   1.7648997e-01  -4.0234339e-01   1.7520710e-01
   1.6949553e-01  -3.7873016e-01   1.6607760e-01
   1.4851095e-01  -3.6072798e-01   1.5437326e-01
   1.3615384e-01  -3.3992047e-01   1.4056184e-01
   1.3475523e-01  -3.2565910e-01   1.2347335e-01
   1.2566211e-01  -3.1233324e-01   1.1106639e-01
   1.1960025e-01  -3.0017586e-01   9.8893893e-02
   1.0631017e-01  -2.8895399e-01   9.0232546e-02
   8.6025412e-02  -2.7188730e-01   8.6721272e-02
   7.0870190e-02  -2.6347075e-01   7.6187314e-02
   4.9886002e-02  -2.5645725e-01   7.1973811e-02
   4.2891175e-02  -2.3728618e-01   6.7760701e-02
   3.4964168e-02  -2.2559636e-01   5.4417433e-02
   1.7710268e-02  -2.1624509e-01   5.8163313e-02
  -2.4267005e-04  -2.0338639e-01   5.3949810e-02
  -3.0320217e-02  -1.9380095e-01   5.7461221e-02
  -4.9905548e-02  -1.8819012e-01   5.8866337e-02
  -7.2522128e-02  -1.8374817e-01   5.7461751e-02
  -8.9775637e-02  -1.7509784e-01   6.5187322e-02
  -1.0563029e-01  -1.6855190e-01   6.0505666e-02
  -1.3360955e-01  -1.5803135e-01   7.1742383e-02
  -1.4876477e-01  -1.4797836e-01   7.2678954e-02
  -1.7021525e-01  -1.4283508e-01   7.3849993e-02
  -1.9656211e-01  -1.3792558e-01   7.4318411e-02
  -2.1941184e-01  -1.3418496e-01   7.3850523e-02
  -2.3923031e-01  -1.2927545e-01   8.1809778e-02
  -2.5718325e-01  -1.2530105e-01   8.0171508e-02
  -2.7676858e-01  -1.2389859e-01   9.0471919e-02
  -2.8376340e-01  -1.2202858e-01   9.2578872e-02
  -2.8726030e-01  -1.2156123e-01   9.1642831e-02
  -2.9425513e-01  -1.1805438e-01   9.9134326e-02
  -2.9891813e-01  -1.1314488e-01   1.0077313e-01
  -2.9868475e-01  -1.1267753e-01   1.0030524e-01
  -2.9868450e-01  -1.1033996e-01   1.0451927e-01
  -2.9448729e-01  -1.0472873e-01   1.0732845e-01
  -2.8725883e-01  -9.9117894e-02   1.0732872e-01
  -2.8236219e-01  -9.9118095e-02   1.0662675e-01
  -2.7047087e-01  -9.2104598e-02   9.9604332e-02
  -2.6067783e-01  -7.7375679e-02   1.0147721e-01
  -2.4319069e-01  -6.8257797e-02   9.9604862e-02
  -2.1637665e-01  -5.8906139e-02   9.8200669e-02
  -2.0378590e-01  -4.3475889e-02   1.0639400e-01
  -1.9236087e-01  -2.8746970e-02   1.0335127e-01
  -1.7487333e-01  -2.2902357e-02   1.0779899e-01
  -1.5202312e-01  -1.1212930e-02   1.0639479e-01
  -1.2241175e-01  -2.2483300e-04   1.0147906e-01
  -9.5131431e-02   1.3101425e-02   9.9840792e-02
  -7.2981036e-02   4.0455080e-02   8.7433831e-02
  -5.1996356e-02   5.3547561e-02   9.2116016e-02
  -2.6114890e-02   6.6406265e-02   8.1816134e-02
  -5.1302102e-03   8.0199685e-02   8.0411941e-02
   1.9118863e-02   8.1368760e-02   7.1984670e-02
   6.1321120e-02   9.0018695e-02   4.7170874e-02
   8.3704658e-02   1.0264362e-01   5.0682678e-02
   9.9327050e-02   1.0615047e-01   3.3360112e-02
   1.2217687e-01   1.0615027e-01   2.1421303e-02
   1.3383505e-01   1.1620286e-01   8.3125043e-03
   1.6391309e-01   1.1994348e-01  -6.2011451e-03
   1.8746274e-01   1.1970950e-01  -2.1182947e-02
   2.1101238e-01   1.2625545e-01  -3.9442212e-02
   2.3992470e-01   1.2087799e-01  -4.8103166e-02
   2.4272267e-01   1.1924135e-01  -7.4087736e-02
   2.5041741e-01   1.1877359e-01  -8.8132840e-02
   2.6137616e-01   1.1830584e-01  -1.0779656e-01
   2.7210177e-01   1.1970829e-01  -1.2465137e-01
   2.8492605e-01   1.2555291e-01  -1.3424902e-01
   3.0218005e-01   1.4589286e-01  -1.5133751e-01
   3.0964127e-01   1.4776327e-01  -1.6491485e-01
   3.0334626e-01   1.5033461e-01  -1.7287358e-01
   3.0800976e-01   1.5430901e-01  -1.7638485e-01
   3.0870943e-01   1.5360748e-01  -1.8387543e-01
   3.1034207e-01   1.5781565e-01  -1.9206862e-01
   3.0964250e-01   1.4893115e-01  -2.0494373e-01
   3.0404692e-01   1.5173666e-01  -2.0845462e-01
   3.0404716e-01   1.5267157e-01  -2.1781819e-01
