**************************************************************************************
  	RED ACELEROGRÁFICA DE LA UNIVERSIDAD AUTONOMA METROPOLITANA (RAUAM)
	   UNIDAD AZCAPOTZALCO. DIVISIÓN CBI-DEPARTAMENTO DE MATERIALES
     Av. San Pablo 180, Col. Reynosa, Azcapotzalco, C.P. 02200, Ciudad de México
		Área de Estructuras. e-mail: agb@azc.uam.mx
**************************************************************************************
ARCHIVO ESTANDAR DE ACELERACION:
VERSION DEL FORMATO                    : 2.0
NOMBRE DEL ARCHIVO                     : RIDX202109085
FECHA Y HORA DE CREACION               : 11:40 a. m. 09/09/2021
REF. CATALOGO ACELEROGRAMAS, SMIS 1999 : REGISTRO NO.      /PAG.    


================================================================================
DATOS DE LA ESTACION:
NOMBRE DE LA ESTACION                  : UAM-XOCHIMILCO.
CLAVE DE LA ESTACION                   : RIDX
LOCALIZACION DE LA ESTACION            : CALZADA DEL HUESO 1100, COL. VILLA
                                       : QUIETUD, DEL. COYOACAN, C.P.04960, 
                                       : CIUDAD DE MEXICO.
                                       : 
                                       : 
COORDENADAS DE LA ESTACION             : 19.305234 LAT. N
                                       : 99.103399 LONG. W
ALTITUD (msnm)                         : 2240
TIPO DE SUELO                          : LAGO
                                       : 
                                       : 
INSTITUCION RESPONSABLE                : UNIVERSIDAD AUTONOMA METROPOLITANA
                                       : 

================================================================================
DATOS DEL ACELEROGRAFO: 
MODELO DEL ACELEROGRAFO                : BASALT KINEMETRICS
NUMERO DE SERIE DEL ACELEROGRAFO       : 1729
NUMERO DE CANALES                      : 3
ORIENTACION C1-C6 (rumbo;orientacion)  : /V/N00E/N90E
ORIENTACION C7-C12 (rumbo;orientacion) : 
VEL. DE MUESTREO, C1-C6 (muestras/s)   : /200/200/200
VEL. DE MUESTREO, C7-C12 (muestras/s)  : 
ESC. COMPLETA DE SENSORES, C1-C6, (g)  : /2/2/2
ESC. COMPLETA DE SENSORES, C7-C12 (g)  : 
FREC. NAT. DE SENSORES, C1-C6, (Hz)    : /208/210/200   
FREC. NAT. DE SENSORES, C7-C12 (Hz)    : 
AMORTIGUAMIENTO DE SENSORES, C1-C6     : /0.7/0.7/0.7      
AMORTIGUAMIENTO DE SENSORES, C7-C12    : 
INTERVALO DE MUESTREO, C1-C6 (s)       : /0.005/0.005/0.005
INTERVALO DE MUESTREO, C7-C12 (s)      : 
UMBRAL DE DISPARO, C1-C6 (Gal)         : /2/2/2
UMBRAL DE DISPARO, C7-C12 (Gal)        : 
MEMORIA DE PREEVENTO (s)               : 60
TIEMPO DE POSEVENTO (s)                : 80


================================================================================
DATOS DEL SISMO:
FECHA DEL SISMO [GMT]                  : 2021/09/08
HORA EPICENTRO (GMT)                   : 09:50:19
MAGNITUD(ES)                           : /M=4.9
COORDENADAS DEL EPICENTRO              : 16.83 LAT. N
                                       : 99.94 LONG. W
PROFUNDIDAD FOCAL (Km)                 : 5.0
FUENTE DE LOS DATOS EPICENTRALES       : SSN
                                       : INSTITUTO DE GEOFISICA, UNAM

================================================================================
DATOS DE ESTE REGISTRO:
HORA DE LA PRIMERA MUESTRA (GMT)       : 09:50:49.000
EXACTITUD DEL TIEMPO (s)               : 
DURACION DEL REGISTRO (s), C1-C6       : /141.00/141.00/141.00
DURACION DEL REGISTRO (s), C7-C12      : 
NUM. TOTAL DE MUESTRAS, C1-C6          : /28200/28200/28200
NUM. TOTAL DE MUESTRAS, C7-C12         : 
ACEL. MAX.(Gal), C1-C6                 : /-0.40/0.60/0.40
ACEL. MAX., C1-C6, EN LA MUESTRA       : /13397/12127/11866
ACEL. MAX.(Gal), C7-C12                : 
ACEL. MAX., C7-C12,EN LA MUESTRA       : 
UNIDADES DE LOS DATOS                  : Gal (cm/s/s)
FACTOR DE DECIMACION                   : 1
FORMATO DATOS (FORTRAN,16 campos/dato) : 3E16.7


================================================================================
CALIDAD DEL ACELEROGRAMA:
REGISTRO DIGITAL COMPLETO CON TIEMPO ABSOLUTO CORRECTO


================================================================================
COMENTARIOS:














================================================================================
DATOS DE ACELERACION:
---------+---------+---------+---------+---------+---------+---------+---------+
   CANAL-1   	     CANAL-2       CANAL-3
        V             N00E           N90E
---------+---------+---------+---------+---------+---------+---------+---------+ 
[...]
  -3.1610276e-02  -2.0485484e-01   3.5186049e-03
  -2.0185299e-02  -1.9223026e-01   5.6253993e-03
  -1.4122609e-02  -1.7609863e-01   5.8595825e-03
  -5.0294526e-03  -1.6464253e-01   6.7959950e-03
   3.1315234e-03  -1.4734202e-01   9.8394877e-03
   1.7354608e-02  -1.3308060e-01   7.2643616e-03
   2.3183763e-02  -1.1835163e-01   1.0776007e-02
   2.9479204e-02  -1.0081734e-01   7.2645754e-03
   3.7640180e-02  -8.7724808e-02   7.2646823e-03
   4.0904371e-02  -6.9255016e-02   9.8400222e-03
   4.4868382e-02  -5.5695323e-02   8.1353723e-06
   4.7200392e-02  -3.7926861e-02   3.5197808e-03
   5.3262690e-02  -1.9925015e-02  -9.2795636e-04
   5.0231629e-02  -7.7675909e-03  -4.5969668e-04
   5.3263068e-02   1.3507524e-02   4.7671577e-04
   5.0931436e-02   2.5898725e-02  -9.8233239e-03
   3.9040549e-02   4.2030356e-02  -2.5664562e-03
   4.7201525e-02   6.0967702e-02  -1.2398343e-02
   3.9507213e-02   7.3592287e-02  -1.8250539e-02
   2.9481471e-02   9.4399848e-02  -1.8484508e-02
   2.2020693e-02   1.0842749e-01  -2.8784548e-02
   1.1761808e-02   1.2315646e-01  -3.1125205e-02
   1.1295711e-02   1.3905431e-01  -3.6509247e-02
  -2.2275677e-03   1.5074379e-01  -3.9552526e-02
  -9.9218800e-03   1.6804470e-01  -4.7511802e-02
  -2.1579623e-02   1.8090306e-01  -5.4066227e-02
  -3.3237366e-02   1.9025477e-01  -6.0620651e-02
  -4.0465393e-02   2.0474996e-01  -6.3429854e-02
  -5.1656850e-02   2.1456922e-01  -6.8579820e-02
  -5.2589233e-02   2.1924500e-01  -7.9348013e-02
  -6.3780690e-02   2.2649233e-01  -8.0050135e-02
  -7.0542430e-02   2.3327249e-01  -9.1052404e-02
  -8.0568172e-02   2.4122115e-01  -9.4329759e-02
  -8.8728380e-02   2.4215610e-01  -1.0345942e-01
  -9.1293155e-02   2.4706566e-01  -1.1095015e-01
  -1.0271775e-01   2.5057255e-01  -1.1282304e-01
  -9.9919850e-02   2.4379248e-01  -1.2780500e-01
  -1.1064502e-01   2.4916959e-01  -1.2429336e-01
  -1.1600751e-01   2.4262329e-01  -1.3435932e-01
  -1.1390865e-01   2.3607661e-01  -1.4138190e-01
  -1.2486735e-01   2.3607645e-01  -1.3974326e-01
  -1.2253534e-01   2.2368534e-01  -1.4887292e-01
  -1.2300144e-01   2.1947682e-01  -1.4910688e-01
  -1.2136925e-01   2.0825459e-01  -1.5659761e-01
  -1.2253477e-01   1.9749992e-01  -1.5238374e-01
  -1.2136887e-01   1.8814791e-01  -1.5355441e-01
  -1.1274161e-01   1.7178220e-01  -1.5847030e-01
  -1.1367399e-01   1.6570306e-01  -1.5191527e-01
  -1.0341473e-01   1.5074001e-01  -1.5519262e-01
  -9.4554323e-02   1.3905023e-01  -1.5027652e-01
  -9.0590704e-02   1.2736045e-01  -1.4863788e-01
  -8.1030870e-02   1.0608464e-01  -1.4653069e-01
  -7.1704179e-02   9.8369463e-02  -1.4044420e-01
  -5.8180522e-02   8.1769976e-02  -1.3833741e-01
  -4.3724294e-02   6.8677143e-02  -1.3061200e-01
  -3.0900458e-02   5.8623801e-02  -1.2920743e-01
  -2.1107482e-02   3.9919930e-02  -1.2803694e-01
  -1.2013933e-02   3.5945572e-02  -1.2288676e-01
   7.3386886e-03   1.7943031e-02  -1.2124773e-01
   2.5058919e-02   6.2532512e-03  -1.2077947e-01
   3.4851896e-02   1.3433933e-03  -1.1726782e-01
   5.3738232e-02  -1.8763139e-02  -1.1797034e-01
   6.8194460e-02  -2.2036559e-02  -1.1562907e-01
   7.9153152e-02  -3.2089901e-02  -1.1375636e-01
   9.9671489e-02  -4.2143242e-02  -1.2007670e-01
   1.1272886e-01  -4.5182885e-02  -1.1539468e-01
   1.2182241e-01  -5.2898066e-02  -1.1586272e-01
   1.3511253e-01  -5.3833325e-02  -1.1375593e-01
   1.4816990e-01  -6.0380013e-02  -1.0907390e-01
   1.6099373e-01  -6.2717933e-02  -1.1094641e-01
   1.7358482e-01  -6.2484307e-02  -1.0345546e-01
   1.7381815e-01  -6.1783127e-02  -9.9241586e-02
   1.8267856e-01  -6.1783278e-02  -9.4091406e-02
   1.9456982e-01  -6.1783430e-02  -9.2218296e-02
   1.8920733e-01  -5.5237435e-02  -8.3791046e-02
   1.9526963e-01  -5.7341578e-02  -7.3958945e-02
   1.9923364e-01  -6.0614998e-02  -7.3022533e-02
   1.9410429e-01  -5.3834835e-02  -5.9210741e-02
   1.9480391e-01  -4.8223948e-02  -5.1719404e-02
   1.9270581e-01  -4.9392984e-02  -4.5398842e-02
   1.8384578e-01  -4.0509221e-02  -3.4630436e-02
   1.7825015e-01  -3.9106318e-02  -2.7841721e-02
   1.7335394e-01  -4.1678407e-02  -1.9180002e-02
   1.5913124e-01  -3.0222706e-02  -1.0752360e-02
   1.5913142e-01  -3.4898787e-02  -6.0703324e-03
   1.4840625e-01  -2.8352401e-02   2.5022972e-04
   1.3045287e-01  -2.3442845e-02   9.8482540e-03
   1.2299209e-01  -2.7417596e-02   1.1252819e-02
   9.8743450e-02  -1.3156180e-02   1.8978232e-02
   8.8717708e-02  -1.9468699e-02   2.1319103e-02
   7.4728144e-02  -1.5728420e-02   2.4830749e-02
   5.4676470e-02  -9.1820335e-03   3.3960620e-02
   4.0920049e-02  -1.5962499e-02   3.0449188e-02
   1.7138088e-02  -9.1823356e-03   3.8408285e-02
   2.4490946e-03  -1.2689532e-02   3.9111014e-02
  -2.1100115e-02  -1.3624791e-02   3.7472194e-02
  -4.1384931e-02  -1.9002203e-02   4.1920145e-02
  -5.9804603e-02  -2.2976953e-02   3.9579488e-02
  -8.1255135e-02  -2.2275773e-02   4.3558893e-02
  -8.8016484e-02  -3.7238822e-02   3.8408927e-02
  -1.0433748e-01  -4.1914903e-02   3.7706804e-02
  -1.2415601e-01  -4.6824761e-02   4.0984374e-02
  -1.3208346e-01  -6.1554033e-02   3.2088792e-02
  -1.4420749e-01  -6.9269213e-02   3.3727827e-02
  -1.5656506e-01  -8.0024278e-02   3.0450471e-02
  -1.5423305e-01  -9.4753158e-02   2.1320814e-02
  -1.6169422e-01  -1.0737844e-01   1.8512004e-02
  -1.6589099e-01  -1.2421170e-01   1.1489034e-02
  -1.6472470e-01  -1.3426504e-01   6.5731438e-03
  -1.6822204e-01  -1.4876054e-01   1.4231774e-03
  -1.6006146e-01  -1.6980218e-01  -8.6427858e-03
  -1.6309213e-01  -1.7915419e-01  -1.5431287e-02
  -1.6122680e-01  -1.9692295e-01  -2.1986104e-02
  -1.5003496e-01  -2.1515888e-01  -3.5329137e-02
  -1.4630409e-01  -2.2988815e-01  -3.9074645e-02
  -1.4303951e-01  -2.4976091e-01  -4.1883455e-02
  -1.3860921e-01  -2.6823100e-01  -5.1481265e-02
  -1.2881624e-01  -2.8412916e-01  -5.3120086e-02
  -1.1762440e-01  -3.0096242e-01  -6.3420125e-02
  -1.0946343e-01  -3.1896496e-01  -6.6931164e-02
  -9.8504734e-02  -3.3392801e-01  -6.5292523e-02
  -8.4981469e-02  -3.5099505e-01  -7.0910642e-02
  -7.8219351e-02  -3.6595810e-01  -6.7164920e-02
  -6.1897979e-02  -3.8325931e-01  -7.1144504e-02
  -4.8141180e-02  -3.9681930e-01  -7.1378474e-02
  -3.9280775e-02  -4.0359977e-01  -6.7399068e-02
  -2.1560545e-02  -4.1599088e-01  -7.0441955e-02
  -1.1534425e-02  -4.2651177e-01  -6.7164385e-02
  -1.0420191e-03  -4.3001897e-01  -6.2482751e-02
   1.5046210e-02  -4.3492883e-01  -5.8737029e-02
   2.9036152e-02  -4.4100757e-01  -5.5927613e-02
   3.7197128e-02  -4.3843618e-01  -4.9138898e-02
   4.5124570e-02  -4.3212357e-01  -3.8838644e-02
   5.4451261e-02  -4.2651268e-01  -3.2284006e-02
   6.4011095e-02  -4.1973291e-01  -2.3154134e-02
   7.1705785e-02  -4.0967987e-01  -1.0512724e-02
   7.4037404e-02  -3.9752284e-01   4.8975832e-04
   7.7068843e-02  -3.8513164e-01   1.5706009e-02
   8.1499140e-02  -3.6970134e-01   3.0454106e-02
   8.4063901e-02  -3.5543992e-01   4.4499975e-02
   8.5462948e-02  -3.3743808e-01   6.3461447e-02
   8.8727530e-02  -3.1709807e-01   7.4932475e-02
   8.5463326e-02  -3.0096604e-01   9.0148725e-02
   7.8002548e-02  -2.7828827e-01   1.1121728e-01
   7.6837022e-02  -2.6168908e-01   1.2807206e-01
   7.4738533e-02  -2.4485573e-01   1.4843839e-01
   6.6112040e-02  -2.1843713e-01   1.6388871e-01
   6.0982300e-02  -2.0604632e-01   1.7653012e-01
   5.7252201e-02  -1.8219927e-01   1.9432121e-01
   4.9324746e-02  -1.5905355e-01   2.0766485e-01
   3.4635753e-02  -1.4175303e-01   2.2288110e-01
   2.2511724e-02  -1.1673709e-01   2.3318136e-01
   1.4351125e-02  -1.0481345e-01   2.3856561e-01
  -8.0415387e-04  -7.8628626e-02   2.4816364e-01
  -7.0992170e-03  -6.4133433e-02   2.4816374e-01
  -2.4119640e-02  -4.9404463e-02   2.5097316e-01
  -4.1839884e-02  -2.8830679e-02   2.5144142e-01
  -5.0699911e-02  -2.1115800e-02   2.4956852e-01
  -7.1451013e-02  -5.4201613e-04   2.4980271e-01
  -8.3341899e-02   8.3421391e-03   2.4441866e-01
  -1.0152843e-01   2.3304886e-02   2.4137578e-01
  -1.1738314e-01   3.4059256e-02   2.2826643e-01
  -1.2950717e-01   4.0371473e-02   2.1773231e-01
  -1.5142437e-01   5.5100443e-02   2.1164604e-01
  -1.5818572e-01   5.6737122e-02   1.9736631e-01
  -1.6494746e-01   6.5387109e-02   1.8332066e-01
  -1.8080217e-01   7.3336156e-02   1.6974355e-01
  -1.8826295e-01   7.7076828e-02   1.5312266e-01
  -1.9665669e-01   8.1986383e-02   1.4235447e-01
  -2.0435061e-01   8.6895939e-02   1.2994774e-01
  -2.0365099e-01   8.6895788e-02   1.0958163e-01
  -2.0924663e-01   9.3208006e-02   1.0349497e-01
  -2.0878015e-01   1.0022155e-01   9.1322315e-02
  -2.0458300e-01   9.3441480e-02   7.5638125e-02
  -2.0481595e-01   1.0209186e-01   7.1190388e-02
  -1.9129269e-01   1.0115621e-01   5.8081039e-02
  -1.8616296e-01   9.8350734e-02   4.7780999e-02
  -1.8289838e-01   1.0583184e-01   4.1460651e-02
  -1.6004861e-01   1.0209125e-01   2.6946844e-02
  -1.5282021e-01   1.0816969e-01   1.8753884e-02
  -1.4116209e-01   1.0957221e-01   1.1730914e-02
  -1.1877822e-01   1.1074094e-01  -4.4214278e-03
  -1.0875210e-01   1.1518294e-01  -1.0741776e-02
  -8.6834902e-02   1.1915739e-01  -1.9871434e-02
  -6.6549708e-02   1.2453450e-01  -3.4385241e-02
  -4.8595944e-02   1.2546946e-01  -4.2812670e-02
  -2.5979320e-02   1.3786066e-01  -5.3580862e-02
  -6.8598406e-03   1.4066583e-01  -6.3412749e-02
   1.5290497e-02   1.4861488e-01  -7.3946865e-02
   4.0705229e-02   1.5843414e-01  -8.4715057e-02
   6.3089101e-02   1.6100553e-01  -9.8292559e-02
   7.5912937e-02   1.7807266e-01  -1.0391068e-01
   9.8063666e-02   1.8602132e-01  -1.1210364e-01
   1.1741629e-01   2.0168540e-01  -1.2497891e-01
   1.2977384e-01   2.1945386e-01  -1.2380842e-01
   1.5075846e-01   2.2833801e-01  -1.3410846e-01
   1.6894537e-01   2.4143015e-01  -1.3925843e-01
   1.8340160e-01   2.5428891e-01  -1.3832201e-01
   1.9459343e-01   2.7018676e-01  -1.4440829e-01
   2.0252126e-01   2.9169565e-01  -1.3715103e-01
   2.1767692e-01   3.1414004e-01  -1.3878985e-01
   2.3096704e-01   3.3260944e-01  -1.3363967e-01
   2.3679659e-01   3.6206753e-01  -1.2053010e-01
   2.5381739e-01   3.7749784e-01  -1.1935962e-01
   2.6384351e-01   3.9409741e-01  -1.0484559e-01
   2.6710809e-01   4.2262000e-01  -9.0799726e-02
   2.8133079e-01   4.3173794e-01  -8.2840629e-02
   2.8879233e-01   4.5184417e-01  -7.1135524e-02
   2.9065767e-01   4.6633936e-01  -6.0133042e-02
   2.9205710e-01   4.7966567e-01  -4.6321250e-02
   2.9765312e-01   5.0023945e-01  -3.1573152e-02
   2.9905216e-01   5.0631789e-01  -1.9634364e-02
   2.9555482e-01   5.2151441e-01  -6.2907248e-03
   2.9252415e-01   5.3390522e-01   1.1968519e-02
   2.8436355e-01   5.4746531e-01   2.3907699e-02
   2.7387152e-01   5.6242806e-01   3.6314640e-02
   2.5545185e-01   5.7364998e-01   4.8721581e-02
   2.3493389e-01   5.9141844e-01   6.0192609e-02
   2.1814661e-01   5.9445739e-01   7.0961016e-02
   1.9692922e-01   6.0006867e-01   8.0324964e-02
   1.7804326e-01   6.0684844e-01   9.2965981e-02
   1.6335427e-01   6.0240613e-01   9.1795706e-02
   1.3584124e-01   6.0684814e-01   9.7648115e-02
   1.1345813e-01   6.0287339e-01   9.7648222e-02
   8.8743208e-02   5.9328760e-01   8.9455263e-02
   5.6800460e-02   5.8557242e-01   8.9221293e-02
   4.3277182e-02   5.7060937e-01   7.8452708e-02
   1.9727972e-02   5.6546573e-01   7.4239440e-02
  -3.8208459e-03   5.5377556e-01   6.2066396e-02
  -2.1774232e-02   5.3624097e-01   5.1298204e-02
  -4.4624013e-02   5.2314813e-01   4.0061859e-02
  -6.0245578e-02   5.0070383e-01   2.2972819e-02
  -7.9830965e-02   4.8036352e-01   9.3957095e-03
  -9.7084531e-02   4.5698372e-01  -1.3311557e-02
  -1.1084095e-01   4.2892838e-01  -3.0400204e-02
  -1.2226555e-01   4.0110643e-01  -5.3575624e-02
  -1.3415644e-01   3.7351864e-01  -7.3707657e-02
  -1.4301647e-01   3.4476158e-01  -9.5478225e-02
  -1.5444107e-01   3.1226370e-01  -1.2005810e-01
  -1.6703177e-01   2.8654613e-01  -1.3808345e-01
  -1.6539958e-01   2.5545130e-01  -1.6125847e-01
  -1.6726454e-01   2.2459024e-01  -1.7717674e-01
  -1.6912949e-01   2.0074289e-01  -1.9918178e-01
  -1.6726416e-01   1.7128450e-01  -2.2001604e-01
  -1.6516568e-01   1.4556693e-01  -2.3944584e-01
  -1.6679750e-01   1.2569417e-01  -2.5536411e-01
  -1.6026891e-01   1.0067793e-01  -2.7432576e-01
  -1.5397308e-01   8.2208228e-02  -2.9118033e-01
  -1.5607157e-01   7.0284279e-02  -2.9726660e-01
  -1.4184848e-01   4.7372424e-02  -3.2020795e-01
  -1.4278087e-01   3.4045813e-02  -3.2465568e-01
  -1.3555285e-01   1.9082765e-02  -3.3097603e-01
  -1.2366120e-01  -5.5621402e-04  -3.4431907e-01
  -1.2529340e-01  -8.7389484e-03  -3.4595789e-01
  -1.0664021e-01  -2.3234443e-02  -3.5766238e-01
  -1.0104420e-01  -3.1885124e-02  -3.5625782e-01
  -9.0784935e-02  -3.9600304e-02  -3.5836440e-01
  -7.8193851e-02  -4.8952315e-02  -3.5836429e-01
  -7.3763554e-02  -5.2225735e-02  -3.5368227e-01
  -5.6509610e-02  -5.9941308e-02  -3.5368216e-01
  -4.6483490e-02  -6.3448112e-02  -3.4619121e-01
  -2.9928975e-02  -6.6020202e-02  -3.3987065e-01
  -2.0369141e-02  -6.8124345e-02  -3.2863370e-01
  -1.3140737e-02  -6.5552950e-02  -3.1809937e-01
   4.8126361e-03  -6.6721985e-02  -3.0569243e-01
   1.1807897e-02  -6.5085698e-02  -2.8719872e-01
   2.0201625e-02  -6.4150349e-02  -2.6964170e-01
   2.9994602e-02  -6.6488662e-02  -2.5302060e-01
   3.4891185e-02  -6.1812883e-02  -2.3054759e-01
   4.4917305e-02  -6.2280587e-02  -2.0760603e-01
   4.6549886e-02  -5.7137255e-02  -1.8583525e-01
   4.8881505e-02  -5.8072513e-02  -1.6336224e-01
   5.4943803e-02  -6.0410825e-02  -1.4182514e-01
   4.7016739e-02  -5.4565770e-02  -1.1420206e-01
   4.9348357e-02  -6.5087058e-02  -9.1728655e-02
   4.8649117e-02  -6.3450378e-02  -6.7383032e-02
   4.6317876e-02  -6.7658905e-02  -4.3973323e-02
   4.8416352e-02  -7.4906532e-02  -2.4777381e-02
   3.7224895e-02  -7.3504022e-02  -4.8792107e-03
   3.7225084e-02  -8.2856033e-02   1.4316731e-02
   3.5592881e-02  -9.0337829e-02   3.0469287e-02
   2.6966388e-02  -9.7351679e-02   4.1471769e-02
   2.7899148e-02  -9.6884276e-02   5.7858402e-02
   2.7433051e-02  -1.0670384e-01   6.2306353e-02
   2.3935704e-02  -1.1021065e-01   7.1436224e-02
   2.2070749e-02  -1.0717170e-01   8.1502401e-02
   1.6941401e-02  -1.1184778e-01   8.0800279e-02
   1.6009018e-02  -1.1278304e-01   8.5014154e-02
   1.5542530e-02  -1.1652401e-01   8.4780184e-02
   6.2166075e-03  -1.1184823e-01   8.7121055e-02
   6.9162254e-03  -1.1979719e-01   8.1971089e-02
   7.6158433e-03  -1.2026489e-01   8.0566737e-02
  -7.7789798e-04  -1.1184868e-01   7.8225687e-02
  -4.5083882e-03  -1.1465416e-01   6.9330499e-02
  -1.2901738e-02  -1.0764061e-01   6.6521296e-02
  -2.3160623e-02  -1.0693943e-01   5.5284951e-02
  -2.6657971e-02  -1.0062721e-01   5.0603138e-02
  -3.6683713e-02  -9.3613273e-02   4.1707556e-02
  -4.4844311e-02  -9.0574325e-02   3.0705288e-02
  -4.9040696e-02  -8.0053731e-02   2.5321245e-02
  -5.4403578e-02  -8.0988990e-02   1.1041514e-02
  -5.8133677e-02  -7.6079434e-02   2.7332145e-04
  -6.3263026e-02  -6.5091287e-02  -1.0026718e-02
  -6.0231978e-02  -6.0415508e-02  -2.4306449e-02
  -6.2563219e-02  -5.3401568e-02  -3.4840565e-02
  -6.0697886e-02  -4.7790681e-02  -4.4438376e-02
  -5.3702625e-02  -4.0543356e-02  -5.6611026e-02
  -4.9972148e-02  -3.1191647e-02  -7.1358910e-02
  -3.9712885e-02  -2.2775046e-02  -8.4000106e-02
  -3.8313447e-02  -1.3423337e-02  -9.1022684e-02
  -3.0152862e-02  -4.7733507e-03  -1.0085457e-01
  -1.8028064e-02   1.3054819e-03  -1.1068646e-01
  -1.0800051e-02   1.3462514e-02  -1.1326158e-01
   1.5864071e-04   2.5619545e-02  -1.1934786e-01
   8.3196167e-03   2.8658886e-02  -1.2379559e-01
