**************************************************************************************
     RED ACELEROGRÁFICA DE LA UNIVERSIDAD AUTONOMA METROPOLITANA (RAUAM)
	UNIDAD AZCAPOTZALCO. DIVISIÓN CBI-DEPARTAMENTO DE MATERIALES
  Av. San Pablo 180, Col. Reynosa, Azcapotzalco, C.P. 02200, Ciudad de México
 	        Área de Estructuras. e-mail: agb@azc.uam.mx
**************************************************************************************
ARCHIVO ESTANDAR DE ACELERACION:
VERSION DEL FORMATO                    : 2.0
NOMBRE DEL ARCHIVO                     : RIDX202107011
FECHA Y HORA DE CREACION               : 08:23 p. m. 05/07/2021
REF. CATALOGO ACELEROGRAMAS, SMIS 1995 : REGISTRO NO.      /PAG.    


================================================================================
DATOS DE LA ESTACION:
NOMBRE DE LA ESTACION                  : UAM-XOCHIMILCO.
CLAVE DE LA ESTACION                   : RIDX
LOCALIZACION DE LA ESTACION            : CALZADA DEL HUESO 1100, COL. VILLA
                                       : QUIETUD, DEL. COYOACAN, C.P.04960, 
                                       : CIUDAD DE MEXICO.
                                       : 
                                       : 
COORDENADAS DE LA ESTACION             : 19.305234 LAT. N
                                       : 99.103399 LONG. W
ALTITUD (msnm)                         : 2240
TIPO DE SUELO                          : ZONA DEL LAGO
                                       : 
                                       : 
INSTITUCION RESPONSABLE                : UNIVERSIDAD AUTONOMA METROPOLITANA
                                       : 

================================================================================
DATOS DEL ACELEROGRAFO: 
MODELO DEL ACELEROGRAFO                : BASALT KINEMETRICS
NUMERO DE SERIE DEL ACELEROGRAFO       : 1729
NUMERO DE CANALES                      : 3
ORIENTACION C1-C6 (rumbo;orientacion)  : /V/N00E/N90E
ORIENTACION C7-C12 (rumbo;orientacion) : 
VEL. DE MUESTREO, C1-C6 (muestras/s)   : /200/200/200
VEL. DE MUESTREO, C7-C12 (muestras/s)  : 
ESC. COMPLETA DE SENSORES, C1-C6, (g)  : /2/2/2
ESC. COMPLETA DE SENSORES, C7-C12 (g)  : 
FREC. NAT. DE SENSORES, C1-C6, (Hz)    : /208/210/200   
FREC. NAT. DE SENSORES, C7-C12 (Hz)    : 
AMORTIGUAMIENTO DE SENSORES, C1-C6     : /0.7/0.7/0.7      
AMORTIGUAMIENTO DE SENSORES, C7-C12    : 
INTERVALO DE MUESTREO, C1-C6 (s)       : /0.005/0.005/0.005
INTERVALO DE MUESTREO, C7-C12 (s)      : 
UMBRAL DE DISPARO, C1-C6 (Gal)         : /2/2/2
UMBRAL DE DISPARO, C7-C12 (Gal)        : 
MEMORIA DE PREEVENTO (s)               : 60
TIEMPO DE POSEVENTO (s)                : 80


================================================================================
DATOS DEL SISMO:
FECHA DEL SISMO [GMT]                  : 2021/07/01
HORA EPICENTRO (GMT)                   : 01:13:40
MAGNITUD(ES)                           : /M=5.1
COORDENADAS DEL EPICENTRO              : 16.41 LAT. N
                                       : 97.97 LONG. W
PROFUNDIDAD FOCAL (Km)                 : 10.0
FUENTE DE LOS DATOS EPICENTRALES       : SSN
                                       : INSTITUTO DE GEOFISICA, UNAM

================================================================================
DATOS DE ESTE REGISTRO:
HORA DE LA PRIMERA MUESTRA (GMT)       : 01:14:29.00
EXACTITUD DEL TIEMPO (s)               : 
DURACION DEL REGISTRO (s), C1-C6       : /170.00/170.00/170.00
DURACION DEL REGISTRO (s), C7-C12      : 
NUM. TOTAL DE MUESTRAS, C1-C6          : /34000/34000/34000
NUM. TOTAL DE MUESTRAS, C7-C12         : 
ACEL. MAX.(Gal), C1-C6                 : /-0.30/-0.60/-0.80
ACEL. MAX., C1-C6, EN LA MUESTRA       : /12753/17551/12457
ACEL. MAX.(Gal), C7-C12                : 
ACEL. MAX., C7-C12,EN LA MUESTRA       : 
UNIDADES DE LOS DATOS                  : Gal (cm/s/s)
FACTOR DE DECIMACION                   : 1
FORMATO DATOS (FORTRAN,16 campos/dato) : 3E16.7


================================================================================
CALIDAD DEL ACELEROGRAMA:
REGISTRO DIGITAL COMPLETO CON TIEMPO ABSOLUTO CORRECTO


================================================================================
COMENTARIOS:














================================================================================
DATOS DE ACELERACION:
---------+---------+---------+---------+---------+---------+---------+---------+
   CANAL-1   	     CANAL-2       CANAL-3
         V             N00E           N90E
---------+---------+---------+---------+---------+---------+---------+---------+ 
[...]
  -1.5613204e-01  -2.1541158e-01  -4.5231913e-01
  -1.5216760e-01  -2.0489104e-01  -4.4529544e-01
  -1.3934296e-01  -1.9530639e-01  -4.4271998e-01
  -1.2511945e-01  -1.9156617e-01  -4.4084676e-01
  -1.0903080e-01  -1.8057846e-01  -4.3663238e-01
  -1.0203551e-01  -1.6982454e-01  -4.3077947e-01
  -8.6180001e-02  -1.6187594e-01  -4.2562839e-01
  -7.6852889e-02  -1.4738119e-01  -4.1556171e-01
  -6.7059491e-02  -1.3522461e-01  -4.0151573e-01
  -4.3043196e-02  -1.2704223e-01  -3.9776950e-01
  -3.3716084e-02  -1.1628830e-01  -3.8559613e-01
  -1.7627434e-02  -1.0717082e-01  -3.7178383e-01
   2.4250383e-03  -9.4078731e-02  -3.5820561e-01
   1.0119758e-02  -8.4260307e-02  -3.4158440e-01
   2.7840801e-02  -7.5610375e-02  -3.3221995e-01
   4.0665449e-02  -5.9946743e-02  -3.1583281e-01
   4.9525884e-02  -5.3400803e-02  -3.0553205e-01
   6.3283104e-02  -4.5452594e-02  -2.9218791e-01
   7.5407932e-02  -3.3763170e-02  -2.7228923e-01
   9.4994119e-02  -3.2361105e-02  -2.6269070e-01
   1.0618677e-01  -2.4880450e-02  -2.4326018e-01
   1.1598016e-01  -1.7399402e-02  -2.2827750e-01
   1.2600671e-01  -1.2490292e-02  -2.1891305e-01
   1.3276885e-01  -4.5420825e-03  -2.0182368e-01
   1.5165561e-01  -4.0751258e-03  -1.9269330e-01
   1.6028290e-01   2.0032607e-03  -1.7934955e-01
   1.6797801e-01   6.4448168e-03  -1.6389872e-01
   1.7660570e-01   1.2055257e-02  -1.5476834e-01
   1.7660631e-01   2.3744289e-02  -1.4072197e-01
   1.8476731e-01   3.1692891e-02  -1.2620744e-01
   1.9269557e-01   4.1745484e-02  -1.1239515e-01
   1.9572704e-01   4.6420425e-02  -9.5305780e-02
   2.0645340e-01   5.0160651e-02  -8.8048407e-02
   2.1298240e-01   5.8109252e-02  -7.9386183e-02
   2.1111748e-01   6.7226738e-02  -5.9487507e-02
   2.2417527e-01   7.4006063e-02  -5.0825284e-02
   2.2534159e-01   8.0551611e-02  -4.5908675e-02
   2.1508313e-01   9.4111251e-02  -4.2162448e-02
   2.1998013e-01   1.0112435e-01  -4.7780455e-02
   2.1601692e-01   1.0907295e-01  -4.7545374e-02
   2.1135467e-01   1.2029443e-01  -4.3565463e-02
   2.1391986e-01   1.2496977e-01  -4.1691847e-02
   2.0645950e-01   1.3969829e-01  -3.3498169e-02
   1.9899875e-01   1.5045221e-01  -2.5538175e-02
   1.9317039e-01   1.5746571e-01  -2.0621566e-02
   1.8477707e-01   1.6798585e-01  -1.8514266e-02
   1.8337883e-01   1.6938792e-01  -2.9047877e-02
   1.7731733e-01   1.8014184e-01  -3.8645183e-02
   1.6845772e-01   1.8925933e-01  -4.4965026e-02
   1.6309565e-01   1.9814304e-01  -5.4796408e-02
   1.5610158e-01   2.1357289e-01  -6.1818480e-02
   1.4770826e-01   2.2409304e-01  -7.1181709e-02
   1.3744980e-01   2.3858779e-01  -7.9608633e-02
   1.3628469e-01   2.4560089e-01  -8.9440014e-02
   1.3651844e-01   2.5004244e-01  -1.0044178e-01
   1.3255523e-01   2.6173148e-01  -1.0652755e-01
   1.3488727e-01   2.7131652e-01  -1.1846601e-01
   1.3488788e-01   2.8394105e-01  -1.3040408e-01
   1.2719438e-01   3.0287756e-01  -1.3321238e-01
   1.3139196e-01   3.1409943e-01  -1.4257561e-01
   1.3465657e-01   3.1970987e-01  -1.5217292e-01
   1.2906136e-01   3.3210023e-01  -1.5638607e-01
   1.3885476e-01   3.4145149e-01  -1.6504707e-01
   1.3862222e-01   3.4940009e-01  -1.7043061e-01
   1.3792340e-01   3.5875136e-01  -1.8073014e-01
   1.4398612e-01   3.6856978e-01  -1.8798629e-01
   1.4165530e-01   3.7394684e-01  -1.9290168e-01
   1.4631916e-01   3.7815422e-01  -2.0226491e-01
   1.4725235e-01   3.8937609e-01  -1.9828460e-01
   1.4981753e-01   3.8914172e-01  -2.0788191e-01
   1.5121739e-01   3.9592105e-01  -2.1232914e-01
   1.5098486e-01   4.0644119e-01  -2.0413546e-01
   1.5634815e-01   4.0527171e-01  -2.1209384e-01
   1.5051940e-01   4.1368747e-01  -2.0881577e-01
   1.4888801e-01   4.1158289e-01  -2.1209262e-01
   1.4842233e-01   4.0877657e-01  -2.1490131e-01
   1.4375969e-01   4.1017903e-01  -2.1021878e-01
   1.4655841e-01   4.0129413e-01  -2.1372932e-01
   1.4446034e-01   4.0059220e-01  -2.0413118e-01
   1.4282895e-01   3.9661700e-01  -1.9780972e-01
   1.4166384e-01   3.8913515e-01  -1.9125458e-01
   1.3653492e-01   3.8562751e-01  -1.8025159e-01
   1.3210542e-01   3.7908077e-01  -1.7182344e-01
   1.1951513e-01   3.7066342e-01  -1.6667276e-01
   1.1275421e-01   3.6364873e-01  -1.6269245e-01
   1.1322110e-01   3.5920637e-01  -1.5075316e-01
   1.0692646e-01   3.4938636e-01  -1.4560247e-01
   9.2704174e-02   3.4891821e-01  -1.3061979e-01
   8.1279995e-02   3.4400791e-01  -1.1587119e-01
   7.7783069e-02   3.2390093e-01  -1.1072051e-01
   6.5892604e-02   3.1782135e-01  -8.8715143e-02
   6.0530143e-02   3.0776756e-01  -7.6541381e-02
   6.1696859e-02   2.9560978e-01  -6.6708775e-02
   5.1671538e-02   2.9467408e-01  -5.0321638e-02
   4.1879360e-02   2.8719183e-01  -3.9786803e-02
   3.6284147e-02   2.7947621e-01  -2.8315663e-02
   3.1155220e-02   2.7199396e-01  -1.6844130e-02
   2.5793150e-02   2.5936863e-01  -6.0752184e-03
   2.1363652e-02   2.4721046e-01   2.8210818e-03
   1.6701011e-02   2.3972861e-01   1.7101139e-02
   1.6468478e-02   2.3131126e-01   3.1147512e-02
   1.2505266e-02   2.2172503e-01   4.1916423e-02
   8.3089115e-03   2.1587961e-01   5.1514953e-02
   5.2782715e-03   2.0839776e-01   6.0879406e-02
  -3.1146574e-03   1.9740848e-01   7.2584623e-02
  -4.7464395e-03   1.9086173e-01   8.0076464e-02
  -5.9115444e-03   1.8244438e-01   9.2015758e-02
  -9.6412222e-03   1.7098794e-01   9.9507599e-02
  -1.7801399e-02   1.6864957e-01   1.0465828e-01
  -2.3163469e-02   1.6280416e-01   1.1870466e-01
  -2.2463430e-02   1.5532192e-01   1.2643018e-01
  -2.3628535e-02   1.4947650e-01   1.4117879e-01
  -1.9430960e-02   1.3755250e-01   1.5358623e-01
  -1.9430350e-02   1.3544752e-01   1.5990769e-01
  -2.2927276e-02   1.3451182e-01   1.6903768e-01
  -1.9662273e-02   1.3100417e-01   1.6786791e-01
  -1.7097090e-02   1.3638084e-01   1.7910497e-01
  -1.5697622e-02   1.3404247e-01   1.8308527e-01
  -1.1733189e-02   1.3123616e-01   1.8683150e-01
  -1.3131437e-02   1.3053423e-01   2.0275048e-01
  -1.3363970e-02   1.2562393e-01   2.0509225e-01
  -4.9698212e-03   1.2772771e-01   2.1749970e-01
   6.2700311e-04   1.2749334e-01   2.2288446e-01
   2.0264712e-03   1.3287000e-01   2.3716491e-01
   1.0187477e-02   1.3637606e-01   2.5261574e-01
   1.5084481e-02   1.3333636e-01   2.5800050e-01
   1.6484341e-02   1.3777792e-01   2.8164479e-01
   3.2339848e-02   1.3076323e-01   2.8047502e-01
   3.4671888e-02   1.2982753e-01   2.9124394e-01
   3.3973069e-02   1.3497041e-01   3.0622661e-01
   4.5165325e-02   1.3333338e-01   3.0763168e-01
   4.7497756e-02   1.3543677e-01   3.2823259e-01
   5.0995902e-02   1.3146158e-01   3.4064043e-01
   5.4027371e-02   1.2655127e-01   3.5772980e-01
   6.4287056e-02   1.2000453e-01   3.6498717e-01
   6.9883489e-02   1.1041830e-01   3.7739501e-01
   7.2449063e-02   1.0340400e-01   3.9542068e-01
   8.0376926e-02   9.8961250e-02   4.0338067e-01
   8.1543642e-02   9.0777677e-02   4.2093819e-01
   8.4108825e-02   7.6515513e-02   4.2515257e-01
   8.2011148e-02   6.5059064e-02   4.3943302e-01
   8.5508903e-02   5.0095570e-02   4.5020193e-01
   8.8540763e-02   3.1859198e-02   4.5675747e-01
   8.6909373e-02   1.1752220e-02   4.7010122e-01
   8.1780446e-02  -3.2112749e-03   4.8063606e-01
   7.7817234e-02  -1.7707216e-02   5.0217366e-01
   8.4812525e-02  -3.8047971e-02   5.1317665e-01
   8.1549133e-02  -5.3712797e-02   5.2839340e-01
   7.8285350e-02  -7.5924159e-02   5.4220570e-01
   7.8052817e-02  -9.8836461e-02   5.5274053e-01
   7.5022177e-02  -1.1800833e-01   5.6889359e-01
   7.0826213e-02  -1.3390693e-01   5.8130104e-01
   6.4997466e-02  -1.4863665e-01   5.9651780e-01
   6.3366075e-02  -1.6874363e-01   6.0307333e-01
   6.0102292e-02  -1.8230446e-01   6.1829009e-01
   5.4973365e-02  -2.0077500e-01   6.3350684e-01
   5.5440261e-02  -2.2696057e-01   6.4193460e-01
   5.9171550e-02  -2.4472939e-01   6.5738543e-01
   5.5675016e-02  -2.5852400e-01   6.6440912e-01
   5.2877518e-02  -2.7395505e-01   6.7073019e-01
   4.8681163e-02  -2.8868477e-01   6.8173317e-01
   5.0546918e-02  -3.0060877e-01   6.8852279e-01
   4.7749812e-02  -3.1463716e-01   6.9788685e-01
   4.0289064e-02  -3.3076954e-01   7.0350608e-01
   4.5652745e-02  -3.4339526e-01   7.0069738e-01
   3.2829317e-02  -3.4853934e-01   7.1193444e-01
   2.7000961e-02  -3.5531986e-01   7.1685105e-01
   3.0965393e-02  -3.6560743e-01   7.1357459e-01
   2.1872644e-02  -3.6654352e-01   7.1989566e-01
   2.6070219e-02  -3.7729864e-01   7.1755512e-01
   2.1407578e-02  -3.8571560e-01   7.2130134e-01
   1.7910652e-02  -3.9039213e-01   7.1849304e-01
   1.9076977e-02  -3.9880948e-01   7.1334319e-01
   8.5853701e-03  -3.9623814e-01   7.1123711e-01
   1.0917801e-02  -4.0512304e-01   6.9953312e-01
   1.0451734e-02  -4.0582497e-01   7.0187449e-01
   1.3017308e-02  -4.0769617e-01   6.9649095e-01
   1.6748598e-02  -4.1307403e-01   6.9719380e-01
   1.5583493e-02  -4.1120402e-01   6.9555587e-01
   2.0713640e-02  -4.2125781e-01   6.8408596e-01
   2.1646822e-02  -4.1564737e-01   6.8268172e-01
   2.7243255e-02  -4.1681724e-01   6.6793434e-01
   2.7477008e-02  -4.1985694e-01   6.6325342e-01
   3.1441440e-02  -4.1915620e-01   6.5295389e-01
   3.0042801e-02  -4.2289762e-01   6.4476104e-01
   2.2116158e-02  -4.2032628e-01   6.4007973e-01
   3.3774700e-02  -4.3061385e-01   6.2603458e-01
   3.4474739e-02  -4.2523718e-01   6.2767373e-01
   3.0978205e-02  -4.2383512e-01   6.1667197e-01
   3.1911387e-02  -4.3178491e-01   6.1058620e-01
   2.0953494e-02  -4.2851224e-01   6.0941643e-01
   1.8855426e-02  -4.4113758e-01   5.9771244e-01
   1.7690321e-02  -4.4394389e-01   5.9490374e-01
   4.8668927e-03  -4.4394449e-01   5.9279766e-01
   4.6343597e-03  -4.5399827e-01   5.8554112e-01
  -3.5254261e-03  -4.4979049e-01   5.8366912e-01
  -2.1478391e-02  -4.5166131e-01   5.9069242e-01
  -2.2177210e-02  -4.6054621e-01   5.8788411e-01
  -3.1269959e-02  -4.6311874e-01   5.9022549e-01
  -4.1761566e-02  -4.6709394e-01   5.9888771e-01
  -4.5957921e-02  -4.7200424e-01   6.0216540e-01
  -5.5983242e-02  -4.7340750e-01   6.1012539e-01
  -6.7407421e-02  -4.6616023e-01   6.1902169e-01
  -7.6267027e-02  -4.6429061e-01   6.3025875e-01
  -8.7224920e-02  -4.6195344e-01   6.3915505e-01
  -1.0168035e-01  -4.5564128e-01   6.5062619e-01
  -1.0984014e-01  -4.5681115e-01   6.6186326e-01
  -1.2149785e-01  -4.5353848e-01   6.7052548e-01
  -1.3828471e-01  -4.4629121e-01   6.8995601e-01
  -1.4900946e-01  -4.3951189e-01   7.0166122e-01
  -1.5670335e-01  -4.3413522e-01   7.1196198e-01
  -1.7512221e-01  -4.2291374e-01   7.2881766e-01
  -1.8841192e-01  -4.1052299e-01   7.4145919e-01
  -1.8584674e-01  -4.0725071e-01   7.5058956e-01
  -1.9960235e-01  -3.9322352e-01   7.5761286e-01
  -2.1079378e-01  -3.7802744e-01   7.6440247e-01
  -2.1312460e-01  -3.6727351e-01   7.6487124e-01
  -2.2524820e-01  -3.4880417e-01   7.7376714e-01
  -2.2408188e-01  -3.3711514e-01   7.7540668e-01
  -2.3037652e-01  -3.2285417e-01   7.7236391e-01
  -2.4016870e-01  -3.0999586e-01   7.7962167e-01
  -2.2967587e-01  -3.0485297e-01   7.7049252e-01
  -2.3317280e-01  -2.8778668e-01   7.6721567e-01
  -2.3666972e-01  -2.7446082e-01   7.6464144e-01
  -2.3317158e-01  -2.6253801e-01   7.5106445e-01
  -2.4226433e-01  -2.4289978e-01   7.4591499e-01
  -2.4482829e-01  -2.2700237e-01   7.3889291e-01
  -2.4342882e-01  -2.1624844e-01   7.2672037e-01
  -2.4459393e-01  -2.0339014e-01   7.1548453e-01
  -2.4132931e-01  -1.8959672e-01   7.0073716e-01
  -2.4342699e-01  -1.8188229e-01   6.8388309e-01
  -2.4878906e-01  -1.6832265e-01   6.7124240e-01
  -2.4622388e-01  -1.5569851e-01   6.5228125e-01
  -2.4692270e-01  -1.4447664e-01   6.3449088e-01
  -2.4902037e-01  -1.2974851e-01   6.2114796e-01
  -2.4412337e-01  -1.2039724e-01   5.9797344e-01
  -2.4342333e-01  -1.0683760e-01   5.7690521e-01
  -2.3875947e-01  -9.1407750e-02   5.6005115e-01
  -2.3176418e-01  -7.9016996e-02   5.3734478e-01
  -2.3129728e-01  -6.4990195e-02   5.1253133e-01
  -2.2709971e-01  -4.8858618e-02   4.9239980e-01
  -2.2033717e-01  -3.7637139e-02   4.6688412e-01
  -2.1217616e-01  -3.1325368e-02   4.4136844e-01
  -2.0308219e-01  -2.0337667e-02   4.2217322e-01
  -1.9492080e-01  -1.4493450e-02   3.9642347e-01
  -1.8582722e-01  -5.6097405e-03   3.7395078e-01
  -1.8162964e-01   1.2625829e-02   3.5218072e-01
  -1.7416767e-01   2.5016191e-02   3.2853765e-01
  -1.6507370e-01   3.7406946e-02   3.0559721e-01
  -1.5994356e-01   4.6991986e-02   2.8476306e-01
  -1.4758559e-01   5.4472642e-02   2.6884530e-01
  -1.3989047e-01   6.3122574e-02   2.4754339e-01
  -1.3312833e-01   7.0837006e-02   2.3068932e-01
  -1.2007093e-01   8.5097976e-02   2.1172817e-01
  -1.1400782e-01   9.4683016e-02   1.9159664e-01
  -1.0887767e-01   1.0590449e-01   1.8176526e-01
  -9.6053412e-02   1.1712636e-01   1.6467712e-01
  -8.5094299e-02   1.2764651e-01   1.5320681e-01
  -6.9471544e-02   1.3933554e-01   1.3752313e-01
  -5.5481572e-02   1.4588109e-01   1.1903053e-01
  -5.7812392e-02   1.6926015e-01   1.1247621e-01
  -4.5221277e-02   1.7884518e-01   9.4217689e-02
  -3.4728450e-02   1.8749512e-01   8.1342922e-02
  -3.0530875e-02   2.1017245e-01   7.2447845e-02
  -1.6540512e-02   2.1274379e-01   5.4423397e-02
  -1.1643508e-02   2.2490037e-01   4.2484935e-02
  -7.9122185e-03   2.3752451e-01   3.6633245e-02
  -2.7820714e-03   2.4594067e-01   2.5865557e-02
   3.2806477e-03   2.5856520e-01   1.1118179e-02
   4.4469727e-03   2.6791607e-01   3.1598006e-03
   1.0509692e-02   2.7913794e-01  -1.0651273e-02
   1.1210122e-02   2.8357950e-01  -2.3291964e-02
   1.0277769e-02   2.9176148e-01  -3.2186647e-02
   2.5433847e-02   2.9526793e-01  -4.8338877e-02
   2.6134277e-02   2.9994327e-01  -5.9340641e-02
   3.1730711e-02   3.1420424e-01  -7.1044634e-02
   4.1990395e-02   3.1443742e-01  -8.7899093e-02
   4.2923577e-02   3.1770969e-01  -1.0100754e-01
   5.0618297e-02   3.2519074e-01  -1.1200931e-01
   5.8779694e-02   3.2261821e-01  -1.3448199e-01
   6.3676698e-02   3.2963170e-01  -1.5391129e-01
   6.6708558e-02   3.3500837e-01  -1.6678567e-01
   7.1605563e-02   3.4108636e-01  -1.8691719e-01
   7.2305602e-02   3.5254161e-01  -1.9979196e-01
   7.3705070e-02   3.5581429e-01  -2.1641195e-01
   7.9301503e-02   3.6119095e-01  -2.3303194e-01
   8.0234685e-02   3.6165791e-01  -2.4684302e-01
   8.1168258e-02   3.6282619e-01  -2.6627231e-01
   8.3034012e-02   3.6750153e-01  -2.7867854e-01
   8.8630445e-02   3.6937154e-01  -3.0138530e-01
   8.1869517e-02   3.7591708e-01  -3.1964382e-01
   7.4175626e-02   3.7404627e-01  -3.3532790e-01
   8.1171308e-02   3.7287640e-01  -3.5920465e-01
   8.0238955e-02   3.7638285e-01  -3.7137719e-01
   8.1405672e-02   3.7287520e-01  -3.9244502e-01
   8.0706461e-02   3.6960173e-01  -4.1070394e-01
   7.3479248e-02   3.6749675e-01  -4.2943062e-01
   7.3013572e-02   3.6328778e-01  -4.5518037e-01
   6.9050360e-02   3.6001430e-01  -4.6828921e-01
   6.8817827e-02   3.5627288e-01  -4.9005928e-01
   7.1150258e-02   3.4692043e-01  -5.0691374e-01
   6.9285333e-02   3.4341278e-01  -5.1791550e-01
   6.9052800e-02   3.3102123e-01  -5.4085595e-01
   6.5089588e-02   3.2026611e-01  -5.5536925e-01
   6.3458197e-02   3.2377256e-01  -5.7152108e-01
   6.3458807e-02   3.1231572e-01  -5.9001408e-01
   5.5298630e-02   3.0787297e-01  -6.0382515e-01
   5.5066097e-02   3.0085867e-01  -6.2161552e-01
   5.2735277e-02   2.8916844e-01  -6.3168098e-01
   5.0870743e-02   2.8425814e-01  -6.4338537e-01
   6.1130428e-02   2.6976220e-01  -6.5368490e-01
   5.7167216e-02   2.7093049e-01  -6.5836621e-01
   5.4136576e-02   2.6648774e-01  -6.6679274e-01
   5.9966152e-02   2.5386240e-01  -6.7428336e-01
   6.5096299e-02   2.4708149e-01  -6.8434882e-01
