**************************************************************************************
  	RED ACELEROGRÁFICA DE LA UNIVERSIDAD AUTONOMA METROPOLITANA (RAUAM)
	   UNIDAD AZCAPOTZALCO. DIVISIÓN CBI-DEPARTAMENTO DE MATERIALES
     Av. San Pablo 180, Col. Reynosa, Azcapotzalco, C.P. 02200, Ciudad de México
		Área de Estructuras. e-mail: agb@azc.uam.mx
**************************************************************************************
ARCHIVO ESTANDAR DE ACELERACION:
VERSION DEL FORMATO                    : 2.0
NOMBRE DEL ARCHIVO                     : RIDX202109084
FECHA Y HORA DE CREACION               : 11:35 a. m. 09/09/2021
REF. CATALOGO ACELEROGRAMAS, SMIS 1999 : REGISTRO NO.      /PAG.    


================================================================================
DATOS DE LA ESTACION:
NOMBRE DE LA ESTACION                  : UAM-XOCHIMILCO.
CLAVE DE LA ESTACION                   : RIDX
LOCALIZACION DE LA ESTACION            : CALZADA DEL HUESO 1100, COL. VILLA
                                       : QUIETUD, DEL. COYOACAN, C.P.04960, 
                                       : CIUDAD DE MEXICO.
                                       : 
                                       : 
COORDENADAS DE LA ESTACION             : 19.305234 LAT. N
                                       : 99.103399 LONG. W
ALTITUD (msnm)                         : 2240
TIPO DE SUELO                          : LAGO
                                       : 
                                       : 
INSTITUCION RESPONSABLE                : UNIVERSIDAD AUTONOMA METROPOLITANA
                                       : 

================================================================================
DATOS DEL ACELEROGRAFO: 
MODELO DEL ACELEROGRAFO                : BASALT KINEMETRICS
NUMERO DE SERIE DEL ACELEROGRAFO       : 1729
NUMERO DE CANALES                      : 3
ORIENTACION C1-C6 (rumbo;orientacion)  : /V/N00E/N90E
ORIENTACION C7-C12 (rumbo;orientacion) : 
VEL. DE MUESTREO, C1-C6 (muestras/s)   : /200/200/200
VEL. DE MUESTREO, C7-C12 (muestras/s)  : 
ESC. COMPLETA DE SENSORES, C1-C6, (g)  : /2/2/2
ESC. COMPLETA DE SENSORES, C7-C12 (g)  : 
FREC. NAT. DE SENSORES, C1-C6, (Hz)    : /208/210/200   
FREC. NAT. DE SENSORES, C7-C12 (Hz)    : 
AMORTIGUAMIENTO DE SENSORES, C1-C6     : /0.7/0.7/0.7      
AMORTIGUAMIENTO DE SENSORES, C7-C12    : 
INTERVALO DE MUESTREO, C1-C6 (s)       : /0.005/0.005/0.005
INTERVALO DE MUESTREO, C7-C12 (s)      : 
UMBRAL DE DISPARO, C1-C6 (Gal)         : /2/2/2
UMBRAL DE DISPARO, C7-C12 (Gal)        : 
MEMORIA DE PREEVENTO (s)               : 60
TIEMPO DE POSEVENTO (s)                : 80


================================================================================
DATOS DEL SISMO:
FECHA DEL SISMO [GMT]                  : 2021/09/08
HORA EPICENTRO (GMT)                   : 05:42:56
MAGNITUD(ES)                           : /M=5.0
COORDENADAS DEL EPICENTRO              : 16.48 LAT. N
                                       : 100.15 LONG. W
PROFUNDIDAD FOCAL (Km)                 : 10.0
FUENTE DE LOS DATOS EPICENTRALES       : SSN
                                       : INSTITUTO DE GEOFISICA, UNAM

================================================================================
DATOS DE ESTE REGISTRO:
HORA DE LA PRIMERA MUESTRA (GMT)       : 05:43:37.000
EXACTITUD DEL TIEMPO (s)               : 
DURACION DEL REGISTRO (s), C1-C6       : /159.00/159.00/159.00
DURACION DEL REGISTRO (s), C7-C12      : 
NUM. TOTAL DE MUESTRAS, C1-C6          : /31800/31800/31800
NUM. TOTAL DE MUESTRAS, C7-C12         : 
ACEL. MAX.(Gal), C1-C6                 : /-0.30/0.60/-0.50
ACEL. MAX., C1-C6, EN LA MUESTRA       : /12639/15055/12184
ACEL. MAX.(Gal), C7-C12                : 
ACEL. MAX., C7-C12,EN LA MUESTRA       : 
UNIDADES DE LOS DATOS                  : Gal (cm/s/s)
FACTOR DE DECIMACION                   : 1
FORMATO DATOS (FORTRAN,16 campos/dato) : 3E16.7


================================================================================
CALIDAD DEL ACELEROGRAMA:
REGISTRO DIGITAL COMPLETO CON TIEMPO ABSOLUTO CORRECTO


================================================================================
COMENTARIOS:














================================================================================
DATOS DE ACELERACION:
---------+---------+---------+---------+---------+---------+---------+---------+
   CANAL-1   	     CANAL-2       CANAL-3
        V             N00E           N90E
---------+---------+---------+---------+---------+---------+---------+---------+ 
[...]
  -1.8994559e-01   5.1269797e-02  -1.8524700e-01
  -1.8295080e-01   5.2205236e-02  -1.7986274e-01
  -1.7805430e-01   4.8931906e-02  -1.8407640e-01
  -1.7292465e-01   4.7529184e-02  -1.7635099e-01
  -1.5893479e-01   4.3554523e-02  -1.7775533e-01
  -1.4797617e-01   4.3320685e-02  -1.7518038e-01
  -1.4074785e-01   4.1450017e-02  -1.7120058e-01
  -1.2582542e-01   3.8878410e-02  -1.7775500e-01
  -1.1906377e-01   4.3554279e-02  -1.6792290e-01
  -1.0554019e-01   4.1449833e-02  -1.7143433e-01
  -1.0017740e-01   4.6125702e-02  -1.6745453e-01
  -8.9218789e-02   5.1502902e-02  -1.6347473e-01
  -7.1265495e-02   4.8931295e-02  -1.6604985e-01
  -7.2897387e-02   5.4776048e-02  -1.5785628e-01
  -5.7974952e-02   5.5009764e-02  -1.6136771e-01
  -4.7715768e-02   5.5944810e-02  -1.5598345e-01
  -3.9321729e-02   6.0620679e-02  -1.5223772e-01
  -2.2301007e-02   5.4542027e-02  -1.5504692e-01
  -1.6938217e-02   5.9217896e-02  -1.5340789e-01
  -7.8447488e-03   6.2724880e-02  -1.5013071e-01
   5.4456850e-03   5.5710728e-02  -1.5223728e-01
   1.4072476e-02   5.9919043e-02  -1.5153494e-01
   1.8269551e-02   6.0386536e-02  -1.4474623e-01
   3.5057521e-02   5.7113598e-02  -1.5223695e-01
   4.2751740e-02   6.2724574e-02  -1.4755492e-01
   4.1586135e-02   6.7634220e-02  -1.4193659e-01
   5.4643034e-02   6.4828444e-02  -1.4334094e-01
   6.0705644e-02   6.3191945e-02  -1.4029783e-01
   6.5602148e-02   6.6464760e-02  -1.3936142e-01
   7.4928759e-02   6.1788769e-02  -1.3748830e-01
   8.0058406e-02   5.7814501e-02  -1.3842450e-01
   8.5654338e-02   5.8515770e-02  -1.3046540e-01
   9.0317699e-02   5.9217040e-02  -1.3069937e-01
   9.4281239e-02   5.8048094e-02  -1.2929480e-01
   1.0220899e-01   5.4073434e-02  -1.2742168e-01
   1.0384110e-01   5.6879087e-02  -1.2718750e-01
   1.0687246e-01   5.6177303e-02  -1.1969655e-01
   1.0897086e-01   5.4540804e-02  -1.2063274e-01
   1.0990354e-01   5.4540743e-02  -1.1033249e-01
   1.1806444e-01   5.0098529e-02  -1.0892792e-01
   1.1596626e-01   4.9864691e-02  -1.0377774e-01
   1.2179534e-01   4.2850930e-02  -9.5818244e-02
   1.2925641e-01   3.7473609e-02  -9.5584058e-02
   1.2109613e-01   4.0980201e-02  -7.7558495e-02
   1.2389395e-01   3.5836656e-02  -7.5685774e-02
   1.2948988e-01   3.3031272e-02  -7.0535590e-02
   1.2529342e-01   3.9811133e-02  -5.7660101e-02
   1.3135564e-01   3.2096042e-02  -5.6957762e-02
   1.2949021e-01   2.9290266e-02  -4.6189352e-02
   1.2645946e-01   2.7887544e-02  -3.5889096e-02
   1.3508665e-01   1.5262354e-02  -2.7929996e-02
   1.3135608e-01   1.7834231e-02  -1.5288583e-02
   1.3951658e-01   6.1441484e-03  -1.0840629e-02
   1.3578640e-01  -2.2722730e-03  -5.2222927e-03
   1.3438726e-01  -6.0131566e-03   5.3120402e-03
   1.4161559e-01  -1.4196193e-02   9.0577652e-03
   1.2762594e-01  -9.2865476e-03   1.6314636e-02
   1.3508741e-01  -1.7936746e-02   2.2167048e-02
   1.3438770e-01  -1.9573637e-02   2.8956159e-02
   1.2715999e-01  -2.7288728e-02   3.8320110e-02
   1.2622752e-01  -4.0147695e-02   3.7851675e-02
   1.2086495e-01  -4.6693901e-02   4.3704480e-02
   1.2249706e-01  -5.8149814e-02   5.1429503e-02
   1.2319660e-01  -6.8203066e-02   4.9791079e-02
   1.1923289e-01  -8.1529587e-02   5.4707185e-02
   1.1387032e-01  -8.7140686e-02   5.7048059e-02
   1.1456986e-01  -9.6726384e-02   5.5877787e-02
   1.0034746e-01  -1.0093482e-01   5.9155360e-02
   9.4751359e-02  -1.1215696e-01   5.5175778e-02
   8.6591072e-02  -1.2010622e-01   5.7048499e-02
   7.5632679e-02  -1.1963872e-01   5.5410075e-02
   7.7264789e-02  -1.3880967e-01   4.5578191e-02
   6.4907538e-02  -1.4184922e-01   4.7919065e-02
   6.1643254e-02  -1.5400646e-01   4.4876182e-02
   4.5322181e-02  -1.6452727e-01   4.0662524e-02
   3.7860932e-02  -1.6990498e-01   3.6214790e-02
   3.8327327e-02  -1.8767327e-01   2.5914753e-02
   1.6410431e-02  -1.8580311e-01   2.5680787e-02
   1.4545005e-02  -1.9936302e-01   1.1401059e-02
   1.7214677e-03  -2.0637717e-01  -6.9359264e-05
  -1.4133320e-02  -2.0474040e-01   1.1011327e-03
  -1.3900067e-02  -2.2391173e-01  -1.9030898e-02
  -2.9055426e-02  -2.2928906e-01  -2.3946784e-02
  -3.8848105e-02  -2.3980986e-01  -2.8160442e-02
  -4.5843067e-02  -2.5196750e-01  -4.4780934e-02
  -6.1464712e-02  -2.5430533e-01  -4.5014900e-02
  -6.4728604e-02  -2.6856696e-01  -6.0699086e-02
  -7.1956710e-02  -2.7558111e-01  -6.8658359e-02
  -8.4313961e-02  -2.8259487e-01  -7.5446857e-02
  -9.0609104e-02  -2.9709027e-01  -8.6917276e-02
  -1.0389932e-01  -3.0059738e-01  -8.5512707e-02
  -1.0972818e-01  -3.1392351e-01  -1.0400620e-01
  -1.1602371e-01  -3.2701625e-01  -1.0611278e-01
  -1.2768153e-01  -3.2631498e-01  -1.0915606e-01
  -1.3420982e-01  -3.3823845e-01  -1.2249909e-01
  -1.4073810e-01  -3.4431710e-01  -1.1851968e-01
  -1.3933913e-01  -3.5156503e-01  -1.2671263e-01
  -1.4703353e-01  -3.6442361e-01  -1.2905368e-01
  -1.5775878e-01  -3.6676183e-01  -1.2718057e-01
  -1.5519370e-01  -3.8569899e-01  -1.3162830e-01
  -1.6335438e-01  -3.9107632e-01  -1.3396935e-01
  -1.6591884e-01  -3.9505098e-01  -1.3701223e-01
  -1.6521931e-01  -4.0978016e-01  -1.3841658e-01
  -1.7407941e-01  -4.0837756e-01  -1.3935317e-01
  -1.6848348e-01  -4.2030103e-01  -1.3537337e-01
  -1.7058166e-01  -4.2591212e-01  -1.3584141e-01
  -1.7804291e-01  -4.3199117e-01  -1.3537315e-01
  -1.7664394e-01  -4.4344708e-01  -1.3092519e-01
  -1.7827583e-01  -4.4718797e-01  -1.3069100e-01
  -1.8293897e-01  -4.5724122e-01  -1.2717936e-01
  -1.7967447e-01  -4.6519009e-01  -1.2952040e-01
  -1.7454482e-01  -4.7243801e-01  -1.2437022e-01
  -1.7547728e-01  -4.7804911e-01  -1.1804926e-01
  -1.7337889e-01  -4.8482910e-01  -1.1734692e-01
  -1.7874146e-01  -4.8833620e-01  -1.1172859e-01
  -1.6964799e-01  -4.9371352e-01  -1.1172848e-01
  -1.7477742e-01  -4.9160920e-01  -1.0002376e-01
  -1.7431102e-01  -4.9347987e-01  -1.0236442e-01
  -1.5589105e-01  -5.0306557e-01  -1.0657807e-01
  -1.7640948e-01  -4.9441510e-01  -9.0425514e-02
  -1.6521733e-01  -5.0259814e-01  -9.2298015e-02
  -1.5402558e-01  -5.0797546e-01  -8.7850061e-02
  -1.6102015e-01  -5.0329959e-01  -8.0827267e-02
  -1.4703068e-01  -5.0376720e-01  -8.1763462e-02
  -1.5332582e-01  -4.9862378e-01  -7.8486283e-02
  -1.5122742e-01  -4.9722118e-01  -7.7549474e-02
  -1.5006121e-01  -4.8599878e-01  -7.1228909e-02
  -1.4633081e-01  -4.8062158e-01  -7.0058417e-02
  -1.3700420e-01  -4.7758254e-01  -7.0292384e-02
  -1.3980181e-01  -4.6776318e-01  -6.6546659e-02
  -1.2977577e-01  -4.6238599e-01  -6.4439861e-02
  -1.3024194e-01  -4.5256663e-01  -6.1162289e-02
  -1.2791040e-01  -4.4835832e-01  -6.0459950e-02
  -1.2091522e-01  -4.3970785e-01  -6.1396145e-02
  -1.1741797e-01  -4.2731695e-01  -6.2332341e-02
  -1.0669250e-01  -4.1890026e-01  -6.0927773e-02
  -1.0389428e-01  -4.0721069e-01  -6.2098044e-02
  -9.3635097e-02  -3.9809267e-01  -6.4907244e-02
  -9.3401844e-02  -3.8196095e-01  -6.2800054e-02
  -9.1070305e-02  -3.6863455e-01  -6.6545559e-02
  -7.9645015e-02  -3.5928275e-01  -7.0759216e-02
  -7.9411763e-02  -3.4431991e-01  -6.8418342e-02
  -6.9385722e-02  -3.3216279e-01  -7.2163455e-02
  -6.6121611e-02  -3.1953773e-01  -7.6143036e-02
  -6.0292144e-02  -3.0480867e-01  -7.5440697e-02
  -5.0732780e-02  -2.8961205e-01  -7.8249896e-02
  -4.7701421e-02  -2.7651982e-01  -8.0356474e-02
  -4.1406059e-02  -2.6108943e-01  -8.3165673e-02
  -3.9540415e-02  -2.4472354e-01  -8.6910785e-02
  -3.7442018e-02  -2.3046243e-01  -8.9719985e-02
  -2.7182834e-02  -2.1386276e-01  -9.2996944e-02
  -1.9488224e-02  -1.9609460e-01  -8.9251612e-02
  -1.2959719e-02  -1.8113177e-01  -9.3465269e-02
  -4.5656796e-03  -1.6266188e-01  -9.2996614e-02
  -7.3636772e-03  -1.4302312e-01  -8.7144201e-02
  -3.1666026e-03  -1.3390510e-01  -9.4401245e-02
   4.5276169e-03  -1.1566938e-01  -8.7846211e-02
   1.2222228e-02  -1.0047277e-01  -8.4803108e-02
   2.4113412e-02  -9.1354748e-02  -8.5739303e-02
   2.5512771e-02  -7.3118643e-02  -8.2461731e-02
   3.0875560e-02  -5.9325083e-02  -8.4802778e-02
   3.5072635e-02  -4.0855201e-02  -8.0588900e-02
   3.8569889e-02  -2.4489703e-02  -8.0120637e-02
   4.3699536e-02  -1.1397082e-02  -7.8247916e-02
   5.1394147e-02   7.7741311e-03  -7.7077031e-02
   6.0021329e-02   1.7827261e-02  -7.8715849e-02
   6.4684299e-02   2.7646613e-02  -7.5906429e-02
   7.1679480e-02   4.3778334e-02  -7.2628857e-02
   7.4943983e-02   5.6870956e-02  -7.0756136e-02
   8.4037060e-02   6.6689916e-02  -6.9819720e-02
   8.9866136e-02   7.9782538e-02  -6.8415152e-02
   9.3130639e-02   9.3810267e-02  -6.9819500e-02
   1.0012582e-01   1.0924066e-01  -6.6073776e-02
   1.0129164e-01   1.2420349e-01  -6.6073666e-02
   1.0875272e-01   1.3238641e-01  -6.6775785e-02
   1.0991855e-01   1.4571241e-01  -6.1157449e-02
   1.1458191e-01   1.5576554e-01  -6.1859568e-02
   1.2437480e-01   1.6628623e-01  -5.4602697e-02
   1.2973759e-01   1.7914507e-01  -5.1091048e-02
   1.3603335e-01   1.8732759e-01  -5.0154633e-02
   1.3789860e-01   1.9855000e-01  -4.4068144e-02
   1.4162939e-01   2.1023957e-01  -4.3131729e-02
   1.4232893e-01   2.3244988e-01  -3.7044847e-02
   1.5165554e-01   2.4624383e-01  -3.8683664e-02
   1.5282136e-01   2.6097289e-01  -3.5640169e-02
   1.5398719e-01   2.7920900e-01  -3.2362596e-02
   1.5701855e-01   2.8809285e-01  -2.9787646e-02
   1.5188912e-01   3.0328946e-01  -2.2062230e-02
   1.6634527e-01   3.0656267e-01  -2.8617044e-02
   1.6401356e-01   3.2035662e-01  -2.1827934e-02
   1.6681177e-01   3.3181241e-01  -2.1827824e-02
   1.7613838e-01   3.4163177e-01  -2.4168870e-02
   1.7567221e-01   3.6594646e-01  -1.1995610e-02
   1.7683803e-01   3.7599959e-01  -1.7848195e-02
   1.6844421e-01   3.9306642e-01  -1.5272852e-02
   1.7473957e-01   4.0592527e-01  -1.2697902e-02
   1.7100940e-01   4.2018677e-01  -1.2697792e-02
   1.7194208e-01   4.3070745e-01  -6.3768337e-03
   1.7986944e-01   4.3491577e-01  -1.0356415e-02
   1.7683869e-01   4.5057994e-01  -6.6106901e-03
   1.8196834e-01   4.6297084e-01  -2.6312815e-03
   1.7310823e-01   4.7676479e-01  -9.9224401e-04
   1.7730530e-01   4.8494770e-01   2.7534809e-03
   1.7917056e-01   5.0061187e-01   4.1243433e-04
   1.6961102e-01   5.1557471e-01   1.3488499e-03
   1.7334181e-01   5.2328967e-01  -2.8957482e-04
   1.6634724e-01   5.3825251e-01   2.9879974e-03
   1.6308296e-01   5.4596787e-01   2.5195618e-03
   1.6075164e-01   5.5695611e-01   5.5630576e-03
   1.5352353e-01   5.6490485e-01   1.3756627e-02
   1.5748746e-01   5.6981450e-01   5.0951249e-03
   1.5678814e-01   5.7706231e-01   1.1649766e-02
   1.5189186e-01   5.8337461e-01   1.3522880e-02
   1.4513004e-01   5.9038864e-01   1.1884063e-02
   1.3836861e-01   5.8898553e-01   1.5161635e-02
   1.3487118e-01   5.9810355e-01   9.5435190e-03
   1.3160729e-01   5.9973993e-01   1.7034466e-02
   1.2974187e-01   5.9716832e-01   1.2821201e-02
   1.2088215e-01   6.0301307e-01   1.9375843e-02
   1.1924987e-01   6.0090902e-01   2.1482640e-02
   1.1295472e-01   6.0348051e-01   1.9141986e-02
   1.0292890e-01   5.9529747e-01   2.8037785e-02
   1.0665969e-01   5.9389475e-01   1.8908130e-02
   9.7100156e-02   5.9623285e-01   2.6633154e-02
   9.1504442e-02   5.8711470e-01   2.4760652e-02
   8.8007016e-02   5.8454270e-01   2.2185529e-02
   7.8913766e-02   5.7238546e-01   2.7335713e-02
   7.6116160e-02   5.6396865e-01   2.3824677e-02
   6.7256053e-02   5.5578600e-01   2.8740784e-02
   6.2592912e-02   5.4620030e-01   2.4293050e-02
   5.7696627e-02   5.4058920e-01   2.7570229e-02
   5.0235770e-02   5.3030218e-01   2.6399957e-02
   4.4173379e-02   5.2188536e-01   2.6165991e-02
   3.6246236e-02   5.0551974e-01   2.5463872e-02
   3.2282523e-02   4.9149189e-01   2.2654672e-02
   2.6453667e-02   4.7582760e-01   2.7336703e-02
   1.5961559e-02   4.6063087e-01   2.1484510e-02
   9.4328823e-03   4.4590168e-01   2.4528006e-02
   1.1298527e-02   4.2649657e-01   2.0548425e-02
   1.5058484e-03   4.1644332e-01   2.5464532e-02
  -7.1211152e-03   4.0054525e-01   2.7805406e-02
  -3.5907651e-04   3.7973748e-01   1.7505369e-02
  -1.0851575e-02   3.6500830e-01   2.4996709e-02
  -1.9711291e-02   3.4957779e-01   2.3124208e-02
  -1.9711181e-02   3.2877001e-01   2.2421696e-02
  -2.5540429e-02   3.1474216e-01   2.1719577e-02
  -2.1343354e-02   2.9907787e-01   2.5465302e-02
  -2.0876959e-02   2.7102223e-01   2.6167641e-02
  -2.6006386e-02   2.5676060e-01   2.4061063e-02
  -2.9037136e-02   2.3899232e-01   3.1083858e-02
  -2.9270169e-02   2.2005476e-01   2.4529436e-02
  -3.2068167e-02   2.0766335e-01   3.0850001e-02
  -3.2767486e-02   1.8615425e-01   3.1786417e-02
  -2.7404697e-02   1.7072373e-01   3.2488756e-02
  -2.7404587e-02   1.5295545e-01   3.6468558e-02
  -2.6938192e-02   1.3775872e-01   3.4830133e-02
  -2.7870654e-02   1.2186026e-01   4.3491855e-02
  -2.3906722e-02   1.0409198e-01   3.9512273e-02
  -2.1575183e-02   9.3337394e-02   4.7003220e-02
  -1.3181143e-02   7.4633612e-02   4.4896643e-02
  -6.6526388e-03   6.4112807e-02   4.2087444e-02
  -1.2481495e-02   5.1955563e-02   5.0281013e-02
  -3.1548836e-03   3.6057104e-02   4.6769584e-02
   1.0961898e-04   3.2784167e-02   5.5899459e-02
   2.9074444e-03   2.2263361e-02   5.5197340e-02
   5.9388041e-03   1.0339502e-02   5.6133755e-02
   5.7057706e-03   2.8581879e-03   6.0113556e-02
   1.5731811e-02  -5.5586257e-03   5.9177361e-02
   1.7363922e-02  -1.4676770e-02   6.4561621e-02
   2.1560996e-02  -2.2391861e-02   6.5263960e-02
   2.8322644e-02  -2.8002960e-02   6.9243761e-02
   2.8555896e-02  -3.1977620e-02   7.1818711e-02
   3.1354113e-02  -4.2264649e-02   7.4862207e-02
   3.8115760e-02  -4.6706863e-02   7.7437157e-02
   3.9281585e-02  -4.7408255e-02   7.8373966e-02
   3.9748372e-02  -6.0968552e-02   7.9076305e-02
   4.3012483e-02  -5.7695345e-02   8.3758335e-02
   4.4644594e-02  -5.9098459e-02   9.0312977e-02
   4.9307954e-02  -6.9853042e-02   8.7269701e-02
   4.8142349e-02  -6.7982496e-02   9.1951732e-02
   4.7676172e-02  -7.1255826e-02   1.0037938e-01
   4.9308283e-02  -7.2658548e-02   1.0037949e-01
   4.6976962e-02  -7.8970977e-02   1.0365706e-01
   4.5811357e-02  -8.0607869e-02   1.0833870e-01
   4.6044609e-02  -8.3880807e-02   1.1231850e-01
   4.4412327e-02  -8.7154137e-02   1.1840499e-01
   4.2780435e-02  -8.7387975e-02   1.1980995e-01
   4.4645689e-02  -9.7207450e-02   1.2425790e-01
   3.8117403e-02  -9.3934242e-02   1.3526039e-01
   3.4853511e-02  -9.7908902e-02   1.3900611e-01
   3.5553049e-02  -1.0398755e-01   1.4064476e-01
   2.6926086e-02  -1.0118229e-01   1.4836978e-01
   2.5294194e-02  -1.1053421e-01   1.5586112e-01
   2.7392591e-02  -1.1591154e-01   1.6335207e-01
   2.1330591e-02  -1.1848314e-01   1.7505718e-01
   1.7133736e-02  -1.2362669e-01   1.8161182e-01
   1.6900702e-02  -1.3040706e-01   1.9027354e-01
   8.2737387e-03  -1.3368000e-01   2.0502164e-01
   8.1288126e-04  -1.3695333e-01   2.1321482e-01
   3.1444207e-03  -1.4560392e-01   2.2187654e-01
   1.1367133e-04  -1.4770797e-01   2.3615649e-01
  -9.4458643e-03  -1.5425418e-01   2.4715897e-01
  -1.4342149e-02  -1.6196966e-01   2.6097077e-01
  -1.3875753e-02  -1.6547677e-01   2.7688925e-01
  -2.0404039e-02  -1.7319186e-01   2.8812581e-01
  -2.8331573e-02  -1.7553008e-01   3.0544915e-01
  -2.8797750e-02  -1.8137496e-01   3.1574940e-01
  -2.9497069e-02  -1.8955760e-01   3.2487888e-01
  -3.4626497e-02  -1.9329849e-01   3.4220222e-01
  -4.1388316e-02  -2.0078019e-01   3.5414101e-01
  -4.1388207e-02  -2.0568996e-01   3.6654835e-01
  -4.4185813e-02  -2.0756024e-01   3.7591230e-01
  -5.0247813e-02  -2.1130112e-01   3.8714886e-01
  -5.2113238e-02  -2.1644467e-01   3.9744911e-01
  -5.4211416e-02  -2.1878250e-01   4.0681307e-01
