**************************************************************************************
  	RED ACELEROGRÁFICA DE LA UNIVERSIDAD AUTONOMA METROPOLITANA (RA-UAM)
	   UNIDAD AZCAPOTZALCO. DIVISIÓN CBI-DEPARTAMENTO DE MATERIALES
     Av. San Pablo 180, Col. Reynosa, Azcapotzalco, C.P. 02200, Ciudad de México
		Área de Estructuras. e-mail: agb@azc.uam.mx
**************************************************************************************
ARCHIVO ESTANDAR DE ACELERACION:
VERSION DEL FORMATO                    : 2.0
NOMBRE DEL ARCHIVO                     : RUML202112061
FECHA Y HORA DE CREACION               : 11:50 a. m. 09/12/2021
REF. CATALOGO ACELEROGRAMAS, SMIS 1999 : REGISTRO NO.      /PAG.    


================================================================================
DATOS DE LA ESTACION:
NOMBRE DE LA ESTACION                  : UAM-LERMA.
CLAVE DE LA ESTACION                   : RUML
LOCALIZACION DE LA ESTACION            : AV. DE LAS GARZAS 10, EL PANTEON, C.P.52005,
                                       : LERMA DE VILLADA, ESTADO DE MEXICO. 
                                       :
                                       : 
                                       : 
COORDENADAS DE LA ESTACION             : 19.291278 LAT. N
                                       : 99.500578 LONG. W
ALTITUD (msnm)                         : 2570
TIPO DE SUELO                          : DEPOSITOS LACUSTRES
                                       : 
                                       : 
INSTITUCION RESPONSABLE                : UNIVERSIDAD AUTONOMA METROPOLITANA
                                       : 

================================================================================
DATOS DEL ACELEROGRAFO: 
MODELO DEL ACELEROGRAFO                : ETNA2 KINEMETRICS
NUMERO DE SERIE DEL ACELEROGRAFO       : 103733
NUMERO DE CANALES                      : 3
ORIENTACION C1-C6 (rumbo;orientacion)  : /N90E/N00E/V
ORIENTACION C7-C12 (rumbo;orientacion) : 
VEL. DE MUESTREO, C1-C6 (muestras/s)   : /200/200/200
VEL. DE MUESTREO, C7-C12 (muestras/s)  : 
ESC. COMPLETA DE SENSORES, C1-C6, (g)  : /2/2/2
ESC. COMPLETA DE SENSORES, C7-C12 (g)  : 
FREC. NAT. DE SENSORES, C1-C6, (Hz)    : /200/200/202   
FREC. NAT. DE SENSORES, C7-C12 (Hz)    : 
AMORTIGUAMIENTO DE SENSORES, C1-C6     : /0.7/0.7/0.7      
AMORTIGUAMIENTO DE SENSORES, C7-C12    : 
INTERVALO DE MUESTREO, C1-C6 (s)       : /0.005/0.005/0.005
INTERVALO DE MUESTREO, C7-C12 (s)      : 
UMBRAL DE DISPARO, C1-C6 (Gal)         : /2/2/2
UMBRAL DE DISPARO, C7-C12 (Gal)        : 
MEMORIA DE PREEVENTO (s)               : 50
TIEMPO DE POSEVENTO (s)                : 60


================================================================================
DATOS DEL SISMO:
FECHA DEL SISMO [GMT]                  : 2021/12/06
HORA EPICENTRO (GMT)                   : 00:20:03
MAGNITUD(ES)                           : /M=5.1
COORDENADAS DEL EPICENTRO              : 15.64 LAT. N
                                       : 96.08 LONG. W
PROFUNDIDAD FOCAL (Km)                 : 9.0
FUENTE DE LOS DATOS EPICENTRALES       : SSN
                                       : INSTITUTO DE GEOFISICA, UNAM

================================================================================
DATOS DE ESTE REGISTRO:
HORA DE LA PRIMERA MUESTRA (GMT)       : 00:21:50.000
EXACTITUD DEL TIEMPO (s)               : 
DURACION DEL REGISTRO (s), C1-C6       : /144.00/144.00/144.00
DURACION DEL REGISTRO (s), C7-C12      : 
NUM. TOTAL DE MUESTRAS, C1-C6          : /28800/28800/28800
NUM. TOTAL DE MUESTRAS, C7-C12         : 
ACEL. MAX.(Gal), C1-C6                 : /0.50/-0.70/-0.20
ACEL. MAX., C1-C6, EN LA MUESTRA       : /12327/11454/11458
ACEL. MAX.(Gal), C7-C12                : 
ACEL. MAX., C7-C12,EN LA MUESTRA       : 
UNIDADES DE LOS DATOS                  : Gal (cm/s/s)
FACTOR DE DECIMACION                   : 1
FORMATO DATOS (FORTRAN,16 campos/dato) : 3E16.7


================================================================================
CALIDAD DEL ACELEROGRAMA:
REGISTRO DIGITAL COMPLETO CON TIEMPO ABSOLUTO CORRECTO


================================================================================
COMENTARIOS:














================================================================================
DATOS DE ACELERACION:
---------+---------+---------+---------+---------+---------+---------+---------+
   CANAL-1   	     CANAL-2       CANAL-3
     N90E             N00E           V
---------+---------+---------+---------+---------+---------+---------+---------+ 
[...]
  -1.2610252e-01  -3.2608070e-01  -1.0658022e-01
  -1.4390379e-01  -3.6019152e-01  -1.0985683e-01
  -8.0449016e-02  -3.5668896e-01  -1.2671035e-01
  -1.2962970e-01  -3.1674031e-01  -1.2132603e-01
  -1.1207175e-01  -3.8519396e-01  -1.2647588e-01
  -1.1137426e-01  -3.3403130e-01  -1.1781476e-01
  -1.2496159e-01  -3.3987389e-01  -1.0962176e-01
  -8.3049529e-02  -3.7865766e-01  -1.2319768e-01
  -1.4066045e-01  -3.1931791e-01  -1.0962135e-01
  -1.1397059e-01  -3.7352064e-01  -1.1570665e-01
  -8.6577495e-02  -3.5553356e-01  -1.2296302e-01
  -1.5144711e-01  -3.2165874e-01  -1.1664326e-01
  -9.2675370e-02  -3.8216969e-01  -1.2694238e-01
  -1.0579439e-01  -3.3521278e-01  -1.1359932e-01
  -1.2593795e-01  -3.5296941e-01  -1.1968540e-01
  -7.8874561e-02  -3.7399734e-01  -1.2577070e-01
  -1.1142893e-01  -3.3498312e-01  -1.0400156e-01
  -8.8251342e-02  -3.9222355e-01  -1.0166078e-01
  -8.3104195e-02  -3.4573386e-01  -9.3701836e-02
  -1.0277945e-01  -3.2587712e-01  -8.2934197e-02
  -6.6722752e-02  -3.9760208e-01  -9.4403604e-02
  -1.1332699e-01  -3.3242133e-01  -7.6146120e-02
  -8.3358225e-02  -3.3686226e-01  -7.2634268e-02
  -4.8940584e-02  -3.6606729e-01  -8.2933387e-02
  -1.3605694e-01  -3.2191289e-01  -5.8355561e-02
  -5.7380759e-02  -3.6116388e-01  -6.0227820e-02
  -6.3239513e-02  -3.0906679e-01  -4.2905780e-02
  -1.1757232e-01  -3.1420776e-01  -3.9160656e-02
  -4.5453162e-02  -3.5929975e-01  -6.0929385e-02
  -1.0282915e-01  -2.7636395e-01  -3.2137736e-02
  -7.8949106e-02  -3.2682894e-01  -3.6819472e-02
  -6.7011569e-02  -3.1141078e-01  -3.8457673e-02
  -1.1455320e-01  -2.7870478e-01  -7.7935626e-03
  -3.3769655e-02  -3.1959103e-01  -2.9094177e-02
  -9.7234364e-02  -2.5931685e-01  -1.5985961e-02
  -1.0754278e-01  -2.8641940e-01   8.3585931e-03
  -6.8547978e-03  -2.6959958e-01   3.9109148e-03
  -1.1949523e-01  -2.0792374e-01   1.9828608e-02
  -1.0029821e-01  -2.8899383e-01   1.9828811e-02
  -3.0520568e-02  -2.3222378e-01   3.4575430e-02
  -1.1131405e-01  -1.8479965e-01   4.1598147e-02
  -7.3617504e-02  -2.6213122e-01   4.0194004e-02
  -7.8540439e-02  -1.7428963e-01   7.1092172e-02
  -8.2760133e-02  -1.9134544e-01   6.4069860e-02
  -7.3867350e-02  -1.9905689e-01   4.8855530e-02
  -1.1672517e-01  -1.1822357e-01   7.3901471e-02
  -4.2732013e-02  -1.9298544e-01   7.0390809e-02
  -9.0039490e-02  -1.2570299e-01   8.2328737e-02
  -1.2774598e-01  -1.1378974e-01   9.2160146e-02
  -3.5722380e-02  -1.5934817e-01   8.9351656e-02
  -1.0387012e-01  -5.2581922e-02   1.1322731e-01
  -9.5445636e-02  -1.1122400e-01   9.8715152e-02
  -7.0394051e-02  -9.5573015e-02   1.2446327e-01
  -9.8031241e-02  -2.4785654e-02   1.4389182e-01
  -5.9163938e-02  -9.2071260e-02   1.1416435e-01
  -1.3293209e-01  -2.1050291e-02   1.4061542e-01
  -7.0648081e-02  -1.4978044e-02   1.3921128e-01
  -4.5597281e-02  -2.7595281e-02   1.3406143e-01
  -1.6409149e-01   3.6883859e-02   1.5746975e-01
  -4.6309674e-02  -5.6376507e-03   1.3078503e-01
  -6.7858142e-02   4.2020875e-02   1.4553165e-01
  -1.4256290e-01   6.0008737e-02   1.6074717e-01
  -5.0305157e-02   4.9727587e-02   1.4389365e-01
  -1.1283326e-01   1.1116981e-01   1.6285409e-01
  -9.1528882e-02   7.2853261e-02   1.4248971e-01
  -8.0293800e-02   1.3102496e-01   1.4693779e-01
  -1.2572807e-01   1.5952600e-01   1.6683446e-01
  -5.2203216e-02   1.1139710e-01   1.4155408e-01
  -1.2433310e-01   1.8615581e-01   1.5559853e-01
  -1.1333138e-01   1.6606231e-01   1.4670454e-01
  -5.6667787e-02   1.7470504e-01   1.3804383e-01
  -1.4050524e-01   2.3054065e-01   1.5700427e-01
  -9.8125663e-02   1.9269132e-01   1.4459784e-01
  -9.3915122e-02   2.4969498e-01   1.4670535e-01
  -1.3443221e-01   2.6184184e-01   1.3359675e-01
  -9.3925062e-02   2.2913268e-01   1.3078826e-01
  -1.2062565e-01   3.0949878e-01   1.4694002e-01
  -1.0798566e-01   2.8543315e-01   1.2329804e-01
  -1.1150290e-01   2.7515200e-01   1.2446853e-01
  -1.2743173e-01   3.4196801e-01   1.1791512e-01
  -8.3646463e-02   3.1860320e-01   9.2868797e-02
  -1.3587191e-01   3.5387968e-01   1.0925461e-01
  -1.0496654e-01   3.6158797e-01   1.0035983e-01
  -7.8744193e-02   3.4476499e-01   8.4910658e-02
  -1.3307621e-01   3.8798417e-01   8.6315992e-02
  -8.3437160e-02   3.7046115e-01   7.7187161e-02
  -9.8897692e-02   4.0503601e-01   8.7252628e-02
  -1.0124418e-01   4.1251070e-01   6.6420129e-02
  -8.3217917e-02   3.9218359e-01   4.7928206e-02
  -1.1319662e-01   4.4825203e-01   5.8929904e-02
  -5.4191514e-02   4.3049540e-01   3.4819812e-02
  -8.1593767e-02   4.4357669e-01   4.0906299e-02
  -9.6585996e-02   4.8072204e-01   4.1374617e-02
  -2.7510808e-02   4.5875888e-01   4.6246268e-03
  -8.1140373e-02   4.8655910e-01   5.7959029e-03
  -5.1874062e-02   4.8725834e-01   4.1569164e-03
  -1.1836003e-02   4.9590107e-01   3.6890036e-03
  -5.7972723e-02   5.2860707e-01  -3.5665810e-03
  -5.2897034e-03   5.1155127e-01  -3.2591883e-02
  -9.5093979e-03   5.4005231e-01  -2.7676470e-02
  -5.2996426e-03   5.3374250e-01  -3.7741532e-02
   2.7948027e-02   5.3233927e-01  -4.8508766e-02
  -2.0306768e-03   5.7696010e-01  -3.4463534e-02
   6.0019184e-02   5.4004598e-01  -6.0680145e-02
   4.4090349e-02   5.6457489e-01  -7.3085783e-02
   3.3781933e-02   5.9144067e-01  -7.0042831e-02
   1.1526793e-01   5.7952347e-01  -7.9639777e-02
   5.9765154e-02   5.9540886e-01  -7.5894653e-02
   8.4113500e-02   5.7251205e-01  -8.7598118e-02
   1.4827151e-01   6.1409596e-01  -9.6961007e-02
   9.2533796e-02   6.1596325e-01  -9.6024574e-02
   1.2741974e-01   5.6900239e-01  -1.0445045e-01
   1.6441383e-01   6.3768727e-01  -1.0819595e-01
   1.4848578e-01   6.3441517e-01  -1.2153782e-01
   1.6159408e-01   5.7997805e-01  -1.3464563e-01
   1.6720874e-01   6.3464562e-01  -1.2551640e-01
   2.1825270e-01   6.2599973e-01  -1.2785756e-01
   1.9670423e-01   6.1104641e-01  -1.3300662e-01
   1.8452260e-01   6.1781948e-01  -1.3956082e-01
   2.6202803e-01   5.9538989e-01  -1.4985994e-01
   2.2830212e-01   6.5379520e-01  -1.4190099e-01
   2.1916524e-01   6.1080648e-01  -1.5009359e-01
   2.6271557e-01   5.9351628e-01  -1.4728470e-01
   2.6973593e-01   6.4351089e-01  -1.4775261e-01
   2.6715451e-01   5.8089746e-01  -1.7537278e-01
   2.4701095e-01   6.0332389e-01  -1.6156239e-01
   3.0835836e-01   6.0542479e-01  -1.5313533e-01
   3.1514456e-01   5.8556490e-01  -1.6249822e-01
   2.3856659e-01   6.2294385e-01  -1.5524144e-01
   3.2848204e-01   5.7855269e-01  -1.7045656e-01
   3.3550240e-01   5.8369128e-01  -1.6296572e-01
   2.6032933e-01   5.9256762e-01  -1.5336837e-01
   3.3338509e-01   5.6055929e-01  -1.7303058e-01
   3.2354498e-01   5.8485459e-01  -1.6788111e-01
   3.2073019e-01   5.5307986e-01  -1.7981864e-01
   3.2142768e-01   5.4887254e-01  -1.7068940e-01
   3.1697305e-01   5.6335627e-01  -1.4119558e-01
   3.7808630e-01   5.2176920e-01  -1.6788030e-01
   2.9307810e-01   5.3952266e-01  -1.5992136e-01
   3.2351516e-01   5.0167411e-01  -1.4845154e-01
   3.9563432e-01   4.9746679e-01  -1.6436805e-01
   2.8697447e-01   5.2199648e-01  -1.4213080e-01
   3.3942412e-01   4.4933631e-01  -1.4259871e-01
   3.7407591e-01   4.7129630e-01  -1.4259851e-01
   3.0358588e-01   4.5564137e-01  -1.4002367e-01
   3.4409224e-01   4.1966169e-01  -1.5500394e-01
   3.3073985e-01   4.5236768e-01  -1.4330007e-01
   3.3822773e-01   3.7970829e-01  -1.4587450e-01
   3.4033091e-01   3.8811663e-01  -1.4212938e-01
   2.9700400e-01   4.1474880e-01  -1.2831899e-01
   3.6186447e-01   3.1966140e-01  -1.4634280e-01
   3.2158232e-01   3.5610513e-01  -1.3089322e-01
   3.0026800e-01   3.4582398e-01  -1.2878650e-01
   3.5014120e-01   2.6895963e-01  -1.3604287e-01
   2.9627670e-01   3.0960911e-01  -1.0771933e-01
   3.2765037e-01   2.5750808e-01  -1.2527424e-01
   3.0586775e-01   2.4395640e-01  -1.2082694e-01
   2.8829986e-01   2.4442204e-01  -1.1708182e-01
   3.3934461e-01   1.6638886e-01  -1.2644471e-01
   2.5620882e-01   2.1054326e-01  -9.7184942e-02
   2.8664589e-01   1.7573084e-01  -1.1263333e-01
   3.0935596e-01   1.4255446e-01  -1.1403747e-01
   2.4518801e-01   1.6661615e-01  -1.0607931e-01
   2.9670028e-01   9.3956758e-02  -1.3089079e-01
   2.5103265e-01   1.1848645e-01  -1.1310064e-01
   2.4400235e-01   8.7879770e-02  -1.1005768e-01
   2.8286965e-01   4.4656649e-02  -1.1239806e-01
   2.0207617e-01   8.3670867e-02  -9.9289842e-02
   2.5592995e-01   8.6753880e-03  -1.1590930e-01
   2.4772889e-01   2.0588638e-02  -9.4373441e-02
   1.9058706e-01   1.3344402e-02  -8.8521797e-02
   2.3928950e-01  -5.7913337e-02  -1.0560859e-01
   1.9502599e-01  -1.3526118e-02  -8.7117047e-02
   2.1375471e-01  -6.0719803e-02  -1.0958795e-01
   1.8120034e-01  -8.2448566e-02  -1.0771529e-01
   1.4911427e-01  -8.5020627e-02  -8.3370731e-02
   2.3598575e-01  -1.3151349e-01  -1.0256483e-01
   1.3809843e-01  -1.0207801e-01  -9.9053760e-02
   1.3996667e-01  -1.7590623e-01  -1.0092602e-01
   2.0997847e-01  -1.7941194e-01  -9.0626494e-02
   1.0553334e-01  -1.4553790e-01  -7.0027648e-02
   1.3081907e-01  -2.4015808e-01  -7.8220249e-02
   1.4580058e-01  -2.1142344e-01  -5.2237291e-02
   1.1301206e-01  -2.1633158e-01  -5.7621200e-02
   1.1979826e-01  -2.7871141e-01  -7.3069588e-02
   6.6871154e-02  -2.5137841e-01  -3.8192440e-02
   1.1768096e-01  -2.9226466e-01  -4.4745851e-02
   8.7233956e-02  -2.9950889e-01  -4.4277534e-02
   1.6040680e-02  -3.0511709e-01  -2.9296856e-02
   9.6590072e-02  -3.5791895e-01  -3.2339403e-02
   5.1859046e-02  -3.2381051e-01  -1.3847076e-02
   6.8938677e-03  -3.7310746e-01  -1.5720120e-02
   3.6862632e-02  -3.9413540e-01   1.8359766e-03
   1.6484921e-02  -3.6329827e-01   2.2200765e-02
   7.1131102e-03  -4.4016341e-01   1.1433530e-02
  -3.5043037e-02  -4.1703615e-01   3.7884603e-02
  -5.3084237e-03  -4.2381239e-01   3.7182633e-02
  -4.3767878e-03  -4.8292169e-01   3.6246605e-02
  -8.8448389e-02  -4.6049526e-01   6.3165007e-02
  -2.6398528e-02  -4.9273720e-01   5.3568061e-02
  -3.7877702e-02  -4.9647730e-01   6.2229181e-02
  -1.0719698e-01  -5.0816010e-01   7.4869282e-02
  -5.0766752e-02  -5.3035609e-01   8.1189826e-02
  -7.9106397e-02  -5.1306905e-01   1.0319302e-01
  -1.1072416e-01  -5.5325447e-01   1.0038453e-01
  -1.0581195e-01  -5.5442410e-01   1.1302463e-01
  -1.2267661e-01  -5.4251085e-01   1.2168575e-01
  -1.1214398e-01  -5.7779049e-01   1.1583373e-01
  -1.7092566e-01  -5.8082898e-01   1.4439132e-01
  -1.3838123e-01  -5.8386747e-01   1.4673288e-01
  -1.1543779e-01  -5.9344780e-01   1.4298738e-01
  -2.0864208e-01  -6.0092564e-01   1.5562748e-01
  -1.4987034e-01  -6.2358884e-01   1.5235087e-01
  -1.4519228e-01  -6.0022798e-01   1.6850262e-01
  -2.0467563e-01  -6.2522726e-01   1.7482238e-01
  -1.7681502e-01  -6.4976011e-01   1.7084361e-01
  -1.9040155e-01  -6.0654015e-01   1.7973878e-01
  -1.8267874e-01  -6.5607071e-01   1.7341864e-01
  -2.0820857e-01  -6.5256816e-01   1.9354938e-01
  -2.1500393e-01  -6.3177699e-01   2.0221050e-01
  -1.6700472e-01  -6.7873785e-01   1.8161205e-01
  -2.3632400e-01  -6.3715394e-01   1.9752975e-01
  -2.1595623e-01  -6.6121879e-01   1.9308207e-01
  -1.7943044e-01  -6.7617212e-01   1.9518879e-01
  -2.4430005e-01  -6.3178490e-01   2.1368112e-01
  -2.1175562e-01  -6.6823258e-01   1.9706244e-01
  -2.2838691e-01  -6.4230124e-01   2.0314814e-01
  -2.3518227e-01  -6.4206921e-01   1.8933816e-01
  -2.1856171e-01  -6.3996831e-01   1.8208179e-01
  -2.5884386e-01  -6.1590584e-01   2.0548933e-01
  -2.0709745e-01  -6.5702569e-01   1.7950756e-01
  -2.3731030e-01  -6.0142447e-01   1.8184834e-01
  -2.5323835e-01  -6.0820149e-01   1.8278477e-01
  -1.9751136e-01  -6.3320077e-01   1.7623058e-01
  -2.5582395e-01  -5.7269298e-01   1.8723306e-01
  -2.2866579e-01  -5.9278648e-01   1.6710273e-01
  -2.0525327e-01  -5.8274210e-01   1.7716820e-01
  -2.3804257e-01  -5.7363216e-01   1.7997709e-01
  -2.0947872e-01  -5.8181083e-01   1.7248667e-01
  -2.2072374e-01  -5.3719000e-01   1.9168117e-01
  -2.0222918e-01  -5.5681628e-01   1.7904147e-01
  -2.0832287e-01  -5.4957521e-01   1.7295539e-01
  -2.3338361e-01  -5.0565442e-01   1.8325491e-01
  -1.7016299e-01  -5.3042088e-01   1.7459420e-01
  -2.1021099e-01  -4.9794850e-01   1.7599874e-01
  -2.2169016e-01  -4.9678203e-01   1.6312499e-01
  -1.6174766e-01  -5.1523949e-01   1.5914621e-01
  -2.1350402e-01  -4.6150714e-01   1.6546597e-01
  -1.9149718e-01  -4.8323590e-01   1.4978353e-01
  -1.7674983e-01  -4.5613730e-01   1.6078522e-01
  -1.8073537e-01  -4.3043956e-01   1.5844485e-01
  -1.5872854e-01  -4.5543885e-01   1.4322973e-01
  -1.9901069e-01  -4.0030484e-01   1.6031772e-01
  -1.3461853e-01  -4.0334333e-01   1.4814614e-01
  -1.5382549e-01  -3.9586943e-01   1.5095503e-01
  -1.9551255e-01  -3.6549874e-01   1.6944736e-01
  -9.8805923e-02  -3.6643554e-01   1.4627428e-01
  -1.6086572e-01  -3.2718771e-01   1.4744477e-01
  -1.6531957e-01  -3.4424352e-01   1.4018840e-01
  -9.7181772e-02  -2.9635217e-01   1.3503855e-01
  -1.5760251e-01  -2.6434621e-01   1.4112504e-01
  -1.2552639e-01  -3.0756933e-01   1.1912225e-01
  -1.2295490e-01  -2.2883849e-01   1.3340076e-01
  -1.2904860e-01  -2.2767203e-01   1.2216541e-01
  -9.7440771e-02  -2.3444826e-01   1.0063073e-01
  -1.5411430e-01  -1.7277243e-01   1.2474044e-01
  -9.5577500e-02  -1.9660445e-01   1.0133331e-01
  -1.0143625e-01  -1.5735662e-01   9.5950188e-02
  -1.5412921e-01  -1.4217207e-01   1.0344023e-01
  -7.0535853e-02  -1.5899505e-01   9.2438942e-02
  -1.1831163e-01  -8.1665857e-02   1.0671823e-01
  -1.1293034e-01  -1.1344058e-01   8.0735680e-02
  -8.6942931e-02  -8.7510021e-02   8.3310516e-02
  -1.2722508e-01  -4.1953974e-02   9.2205694e-02
  -7.2199761e-02  -8.5877920e-02   6.1541989e-02
  -1.1950724e-01  -1.2052862e-02   8.0970547e-02
  -9.1411685e-02  -2.9810276e-02   6.9501139e-02
  -6.2379526e-02  -3.2381553e-02   4.9838929e-02
  -1.4481207e-01   2.1818018e-02   6.5990679e-02
  -5.0681111e-02  -7.3870086e-03   4.0710300e-02
  -7.0824671e-02   3.7468212e-02   4.0710502e-02
  -1.2632823e-01   3.2326455e-02   3.4390363e-02
  -4.1095027e-02   2.4848610e-02   1.4728152e-02
  -9.3787986e-02   7.2507136e-02   3.5326998e-02
  -8.0679693e-02   2.9518409e-02   6.7705971e-03
  -7.0849519e-02   6.1289971e-02   7.0048572e-03
  -1.0574619e-01   8.7688532e-02   2.2687707e-02
  -3.4328700e-02   4.0260454e-02  -1.0082517e-02
  -1.1699618e-01   9.6562504e-02   8.6438680e-03
  -8.5856657e-02   8.2310005e-02   3.7280744e-03
  -1.2565958e-02   7.7402641e-02  -1.6870367e-02
  -1.4159855e-01   1.3136860e-01  -7.7411308e-03
  -5.1214019e-02   6.7119910e-02  -2.9743918e-02
  -3.6700817e-02   1.3416875e-01  -2.1082797e-02
  -1.2264563e-01   1.3510160e-01  -2.1316652e-02
  -3.3197700e-02   8.6972697e-02  -4.4021612e-02
  -8.7764656e-02   1.9280451e-01  -2.6232243e-02
  -7.3250668e-02   1.1103359e-01  -5.0575607e-02
  -6.2015586e-02   1.4163711e-01  -4.7298598e-02
  -1.0932306e-01   2.0658347e-01  -2.7401924e-02
  -2.1748344e-02   1.2948551e-01  -6.4853302e-02
  -1.0933300e-01   2.0167452e-01  -5.0574797e-02
  -8.6155414e-02   1.7947854e-01  -5.8767398e-02
  -1.0523201e-02   1.7947696e-01  -6.8130287e-02
  -1.2761329e-01   2.3087323e-01  -4.3785733e-02
  -5.6196588e-02   1.6358684e-01  -7.2342920e-02
  -5.0815291e-02   2.3460781e-01  -6.9768083e-02
  -1.0655300e-01   2.3974640e-01  -7.6790395e-02
  -4.5439748e-02   1.8180515e-01  -8.6855457e-02
  -9.0404926e-02   2.7852543e-01  -5.5020273e-02
  -4.5917990e-02   2.3016292e-01  -9.1302148e-02
  -5.8802071e-02   2.2759086e-01  -1.0300561e-01
  -1.0774861e-01   2.8716421e-01  -8.7088705e-02
   1.3696089e-03   2.2314913e-01  -1.0394144e-01
  -8.5512595e-02   2.9814145e-01  -8.5215054e-02
