********************************************************************************
           RED INTERUNIVERSITARIA DE INSTRUMENTACION SISIMICA (RIIS)
 AREA DE ESTRUCTURAS, UNIVERSIDAD AUTONOMA METROPOLITANA - UNIDAD AZCAPOTZALCO
         AV. SAN PABLO 180; COL. REYNOSA TAMAULIPAS; MEXICO D.F. 02200.
       TELS: 53189455; FAX: 53189085; e-mail: agb@azc.uam.mx
********************************************************************************
ARCHIVO ESTANDAR DE ACELERACION:
VERSION DEL FORMATO                    : 2.0
NOMBRE DEL ARCHIVO                     : RIDA0301.101
FECHA Y HORA DE CREACION               : NOVIEMBRE, 2004
REF. CATALOGO ACELEROGRAMAS, SMIS 1996 : 


================================================================================
DATOS DE LA ESTACION:
NOMBRE DE LA ESTACION                  : UAM AZCAPOTZALCO
CLAVE DE LA ESTACION                   : RIDA
LOCALIZACION DE LA ESTACION            : AVENIDA SAN PABLO Y EJE 5, COLONIA
                                       : REYNOSA, PLANTEL AZCAPOTZALCO, JARDIN
                                       : ENTRE EDIFICIO "H" Y "E", MEXICO, D.F.
                                       :
                                       :
COORDENADAS DE LA ESTACION             : 19.520 LAT. N 
                                       : 99.190 LONG. W 
ALTITUD (msnm)                         : 2240
TIPO DE SUELO                          : LIMO ARENOSO
                                       : 
                                       : 
INSTITUCION RESPONSABLE                : RED INTERUNIVERSITARIA DE
                                       : INSTRUMENTACION SISMICA (RIIS)

================================================================================
DATOS DEL ACELEROGRAFO:
MODELO DEL ACELEROGRAFO                : SSA-2
NUMERO DE SERIE DEL ACELEROGRAFO       : 1009
NUMERO DE CANALES                      : 3
ORIENTACION C1-C6 (rumbo;orientacion)  : /N00E/+V/N90E
ORIENTACION C7-C12 (rumbo;orientacion) :
VEL. DE MUESTREO, C1-C6 (muestras/s)   : /200/200/200
VEL. DE MUESTREO, C7-C12 (muestras/s)  :
ESC. COMPLETA DE SENSORES, C1-C6, (g)  : /1.0/1.0/1.0
ESC. COMPLETA DE SENSORES, C7-C12, (g) :
FREC. NAT. DE SENSORES, C1-C6, (Hz)    : /50.0/50.0/50.0
FREC. NAT. DE SENSORES, C7-C12, (Hz)   :
AMORTIGUAMIENTO DE SENSORES, C1-C6     : /0.7/0.7/0.7
AMORTIGUAMIENTO DE SENSORES, C7-C12    :
INTERVALO DE MUESTREO, C1-C6, (s)      : /0.005/0.005/0.005
INTERVALO DE MUESTREO, C7-C12, (s)     : 
UMBRAL DE DISPARO, C1-C6, (Gal)        : /2/2/2
UMBRAL DE DISPARO, C7-C12, (Gal)       :
MEMORIA DE PREEVENTO (s)               : 15
TIEMPO DE POSEVENTO (s)                : 60


================================================================================
DATOS DEL SISMO:
FECHA DEL SISMO (GMT)                  : 10/ENE/2003
HORA EPICENTRO (GMT)                   : 02:08:03
MAGNITUD(ES)                           : /Mb=5.1/Ms=4.5/Mc=4.9/Ma=5.1/Me=5.3
COORDENADAS DEL EPICENTRO              : 16.970 LAT. N 
                                       : 100.30 LONG. W 
PROFUNDIDAD FOCAL (km)                 : 30 
FUENTES DE LOS DATOS EPICENTRALES      : SSN
                                       : INSTITUTO DE GEOFISICA, UNAM

================================================================================
DATOS DE ESTE REGISTRO:
HORA DE LA PRIMERA MUESTRA (GMT)       : 02:08:03
EXACTITUD DEL TIEMPO (s)               : 
DURACION DEL REGISTRO (s), C1-C6       : 78.08/78.08/78.08
DURACION DEL REGISTRO (s), C7-C12      : 
NUM. TOTAL DE MUESTRAS, C1-C6          : 15616/15616/15616
NUM. TOTAL DE MUESTRAS, C7-C12         : 
ACEL. MAX.(Gal), C1-C6                 : 1.5636/-.5556/-1.7065
ACEL. MAX., C1-C6, EN LA MUESTRA       : 3078/282/3107
ACEL. MAX.(Gal), C7-C12                : 
ACEL. MAX., C7-C12, EN LA MUESTRA      : 
UNIDADES DE LOS DATOS                  : Gal
FACTOR DE DECIMACION                   : 1
FORMATO DATOS (FORTRAN,10 campos/dato) : 3F10.4


===============================================================================
CALIDAD DEL ACELEROGRAMA:
REGISTRO DIGITAL COMPLETO, CARECE DE TIEMPO ABSOLUTO.


===============================================================================
COMENTARIOS:

CADA UNO DE LOS CANALES SE ENCUENTRA AJUSTADO POR LINEA BASE MEDIANTE LA
SUSTRACCION DEL PROMEDIO DE LAS ACELERACIONES EN EL TIEMPO.

MODELO DEL ACELEROGRAFO : SSA-2 (KINEMETRICS)









===============================================================================
DATOS DE ACELERACION:
---------+---------+---------+---------+---------+---------+---------+---------+
   CANAL-1   CANAL-2   CANAL-3   CANAL-4   CANAL-5   CANAL-6   CANAL-7   CANAL-8
      N00E        +V      N90E
---------+---------+---------+---------+---------+---------+---------+---------+
[...]
    -.3895    -.0674    -.7301
    -.3895    -.0674    -.2418
    -.3895    -.0674    -.7301
    -.3895    -.0674    -.7301
     .0988    -.0674    -.7301
    -.3895    -.0674    -.7301
    -.3895    -.0674    -.7301
    -.3895    -.0674    -.7301
    -.3895    -.0674    -.7301
    -.3895    -.0674    -.7301
    -.3895    -.0674    -.7301
    -.3895    -.0674    -.7301
     .0988    -.0674    -.7301
    -.3895    -.0674   -1.2183
    -.3895    -.0674    -.7301
    -.3895    -.0674    -.7301
    -.3895    -.0674    -.7301
    -.3895    -.0674    -.7301
    -.3895    -.0674   -1.2183
    -.3895    -.0674   -1.2183
    -.3895    -.0674   -1.2183
     .0988    -.0674   -1.2183
     .0988    -.0674   -1.2183
    -.3895    -.0674   -1.2183
    -.3895    -.0674   -1.2183
    -.3895    -.0674   -1.2183
    -.3895    -.0674   -1.2183
     .0988    -.0674   -1.2183
     .0988    -.0674   -1.2183
     .0988    -.0674   -1.2183
     .0988    -.0674   -1.2183
    -.3895    -.0674   -1.2183
     .0988    -.0674   -1.2183
     .0988    -.0674   -1.2183
     .0988    -.0674   -1.2183
     .0988    -.0674   -1.2183
     .0988    -.0674   -1.2183
     .0988    -.0674   -1.2183
     .0988    -.0674   -1.2183
     .0988    -.0674    -.7301
     .0988    -.0674    -.7301
     .0988    -.0674   -1.2183
     .0988    -.0674    -.7301
     .0988    -.0674    -.7301
     .0988    -.0674    -.7301
     .0988    -.0674    -.7301
     .0988    -.0674    -.7301
     .0988    -.0674    -.7301
     .0988    -.0674    -.7301
     .0988    -.0674    -.2418
     .0988     .4209    -.2418
     .0988     .4209    -.2418
     .0988     .4209    -.2418
     .0988    -.0674    -.2418
     .5871     .4209    -.2418
     .5871     .4209    -.2418
     .5871     .4209     .2464
     .5871    -.0674     .2464
     .0988    -.0674     .2464
     .0988    -.0674     .2464
     .5871    -.0674     .2464
     .5871    -.0674     .2464
     .5871    -.0674     .2464
     .5871    -.0674     .2464
     .0988    -.0674     .7347
     .0988    -.0674     .7347
     .5871    -.0674     .7347
     .5871    -.0674     .7347
     .5871    -.0674     .2464
     .5871    -.0674     .7347
     .5871    -.0674     .7347
     .5871    -.0674     .7347
     .5871    -.0674     .7347
     .5871    -.0674     .7347
     .5871    -.0674     .7347
     .5871    -.0674     .7347
     .5871    -.0674    1.2229
     .5871     .4209    1.2229
     .5871     .4209     .7347
     .5871     .4209     .7347
     .5871    -.0674     .7347
     .5871     .4209     .7347
     .5871     .4209     .7347
     .5871     .4209     .7347
     .5871     .4209     .7347
     .5871     .4209     .7347
     .0988     .4209     .7347
     .5871     .4209     .7347
     .5871     .4209     .7347
     .0988     .4209     .2464
     .0988    -.0674     .7347
     .0988    -.0674     .2464
     .5871    -.0674     .2464
     .0988    -.0674     .2464
     .0988    -.0674     .2464
     .0988    -.0674     .2464
     .0988    -.0674     .2464
     .0988    -.0674     .2464
     .0988    -.0674     .2464
     .0988    -.0674     .2464
     .0988    -.0674     .2464
     .0988    -.0674     .2464
     .0988    -.0674     .2464
    -.3895    -.0674     .2464
     .0988    -.0674     .2464
    -.3895    -.0674    -.2418
    -.3895    -.0674    -.2418
    -.3895    -.0674    -.2418
    -.3895    -.0674    -.2418
    -.3895    -.0674    -.2418
    -.3895    -.0674    -.2418
    -.3895    -.0674    -.2418
    -.3895    -.0674    -.2418
    -.3895    -.0674    -.2418
    -.3895    -.0674    -.2418
    -.3895    -.0674    -.2418
    -.3895    -.0674    -.2418
    -.3895    -.0674    -.2418
    -.3895    -.0674    -.2418
    -.8776    -.0674    -.2418
    -.8776    -.0674    -.2418
    -.8776    -.0674    -.2418
    -.8776    -.0674    -.2418
    -.8776    -.0674    -.2418
    -.8776    -.0674    -.2418
    -.8776    -.0674    -.2418
    -.8776    -.0674    -.2418
    -.8776    -.0674    -.2418
    -.8776    -.0674    -.2418
    -.8776    -.0674    -.2418
    -.8776    -.0674    -.2418
    -.8776    -.0674    -.2418
    -.8776    -.0674    -.2418
    -.8776    -.0674    -.2418
    -.8776    -.5556    -.2418
    -.8776    -.5556    -.2418
    -.8776    -.5556    -.2418
    -.8776    -.5556    -.2418
    -.8776    -.5556    -.2418
    -.8776    -.5556    -.2418
    -.8776    -.5556    -.2418
    -.8776    -.5556    -.2418
    -.8776    -.5556    -.2418
    -.8776    -.5556    -.2418
    -.8776    -.5556    -.2418
    -.8776    -.5556    -.2418
    -.3895    -.5556    -.2418
    -.3895    -.5556    -.2418
    -.3895    -.5556    -.2418
    -.8776    -.0674    -.2418
    -.3895    -.0674    -.2418
    -.3895    -.0674    -.2418
    -.3895    -.0674    -.2418
    -.3895    -.0674    -.2418
    -.3895    -.0674    -.2418
    -.3895    -.0674    -.2418
    -.3895    -.0674    -.2418
    -.3895    -.0674    -.2418
    -.3895    -.0674    -.2418
    -.3895    -.0674     .2464
    -.3895    -.5556    -.2418
    -.3895    -.0674    -.2418
    -.3895    -.0674     .2464
    -.3895    -.5556     .2464
    -.3895    -.5556     .2464
    -.3895    -.5556    -.2418
    -.3895    -.5556     .2464
     .0988    -.5556     .2464
    -.3895    -.5556     .2464
     .0988    -.5556     .2464
     .0988    -.5556    -.2418
     .0988    -.5556     .2464
     .0988    -.5556     .2464
     .0988    -.5556     .2464
     .0988    -.5556     .2464
     .0988    -.5556     .2464
     .0988    -.5556     .2464
     .0988    -.0674     .2464
     .0988    -.0674     .2464
     .0988    -.0674     .2464
     .0988    -.0674     .2464
     .0988    -.0674     .2464
     .0988    -.0674     .2464
     .0988    -.0674     .2464
     .0988    -.0674     .2464
     .0988    -.0674     .2464
     .0988    -.0674     .2464
     .0988    -.0674     .2464
     .0988    -.0674     .2464
     .0988    -.0674     .2464
     .0988    -.0674     .2464
     .0988    -.0674     .2464
     .5871     .4209     .2464
     .0988     .4209     .2464
     .0988     .4209     .2464
     .0988     .4209     .2464
     .0988     .4209     .2464
     .0988     .4209     .2464
     .0988     .4209     .2464
     .0988     .4209     .2464
     .0988     .4209     .2464
     .0988     .4209     .2464
     .0988     .4209     .2464
     .0988     .4209     .2464
     .0988     .4209     .2464
     .0988     .4209     .2464
     .0988     .4209    -.2418
     .0988     .4209     .2464
     .0988     .4209    -.2418
     .0988     .4209    -.2418
     .0988     .4209    -.2418
     .0988     .4209    -.2418
     .0988     .4209    -.2418
     .0988     .4209    -.2418
     .0988     .4209    -.2418
     .0988     .4209    -.2418
     .0988     .4209    -.2418
     .5871     .4209    -.2418
     .5871    -.0674    -.2418
     .0988    -.0674    -.2418
     .0988    -.0674    -.7301
     .5871    -.0674    -.2418
     .5871    -.0674    -.2418
     .0988    -.0674    -.7301
     .0988    -.0674    -.7301
     .0988    -.0674    -.7301
     .0988    -.0674    -.7301
     .0988    -.0674    -.2418
     .0988    -.0674    -.7301
     .0988    -.0674    -.7301
     .0988    -.0674    -.7301
     .0988    -.0674    -.7301
     .0988    -.0674    -.7301
     .0988    -.0674    -.7301
     .0988    -.0674    -.7301
     .0988    -.0674    -.7301
     .0988    -.0674    -.7301
     .0988    -.0674    -.7301
     .0988    -.0674    -.7301
     .0988    -.0674    -.7301
    -.3895    -.0674    -.7301
     .0988    -.0674    -.7301
    -.3895    -.0674    -.7301
    -.3895    -.0674    -.7301
    -.3895    -.0674    -.7301
    -.3895    -.0674    -.7301
    -.3895    -.0674    -.7301
    -.3895    -.0674    -.7301
    -.3895    -.0674    -.7301
    -.3895    -.0674    -.7301
    -.3895    -.0674    -.7301
    -.3895    -.5556    -.7301
    -.3895    -.5556    -.7301
    -.8776    -.5556    -.7301
    -.8776    -.0674    -.7301
    -.8776    -.5556    -.7301
    -.8776    -.5556    -.7301
    -.8776    -.0674    -.7301
    -.8776    -.5556    -.7301
    -.8776    -.0674    -.7301
    -.8776    -.0674    -.7301
    -.8776    -.0674    -.2418
    -.8776    -.0674    -.2418
    -.8776    -.5556    -.2418
    -.8776    -.0674    -.2418
    -.8776    -.0674    -.2418
    -.8776    -.0674    -.2418
    -.8776    -.0674    -.2418
    -.8776    -.0674    -.2418
    -.8776    -.0674    -.2418
    -.8776    -.0674    -.2418
    -.8776    -.0674    -.2418
    -.8776    -.0674     .2464
    -.8776    -.0674    -.2418
    -.8776    -.0674     .2464
    -.8776    -.0674     .2464
    -.8776    -.0674     .2464
    -.8776    -.0674     .2464
    -.8776    -.0674     .2464
    -.8776    -.0674     .2464
    -.8776    -.0674     .2464
    -.8776    -.0674     .7347
    -.3895    -.0674     .7347
    -.3895    -.0674     .7347
    -.3895    -.0674     .7347
    -.3895    -.0674     .7347
    -.3895     .4209     .7347
    -.3895    -.0674     .7347
    -.3895    -.0674     .7347
    -.3895    -.0674    1.2229
    -.3895     .4209    1.2229
     .0988     .4209    1.2229
     .0988    -.0674    1.2229
     .0988    -.0674    1.2229
     .0988    -.0674    1.2229
     .0988    -.0674    1.2229
     .0988    -.0674    1.2229
     .5871    -.0674    1.2229
     .5871    -.0674    1.2229
     .5871    -.0674    1.2229
     .5871    -.0674    1.2229
     .5871    -.0674    1.2229
     .5871    -.0674    1.2229
     .5871    -.0674    1.2229
    1.0753    -.0674    1.2229
    1.0753    -.0674    1.2229
    1.0753    -.0674    1.2229
    1.0753    -.0674    1.2229
    1.0753    -.0674    1.2229
    1.0753    -.0674    1.2229
    1.0753    -.0674     .7347
    1.0753    -.0674     .7347
    1.0753    -.0674     .7347
    1.0753     .4209     .7347
    1.5636     .4209     .7347
    1.5636     .4209     .7347
    1.5636     .4209     .7347
    1.5636     .4209     .7347
    1.5636     .4209     .7347
    1.5636     .4209     .7347
    1.5636     .4209     .2464
    1.5636     .4209     .2464
    1.5636     .4209     .2464
    1.5636     .4209     .2464
    1.5636     .4209     .2464
    1.5636     .4209    -.2418
    1.5636     .4209    -.2418
    1.5636     .4209    -.2418
    1.5636     .4209    -.2418
    1.0753     .4209    -.2418
    1.0753     .4209    -.7301
    1.0753     .4209    -.7301
    1.0753     .4209    -.7301
    1.0753    -.0674    -.7301
    1.0753    -.0674   -1.2183
     .5871    -.0674    -.7301
     .5871    -.0674   -1.2183
     .5871    -.0674   -1.2183
     .5871    -.0674   -1.2183
     .5871    -.0674   -1.2183
     .5871    -.0674   -1.2183
     .5871    -.0674   -1.2183
     .5871    -.0674   -1.2183
     .0988    -.0674   -1.7065
     .0988    -.0674   -1.7065
     .0988    -.0674   -1.2183
     .0988    -.0674   -1.2183
     .0988    -.0674   -1.2183
     .0988    -.0674   -1.2183
     .0988    -.0674   -1.2183
     .0988    -.0674   -1.2183
     .0988    -.0674   -1.2183
    -.3895    -.0674   -1.2183
    -.3895    -.0674   -1.2183
    -.3895    -.0674   -1.2183
    -.3895    -.0674    -.7301
    -.3895    -.0674    -.7301
    -.3895    -.0674    -.7301
    -.3895    -.0674    -.7301
    -.3895    -.0674    -.7301
    -.8776    -.0674    -.7301
    -.8776    -.0674    -.7301
    -.8776    -.0674    -.7301
    -.8776    -.0674    -.7301
    -.8776    -.0674    -.7301
    -.8776    -.0674    -.7301
    -.8776    -.0674    -.7301
    -.8776    -.0674    -.7301
    -.8776    -.0674    -.7301
    -.8776    -.0674    -.2418
    -.8776    -.0674    -.2418
    -.8776    -.0674    -.2418
    -.8776    -.0674    -.2418
   -1.3659    -.0674    -.2418
    -.8776    -.0674    -.2418
   -1.3659    -.0674    -.2418
   -1.3659    -.0674    -.2418
   -1.3659    -.0674    -.2418
   -1.3659    -.0674     .2464
   -1.3659    -.0674     .2464
   -1.3659    -.0674    -.2418
    -.8776    -.0674     .2464
   -1.3659    -.0674     .2464
   -1.3659    -.0674     .2464
   -1.3659    -.5556     .2464
   -1.3659    -.5556     .2464
    -.8776    -.5556     .2464
    -.8776    -.0674     .2464
    -.8776    -.5556     .2464
    -.8776    -.5556     .2464
    -.8776    -.5556     .2464
    -.8776    -.5556     .2464
    -.8776    -.5556     .2464
    -.8776    -.5556     .2464
    -.8776    -.0674     .2464
    -.8776    -.0674     .2464
    -.3895    -.0674     .2464
    -.3895    -.0674     .2464
    -.3895    -.0674     .2464
    -.3895    -.0674     .2464
    -.3895    -.0674     .2464
    -.3895    -.0674     .2464
    -.3895    -.0674     .2464
     .0988    -.0674     .2464
     .0988    -.0674     .2464
     .0988    -.0674     .2464
     .0988    -.0674     .2464
     .0988    -.0674    -.2418
     .0988    -.0674    -.2418
     .0988    -.0674    -.2418
     .0988    -.0674     .2464
     .0988    -.0674    -.2418
     .5871    -.0674    -.2418
     .5871    -.0674    -.2418
     .5871    -.0674    -.2418
     .5871    -.0674    -.2418
     .5871    -.0674    -.2418
     .5871    -.0674    -.2418
     .5871    -.0674    -.2418
     .5871    -.0674    -.2418
     .5871    -.0674    -.2418
     .5871    -.0674    -.2418
     .5871    -.0674    -.2418
     .5871    -.0674    -.2418
     .0988    -.0674    -.2418
     .0988    -.0674    -.2418
     .5871    -.0674    -.2418
     .5871    -.0674    -.2418
     .0988    -.0674    -.2418
     .5871    -.0674    -.2418
     .5871    -.0674    -.2418
     .0988    -.0674    -.2418
     .5871    -.0674    -.2418
     .0988    -.0674    -.2418
     .0988    -.0674    -.2418
     .0988    -.0674    -.2418
     .0988    -.0674    -.2418
     .0988    -.0674    -.2418
     .0988    -.0674    -.2418
     .0988    -.0674    -.2418
     .0988    -.0674    -.2418
     .0988    -.0674    -.2418
     .0988    -.0674    -.2418
    -.3895    -.0674    -.2418
    -.3895    -.0674    -.2418
    -.3895    -.0674    -.2418
    -.3895    -.0674    -.2418
    -.3895    -.0674    -.2418
    -.3895    -.0674    -.2418
    -.3895    -.0674    -.2418
    -.8776    -.0674    -.2418
    -.8776    -.0674    -.2418
    -.3895    -.0674    -.2418
    -.8776    -.5556    -.2418
    -.3895    -.0674    -.2418
    -.8776    -.0674     .2464
    -.8776    -.5556    -.2418
    -.8776    -.0674     .2464
    -.8776    -.0674    -.2418
    -.8776    -.5556    -.2418
    -.8776    -.5556    -.2418
    -.8776    -.5556    -.2418
    -.8776    -.0674     .2464
    -.8776    -.5556     .2464
    -.8776    -.5556     .2464
    -.8776    -.0674     .2464
    -.8776    -.0674     .2464
    -.8776    -.0674     .2464
    -.8776    -.0674     .2464
    -.8776    -.0674     .2464
    -.8776    -.0674     .2464
    -.8776    -.0674     .2464
    -.8776    -.0674     .2464
    -.8776    -.0674     .2464
    -.8776    -.0674     .2464
    -.8776    -.0674     .2464
    -.8776    -.0674     .2464
    -.8776    -.0674     .2464
    -.8776    -.0674     .2464
    -.8776    -.0674     .2464
    -.8776    -.0674     .2464
    -.8776    -.0674     .2464
    -.3895    -.0674     .2464
    -.3895    -.0674     .2464
    -.3895    -.0674     .2464
    -.3895    -.0674     .2464
    -.3895     .4209     .2464
    -.3895    -.0674     .2464
    -.3895    -.0674     .2464
    -.3895    -.0674     .2464
    -.3895    -.0674     .2464
