********************************************************************************
           RED INTERUNIVERSITARIA DE INSTRUMENTACION SISIMICA (RIIS)
 AREA DE ESTRUCTURAS, UNIVERSIDAD AUTONOMA METROPOLITANA - UNIDAD AZCAPOTZALCO
         AV. SAN PABLO 180; COL. REYNOSA TAMAULIPAS; MEXICO D.F. 02200.
       TELS: 53189455; FAX: 53189085; e-mail: agb@azc.uam.mx
********************************************************************************
ARCHIVO ESTANDAR DE ACELERACION:
VERSION DEL FORMATO                    : 2.0
NOMBRE DEL ARCHIVO                     : RIDA0301.221
FECHA Y HORA DE CREACION               : NOVIEMBRE, 2004
REF. CATALOGO ACELEROGRAMAS, SMIS 1996 : 


================================================================================
DATOS DE LA ESTACION:
NOMBRE DE LA ESTACION                  : UAM AZCAPOTZALCO
CLAVE DE LA ESTACION                   : RIDA
LOCALIZACION DE LA ESTACION            : AVENIDA SAN PABLO Y EJE 5, COLONIA
                                       : REYNOSA, PLANTEL AZCAPOTZALCO, JARDIN
                                       : ENTRE EDIFICIO "H" Y "E", MEXICO, D.F.
                                       :
                                       :
COORDENADAS DE LA ESTACION             : 19.520 LAT. N 
                                       : 99.190 LONG. W 
ALTITUD (msnm)                         : 2240
TIPO DE SUELO                          : LIMO ARENOSO
                                       : 
                                       : 
INSTITUCION RESPONSABLE                : RED INTERUNIVERSITARIA DE
                                       : INSTRUMENTACION SISMICA (RIIS)

================================================================================
DATOS DEL ACELEROGRAFO:
MODELO DEL ACELEROGRAFO                : SSA-2
NUMERO DE SERIE DEL ACELEROGRAFO       : 1561
NUMERO DE CANALES                      : 3
ORIENTACION C1-C6 (rumbo;orientacion)  : /N00E/+V/N90E
ORIENTACION C7-C12 (rumbo;orientacion) : 
VEL. DE MUESTREO, C1-C6 (muestras/s)   : /200/200/200
VEL. DE MUESTREO, C7-C12 (muestras/s)  : 
ESC. COMPLETA DE SENSORES, C1-C6, (g)  : /1.0/1.0/1.0
ESC. COMPLETA DE SENSORES, C7-C12, (g) : 
FREC. NAT. DE SENSORES, C1-C6, (Hz)    : /52.4/52.5/53.7
FREC. NAT. DE SENSORES, C7-C12, (Hz)   : 
AMORTIGUAMIENTO DE SENSORES, C1-C6     : /0.64/0.64/0.64
AMORTIGUAMIENTO DE SENSORES, C7-C12    : 
INTERVALO DE MUESTREO, C1-C6, (s)      : /0.005/0.005/0.005
INTERVALO DE MUESTREO, C7-C12, (s)     : 
UMBRAL DE DISPARO, C1-C6, (Gal)        : /1/1/1
UMBRAL DE DISPARO, C7-C12, (Gal)       : 
MEMORIA DE PREEVENTO (s)               : 15
TIEMPO DE POSEVENTO (s)                : 60


================================================================================ 
DATOS DEL SISMO:
FECHA DEL SISMO (GMT)                  : 22/ENE/2003                       
HORA EPICENTRO (GMT)                   : 02:06:35                          
MAGNITUD(ES)                           : /Mb=6.5/Ms=7.6/Ma=7.2/Me=7.6
COORDENADAS DEL EPICENTRO              : 18.60 LAT. N                      
                                       : 104.22 LONG. W                    
PROFUNDIDAD FOCAL (km)                 : 9                                
FUENTES DE LOS DATOS EPICENTRALES      : SSN                               
                                       : SERVICIO SISMOLOGICO NACIONAL     

================================================================================
DATOS DE ESTE REGISTRO:
HORA DE LA PRIMERA MUESTRA (GMT)       : 02:06:35
EXACTITUD DEL TIEMPO (s)               : 
DURACION DEL REGISTRO (s), C1-C6       : 133.12/133.12/133.12
DURACION DEL REGISTRO (s), C7-C12      : 
NUM. TOTAL DE MUESTRAS, C1-C6          : 26624/26624/26624
NUM. TOTAL DE MUESTRAS, C7-C12         : 
ACEL. MAX.(Gal), C1-C6                 : 8.0684/-1.9672/8.4068
ACEL. MAX., C1-C6, EN LA MUESTRA       : 5837/4709/4087
ACEL. MAX.(Gal), C7-C12                : 
ACEL. MAX., C7-C12, EN LA MUESTRA      : 
UNIDADES DE LOS DATOS                  : Gal
FACTOR DE DECIMACION                   : 1
FORMATO DATOS (FORTRAN,10 campos/dato) : 3F10.4


===============================================================================
CALIDAD DEL ACELEROGRAMA:
REGISTRO DIGITAL COMPLETO, CARECE DE TIEMPO ABSOLUTO.


===============================================================================
COMENTARIOS:

CADA UNO DE LOS CANALES SE ENCUENTRA AJUSTADO POR LINEA BASE MEDIANTE LA
SUSTRACCION DEL PROMEDIO DE LAS ACELERACIONES EN EL TIEMPO.

MODELO DEL ACELEROGRAFO : SSA-2 (KINEMETRICS)









===============================================================================
DATOS DE ACELERACION:
---------+---------+---------+---------+---------+---------+---------+---------+
   CANAL-1   CANAL-2   CANAL-3   CANAL-4   CANAL-5   CANAL-6   CANAL-7   CANAL-8
      N00E        +V      N90E
---------+---------+---------+---------+---------+---------+---------+---------+
[...]
     .7447     .4740    -.3848
     .7447     .4740    -.3848
     .7447     .4740    -.3848
     .7447     .4740    -.3848
     .7447     .4740    -.3848
     .7447     .4740    -.3848
     .7447     .4740    -.3848
     .7447    -.0142    -.3848
     .7447    -.0142    -.3848
     .7447    -.0142    -.3848
     .7447    -.0142    -.3848
     .7447    -.0142    -.3848
     .7447    -.0142    -.3848
     .7447    -.0142    -.3848
     .7447    -.0142    -.3848
     .7447    -.0142    -.3848
     .7447    -.0142    -.3848
     .2563    -.0142    -.3848
     .2563    -.0142    -.3848
     .2563    -.0142    -.3848
     .2563    -.0142    -.3848
     .2563    -.0142    -.3848
     .2563    -.5025    -.3848
     .2563    -.5025    -.3848
     .2563    -.5025    -.3848
     .2563    -.5025    -.3848
     .2563    -.5025    -.3848
     .2563    -.5025    -.3848
     .2563    -.5025    -.3848
     .2563    -.5025    -.3848
     .2563    -.5025    -.3848
     .2563    -.5025    -.3848
     .2563    -.5025     .1035
     .2563    -.5025     .1035
     .2563    -.5025     .1035
    -.2319    -.5025     .1035
    -.2319    -.5025     .1035
    -.2319    -.9907     .1035
    -.2319    -.5025     .1035
    -.2319    -.5025     .1035
    -.2319    -.5025     .1035
    -.2319    -.9907     .1035
    -.2319    -.9907     .1035
    -.2319    -.9907     .5918
    -.2319    -.9907     .5918
    -.2319    -.9907     .5918
    -.2319    -.9907     .5918
    -.2319    -.9907     .5918
    -.2319    -.9907     .5918
    -.2319    -.9907     .5918
    -.2319    -.9907     .5918
    -.2319    -.9907     .5918
    -.7201    -.9907     .5918
    -.2319    -.9907     .5918
    -.2319    -.9907     .5918
    -.2319    -.9907     .5918
    -.2319    -.9907    1.0800
    -.2319    -.9907     .5918
    -.2319    -.9907    1.0800
    -.2319    -.9907    1.0800
    -.2319    -.9907    1.0800
    -.2319    -.9907    1.0800
    -.2319    -.9907    1.0800
    -.2319    -.9907    1.0800
    -.2319    -.9907    1.5682
    -.2319    -.9907    1.5682
    -.2319    -.5025    1.5682
    -.2319    -.5025    2.0565
    -.2319    -.5025    2.0565
    -.2319    -.5025    2.0565
    -.2319    -.5025    2.0565
    -.2319    -.5025    2.5450
    -.2319    -.5025    2.5450
    -.2319    -.5025    2.5450
    -.2319    -.5025    2.5450
    -.2319    -.5025    2.5450
    -.2319    -.5025    2.5450
     .2563    -.5025    2.5450
     .2563    -.5025    3.0335
     .2563    -.5025    3.0335
     .2563    -.5025    3.0335
     .2563    -.5025    3.0335
     .2563    -.5025    3.0335
     .2563    -.5025    3.5220
     .2563    -.5025    3.5220
     .7447    -.5025    3.5220
     .7447    -.5025    3.5220
     .7447    -.5025    3.5220
     .7447    -.5025    3.5220
     .7447    -.5025    4.0104
     .7447    -.5025    4.0104
     .7447    -.5025    4.0104
     .7447    -.5025    4.0104
     .7447    -.0142    4.0104
     .7447    -.0142    4.0104
    1.2329    -.0142    4.0104
    1.2329    -.0142    4.0104
    1.2329    -.0142    4.0104
    1.2329    -.0142    4.0104
    1.2329    -.0142    4.0104
    1.2329    -.0142    4.0104
    1.7211    -.0142    4.0104
    1.7211    -.0142    4.0104
    1.7211    -.0142    4.0104
    1.7211    -.0142    4.0104
    1.7211    -.0142    4.0104
    1.7211    -.0142    3.5220
    1.7211    -.0142    3.5220
    2.2093    -.0142    3.5220
    2.2093    -.0142    3.5220
    2.2093    -.0142    3.5220
    2.2093    -.0142    3.5220
    2.2093    -.0142    3.0335
    2.2093    -.0142    3.0335
    2.2093    -.0142    3.0335
    2.2093    -.0142    2.5450
    2.2093    -.0142    2.5450
    2.2093    -.0142    2.5450
    2.2093    -.0142    2.0565
    2.2093    -.0142    2.0565
    2.2093    -.0142    1.5682
    2.2093    -.0142    1.5682
    2.2093    -.0142    1.5682
    2.2093    -.0142    1.0800
    2.2093    -.0142    1.0800
    2.2093    -.0142     .5918
    2.2093    -.0142     .5918
    2.2093    -.0142     .1035
    2.2093    -.0142     .1035
    2.2093    -.0142     .1035
    1.7211    -.0142    -.3848
    1.7211    -.0142    -.3848
    1.7211    -.0142    -.8730
    1.7211    -.0142    -.8730
    1.7211    -.0142   -1.3612
    1.7211    -.0142   -1.3612
    1.7211    -.0142   -1.3612
    1.7211    -.0142   -1.8495
    1.7211    -.0142   -1.8495
    1.2329    -.0142   -2.3377
    1.2329    -.0142   -2.3377
    1.2329    -.5025   -2.3377
    1.2329    -.5025   -2.8260
     .7447    -.5025   -2.8260
     .7447    -.5025   -2.8260
     .7447    -.5025   -3.3142
     .7447    -.5025   -3.3142
     .2563    -.5025   -3.8025
     .2563    -.5025   -3.8025
     .2563    -.5025   -3.8025
    -.2319    -.5025   -3.8025
    -.2319    -.5025   -4.2908
    -.2319    -.5025   -4.2908
    -.2319    -.5025   -4.2908
    -.7201    -.5025   -4.2908
    -.7201    -.5025   -4.7790
   -1.2083    -.5025   -4.7790
   -1.2083    -.5025   -4.7790
   -1.2083    -.5025   -4.7790
   -1.2083    -.5025   -4.7790
   -1.2083    -.5025   -4.7790
   -1.6966    -.5025   -4.7790
   -1.6966    -.5025   -4.7790
   -1.6966    -.5025   -4.7790
   -1.6966    -.5025   -4.7790
   -1.6966    -.5025   -4.7790
   -1.6966    -.5025   -4.7790
   -2.1849    -.5025   -4.7790
   -2.1849    -.5025   -4.2908
   -2.1849    -.5025   -4.2908
   -2.1849    -.5025   -4.2908
   -2.1849    -.5025   -4.2908
   -2.6731    -.5025   -4.2908
   -2.6731    -.5025   -4.2908
   -2.6731    -.5025   -3.8025
   -2.6731    -.5025   -3.8025
   -2.6731    -.5025   -3.8025
   -2.6731    -.5025   -3.8025
   -2.6731    -.5025   -3.3142
   -2.6731    -.5025   -3.3142
   -2.6731    -.5025   -3.3142
   -2.6731    -.5025   -2.8260
   -2.6731    -.5025   -2.8260
   -2.6731    -.5025   -2.8260
   -2.6731    -.5025   -2.3377
   -2.6731    -.5025   -2.3377
   -2.6731    -.5025   -2.3377
   -2.6731    -.5025   -1.8495
   -2.6731    -.5025   -1.8495
   -2.6731    -.5025   -1.3612
   -2.6731    -.5025   -1.3612
   -2.1849    -.5025   -1.3612
   -2.1849    -.5025   -1.3612
   -2.1849    -.5025    -.8730
   -2.1849    -.5025    -.8730
   -2.1849    -.5025    -.3848
   -1.6966    -.5025    -.3848
   -1.6966    -.0142    -.3848
   -1.6966    -.0142     .1035
   -1.6966    -.0142     .1035
   -1.6966    -.0142     .1035
   -1.2083    -.0142     .5918
   -1.2083    -.0142     .5918
   -1.2083    -.0142     .5918
   -1.2083    -.0142     .5918
   -1.2083    -.0142    1.0800
    -.7201    -.0142    1.0800
    -.7201    -.0142    1.0800
    -.7201    -.0142    1.0800
    -.7201    -.0142    1.5682
    -.7201    -.0142    1.0800
    -.2319    -.0142    1.0800
    -.2319    -.0142    1.0800
    -.2319    -.0142    1.5682
    -.2319     .4740    1.5682
    -.2319    -.0142    1.5682
    -.2319     .4740    1.5682
    -.2319     .4740    1.5682
    -.2319     .4740    1.5682
     .2563     .4740    1.5682
     .2563     .4740    1.5682
     .2563     .4740    1.0800
     .2563     .4740    1.5682
     .2563     .4740    1.0800
     .2563     .4740    1.0800
     .2563     .4740    1.0800
     .2563     .4740    1.0800
     .2563     .4740    1.0800
     .2563     .4740    1.0800
     .2563     .4740     .5918
     .2563     .4740     .5918
     .2563     .4740     .5918
     .2563     .4740     .1035
     .2563     .4740     .1035
     .2563     .4740     .1035
     .2563     .4740     .1035
     .2563     .4740     .1035
     .2563     .4740    -.3848
     .2563     .4740    -.3848
     .2563     .4740    -.8730
     .2563     .4740    -.8730
     .2563     .4740    -.8730
     .2563     .4740   -1.3612
     .2563     .4740   -1.3612
     .2563     .4740   -1.3612
    -.2319     .4740   -1.8495
    -.2319     .4740   -1.8495
    -.2319     .4740   -2.3377
    -.2319     .4740   -2.3377
    -.2319     .4740   -2.8260
    -.2319     .4740   -2.8260
    -.2319     .4740   -2.8260
    -.2319     .4740   -3.3142
    -.2319     .4740   -3.3142
    -.2319     .4740   -3.3142
    -.2319    -.0142   -3.3142
    -.2319     .4740   -3.8025
    -.2319     .4740   -3.8025
    -.2319     .4740   -3.8025
    -.2319     .4740   -4.2908
    -.2319    -.0142   -4.2908
    -.2319     .4740   -4.2908
    -.2319     .4740   -4.2908
    -.7201     .4740   -4.7790
    -.2319     .4740   -4.7790
    -.2319     .4740   -4.7790
    -.7201     .4740   -5.2672
    -.2319     .4740   -5.2672
    -.7201     .4740   -5.2672
    -.2319     .4740   -5.2672
    -.7201     .4740   -5.2672
    -.2319     .4740   -5.2672
    -.2319     .4740   -5.2672
    -.2319     .4740   -5.2672
    -.2319     .4740   -5.2672
    -.7201     .4740   -5.2672
    -.2319     .4740   -5.2672
    -.2319     .4740   -5.2672
    -.2319     .4740   -5.2672
    -.2319     .4740   -5.2672
    -.7201     .4740   -5.2672
    -.2319     .9623   -5.2672
    -.2319     .9623   -5.2672
    -.2319     .9623   -5.2672
    -.2319     .9623   -4.7790
    -.2319     .9623   -4.7790
    -.2319     .9623   -4.7790
    -.2319     .9623   -4.7790
    -.2319     .9623   -4.2908
    -.2319     .9623   -4.2908
    -.2319     .9623   -3.8025
    -.2319     .9623   -3.8025
    -.2319     .9623   -3.3142
    -.2319     .9623   -3.3142
    -.2319    1.4505   -2.8260
    -.2319     .9623   -2.8260
    -.2319     .9623   -2.8260
    -.2319    1.4505   -2.3377
    -.2319    1.4505   -1.8495
    -.2319    1.4505   -1.8495
    -.2319    1.4505   -1.3612
    -.2319    1.4505   -1.3612
    -.2319    1.4505    -.8730
    -.2319    1.4505    -.8730
     .2563    1.4505    -.3848
     .2563    1.4505     .1035
     .2563    1.4505     .1035
     .2563    1.4505     .5918
     .2563    1.4505    1.0800
     .2563    1.4505    1.0800
     .2563    1.4505    1.5682
     .2563    1.4505    1.5682
     .2563    1.4505    2.0565
     .2563    1.4505    2.5450
     .2563    1.4505    2.5450
     .2563    1.4505    3.0335
     .2563     .9623    3.5220
     .2563     .9623    3.5220
     .7447     .9623    4.0104
     .7447     .9623    4.0104
     .7447     .9623    4.4989
     .7447     .9623    4.9874
     .7447     .4740    4.9874
     .7447     .4740    5.4759
     .7447     .4740    5.4759
     .7447     .4740    5.9644
     .7447     .4740    5.9644
     .7447     .4740    6.4529
     .7447     .4740    6.4529
     .7447     .4740    6.4529
     .7447     .4740    6.9414
     .7447     .4740    6.9414
     .7447     .4740    7.4299
     .7447     .4740    7.4299
     .7447     .4740    7.4299
     .7447    -.0142    7.4299
     .7447    -.0142    7.9183
    1.2329    -.0142    7.9183
     .7447    -.0142    7.9183
     .7447    -.0142    8.4068
     .7447    -.0142    8.4068
     .7447    -.0142    8.4068
     .7447    -.0142    8.4068
     .7447    -.5025    8.4068
     .7447    -.5025    8.4068
     .7447    -.5025    8.4068
     .7447    -.5025    8.4068
     .7447    -.5025    8.4068
     .7447    -.5025    8.4068
     .7447    -.5025    7.9183
     .7447    -.5025    7.9183
     .7447    -.5025    7.9183
    1.2329    -.5025    7.9183
    1.2329    -.5025    7.4299
    1.2329    -.5025    7.4299
     .7447    -.9907    7.4299
     .7447    -.9907    6.9414
     .7447    -.9907    6.9414
     .7447    -.9907    6.4529
     .7447    -.9907    6.4529
     .7447    -.9907    6.4529
     .7447    -.9907    5.9644
     .7447    -.5025    5.4759
     .7447    -.9907    5.4759
     .7447    -.9907    4.9874
     .2563    -.9907    4.4989
     .2563    -.9907    4.4989
     .2563    -.9907    4.0104
     .2563    -.9907    4.0104
     .2563    -.9907    3.5220
    -.2319    -.9907    3.5220
    -.2319    -.9907    3.0335
    -.2319    -.5025    3.0335
    -.2319    -.5025    2.5450
    -.2319    -.5025    2.5450
    -.7201    -.5025    2.5450
    -.7201    -.5025    2.0565
    -.7201    -.5025    2.0565
    -.7201    -.5025    1.5682
    -.7201    -.5025    1.0800
   -1.2083    -.5025    1.0800
   -1.2083    -.5025    1.0800
   -1.2083    -.5025    1.0800
   -1.2083    -.5025     .5918
   -1.2083    -.5025     .5918
   -1.6966    -.5025     .1035
   -1.6966    -.5025     .1035
   -1.6966    -.5025     .1035
   -1.6966    -.5025    -.3848
   -2.1849    -.5025    -.3848
   -2.1849    -.5025    -.3848
   -2.1849    -.5025    -.3848
   -2.1849    -.5025    -.3848
   -2.6731    -.5025    -.8730
   -2.6731    -.5025    -.8730
   -2.6731    -.5025    -.8730
   -2.6731    -.5025    -.8730
   -2.6731    -.5025    -.8730
   -3.1614    -.0142    -.8730
   -3.1614    -.0142    -.8730
   -3.1614    -.0142    -.8730
   -3.1614    -.0142    -.8730
   -3.1614    -.0142    -.8730
   -3.6496    -.5025   -1.3612
   -3.6496    -.0142    -.8730
   -3.6496    -.0142   -1.3612
   -3.6496    -.0142    -.8730
   -3.6496    -.0142    -.8730
   -3.6496    -.5025    -.8730
   -3.6496    -.5025    -.8730
   -3.6496    -.0142    -.8730
   -3.6496    -.0142    -.8730
   -3.6496    -.0142    -.8730
   -3.6496    -.0142    -.8730
   -3.6496    -.0142    -.8730
   -3.6496    -.0142    -.8730
   -3.6496    -.0142    -.8730
   -3.1614    -.0142    -.3848
   -3.6496    -.0142    -.3848
   -3.6496    -.0142    -.3848
   -3.6496    -.0142    -.3848
   -3.1614    -.0142     .1035
   -3.1614    -.0142     .1035
   -3.1614    -.0142     .1035
   -3.1614    -.0142     .5918
   -3.1614    -.0142     .5918
   -3.1614     .4740     .5918
   -2.6731     .4740     .5918
   -2.6731     .4740     .5918
   -2.6731     .4740    1.0800
   -2.6731     .4740    1.0800
   -2.6731     .4740    1.5682
   -2.6731     .4740    1.5682
   -2.6731     .4740    1.5682
   -2.1849     .4740    1.5682
   -2.1849     .4740    1.5682
   -2.1849     .4740    1.5682
   -2.1849     .4740    2.0565
   -2.1849    -.0142    2.0565
   -1.6966    -.0142    2.5450
   -1.6966    -.0142    2.5450
   -1.6966    -.0142    2.5450
   -1.6966    -.0142    2.5450
   -1.6966    -.0142    2.0565
   -1.6966    -.0142    2.0565
   -1.6966    -.0142    2.5450
   -1.6966    -.0142    2.5450
   -1.6966    -.0142    2.5450
   -1.6966    -.0142    2.0565
   -1.6966    -.0142    2.0565
   -1.6966    -.0142    2.0565
   -1.2083    -.0142    1.5682
   -1.2083    -.0142    1.5682
   -1.2083    -.0142    1.5682
   -1.2083    -.0142    1.5682
   -1.2083    -.0142    1.0800
   -1.2083    -.0142    1.0800
    -.7201    -.0142    1.0800
    -.7201    -.0142     .5918
    -.7201    -.0142     .5918
    -.7201    -.0142     .5918
    -.7201    -.0142     .1035
    -.2319    -.0142     .1035
    -.2319    -.0142    -.3848
    -.2319    -.0142    -.3848
    -.2319    -.0142    -.3848
    -.2319    -.0142    -.8730
    -.2319    -.0142    -.8730
    -.2319    -.0142   -1.3612
    -.2319    -.5025   -1.3612
    -.2319    -.5025   -1.3612
    -.2319    -.5025   -1.8495
    -.2319    -.5025   -1.8495
    -.2319    -.5025   -2.3377
    -.2319    -.5025   -2.3377
    -.2319    -.5025   -2.3377
    -.2319    -.5025   -2.3377
    -.2319    -.5025   -2.8260
    -.2319    -.5025   -2.8260
    -.2319    -.5025   -2.8260
    -.2319    -.5025   -2.8260
    -.2319    -.5025   -3.3142
     .2563    -.0142   -3.3142
    -.2319    -.5025   -3.3142
     .2563    -.0142   -3.8025
     .2563    -.0142   -3.8025
