********************************************************************************
           RED INTERUNIVERSITARIA DE INSTRUMENTACION SISIMICA (RIIS)
 AREA DE ESTRUCTURAS, UNIVERSIDAD AUTONOMA METROPOLITANA - UNIDAD AZCAPOTZALCO
         AV. SAN PABLO 180; COL. REYNOSA TAMAULIPAS; MEXICO D.F. 02200.
       TELS: 53189455; FAX: 53189085; e-mail: agb@azc.uam.mx
********************************************************************************
ARCHIVO ESTANDAR DE ACELERACION:
VERSION DEL FORMATO                    : 2.0
NOMBRE DEL ARCHIVO                     : RIDI0301.221
FECHA Y HORA DE CREACION               : NOVIEMBRE, 2004
REF. CATALOGO ACELEROGRAMAS, SMIS 1996 : 


================================================================================
DATOS DE LA ESTACION:
NOMBRE DE LA ESTACION                  : UAM IZTAPALAPA
CLAVE DE LA ESTACION                   : RIDI
LOCALIZACION DE LA ESTACION            : AVENIDA MICHOACAN ESQUINA LA PURISIMA,
                                       : COLONIA VICENTINA, PLANTEL IZTAPALAPA
                                       : FRENTE AL EDIFICIO "O", MEXICO, D.F.
                                       :
                                       :
COORDENADAS DE LA ESTACION             : 19.360 LAT. N 
                                       : 99.060 LONG. W 
ALTITUD (msnm)                         : 2235
TIPO DE SUELO                          : LIMOS Y ARENAS ARCILLOSAS
                                       : 
                                       : 
INSTITUCION RESPONSABLE                : RED INTERUNIVERSITARIA DE
                                       : INSTRUMENTACION SISMICA (RIIS)

================================================================================
DATOS DEL ACELEROGRAFO:
MODELO DEL ACELEROGRAFO                : SSA-2                         
NUMERO DE SERIE DEL ACELEROGRAFO       : 1009                          
NUMERO DE CANALES                      : 3                             
ORIENTACION C1-C6 (rumbo;orientacion)  : /N00E/+V/N90E                 
ORIENTACION C7-C12 (rumbo;orientacion) :                               
VEL. DE MUESTREO, C1-C6 (muestras/s)   : /200/200/200                  
VEL. DE MUESTREO, C7-C12 (muestras/s)  :                               
ESC. COMPLETA DE SENSORES, C1-C6, (g)  : /1.0/1.0/1.0                  
ESC. COMPLETA DE SENSORES, C7-C12, (g) :                               
FREC. NAT. DE SENSORES, C1-C6, (Hz)    : /50.0/50.3/50.7               
FREC. NAT. DE SENSORES, C7-C12, (Hz)   :                               
AMORTIGUAMIENTO DE SENSORES, C1-C6     : /0.66/0.67/0.66               
AMORTIGUAMIENTO DE SENSORES, C7-C12    :                               
INTERVALO DE MUESTREO, C1-C6, (s)      : /0.005/0.005/0.005            
INTERVALO DE MUESTREO, C7-C12, (s)     :                               
UMBRAL DE DISPARO, C1-C6, (Gal)        : /1/1/1                        
UMBRAL DE DISPARO, C7-C12, (Gal)       :                               
MEMORIA DE PREEVENTO (s)               : 15                          
TIEMPO DE POSEVENTO (s)                : 60                          


================================================================================
DATOS DEL SISMO:
FECHA DEL SISMO (GMT)                  : 22/ENE/2003                       
HORA EPICENTRO (GMT)                   : 02:06:35                          
MAGNITUD(ES)                           : /Mb=6.5/Ms=7.6/Ma=7.2/Me=7.6
COORDENADAS DEL EPICENTRO              : 18.60 LAT. N                      
                                       : 104.22 LONG. W                    
PROFUNDIDAD FOCAL (km)                 : 9                                
FUENTES DE LOS DATOS EPICENTRALES      : SSN                               
                                       : SERVICIO SISMOLOGICO NACIONAL     

================================================================================
DATOS DE ESTE REGISTRO:
HORA DE LA PRIMERA MUESTRA (GMT)       : 02:06:35
EXACTITUD DEL TIEMPO (s)               : 
DURACION DEL REGISTRO (s), C1-C6       : 142.08/142.08/142.08
DURACION DEL REGISTRO (s), C7-C12      : 
NUM. TOTAL DE MUESTRAS, C1-C6          : 28416/28416/28416
NUM. TOTAL DE MUESTRAS, C7-C12         : 
ACEL. MAX.(Gal), C1-C6                 : -13.4715/-3.2489/16.2050
ACEL. MAX., C1-C6, EN LA MUESTRA       : 8045/10640/8052
ACEL. MAX.(Gal), C7-C12                : 
ACEL. MAX., C7-C12, EN LA MUESTRA      : 
UNIDADES DE LOS DATOS                  : Gal
FACTOR DE DECIMACION                   : 1
FORMATO DATOS (FORTRAN,10 campos/dato) : 3F10.4


===============================================================================
CALIDAD DEL ACELEROGRAMA:
REGISTRO DIGITAL COMPLETO, CARECE DE TIEMPO ABSOLUTO.


===============================================================================
COMENTARIOS:

CADA UNO DE LOS CANALES SE ENCUENTRA AJUSTADO POR LINEA BASE MEDIANTE LA
SUSTRACCION DEL PROMEDIO DE LAS ACELERACIONES EN EL TIEMPO.

MODELO DEL ACELEROGRAFO : SSA-2 (KINEMETRICS)









===============================================================================
DATOS DE ACELERACION:
---------+---------+---------+---------+---------+---------+---------+---------+
   CANAL-1   CANAL-2   CANAL-3   CANAL-4   CANAL-5   CANAL-6   CANAL-7   CANAL-8
      N00E        +V      N90E
---------+---------+---------+---------+---------+---------+---------+---------+
[...]
   -5.6595    -.8270    7.9007
   -5.6595    -.8270    7.9007
   -6.1478    -.8270    7.9007
   -6.1478    -.8270    7.9007
   -5.6595    -.8270    8.3892
   -6.1478   -1.3114    7.9007
   -5.6595    -.8270    8.3892
   -6.1478    -.8270    8.3892
   -6.1478    -.8270    8.3892
   -6.1478    -.8270    8.3892
   -6.1478    -.8270    8.3892
   -5.6595    -.8270    8.3892
   -6.1478    -.8270    8.3892
   -6.1478    -.8270    8.3892
   -6.1478    -.8270    8.3892
   -6.1478    -.8270    8.3892
   -6.1478    -.8270    8.3892
   -5.6595    -.8270    8.3892
   -5.6595    -.8270    8.3892
   -5.6595    -.8270    7.9007
   -5.6595    -.8270    7.9007
   -5.6595    -.8270    7.9007
   -6.1478    -.8270    7.9007
   -6.1478    -.3427    7.9007
   -5.6595    -.3427    7.9007
   -5.6595    -.3427    7.9007
   -5.6595    -.3427    7.9007
   -5.6595    -.3427    7.9007
   -5.6595    -.3427    7.9007
   -5.6595    -.3427    7.9007
   -5.6595    -.3427    7.4122
   -5.6595    -.3427    7.4122
   -5.6595     .1417    7.4122
   -5.6595     .1417    7.4122
   -5.1713     .1417    7.4122
   -5.6595     .1417    7.4122
   -5.6595     .1417    7.4122
   -5.1713     .1417    6.9237
   -5.1713     .1417    6.9237
   -5.1713     .1417    6.9237
   -5.1713     .1417    6.9237
   -5.1713     .1417    6.9237
   -4.6830     .1417    6.4352
   -4.6830     .1417    6.4352
   -4.6830     .1417    6.4352
   -4.6830     .1417    5.9467
   -4.1948     .1417    5.9467
   -4.1948     .6261    5.9467
   -4.1948     .1417    5.9467
   -4.1948     .1417    5.9467
   -4.1948     .1417    5.4583
   -4.1948     .6261    5.4583
   -3.7065     .6261    4.9698
   -3.7065     .6261    4.9698
   -3.7065     .6261    4.9698
   -3.7065     .6261    4.4813
   -3.7065     .6261    4.4813
   -3.7065     .6261    4.4813
   -3.2183     .6261    3.9928
   -3.2183     .6261    3.9928
   -3.2183     .6261    3.5043
   -3.2183     .6261    3.5043
   -2.7300     .6261    3.5043
   -2.7300     .6261    3.0158
   -2.7300     .6261    3.0158
   -2.2418     .6261    2.5273
   -2.2418     .6261    2.5273
   -2.2418     .6261    2.5273
   -1.7535    1.1105    2.0389
   -1.7535    1.1105    2.0389
   -1.7535    1.1105    1.5504
   -1.7535     .6261    1.5504
   -1.2653    1.1105    1.0621
   -1.2653    1.1105    1.0621
   -1.2653     .6261     .5739
    -.7770     .6261     .0856
    -.7770     .6261     .0856
    -.7770     .6261     .0856
    -.2888     .6261    -.4026
    -.2888     .6261    -.8909
    -.2888     .6261    -.8909
     .1997     .6261   -1.3791
     .1997     .6261   -1.3791
     .1997     .6261   -1.8674
     .6882     .6261   -1.8674
     .6882     .6261   -2.3556
    1.1767     .6261   -2.3556
    1.1767     .6261   -2.8439
    1.6652     .6261   -2.8439
    1.6652     .6261   -3.3321
    2.1536     .1417   -3.3321
    2.1536     .1417   -3.8204
    2.6421     .1417   -3.8204
    2.6421     .1417   -4.3086
    3.1306     .1417   -4.3086
    3.1306     .1417   -4.7969
    3.1306     .1417   -4.7969
    3.6191     .1417   -4.7969
    3.6191    -.3427   -5.2851
    4.1076    -.3427   -5.7734
    4.1076    -.3427   -5.7734
    4.5961    -.3427   -5.7734
    4.5961    -.3427   -6.2616
    5.0846    -.3427   -6.2616
    5.0846    -.3427   -6.7499
    5.0846    -.3427   -6.7499
    5.5731    -.3427   -7.2381
    6.0616    -.3427   -7.2381
    6.0616    -.8270   -7.7264
    6.0616    -.8270   -7.7264
    6.5500    -.8270   -7.7264
    6.5500    -.8270   -8.2146
    7.0385    -.8270   -8.2146
    7.0385    -.8270   -8.7029
    7.0385    -.8270   -8.7029
    7.5270    -.8270   -9.1911
    7.5270    -.8270   -9.1911
    8.0155    -.8270   -9.1911
    8.0155    -.8270   -9.1911
    8.0155    -.8270   -9.6794
    8.0155    -.8270   -9.6794
    8.5040    -.8270   -9.6794
    8.9925    -.8270  -10.1677
    8.9925    -.8270  -10.1677
    8.9925    -.8270  -10.6558
    8.9925    -.8270  -10.6558
    9.4810    -.8270  -10.6558
    9.4810    -.8270  -10.6558
    9.4810    -.8270  -11.1441
    9.9695    -.8270  -11.1441
    9.9695    -.8270  -11.6323
    9.9695    -.8270  -11.6323
    9.9695    -.8270  -11.6323
   10.4579    -.8270  -12.1207
   10.4579    -.8270  -12.1207
   10.4579    -.8270  -12.1207
   10.4579    -.8270  -12.1207
   10.4579    -.8270  -12.6089
   10.9464    -.8270  -12.6089
   10.9464    -.8270  -12.6089
   10.9464    -.8270  -13.0970
   10.9464    -.8270  -13.0970
   10.9464    -.8270  -13.5853
   10.9464    -.8270  -13.5853
   11.4349    -.8270  -13.5853
   11.4349    -.8270  -13.5853
   11.4349    -.8270  -13.5853
   11.4349    -.3427  -14.0736
   11.4349    -.3427  -14.0736
   11.4349    -.3427  -14.0736
   11.9234    -.8270  -14.0736
   11.9234    -.8270  -14.5619
   11.9234    -.3427  -14.5619
   11.9234    -.3427  -14.5619
   11.9234    -.3427  -14.5619
   11.9234    -.3427  -14.5619
   11.9234    -.3427  -15.0501
   11.9234    -.3427  -15.0501
   11.9234    -.3427  -15.0501
   11.9234    -.3427  -15.0501
   11.9234    -.3427  -15.0501
   11.9234    -.3427  -15.5383
   12.4119    -.3427  -15.5383
   11.9234    -.3427  -15.5383
   11.9234    -.3427  -15.5383
   11.9234    -.3427  -15.5383
   12.4119    -.3427  -15.5383
   12.4119    -.3427  -15.5383
   12.4119     .1417  -15.5383
   12.4119     .1417  -15.5383
   12.4119     .1417  -15.5383
   12.4119     .1417  -15.5383
   11.9234    -.3427  -15.5383
   11.9234     .1417  -15.5383
   11.9234     .1417  -15.5383
   11.9234     .1417  -15.5383
   11.9234     .1417  -15.5383
   11.9234     .1417  -15.5383
   11.9234     .1417  -15.5383
   11.9234     .1417  -15.5383
   11.9234     .1417  -15.5383
   11.4349     .1417  -15.5383
   11.4349     .1417  -15.5383
   11.4349     .1417  -15.5383
   11.4349     .1417  -15.5383
   10.9464     .1417  -15.5383
   10.9464     .1417  -15.5383
   10.9464     .1417  -15.5383
   10.9464     .1417  -15.0501
   10.4579     .1417  -15.0501
   10.4579     .1417  -15.0501
   10.4579     .1417  -15.0501
   10.4579     .1417  -15.0501
    9.9695     .1417  -15.0501
    9.9695     .1417  -14.5619
    9.9695     .1417  -14.5619
    9.9695     .1417  -14.5619
    9.4810     .1417  -14.5619
    9.4810     .1417  -14.5619
    9.4810     .1417  -14.0736
    8.9925     .1417  -14.0736
    8.9925     .1417  -14.0736
    8.9925     .1417  -14.0736
    8.5040     .1417  -13.5853
    8.5040     .1417  -13.5853
    8.5040     .1417  -13.5853
    8.0155     .1417  -13.5853
    8.0155     .1417  -13.0970
    8.0155     .1417  -13.0970
    8.0155     .1417  -12.6089
    7.5270     .1417  -12.6089
    7.5270     .1417  -12.1207
    7.0385     .1417  -12.1207
    7.0385     .1417  -12.1207
    7.0385     .1417  -11.6323
    6.5500     .1417  -11.6323
    6.5500     .1417  -11.1441
    6.0616     .1417  -11.1441
    6.0616     .1417  -10.6558
    6.0616     .1417  -10.6558
    5.5731     .1417  -10.1677
    5.5731     .1417  -10.1677
    5.5731     .1417   -9.6794
    5.0846     .1417   -9.6794
    5.0846     .1417   -9.1911
    5.0846     .1417   -9.1911
    4.5961     .1417   -8.7029
    4.5961     .1417   -8.2146
    4.1076     .1417   -8.2146
    4.1076     .1417   -7.7264
    4.1076     .1417   -7.2381
    3.6191     .1417   -6.7499
    3.6191     .1417   -6.7499
    3.1306    -.3427   -6.2616
    3.1306    -.3427   -6.2616
    3.1306     .1417   -5.7734
    2.6421    -.3427   -5.2851
    2.6421    -.3427   -4.7969
    2.1536    -.3427   -4.3086
    2.1536    -.3427   -4.3086
    2.1536    -.3427   -3.8204
    1.6652    -.3427   -3.3321
    1.6652    -.3427   -2.8439
    1.1767    -.3427   -2.8439
    1.1767    -.3427   -2.3556
    1.1767    -.3427   -1.8674
     .6882    -.3427   -1.8674
     .6882    -.3427   -1.3791
     .1997    -.3427    -.8909
     .1997    -.3427    -.4026
     .1997    -.3427     .0856
    -.2888    -.3427     .5739
    -.2888    -.3427    1.0621
    -.7770    -.3427    1.0621
   -1.2653    -.3427    1.5504
   -1.2653    -.3427    2.0389
   -1.2653    -.3427    2.0389
   -1.7535    -.3427    2.5273
   -2.2418    -.3427    3.0158
   -2.2418    -.3427    3.5043
   -2.2418    -.3427    3.5043
   -2.7300    -.3427    3.9928
   -2.7300    -.3427    4.4813
   -2.7300    -.3427    4.9698
   -3.2183    -.3427    4.9698
   -3.2183    -.3427    5.4583
   -3.7065    -.3427    5.9467
   -3.7065    -.3427    5.9467
   -3.7065    -.3427    6.4352
   -4.1948    -.3427    6.4352
   -4.1948    -.3427    6.9237
   -4.6830    -.3427    6.9237
   -4.6830    -.3427    7.4122
   -5.1713    -.3427    7.9007
   -5.1713    -.3427    7.9007
   -5.6595    -.3427    7.9007
   -5.6595    -.3427    8.3892
   -5.6595    -.3427    8.3892
   -6.1478    -.3427    8.8777
   -6.1478    -.3427    8.8777
   -6.6360    -.3427    9.3662
   -6.6360    -.3427    9.3662
   -6.6360    -.3427    9.8547
   -7.1243    -.8270    9.8547
   -7.1243    -.3427    9.8547
   -7.6125    -.3427   10.3431
   -7.6125    -.3427   10.3431
   -7.6125    -.8270   10.3431
   -8.1008    -.8270   10.8316
   -8.1008    -.8270   10.8316
   -8.5890    -.3427   10.8316
   -8.5890    -.8270   11.3201
   -8.5890    -.3427   11.3201
   -9.0773    -.8270   11.8086
   -9.0773    -.8270   11.8086
   -9.5655    -.3427   11.8086
   -9.5655    -.3427   11.8086
   -9.5655    -.8270   12.2971
  -10.0538    -.3427   12.2971
  -10.0538    -.3427   12.2971
  -10.5420    -.8270   12.2971
  -10.5420    -.8270   12.7856
  -10.5420    -.3427   12.7856
  -11.0303    -.3427   13.2740
  -11.0303    -.3427   13.2740
  -11.0303    -.3427   13.2740
  -11.5185    -.3427   13.2740
  -11.5185    -.3427   13.2740
  -11.5185    -.3427   13.7626
  -11.5185    -.3427   13.7626
  -12.0069    -.3427   13.7626
  -12.0069    -.3427   13.7626
  -12.0069    -.3427   14.2510
  -12.4950    -.3427   14.2510
  -12.4950    -.3427   14.2510
  -12.4950    -.3427   14.7395
  -12.4950    -.3427   14.7395
  -12.9832    -.3427   14.7395
  -12.9832    -.3427   14.7395
  -12.9832    -.3427   15.2280
  -12.9832     .1417   15.2280
  -12.9832    -.3427   15.2280
  -13.4715     .1417   15.2280
  -13.4715     .1417   15.2280
  -13.4715     .1417   15.7166
  -13.4715     .1417   15.7166
  -13.4715     .1417   15.7166
  -13.4715     .1417   15.7166
  -13.4715     .1417   15.7166
  -13.4715     .1417   16.2050
  -13.4715     .1417   16.2050
  -13.4715     .1417   16.2050
  -13.4715     .6261   16.2050
  -13.4715     .6261   16.2050
  -12.9832     .6261   16.2050
  -12.9832     .6261   16.2050
  -12.9832     .6261   16.2050
  -12.9832     .6261   16.2050
  -12.9832     .6261   16.2050
  -12.9832     .6261   16.2050
  -12.9832     .6261   16.2050
  -12.4950     .6261   16.2050
  -12.4950     .6261   16.2050
  -12.4950     .6261   16.2050
  -12.0069     .6261   16.2050
  -12.0069     .6261   16.2050
  -12.0069     .6261   16.2050
  -11.5185     .6261   15.7166
  -11.5185     .6261   15.7166
  -11.5185     .6261   15.7166
  -11.0303     .6261   15.7166
  -11.0303     .6261   15.2280
  -10.5420     .6261   15.2280
  -10.5420     .6261   15.2280
  -10.5420     .6261   14.7395
  -10.0538     .6261   14.7395
  -10.0538     .1417   14.7395
   -9.5655     .6261   14.2510
   -9.5655     .1417   14.2510
   -9.5655     .6261   13.7626
   -9.0773     .6261   13.7626
   -9.0773     .6261   13.2740
   -8.5890     .6261   13.2740
   -8.5890     .1417   12.7856
   -8.1008     .1417   12.2971
   -7.6125     .6261   12.2971
   -7.6125     .1417   11.8086
   -7.1243     .1417   11.8086
   -7.1243     .1417   11.3201
   -6.6360     .1417   10.8316
   -6.6360     .1417   10.8316
   -6.1478     .1417   10.3431
   -6.1478     .1417   10.3431
   -5.6595     .1417    9.8547
   -5.6595     .1417    9.8547
   -5.1713     .1417    9.3662
   -5.1713     .1417    8.8777
   -4.6830     .1417    8.3892
   -4.6830     .1417    7.9007
   -4.6830     .1417    7.9007
   -4.1948     .1417    7.9007
   -4.1948     .1417    7.4122
   -3.7065     .1417    6.9237
   -3.7065     .1417    6.9237
   -3.2183     .6261    6.4352
   -2.7300     .6261    5.9467
   -2.7300     .6261    5.9467
   -2.7300     .6261    5.9467
   -2.2418     .6261    5.4583
   -1.7535     .6261    4.9698
   -1.7535     .6261    4.9698
   -1.2653     .6261    4.4813
   -1.2653     .6261    3.9928
   -1.2653     .6261    3.9928
    -.7770     .6261    3.5043
    -.7770     .6261    3.0158
    -.2888     .6261    3.0158
    -.2888     .6261    2.5273
     .1997     .6261    2.0389
     .1997     .6261    2.0389
     .6882     .6261    1.5504
     .6882     .6261    1.0621
     .6882     .6261    1.0621
    1.1767     .6261     .5739
    1.1767     .6261     .0856
    1.6652     .6261     .0856
    2.1536     .6261    -.4026
    2.1536     .6261    -.8909
    2.1536     .6261    -.8909
    2.1536     .6261   -1.3791
    2.6421     .6261   -1.8674
    2.6421     .1417   -1.8674
    3.1306     .6261   -2.3556
    3.1306     .6261   -2.8439
    3.6191     .1417   -2.8439
    3.6191     .6261   -3.3321
    4.1076     .1417   -3.3321
    4.1076     .1417   -3.8204
    4.1076     .1417   -3.8204
    4.5961     .1417   -4.3086
    4.5961     .1417   -4.7969
    5.0846     .1417   -4.7969
    5.0846     .1417   -5.2851
    5.5731     .1417   -5.2851
    5.5731     .1417   -5.2851
    5.5731     .1417   -5.7734
    5.5731     .1417   -5.7734
    6.0616     .1417   -6.2616
    6.0616     .1417   -6.7499
    6.0616     .1417   -6.7499
    6.5500     .1417   -6.7499
    6.5500     .1417   -7.2381
    6.5500     .1417   -7.2381
    7.0385     .1417   -7.2381
    7.0385     .1417   -7.7264
    7.0385     .1417   -7.7264
    7.0385    -.3427   -7.7264
    7.5270    -.3427   -7.7264
    7.5270    -.3427   -8.2146
    7.5270    -.3427   -8.2146
    8.0155    -.3427   -8.2146
    8.0155    -.3427   -8.7029
    8.0155    -.3427   -8.7029
    8.0155    -.3427   -8.7029
    8.0155    -.3427   -8.7029
    8.0155    -.3427   -9.1911
    8.5040    -.8270   -9.1911
    8.5040    -.8270   -9.6794
    8.5040    -.8270   -9.6794
    8.9925    -.8270   -9.6794
    8.9925    -.8270   -9.6794
    8.9925    -.8270   -9.6794
    8.9925    -.8270  -10.1677
    8.9925    -.8270  -10.1677
    8.9925    -.8270  -10.6558
    8.9925    -.8270  -10.6558
    9.4810    -.8270  -10.6558
    9.4810    -.8270  -10.6558
    9.4810    -.8270  -10.6558
    9.4810    -.8270  -10.6558
    9.9695    -.8270  -11.1441
    9.9695    -.8270  -11.1441
    9.9695    -.8270  -11.1441
   10.4579    -.8270  -11.6323
   10.4579    -.8270  -11.6323
   10.4579    -.8270  -11.6323
   10.4579    -.8270  -12.1207
   10.4579    -.8270  -12.1207
   10.4579    -.8270  -12.1207
   10.9464   -1.3114  -12.6089
   10.9464    -.8270  -12.6089
