********************************************************************************
           RED INTERUNIVERSITARIA DE INSTRUMENTACION SISIMICA (RIIS)
 AREA DE ESTRUCTURAS, UNIVERSIDAD AUTONOMA METROPOLITANA - UNIDAD AZCAPOTZALCO
         AV. SAN PABLO 180; COL. REYNOSA TAMAULIPAS; MEXICO D.F. 02200.
       TELS: 53189455; FAX: 53189085; e-mail: agb@azc.uam.mx
********************************************************************************
ARCHIVO ESTANDAR DE ACELERACION:
VERSION DEL FORMATO                    : 2.0
NOMBRE DEL ARCHIVO                     : RIDX0301.221
FECHA Y HORA DE CREACION               : NOVIEMBRE, 2004
REF. CATALOGO ACELEROGRAMAS, SMIS 1996 : 


================================================================================
DATOS DE LA ESTACION:
NOMBRE DE LA ESTACION                  : UAM XOCHIMILCO
CLAVE DE LA ESTACION                   : RIDX
LOCALIZACION DE LA ESTACION            : CALZADA DEL HUESO 1100, COLONIA VILLA
                                       : QUIETUD, PLANTEL XOCHIMILCO, FRENTE A
                                       : LA BIBLIOTECA, MEXICO, D.F.
                                       :
                                       :
COORDENADAS DE LA ESTACION             : 19.310 LAT. N 
                                       : 99.100 LONG. W 
ALTITUD (msnm)                         : 2235
TIPO DE SUELO                          : LIMOS Y ARENAS ARCILLOSAS
                                       : 
                                       : 
INSTITUCION RESPONSABLE                : RED INTERUNIVERSITARIA DE
                                       : INSTRUMENTACION SISMICA (RIIS)

================================================================================
DATOS DEL ACELEROGRAFO:
MODELO DEL ACELEROGRAFO                : SSA-2                      
NUMERO DE SERIE DEL ACELEROGRAFO       : 1320                       
NUMERO DE CANALES                      : 3                          
ORIENTACION C1-C6 (rumbo;orientacion)  : /N00E/+V/N90E
ORIENTACION C7-C12 (rumbo;orientacion) :                            
VEL. DE MUESTREO, C1-C6 (muestras/s)   : /200/200/200               
VEL. DE MUESTREO, C7-C12 (muestras/s)  :                            
ESC. COMPLETA DE SENSORES, C1-C6, (g)  : /1.0/1.0/1.0               
ESC. COMPLETA DE SENSORES, C7-C12, (g) :                            
FREC. NAT. DE SENSORES, C1-C6, (Hz)    : /50.0/50.0/50.0            
FREC. NAT. DE SENSORES, C7-C12, (Hz)   :                            
AMORTIGUAMIENTO DE SENSORES, C1-C6     : /0.7/0.7/0.7               
AMORTIGUAMIENTO DE SENSORES, C7-C12    :                            
INTERVALO DE MUESTREO, C1-C6, (s)      : /0.005/0.005/0.005         
INTERVALO DE MUESTREO, C7-C12, (s)     :                            
UMBRAL DE DISPARO, C1-C6, (Gal)        : /2/2/2                     
UMBRAL DE DISPARO, C7-C12, (Gal)       :                            
MEMORIA DE PREEVENTO (s)               : 15                         
TIEMPO DE POSEVENTO (s)                : 60                         


================================================================================
DATOS DEL SISMO:
FECHA DEL SISMO (GMT)                  : 22/ENE/2003                       
HORA EPICENTRO (GMT)                   : 02:06:35                          
MAGNITUD(ES)                           : /Mb=6.5/Ms=7.6/Ma=7.2/Me=7.6
COORDENADAS DEL EPICENTRO              : 18.60 LAT. N                      
                                       : 104.22 LONG. W                    
PROFUNDIDAD FOCAL (km)                 : 9                                
FUENTES DE LOS DATOS EPICENTRALES      : SSN                               
                                       : SERVICIO SISMOLOGICO NACIONAL     

================================================================================
DATOS DE ESTE REGISTRO:
HORA DE LA PRIMERA MUESTRA (GMT)       : 02:06:35
EXACTITUD DEL TIEMPO (s)               : 
DURACION DEL REGISTRO (s), C1-C6       : 286.72/286.72/286.72
DURACION DEL REGISTRO (s), C7-C12      : 
NUM. TOTAL DE MUESTRAS, C1-C6          : 57344/57344/57344
NUM. TOTAL DE MUESTRAS, C7-C12         : 
ACEL. MAX.(Gal), C1-C6                 : -30.5705/7.7917/-22.7553
ACEL. MAX., C1-C6, EN LA MUESTRA       : 19663/18335/15798
ACEL. MAX.(Gal), C7-C12                : 
ACEL. MAX., C7-C12, EN LA MUESTRA      : 
UNIDADES DE LOS DATOS                  : Gal
FACTOR DE DECIMACION                   : 1
FORMATO DATOS (FORTRAN,10 campos/dato) : 3F10.4


===============================================================================
CALIDAD DEL ACELEROGRAMA:
REGISTRO DIGITAL COMPLETO, CARECE DE TIEMPO ABSOLUTO.


===============================================================================
COMENTARIOS:

CADA UNO DE LOS CANALES SE ENCUENTRA AJUSTADO POR LINEA BASE MEDIANTE LA
SUSTRACCION DEL PROMEDIO DE LAS ACELERACIONES EN EL TIEMPO.

MODELO DEL ACELEROGRAFO : SSA-2 (KINEMETRICS)









===============================================================================
DATOS DE ACELERACION:
---------+---------+---------+---------+---------+---------+---------+---------+
   CANAL-1   CANAL-2   CANAL-3   CANAL-4   CANAL-5   CANAL-6   CANAL-7   CANAL-8
      N00E        +V      N90E
---------+---------+---------+---------+---------+---------+---------+---------+
[...]
   20.4163   -2.5027   13.0371
   20.4163   -2.5027   13.0371
   20.4163   -2.5027   13.0371
   20.9068   -2.5027   13.0371
   20.9068   -2.5027   13.0371
   21.3972   -2.5027   13.0371
   21.3972   -2.5027   13.0371
   21.8877   -2.5027   13.0371
   21.8877   -2.5027   13.0371
   22.3780   -2.0125   13.0371
   22.3780   -2.0125   12.5468
   22.8685   -2.0125   12.5468
   22.8685   -2.0125   12.5468
   23.3590   -2.0125   12.5468
   23.8495   -2.0125   12.0563
   23.8495   -2.0125   12.0563
   23.8495   -1.5223   12.0563
   24.3400   -1.5223   12.0563
   24.3400   -1.5223   12.0563
   24.3400   -1.5223   12.0563
   24.3400   -1.0321   12.0563
   24.3400   -1.0321   12.0563
   24.3400   -1.0321   12.5468
   24.3400   -1.0321   12.5468
   24.3400   -1.0321   12.5468
   24.3400   -1.0321   12.5468
   24.3400    -.5419   12.5468
   24.3400    -.5419   12.5468
   24.8304    -.5419   12.5468
   24.8304    -.5419   12.0563
   24.8304    -.5419   12.0563
   24.8304    -.5419   12.0563
   24.8304    -.0516   12.0563
   24.8304    -.0516   11.5658
   24.8304    -.0516   11.5658
   24.8304    -.0516   11.5658
   24.8304    -.0516   11.0753
   24.8304    -.0516   11.0753
   24.8304    -.0516   11.0753
   24.8304     .4385   11.0753
   24.8304    -.0516   11.0753
   24.8304     .4385   11.0753
   24.8304     .4385   11.0753
   24.8304     .4385   10.5848
   24.8304     .4385   10.5848
   24.8304     .4385   10.5848
   24.8304     .4385   10.5848
   24.8304     .4385   10.5848
   24.8304     .4385   10.5848
   24.8304     .9287   10.0944
   24.3400     .9287   10.0944
   24.3400     .9287   10.0944
   24.3400     .9287   10.0944
   24.3400     .9287    9.6040
   23.8495     .9287    9.6040
   23.8495     .9287    9.6040
   23.8495     .9287    9.6040
   23.8495     .9287    9.1136
   23.8495     .9287    9.1136
   23.3590     .9287    9.1136
   23.3590     .9287    9.1136
   23.3590     .9287    8.6231
   23.3590    1.4189    8.6231
   23.3590    1.4189    8.6231
   22.8685     .9287    8.1326
   22.8685     .9287    8.1326
   22.8685    1.4189    8.1326
   22.8685    1.4189    8.1326
   22.8685    1.4189    8.1326
   22.3780    1.4189    8.1326
   22.3780    1.4189    8.6231
   22.3780    1.4189    8.6231
   21.8877    1.4189    8.6231
   21.8877     .9287    8.6231
   22.3780     .9287    8.6231
   22.3780     .4385    8.6231
   22.3780     .4385    8.1326
   21.8877     .4385    7.6422
   21.8877     .4385    7.1517
   21.3972     .4385    7.1517
   21.3972     .4385    6.6613
   21.3972     .4385    6.6613
   21.3972     .4385    6.6613
   20.9068     .4385    6.6613
   20.9068     .4385    6.6613
   20.9068     .4385    7.1517
   20.9068     .4385    7.1517
   20.4163     .4385    7.1517
   20.4163     .4385    7.1517
   20.4163     .4385    7.1517
   20.4163     .4385    7.1517
   20.4163    -.0516    7.1517
   19.9258    -.0516    7.1517
   19.9258    -.0516    7.1517
   19.9258    -.0516    6.6613
   19.9258    -.0516    6.6613
   19.4354    -.0516    6.6613
   19.4354    -.0516    6.1708
   19.4354    -.0516    6.1708
   19.4354    -.0516    6.1708
   19.4354    -.0516    5.6804
   18.9450    -.5419    5.6804
   18.9450    -.5419    5.6804
   18.9450    -.5419    5.6804
   18.9450    -.5419    5.6804
   18.4545    -.5419    5.6804
   18.4545   -1.0321    5.6804
   18.4545   -1.0321    5.6804
   17.9641   -1.0321    5.6804
   17.4736   -1.0321    5.6804
   17.4736   -1.0321    5.6804
   16.9832   -1.0321    5.6804
   16.4927   -1.0321    5.6804
   16.4927   -1.0321    5.6804
   16.0023   -1.0321    5.6804
   16.0023   -1.5223    5.6804
   15.5118   -1.5223    5.6804
   15.5118   -1.5223    5.6804
   15.5118   -1.5223    5.6804
   15.0214   -1.5223    5.6804
   15.0214   -1.5223    5.6804
   14.5309   -1.5223    5.6804
   14.5309   -1.5223    5.6804
   14.0405   -1.5223    5.1899
   14.0405   -1.5223    5.1899
   13.5500   -1.5223    5.1899
   13.5500   -1.5223    5.1899
   13.0596   -1.5223    5.1899
   13.0596   -1.5223    5.1899
   12.5691   -1.5223    5.1899
   12.5691   -1.5223    5.1899
   12.0787   -1.5223    5.1899
   11.5882   -1.5223    4.6995
   11.5882   -1.5223    4.6995
   11.0978   -1.5223    4.6995
   11.0978   -1.5223    4.6995
   11.0978   -1.5223    4.2090
   10.6073   -1.5223    4.2090
   10.6073   -1.5223    4.2090
   10.6073   -1.5223    3.7186
   10.1169   -1.5223    3.7186
   10.1169   -1.5223    3.7186
   10.1169   -1.5223    3.7186
   10.1169   -1.5223    3.7186
    9.6267   -1.5223    3.2281
    9.1365   -1.5223    3.2281
    9.1365   -1.5223    3.2281
    9.1365   -1.5223    3.2281
    8.6462   -1.5223    3.2281
    8.1560   -1.5223    2.7377
    8.1560   -1.5223    2.7377
    7.6658   -1.5223    2.7377
    7.6658   -1.0321    2.7377
    7.1756   -1.0321    2.7377
    6.6854   -1.0321    2.2472
    6.6854   -1.0321    2.2472
    6.1952   -1.0321    2.2472
    6.1952    -.5419    2.2472
    5.7050    -.5419    2.2472
    5.7050    -.5419    1.7568
    5.2148    -.5419    1.7568
    5.2148    -.5419    1.7568
    4.7246    -.5419    1.7568
    4.7246    -.5419    1.2663
    4.2344    -.0516    1.2663
    4.2344    -.0516     .7759
    3.7441    -.0516     .7759
    3.7441    -.0516     .2855
    3.2539    -.0516     .2855
    2.7637    -.0516     .2855
    2.7637     .4385     .2855
    2.2735     .4385    -.2050
    2.2735     .4385    -.2050
    1.7833     .4385    -.2050
    1.7833     .4385    -.2050
    1.2931     .9287    -.2050
    1.2931     .9287    -.6955
     .8029     .9287    -.6955
     .8029     .9287    -.6955
     .3127     .9287    -.6955
     .3127    1.4189    -.6955
    -.1776    1.4189    -.6955
    -.6677    1.4189   -1.1859
    -.6677    1.4189   -1.1859
    -.6677    1.4189   -1.1859
   -1.1580    1.9092   -1.1859
   -1.1580    1.9092   -1.1859
   -1.1580    1.9092   -1.1859
   -1.6481    1.9092   -1.1859
   -1.6481    1.9092   -1.1859
   -2.1384    2.3994   -1.1859
   -2.1384    2.3994   -1.1859
   -2.6286    2.3994   -1.1859
   -2.6286    2.3994    -.6955
   -2.6286    2.3994    -.6955
   -2.6286    2.3994    -.6955
   -3.1187    2.3994    -.6955
   -3.1187    2.8896    -.6955
   -3.1187    2.8896    -.2050
   -3.6090    2.8896    -.6955
   -3.6090    2.8896    -.2050
   -3.6090    2.8896    -.2050
   -3.6090    2.8896    -.2050
   -4.0992    2.8896    -.2050
   -4.0992    2.8896    -.2050
   -4.0992    3.3798     .2855
   -4.0992    3.3798     .2855
   -4.0992    3.3798     .2855
   -4.5895    3.3798     .2855
   -4.5895    3.3798     .2855
   -4.5895    3.3798     .2855
   -5.0797    3.3798     .2855
   -5.0797    3.3798     .2855
   -5.0797    3.3798     .2855
   -5.5699    3.3798     .7759
   -5.5699    3.8700     .7759
   -5.5699    3.8700     .7759
   -5.5699    3.3798     .7759
   -6.0600    3.8700     .7759
   -6.0600    3.3798    1.2663
   -6.0600    3.3798    1.2663
   -6.0600    3.3798    1.2663
   -6.5502    3.3798    1.2663
   -6.5502    3.3798    1.2663
   -6.5502    3.3798    1.2663
   -6.5502    3.3798    1.2663
   -7.0405    3.3798    1.2663
   -7.0405    2.8896    1.2663
   -7.5306    2.8896    1.2663
   -7.5306    2.8896    1.2663
   -7.5306    2.8896    1.2663
   -8.0209    2.8896    1.2663
   -8.0209    2.8896    1.2663
   -8.5111    2.8896    1.2663
   -8.5111    2.8896    1.2663
   -9.0013    2.8896    1.2663
   -9.4916    2.3994    1.2663
   -9.4916    2.3994    1.2663
   -9.4916    2.3994    1.2663
   -9.9817    2.3994    1.2663
   -9.9817    2.3994    1.2663
  -10.4719    2.3994    1.2663
  -10.4719    1.9092     .7759
  -10.9621    1.9092     .7759
  -10.9621    1.4189     .7759
  -11.4524    1.4189     .7759
  -11.9425    1.4189     .7759
  -11.9425     .9287     .2855
  -11.9425     .9287     .2855
  -12.4327     .9287     .2855
  -12.4327     .9287     .2855
  -12.9230     .9287     .2855
  -12.9230     .9287     .2855
  -13.4132     .4385     .2855
  -13.4132     .4385     .2855
  -13.9035     .4385    -.2050
  -13.9035     .4385    -.2050
  -14.3936     .4385    -.2050
  -14.3936     .4385    -.6955
  -14.8839     .4385    -.6955
  -14.8839     .4385    -.6955
  -15.3740     .4385   -1.1859
  -15.3740     .4385   -1.1859
  -15.8642    -.0516   -1.1859
  -15.8642    -.0516   -1.1859
  -16.3544    -.0516   -1.6764
  -16.3544    -.0516   -1.6764
  -16.8446    -.0516   -1.6764
  -16.8446    -.0516   -2.1666
  -17.3349    -.0516   -2.1666
  -17.8251    -.0516   -2.1666
  -17.8251    -.0516   -2.1666
  -18.3153    -.0516   -2.6568
  -18.8055    -.5419   -2.6568
  -18.8055    -.5419   -2.6568
  -18.8055    -.5419   -3.1470
  -19.2957    -.5419   -3.1470
  -19.2957    -.5419   -3.6372
  -19.2957    -.5419   -3.6372
  -19.7859    -.5419   -4.1274
  -19.7859    -.5419   -4.6176
  -20.2761    -.5419   -4.6176
  -20.7664    -.5419   -5.1078
  -20.7664    -.5419   -5.5980
  -21.2565    -.5419   -6.5784
  -22.2370    -.5419   -7.5589
  -22.7272    -.5419   -8.5393
  -23.7076    -.0516  -10.0099
  -24.6880    -.0516  -10.9903
  -25.6684    -.0516  -11.4805
  -26.1586    -.0516  -10.9903
  -26.6489    -.0516   -9.5197
  -26.1586    -.5419   -8.0491
  -25.6684    -.5419   -6.5784
  -25.1782   -1.0321   -5.5980
  -25.1782   -1.0321   -5.5980
  -24.6880   -1.5223   -5.5980
  -24.6880   -1.5223   -5.5980
  -24.6880   -1.5223   -6.0882
  -24.6880   -1.5223   -6.5784
  -24.6880   -2.0125   -7.0687
  -25.1782   -2.0125   -8.0491
  -25.1782   -2.0125   -8.5393
  -25.6684   -2.0125   -9.0295
  -26.1586   -2.0125   -9.5197
  -26.6489   -2.0125   -9.5197
  -27.1391   -2.0125   -9.5197
  -27.1391   -2.0125   -9.0295
  -27.6292   -2.0125   -9.0295
  -27.6292   -2.0125   -9.0295
  -27.6292   -2.0125   -8.5393
  -28.1195   -2.0125   -9.0295
  -28.6097   -2.0125   -9.0295
  -28.6097   -2.0125   -9.0295
  -29.0999   -2.0125   -9.0295
  -29.0999   -2.0125   -9.5197
  -29.0999   -2.0125   -9.0295
  -29.0999   -2.0125   -9.0295
  -29.0999   -2.0125   -8.5393
  -29.0999   -2.0125   -8.5393
  -29.0999   -2.0125   -8.0491
  -29.0999   -2.0125   -8.0491
  -29.5901   -2.0125   -8.0491
  -29.5901   -2.0125   -8.0491
  -30.0803   -2.0125   -8.0491
  -30.0803   -2.0125   -8.0491
  -30.0803   -2.0125   -8.5393
  -30.5705   -1.5223   -8.5393
  -30.5705   -2.0125   -8.5393
  -30.5705   -1.5223   -8.5393
  -31.0607   -1.5223   -8.5393
  -31.0607   -1.5223   -8.5393
  -30.5705   -1.5223   -8.5393
  -30.5705   -2.0125   -8.5393
  -31.0607   -1.5223   -8.5393
  -31.0607   -1.5223   -8.5393
  -30.5705   -2.0125   -8.5393
  -30.5705   -1.5223   -8.5393
  -30.5705   -2.0125   -8.5393
  -30.0803   -2.0125   -8.5393
  -30.0803   -1.5223   -8.0491
  -29.5901   -2.0125   -8.0491
  -29.5901   -2.0125   -8.0491
  -29.5901   -2.0125   -8.0491
  -29.0999   -2.0125   -8.0491
  -29.0999   -2.0125   -8.0491
  -29.0999   -2.0125   -7.5589
  -29.0999   -2.0125   -7.5589
  -29.0999   -2.0125   -7.5589
  -29.0999   -2.0125   -7.5589
  -29.0999   -1.5223   -7.0687
  -29.0999   -1.5223   -7.5589
  -29.0999   -1.5223   -7.0687
  -28.6097   -1.5223   -7.0687
  -28.6097   -1.5223   -7.5589
  -28.6097   -1.5223   -7.5589
  -28.6097   -1.5223   -7.5589
  -28.1195   -1.5223   -7.5589
  -28.1195   -1.5223   -7.5589
  -27.6292   -1.5223   -7.5589
  -27.6292   -1.5223   -7.0687
  -27.1391   -1.5223   -7.0687
  -27.1391   -1.5223   -7.0687
  -27.1391   -1.0321   -7.0687
  -26.6489   -1.0321   -7.0687
  -26.6489   -1.0321   -7.0687
  -26.1586   -1.0321   -7.0687
  -26.1586   -1.0321   -6.5784
  -25.6684    -.5419   -6.5784
  -25.1782    -.5419   -6.5784
  -25.1782    -.5419   -6.5784
  -25.1782    -.5419   -6.5784
  -24.6880    -.5419   -6.5784
  -24.6880    -.0516   -6.0882
  -24.1978    -.0516   -6.0882
  -24.1978    -.0516   -6.0882
  -23.7076    -.0516   -6.0882
  -23.7076     .4385   -6.0882
  -23.2174     .4385   -6.0882
  -23.2174     .4385   -6.0882
  -22.7272     .4385   -6.0882
  -22.7272     .9287   -6.0882
  -22.2370     .9287   -5.5980
  -21.7467    1.4189   -5.5980
  -21.7467    1.4189   -5.1078
  -21.2565    1.4189   -5.1078
  -20.7664    1.9092   -5.1078
  -20.7664    1.9092   -5.1078
  -20.2761    1.9092   -5.1078
  -20.2761    1.9092   -5.5980
  -19.7859    2.3994   -5.5980
  -19.2957    2.3994   -6.0882
  -18.8055    2.3994   -6.0882
  -18.8055    2.3994   -6.0882
  -18.3153    2.8896   -6.5784
  -18.3153    2.8896   -7.0687
  -18.3153    2.8896   -7.0687
  -17.8251    2.8896   -7.0687
  -17.8251    2.8896   -7.0687
  -17.8251    2.8896   -7.0687
  -17.3349    2.8896   -6.5784
  -16.8446    2.8896   -6.5784
  -16.8446    2.8896   -6.5784
  -15.8642    3.3798   -6.0882
  -15.3740    3.3798   -6.0882
  -14.8839    3.3798   -6.0882
  -14.3936    3.3798   -6.0882
  -13.9035    3.8700   -6.0882
  -13.4132    3.8700   -6.5784
  -12.9230    3.8700   -6.5784
  -12.4327    3.8700   -6.5784
  -11.9425    3.8700   -6.5784
  -11.4524    3.8700   -6.5784
  -11.4524    3.8700   -7.0687
  -10.9621    3.8700   -7.0687
  -10.4719    3.8700   -7.0687
   -9.9817    3.8700   -7.0687
   -9.9817    3.8700   -7.0687
   -9.4916    3.8700   -7.0687
   -9.4916    3.8700   -7.0687
   -9.0013    3.3798   -7.0687
   -8.5111    3.3798   -7.0687
   -8.0209    3.3798   -7.0687
   -8.0209    3.3798   -7.0687
   -7.5306    3.3798   -7.0687
   -7.0405    3.3798   -7.0687
   -6.5502    3.3798   -7.0687
   -6.5502    2.8896   -7.5589
   -5.5699    2.8896   -7.5589
   -5.5699    2.8896   -7.5589
   -5.0797    2.8896   -7.5589
   -4.5895    2.8896   -7.5589
   -4.0992    2.3994   -7.5589
   -3.6090    2.3994   -7.5589
   -3.1187    2.3994   -7.5589
   -2.6286    2.3994   -7.5589
   -2.1384    2.3994   -7.0687
   -1.6481    1.9092   -7.0687
   -1.1580    1.9092   -7.0687
    -.6677    1.9092   -7.0687
    -.1776    1.9092   -7.0687
     .3127    1.4189   -6.5784
     .8029    1.4189   -6.5784
     .8029    1.4189   -6.5784
    1.7833     .9287   -6.5784
    2.2735     .9287   -7.0687
    2.7637     .9287   -6.5784
    3.2539     .4385   -7.0687
    3.7441     .4385   -7.0687
    4.2344     .4385   -7.0687
    4.7246     .4385   -7.0687
    4.7246     .4385   -7.0687
    5.2148    -.0516   -7.0687
    5.7050    -.0516   -7.0687
    6.1952    -.0516   -6.5784
    6.6854    -.0516   -6.5784
    6.6854    -.0516   -6.5784
    7.1756    -.5419   -6.5784
    7.6658    -.5419   -6.0882
    7.6658    -.5419   -6.0882
    8.1560    -.5419   -6.0882
    8.6462   -1.0321   -5.5980
    9.1365   -1.0321   -5.5980
    9.6267   -1.0321   -5.5980
   10.1169   -1.0321   -5.1078
   10.1169   -1.5223   -5.1078
   10.6073   -1.5223   -4.6176
   11.0978   -1.5223   -4.6176
   11.0978   -1.5223   -4.6176
   11.5882   -1.5223   -4.6176
   12.0787   -2.0125   -4.6176
   12.0787   -2.0125   -4.1274
   12.5691   -2.0125   -4.1274
