********************************************************************************
           RED INTERUNIVERSITARIA DE INSTRUMENTACION SISIMICA (RIIS)
 AREA DE ESTRUCTURAS, UNIVERSIDAD AUTONOMA METROPOLITANA - UNIDAD AZCAPOTZALCO
         AV. SAN PABLO 180; COL. REYNOSA TAMAULIPAS; MEXICO D.F. 02200.
       TELS: 53189455; FAX: 53189085; e-mail: agb@azc.uam.mx
********************************************************************************
ARCHIVO ESTANDAR DE ACELERACION:
VERSION DEL FORMATO                    : 2.0
NOMBRE DEL ARCHIVO                     : RIDX0301.101
FECHA Y HORA DE CREACION               : NOVIEMBRE, 2004
REF. CATALOGO ACELEROGRAMAS, SMIS 1996 : 


================================================================================
DATOS DE LA ESTACION:
NOMBRE DE LA ESTACION                  : UAM XOCHIMILCO
CLAVE DE LA ESTACION                   : RIDX
LOCALIZACION DE LA ESTACION            : CALZADA DEL HUESO 1100, COLONIA VILLA
                                       : QUIETUD, PLANTEL XOCHIMILCO, FRENTE A
                                       : LA BIBLIOTECA, MEXICO, D.F.
                                       :
                                       :
COORDENADAS DE LA ESTACION             : 19.310 LAT. N 
                                       : 99.100 LONG. W 
ALTITUD (msnm)                         : 2235
TIPO DE SUELO                          : LIMOS Y ARENAS ARCILLOSAS
                                       : 
                                       : 
INSTITUCION RESPONSABLE                : RED INTERUNIVERSITARIA DE
                                       : INSTRUMENTACION SISMICA (RIIS)

================================================================================
DATOS DEL ACELEROGRAFO:
MODELO DEL ACELEROGRAFO                : SSA-2                      
NUMERO DE SERIE DEL ACELEROGRAFO       : 1320                       
NUMERO DE CANALES                      : 3                          
ORIENTACION C1-C6 (rumbo;orientacion)  : /N00E/+V/N90E
ORIENTACION C7-C12 (rumbo;orientacion) :                            
VEL. DE MUESTREO, C1-C6 (muestras/s)   : /200/200/200               
VEL. DE MUESTREO, C7-C12 (muestras/s)  :                            
ESC. COMPLETA DE SENSORES, C1-C6, (g)  : /1.0/1.0/1.0               
ESC. COMPLETA DE SENSORES, C7-C12, (g) :                            
FREC. NAT. DE SENSORES, C1-C6, (Hz)    : /50.0/50.0/50.0            
FREC. NAT. DE SENSORES, C7-C12, (Hz)   :                            
AMORTIGUAMIENTO DE SENSORES, C1-C6     : /0.7/0.7/0.7               
AMORTIGUAMIENTO DE SENSORES, C7-C12    :                            
INTERVALO DE MUESTREO, C1-C6, (s)      : /0.005/0.005/0.005         
INTERVALO DE MUESTREO, C7-C12, (s)     :                            
UMBRAL DE DISPARO, C1-C6, (Gal)        : /2/2/2                     
UMBRAL DE DISPARO, C7-C12, (Gal)       :                            
MEMORIA DE PREEVENTO (s)               : 15                         
TIEMPO DE POSEVENTO (s)                : 60                         


================================================================================
DATOS DEL SISMO:
FECHA DEL SISMO (GMT)                  : 10/ENE/2003
HORA EPICENTRO (GMT)                   : 02:08:03
MAGNITUD(ES)                           : /Mb=5.1/Ms=4.5/Mc=4.9/Ma=5.1/Me=5.3
COORDENADAS DEL EPICENTRO              : 16.970 LAT. N 
                                       : 100.30 LONG. W 
PROFUNDIDAD FOCAL (km)                 : 30 
FUENTES DE LOS DATOS EPICENTRALES      : SSN
                                       : INSTITUTO DE GEOFISICA, UNAM

================================================================================
DATOS DE ESTE REGISTRO:
HORA DE LA PRIMERA MUESTRA (GMT)       : 02:08:03
EXACTITUD DEL TIEMPO (s)               : 
DURACION DEL REGISTRO (s), C1-C6       : 47.36/47.36/47.36
DURACION DEL REGISTRO (s), C7-C12      : 
NUM. TOTAL DE MUESTRAS, C1-C6          : 9472/9472/9472
NUM. TOTAL DE MUESTRAS, C7-C12         : 
ACEL. MAX.(Gal), C1-C6                 : 2.9746/1.2218/-2.5052
ACEL. MAX., C1-C6, EN LA MUESTRA       : 4832/5353/3066
ACEL. MAX.(Gal), C7-C12                : 
ACEL. MAX., C7-C12, EN LA MUESTRA      : 
UNIDADES DE LOS DATOS                  : Gal
FACTOR DE DECIMACION                   : 1
FORMATO DATOS (FORTRAN,10 campos/dato) : 3F10.4


===============================================================================
CALIDAD DEL ACELEROGRAMA:
REGISTRO DIGITAL COMPLETO, CARECE DE TIEMPO ABSOLUTO.


===============================================================================
COMENTARIOS:

CADA UNO DE LOS CANALES SE ENCUENTRA AJUSTADO POR LINEA BASE MEDIANTE LA
SUSTRACCION DEL PROMEDIO DE LAS ACELERACIONES EN EL TIEMPO.

MODELO DEL ACELEROGRAFO : SSA-2 (KINEMETRICS)









===============================================================================
DATOS DE ACELERACION:
---------+---------+---------+---------+---------+---------+---------+---------+
   CANAL-1   CANAL-2   CANAL-3   CANAL-4   CANAL-5   CANAL-6   CANAL-7   CANAL-8
      N00E        +V      N90E
---------+---------+---------+---------+---------+---------+---------+---------+
[...]
     .0333     .2414    -.0534
     .0333     .2414    -.0534
     .0333     .2414    -.0534
     .0333     .2414    -.0534
     .0333     .2414    -.5439
     .0333     .2414    -.0534
     .0333     .2414    -.0534
     .0333     .2414    -.5439
     .0333     .2414    -.5439
     .0333     .2414    -.5439
     .0333     .2414    -.5439
     .0333     .2414    -.5439
     .0333     .2414    -.5439
     .0333     .2414    -.5439
     .0333     .2414    -.5439
     .0333     .2414    -.5439
     .5235     .2414    -.5439
     .0333     .2414    -.5439
     .0333     .2414    -.5439
     .5235     .2414    -.5439
     .0333     .2414    -.5439
     .0333     .2414    -.5439
     .0333     .2414    -.5439
     .0333     .2414    -.5439
     .0333     .2414    -.5439
     .0333     .2414    -.5439
     .0333     .2414    -.5439
     .0333    -.2487    -.5439
     .0333     .2414    -.5439
     .0333     .2414    -.5439
     .0333     .2414    -.5439
     .5235     .2414    -.5439
     .0333     .2414    -.5439
     .0333     .2414    -.5439
     .0333     .2414    -.5439
     .5235     .2414    -.5439
     .5235     .2414    -.5439
     .0333     .2414    -.5439
     .5235     .2414    -.0534
     .5235     .2414    -.5439
     .5235     .2414    -.0534
     .5235     .2414    -.0534
     .5235     .2414    -.0534
     .5235     .2414    -.0534
     .5235     .2414    -.0534
     .5235     .2414    -.0534
     .5235     .2414    -.0534
     .5235     .2414    -.0534
     .5235     .2414    -.0534
    1.0137     .2414    -.0534
    1.0137     .2414    -.0534
    1.0137     .2414    -.0534
    1.0137     .2414    -.0534
    1.0137     .2414    -.0534
    1.0137     .2414    -.0534
    1.0137     .2414     .4370
    1.0137     .2414     .4370
    1.0137     .2414     .4370
    1.0137     .2414     .4370
    1.0137     .2414     .4370
    1.0137     .2414     .4370
    1.0137     .2414     .4370
    1.0137     .2414     .4370
    1.0137     .2414     .4370
    1.0137     .2414     .4370
    1.0137     .2414     .4370
    1.0137     .2414     .4370
    1.0137     .2414     .4370
    1.0137     .2414     .9275
    1.5039     .2414     .9275
    1.5039     .2414     .9275
    1.5039     .2414     .9275
    1.5039     .2414     .9275
    1.5039     .2414     .9275
    1.5039     .2414     .9275
    1.5039     .2414     .9275
    1.5039     .2414     .9275
    1.0137     .2414     .4370
    1.0137     .2414     .9275
    1.5039     .2414     .9275
    1.0137     .2414     .9275
    1.5039     .2414     .9275
    1.0137     .2414     .9275
    1.0137     .2414     .9275
    1.0137     .2414     .9275
    1.0137    -.2487     .4370
    1.0137    -.2487     .4370
     .5235    -.2487     .4370
    1.0137    -.2487     .4370
     .5235    -.2487     .4370
     .5235    -.2487     .4370
     .5235    -.2487     .4370
     .5235    -.2487     .4370
     .5235    -.2487     .4370
     .5235    -.2487     .4370
     .5235    -.2487     .4370
     .5235    -.2487     .4370
     .5235    -.2487     .4370
     .5235    -.2487     .4370
     .5235    -.2487     .4370
     .5235    -.2487     .4370
     .5235    -.2487     .4370
     .0333     .2414     .4370
     .0333    -.2487     .4370
     .0333    -.2487     .4370
     .0333     .2414     .4370
     .0333    -.2487     .4370
     .0333    -.2487     .4370
     .0333    -.2487     .4370
     .0333     .2414     .4370
     .0333    -.2487     .4370
     .0333     .2414     .4370
     .0333    -.2487     .4370
     .0333    -.2487     .4370
     .0333     .2414     .4370
     .0333     .2414    -.0534
     .0333     .2414     .4370
     .0333    -.2487     .4370
     .0333    -.2487    -.0534
    -.4569     .2414    -.0534
    -.4569     .2414    -.0534
    -.4569     .2414    -.0534
    -.4569     .2414    -.0534
    -.4569     .2414    -.0534
    -.4569     .2414    -.0534
    -.4569     .2414    -.0534
    -.4569     .2414    -.0534
    -.4569     .2414    -.0534
    -.4569     .2414    -.0534
    -.4569     .2414    -.0534
    -.4569     .2414    -.0534
    -.4569     .2414    -.0534
    -.9472     .2414    -.0534
    -.9472     .2414    -.0534
    -.9472     .2414    -.0534
    -.9472     .2414    -.0534
    -.9472     .2414    -.0534
    -.9472     .2414    -.0534
    -.9472     .2414    -.0534
    -.9472     .2414    -.0534
    -.9472     .2414    -.0534
    -.9472     .2414    -.0534
   -1.4373     .2414    -.0534
   -1.4373     .2414    -.0534
   -1.4373     .2414    -.0534
   -1.4373     .2414    -.0534
   -1.4373     .2414    -.0534
   -1.4373     .2414    -.0534
   -1.4373     .2414    -.0534
   -1.9276     .2414    -.0534
   -1.9276     .2414    -.0534
   -1.9276     .2414    -.0534
   -1.9276     .2414    -.0534
   -1.9276     .2414    -.0534
   -1.9276     .2414    -.0534
   -1.9276     .2414    -.0534
   -1.9276     .2414    -.0534
   -2.4177     .2414    -.0534
   -2.4177    -.2487    -.0534
   -2.4177     .2414    -.0534
   -2.4177    -.2487    -.0534
   -2.4177     .2414    -.0534
   -1.9276     .2414    -.0534
   -2.4177     .2414    -.0534
   -1.9276     .2414    -.0534
   -1.9276     .2414    -.0534
   -1.9276     .2414    -.0534
   -1.9276     .2414    -.0534
   -1.9276     .2414    -.0534
   -1.9276     .2414    -.0534
   -2.4177     .2414    -.0534
   -1.9276     .2414    -.0534
   -1.9276     .2414    -.0534
   -1.9276     .2414    -.0534
   -1.9276     .2414    -.0534
   -1.9276     .2414    -.0534
   -1.9276     .2414    -.0534
   -1.9276     .2414    -.0534
   -1.9276     .2414    -.0534
   -1.9276     .2414    -.0534
   -1.9276     .2414    -.0534
   -1.9276     .2414    -.5439
   -1.9276     .2414    -.5439
   -1.9276     .2414    -.5439
   -1.9276     .2414    -.5439
   -1.9276     .2414    -.5439
   -1.9276     .2414    -.5439
   -1.9276     .2414    -.5439
   -1.9276     .2414    -.5439
   -1.9276     .2414    -.5439
   -1.9276     .2414    -.5439
   -1.9276     .2414    -.5439
   -1.9276    -.2487    -.5439
   -1.9276     .2414    -.5439
   -1.9276     .2414    -.5439
   -1.9276     .2414    -.5439
   -1.4373    -.2487    -.5439
   -1.4373     .2414    -.5439
   -1.4373     .2414    -.5439
   -1.4373     .2414    -.5439
   -1.4373     .2414    -.5439
   -1.4373     .2414    -.5439
   -1.4373    -.2487    -.5439
   -1.4373     .2414    -.5439
   -1.4373     .2414    -.5439
    -.9472     .2414    -.5439
    -.9472     .2414    -.5439
    -.9472     .2414    -.5439
    -.9472     .2414    -.5439
    -.9472     .2414    -.0534
    -.9472     .2414    -.5439
    -.9472     .2414    -.0534
    -.9472     .2414    -.0534
    -.9472     .2414    -.0534
    -.9472     .2414    -.0534
    -.4569     .2414    -.0534
    -.4569     .2414    -.0534
    -.4569     .2414    -.0534
    -.4569     .2414    -.0534
    -.4569     .2414    -.0534
    -.4569     .2414    -.0534
    -.4569     .2414    -.0534
    -.4569     .2414    -.0534
     .0333     .7316    -.0534
     .0333     .7316     .4370
     .0333     .7316     .4370
     .0333     .7316     .4370
     .0333     .7316     .4370
     .0333     .7316     .4370
     .0333     .7316     .4370
     .0333     .7316     .4370
     .0333     .7316     .4370
     .0333     .7316     .4370
     .0333     .7316     .4370
     .5235     .7316     .4370
     .5235     .7316     .4370
     .0333     .7316     .4370
     .5235     .7316     .4370
     .5235     .7316     .4370
     .5235     .7316     .4370
     .5235     .7316     .4370
     .5235     .7316     .4370
     .5235     .7316     .4370
     .5235     .7316     .4370
     .5235     .7316     .4370
     .5235     .7316     .4370
     .5235     .7316     .9275
     .5235     .7316     .4370
     .5235     .7316     .4370
     .5235     .7316     .4370
     .5235     .2414     .4370
     .5235     .7316     .4370
     .5235     .2414     .4370
     .5235     .7316     .9275
     .5235     .2414     .9275
     .5235     .7316     .9275
     .5235     .7316     .9275
     .5235     .2414     .4370
     .5235     .2414     .4370
     .5235     .2414     .4370
     .5235     .2414     .4370
     .5235     .2414     .4370
     .5235     .2414     .9275
     .5235     .2414     .9275
     .5235     .2414     .4370
     .5235     .2414     .4370
     .5235     .2414     .4370
     .5235     .2414     .9275
     .5235     .2414     .9275
     .5235     .2414     .4370
     .5235     .2414     .4370
     .5235     .2414     .4370
     .5235     .2414     .4370
     .5235     .2414     .4370
     .5235     .2414     .4370
     .5235     .2414     .4370
    1.0137     .2414     .4370
     .5235     .2414     .4370
     .5235     .2414     .4370
     .5235    -.2487    -.0534
     .5235    -.2487    -.0534
     .5235    -.2487    -.0534
     .5235    -.2487    -.0534
     .5235    -.2487    -.0534
     .5235    -.2487    -.0534
     .5235    -.2487    -.0534
     .5235    -.2487    -.0534
    1.0137    -.2487    -.0534
    1.0137    -.2487    -.0534
    1.0137    -.2487    -.0534
    1.0137    -.2487    -.0534
    1.0137    -.2487    -.0534
    1.0137    -.2487    -.0534
    1.0137    -.2487    -.0534
    1.0137    -.2487    -.0534
    1.0137    -.2487    -.0534
    1.0137    -.2487    -.0534
    1.0137    -.2487    -.0534
    1.0137    -.2487    -.0534
    1.0137    -.2487    -.0534
    1.5039    -.7390    -.0534
    1.5039    -.2487    -.0534
    1.5039    -.2487    -.0534
    1.5039    -.2487    -.0534
    1.5039    -.2487    -.0534
    1.5039    -.7390    -.0534
    1.5039    -.2487    -.0534
    1.5039    -.7390    -.0534
    1.5039    -.7390    -.0534
    1.5039    -.2487    -.0534
    1.5039    -.7390    -.0534
    1.9941    -.2487    -.0534
    1.9941    -.2487    -.0534
    1.9941    -.2487    -.0534
    1.9941    -.2487    -.0534
    1.9941    -.2487    -.0534
    1.9941    -.2487    -.0534
    1.9941    -.2487    -.0534
    1.9941    -.2487    -.0534
    1.9941    -.2487    -.0534
    2.4843    -.2487    -.0534
    2.4843    -.2487    -.0534
    2.4843    -.2487    -.5439
    2.4843    -.2487    -.0534
    2.4843    -.2487    -.5439
    2.4843    -.2487    -.5439
    2.4843    -.2487    -.5439
    2.4843    -.2487    -.5439
    2.4843    -.2487    -.5439
    2.4843    -.2487    -.5439
    2.4843    -.2487    -.5439
    2.4843    -.2487    -.5439
    2.4843    -.2487    -.5439
    2.4843    -.2487    -.5439
    2.9746    -.2487    -.5439
    2.9746    -.2487    -.5439
    2.9746    -.2487    -.5439
    2.9746    -.2487    -.5439
    2.9746    -.2487    -.5439
    2.9746    -.2487    -.5439
    2.9746    -.2487    -.5439
    2.9746    -.2487    -.5439
    2.9746    -.2487    -.5439
    2.9746    -.2487    -.5439
    2.9746    -.2487    -.5439
    2.9746    -.2487    -.5439
    2.9746    -.2487    -.5439
    2.9746    -.2487    -.5439
    2.9746    -.2487    -.5439
    2.9746    -.2487    -.5439
    2.9746    -.2487   -1.0343
    2.9746    -.2487    -.5439
    2.4843    -.2487   -1.0343
    2.4843    -.2487   -1.0343
    2.4843    -.2487    -.5439
    2.4843    -.2487    -.5439
    2.4843    -.2487    -.5439
    2.4843    -.2487    -.5439
    2.4843    -.2487    -.5439
    2.4843    -.2487    -.5439
    2.4843     .2414    -.5439
    2.4843     .2414    -.0534
    2.4843     .2414    -.0534
    2.4843     .2414    -.0534
    2.4843     .2414    -.0534
    2.4843    -.2487    -.0534
    1.9941     .2414    -.0534
    1.9941    -.2487    -.0534
    1.9941     .2414    -.0534
    1.9941    -.2487    -.0534
    1.9941     .2414    -.0534
    1.5039     .2414    -.0534
    1.5039    -.2487    -.0534
    1.5039     .2414    -.0534
    1.5039    -.2487    -.0534
    1.5039    -.2487     .4370
    1.0137     .2414     .4370
    1.0137    -.2487     .4370
    1.0137    -.2487     .4370
    1.0137     .2414     .4370
    1.0137    -.2487     .4370
    1.0137     .2414     .4370
     .5235    -.2487     .4370
     .5235     .2414     .4370
     .5235    -.2487     .4370
     .5235     .2414     .4370
     .5235     .2414     .4370
     .5235     .2414     .4370
     .5235     .2414     .9275
     .5235     .2414     .9275
     .5235     .2414     .9275
     .5235     .2414     .9275
     .5235     .2414     .9275
     .5235     .2414     .9275
     .0333     .2414     .9275
     .0333     .2414     .9275
     .0333     .2414     .9275
     .0333     .2414     .9275
     .0333     .2414     .9275
     .0333    -.2487     .9275
     .0333     .2414     .9275
     .0333     .2414     .9275
     .0333     .2414     .9275
     .0333     .2414     .9275
     .0333     .2414     .9275
     .0333     .2414     .9275
     .0333     .2414     .9275
     .0333     .2414     .9275
     .0333     .2414     .9275
     .0333     .2414     .9275
     .0333     .2414     .9275
     .0333     .2414     .9275
     .0333     .2414     .9275
     .0333     .2414     .9275
     .0333     .2414     .9275
     .0333     .2414     .9275
     .0333     .2414     .9275
    -.4569     .2414     .9275
     .0333     .2414     .9275
    -.4569     .2414     .9275
    -.4569     .2414     .9275
    -.4569     .2414     .9275
    -.4569     .2414     .9275
    -.4569     .2414     .4370
    -.4569     .2414     .4370
    -.4569     .2414     .4370
    -.4569     .2414     .4370
    -.4569     .2414     .4370
    -.4569     .2414     .4370
    -.4569     .2414     .4370
    -.4569     .2414     .4370
    -.4569     .2414     .4370
    -.4569     .2414     .4370
    -.4569     .2414     .4370
    -.4569     .2414     .4370
    -.4569     .2414     .4370
    -.9472     .2414     .4370
    -.9472     .2414     .4370
    -.4569     .2414     .4370
    -.9472     .2414     .4370
    -.4569     .2414     .4370
    -.4569     .2414     .4370
    -.4569     .2414     .4370
    -.4569    -.2487    -.0534
    -.9472     .2414     .4370
    -.4569     .2414     .4370
    -.4569     .2414     .4370
    -.9472     .2414     .4370
    -.9472     .2414     .4370
    -.9472     .2414     .4370
    -.4569     .2414     .4370
    -.4569     .2414     .4370
    -.9472     .2414     .4370
    -.4569     .2414     .4370
    -.9472     .2414     .4370
    -.4569     .2414     .4370
    -.4569     .2414     .4370
    -.4569     .2414     .4370
    -.4569     .2414     .4370
    -.4569     .2414     .4370
    -.4569     .2414     .4370
    -.4569     .2414     .4370
    -.4569     .2414     .4370
    -.4569     .2414     .4370
    -.4569     .2414     .4370
    -.4569     .2414     .4370
    -.4569     .2414     .4370
    -.4569     .2414     .4370
    -.4569     .2414     .4370
    -.4569     .2414     .4370
    -.4569     .2414     .4370
    -.4569     .2414     .4370
    -.4569     .2414     .4370
    -.4569     .2414     .4370
    -.4569     .2414     .4370
    -.9472     .2414    -.0534
    -.9472     .2414    -.0534
    -.9472     .2414    -.0534
