**************************************************************************************
  RED ACELEROGRÁFICA DE LA UNIVERSIDAD AUTONOMA METROPOLITANA (RAUAM)
				UNIDAD AZCAPOTZALCO
                        DIVISIÓN CBI-DEPARTAMENTO DE MATERIALES
     Av. San Pablo 180, Col. Reynosa, Azcapotzalco, C.P. 02200, Ciudad de México
**************************************************************************************
ARCHIVO ESTANDAR DE ACELERACION:
VERSION DEL FORMATO                    : 2.0
NOMBRE DEL ARCHIVO                     : RIDA201709231
FECHA Y HORA DE CREACION               : MON JUL 18 12:30:07 2018
REF. CATALOGO ACELEROGRAMAS, SMIS 1995 : REGISTRO NO.      /PAG.    


================================================================================
DATOS DE LA ESTACION:
NOMBRE DE LA ESTACION                  : UAM-AZCAPOTZALCO.
CLAVE DE LA ESTACION                   : RIDA
LOCALIZACION DE LA ESTACION            : AV. SAN PABLO 180,COL.REYNOSA, AZCAPOTZALCO,
                                       : C.P.02200 CIUDAD DE MEXICO.
                                       :
                                       : 
                                       : 
COORDENADAS DE LA ESTACION             : 19.498596 LAT. N
                                       : 99.195595 LONG. W
ALTITUD (msnm)                         : 2246
TIPO DE SUELO                          : TRANSICION 
                                       : 
                                       : 
INSTITUCION RESPONSABLE                : UNIVERSIDAD AUTONOMA METROPOLITANA
                                       : 

================================================================================
DATOS DEL ACELEROGRAFO: 
MODELO DEL ACELEROGRAFO                : BASALT KINEMETRICS
NUMERO DE SERIE DEL ACELEROGRAFO       : 1730
NUMERO DE CANALES                      : 3
ORIENTACION C1-C6 (rumbo;orientacion)  : /V/N00E/N90E
ORIENTACION C7-C12 (rumbo;orientacion) : 
VEL. DE MUESTREO, C1-C6 (muestras/s)   : /250/250/250
VEL. DE MUESTREO, C7-C12 (muestras/s)  : 
ESC. COMPLETA DE SENSORES, C1-C6, (g)  : /2/2/2
ESC. COMPLETA DE SENSORES, C7-C12 (g)  : 
FREC. NAT. DE SENSORES, C1-C6, (Hz)    : /210/106/212
FREC. NAT. DE SENSORES, C7-C12 (Hz)    : 
AMORTIGUAMIENTO DE SENSORES, C1-C6     : /0.7/0.7/0.7   
AMORTIGUAMIENTO DE SENSORES, C7-C12    : 
INTERVALO DE MUESTREO, C1-C6 (s)       : /0.004/0.004/0.004
INTERVALO DE MUESTREO, C7-C12 (s)      : 
UMBRAL DE DISPARO, C1-C6 (Gal)         : /2/2/2
UMBRAL DE DISPARO, C7-C12 (Gal)        : 
MEMORIA DE PREEVENTO (s)               : 30
TIEMPO DE POSEVENTO (s)                : 60


================================================================================
DATOS DEL SISMO:
FECHA DEL SISMO [GMT]                  : 2017/09/23
HORA EPICENTRO (GMT)                   : 12:53:01
MAGNITUD(ES)                           : /M=6.1
COORDENADAS DEL EPICENTRO              : 16.496 LAT. N
                                       : 95.146 LONG. W
PROFUNDIDAD FOCAL (Km)                 : 10.0
FUENTE DE LOS DATOS EPICENTRALES       : SSN
                                       : INSTITUTO DE GEOFISICA, UNAM

================================================================================
DATOS DE ESTE REGISTRO:
HORA DE LA PRIMERA MUESTRA (GMT)       : 12:55:09.00
EXACTITUD DEL TIEMPO (s)               : 
DURACION DEL REGISTRO (s), C1-C6       : /107.00/107.00/107.00
DURACION DEL REGISTRO (s), C7-C12      : 
NUM. TOTAL DE MUESTRAS, C1-C6          : /26750/26750/26750
NUM. TOTAL DE MUESTRAS, C7-C12         : 
ACEL. MAX.(Gal), C1-C6                 : /0.331/1.373/1.747
ACEL. MAX., C1-C6, EN LA MUESTRA       : /10225/11444/7980
ACEL. MAX.(Gal), C7-C12                : 
ACEL. MAX., C7-C12,EN LA MUESTRA       : 
UNIDADES DE LOS DATOS                  : Gal (cm/s/s)
FACTOR DE DECIMACION                   : 1
FORMATO DATOS (FORTRAN,16 campos/dato) : 3E16.7


================================================================================
CALIDAD DEL ACELEROGRAMA:
REGISTRO DIGITAL COMPLETO CON TIEMPO ABSOLUTO CORRECTO


================================================================================
COMENTARIOS:














================================================================================
DATOS DE ACELERACION:
---------+---------+---------+---------+---------+---------+---------+---------+
   CANAL-1           CANAL-2        CANAL-3
         V            N00E             N90E
---------+---------+---------+---------+---------+---------+---------+---------+ 
[...]
 -1.2249908e-001  5.1135995e-002  1.0743812e+000
 -1.2507205e-001  6.7274229e-002  1.0958989e+000
 -1.4004093e-001  8.2944723e-002  1.1043190e+000
 -1.6331261e-001  1.1253168e-001  1.0759014e+000
 -1.6062310e-001  1.3054127e-001  1.0728611e+000
 -1.5243685e-001  1.2247196e-001  1.0857247e+000
 -1.6214325e-001  1.4819967e-001  1.0594123e+000
 -1.6693799e-001  1.4855047e-001  1.0321645e+000
 -1.7407143e-001  1.5989436e-001  1.0395318e+000
 -1.8143913e-001  2.1743080e-001  1.0230427e+000
 -1.7781375e-001  2.0667197e-001  9.8339856e-001
 -1.7863229e-001  2.2666946e-001  9.7392603e-001
 -1.8073752e-001  2.7637085e-001  9.4831526e-001
 -1.9301650e-001  2.8864983e-001  9.1369969e-001
 -1.8716935e-001  3.0467113e-001  8.8224177e-001
 -1.7722907e-001  3.3612944e-001  8.3031861e-001
 -1.8342703e-001  3.7132969e-001  7.9418289e-001
 -1.7605972e-001  3.6174021e-001  7.6693463e-001
 -1.8518145e-001  4.0150132e-001  7.2951262e-001
 -1.7839842e-001  4.3342699e-001  6.6940322e-001
 -1.5442514e-001  4.2570848e-001  6.2589980e-001
 -1.4705744e-001  4.7868444e-001  5.9818419e-001
 -1.3442765e-001  4.8792311e-001  5.2766677e-001
 -1.2355150e-001  5.0745285e-001  4.7469081e-001
 -1.0226772e-001  5.5118976e-001  4.3609905e-001
 -9.0339547e-002  5.6323526e-001  3.7107837e-001
 -7.9814594e-002  5.9013232e-001  3.1050084e-001
 -6.3676359e-002  6.0989594e-001  2.5588818e-001
 -6.2389680e-002  6.3164745e-001  2.0782389e-001
 -4.3912741e-002  6.3293413e-001  1.5391244e-001
 -3.1867238e-002  6.4661634e-001  9.7077619e-002
 -1.7950772e-002  6.6123441e-001  3.8488375e-002
 -2.5141486e-003  6.5316549e-001 -1.0160200e-002
  3.8007446e-003  6.6918679e-001 -5.2026533e-002
  2.4733715e-002  6.6228683e-001 -1.1657947e-001
  2.8709904e-002  6.7047308e-001 -1.6628086e-001
  4.4848139e-002  6.6988840e-001 -2.0089642e-001
  6.3559341e-002  6.5760903e-001 -2.3983898e-001
  7.0575845e-002  6.7409846e-001 -2.8685046e-001
  9.1742686e-002  6.4006757e-001 -3.2930147e-001
  9.2795495e-002  6.4030144e-001 -3.4427036e-001
  9.1274945e-002  6.4708408e-001 -3.8566856e-001
  9.0456399e-002  5.9352383e-001 -4.4320499e-001
  8.6714080e-002  6.0135888e-001 -4.6413796e-001
  9.3614041e-002  6.0147582e-001 -4.9746724e-001
  9.5134199e-002  5.5341192e-001 -5.5266497e-001
  9.4432588e-002  5.5376272e-001 -5.7324714e-001
  8.1802409e-002  5.4920186e-001 -5.8763134e-001
  7.6773803e-002  4.9926660e-001 -6.2318239e-001
  7.6189127e-002  4.9131423e-001 -6.3569524e-001
  6.4494822e-002  4.7739815e-001 -6.5838263e-001
  6.6599656e-002  4.2301897e-001 -6.9194578e-001
  5.5606962e-002  4.1997826e-001 -6.9030830e-001
  4.3561852e-002  3.9097598e-001 -7.1767349e-001
  4.3678787e-002  3.5636080e-001 -7.4188104e-001
  4.0053403e-002  3.6033660e-001 -7.3743711e-001
  3.8767116e-002  3.2735852e-001 -7.6082572e-001
  3.2569158e-002  3.0899812e-001 -7.7298815e-001
  3.3972381e-002  2.9449698e-001 -7.8140788e-001
  3.5843344e-002  2.6315599e-001 -7.8959413e-001
  3.6311085e-002  2.3485532e-001 -7.8936026e-001
  3.4673992e-002  2.1053123e-001 -8.0187311e-001
  2.8709904e-002  1.7872211e-001 -8.1602345e-001
  3.0346997e-002  1.5077263e-001 -8.0889001e-001
  3.1633284e-002  1.4340493e-001 -7.9555822e-001
  3.8650181e-002  1.0446276e-001 -8.0900694e-001
  4.4731204e-002  7.7916117e-002 -7.9625983e-001
  4.7888847e-002  7.2653641e-002 -7.7661315e-001
  4.8590458e-002  5.1486800e-002 -7.7509299e-001
  6.1687985e-002  3.2775599e-002 -7.5532937e-001
  7.9346770e-002  1.9327266e-002 -7.4106210e-001
  8.1451603e-002 -9.0409341e-004 -7.2831538e-001
  1.0320351e-001 -4.0899071e-002 -7.0036551e-001
  1.0776399e-001 -4.6161547e-002 -6.6914146e-001
  1.0261844e-001 -6.3118721e-002 -6.6224189e-001
  1.2413648e-001 -9.9605250e-002 -6.2563803e-001
  1.2553971e-001 -9.3407292e-002 -5.7675558e-001
  1.2904815e-001 -1.1609429e-001 -5.8307048e-001
  1.3816988e-001 -1.3328533e-001 -5.4974120e-001
  1.4191181e-001 -1.2919221e-001 -5.1009703e-001
  1.4588800e-001 -1.3620871e-001 -5.0191117e-001
  1.4390010e-001 -1.4743528e-001 -4.5992829e-001
  1.4495252e-001 -1.7269524e-001 -4.4215257e-001
  1.3407676e-001 -1.6404165e-001 -4.2285670e-001
  1.2974976e-001 -1.8555929e-001 -3.6613881e-001
  1.3080218e-001 -2.1210555e-001 -3.3713652e-001
  1.3454450e-001 -1.9222499e-001 -3.2088135e-001
  1.4062552e-001 -2.2263050e-001 -2.8100331e-001
  1.2261593e-001 -2.2520347e-001 -2.3282209e-001
  1.1279259e-001 -2.0906523e-001 -2.1387741e-001
  1.1115550e-001 -2.3198610e-001 -1.9668636e-001
  1.0589302e-001 -2.2894578e-001 -1.5528816e-001
  1.1443008e-001 -2.4274492e-001 -1.3879912e-001
  1.1033695e-001 -2.6087145e-001 -1.2546733e-001
  9.6771292e-002 -2.7899797e-001 -1.0827668e-001
  9.0222528e-002 -3.0449181e-001 -7.5064337e-002
  8.4960052e-002 -2.9852733e-001 -3.3198396e-002
  8.9520917e-002 -3.0998816e-001 -3.6238711e-002
  8.9170111e-002 -3.2133166e-001 -1.9743432e-003
  8.9520917e-002 -3.0180191e-001  5.0533878e-002
  9.2678560e-002 -2.9841039e-001  5.9421738e-002
  9.3263236e-002 -3.1513370e-001  7.4390621e-002
  8.8702371e-002 -2.8811931e-001  1.2034969e-001
  7.7826612e-002 -2.7911491e-001  1.5940879e-001
  9.0339463e-002 -3.0449181e-001  1.7274058e-001
  9.9578129e-002 -2.6016984e-001  2.0852550e-001
  9.8291842e-002 -2.6940850e-001  2.2665202e-001
  9.1508815e-002 -2.8332458e-001  2.6676394e-001
  8.1217733e-002 -2.2567121e-001  3.0991616e-001
  7.9112899e-002 -2.2859498e-001  2.9997589e-001
  8.0165316e-002 -2.2111034e-001  3.5014501e-001
  9.2444297e-002 -1.8240165e-001  4.0171775e-001
  7.9931446e-002 -1.7094122e-001  4.1306125e-001
  6.4728693e-002 -1.6813477e-001  4.4674134e-001
  6.4377887e-002 -1.3071237e-001  4.9772901e-001
  6.0869439e-002 -1.0533547e-001  5.2965467e-001
  6.1103309e-002 -1.0159315e-001  5.5351141e-001
  5.0695291e-002 -5.8323985e-002  5.9923661e-001
  4.3678787e-002 -3.5051919e-002  6.3151308e-001
  3.8650181e-002 -6.8685734e-003  6.8694468e-001
  4.4380398e-002  1.8625655e-002  7.2705659e-001
  4.5082009e-002  2.4355872e-002  7.4296096e-001
  3.3036899e-002  5.1252930e-002  8.1768843e-001
  3.1867155e-002  6.5987942e-002  8.6996279e-001
  2.5318391e-002  7.1250419e-002  8.7674542e-001
  3.0346997e-002  8.9493879e-002  9.2048272e-001
  3.6428020e-002  1.0282528e-001  9.6129624e-001
  3.1516349e-002  1.0200673e-001  9.6901436e-001
  3.3855445e-002  1.3884407e-001  1.0042146e+000
  3.1633284e-002  1.5053876e-001  1.0271359e+000
  3.2569158e-002  1.5334521e-001  1.0537990e+000
  4.7771911e-002  1.9708250e-001  1.0976533e+000
  3.3270769e-002  1.9018293e-001  1.1059561e+000
  1.8301887e-002  2.0199417e-001  1.1316842e+000
  4.4848139e-002  2.2970978e-001  1.1634929e+000
  2.2278076e-002  2.2608479e-001  1.1955355e+000
  3.3330038e-003  2.2491544e-001  1.2142467e+000
  1.4208762e-002  2.4444479e-001  1.2181060e+000
 -1.4793522e-002  2.5532094e-001  1.2377526e+000
 -1.4442716e-002  2.3415371e-001  1.2557618e+000
 -1.2337490e-002  2.6888621e-001  1.2707307e+000
 -2.4967669e-002  2.5684110e-001  1.2398575e+000
 -3.3270853e-002  2.3649281e-001  1.2609074e+000
 -5.1396986e-002  2.8900063e-001  1.3089717e+000
 -6.5313452e-002  2.5929674e-001  1.2650005e+000
 -7.4552118e-002  2.5988141e-001  1.2731867e+000
 -6.4261035e-002  2.8748048e-001  1.3007854e+000
 -8.2153298e-002  2.5999835e-001  1.2780984e+000
 -9.0105677e-002  2.7800794e-001  1.2736545e+000
 -8.9521001e-002  2.9087199e-001  1.2652344e+000
 -1.1980957e-001  2.8151639e-001  1.2641820e+000
 -1.1232493e-001  2.9508166e-001  1.2878048e+000
 -1.1735354e-001  3.0420339e-001  1.2771625e+000
 -1.2261602e-001  2.9157360e-001  1.2363490e+000
 -1.1361122e-001  3.0467113e-001  1.2660529e+000
 -1.2261602e-001  3.1005054e-001  1.2609074e+000
 -1.2413657e-001  3.0396952e-001  1.1844259e+000
 -1.3033452e-001  3.3332261e-001  1.1868819e+000
 -1.2682608e-001  3.2969722e-001  1.1774094e+000
 -1.3150388e-001  3.5834870e-001  1.1382329e+000
 -1.2705995e-001  3.7776151e-001  1.1056053e+000
 -1.2320069e-001  3.5203381e-001  1.0578922e+000
 -1.2939904e-001  3.8442721e-001  1.0460809e+000
 -1.2249908e-001  3.8068489e-001  1.0301762e+000
 -1.2741075e-001  3.6197408e-001  9.8094292e-001
 -1.0460682e-001  3.6711963e-001  9.2995525e-001
 -9.2561316e-002  3.5448945e-001  9.0878802e-001
 -1.0051369e-001  3.3858508e-001  8.7159988e-001
 -1.0203385e-001  3.3051577e-001  8.1067193e-001
 -1.0694552e-001  3.2291459e-001  7.6588222e-001
 -9.5835894e-002  2.8479057e-001  7.1501148e-001
 -9.7940727e-002  2.7835875e-001  6.7115725e-001
 -1.0179998e-001  2.6654751e-001  6.0999543e-001
 -1.1057091e-001  2.2409650e-001  5.4380501e-001
 -1.0215079e-001  2.2152392e-001  4.9644233e-001
 -9.2210510e-002  2.0585343e-001  4.3645025e-001
 -1.0729633e-001  1.7579873e-001  3.6745299e-001
 -1.0238466e-001  1.7287496e-001  3.0406901e-001
 -1.1057091e-001  1.7521405e-001  2.5050877e-001
 -1.0413908e-001  1.5065570e-001  1.8080989e-001
 -9.0690353e-002  1.4048155e-001  1.1824446e-001
 -9.7005246e-002  1.4983715e-001  5.8368929e-002
 -8.8585127e-002  1.1697561e-001 -1.6943226e-002
 -9.3379862e-002  1.1101153e-001 -5.7172074e-002
 -9.3496797e-002  1.3194450e-001 -1.1552706e-001
 -7.7475498e-002  9.9200286e-002 -2.1025202e-001
 -7.1277540e-002  8.7739459e-002 -2.6065502e-001
 -7.3499701e-002  1.0048657e-001 -3.1105801e-001
 -8.1568622e-002  7.0899613e-002 -3.9210039e-001
 -8.6714163e-002  7.1133483e-002 -4.4846747e-001
 -8.5544811e-002  8.8207200e-002 -4.9828579e-001
 -8.0165400e-002  6.1076271e-002 -5.5652423e-001
 -6.6015063e-002  6.0959336e-002 -6.0423732e-001
 -5.7361074e-002  7.6629830e-002 -6.5616047e-001
 -6.1571133e-002  6.0374660e-002 -7.0866869e-001
 -5.7127203e-002  5.9673049e-002 -7.4223184e-001
 -5.0461505e-002  6.3648846e-002 -7.9661063e-001
 -5.5022370e-002  5.3357763e-002 -8.6432161e-001
 -4.3093802e-002  4.7744481e-002 -9.0115894e-001
 -2.4850734e-002  3.9207819e-002 -9.5226355e-001
 -2.3564447e-002  2.1899840e-002 -1.0166999e+000
 -4.7363098e-003 -6.2835050e-003 -1.0773940e+000
 -1.8125374e-003 -1.3066531e-002 -1.1314224e+000
 -1.5845939e-002 -3.0374118e-002 -1.1785508e+000
  1.6955186e-003 -6.7562651e-002 -1.2426364e+000
  1.3273281e-002 -7.1538448e-002 -1.2991204e+000
  2.3096622e-002 -1.0346450e-001 -1.3446118e+000
  3.7363894e-002 -1.4544738e-001 -1.3822680e+000
  4.2275172e-002 -1.6041626e-001 -1.4366468e+000
  4.5082009e-002 -1.9947576e-001 -1.4914937e+000
  5.7244055e-002 -2.4344653e-001 -1.5166368e+000
  7.2681071e-002 -2.5689526e-001 -1.5535914e+000
  6.9874234e-002 -2.7794516e-001 -1.5933525e+000
  8.3790700e-002 -3.1899295e-001 -1.6237580e+000
  1.0308658e-001 -3.2636026e-001 -1.6402471e+000
  1.0893373e-001 -3.5173716e-001 -1.6607123e+000
  1.2401955e-001 -3.8600192e-001 -1.6884279e+000
  1.2904815e-001 -3.9161520e-001 -1.7024613e+000
  1.3419369e-001 -4.2541222e-001 -1.7150915e+000
  1.4658961e-001 -4.4809922e-001 -1.7159101e+000
  1.5582828e-001 -4.6143101e-001 -1.7347382e+000
  1.5793311e-001 -4.8598937e-001 -1.7490055e+000
  1.5606215e-001 -4.9768367e-001 -1.7385970e+000
  1.6132462e-001 -4.9429216e-001 -1.7457309e+000
  1.5840124e-001 -4.8248092e-001 -1.7436257e+000
  1.6179236e-001 -4.8563856e-001 -1.7368430e+000
  1.6179236e-001 -4.7827086e-001 -1.7254995e+000
  1.5138435e-001 -4.6575801e-001 -1.7037480e+000
  1.5079967e-001 -4.6353585e-001 -1.6883110e+000
  1.5150128e-001 -4.5418024e-001 -1.6622325e+000
  1.5805005e-001 -4.4447384e-001 -1.6241089e+000
  1.5606215e-001 -4.4435690e-001 -1.5887917e+000
  1.5044886e-001 -4.3663879e-001 -1.5600233e+000
  1.4764203e-001 -4.0564861e-001 -1.5222501e+000
  1.5758230e-001 -4.0132161e-001 -1.4859974e+000
  1.6927700e-001 -3.8845756e-001 -1.4444823e+000
  1.6307865e-001 -3.5512867e-001 -1.3991079e+000
  1.6448227e-001 -3.5173716e-001 -1.3601653e+000
  1.5898592e-001 -3.2448930e-001 -1.3008748e+000
  1.6880926e-001 -2.9618863e-001 -1.2545646e+000
  1.7079716e-001 -2.8519593e-001 -1.2076700e+000
  1.5267063e-001 -2.5549204e-001 -1.1386728e+000
  1.6249398e-001 -2.3374052e-001 -1.0862819e+000
  1.5103354e-001 -2.2473572e-001 -1.0323704e+000
  1.3045138e-001 -1.9620118e-001 -9.6384131e-001
  1.2705986e-001 -1.6836864e-001 -8.9975572e-001
  1.2869735e-001 -1.7550208e-001 -8.5063901e-001
  1.2226513e-001 -1.5562153e-001 -7.7813370e-001
  1.0402206e-001 -1.2650231e-001 -7.0141793e-001
  1.0098135e-001 -1.3714420e-001 -6.5066412e-001
  8.7415691e-002 -1.2194144e-001 -5.7429955e-001
  8.6597145e-002 -9.4927450e-002 -4.9594708e-001
  8.7415691e-002 -8.5688784e-002 -4.2086880e-001
  8.1685474e-002 -6.9784420e-002 -3.5397637e-001
  9.3847912e-002 -4.4407519e-002 -2.8930650e-001
  7.8060483e-002 -1.6457652e-002 -2.0054562e-001
  8.6012469e-002  4.9912899e-004 -1.3798058e-001
  9.1158010e-002  3.3126404e-002 -6.8866379e-002
  7.6773803e-002  7.0081067e-002  8.1998040e-003
  9.5134199e-002  8.5283820e-002  7.7430936e-002
  9.2210427e-002  1.2177035e-001  1.6011079e-001
  9.0807204e-002  1.6328548e-001  2.3565682e-001
  9.3614041e-002  1.9111842e-001  3.1389235e-001
  9.3029365e-002  2.3660974e-001  3.9294683e-001
  1.0437286e-001  2.7695552e-001  4.7550936e-001
  1.0226764e-001  3.0069533e-001  5.5795534e-001
  9.8759583e-002  3.4033911e-001  6.4601422e-001
  9.8642647e-002  3.7191436e-001  7.3138359e-001
  1.0051361e-001  3.8875421e-001  7.9383169e-001
  9.6069681e-002  4.1553433e-001  8.6306282e-001
  8.8351565e-002  4.3658463e-001  9.3439879e-001
  8.1685474e-002  4.6535265e-001  9.9918599e-001
  8.5778598e-002  4.8207595e-001  1.0591785e+000
  9.1976556e-002  4.9657670e-001  1.1192879e+000
  8.4726181e-002  5.2405883e-001  1.1754211e+000
  8.3322959e-002  5.3201081e-001  1.2213801e+000
  7.6072192e-002  5.5960988e-001  1.2763440e+000
  7.0809715e-002  5.6955015e-001  1.3232389e+000
  7.5955257e-002  5.7411102e-001  1.3688472e+000
  8.0983863e-002  5.9866937e-001  1.4184316e+000
  8.0516122e-002  5.8334968e-001  1.4532807e+000
  7.9697575e-002  5.7282473e-001  1.4928079e+000
  8.2036279e-002  5.7890575e-001  1.5325690e+000
  7.8995964e-002  5.6849774e-001  1.5609866e+000
  8.5895533e-002  5.4651196e-001  1.5926784e+000
  8.8000759e-002  5.4475793e-001  1.6305686e+000
  8.0165316e-002  5.4054787e-001  1.6534894e+000
  7.7826612e-002  5.1786087e-001  1.6732531e+000
  7.6656868e-002  5.2394189e-001  1.6962913e+000
  7.2212938e-002  5.1973183e-001  1.6953558e+000
  7.5019775e-002  4.9517348e-001  1.6886897e+000
  7.8411288e-002  4.8675375e-001  1.6924320e+000
  6.5664174e-002  4.6827642e-001  1.6904441e+000
  5.8530735e-002  4.4254872e-001  1.6827256e+000
  5.6659379e-002  4.3752011e-001  1.6851812e+000
  5.8881540e-002  4.1530046e-001  1.6736039e+000
  5.2215449e-002  3.9015743e-001  1.6709144e+000
  4.7303778e-002  3.8349173e-001  1.6733700e+000
  5.0578356e-002  3.5858257e-001  1.6322057e+000
  3.7363894e-002  3.4337982e-001  1.6154828e+000
  4.6952973e-002  3.3776654e-001  1.6019171e+000
  4.5082009e-002  3.2572143e-001  1.5577121e+000
  3.1165543e-002  3.0186468e-001  1.5223949e+000
  3.6778825e-002  2.7648778e-001  1.4967841e+000
  2.0523655e-002  2.7929423e-001  1.4688346e+000
  1.4208762e-002  2.5789352e-001  1.4248635e+000
  1.3156345e-002  2.2433037e-001  1.3963289e+000
 -1.6956022e-003  2.2760495e-001  1.3649879e+000
 -7.8935602e-003  2.0433288e-001  1.3225369e+000
 -2.1693091e-002  1.7439511e-001  1.2833609e+000
 -4.1456709e-002  1.8421845e-001  1.2413776e+000
 -5.4671564e-002  1.4773193e-001  1.1982254e+000
 -5.9700170e-002  1.1498771e-001  1.1565933e+000
 -6.6599739e-002  1.1416917e-001  1.1155455e+000
 -7.2096086e-002  6.0491595e-002  1.0631546e+000
 -8.4024654e-002  4.6925935e-002  1.0410523e+000
