**************************************************************************************
  RED ACELEROGRÁFICA DE LA UNIVERSIDAD AUTONOMA METROPOLITANA (RAUAM)
				UNIDAD AZCAPOTZALCO
                        DIVISIÓN CBI-DEPARTAMENTO DE MATERIALES
     Av. San Pablo 180, Col. Reynosa, Azcapotzalco, C.P. 02200, Ciudad de México
**************************************************************************************
ARCHIVO ESTANDAR DE ACELERACION:
VERSION DEL FORMATO                    : 2.0
NOMBRE DEL ARCHIVO                     : RIDA201709191
FECHA Y HORA DE CREACION               : 11:19 a. m. 27/09/2017
REF. CATALOGO ACELEROGRAMAS, SMIS 1995 : REGISTRO NO.      /PAG.    


================================================================================
DATOS DE LA ESTACION:
NOMBRE DE LA ESTACION                  : UAM-AZCAPOTZALCO.
CLAVE DE LA ESTACION                   : RIDA
LOCALIZACION DE LA ESTACION            : AV. SAN PABLO 180, COL.REYNOSA, AZCAPOTZALCO,
                                       : C.P.02200 CIUDAD DE MEXICO.
                                       :
                                       : 
                                       : 
COORDENADAS DE LA ESTACION             : 19.498596 LAT. N
                                       : 99.195595 LONG. W
ALTITUD (msnm)                         : 2246
TIPO DE SUELO                          : ZONA DE TRANSICION 
                                       : 
                                       : 
INSTITUCION RESPONSABLE                : UAM-AZCAPOTZALCO
                                       : 

================================================================================
DATOS DEL ACELEROGRAFO: 
MODELO DEL ACELEROGRAFO                : BASALT KINEMETRICS
NUMERO DE SERIE DEL ACELEROGRAFO       : 1730
NUMERO DE CANALES                      : 3
ORIENTACION C1-C6 (rumbo;orientacion)  : /V/N00E/N90E
ORIENTACION C7-C12 (rumbo;orientacion) : 
VEL. DE MUESTREO, C1-C6 (muestras/s)   : /250/250/250
VEL. DE MUESTREO, C7-C12 (muestras/s)  : 
ESC. COMPLETA DE SENSORES, C1-C6, (g)  : /2/2/2
ESC. COMPLETA DE SENSORES, C7-C12 (g)  : 
FREC. NAT. DE SENSORES, C1-C6, (Hz)    : /210/206/212
FREC. NAT. DE SENSORES, C7-C12 (Hz)    : 
AMORTIGUAMIENTO DE SENSORES, C1-C6     : /0.70/0.70/0.70   
AMORTIGUAMIENTO DE SENSORES, C7-C12    : 
INTERVALO DE MUESTREO, C1-C6 (s)       : /0.004/0.004/0.004
INTERVALO DE MUESTREO, C7-C12 (s)      : 
UMBRAL DE DISPARO, C1-C6 (Gal)         : /2/2/2
UMBRAL DE DISPARO, C7-C12 (Gal)        : 
MEMORIA DE PREEVENTO (s)               : 30
TIEMPO DE POSEVENTO (s)                : 60


================================================================================
DATOS DEL SISMO:
FECHA DEL SISMO [GMT]                  : 2017/09/19
HORA EPICENTRO (GMT)                   : 18:14:39
MAGNITUD(ES)                           : /M=7.1
COORDENADAS DEL EPICENTRO              : 18.3297 LAT. N
                                       : -98.6712 LONG. W
PROFUNDIDAD FOCAL (Km)                 : 51.2
FUENTE DE LOS DATOS EPICENTRALES       : SSN
                                       : INSTITUTO DE GEOFISICA, UNAM

================================================================================
DATOS DE ESTE REGISTRO:
HORA DE LA PRIMERA MUESTRA (GMT)       : 18:14:31.00
EXACTITUD DEL TIEMPO (s)               : 
DURACION DEL REGISTRO (s), C1-C6       : /272.00/272.00/272.00
DURACION DEL REGISTRO (s), C7-C12      : 
NUM. TOTAL DE MUESTRAS, C1-C6          : /68000/68000/68000
NUM. TOTAL DE MUESTRAS, C7-C12         : 
ACEL. MAX.(Gal), C1-C6                 : /32.849/69.431/75.957
ACEL. MAX., C1-C6, EN LA MUESTRA       : /13281/14358/13798
ACEL. MAX.(Gal), C7-C12                : 
ACEL. MAX., C7-C12,EN LA MUESTRA       : 
UNIDADES DE LOS DATOS                  : Gal (cm/s/s)
FACTOR DE DECIMACION                   : 1
FORMATO DATOS (FORTRAN,16 campos/dato) : 3E16.7


================================================================================
CALIDAD DEL ACELEROGRAMA:
REGISTRO DIGITAL COMPLETO CON TIEMPO ABSOLUTO CORRECTO


================================================================================
COMENTARIOS:














================================================================================
DATOS DE ACELERACION:
---------+---------+---------+---------+---------+---------+---------+---------+
   CANAL-1  	    CANAL-2 	     CANAL-3
       V     	     N00E              N90E
---------+---------+---------+---------+---------+---------+---------+---------+
[...]
   6.8492403e-01  -3.5928914e+01  -1.9954349e+01
   8.3244469e-01  -3.9995774e+01  -1.8255631e+01
   1.2712770e+00  -4.3980246e+01  -1.6859513e+01
   1.9872056e+00  -4.7811528e+01  -1.5124447e+01
   2.7725827e+00  -5.1003482e+01  -1.3605372e+01
   3.4851320e+00  -5.4202341e+01  -1.2021663e+01
   4.1393026e+00  -5.6860645e+01  -1.0172991e+01
   4.6044695e+00  -5.8863472e+01  -8.5791134e+00
   4.9040549e+00  -6.0619134e+01  -7.1398671e+00
   5.1007487e+00  -6.1622654e+01  -5.4977192e+00
   5.0744142e+00  -6.2098961e+01  -4.0685245e+00
   4.9060357e+00  -6.2467601e+01  -2.7795845e+00
   4.6363975e+00  -6.2649112e+01  -1.1885126e+00
   4.1376710e+00  -6.2863977e+01   4.8694592e-01
   3.4005350e+00  -6.3417990e+01   2.2754261e+00
   2.4707835e+00  -6.4029347e+01   4.4366333e+00
   1.3373465e+00  -6.4654280e+01   6.7237187e+00
   4.4620361e-02  -6.5442584e+01   9.1165798e+00
  -1.3361991e+00  -6.5983022e+01   1.1854117e+01
  -2.7940410e+00  -6.6488703e+01   1.4561265e+01
  -4.2617878e+00  -6.6970978e+01   1.7205298e+01
  -5.7006364e+00  -6.7136924e+01   1.9910693e+01
  -7.0686376e+00  -6.7353778e+01   2.2353345e+01
  -8.2667459e+00  -6.7320308e+01   2.4678533e+01
  -9.3337639e+00  -6.6780455e+01   2.6912438e+01
  -1.0315718e+01  -6.5891506e+01   2.9039283e+01
  -1.1208881e+01  -6.4426425e+01   3.1219074e+01
  -1.2068601e+01  -6.2407916e+01   3.3246688e+01
  -1.2883576e+01  -6.0072845e+01   3.5146905e+01
  -1.3608244e+01  -5.7503834e+01   3.6981084e+01
  -1.4190985e+01  -5.4830082e+01   3.8662855e+01
  -1.4552561e+01  -5.2295243e+01   4.0267250e+01
  -1.4658249e+01  -4.9741680e+01   4.1888828e+01
  -1.4579711e+01  -4.7265472e+01   4.3456407e+01
  -1.4439415e+01  -4.5135903e+01   4.4716712e+01
  -1.4287001e+01  -4.2949107e+01   4.5628601e+01
  -1.4157775e+01  -4.0912459e+01   4.6195697e+01
  -1.3955255e+01  -3.9068206e+01   4.6426416e+01
  -1.3589134e+01  -3.7146479e+01   4.6448272e+01
  -1.2941372e+01  -3.5713231e+01   4.6356289e+01
  -1.1841727e+01  -3.4755235e+01   4.6304278e+01
  -1.0410570e+01  -3.4239724e+01   4.6160283e+01
  -8.6716698e+00  -3.4309590e+01   4.5668457e+01
  -6.6457691e+00  -3.4592097e+01   4.4656987e+01
  -4.5381847e+00  -3.5008484e+01   4.2927063e+01
  -2.4292020e+00  -3.5442777e+01   4.0385532e+01
  -2.5508159e-01  -3.5818673e+01   3.7169961e+01
   2.0366122e+00  -3.6123650e+01   3.3611000e+01
   4.3365790e+00  -3.6401592e+01   2.9826930e+01
   6.6359633e+00  -3.6785329e+01   2.6106091e+01
   8.9017886e+00  -3.6925646e+01   2.2658399e+01
   1.1004596e+01  -3.6716985e+01   1.9391167e+01
   1.2942869e+01  -3.6130906e+01   1.6555802e+01
   1.4720572e+01  -3.4926916e+01   1.4221731e+01
   1.6441178e+01  -3.3332284e+01   1.2319879e+01
   1.8243584e+01  -3.1514128e+01   1.0847790e+01
   2.0211804e+01  -2.9507673e+01   9.6806372e+00
   2.2329876e+01  -2.7444811e+01   8.7449050e+00
   2.4395745e+01  -2.5170361e+01   7.9339995e+00
   2.6217727e+01  -2.2443477e+01   7.1920523e+00
   2.7600993e+01  -1.9334497e+01   6.5520237e+00
   2.8538435e+01  -1.5996256e+01   5.9900704e+00
   2.9250402e+01  -1.2524604e+01   5.4121044e+00
   2.9845378e+01  -9.1154446e+00   4.9733412e+00
   3.0376148e+01  -5.6704744e+00   4.7949838e+00
   3.0652662e+01  -2.0889318e+00   4.7387652e+00
   3.0388733e+01   1.6006280e+00   4.7746469e+00
   2.9644372e+01   5.5456612e+00   4.6702740e+00
   2.8652979e+01   9.3783468e+00   4.1341509e+00
   2.7685240e+01   1.2802837e+01   3.2082365e+00
   2.6723328e+01   1.5771969e+01   2.0739270e+00
   2.5501565e+01   1.8029918e+01   8.0380452e-01
   2.4047452e+01   1.9779496e+01  -4.7309714e-01
   2.2448149e+01   2.0983251e+01  -1.4763851e+00
   2.0661474e+01   2.1578225e+01  -2.2560841e+00
   1.8668550e+01   2.1774247e+01  -2.7418324e+00
   1.6466930e+01   2.1500986e+01  -2.6850294e+00
   1.4034241e+01   2.1106014e+01  -2.2459156e+00
   1.1351257e+01   2.0600100e+01  -1.3907129e+00
   8.4781042e+00   1.9971774e+01  -6.8579159e-02
   5.3644446e+00   1.9358427e+01   1.5213240e+00
   1.9986250e+00   1.8769656e+01   3.3576075e+00
  -1.5454774e+00   1.8564622e+01   5.3540154e+00
  -5.3064328e+00   1.8417166e+01   7.2994642e+00
  -9.1186590e+00   1.8763102e+01   9.0425954e+00
  -1.2752952e+01   1.9693831e+01   1.0725066e+01
  -1.6170275e+01   2.0683541e+01   1.2219129e+01
  -1.9262611e+01   2.2406319e+01   1.3404748e+01
  -2.1913085e+01   2.4565730e+01   1.4789412e+01
  -2.4171918e+01   2.7038076e+01   1.6047730e+01
  -2.6062767e+01   2.9714870e+01   1.6760574e+01
  -2.7545778e+01   3.2006641e+01   1.7241414e+01
  -2.8524237e+01   3.4157977e+01   1.7384123e+01
  -2.8849691e+01   3.6115982e+01   1.7137626e+01
  -2.8573177e+01   3.8002249e+01   1.6583269e+01
  -2.7974706e+01   3.9734974e+01   1.5709833e+01
  -2.7271479e+01   4.1018426e+01   1.4594458e+01
  -2.6380530e+01   4.2093451e+01   1.3411527e+01
  -2.5227633e+01   4.2801473e+01   1.2343488e+01
  -2.3805681e+01   4.3082693e+01   1.1281878e+01
  -2.2023900e+01   4.3080821e+01   1.0406689e+01
  -1.9967237e+01   4.2737693e+01   9.9775095e+00
  -1.7668901e+01   4.2409779e+01   9.8217100e+00
  -1.5070048e+01   4.2210596e+01   9.9681591e+00
  -1.2199692e+01   4.1954772e+01   1.0552320e+01
  -9.0334794e+00   4.1782389e+01   1.1325824e+01
  -5.6454037e+00   4.1719661e+01   1.1811923e+01
  -2.1256547e+00   4.1727385e+01   1.1928101e+01
   1.4050476e+00   4.1778995e+01   1.1842662e+01
   4.7593310e+00   4.1962145e+01   1.1420379e+01
   7.9864859e+00   4.2246641e+01   1.0938488e+01
   1.1038155e+01   4.2218554e+01   1.0620928e+01
   1.3703427e+01   4.1720364e+01   1.0080363e+01
   1.6025883e+01   4.0661957e+01   9.6280415e+00
   1.8084061e+01   3.9229878e+01   9.5949650e+00
   1.9768544e+01   3.7797098e+01   9.7534525e+00
   2.0973061e+01   3.6131547e+01   1.0068792e+01
   2.1701225e+01   3.4442708e+01   1.0564592e+01
   2.1980651e+01   3.2760071e+01   1.1321733e+01
   2.1787686e+01   3.0917807e+01   1.1790885e+01
   2.1249691e+01   2.9225574e+01   1.1736419e+01
   2.0459070e+01   2.7275527e+01   1.1657643e+01
   1.9319690e+01   2.5220739e+01   1.0996810e+01
   1.7963924e+01   2.3072797e+01   9.6393790e+00
   1.6408434e+01   2.0615079e+01   8.2294694e+00
   1.4613369e+01   1.8225824e+01   6.5541278e+00
   1.2622892e+01   1.5546338e+01   4.2981317e+00
   1.0462988e+01   1.2986221e+01   1.6791103e+00
   8.4795027e+00   1.0607498e+01  -1.1950577e+00
   6.7284842e+00   7.8176540e+00  -4.6274392e+00
   5.0395733e+00   4.8874924e+00  -8.3839260e+00
   3.3745500e+00   1.9465646e+00  -1.2389364e+01
   1.8305960e+00  -8.5170591e-01  -1.6751283e+01
   6.1302834e-01  -3.5744926e+00  -2.0998428e+01
  -3.1614053e-01  -6.0743399e+00  -2.5224300e+01
  -1.0311370e+00  -8.2997554e+00  -2.9571492e+01
  -1.5972147e+00  -1.0254016e+01  -3.3827869e+01
  -1.8620753e+00  -1.1443260e+01  -3.7832724e+01
  -1.6649154e+00  -1.2090545e+01  -4.1655130e+01
  -1.0228636e+00  -1.2054617e+01  -4.5381462e+01
   3.6230446e-02  -1.1242205e+01  -4.8587566e+01
   1.2908532e+00  -9.9128772e+00  -5.1399321e+01
   2.6849563e+00  -7.7291238e+00  -5.4136624e+01
   4.2143446e+00  -5.0476481e+00  -5.6318752e+01
   5.6034367e+00  -1.9992878e+00  -5.8130725e+01
   6.5555612e+00   1.3089927e+00  -6.0068927e+01
   7.1207067e+00   4.3358199e+00  -6.1714347e+01
   7.4063091e+00   7.2650450e+00  -6.3165165e+01
   7.3689044e+00   9.7008776e+00  -6.4519557e+01
   7.0080270e+00   1.1438869e+01  -6.5394746e+01
   6.1448111e+00   1.2694117e+01  -6.6007425e+01
   4.7926572e+00   1.3251759e+01  -6.6591819e+01
   3.3639463e+00   1.3382714e+01  -6.7204148e+01
   2.2055729e+00   1.2890140e+01  -6.7760257e+01
   1.4139032e+00   1.1370641e+01  -6.8488062e+01
   9.1401196e-01   8.7914487e+00  -6.9317551e+01
   5.2050741e-01   5.4133020e+00  -6.9857999e+01
   2.4982023e-01   1.6289490e+00  -7.0245102e+01
   2.4201328e-01  -2.6635421e+00  -7.0297113e+01
   6.0184205e-01  -7.0999785e+00  -7.0215415e+01
   1.4570176e+00  -1.1648294e+01  -6.9911529e+01
   2.5667999e+00  -1.6192630e+01  -6.9035289e+01
   3.7132878e+00  -2.0092374e+01  -6.7967600e+01
   4.8109514e+00  -2.3627573e+01  -6.6524848e+01
   5.7934888e+00  -2.6466686e+01  -6.4867389e+01
   6.6060164e+00  -2.8591808e+01  -6.3137815e+01
   7.1053254e+00  -3.0353322e+01  -6.0841146e+01
   7.2618182e+00  -3.1071526e+01  -5.8479608e+01
   6.9975398e+00  -3.0968892e+01  -5.6155940e+01
   6.5862071e+00  -3.0217335e+01  -5.3129712e+01
   6.1378198e+00  -2.8591340e+01  -5.0042474e+01
   5.5550792e+00  -2.6588396e+01  -4.7116061e+01
   4.9814272e+00  -2.4339224e+01  -4.3728210e+01
   4.2393975e+00  -2.1754179e+01  -4.0934104e+01
   3.4678865e+00  -1.9302899e+01  -3.8533997e+01
   2.8349237e+00  -1.7002468e+01  -3.5836433e+01
   2.2293441e+00  -1.4402912e+01  -3.4026680e+01
   1.7232768e+00  -1.2186040e+01  -3.2385584e+01
   1.2295612e+00  -1.0234823e+01  -3.0519146e+01
   6.6709595e-01  -8.3173095e+00  -2.9328734e+01
   8.7035220e-02  -7.4689695e+00  -2.8016419e+01
  -4.3301521e-01  -6.7210397e+00  -2.6689026e+01
  -9.5702717e-01  -6.0868622e+00  -2.5865964e+01
  -1.5133167e+00  -6.1593027e+00  -2.5073643e+01
  -2.0726357e+00  -5.7994400e+00  -2.4295931e+01
  -2.8556829e+00  -5.9464278e+00  -2.3824442e+01
  -3.7754132e+00  -6.5514655e+00  -2.3863479e+01
  -4.6832581e+00  -7.0798496e+00  -2.3997072e+01
  -5.5440268e+00  -8.3067770e+00  -2.4203480e+01
  -6.1837482e+00  -9.5668236e+00  -2.4532727e+01
  -6.7388723e+00  -1.1106920e+01  -2.4163624e+01
  -7.1928532e+00  -1.3193656e+01  -2.3478714e+01
  -7.3739327e+00  -1.5539494e+01  -2.2927630e+01
  -7.2119633e+00  -1.8284282e+01  -2.2090660e+01
  -6.7048473e+00  -2.1081616e+01  -2.1212900e+01
  -6.0627955e+00  -2.3746708e+01  -2.0210781e+01
  -5.3892817e+00  -2.5794240e+01  -1.8817351e+01
  -4.8624730e+00  -2.7321931e+01  -1.7143763e+01
  -4.4612784e+00  -2.8381156e+01  -1.5107967e+01
  -4.1061107e+00  -2.8894678e+01  -1.2691964e+01
  -4.0238439e+00  -2.9365367e+01  -1.0037879e+01
  -4.2036418e+00  -2.9248572e+01  -7.2062546e+00
  -4.6841902e+00  -2.8966065e+01  -3.7832231e+00
  -5.4241227e+00  -2.8777649e+01   1.9837214e-01
  -6.2009938e+00  -2.8141833e+01   4.1722532e+00
  -7.0026846e+00  -2.7636621e+01   8.4181117e+00
  -7.8035599e+00  -2.6545212e+01   1.2913506e+01
  -8.6016384e+00  -2.4685394e+01   1.7439173e+01
  -9.1913703e+00  -2.2436222e+01   2.2554259e+01
  -9.4501721e+00  -1.9160592e+01   2.7938518e+01
  -9.5472371e+00  -1.5462372e+01   3.3329672e+01
  -9.4344413e+00  -1.1437291e+01   3.9199095e+01
  -9.2420586e+00  -6.7886824e+00   4.4964846e+01
  -9.0093586e+00  -1.8372033e+00   5.0370026e+01
  -8.7025488e+00   3.3216504e+00   5.5882851e+01
  -8.5901021e+00   8.6145015e+00   6.0892396e+01
  -8.6333330e+00   1.4041000e+01   6.4967845e+01
  -8.6176022e+00   1.9115944e+01   6.8851963e+01
  -8.4402516e+00   2.4207740e+01   7.2256527e+01
  -8.2233986e+00   2.9323293e+01   7.4460980e+01
  -8.0455819e+00   3.3656042e+01   7.5859552e+01
  -7.8915359e+00   3.7787735e+01   7.5956678e+01
  -7.7183802e+00   4.1397482e+01   7.4584637e+01
  -7.2616029e+00   4.4335601e+01   7.2455455e+01
  -6.5102508e+00   4.7161841e+01   6.9334906e+01
  -5.4250552e+00   4.9343020e+01   6.5452308e+01
  -4.0776785e+00   5.1062403e+01   6.1128140e+01
  -2.7880983e+00   5.2289682e+01   5.6197489e+01
  -1.5906890e+00   5.2817130e+01   5.0777465e+01
  -5.2506968e-01   5.2872251e+01   4.5236005e+01
   3.9163122e-01   5.2361538e+01   3.9822410e+01
   1.0592019e+00   5.1354624e+01   3.4451008e+01
   1.3872192e+00   4.9503466e+01   2.9460164e+01
   1.4125050e+00   4.6996129e+01   2.5014326e+01
   1.0919452e+00   4.3936299e+01   2.1231658e+01
   5.5639739e-01   4.0326904e+01   1.8610766e+01
  -2.2148633e-02   3.6867891e+01   1.7093095e+01
  -5.5466703e-01   3.3309754e+01   1.6588645e+01
  -9.5656110e-01   3.0118970e+01   1.6966749e+01
  -1.2111679e+00   2.7609526e+01   1.7873728e+01
  -1.3795461e+00   2.5668139e+01   1.9033050e+01
  -1.4837194e+00   2.4848003e+01   2.0228838e+01
  -1.4644927e+00   2.4656427e+01   2.1467169e+01
  -1.3091651e+00   2.5311787e+01   2.2464964e+01
  -1.1145690e+00   2.6657967e+01   2.3303453e+01
  -1.0533931e+00   2.8364244e+01   2.4235795e+01
  -1.1815706e+00   3.0749637e+01   2.5127932e+01
  -1.3935292e+00   3.3091379e+01   2.6238281e+01
  -1.6772673e+00   3.5671157e+01   2.7427290e+01
  -2.0266085e+00   3.8407753e+01   2.8540678e+01
  -2.2738744e+00   4.1089345e+01   2.9459229e+01
  -2.3051030e+00   4.3926352e+01   2.9769425e+01
  -2.0518943e+00   4.6527429e+01   2.9442632e+01
  -1.4857001e+00   4.9267185e+01   2.8260870e+01
  -7.1220843e-01   5.1748542e+01   2.6191062e+01
   7.3751252e-02   5.3969510e+01   2.3157121e+01
   8.4735988e-01   5.6211310e+01   1.9114982e+01
   1.7780435e+00   5.7999974e+01   1.4356025e+01
   2.9657811e+00   5.9581616e+01   8.7834752e+00
   4.3702548e+00   6.0705090e+01   2.6197515e+00
   5.6475997e+00   6.1329086e+01  -3.9372696e+00
   6.5661649e+00   6.1532248e+01  -1.0764164e+01
   7.0594147e+00   6.1166300e+01  -1.7604382e+01
   7.1027617e+00   6.0312342e+01  -2.4603439e+01
   6.9743516e+00   5.8695007e+01  -3.1573276e+01
   6.8814811e+00   5.6625708e+01  -3.8243085e+01
   6.9400932e+00   5.3869334e+01  -4.4572543e+01
   7.1341068e+00   5.0342678e+01  -5.0607466e+01
   7.4025802e+00   4.6606775e+01  -5.6266390e+01
   7.7779067e+00   4.2477187e+01  -6.1329699e+01
   8.3383908e+00   3.8555092e+01  -6.5892767e+01
   9.2534605e+00   3.5036043e+01  -6.9580528e+01
   1.0444228e+01   3.1730687e+01  -7.2090970e+01
   1.1871074e+01   2.8797483e+01  -7.3432272e+01
   1.3523746e+01   2.5740580e+01  -7.3413688e+01
   1.5232232e+01   2.2897722e+01  -7.2426646e+01
   1.6840858e+01   2.0614260e+01  -7.0689475e+01
   1.8231582e+01   1.9023725e+01  -6.8098622e+01
   1.9408599e+01   1.8429103e+01  -6.4681551e+01
   2.0183372e+01   1.8461871e+01  -6.0601778e+01
   2.0352333e+01   1.9118518e+01  -5.6278078e+01
   1.9789752e+01   2.0024670e+01  -5.1992832e+01
   1.8505765e+01   2.0719001e+01  -4.8253877e+01
   1.6803687e+01   2.1070789e+01  -4.5050344e+01
   1.4838029e+01   2.0649135e+01  -4.1906537e+01
   1.2761673e+01   1.9623028e+01  -3.8935008e+01
   1.0648845e+01   1.7829214e+01  -3.6056866e+01
   8.4702972e+00   1.5388934e+01  -3.3353224e+01
   6.3501279e+00   1.2490839e+01  -3.1273482e+01
   4.3815576e+00   8.8273764e+00  -2.9784562e+01
   2.6163230e+00   5.0544921e+00  -2.8917204e+01
   9.5631031e-01   1.2376054e+00  -2.8732886e+01
  -6.8412618e-01  -2.6164967e+00  -2.8761288e+01
  -2.3393613e+00  -6.2153593e+00  -2.9064238e+01
  -4.0104438e+00  -9.7456435e+00  -2.9678436e+01
  -5.5361033e+00  -1.3399627e+01  -2.9997632e+01
  -6.9496657e+00  -1.7135647e+01  -3.0615688e+01
  -8.1255179e+00  -2.0472365e+01  -3.1509811e+01
  -8.8881729e+00  -2.3833777e+01  -3.1240756e+01
  -9.4569304e+00  -2.6758789e+01  -3.0638830e+01
  -9.7896087e+00  -2.8879113e+01  -3.0459187e+01
  -9.7871618e+00  -3.0983521e+01  -2.9445730e+01
  -9.5311568e+00  -3.2244035e+01  -2.8421287e+01
  -9.0573670e+00  -3.3069087e+01  -2.7981940e+01
  -8.3011208e+00  -3.4044520e+01  -2.6958081e+01
  -7.2643993e+00  -3.4473898e+01  -2.5809512e+01
  -6.1449454e+00  -3.5121534e+01  -2.4481067e+01
  -4.8221554e+00  -3.6033070e+01  -2.1935328e+01
  -3.4972682e+00  -3.6836237e+01  -1.8764639e+01
  -2.4074116e+00  -3.8010853e+01  -1.5497407e+01
  -1.3584552e+00  -3.9424558e+01  -1.1312442e+01
  -5.8403134e-01  -4.0726501e+01  -6.7517124e+00
   3.9259855e-02  -4.2038742e+01  -2.5887213e+00
   7.3712738e-01  -4.3381177e+01   2.2491284e+00
   1.3375795e+00  -4.4007397e+01   7.2144932e+00
   1.8047275e+00  -4.4309682e+01   1.1404250e+01
