**************************************************************************************
  RED ACELEROGRÁFICA DE LA UNIVERSIDAD AUTONOMA METROPOLITANA (RAUAM)
				UNIDAD AZCAPOTZALCO
                        DIVISIÓN CBI-DEPARTAMENTO DE MATERIALES
     Av. San Pablo 180, Col. Reynosa, Azcapotzalco, C.P. 02200, Ciudad de México
**************************************************************************************
ARCHIVO ESTANDAR DE ACELERACION:
VERSION DEL FORMATO                    : 2.0
NOMBRE DEL ARCHIVO                     : RIDX201709.081
FECHA Y HORA DE CREACION               : 30/SEP/2017, 12:38
REF. CATALOGO ACELEROGRAMAS, SMIS 1995 : REGISTRO NO.      /PAG.    


================================================================================
DATOS DE LA ESTACION:
NOMBRE DE LA ESTACION                  : UAM-XOCHIMILCO.
CLAVE DE LA ESTACION                   : RIDX
LOCALIZACION DE LA ESTACION            : CALZADA DEL HUESO 1100, COL. VILLA
                                       : QUIETUD, DEL. COYOACAN, C.P.04960, 
                                       : CIUDAD DE MEXICO.
                                       : 
                                       : 
COORDENADAS DE LA ESTACION             : 19.301345 LAT. N
                                       : 99.10268 LONG. W
ALTITUD (msnm)                         : 2232
TIPO DE SUELO                          : ZONA DEL LAGO
                                       : 
                                       : 
INSTITUCION RESPONSABLE                : UAM-AZCAPOTZALCO
                                       : 

================================================================================
DATOS DEL ACELEROGRAFO: 
MODELO DEL ACELEROGRAFO                : BASALT KINEMETRICS
NUMERO DE SERIE DEL ACELEROGRAFO       : 1729
NUMERO DE CANALES                      : 3
ORIENTACION C1-C6 (rumbo;orientacion)  : /V/N00E/N90E
ORIENTACION C7-C12 (rumbo;orientacion) : 
VEL. DE MUESTREO, C1-C6 (muestras/s)   : /250/250/250
VEL. DE MUESTREO, C7-C12 (muestras/s)  : 
ESC. COMPLETA DE SENSORES, C1-C6, (g)  : /2/2/2
ESC. COMPLETA DE SENSORES, C7-C12 (g)  : 
FREC. NAT. DE SENSORES, C1-C6, (Hz)    : /208/210/200   
FREC. NAT. DE SENSORES, C7-C12 (Hz)    : 
AMORTIGUAMIENTO DE SENSORES, C1-C6     : /0.70/0.70/0.70      
AMORTIGUAMIENTO DE SENSORES, C7-C12    : 
INTERVALO DE MUESTREO, C1-C6 (s)       : /0.004/0.004/0.004
INTERVALO DE MUESTREO, C7-C12 (s)      : 
UMBRAL DE DISPARO, C1-C6 (Gal)         : /2/2/2
UMBRAL DE DISPARO, C7-C12 (Gal)        : 
MEMORIA DE PREEVENTO (s)               : 30
TIEMPO DE POSEVENTO (s)                : 60


================================================================================
DATOS DEL SISMO:
FECHA DEL SISMO [GMT]                  : 2017/09/08
HORA EPICENTRO (GMT)                   : 04:49:17
MAGNITUD(ES)                           : /M=8.2
COORDENADAS DEL EPICENTRO              : 14.761 LAT. N
                                       : 94.103 LONG. W
PROFUNDIDAD FOCAL (Km)                 : 45.9
FUENTE DE LOS DATOS EPICENTRALES       : SSN
                                       : INSTITUTO DE GEOFISICA, UNAM

================================================================================
DATOS DE ESTE REGISTRO:
HORA DE LA PRIMERA MUESTRA (GMT)       : 04:51:26.00
EXACTITUD DEL TIEMPO (s)               : 
DURACION DEL REGISTRO (s), C1-C6       : /186.00/186.00/186.00
DURACION DEL REGISTRO (s), C7-C12      : 
NUM. TOTAL DE MUESTRAS, C1-C6          : /46500/46500/46500
NUM. TOTAL DE MUESTRAS, C7-C12         : 
ACEL. MAX.(Gal), C1-C6                 : /-9.845/-47.448/42.729
ACEL. MAX., C1-C6, EN LA MUESTRA       : /22230/17751/18846
ACEL. MAX.(Gal), C7-C12                : 
ACEL. MAX., C7-C12,EN LA MUESTRA       : 
UNIDADES DE LOS DATOS                  : Gal (cm/s/s)
FACTOR DE DECIMACION                   : 1
FORMATO DATOS (FORTRAN,16 campos/dato) : 3E16.7


================================================================================
CALIDAD DEL ACELEROGRAMA:
REGISTRO DIGITAL COMPLETO CON TIEMPO ABSOLUTO CORRECTO


================================================================================
COMENTARIOS:














================================================================================
DATOS DE ACELERACION:
---------+---------+---------+---------+---------+---------+---------+---------+
   CANAL-1           CANAL-2        CANAL-3
         V            N00E            N90E
---------+---------+---------+---------+---------+---------+---------+---------+ 
[...]
 -9.8192210e-001  3.4049955e+001  1.1442772e+001
 -1.0188662e+000  3.3954130e+001  1.1412818e+001
 -1.0898411e+000  3.3840659e+001  1.1374323e+001
 -1.1516090e+000  3.3669926e+001  1.1596755e+001
 -1.2336558e+000  3.3531447e+001  1.1358293e+001
 -1.3662820e+000  3.3352066e+001  1.1132351e+001
 -1.3730418e+000  3.3096493e+001  1.1194599e+001
 -1.3702446e+000  3.2913841e+001  1.0958477e+001
 -1.4674416e+000  3.2707699e+001  1.1093270e+001
 -1.4880702e+000  3.2524112e+001  1.1386609e+001
 -1.5039200e+000  3.2442076e+001  1.1323074e+001
 -1.5127770e+000  3.2327787e+001  1.1299672e+001
 -1.4648779e+000  3.2221795e+001  1.1291247e+001
 -1.4003128e+000  3.2078174e+001  1.1167102e+001
 -1.3869102e+000  3.1892716e+001  1.1078878e+001
 -1.4135989e+000  3.1705156e+001  1.1239413e+001
 -1.3908727e+000  3.1561184e+001  1.1162773e+001
 -1.4491446e+000  3.1464658e+001  1.0822279e+001
 -1.5069499e+000  3.1322673e+001  1.0768456e+001
 -1.4442497e+000  3.1219134e+001  1.0662212e+001
 -1.3747898e+000  3.1085330e+001  1.0541343e+001
 -1.3559097e+000  3.0946616e+001  1.0549651e+001
 -1.3263076e+000  3.0806618e+001  1.0668999e+001
 -1.2440281e+000  3.0636353e+001  1.0739087e+001
 -1.2239827e+000  3.0529309e+001  1.0610495e+001
 -1.1920499e+000  3.0393985e+001  1.0603709e+001
 -1.1279510e+000  3.0264153e+001  1.0640566e+001
 -1.1554550e+000  3.0131049e+001  1.0695677e+001
 -1.1869216e+000  2.9952137e+001  1.0770328e+001
 -1.1414697e+000  2.9713742e+001  1.0979070e+001
 -1.0512651e+000  2.9477684e+001  1.1078059e+001
 -1.0445057e+000  2.9291993e+001  1.0892367e+001
 -1.0612878e+000  2.9074283e+001  1.0841001e+001
 -1.0312196e+000  2.8918158e+001  1.0707377e+001
 -1.0569761e+000  2.8763902e+001  1.0445982e+001
 -1.1237553e+000  2.8605557e+001  1.0202488e+001
 -1.2158245e+000  2.8475842e+001  1.0049325e+001
 -1.2450769e+000  2.8280919e+001  9.9277536e+000
 -1.2364526e+000  2.8110654e+001  9.7104699e+000
 -1.2518363e+000  2.7905798e+001  9.5192788e+000
 -1.2164071e+000  2.7645317e+001  9.3781672e+000
 -1.1739855e+000  2.7461846e+001  9.2673607e+000
 -1.1119846e+000  2.7245889e+001  9.1511718e+000
 -1.0195654e+000  2.6922186e+001  9.1388857e+000
 -9.0721774e-001  2.6660185e+001  9.0455136e+000
 -7.7878675e-001  2.6402275e+001  8.9672351e+000
 -6.8916482e-001  2.6121693e+001  8.9144647e+000
 -6.0490424e-001  2.5967438e+001  8.6556428e+000
 -4.9768406e-001  2.5755337e+001  8.5444853e+000
 -4.0689679e-001  2.5522551e+001  8.4237330e+000
 -2.9245109e-001  2.5332069e+001  8.2270427e+000
 -1.4607264e-001  2.5086430e+001  8.1071094e+000
 -3.1743478e-002  2.4908802e+001  8.0005152e+000
  1.0344689e-001  2.4724630e+001  7.8989524e+000
  2.1532845e-001  2.4522930e+001  7.7853375e+000
  2.8816787e-001  2.4312348e+001  7.7110377e+000
  3.7615832e-001  2.4107609e+001  7.5878281e+000
  4.4095649e-001  2.3954522e+001  7.4649699e+000
  5.1531125e-001  2.3767428e+001  7.3437496e+000
  5.6938709e-001  2.3639700e+001  7.2489731e+000
  6.1693700e-001  2.3482173e+001  7.1348902e+000
  6.6285505e-001  2.3301624e+001  6.9697923e+000
  6.7858835e-001  2.3195398e+001  6.8602727e+000
  7.3825862e-001  2.3024432e+001  6.7135448e+000
  8.1331259e-001  2.2844817e+001  6.5637745e+000
  8.8102450e-001  2.2673384e+001  6.4026545e+000
  9.2507761e-001  2.2479396e+001  6.2311208e+000
  9.4011171e-001  2.2257244e+001  6.0231978e+000
  9.6715002e-001  2.2022940e+001  5.8158597e+000
  9.7996957e-001  2.1782208e+001  5.6017350e+000
  1.0009473e+000  2.1477203e+001  5.3096831e+000
  1.0481476e+000  2.1207723e+001  5.1276187e+000
  1.1160922e+000  2.0928895e+001  4.9659138e+000
  1.2243612e+000  2.0605309e+001  4.7790521e+000
  1.3396226e+000  2.0324845e+001  4.6801802e+000
  1.4540683e+000  2.0036551e+001  4.5938284e+000
  1.5908902e+000  1.9750360e+001  4.4721401e+000
  1.7334226e+000  1.9478076e+001  4.3797036e+000
  1.8668650e+000  1.9204974e+001  4.2804811e+000
  1.9624306e+000  1.8936896e+001  4.1062561e+000
  2.0274618e+000  1.8682375e+001  3.9096827e+000
  2.1021662e+000  1.8459523e+001  3.6830383e+000
  2.1555432e+000  1.8257705e+001  3.4738282e+000
  2.2034423e+000  1.8052966e+001  3.2965609e+000
  2.2766317e+000  1.7808845e+001  3.0543544e+000
  2.3410803e+000  1.7557362e+001  2.7963519e+000
  2.3941073e+000  1.7309969e+001  2.5897159e+000
  2.4681125e+000  1.7064913e+001  2.3415421e+000
  2.5549372e+000  1.6825934e+001  2.2099081e+000
  2.6169385e+000  1.6532265e+001  2.1036649e+000
  2.6721801e+000  1.6211250e+001  1.8455451e+000
  2.7486325e+000  1.5841037e+001  1.6584494e+000
  2.8528224e+000  1.5421509e+001  1.4322730e+000
  2.9351019e+000  1.5035753e+001  1.1917049e+000
  2.9957044e+000  1.4668578e+001  8.7730423e-001
  3.0599199e+000  1.4347797e+001  5.6898832e-001
  3.0778674e+000  1.4038352e+001  3.8388162e-001
  3.1019919e+000  1.3707637e+001  7.8842063e-002
  3.1701700e+000  1.3346306e+001 -1.4616439e-001
  3.2425433e+000  1.2936243e+001 -3.8111613e-001
  3.3131685e+000  1.2551539e+001 -5.6903120e-001
  3.3940496e+000  1.2117755e+001 -7.3225716e-001
  3.4411334e+000  1.1688294e+001 -1.0390521e+000
  3.4586147e+000  1.1297279e+001 -1.2811415e+000
  3.5075630e+000  1.0832176e+001 -1.5563444e+000
  3.5581428e+000  1.0349427e+001 -1.7904772e+000
  3.6475317e+000  9.8220366e+000 -2.0695414e+000
  3.7247998e+000  9.3240954e+000 -2.2619024e+000
  3.7373867e+000  8.8608616e+000 -2.4300427e+000
  3.7588306e+000  8.3784628e+000 -2.7642174e+000
  3.7715340e+000  7.9339268e+000 -2.8935113e+000
  3.7892484e+000  7.4474378e+000 -3.1520988e+000
  3.7897145e+000  6.9907481e+000 -3.5273435e+000
  3.7765454e+000  6.5140758e+000 -3.7723583e+000
  3.7789926e+000  6.0230292e+000 -4.0570385e+000
  3.7775942e+000  5.5846867e+000 -4.3289651e+000
  3.8069632e+000  5.0832396e+000 -4.5682465e+000
  3.8263094e+000  4.6347303e+000 -4.7759356e+000
  3.8342342e+000  4.1905449e+000 -5.0746568e+000
  3.8629040e+000  3.6968107e+000 -5.4022791e+000
  3.9075401e+000  3.1897543e+000 -5.7568131e+000
  3.9638305e+000  2.6677398e+000 -6.2187607e+000
  3.9922672e+000  2.1998316e+000 -6.6110884e+000
  3.9905188e+000  1.7348452e+000 -6.9719411e+000
  3.9672104e+000  1.3162521e+000 -7.3726932e+000
  3.9743194e+000  8.8831017e-001 -7.6948162e+000
  4.0014738e+000  4.3150367e-001 -8.0257148e+000
  4.0104477e+000 -1.1746938e-002 -8.4343066e+000
  4.0283956e+000 -5.3048921e-001 -8.7690662e+000
  4.0374861e+000 -1.0758759e+000 -9.1835087e+000
  4.0758286e+000 -1.6389082e+000 -9.5811014e+000
  4.1316528e+000 -2.2205211e+000 -9.8855564e+000
  4.1589242e+000 -2.7912664e+000 -1.0341536e+001
  4.1849133e+000 -3.3400418e+000 -1.0671733e+001
  4.2113686e+000 -3.8981660e+000 -1.1031298e+001
  4.2574031e+000 -4.4710142e+000 -1.1517116e+001
  4.3244158e+000 -4.9805249e+000 -1.1849184e+001
  4.3900297e+000 -5.4921385e+000 -1.2269126e+001
  4.4044812e+000 -5.9998959e+000 -1.2683451e+001
  4.3723150e+000 -6.4977203e+000 -1.3042080e+001
  4.3387507e+000 -7.0578314e+000 -1.3465181e+001
  4.2773321e+000 -7.6241356e+000 -1.3860317e+001
  4.2098536e+000 -8.1969842e+000 -1.4238370e+001
  4.1541459e+000 -8.7833884e+000 -1.4629410e+001
  4.1074121e+000 -9.3700266e+000 -1.4966861e+001
  4.0668547e+000 -9.9501204e+000 -1.5277400e+001
  4.0417978e+000 -1.0525306e+001 -1.5718053e+001
  4.0128954e+000 -1.1135433e+001 -1.6054450e+001
  3.9718721e+000 -1.1763206e+001 -1.6390731e+001
  3.9419205e+000 -1.2406755e+001 -1.6784697e+001
  3.8711783e+000 -1.3051940e+001 -1.6997534e+001
  3.8118580e+000 -1.3686140e+001 -1.7310648e+001
  3.7585975e+000 -1.4366033e+001 -1.7660151e+001
  3.7154763e+000 -1.5083671e+001 -1.7914526e+001
  3.7073185e+000 -1.5769524e+001 -1.8250456e+001
  3.6777164e+000 -1.6452454e+001 -1.8681864e+001
  3.6582536e+000 -1.7130711e+001 -1.9023762e+001
  3.5780718e+000 -1.7751238e+001 -1.9389996e+001
  3.4981230e+000 -1.8389061e+001 -1.9822809e+001
  3.4334413e+000 -1.9032026e+001 -2.0147272e+001
  3.3010482e+000 -1.9624039e+001 -2.0591785e+001
  3.1921965e+000 -2.0239542e+001 -2.0974869e+001
  3.0846271e+000 -2.0878183e+001 -2.1289270e+001
  2.9644709e+000 -2.1470197e+001 -2.1697159e+001
  2.8275321e+000 -2.2052978e+001 -2.2068777e+001
  2.6754431e+000 -2.2640317e+001 -2.2440277e+001
  2.5140305e+000 -2.3202649e+001 -2.2783344e+001
  2.3641556e+000 -2.3783093e+001 -2.3157887e+001
  2.2458643e+000 -2.4379197e+001 -2.3390850e+001
  2.0915607e+000 -2.4989441e+001 -2.3661021e+001
  1.9355092e+000 -2.5598048e+001 -2.3984548e+001
  1.7647731e+000 -2.6236339e+001 -2.4138297e+001
  1.5940370e+000 -2.6908635e+001 -2.4449889e+001
  1.4411319e+000 -2.7526825e+001 -2.4677118e+001
  1.2876444e+000 -2.8181827e+001 -2.4876500e+001
  1.1559501e+000 -2.8809132e+001 -2.5154277e+001
  1.0129515e+000 -2.9380462e+001 -2.5304398e+001
  9.1179191e-001 -3.0005313e+001 -2.5498748e+001
  8.1715861e-001 -3.0582369e+001 -2.5682919e+001
  6.9665274e-001 -3.1157905e+001 -2.5939868e+001
  5.6157890e-001 -3.1755645e+001 -2.6129070e+001
  3.5832701e-001 -3.2326156e+001 -2.6301891e+001
  1.7360603e-001 -3.2881709e+001 -2.6576626e+001
  8.6970604e-003 -3.3438314e+001 -2.6694570e+001
 -1.7357709e-001 -3.3996438e+001 -2.6866922e+001
 -3.2368464e-001 -3.4522543e+001 -2.7046062e+001
 -4.9558645e-001 -3.5057529e+001 -2.7200863e+001
 -6.8648453e-001 -3.5545537e+001 -2.7416041e+001
 -8.8787148e-001 -3.6010991e+001 -2.7598573e+001
 -1.1089543e+000 -3.6490235e+001 -2.7815155e+001
 -1.3131385e+000 -3.6956623e+001 -2.8033492e+001
 -1.5659210e+000 -3.7415066e+001 -2.8206312e+001
 -1.8149744e+000 -3.7793226e+001 -2.8277687e+001
 -1.9853608e+000 -3.8148480e+001 -2.8369539e+001
 -2.1412959e+000 -3.8531782e+001 -2.8549263e+001
 -2.3437316e+000 -3.8973864e+001 -2.8690608e+001
 -2.5798485e+000 -3.9488984e+001 -2.8916317e+001
 -2.7804198e+000 -4.0109394e+001 -2.9234344e+001
 -2.9315765e+000 -4.0874945e+001 -2.9412899e+001
 -3.0292401e+000 -4.1568510e+001 -2.9539969e+001
 -3.1692088e+000 -4.2102094e+001 -2.9618599e+001
 -3.4075398e+000 -4.2528283e+001 -2.9556233e+001
 -3.6854957e+000 -4.2848947e+001 -2.9486146e+001
 -3.9533127e+000 -4.3164236e+001 -2.9338365e+001
 -4.1753278e+000 -4.3527087e+001 -2.9272255e+001
 -4.4037530e+000 -4.3938435e+001 -2.9329589e+001
 -4.6483773e+000 -4.4357261e+001 -2.9299050e+001
 -4.8453360e+000 -4.4791046e+001 -2.9388210e+001
 -4.9579167e+000 -4.5241659e+001 -2.9560797e+001
 -5.0456737e+000 -4.5624026e+001 -2.9699685e+001
 -5.1383260e+000 -4.5994940e+001 -2.9872623e+001
 -5.2403013e+000 -4.6288610e+001 -3.0021457e+001
 -5.3774732e+000 -4.6473249e+001 -3.0198841e+001
 -5.4980956e+000 -4.6657654e+001 -3.0297947e+001
 -5.6343347e+000 -4.6795432e+001 -3.0381608e+001
 -5.7604347e+000 -4.6919537e+001 -3.0480830e+001
 -5.8303607e+000 -4.7057550e+001 -3.0440931e+001
 -5.9155540e+000 -4.7189952e+001 -3.0544366e+001
 -5.9928221e+000 -4.7292906e+001 -3.0676585e+001
 -6.0758012e+000 -4.7378448e+001 -3.0784934e+001
 -6.2006192e+000 -4.7443538e+001 -3.1027609e+001
 -6.3403544e+000 -4.7414791e+001 -3.1227809e+001
 -6.4971056e+000 -4.7378331e+001 -3.1405544e+001
 -6.6638791e+000 -4.7326445e+001 -3.1617680e+001
 -6.8149193e+000 -4.7245577e+001 -3.1817763e+001
 -6.9152632e+000 -4.7244876e+001 -3.1888904e+001
 -6.9879861e+000 -4.7265093e+001 -3.2005795e+001
 -7.0393820e+000 -4.7272105e+001 -3.2160948e+001
 -7.0811044e+000 -4.7315226e+001 -3.2295390e+001
 -7.1389102e+000 -4.7313824e+001 -3.2366180e+001
 -7.1688618e+000 -4.7259718e+001 -3.2361031e+001
 -7.1873920e+000 -4.7251187e+001 -3.2521566e+001
 -7.1794672e+000 -4.7190419e+001 -3.2542745e+001
 -7.1432219e+000 -4.7099035e+001 -3.2648871e+001
 -7.1222442e+000 -4.7072274e+001 -3.2839477e+001
 -7.1030145e+000 -4.6993393e+001 -3.2938465e+001
 -7.0873977e+000 -4.6919654e+001 -3.3190969e+001
 -7.0692172e+000 -4.6851175e+001 -3.3352674e+001
 -7.0699164e+000 -4.6724849e+001 -3.3571596e+001
 -7.1038306e+000 -4.6612780e+001 -3.3798357e+001
 -7.1352972e+000 -4.6489142e+001 -3.3971763e+001
 -7.1445042e+000 -4.6365620e+001 -3.4169975e+001
 -7.1509140e+000 -4.6245254e+001 -3.4297747e+001
 -7.1595383e+000 -4.6149663e+001 -3.4392758e+001
 -7.1757377e+000 -4.6050916e+001 -3.4484726e+001
 -7.1954336e+000 -4.5911852e+001 -3.4611446e+001
 -7.1623351e+000 -4.5815443e+001 -3.4674162e+001
 -7.0819202e+000 -4.5724409e+001 -3.4734070e+001
 -6.9883361e+000 -4.5625077e+001 -3.4800530e+001
 -6.9116502e+000 -4.5541405e+001 -3.4845345e+001
 -6.8375289e+000 -4.5472458e+001 -3.4864066e+001
 -6.7463917e+000 -4.5410990e+001 -3.4904902e+001
 -6.6489615e+000 -4.5351157e+001 -3.4899285e+001
 -6.5123728e+000 -4.5283378e+001 -3.4891797e+001
 -6.4080663e+000 -4.5141160e+001 -3.5030100e+001
 -6.3381403e+000 -4.4944718e+001 -3.5084977e+001
 -6.2473530e+000 -4.4726072e+001 -3.5194262e+001
 -6.1721825e+000 -4.4462786e+001 -3.5342745e+001
 -6.0933990e+000 -4.4164793e+001 -3.5444074e+001
 -6.0332626e+000 -4.3878953e+001 -3.5577814e+001
 -5.9881603e+000 -4.3566586e+001 -3.5741509e+001
 -5.9175350e+000 -4.3264853e+001 -3.5952942e+001
 -5.8120633e+000 -4.3025172e+001 -3.6078375e+001
 -5.6794370e+000 -4.2746578e+001 -3.6351939e+001
 -5.5323590e+000 -4.2524076e+001 -3.6566883e+001
 -5.3592922e+000 -4.2310105e+001 -3.6563021e+001
 -5.2137295e+000 -4.2013163e+001 -3.6728237e+001
 -5.0735278e+000 -4.1755954e+001 -3.6896260e+001
 -4.9118822e+000 -4.1475373e+001 -3.7018065e+001
 -4.7423114e+000 -4.1168147e+001 -3.7105236e+001
 -4.5478004e+000 -4.0891773e+001 -3.7024267e+001
 -4.3804442e+000 -4.0617152e+001 -3.6950552e+001
 -4.2048133e+000 -4.0330727e+001 -3.6864785e+001
 -4.0044752e+000 -4.0049445e+001 -3.6700740e+001
 -3.8014563e+000 -3.9746543e+001 -3.6519845e+001
 -3.5989040e+000 -3.9380420e+001 -3.6387743e+001
 -3.4180287e+000 -3.9011026e+001 -3.6362587e+001
 -3.2202547e+000 -3.8578877e+001 -3.6187894e+001
 -3.0359995e+000 -3.8112604e+001 -3.6054271e+001
 -2.8460337e+000 -3.7723927e+001 -3.6068195e+001
 -2.6643426e+000 -3.7337237e+001 -3.5871972e+001
 -2.5142346e+000 -3.6971581e+001 -3.5736126e+001
 -2.3386037e+000 -3.6646944e+001 -3.5644392e+001
 -2.1752097e+000 -3.6364727e+001 -3.5449574e+001
 -1.9843116e+000 -3.6121307e+001 -3.5388730e+001
 -1.7754661e+000 -3.5866786e+001 -3.5340756e+001
 -1.5686016e+000 -3.5648140e+001 -3.5307409e+001
 -1.3031157e+000 -3.5418977e+001 -3.5311738e+001
 -9.9590701e-001 -3.5197411e+001 -3.5215441e+001
 -6.6539025e-001 -3.4986712e+001 -3.5216494e+001
 -3.0969973e-001 -3.4680421e+001 -3.5218834e+001
  6.7085057e-002 -3.4337320e+001 -3.5152490e+001
  3.9736914e-001 -3.3973066e+001 -3.5151554e+001
  6.4350878e-001 -3.3509131e+001 -3.5138683e+001
  8.8277252e-001 -3.2848988e+001 -3.5210643e+001
  1.2665498e+000 -3.1931169e+001 -3.5248437e+001
  1.8228115e+000 -3.0828593e+001 -3.5287167e+001
  2.4330329e+000 -2.9822894e+001 -3.5257915e+001
  2.9819522e+000 -2.9161582e+001 -3.4984116e+001
  3.3670117e+000 -2.8843723e+001 -3.4621274e+001
  3.6162982e+000 -2.8835075e+001 -3.4053435e+001
  3.7252660e+000 -2.8929849e+001 -3.3357354e+001
  3.6770172e+000 -2.8977411e+001 -3.2674964e+001
  3.5731769e+000 -2.8934757e+001 -3.2033175e+001
  3.4505735e+000 -2.8634309e+001 -3.1498800e+001
  3.3735380e+000 -2.8086703e+001 -3.1160296e+001
  3.3809970e+000 -2.7349665e+001 -3.0980688e+001
  3.4406673e+000 -2.6476370e+001 -3.0794997e+001
  3.5811021e+000 -2.5555161e+001 -3.0620889e+001
  3.7991546e+000 -2.4679060e+001 -3.0374236e+001
  4.0849190e+000 -2.3881606e+001 -3.0050475e+001
  4.4634518e+000 -2.3168876e+001 -2.9760529e+001
  4.9351030e+000 -2.2573941e+001 -2.9398390e+001
  5.3961488e+000 -2.1944882e+001 -2.8948377e+001
  5.7740993e+000 -2.1370865e+001 -2.8667558e+001
