**************************************************************************************
  RED ACELEROGRÁFICA DE LA UNIVERSIDAD AUTONOMA METROPOLITANA (RAUAM)
				UNIDAD AZCAPOTZALCO
                        DIVISIÓN CBI-DEPARTAMENTO DE MATERIALES
     Av. San Pablo 180, Col. Reynosa, Azcapotzalco, C.P. 02200, Ciudad de México
**************************************************************************************
ARCHIVO ESTANDAR DE ACELERACION:
VERSION DEL FORMATO                    : 2.0
NOMBRE DEL ARCHIVO                     : RIDX201709191
FECHA Y HORA DE CREACION               : 11:53 a. m. 27/09/2017
REF. CATALOGO ACELEROGRAMAS, SMIS 1995 : REGISTRO NO.      /PAG.    


================================================================================
DATOS DE LA ESTACION:
NOMBRE DE LA ESTACION                  : UAM-XOCHIMILCO.
CLAVE DE LA ESTACION                   : RIDX
LOCALIZACION DE LA ESTACION            : CALZADA DEL HUESO 1100, COL. VILLA
                                       : QUIETUD, DEL. COYOACAN, C.P.04960, 
                                       : CIUDAD DE MEXICO.
                                       : 
                                       : 
COORDENADAS DE LA ESTACION             : 19.301345 LAT. N
                                       : 99.10268 LONG. W
ALTITUD (msnm)                         : 2232
TIPO DE SUELO                          : LAGO
                                       : 
                                       : 
INSTITUCION RESPONSABLE                : UNIVERSIDAD AUTONOMA METROPOLITANA
                                       : 

================================================================================
DATOS DEL ACELEROGRAFO: 
MODELO DEL ACELEROGRAFO                : BASALT KINEMETRICS
NUMERO DE SERIE DEL ACELEROGRAFO       : 1729
NUMERO DE CANALES                      : 3
ORIENTACION C1-C6 (rumbo;orientacion)  : /V/N00E/N90E
ORIENTACION C7-C12 (rumbo;orientacion) : 
VEL. DE MUESTREO, C1-C6 (muestras/s)   : /250/250/250
VEL. DE MUESTREO, C7-C12 (muestras/s)  : 
ESC. COMPLETA DE SENSORES, C1-C6, (g)  : /2/2/2
ESC. COMPLETA DE SENSORES, C7-C12 (g)  : 
FREC. NAT. DE SENSORES, C1-C6, (Hz)    : /208/210/200   
FREC. NAT. DE SENSORES, C7-C12 (Hz)    : 
AMORTIGUAMIENTO DE SENSORES, C1-C6     : /0.7/0.7/0.7      
AMORTIGUAMIENTO DE SENSORES, C7-C12    : 
INTERVALO DE MUESTREO, C1-C6 (s)       : /0.004/0.004/0.004
INTERVALO DE MUESTREO, C7-C12 (s)      : 
UMBRAL DE DISPARO, C1-C6 (Gal)         : /2/2/2
UMBRAL DE DISPARO, C7-C12 (Gal)        : 
MEMORIA DE PREEVENTO (s)               : 30
TIEMPO DE POSEVENTO (s)                : 60


================================================================================
DATOS DEL SISMO:
FECHA DEL SISMO [GMT]                  : 2017/09/19
HORA EPICENTRO (GMT)                   : 18:14:39
MAGNITUD(ES)                           : /M=7.1
COORDENADAS DEL EPICENTRO              : 18.3297 LAT. N
                                       : -98.6712 LONG. W
PROFUNDIDAD FOCAL (Km)                 : 51.2
FUENTE DE LOS DATOS EPICENTRALES       : SSN
                                       : INSTITUTO DE GEOFISICA, UNAM

================================================================================
DATOS DE ESTE REGISTRO:
HORA DE LA PRIMERA MUESTRA (GMT)       : 18:14:11.00
EXACTITUD DEL TIEMPO (s)               : 
DURACION DEL REGISTRO (s), C1-C6       : /214.00/214.00/214.00
DURACION DEL REGISTRO (s), C7-C12      : 
NUM. TOTAL DE MUESTRAS, C1-C6          : /53500/53500/53500
NUM. TOTAL DE MUESTRAS, C7-C12         : 
ACEL. MAX.(Gal), C1-C6                 : /66.346/-140.240/-147.601
ACEL. MAX., C1-C6, EN LA MUESTRA       : /11673/11945/11945
ACEL. MAX.(Gal), C7-C12                : 
ACEL. MAX., C7-C12,EN LA MUESTRA       : 
UNIDADES DE LOS DATOS                  : Gal (cm/s/s)
FACTOR DE DECIMACION                   : 1
FORMATO DATOS (FORTRAN,16 campos/dato) : 3E16.7


================================================================================
CALIDAD DEL ACELEROGRAMA:
REGISTRO DIGITAL COMPLETO CON TIEMPO ABSOLUTO CORRECTO


================================================================================
COMENTARIOS:














================================================================================
DATOS DE ACELERACION:
---------+---------+---------+---------+---------+---------+---------+---------+
   CANAL-1   	     CANAL-2       CANAL-3
         V             N00E           N90E
---------+---------+---------+---------+---------+---------+---------+---------+  
[...]
  -8.5129599e+00  -1.8863531e+01  -2.0998006e+00
  -7.7008595e+00  -1.8179563e+01  -4.4065692e+00
  -7.0032413e+00  -1.8022687e+01  -6.4422561e+00
  -6.4874887e+00  -1.6711096e+01  -8.7483221e+00
  -6.3240429e+00  -1.5893866e+01  -1.0628687e+01
  -6.5785381e+00  -1.5136603e+01  -1.2200047e+01
  -7.4858848e+00  -1.3947989e+01  -1.3887753e+01
  -8.9669245e+00  -1.2792456e+01  -1.5026740e+01
  -1.0942266e+01  -1.1864991e+01  -1.6220857e+01
  -1.3352919e+01  -1.0667843e+01  -1.7318644e+01
  -1.6058055e+01  -8.9190560e+00  -1.8246127e+01
  -1.9130303e+01  -8.1404013e+00  -1.9245242e+01
  -2.2308173e+01  -6.5227731e+00  -2.0220949e+01
  -2.5342532e+01  -4.8878438e+00  -2.1212691e+01
  -2.8316270e+01  -4.1676380e+00  -2.2086566e+01
  -3.1203505e+01  -2.1796782e+00  -2.2891618e+01
  -3.3960053e+01  -7.5270993e-01  -2.3534558e+01
  -3.6414540e+01   4.8371564e-01  -2.3948906e+01
  -3.8453651e+01   2.2264243e+00  -2.4216944e+01
  -4.0011517e+01   3.5315858e+00  -2.4398719e+01
  -4.1062958e+01   4.6352155e+00  -2.4240822e+01
  -4.1811405e+01   5.5543811e+00  -2.3909461e+01
  -4.2274463e+01   6.4311127e+00  -2.3266637e+01
  -4.2540150e+01   6.5102520e+00  -2.1967295e+01
  -4.2492469e+01   6.6527504e+00  -2.0271630e+01
  -4.2091432e+01   6.7043021e+00  -1.8244137e+01
  -4.1498037e+01   5.8254662e+00  -1.5718373e+01
  -4.0734084e+01   5.3500440e+00  -1.2835614e+01
  -3.9854367e+01   4.3184231e+00  -9.8427144e+00
  -3.8797097e+01   2.9470980e+00  -6.5099093e+00
  -3.7743209e+01   1.7792915e+00  -3.0813595e+00
  -3.6763582e+01   2.5716818e-01   3.8347534e-01
  -3.5952881e+01  -1.3370808e+00   3.9065995e+00
  -3.5364033e+01  -3.3417568e+00   7.3201673e+00
  -3.4928604e+01  -5.0476429e+00   1.0750122e+01
  -3.4826946e+01  -7.4362104e+00   1.4064316e+01
  -3.4999718e+01  -9.9903053e+00   1.7586738e+01
  -3.5466973e+01  -1.2262209e+01   2.1093008e+01
  -3.6220200e+01  -1.5520378e+01   2.4512311e+01
  -3.7211135e+01  -1.8290850e+01   2.8212528e+01
  -3.8515322e+01  -2.1346552e+01   3.1651378e+01
  -4.0020960e+01  -2.4886911e+01   3.5179418e+01
  -4.1742506e+01  -2.8076344e+01   3.8635123e+01
  -4.3462886e+01  -3.1455385e+01   4.1564583e+01
  -4.4929935e+01  -3.4871716e+01   4.4595991e+01
  -4.5986972e+01  -3.7973709e+01   4.7648000e+01
  -4.6307219e+01  -4.0734128e+01   5.0418744e+01
  -4.5839031e+01  -4.3517225e+01   5.2912671e+01
  -4.4508380e+01  -4.5569128e+01   5.5389744e+01
  -4.2490370e+01  -4.7220189e+01   5.7396754e+01
  -3.9920818e+01  -4.8934141e+01   5.9185003e+01
  -3.6894852e+01  -4.9965762e+01   6.0897405e+01
  -3.3694482e+01  -5.0905735e+01   6.2031242e+01
  -3.0287181e+01  -5.1719342e+01   6.3464955e+01
  -2.6815179e+01  -5.2059982e+01   6.4768277e+01
  -2.3317178e+01  -5.2261864e+01   6.6023141e+01
  -1.9834566e+01  -5.2260110e+01   6.7729574e+01
  -1.6378069e+01  -5.2158877e+01   6.9345646e+01
  -1.2884382e+01  -5.1731032e+01   7.1260774e+01
  -9.3925603e+00  -5.1468363e+01   7.3448155e+01
  -5.8542230e+00  -5.1202888e+01   7.5774704e+01
  -2.4510027e+00  -5.0558783e+01   7.8340264e+01
   7.1252790e-01  -5.0384021e+01   8.0826115e+01
   3.4837649e+00  -4.9976984e+01   8.3170222e+01
   5.6389904e+00  -4.9556620e+01   8.5224051e+01
   7.1053409e+00  -4.9618810e+01   8.6832983e+01
   7.7738139e+00  -4.9537332e+01   8.7954882e+01
   7.7611064e+00  -4.9446854e+01   8.8646163e+01
   7.0062473e+00  -4.9678428e+01   8.8939952e+01
   5.4227334e+00  -4.9765750e+01   8.8584128e+01
   3.2228575e+00  -4.9677375e+01   8.7924800e+01
   3.3690519e-01  -4.9960150e+01   8.6743559e+01
  -2.8866644e+00  -4.9896208e+01   8.5436726e+01
  -6.4513488e+00  -4.9864996e+01   8.3809768e+01
  -1.0138792e+01  -4.9628863e+01   8.2084256e+01
  -1.3612661e+01  -5.0199557e+01   8.0857835e+01
  -1.7272825e+01  -5.1087160e+01   7.8818870e+01
  -2.0260435e+01  -4.9443463e+01   7.7572083e+01
  -2.2750597e+01  -5.1029529e+01   7.6487288e+01
  -2.5016457e+01  -5.2597944e+01   7.5416305e+01
  -2.6769479e+01  -4.9495600e+01   7.4616052e+01
  -2.8231516e+01  -5.1315461e+01   7.3222019e+01
  -2.8969005e+01  -5.1663699e+01   7.3647018e+01
  -2.9488488e+01  -4.7830861e+01   7.3055461e+01
  -2.9574641e+01  -4.8402257e+01   7.2481227e+01
  -2.9116129e+01  -4.6561237e+01   7.3994765e+01
  -2.8399858e+01  -4.2221766e+01   7.3303250e+01
  -2.7037964e+01  -4.0490981e+01   7.3257719e+01
  -2.5562637e+01  -3.7889660e+01   7.4500644e+01
  -2.4036480e+01  -3.3131929e+01   7.3139735e+01
  -2.2251398e+01  -3.0225973e+01   7.2705489e+01
  -2.0382145e+01  -2.7908128e+01   7.2889839e+01
  -1.8723437e+01  -2.2724657e+01   7.0799608e+01
  -1.7183524e+01  -1.9960497e+01   6.9746650e+01
  -1.5722303e+01  -1.7810167e+01   6.8837193e+01
  -1.4696977e+01  -1.2863647e+01   6.6327464e+01
  -1.3502376e+01  -1.0083356e+01   6.4536523e+01
  -1.2422373e+01  -7.9059050e+00   6.3167538e+01
  -1.1904988e+01  -3.5214285e+00   6.0733071e+01
  -1.1451140e+01  -1.0268345e+00   5.8688254e+01
  -1.1514210e+01   7.8548912e-02   5.7298902e+01
  -1.1898576e+01   3.5837219e+00   5.4958775e+01
  -1.2235378e+01   5.5007250e+00   5.2632109e+01
  -1.2536389e+01   6.1904205e+00   5.0690879e+01
  -1.2508526e+01   9.9942671e+00   4.7892746e+01
  -1.1934367e+01   1.2311878e+01   4.4593533e+01
  -1.0617472e+01   1.3885670e+01   4.1834377e+01
  -8.8843857e+00   1.8307787e+01   3.8216445e+01
  -6.5483437e+00   2.0858141e+01   3.3990686e+01
  -3.7788557e+00   2.2768130e+01   3.0868682e+01
  -8.4498857e-01   2.6600734e+01   2.7121764e+01
   2.4077263e+00   2.8952595e+01   2.3155030e+01
   5.5383813e+00   3.0233559e+01   2.0777448e+01
   8.4700332e+00   3.2624581e+01   1.8247587e+01
   1.1161296e+01   3.3740018e+01   1.5802118e+01
   1.3707532e+01   3.3151555e+01   1.5150282e+01
   1.5934105e+01   3.4151731e+01   1.4363958e+01
   1.7654018e+01   3.4036821e+01   1.3678646e+01
   1.9125964e+01   3.2748259e+01   1.4491305e+01
   2.0116666e+01   3.3384649e+01   1.4948141e+01
   2.0865230e+01   3.3099887e+01   1.5132724e+01
   2.1511203e+01   3.1996491e+01   1.6287396e+01
   2.1814080e+01   3.2173123e+01   1.6906459e+01
   2.2058899e+01   3.1538019e+01   1.6557073e+01
   2.2283316e+01   2.9521536e+01   1.6809193e+01
   2.2465882e+01   2.8435791e+01   1.6471395e+01
   2.2624897e+01   2.6428310e+01   1.5024924e+01
   2.2881025e+01   2.2649129e+01   1.4446827e+01
   2.3133772e+01   1.9939911e+01   1.3490902e+01
   2.3155456e+01   1.6363313e+01   1.1710846e+01
   2.3163267e+01   1.1503648e+01   1.1337816e+01
   2.2794406e+01   8.1459995e+00   1.0742514e+01
   2.2322254e+01   4.2049154e+00   9.6318519e+00
   2.1961204e+01  -6.2318733e-01   1.0008276e+01
   2.1253793e+01  -3.9018129e+00   1.0065278e+01
   2.0503481e+01  -7.4145844e+00   9.2514479e+00
   1.9628077e+01  -1.1658199e+01   9.3350198e+00
   1.8630730e+01  -1.4487354e+01   9.2108325e+00
   1.7626039e+01  -1.7374841e+01   7.9004878e+00
   1.6620531e+01  -2.0737516e+01   7.3242640e+00
   1.5689402e+01  -2.2540193e+01   6.3377891e+00
   1.4694037e+01  -2.4301605e+01   3.9579832e+00
   1.3910849e+01  -2.5791698e+01   2.4185767e+00
   1.3280498e+01  -2.5894568e+01   3.1640696e-01
   1.2794823e+01  -2.5438785e+01  -3.0612273e+00
   1.2817090e+01  -2.4287577e+01  -5.5930777e+00
   1.3093969e+01  -2.2365781e+01  -8.5583546e+00
   1.3621496e+01  -1.9527860e+01  -1.2591922e+01
   1.4521731e+01  -1.6970024e+01  -1.5826876e+01
   1.5594039e+01  -1.3847457e+01  -1.9247232e+01
   1.6675324e+01  -1.0134089e+01  -2.3513841e+01
   1.7689692e+01  -7.3595257e+00  -2.7127677e+01
   1.8595989e+01  -3.9890183e+00  -3.0705930e+01
   1.9139838e+01  -8.0648254e-01  -3.5125988e+01
   1.9665500e+01   1.7415334e+00  -3.8618329e+01
   2.0050332e+01   4.5399439e+00  -4.1777904e+01
   2.0164464e+01   7.1604366e+00  -4.5927348e+01
   2.0508261e+01   9.3838277e+00  -4.9023601e+01
   2.0672173e+01   1.1468228e+01  -5.2059340e+01
   2.0849492e+01   1.3913725e+01  -5.5916634e+01
   2.1238638e+01   1.5585944e+01  -5.8752574e+01
   2.1664040e+01   1.7363840e+01  -6.1577979e+01
   2.2363057e+01   1.9481672e+01  -6.4991196e+01
   2.3413332e+01   2.0615929e+01  -6.7546690e+01
   2.4819177e+01   2.2545207e+01  -6.9880145e+01
   2.6377044e+01   2.4367172e+01  -7.2817096e+01
   2.8179263e+01   2.6023727e+01  -7.5031748e+01
   2.9911067e+01   2.8493188e+01  -7.7002240e+01
   3.1282988e+01   3.0955050e+01  -7.9805757e+01
   3.2454972e+01   3.4186566e+01  -8.1978038e+01
   3.3046618e+01   3.7723185e+01  -8.3985868e+01
   3.3141981e+01   4.2025833e+01  -8.6957114e+01
   3.2893898e+01   4.6693903e+01  -8.9094983e+01
   3.2248624e+01   5.1377638e+01  -9.1146822e+01
   3.1382198e+01   5.6400375e+01  -9.3882686e+01
   3.0264306e+01   6.0663044e+01  -9.5599303e+01
   2.9003254e+01   6.4612194e+01  -9.7203085e+01
   2.7536904e+01   6.7811914e+01  -9.9063786e+01
   2.6028934e+01   7.0591153e+01  -1.0015385e+02
   2.4552907e+01   7.2704194e+01  -1.0116502e+02
   2.2957852e+01   7.4522769e+01  -1.0245394e+02
   2.1564014e+01   7.6610559e+01  -1.0318900e+02
   2.0228117e+01   7.7823371e+01  -1.0392839e+02
   1.9072338e+01   8.0019409e+01  -1.0497866e+02
   1.8256040e+01   8.1956167e+01  -1.0566420e+02
   1.7621842e+01   8.3509385e+01  -1.0644491e+02
   1.7195740e+01   8.5967974e+01  -1.0754176e+02
   1.6946724e+01   8.7222870e+01  -1.0860818e+02
   1.6937397e+01   8.8717171e+01  -1.0954409e+02
   1.6877242e+01   9.0038932e+01  -1.1108677e+02
   1.6791089e+01   9.0629381e+01  -1.1273480e+02
   1.6590337e+01   9.1365719e+01  -1.1398627e+02
   1.6087991e+01   9.1608515e+01  -1.1626799e+02
   1.5445632e+01   9.1701332e+01  -1.1830601e+02
   1.4382534e+01   9.1248705e+01  -1.1981803e+02
   1.2862207e+01   9.1172370e+01  -1.2256759e+02
   1.0947137e+01   9.0507107e+01  -1.2462879e+02
   8.7549559e+00   8.9568887e+01  -1.2606918e+02
   6.4609997e+00   8.9308205e+01  -1.2840251e+02
   4.1440775e+00   8.8064298e+01  -1.2992507e+02
   1.9817408e+00   8.7409322e+01  -1.3109741e+02
  -8.3134377e-02   8.6590103e+01  -1.3305772e+02
  -1.8531775e+00   8.5415166e+01  -1.3433166e+02
  -3.3928574e+00   8.4675087e+01  -1.3547943e+02
  -4.9580679e+00   8.3438195e+01  -1.3736061e+02
  -6.4194059e+00   8.2536213e+01  -1.3838911e+02
  -7.9925441e+00   8.1288098e+01  -1.3960371e+02
  -9.6564985e+00   8.0148464e+01  -1.4121990e+02
  -1.1243394e+01   7.9107491e+01  -1.4201219e+02
  -1.2847659e+01   7.7582445e+01  -1.4320935e+02
  -1.4468829e+01   7.6689231e+01  -1.4436660e+02
  -1.6014687e+01   7.5449182e+01  -1.4506490e+02
  -1.7556115e+01   7.4284181e+01  -1.4579528e+02
  -1.9197920e+01   7.3624996e+01  -1.4640451e+02
  -2.0751939e+01   7.2526276e+01  -1.4685069e+02
  -2.2370077e+01   7.1637386e+01  -1.4713055e+02
  -2.3913021e+01   7.0860369e+01  -1.4739040e+02
  -2.5210214e+01   6.9882754e+01  -1.4758751e+02
  -2.6352470e+01   6.8813142e+01  -1.4754139e+02
  -2.7145451e+01   6.7920863e+01  -1.4753238e+02
  -2.7743626e+01   6.6725468e+01  -1.4760132e+02
  -2.8151425e+01   6.5440647e+01  -1.4704230e+02
  -2.8423990e+01   6.4511195e+01  -1.4659963e+02
  -2.8605390e+01   6.3063068e+01  -1.4594580e+02
  -2.8616232e+01   6.2135719e+01  -1.4455177e+02
  -2.8614949e+01   6.1294057e+01  -1.4370142e+02
  -2.8525649e+01   6.0353499e+01  -1.4238990e+02
  -2.8341801e+01   6.0013561e+01  -1.4045862e+02
  -2.8088938e+01   5.9381496e+01  -1.3887977e+02
  -2.7746074e+01   5.9243674e+01  -1.3640492e+02
  -2.7386656e+01   5.9120347e+01  -1.3356418e+02
  -2.7091125e+01   5.8864692e+01  -1.3112422e+02
  -2.6881746e+01   5.9056054e+01  -1.2793444e+02
  -2.6774375e+01   5.8830558e+01  -1.2468369e+02
  -2.6863792e+01   5.8830909e+01  -1.2155607e+02
  -2.6944233e+01   5.8959028e+01  -1.1774313e+02
  -2.6983404e+01   5.8638495e+01  -1.1385178e+02
  -2.7062329e+01   5.8532820e+01  -1.1001040e+02
  -2.6935023e+01   5.8268281e+01  -1.0566818e+02
  -2.6721681e+01   5.7806769e+01  -1.0108554e+02
  -2.6390942e+01   5.7571688e+01  -9.6459249e+01
  -2.5834852e+01   5.7373781e+01  -9.1497379e+01
  -2.5124760e+01   5.7267755e+01  -8.6497352e+01
  -2.4197245e+01   5.7337659e+01  -8.1291556e+01
  -2.3068628e+01   5.7504004e+01  -7.6006284e+01
  -2.1604610e+01   5.7559998e+01  -7.0862406e+01
  -1.9906496e+01   5.7875271e+01  -6.5637531e+01
  -1.8056246e+01   5.8264657e+01  -6.0703869e+01
  -1.6143042e+01   5.8663862e+01  -5.5994120e+01
  -1.4357028e+01   5.9388627e+01  -5.1725404e+01
  -1.2690392e+01   5.9950787e+01  -4.7940328e+01
  -1.1251438e+01   6.0650302e+01  -4.4410532e+01
  -9.9909684e+00   6.1451869e+01  -4.1373155e+01
  -8.9037377e+00   6.2178621e+01  -3.8502686e+01
  -8.0349792e+00   6.3008360e+01  -3.5952927e+01
  -7.3310658e+00   6.3615759e+01  -3.4044705e+01
  -6.8409613e+00   6.4072127e+01  -3.2353020e+01
  -6.6636419e+00   6.4456954e+01  -3.1013999e+01
  -6.8804817e+00   6.4514234e+01  -3.0309725e+01
  -7.5090845e+00   6.4231926e+01  -2.9914105e+01
  -8.4559518e+00   6.3701913e+01  -2.9980939e+01
  -9.5153195e+00   6.2966861e+01  -3.0879394e+01
  -1.0462537e+01   6.2328717e+01  -3.2102071e+01
  -1.1164585e+01   6.1848502e+01  -3.3702693e+01
  -1.1686750e+01   6.1340231e+01  -3.5809544e+01
  -1.1946258e+01   6.0957041e+01  -3.7847806e+01
  -1.1865001e+01   6.0571630e+01  -4.0289648e+01
  -1.1571568e+01   6.0042084e+01  -4.3094569e+01
  -1.1099183e+01   5.9532177e+01  -4.5937414e+01
  -1.0619104e+01   5.8631598e+01  -4.9325817e+01
  -1.0226694e+01   5.7632475e+01  -5.3154903e+01
  -9.8465249e+00   5.6880005e+01  -5.7113443e+01
  -9.4728844e+00   5.6032148e+01  -6.1257152e+01
  -8.9790488e+00   5.5656322e+01  -6.5532656e+01
  -8.3418197e+00   5.5702847e+01  -6.9564000e+01
  -7.5786828e+00   5.5802677e+01  -7.3450556e+01
  -6.6572301e+00   5.6272957e+01  -7.7267235e+01
  -5.5281471e+00   5.6965691e+01  -8.0758990e+01
  -4.2865641e+00   5.7600679e+01  -8.4064173e+01
  -3.1375458e+00   5.8262319e+01  -8.7244816e+01
  -2.0336443e+00   5.8925362e+01  -9.0182353e+01
  -1.0425925e+00   5.9132504e+01  -9.2974048e+01
  -1.7045347e-01   5.8814543e+01  -9.5557985e+01
   5.4698346e-01   5.8087206e+01  -9.7840407e+01
   1.1106509e+00   5.6509557e+01  -9.9867316e+01
   1.5400169e+00   5.4301596e+01  -1.0146302e+02
   1.7851860e+00   5.1609328e+01  -1.0263478e+02
   2.0332693e+00   4.8111987e+01  -1.0307137e+02
   2.2525575e+00   4.4279151e+01  -1.0272210e+02
   2.5963534e+00   4.0169266e+01  -1.0168565e+02
   3.1686475e+00   3.5820093e+01  -9.9619995e+01
   4.0770434e+00   3.1480271e+01  -9.6803368e+01
   5.5498061e+00   2.7204977e+01  -9.3206036e+01
   7.5864690e+00   2.3099768e+01  -8.8678997e+01
   1.0184817e+01   1.9153775e+01  -8.3619627e+01
   1.3109591e+01   1.5639951e+01  -7.8227140e+01
   1.6262046e+01   1.2300539e+01  -7.2632161e+01
   1.9442597e+01   9.0828169e+00  -6.6928680e+01
   2.2514612e+01   6.3515054e+00  -6.1043072e+01
   2.5496977e+01   3.6455606e+00  -5.5120595e+01
   2.8252592e+01   1.0721780e+00  -4.9274316e+01
   3.0854671e+01  -1.2046356e+00  -4.3406851e+01
   3.3131606e+01  -3.7572105e+00  -3.7658658e+01
   3.5010652e+01  -6.0139181e+00  -3.2037929e+01
   3.6621329e+01  -8.0387005e+00  -2.6521489e+01
   3.7907096e+01  -9.9827067e+00  -2.1090727e+01
   3.8964832e+01  -1.1301662e+01  -1.5453378e+01
   3.9799316e+01  -1.2539022e+01  -9.8313609e+00
   4.0462659e+01  -1.3338368e+01  -4.0793049e+00
   4.1042531e+01  -1.3951963e+01   2.1107423e+00
   4.1480174e+01  -1.4511084e+01   8.2935327e+00
   4.1707740e+01  -1.4643412e+01   1.4779124e+01
   4.1596172e+01  -1.5055944e+01   2.1614688e+01
   4.1223580e+01  -1.5328899e+01   2.8511935e+01
   4.0520600e+01  -1.5536159e+01   3.5536061e+01
