**************************************************************************************
           RED ACELEROGRÁFICA DE LA UNIVERSIDAD AUTONOMA METROPOLITANA (RAUAM)
				UNIDAD AZCAPOTZALCO
                        DIVISIÓN CBI-DEPARTAMENTO DE MATERIALES
     Av. San Pablo 180, Col. Reynosa, Azcapotzalco, C.P. 02200, Ciudad de México
**************************************************************************************
ARCHIVO ESTANDAR DE ACELERACION:
VERSION DEL FORMATO                    : 2.0
NOMBRE DEL ARCHIVO                     : RIML201709.081
FECHA Y HORA DE CREACION               : 30/SEP/2017, 12:38
REF. CATALOGO ACELEROGRAMAS, SMIS 1995 : REGISTRO NO.      /PAG.    


================================================================================
DATOS DE LA ESTACION:
NOMBRE DE LA ESTACION                  : UAM-LERMA.
CLAVE DE LA ESTACION                   : RIML
LOCALIZACION DE LA ESTACION            : AV. DE LAS GARZAS 10, EL PANTEON, C.P.52005,
                                       : LERMA DE VILLADA, ESTADO DE MEXICO. 
                                       :
                                       : 
                                       : 
COORDENADAS DE LA ESTACION             : 19.291481 LAT. N
                                       : 99.502060 LONG. W
ALTITUD (msnm)                         : 2570
TIPO DE SUELO                          : DEPOSITOS LACUSTRES
                                       : 
                                       : 
INSTITUCION RESPONSABLE                : UAM-AZCAPOTZALCO
                                       : 

================================================================================
DATOS DEL ACELEROGRAFO: 
MODELO DEL ACELEROGRAFO                : BASALT KINEMETRICS
NUMERO DE SERIE DEL ACELEROGRAFO       : 978
NUMERO DE CANALES                      : 3
ORIENTACION C1-C6 (rumbo;orientacion)  : /V/N00E/N90E
ORIENTACION C7-C12 (rumbo;orientacion) : 
VEL. DE MUESTREO, C1-C6 (muestras/s)   : /250/250/250
VEL. DE MUESTREO, C7-C12 (muestras/s)  : 
ESC. COMPLETA DE SENSORES, C1-C6, (g)  : /2/2/2
ESC. COMPLETA DE SENSORES, C7-C12 (g)  : 
FREC. NAT. DE SENSORES, C1-C6, (Hz)    : /210/212/216
FREC. NAT. DE SENSORES, C7-C12 (Hz)    : 
AMORTIGUAMIENTO DE SENSORES, C1-C6     : /0.7/0.7/0.7
AMORTIGUAMIENTO DE SENSORES, C7-C12    : 
INTERVALO DE MUESTREO, C1-C6 (s)       : /0.004/0.004/0.004
INTERVALO DE MUESTREO, C7-C12 (s)      : 
UMBRAL DE DISPARO, C1-C6 (Gal)         : /2/2/2
UMBRAL DE DISPARO, C7-C12 (Gal)        : 
MEMORIA DE PREEVENTO (s)               : 20
TIEMPO DE POSEVENTO (s)                : 30


================================================================================
DATOS DEL SISMO:
FECHA DEL SISMO [GMT]                  : 2017/09/08
HORA EPICENTRO (GMT)                   : 04:49:17
MAGNITUD(ES)                           : /M=8.2
COORDENADAS DEL EPICENTRO              : 14.761 LAT. N
                                       : 94.103 LONG. W
PROFUNDIDAD FOCAL (Km)                 : 45.9
FUENTE DE LOS DATOS EPICENTRALES       : SSN
                                       : INSTITUTO DE GEOFISICA, UNAM

================================================================================
DATOS DE ESTE REGISTRO:
HORA DE LA PRIMERA MUESTRA (GMT)       : 05:05:33.0000
EXACTITUD DEL TIEMPO (s)               : 
DURACION DEL REGISTRO (s), C1-C6       : /191.00/191.00/191.00
DURACION DEL REGISTRO (s), C7-C12      : 
NUM. TOTAL DE MUESTRAS, C1-C6          : /47750/47750/47750
NUM. TOTAL DE MUESTRAS, C7-C12         : 
ACEL. MAX.(Gal), C1-C6                 : /-3.767/-16.675/-11.867
ACEL. MAX., C1-C6, EN LA MUESTRA       : /702/2626/214
ACEL. MAX.(Gal), C7-C12                : 
ACEL. MAX., C7-C12,EN LA MUESTRA       : 
UNIDADES DE LOS DATOS                  : Gal (cm/s/s)
FACTOR DE DECIMACION                   : 1
FORMATO DATOS (FORTRAN,16 campos/dato) : 3E16.7


================================================================================
CALIDAD DEL ACELEROGRAMA:
REGISTRO DIGITAL COMPLETO CON TIEMPO ABSOLUTO CORRECTO


================================================================================
COMENTARIOS:














================================================================================
DATOS DE ACELERACION:
---------+---------+---------+---------+---------+---------+---------+---------+
      CANAL-1	      CANAL-2 	      CANAL-3
         V              N00E            N90E
---------+---------+---------+---------+---------+---------+---------+---------+  
[...]
 -2.8254574e-001  8.4113673e+000  2.2046199e+000
 -1.2017508e-001  8.6772880e+000  2.2060231e+000
 -3.4729068e-002  8.8293595e+000  2.2798129e+000
 -1.0799421e-002  8.9382994e+000  2.1509436e+000
 -6.1226565e-002  9.1029950e+000  2.1211235e+000
 -1.4258697e-001  9.2385854e+000  2.1986556e+000
 -1.5799525e-001  9.4488670e+000  1.9624337e+000
 -1.2099213e-001  9.4641793e+000  1.8708685e+000
  1.9900404e-002  9.4817127e+000  1.8555492e+000
  3.0238579e-001  9.6596164e+000  1.8166076e+000
  4.2716973e-001  9.7981292e+000  1.9153064e+000
  4.7047653e-001  9.9075366e+000  1.8120472e+000
  4.4117735e-001  1.0137689e+001  1.7590725e+000
  3.7954426e-001  1.0418805e+001  1.8771837e+000
  3.5573134e-001  1.0428273e+001  1.8286528e+000
  2.8289191e-001  1.0480639e+001  1.5835433e+000
  4.2903725e-001  1.0509043e+001  1.4889375e+000
  5.8615549e-001  1.0526927e+001  1.5329076e+000
  7.4082182e-001  1.0818797e+001  1.4759572e+000
  9.1638306e-001  1.0956257e+001  1.5712646e+000
  8.5498341e-001  1.1065548e+001  1.5111566e+000
  8.3467249e-001  1.1213061e+001  1.4539720e+000
  7.3872085e-001  1.1309610e+001  1.5365329e+000
  6.4603777e-001  1.1496281e+001  1.3394866e+000
  6.3494816e-001  1.1511476e+001  1.2570425e+000
  6.9868261e-001  1.1465539e+001  1.2046529e+000
  1.0303112e+000  1.1617961e+001  1.2228959e+000
  1.1044346e+000  1.1735785e+001  1.2941133e+000
  1.1361849e+000  1.1812464e+001  1.1875796e+000
  1.1807756e+000  1.2042149e+001  1.2027820e+000
  9.8385295e-001  1.2258042e+001  1.2637085e+000
  9.5081833e-001  1.2282822e+001  1.2274563e+000
  8.7564449e-001  1.2242028e+001  9.9310573e-001
  8.7494417e-001  1.2220637e+001  8.9160056e-001
  1.0193387e+000  1.2243547e+001  9.2001709e-001
  1.1929153e+000  1.2442257e+001  8.7581351e-001
  1.3444306e+000  1.2561483e+001  1.0134535e+000
  1.2028373e+000  1.2582172e+001  1.0005898e+000
  1.1505427e+000  1.2722672e+001  9.1639219e-001
  1.2286349e+000  1.2785324e+001  9.5100692e-001
  1.0488713e+000  1.2871704e+001  8.2973862e-001
  8.6432183e-001  1.2872523e+001  7.0016732e-001
  1.0179381e+000  1.2738569e+001  6.5736653e-001
  1.1833438e+000  1.2833833e+001  6.5982251e-001
  1.2065728e+000  1.2919044e+001  7.2098286e-001
  1.2871161e+000  1.2910745e+001  6.7888406e-001
  1.2972716e+000  1.3100221e+001  6.2532470e-001
  1.1710870e+000  1.3315880e+001  7.3139062e-001
  1.0418673e+000  1.3260475e+001  6.8227510e-001
  9.6459251e-001  1.3121962e+001  4.7236536e-001
  8.7949666e-001  1.3032893e+001  3.9635303e-001
  9.2268675e-001  1.2940552e+001  3.9284505e-001
  1.1322160e+000  1.3124183e+001  3.8536060e-001
  1.2096079e+000  1.3236279e+001  4.7259923e-001
  1.0850574e+000  1.3158548e+001  4.6137254e-001
  1.0849407e+000  1.3259890e+001  3.3519268e-001
  1.0021792e+000  1.3234409e+001  4.3096776e-001
  7.1140631e-001  1.3229266e+001  3.4010423e-001
  6.4195217e-001  1.3173860e+001  1.4925565e-001
  6.4778858e-001  1.2977371e+001  1.4948952e-001
  7.8739719e-001  1.3015828e+001  8.8446098e-002
  9.2852316e-001  1.3005658e+001  1.6878493e-001
  8.6163726e-001  1.2947799e+001  1.4913872e-001
  8.7015824e-001  1.3034880e+001  7.1840521e-002
  7.6276722e-001  1.3146742e+001  1.8024548e-001
  6.0599953e-001  1.3079532e+001  1.3732776e-001
  4.9755763e-001  1.2838275e+001 -6.5448703e-002
  3.2094590e-001  1.2661656e+001 -1.6788972e-001
  4.5436754e-001  1.2546872e+001 -1.9431840e-001
  6.9646492e-001  1.2575861e+001 -2.3980864e-001
  5.8031908e-001  1.2600758e+001 -1.0474113e-001
  5.6561113e-001  1.2474284e+001 -1.6964371e-001
  6.0903426e-001  1.2435244e+001 -2.9395265e-001
  4.1071097e-001  1.2385216e+001 -1.5151762e-001
  2.9549889e-001  1.2278964e+001 -3.5581460e-001
  2.1343816e-001  1.2121399e+001 -5.1555680e-001
  1.0557986e-001  1.1868687e+001 -4.6913072e-001
  2.0573383e-001  1.1761383e+001 -5.6221636e-001
  3.5164573e-001  1.1678860e+001 -5.2116995e-001
  3.0927308e-001  1.1517438e+001 -5.2023449e-001
  2.7600501e-001  1.1483657e+001 -6.0864205e-001
  1.7293304e-001  1.1496164e+001 -5.4432413e-001
  2.7254574e-002  1.1319780e+001 -5.6630938e-001
 -7.8969638e-002  1.1010026e+001 -8.1820138e-001
 -2.0281942e-001  1.0723183e+001 -9.2321491e-001
 -1.0429993e-001  1.0505770e+001 -9.5373662e-001
  3.0989628e-002  1.0445806e+001 -9.9010534e-001
  1.0056049e-001  1.0338153e+001 -9.0473802e-001
 -2.7374898e-002  1.0122143e+001 -9.6870514e-001
 -1.3955224e-001  9.9260047e+000 -1.0309179e+000
 -6.8346903e-002  9.7209827e+000 -1.0360633e+000
 -2.8896576e-001  9.5762754e+000 -1.1618924e+000
 -4.2588979e-001  9.2851068e+000 -1.2890077e+000
 -3.8561811e-001  8.9062722e+000 -1.3611609e+000
 -2.8581431e-001  8.7408753e+000 -1.3866541e+000
 -1.9885053e-001  8.5419314e+000 -1.3764802e+000
 -2.6807123e-001  8.2613996e+000 -1.4285190e+000
 -2.6562010e-001  8.1221860e+000 -1.5296734e+000
 -4.4339904e-001  7.9920894e+000 -1.4735415e+000
 -5.3678282e-001  7.6978816e+000 -1.5023092e+000
 -4.9149177e-001  7.3200989e+000 -1.7799283e+000
 -6.1510811e-001  6.9485116e+000 -1.8669327e+000
 -5.6071208e-001  6.6349003e+000 -1.8728966e+000
 -4.0569559e-001  6.4877381e+000 -1.9410737e+000
 -3.3950962e-001  6.2994314e+000 -1.8654126e+000
 -4.2168747e-001  5.9558967e+000 -1.9614215e+000
 -5.3935067e-001  5.6969895e+000 -2.0347436e+000
 -5.6888329e-001  5.4482515e+000 -1.9980241e+000
 -6.4534105e-001  5.1832658e+000 -2.1905097e+000
 -6.7977632e-001  4.8502514e+000 -2.3131816e+000
 -6.4977682e-001  4.4374023e+000 -2.3707167e+000
 -5.1693878e-001  4.2053792e+000 -2.4232237e+000
 -3.9542341e-001  3.9560565e+000 -2.4193645e+000
 -4.3207637e-001  3.6263150e+000 -2.4978320e+000
 -4.9452650e-001  3.4263192e+000 -2.5862400e+000
 -5.9549751e-001  3.2388306e+000 -2.5331483e+000
 -6.3565247e-001  2.9109589e+000 -2.5577061e+000
 -6.1207338e-001  2.4998633e+000 -2.7915893e+000
 -6.3331807e-001  2.0853775e+000 -2.8884168e+000
 -5.3246378e-001  1.7472200e+000 -2.9519162e+000
 -3.6273895e-001  1.5907067e+000 -2.9945997e+000
 -3.4733068e-001  1.3711905e+000 -2.9416250e+000
 -3.7137704e-001  1.0227469e+000 -3.0775110e+000
 -4.7118085e-001  7.2421450e-001 -3.1462728e+000
 -5.7366922e-001  4.5350133e-001 -3.1166865e+000
 -5.2522633e-001  2.1493265e-001 -3.2985305e+000
 -5.8452501e-001 -1.6016179e-001 -3.4275171e+000
 -5.3106313e-001 -6.1345423e-001 -3.4769835e+000
 -3.4791428e-001 -8.5739973e-001 -3.5597779e+000
 -2.7554213e-001 -1.0804227e+000 -3.5324137e+000
 -1.9990141e-001 -1.4158916e+000 -3.6342697e+000
 -2.8488054e-001 -1.6359922e+000 -3.7727286e+000
 -4.2705700e-001 -1.7937911e+000 -3.6942607e+000
 -4.4444952e-001 -2.1120780e+000 -3.7478201e+000
 -4.9405962e-001 -2.5244596e+000 -3.9821706e+000
 -4.9779507e-001 -2.9802065e+000 -4.1175889e+000
 -3.5351725e-001 -3.3247932e+000 -4.1943025e+000
 -1.9336428e-001 -3.4236804e+000 -4.2300865e+000
 -7.3249553e-002 -3.6222736e+000 -4.2140656e+000
 -5.5857034e-002 -3.9596130e+000 -4.3618799e+000
 -1.7632192e-001 -4.2364043e+000 -4.4512230e+000
 -2.6888828e-001 -4.5266374e+000 -4.4246774e+000
 -3.0764259e-001 -4.7316594e+000 -4.6179815e+000
 -3.3857586e-001 -5.0770642e+000 -4.7592468e+000
 -3.0717571e-001 -5.6094897e+000 -4.8470701e+000
 -1.3208135e-001 -5.8059792e+000 -4.9514990e+000
  7.5813800e-002 -5.9740643e+000 -4.9165335e+000
  1.3616296e-001 -6.2995980e+000 -5.0362812e+000
  1.3067671e-001 -6.4600852e+000 -5.1957896e+000
  2.3402408e-002 -6.6112216e+000 -5.1513517e+000
 -9.3327035e-002 -6.8921041e+000 -5.1811719e+000
 -1.0336578e-001 -7.2998101e+000 -5.4372738e+000
 -1.4071945e-001 -7.7797534e+000 -5.6187670e+000
 -4.0292439e-003 -8.1422237e+000 -5.6577086e+000
  2.4005238e-001 -8.1963426e+000 -5.7193367e+000
  3.7289041e-001 -8.3045813e+000 -5.6897505e+000
  4.9674059e-001 -8.6157378e+000 -5.8132409e+000
  4.4713049e-001 -8.8517351e+000 -5.9402393e+000
  2.9514873e-001 -9.1348382e+000 -5.8842243e+000
  2.4308711e-001 -9.3198724e+000 -6.0803353e+000
  2.0374958e-001 -9.6475100e+000 -6.2361014e+000
  2.0585055e-001 -1.0214067e+001 -6.3150366e+000
  3.7359074e-001 -1.0392088e+001 -6.4277685e+000
  6.6167949e-001 -1.0505002e+001 -6.3812259e+000
  7.9008176e-001 -1.0759584e+001 -6.4615643e+000
  8.0922547e-001 -1.0851575e+001 -6.6024788e+000
  7.3276771e-001 -1.0967061e+001 -6.5677476e+000
  5.7144754e-001 -1.1200954e+001 -6.5461131e+000
  5.3421059e-001 -1.1615557e+001 -6.7771896e+000
  4.6895877e-001 -1.2139450e+001 -6.9550579e+000
  5.8125284e-001 -1.2474568e+001 -6.9671027e+000
  8.4552827e-001 -1.2488127e+001 -7.0086168e+000
  1.0116344e+000 -1.2474217e+001 -6.9410248e+000
  1.1744723e+000 -1.2719566e+001 -7.0345778e+000
  1.1201930e+000 -1.2936627e+001 -7.1426319e+000
  9.5723874e-001 -1.3113479e+001 -7.0576154e+000
  8.7260976e-001 -1.3286707e+001 -7.2092885e+000
  7.7549053e-001 -1.3595292e+001 -7.3707847e+000
  7.4444054e-001 -1.4134147e+001 -7.4036454e+000
  9.3120773e-001 -1.4302466e+001 -7.4622329e+000
  1.2097246e+000 -1.4320350e+001 -7.3887938e+000
  1.3548195e+000 -1.4484227e+001 -7.4037624e+000
  1.4282421e+000 -1.4514384e+001 -7.5624518e+000
  1.3116294e+000 -1.4501643e+001 -7.4869076e+000
  1.1250956e+000 -1.4678846e+001 -7.3968626e+000
  1.0392995e+000 -1.5109462e+001 -7.6195191e+000
  9.5770562e-001 -1.5561936e+001 -7.7752852e+000
  1.0667307e+000 -1.5930952e+001 -7.7449974e+000
  1.2572334e+000 -1.5864794e+001 -7.7475703e+000
  1.4515882e+000 -1.5682331e+001 -7.6637231e+000
  1.6287835e+000 -1.5882795e+001 -7.7121370e+000
  1.5937646e+000 -1.5949771e+001 -7.8007785e+000
  1.4667630e+000 -1.6089920e+001 -7.6625538e+000
  1.3075438e+000 -1.6232524e+001 -7.7692044e+000
  1.1909311e+000 -1.6426792e+001 -7.9446167e+000
  1.1668847e+000 -1.6976634e+001 -7.9444997e+000
  1.3097619e+000 -1.7121576e+001 -7.9668354e+000
  1.5808079e+000 -1.7053196e+001 -7.8491924e+000
  1.7618554e+000 -1.7071314e+001 -7.8393693e+000
  1.8557056e+000 -1.6998960e+001 -8.0037892e+000
  1.7266030e+000 -1.6905800e+001 -7.9332735e+000
  1.5508084e+000 -1.6950218e+001 -7.8270906e+000
  1.4538058e+000 -1.7323442e+001 -8.0022687e+000
  1.3340417e+000 -1.7731381e+001 -8.1889077e+000
  1.4552069e+000 -1.8084033e+001 -8.1415461e+000
  1.6572656e+000 -1.7986548e+001 -8.0857651e+000
  1.8011929e+000 -1.7635884e+001 -7.9869493e+000
  2.0008005e+000 -1.7738278e+001 -7.9854292e+000
  2.0039523e+000 -1.7735589e+001 -8.1192105e+000
  1.8609584e+000 -1.7708471e+001 -7.9312852e+000
  1.6918176e+000 -1.7808878e+001 -7.9587667e+000
  1.4903425e+000 -1.7882752e+001 -8.1843469e+000
  1.5008481e+000 -1.8346915e+001 -8.1742900e+000
  1.6342697e+000 -1.8513831e+001 -8.1823587e+000
  1.8588575e+000 -1.8287769e+001 -7.9752553e+000
  2.0952348e+000 -1.8269301e+001 -7.9184219e+000
  2.1264015e+000 -1.8078890e+001 -8.0914951e+000
  2.0469086e+000 -1.7890583e+001 -7.9654322e+000
  1.8206868e+000 -1.7828399e+001 -7.8235822e+000
  1.6267992e+000 -1.7987016e+001 -7.9489436e+000
  1.5544267e+000 -1.8475726e+001 -8.1570993e+000
  1.6243477e+000 -1.8698397e+001 -8.0973422e+000
  1.8704136e+000 -1.8615056e+001 -7.9429796e+000
  2.0402551e+000 -1.8340603e+001 -7.8012466e+000
  2.1772955e+000 -1.8180115e+001 -7.7851083e+000
  2.1893189e+000 -1.8137101e+001 -7.9704607e+000
  2.0424728e+000 -1.8036460e+001 -7.7543528e+000
  1.8358616e+000 -1.7990873e+001 -7.8213605e+000
  1.6419741e+000 -1.7913143e+001 -8.1969764e+000
  1.6845802e+000 -1.8344226e+001 -7.9501129e+000
  1.7606878e+000 -1.8544807e+001 -7.8984249e+000
  1.9536419e+000 -1.8183505e+001 -7.8445147e+000
  2.2246879e+000 -1.8133477e+001 -7.6439600e+000
  2.2218862e+000 -1.7917117e+001 -7.8538701e+000
  2.1203316e+000 -1.7623728e+001 -7.6644247e+000
  1.9088177e+000 -1.7465110e+001 -7.4333482e+000
  1.7052412e+000 -1.7497722e+001 -7.7087456e+000
  1.6087060e+000 -1.7819749e+001 -7.8735163e+000
  1.6876153e+000 -1.8001627e+001 -7.8088476e+000
  1.9155879e+000 -1.7822905e+001 -7.6488715e+000
  2.0087383e+000 -1.7431797e+001 -7.4356873e+000
  2.1575682e+000 -1.7319117e+001 -7.4487849e+000
  2.1900192e+000 -1.7243490e+001 -7.5569556e+000
  2.0353525e+000 -1.7050625e+001 -7.3825956e+000
  1.8243055e+000 -1.6866526e+001 -7.3792046e+000
  1.5764888e+000 -1.6756534e+001 -7.5345030e+000
  1.5761387e+000 -1.7014857e+001 -7.5490034e+000
  1.7590537e+000 -1.7037533e+001 -7.4954444e+000
  1.9607623e+000 -1.6735026e+001 -7.2119783e+000
  2.0849626e+000 -1.6600605e+001 -7.0852134e+000
  2.1206818e+000 -1.6432870e+001 -7.2005178e+000
  1.9837581e+000 -1.6121246e+001 -7.0618254e+000
  1.7540343e+000 -1.5878002e+001 -6.8572945e+000
  1.6068385e+000 -1.5909679e+001 -6.9972736e+000
  1.5155560e+000 -1.6013592e+001 -7.1695283e+000
  1.6112742e+000 -1.5988812e+001 -7.0727009e+000
  1.7757459e+000 -1.5727099e+001 -6.8774085e+000
  1.9104518e+000 -1.5365330e+001 -6.6363920e+000
  2.0013841e+000 -1.5252182e+001 -6.6028300e+000
  1.9691669e+000 -1.5159256e+001 -6.6249318e+000
  1.8343442e+000 -1.4949442e+001 -6.4136185e+000
  1.5844262e+000 -1.4663884e+001 -6.4028599e+000
  1.4149352e+000 -1.4499656e+001 -6.5219061e+000
  1.4388645e+000 -1.4574114e+001 -6.4939573e+000
  1.6208461e+000 -1.4433264e+001 -6.3821613e+000
  1.8176520e+000 -1.4111471e+001 -6.1308540e+000
  1.8921255e+000 -1.3931463e+001 -5.9933309e+000
  1.9119692e+000 -1.3724921e+001 -6.0713307e+000
  1.7285873e+000 -1.3352165e+001 -5.9125239e+000
  1.5094858e+000 -1.3138610e+001 -5.6772379e+000
  1.4151686e+000 -1.3100271e+001 -5.8477387e+000
  1.3167655e+000 -1.3036333e+001 -5.9507640e+000
  1.4769185e+000 -1.2961758e+001 -5.7500923e+000
  1.6806113e+000 -1.2587365e+001 -5.5764344e+000
  1.7309217e+000 -1.2183633e+001 -5.3259455e+000
  1.8295583e+000 -1.2088486e+001 -5.2418645e+000
  1.7210001e+000 -1.1894802e+001 -5.2514537e+000
  1.5136881e+000 -1.1630285e+001 -4.9947671e+000
  1.3508506e+000 -1.1365065e+001 -4.9737177e+000
  1.1450564e+000 -1.1105690e+001 -5.0746382e+000
  1.2263001e+000 -1.1108612e+001 -4.9647131e+000
  1.4345458e+000 -1.0933046e+001 -4.8205245e+000
  1.5830256e+000 -1.0522769e+001 -4.5337839e+000
  1.7079262e+000 -1.0325812e+001 -4.3788363e+000
  1.5710026e+000 -1.0023188e+001 -4.3974301e+000
  1.4151686e+000 -9.6178203e+000 -4.1976939e+000
  1.2365723e+000 -9.4013434e+000 -3.9888362e+000
  1.0271594e+000 -9.2980140e+000 -4.0402908e+000
  1.0296109e+000 -9.2541812e+000 -4.0947852e+000
  1.1026834e+000 -9.1149672e+000 -3.8769232e+000
  1.2816299e+000 -8.6915982e+000 -3.6626866e+000
  1.3976590e+000 -8.2121229e+000 -3.4608456e+000
  1.4490199e+000 -8.0402969e+000 -3.3170074e+000
  1.3882039e+000 -7.8446264e+000 -3.3267136e+000
  1.1529938e+000 -7.5365087e+000 -3.0782130e+000
  9.8840544e-001 -7.2868358e+000 -2.9858290e+000
  7.6031570e-001 -6.9884199e+000 -3.0630106e+000
  7.6837019e-001 -6.9825756e+000 -2.9211602e+000
  9.6155739e-001 -6.8434788e+000 -2.7912385e+000
  1.0931119e+000 -6.3735880e+000 -2.5039133e+000
  1.2947038e+000 -6.1479937e+000 -2.3047617e+000
  1.2573501e+000 -5.8085505e+000 -2.3019550e+000
  1.0573923e+000 -5.3328153e+000 -2.1047916e+000
  8.8206490e-001 -5.1068708e+000 -1.8913735e+000
  6.4767186e-001 -5.0208411e+000 -1.9165160e+000
  5.0701277e-001 -4.9595913e+000 -1.9632925e+000
  5.9852864e-001 -4.9252265e+000 -1.8009777e+000
  7.7759189e-001 -4.5303779e+000 -1.6043991e+000
  9.3984582e-001 -3.9196372e+000 -1.3525071e+000
  1.0516726e+000 -3.7504998e+000 -1.2152179e+000
  1.0128020e+000 -3.5322697e+000 -1.1966240e+000
  8.2451703e-001 -3.2365424e+000 -9.5549060e-001
  5.5475495e-001 -3.0240397e+000 -8.6263922e-001
  3.5748214e-001 -2.7022465e+000 -8.9889101e-001
  2.6374858e-001 -2.7843019e+000 -8.1083385e-001
  3.5724870e-001 -2.7111301e+000 -6.9658227e-001
