**************************************************************************************
            UNIVERSIDAD AUTONOMA METROPOLITANA - AZCAPOTZALCO
                        Departamento de Materiales
                           Area de Estructuras
     AV. SAN PABLO 180,COL.REYNOSA, AZCAPOTZALCO, C.P.02200 CIUDAD DE MEXICO.
**************************************************************************************
ARCHIVO ESTANDAR DE ACELERACION:
VERSION DEL FORMATO                    : 2.0
NOMBRE DEL ARCHIVO                     : RIDA201503201
FECHA Y HORA DE CREACION               : MON JUL 18 12:30:07 2018
REF. CATALOGO ACELEROGRAMAS, SMIS 1995 : REGISTRO NO.      /PAG.    


================================================================================
DATOS DE LA ESTACION:
NOMBRE DE LA ESTACION                  : UAM-AZCAPOTZALCO.
CLAVE DE LA ESTACION                   : RIDA
LOCALIZACION DE LA ESTACION            : AV. SAN PABLO 180,COL.REYNOSA, AZCAPOTZALCO,
                                       : C.P.02200 CIUDAD DE MEXICO.
                                       :
                                       : 
                                       : 
COORDENADAS DE LA ESTACION             : 19.498596 LAT. N
                                       : 99.195595 LONG. W
ALTITUD (msnm)                         : 2246
TIPO DE SUELO                          : TRANSICION 
                                       : 
                                       : 
INSTITUCION RESPONSABLE                : UNIVERSIDAD AUTONOMA METROPOLITANA
                                       : 

================================================================================
DATOS DEL ACELEROGRAFO: 
MODELO DEL ACELEROGRAFO                : BASALT KINEMETRICS
NUMERO DE SERIE DEL ACELEROGRAFO       : 1730
NUMERO DE CANALES                      : 3
ORIENTACION C1-C6 (rumbo;orientacion)  : /V/N00E/N90E
ORIENTACION C7-C12 (rumbo;orientacion) : 
VEL. DE MUESTREO, C1-C6 (muestras/s)   : /250/250/250
VEL. DE MUESTREO, C7-C12 (muestras/s)  : 
ESC. COMPLETA DE SENSORES, C1-C6, (g)  : /2/2/2
ESC. COMPLETA DE SENSORES, C7-C12 (g)  : 
FREC. NAT. DE SENSORES, C1-C6, (Hz)    : /210/106/212
FREC. NAT. DE SENSORES, C7-C12 (Hz)    : 
AMORTIGUAMIENTO DE SENSORES, C1-C6     : /0.7/0.7/0.7   
AMORTIGUAMIENTO DE SENSORES, C7-C12    : 
INTERVALO DE MUESTREO, C1-C6 (s)       : /0.004/0.004/0.004
INTERVALO DE MUESTREO, C7-C12 (s)      : 
UMBRAL DE DISPARO, C1-C6 (Gal)         : /2/2/2
UMBRAL DE DISPARO, C7-C12 (Gal)        : 
MEMORIA DE PREEVENTO (s)               : 30
TIEMPO DE POSEVENTO (s)                : 60


================================================================================
DATOS DEL SISMO:
FECHA DEL SISMO [GMT]                  : 2015/03/20
HORA EPICENTRO (GMT)                   : 22:30:09
MAGNITUD(ES)                           : /M=5.4
COORDENADAS DEL EPICENTRO              : 17.9397 LAT. N
                                       : 98.6127 LONG. W
PROFUNDIDAD FOCAL (Km)                 : 59.4
FUENTE DE LOS DATOS EPICENTRALES       : SSN
                                       : INSTITUTO DE GEOFISICA, UNAM

================================================================================
DATOS DE ESTE REGISTRO:
HORA DE LA PRIMERA MUESTRA (GMT)       : 22:30:37.00
EXACTITUD DEL TIEMPO (s)               : 
DURACION DEL REGISTRO (s), C1-C6       : /146.00/146.00/146.00
DURACION DEL REGISTRO (s), C7-C12      : 
NUM. TOTAL DE MUESTRAS, C1-C6          : /36500/36500/36500
NUM. TOTAL DE MUESTRAS, C7-C12         : 
ACEL. MAX.(Gal), C1-C6                 : /1.629/3.559/-4.047
ACEL. MAX., C1-C6, EN LA MUESTRA       : /12868/14436/16445
ACEL. MAX.(Gal), C7-C12                : 
ACEL. MAX., C7-C12,EN LA MUESTRA       : 
UNIDADES DE LOS DATOS                  : Gal (cm/s/s)
FACTOR DE DECIMACION                   : 1
FORMATO DATOS (FORTRAN,16 campos/dato) : 3E16.7


================================================================================
CALIDAD DEL ACELEROGRAMA:
REGISTRO DIGITAL COMPLETO CON TIEMPO ABSOLUTO CORRECTO


================================================================================
COMENTARIOS:














================================================================================
DATOS DE ACELERACION:
---------+---------+---------+---------+---------+---------+---------+---------+
   CANAL-1           CANAL-2        CANAL-3
         V             N00E           N90E
---------+---------+---------+---------+---------+---------+---------+---------+ 
[...]
 -2.7026609e-001 -6.2483853e-002  2.3299728e+000
 -2.3459811e-001 -4.4474263e-002  2.3829484e+000
 -2.0466034e-001  5.6948620e-003  2.5026995e+000
 -1.7402096e-001  9.3870674e-002  2.6399920e+000
 -1.5495896e-001  1.9046660e-001  2.7047792e+000
 -1.3882072e-001  3.4074011e-001  2.7100417e+000
 -1.3004980e-001  4.5908795e-001  2.6719177e+000
 -1.3531227e-001  5.7638298e-001  2.6590540e+000
 -1.6220933e-001  6.8783086e-001  2.6624455e+000
 -1.8934065e-001  7.7132926e-001  2.6449037e+000
 -2.0232124e-001  8.1494923e-001  2.6611588e+000
 -2.3740455e-001  8.3097092e-001  2.7303900e+000
 -2.7927049e-001  8.9423757e-001  2.7524923e+000
 -3.3224645e-001  9.7118721e-001  2.7084046e+000
 -3.8253251e-001  1.0681340e+000  2.6810394e+000
 -4.0276387e-001  1.2262425e+000  2.6132119e+000
 -4.4041975e-001  1.4073893e+000  2.5425775e+000
 -4.5293300e-001  1.4989566e+000  2.5121720e+000
 -4.5878015e-001  1.5560257e+000  2.4749835e+000
 -4.9690417e-001  1.5733333e+000  2.4422393e+000
 -5.1584884e-001  1.5107682e+000  2.3883278e+000
 -5.3619714e-001  1.5231641e+000  2.3161733e+000
 -5.2789435e-001  1.5142763e+000  2.1940835e+000
 -4.9631949e-001  1.5132239e+000  2.0620531e+000
 -4.6813575e-001  1.5761401e+000  1.9438226e+000
 -3.9913849e-001  1.5818703e+000  1.8005656e+000
 -3.1751144e-001  1.6018678e+000  1.7019818e+000
 -2.4056219e-001  1.6431491e+000  1.6018774e+000
 -1.5530976e-001  1.6971774e+000  1.4797876e+000
 -7.8126645e-002  1.7832484e+000  1.4188597e+000
 -1.6028952e-002  1.8982047e+000  1.3595688e+000
  2.6070859e-002  1.9718794e+000  1.2108155e+000
  6.3844068e-002  1.9668508e+000  1.0503678e+000
  9.5652796e-002  1.9442807e+000  8.9401329e-001
  1.1541641e-001  1.9051043e+000  6.8702190e-001
  1.8160684e-001  1.8775053e+000  5.2189645e-001
  2.9188537e-001  1.8404340e+000  3.8764464e-001
  3.9842157e-001  1.8002052e+000  2.4871463e-001
  4.7864540e-001  1.7396281e+000  1.3118573e-001
  5.2097908e-001  1.6647836e+000 -4.4698542e-002
  5.2437059e-001  1.6023355e+000 -2.3601944e-001
  5.3805319e-001  1.4769712e+000 -3.8126434e-001
  5.9208157e-001  1.4101961e+000 -5.4522005e-001
  6.0997383e-001  1.3582725e+000 -7.1280153e-001
  6.2155120e-001  1.2683427e+000 -8.3009656e-001
  6.3207655e-001  1.2230853e+000 -8.8891967e-001
  6.1172786e-001  1.1400546e+000 -9.8399545e-001
  5.9512188e-001  1.1001765e+000 -1.0870232e+000
  5.4729185e-001  1.0559715e+000 -1.1403500e+000
  4.9735660e-001  9.8896254e-001 -1.2190532e+000
  5.0823236e-001  9.3832568e-001 -1.3027855e+000
  5.4857814e-001  8.5120228e-001 -1.4123624e+000
  5.2144721e-001  8.2336935e-001 -1.5080229e+000
  4.4414677e-001  7.9916180e-001 -1.6492916e+000
  4.6847125e-001  7.9214530e-001 -1.8761635e+000
  5.4425115e-001  6.7192649e-001 -2.0614034e+000
  4.6180555e-001  3.6202428e-001 -2.1175366e+000
  2.8942933e-001  1.8239768e-001 -1.8893780e+000
  2.1423451e-001  2.5806064e-001 -1.6849596e+000
  3.6041489e-001  4.8972733e-001 -1.8427173e+000
  5.8459693e-001  5.5170769e-001 -2.1625602e+000
  5.3185523e-001  4.3207356e-001 -2.3874439e+000
  3.9760303e-001  4.2365384e-001 -2.4110667e+000
  3.8848130e-001  4.4166303e-001 -2.3520098e+000
  3.6450762e-001  2.3361922e-001 -2.3216043e+000
  3.0954376e-001 -2.2959720e-001 -2.2832468e+000
  2.8685676e-001 -5.1716323e-001 -2.2114427e+000
  3.1644372e-001 -4.0489680e-001 -2.1475913e+000
  2.7831971e-001 -1.8305346e-001 -2.1201092e+000
  1.7552582e-001 -3.8159370e-002 -2.2109749e+000
  7.1796054e-002 -8.1662796e-002 -2.4151599e+000
  2.0808382e-002 -3.5624783e-001 -2.5426290e+000
  4.4431255e-002 -6.7328388e-001 -2.5760753e+000
  5.1798565e-002 -9.2763796e-001 -2.5628604e+000
  4.6302218e-002 -1.0703099e+000 -2.4252171e+000
  3.1801076e-002 -1.0572120e+000 -2.2102733e+000
  4.6701476e-003 -1.0368637e+000 -2.1375341e+000
 -4.5265107e-002 -1.0429447e+000 -2.2625473e+000
 -9.4381815e-002 -1.1356818e+000 -2.4206562e+000
 -1.1589946e-001 -1.3750666e+000 -2.4705915e+000
 -1.3694937e-001 -1.6083707e+000 -2.4127038e+000
 -1.0935070e-001 -1.7651930e+000 -2.3254635e+000
 -6.9823461e-002 -1.8334883e+000 -2.1929657e+000
 -9.4147944e-002 -1.9272777e+000 -1.9991888e+000
 -1.6068917e-001 -1.9843464e+000 -1.8559322e+000
 -2.2290341e-001 -1.9647001e+000 -1.8955764e+000
 -2.4407025e-001 -2.0265636e+000 -2.0210576e+000
 -2.4523999e-001 -2.0752121e+000 -2.0194202e+000
 -2.3073885e-001 -2.1494719e+000 -1.9435233e+000
 -1.9062694e-001 -2.2122712e+000 -1.7878704e+000
 -1.6103998e-001 -2.2506287e+000 -1.5137531e+000
 -1.6793955e-001 -2.3381033e+000 -1.2826711e+000
 -2.1132604e-001 -2.3010317e+000 -1.1276029e+000
 -2.1296313e-001 -2.2316840e+000 -1.1088917e+000
 -1.5612831e-001 -2.1918060e+000 -1.1628031e+000
 -1.5378961e-001 -2.2006934e+000 -1.1088917e+000
 -1.7776289e-001 -2.2280586e+000 -1.0298376e+000
 -1.7343590e-001 -2.1716915e+000 -9.2985013e-001
 -1.7027865e-001 -2.1467824e+000 -7.3724295e-001
 -1.7039558e-001 -2.0434034e+000 -5.5913651e-001
 -2.2185099e-001 -1.9159342e+000 -4.9622067e-001
 -2.7108464e-001 -1.8753546e+000 -4.1927103e-001
 -2.5003473e-001 -1.7916223e+000 -2.7238903e-001
 -2.5143795e-001 -1.7080074e+000 -1.6328025e-001
 -2.5786978e-001 -1.5895426e+000 -5.9433555e-002
 -2.3693681e-001 -1.3941286e+000  2.6637423e-002
 -2.6675764e-001 -1.2564852e+000  8.1133543e-002
 -3.1330138e-001 -1.1998843e+000  1.5165096e-001
 -3.0511553e-001 -1.1163859e+000  2.3631872e-001
 -2.5974114e-001 -1.0570950e+000  3.7092134e-001
 -2.1518529e-001 -1.0186206e+000  5.5043099e-001
 -1.9051000e-001 -8.8226357e-001  7.0070450e-001
 -1.8828784e-001 -7.2590904e-001  7.6970176e-001
 -2.0337366e-001 -6.3457519e-001  8.3472283e-001
 -1.9834506e-001 -6.1106965e-001  9.2383413e-001
 -1.7004478e-001 -6.2685708e-001  9.5716340e-001
 -1.3858685e-001 -6.3855138e-001  1.0296687e+000
 -8.0231478e-002 -5.7575247e-001  1.1938587e+000
 -4.3628014e-002 -4.8757627e-001  1.3184045e+000
 -3.8716343e-002 -4.5144054e-001  1.3858812e+000
 -4.5148172e-002 -3.9238356e-001  1.4415467e+000
 -9.2978200e-002 -3.6665585e-001  1.4672744e+000
 -1.0630999e-001 -3.3484712e-001  1.5403648e+000
 -8.3038316e-002 -2.2585488e-001  1.6480703e+000
 -7.6839965e-002 -1.4586493e-001  1.7288788e+000
 -5.9181573e-002 -1.0236190e-001  1.8896773e+000
 -4.4446560e-002 -3.3832375e-002  2.0528144e+000
 -4.9825972e-002  3.4345948e-002  2.1363128e+000
 -6.2455758e-002  4.2532197e-002  2.2069472e+000
 -6.6315012e-002  9.5742029e-002  2.2750090e+000
 -5.0644518e-002  1.9175328e-001  2.3462280e+000
 -1.3222508e-002  3.2331559e-001  2.4180317e+000
  3.2502687e-002  5.0270792e-001  2.4741649e+000
  4.9810666e-002  6.2994362e-001  2.5138091e+000
  5.6710236e-002  8.2605925e-001  2.5712286e+000
  7.7175465e-002  1.0638070e+000  2.5908753e+000
  6.5013420e-002  1.3120796e+000  2.5994123e+000
  5.9867878e-002  1.5463193e+000  2.6435004e+000
  7.5538372e-002  1.6817408e+000  2.6121595e+000
  4.4431255e-002  1.8101455e+000  2.5049212e+000
  2.3381349e-002  1.8823000e+000  2.4268026e+000
  3.4490978e-002  1.9710609e+000  2.4056358e+000
  2.8409955e-002  2.0808717e+000  2.3507889e+000
  2.9813178e-002  2.1779353e+000  2.2828440e+000
  4.8407444e-002  2.3170992e+000  2.2144318e+000
  4.1156677e-002  2.3908908e+000  2.0860268e+000
  2.5252312e-002  2.4436329e+000  1.9600778e+000
  2.5252312e-002  2.5123963e+000  1.8428997e+000
  1.8937419e-002  2.5780020e+000  1.7311010e+000
  4.6701476e-003  2.5842000e+000  1.6818673e+000
 -1.6145888e-002  2.5792883e+000  1.6058536e+000
 -1.7666438e-002  2.5865387e+000  1.4505515e+000
  4.3193420e-003  2.5318087e+000  1.4216661e+000
  2.0925318e-002  2.5541453e+000  1.4733554e+000
  1.7885002e-002  2.5297039e+000  1.4437688e+000
  1.8633104e-003  2.5064318e+000  1.4604917e+000
 -9.1293832e-003  2.5863048e+000  1.4726538e+000
 -6.9072220e-003  2.5507538e+000  1.4096210e+000
  1.3791878e-002  2.5327446e+000  1.4026041e+000
  2.4667636e-002  2.4997661e+000  1.4266947e+000
  2.5953924e-002  2.3725308e+000  1.4277471e+000
  3.7999426e-002  2.3042352e+000  1.4588547e+000
  6.2323518e-002  2.2779228e+000  1.4977968e+000
  9.8225371e-002  2.2723095e+000  1.4760453e+000
  1.2711072e-001  2.2797937e+000  1.4406112e+000
  1.2629217e-001  2.2658777e+000  1.3964062e+000
  9.8459634e-002  2.1943074e+000  1.2902208e+000
  1.1494867e-001  2.1439044e+000  1.2593475e+000
  1.3974090e-001  2.0954897e+000  1.2753688e+000
  1.1167410e-001  1.9842757e+000  1.2153763e+000
  1.1132329e-001  1.9186700e+000  1.1830999e+000
  1.1249264e-001  1.9091974e+000  1.1373747e+000
  9.4015704e-002  1.9072091e+000  1.0248740e+000
  1.0302011e-001  1.8972689e+000  9.2675790e-001
  7.5772243e-002  1.9077942e+000  8.2677045e-001
  1.6013647e-002  1.8874455e+000  6.8713884e-001
 -1.7549110e-002  1.8328329e+000  5.8446188e-001
 -4.3744949e-002  1.8141217e+000  5.1523075e-001
 -4.6317524e-002  1.7501530e+000  3.5337988e-001
 -2.7489387e-002  1.6387051e+000  1.9398464e-001
 -2.9126872e-002  1.5318181e+000  4.5933301e-002
 -4.7603811e-002  1.3921865e+000 -2.0912238e-001
 -6.9823461e-002  1.2179397e+000 -4.1763393e-001
 -8.9820950e-002  1.0916395e+000 -5.9258273e-001
 -1.2198048e-001  9.4358815e-001 -7.9080319e-001
 -1.3156996e-001  7.6150592e-001 -8.5944965e-001
 -1.0853215e-001  6.5613906e-001 -8.8774993e-001
 -7.9763738e-002  5.1872961e-001 -9.4891214e-001
 -9.8309944e-003  3.8564676e-001 -9.5405768e-001
  5.4886940e-003  2.5408445e-001 -1.0339303e+000
 -2.0239012e-002  5.6682533e-002 -1.2339052e+000
  2.0106771e-002 -8.7042207e-002 -1.3379858e+000
  2.3966025e-002 -2.0784569e-001 -1.4272144e+000
  7.8345210e-002 -3.4291604e-001 -1.5759673e+000
  2.3785699e-001 -5.1131607e-001 -1.6206401e+000
  2.0066885e-001 -8.0858850e-001 -1.6041511e+000
  1.0166494e-002 -1.0990783e+000 -1.5640392e+000
  9.7172954e-002 -9.9558241e-001 -1.5867262e+000
  2.5598351e-001 -8.2110136e-001 -1.7561786e+000
  2.0651600e-001 -9.5628904e-001 -1.9228242e+000
  2.0324142e-001 -1.0243508e+000 -1.9826998e+000
  2.5481416e-001 -1.0973239e+000 -2.1052573e+000
  3.0603570e-001 -1.2718049e+000 -2.2603255e+000
  3.0276112e-001 -1.4555243e+000 -2.3251127e+000
  3.5000648e-001 -1.5767955e+000 -2.4716439e+000
  3.5503508e-001 -1.6646209e+000 -2.5461375e+000
  3.6778220e-001 -1.6845014e+000 -2.5552592e+000
  4.7735911e-001 -1.6756136e+000 -2.5688245e+000
  3.1691146e-001 -1.9114903e+000 -2.6110416e+000
  5.1817264e-001 -1.8102166e+000 -2.7956964e+000
  7.4305668e-001 -1.7019260e+000 -2.8685530e+000
  4.1455981e-001 -2.0253942e+000 -2.8692546e+000
  2.9258698e-001 -2.1625698e+000 -2.9702944e+000
  4.3596091e-001 -2.1499396e+000 -3.2159945e+000
  3.5421654e-001 -2.4131816e+000 -3.2462831e+000
  2.9621236e-001 -2.4211335e+000 -3.1943599e+000
  7.5019012e-001 -1.8102166e+000 -3.2126030e+000
  3.1925016e-001 -2.2567101e+000 -2.7924223e+000
 -2.6371693e-001 -2.7918472e+000 -2.7531289e+000
  3.9865544e-001 -2.2893374e+000 -3.2880321e+000
  6.9464159e-001 -2.1101785e+000 -3.7935826e+000
  5.8120542e-001 -1.9903109e+000 -4.0484040e+000
  2.2136795e-001 -2.2347243e+000 -3.6265858e+000
 -1.8641688e-001 -2.5035795e+000 -3.0726206e+000
 -1.1351152e-002 -2.4942239e+000 -2.7781550e+000
  2.1844417e-001 -2.5997077e+000 -2.7974509e+000
  2.3621989e-001 -2.5050997e+000 -3.1392791e+000
  3.0748659e-002 -2.5580753e+000 -3.3327049e+000
 -8.7364918e-002 -2.3819571e+000 -3.4082509e+000
 -1.2689215e-001 -2.1949632e+000 -3.2849918e+000
 -2.0851920e-001 -2.2658314e+000 -2.9140443e+000
 -2.6371693e-001 -2.3171703e+000 -2.6331440e+000
 -3.1388606e-001 -2.5279036e+000 -2.4056873e+000
 -2.3763842e-001 -2.6009940e+000 -2.3189147e+000
 -1.8466285e-001 -2.5493047e+000 -2.4553887e+000
 -2.2828282e-001 -2.4998372e+000 -2.5447343e+000
 -3.0429659e-001 -2.4470951e+000 -2.4840398e+000
 -3.1505580e-001 -2.3508500e+000 -2.4090788e+000
 -2.2945257e-001 -2.3640649e+000 -2.3318953e+000
 -2.7634711e-001 -2.5282544e+000 -2.1095843e+000
 -4.7971312e-001 -2.5296580e+000 -1.9245782e+000
 -5.7806347e-001 -2.4836990e+000 -1.8507866e+000
 -4.9468200e-001 -2.2875833e+000 -1.6520980e+000
 -3.8346800e-001 -2.0434034e+000 -1.4481474e+000
 -3.6323664e-001 -1.9696118e+000 -1.3316709e+000
 -4.1375657e-001 -1.7915054e+000 -1.2495757e+000
 -3.8148010e-001 -1.6537451e+000 -1.2991601e+000
 -2.7880275e-001 -1.6200650e+000 -1.3349451e+000
 -3.2756865e-001 -1.5356311e+000 -1.2075928e+000
 -4.8953646e-001 -1.5564472e+000 -1.0156872e+000
 -5.3339069e-001 -1.5394904e+000 -7.1350314e-001
 -4.6030031e-001 -1.2588239e+000 -2.8899540e-001
 -3.8171397e-001 -9.2798876e-001 -2.2245414e-002
 -3.4019883e-001 -5.7306257e-001  3.6577700e-002
 -3.1318445e-001 -2.1264042e-001  1.4007359e-001
 -2.7833501e-001 -7.7101930e-002  2.5923959e-001
 -2.5611575e-001 -1.2080858e-002  3.6706247e-001
 -2.6371693e-001  4.8847090e-002  5.8773646e-001
 -3.0605101e-001  3.6685044e-002  8.6805172e-001
 -2.9880024e-001  1.7666747e-001  1.1135179e+000
 -2.3717068e-001  4.8306163e-001  1.3108029e+000
 -2.3179127e-001  7.4068988e-001  1.4202629e+000
 -2.6126129e-001  9.0137141e-001  1.5203673e+000
 -2.7202012e-001  9.3703939e-001  1.7330889e+000
 -3.2160457e-001  9.2277212e-001  1.8428997e+000
 -4.0533684e-001  9.6066187e-001  1.8956414e+000
 -4.1282109e-001  9.9317260e-001  2.0519959e+000
 -3.4569518e-001  1.0890669e+000  2.1326875e+000
 -2.7786727e-001  1.1877681e+000  2.1912767e+000
 -2.8511804e-001  1.2610919e+000  2.2940706e+000
 -3.7843939e-001  1.3963966e+000  2.3691489e+000
 -4.1270415e-001  1.4866776e+000  2.4386139e+000
 -3.6159954e-001  1.6134452e+000  2.5292457e+000
 -3.2639930e-001  1.7329624e+000  2.5923958e+000
 -3.2873801e-001  1.7241914e+000  2.6732043e+000
 -3.2967349e-001  1.7568191e+000  2.8192678e+000
 -3.2862107e-001  1.7605610e+000  2.8253488e+000
 -3.5434878e-001  1.6891081e+000  2.7632515e+000
 -3.4382382e-001  1.7590409e+000  2.8223081e+000
 -3.2335859e-001  1.9376147e+000  2.8782074e+000
 -3.1926547e-001  2.0878882e+000  3.0011161e+000
 -2.7038302e-001  2.2296246e+000  3.2247135e+000
 -2.3120659e-001  2.3434116e+000  3.3160470e+000
 -1.8103747e-001  2.3788457e+000  3.2868112e+000
 -1.2034339e-001  2.4741553e+000  3.2767540e+000
 -1.0642693e-001  2.5479473e+000  3.2292744e+000
 -8.4792344e-002  2.4959069e+000  3.1916185e+000
 -5.6140865e-002  2.5729734e+000  3.2640069e+000
 -1.4391860e-002  2.6303929e+000  3.2841213e+000
  7.1445248e-002  2.6479344e+000  3.3187369e+000
  1.5389123e-001  2.7578621e+000  3.4024691e+000
  1.9353501e-001  2.7520150e+000  3.3121881e+000
  2.2499333e-001  2.6957648e+000  3.1656565e+000
  2.5317668e-001  2.5969467e+000  3.0605239e+000
  2.6288308e-001  2.4823416e+000  2.8986727e+000
  3.2615013e-001  2.4176713e+000  2.7073518e+000
  3.8824743e-001  2.4099528e+000  2.6128611e+000
  3.8333576e-001  2.4393059e+000  2.5119381e+000
  4.1128562e-001  2.4234015e+000  2.3699674e+000
  4.2800853e-001  2.4553272e+000  2.3326624e+000
  4.1070095e-001  2.4121750e+000  2.2691614e+000
  4.5361930e-001  2.3146432e+000  2.1973577e+000
  4.4917537e-001  2.1849522e+000  2.1008787e+000
  4.1479368e-001  1.9633428e+000  1.8987990e+000
  4.5818017e-001  1.8330667e+000  1.7454848e+000
  4.5946646e-001  1.6916811e+000  1.6508772e+000
  4.4286048e-001  1.5490088e+000  1.5788392e+000
  4.3034724e-001  1.4411863e+000  1.4893771e+000
  3.8766275e-001  1.3480984e+000  1.4290338e+000
  3.6205198e-001  1.3596762e+000  1.3675208e+000
  3.3913072e-001  1.3152373e+000  1.2088276e+000
  3.5585402e-001  1.2286985e+000  1.0939882e+000
  3.5924514e-001  1.0956157e+000  9.8979068e-001
  3.3082793e-001  8.7213525e-001  8.8758147e-001
  3.1480663e-001  7.5846521e-001  8.1764872e-001
  2.7106933e-001  6.7753978e-001  6.4293419e-001
