**************************************************************************************
            UNIVERSIDAD AUTONOMA METROPOLITANA - AZCAPOTZALCO
                        Departamento de Materiales
                           Area de Estructuras
     AV. SAN PABLO 180,COL.REYNOSA, AZCAPOTZALCO, C.P.02200 CIUDAD DE MEXICO.
**************************************************************************************
ARCHIVO ESTANDAR DE ACELERACION:
VERSION DEL FORMATO                    : 2.0
NOMBRE DEL ARCHIVO                     : RIDA201511231
FECHA Y HORA DE CREACION               : MON JUL 18 12:30:07 2018
REF. CATALOGO ACELEROGRAMAS, SMIS 1995 : REGISTRO NO.      /PAG.    


================================================================================
DATOS DE LA ESTACION:
NOMBRE DE LA ESTACION                  : UAM-AZCAPOTZALCO.
CLAVE DE LA ESTACION                   : RIDA
LOCALIZACION DE LA ESTACION            : AV. SAN PABLO 180,COL.REYNOSA, AZCAPOTZALCO,
                                       : C.P.02200 CIUDAD DE MEXICO.
                                       :
                                       : 
                                       : 
COORDENADAS DE LA ESTACION             : 19.498596 LAT. N
                                       : 99.195595 LONG. W
ALTITUD (msnm)                         : 2246
TIPO DE SUELO                          : TRANSICION 
                                       : 
                                       : 
INSTITUCION RESPONSABLE                : UNIVERSIDAD AUTONOMA METROPOLITANA
                                       : 

================================================================================
DATOS DEL ACELEROGRAFO: 
MODELO DEL ACELEROGRAFO                : BASALT KINEMETRICS
NUMERO DE SERIE DEL ACELEROGRAFO       : 1730
NUMERO DE CANALES                      : 3
ORIENTACION C1-C6 (rumbo;orientacion)  : /V/N00E/N90E
ORIENTACION C7-C12 (rumbo;orientacion) : 
VEL. DE MUESTREO, C1-C6 (muestras/s)   : /250/250/250
VEL. DE MUESTREO, C7-C12 (muestras/s)  : 
ESC. COMPLETA DE SENSORES, C1-C6, (g)  : /2/2/2
ESC. COMPLETA DE SENSORES, C7-C12 (g)  : 
FREC. NAT. DE SENSORES, C1-C6, (Hz)    : /210/106/212
FREC. NAT. DE SENSORES, C7-C12 (Hz)    : 
AMORTIGUAMIENTO DE SENSORES, C1-C6     : /0.7/0.7/0.7   
AMORTIGUAMIENTO DE SENSORES, C7-C12    : 
INTERVALO DE MUESTREO, C1-C6 (s)       : /0.004/0.004/0.004
INTERVALO DE MUESTREO, C7-C12 (s)      : 
UMBRAL DE DISPARO, C1-C6 (Gal)         : /2/2/2
UMBRAL DE DISPARO, C7-C12 (Gal)        : 
MEMORIA DE PREEVENTO (s)               : 30
TIEMPO DE POSEVENTO (s)                : 60


================================================================================
DATOS DEL SISMO:
FECHA DEL SISMO [GMT]                  : 2015/11/23
HORA EPICENTRO (GMT)                   : 21:02:10
MAGNITUD(ES)                           : /M=3.0
COORDENADAS DEL EPICENTRO              : 16.9933 LAT. N
                                       : 98.9618 LONG. W
PROFUNDIDAD FOCAL (Km)                 : 31.2
FUENTE DE LOS DATOS EPICENTRALES       : SSN
                                       : INSTITUTO DE GEOFISICA, UNAM

================================================================================
DATOS DE ESTE REGISTRO:
HORA DE LA PRIMERA MUESTRA (GMT)       : 21:02:28.00
EXACTITUD DEL TIEMPO (s)               : 
DURACION DEL REGISTRO (s), C1-C6       : /126.00/126.00/126.00
DURACION DEL REGISTRO (s), C7-C12      : 
NUM. TOTAL DE MUESTRAS, C1-C6          : /31500/31500/31500
NUM. TOTAL DE MUESTRAS, C7-C12         : 
ACEL. MAX.(Gal), C1-C6                 : /-1.2142/3.4142/-3.5697
ACEL. MAX., C1-C6, EN LA MUESTRA       : /8568/10100/12351
ACEL. MAX.(Gal), C7-C12                : 
ACEL. MAX., C7-C12,EN LA MUESTRA       : 
UNIDADES DE LOS DATOS                  : Gal (cm/s/s)
FACTOR DE DECIMACION                   : 1
FORMATO DATOS (FORTRAN,16 campos/dato) : 3E16.7


================================================================================
CALIDAD DEL ACELEROGRAMA:
REGISTRO DIGITAL COMPLETO CON TIEMPO ABSOLUTO CORRECTO


================================================================================
COMENTARIOS:














================================================================================
DATOS DE ACELERACION:
---------+---------+---------+---------+---------+---------+---------+---------+
   CANAL-1           CANAL-2        CANAL-3
         V             N00E           N90E
---------+---------+---------+---------+---------+---------+---------+---------+ 
[...]
  1.6128730e-001  9.9519004e-002 -8.1938532e-001
  1.1409491e-001 -8.9662758e-003 -8.9453846e-001
  7.8205319e-002 -1.0340844e-001 -8.7981169e-001
  5.5715826e-002 -1.7795572e-001 -7.8689318e-001
  7.4747892e-003 -2.0042502e-001 -6.6417013e-001
 -4.3213469e-002 -1.8532834e-001 -5.7592680e-001
 -7.7704866e-002 -1.6438028e-001 -5.4401901e-001
 -9.3202633e-002 -1.4144251e-001 -5.7452436e-001
 -8.7259939e-002 -1.5911402e-001 -6.5774190e-001
 -9.3202633e-002 -2.1797951e-001 -7.4469967e-001
 -1.1732335e-001 -2.9322891e-001 -7.9963276e-001
 -1.3398627e-001 -3.7795728e-001 -8.1132092e-001
 -1.4948443e-001 -4.3108843e-001 -7.6830932e-001
 -1.7115792e-001 -4.5028119e-001 -7.0531181e-001
 -1.8420847e-001 -4.3588662e-001 -6.5832625e-001
 -1.8980200e-001 -3.9597985e-001 -6.2560037e-001
 -1.8094603e-001 -3.8954338e-001 -6.1356161e-001
 -1.8584008e-001 -4.0194823e-001 -6.0012080e-001
 -1.9900714e-001 -4.4115289e-001 -5.8212129e-001
 -1.9388005e-001 -5.1125304e-001 -5.6797887e-001
 -2.0005617e-001 -5.7280999e-001 -5.5360272e-001
 -1.8980200e-001 -6.5835788e-001 -5.5874538e-001
 -1.8444150e-001 -7.1336135e-001 -5.5535616e-001
 -1.7861532e-001 -7.3466046e-001 -5.3700604e-001
 -1.6300104e-001 -7.6567297e-001 -4.7868372e-001
 -1.8281028e-001 -7.9446211e-001 -3.5222045e-001
 -1.9050110e-001 -8.4665671e-001 -2.3510793e-001
 -1.8444150e-001 -8.7755260e-001 -1.5983793e-001
 -1.5717486e-001 -9.0774597e-001 -1.1577450e-001
 -1.2396514e-001 -9.5291862e-001 -1.2863135e-001
 -1.0660312e-001 -1.0104969e+000 -1.8298010e-001
 -7.8753508e-002 -1.0914807e+000 -2.2856284e-001
 -5.6147890e-002 -1.1519844e+000 -2.3347176e-001
 -2.8647828e-002 -1.2437347e+000 -1.7631774e-001
 -3.5173492e-002 -1.3475392e+000 -1.1635924e-001
 -8.0152088e-002 -1.4220865e+000 -7.2062079e-002
 -1.1312839e-001 -1.4526310e+000 -3.2673834e-002
 -8.9240707e-002 -1.4145965e+000 -6.0255698e-003
 -1.3033546e-002 -1.3944676e+000  1.0208758e-001
 -1.1402325e-002 -1.3790198e+000  2.3801769e-001
 -7.8986539e-002 -1.3832329e+000  3.4367618e-001
 -1.0928298e-001 -1.4643337e+000  4.5190581e-001
 -9.6232433e-002 -1.5447323e+000  5.0426777e-001
 -8.2831950e-002 -1.6301632e+000  4.7832073e-001
 -9.8329717e-002 -1.6729955e+000  3.6658422e-001
 -1.1417703e-001 -1.6522815e+000  2.5262759e-001
 -1.0310725e-001 -1.6376529e+000  2.4923797e-001
 -9.7048043e-002 -1.5840540e+000  3.6003913e-001
 -6.8615856e-002 -1.5806601e+000  5.4821394e-001
  2.1107913e-002 -1.6687828e+000  6.8496253e-001
  4.9540100e-002 -1.7585434e+000  6.5176878e-001
 -1.6529409e-002 -1.7980991e+000  5.4529219e-001
 -5.0438227e-002 -1.7475428e+000  5.4692837e-001
 -2.3637260e-002 -1.6782617e+000  6.6135288e-001
  6.1931160e-003 -1.6155346e+000  7.2820748e-001
 -8.9551036e-003 -1.6044170e+000  6.6450875e-001
 -1.8976240e-002 -1.6218540e+000  5.6761589e-001
  6.7756947e-003 -1.5810111e+000  5.4611028e-001
  1.9981583e-003 -1.5669676e+000  5.9449828e-001
 -4.9855648e-002 -1.5432111e+000  6.3493835e-001
 -1.1778941e-001 -1.4671426e+000  6.9302694e-001
 -1.1534258e-001 -1.4298102e+000  7.4983034e-001
 -5.9060783e-002 -1.4472477e+000  6.6041792e-001
 -4.1815280e-002 -1.4490030e+000  5.2822803e-001
 -1.6296377e-002 -1.4121391e+000  4.6511327e-001
 -2.5967966e-002 -1.3475392e+000  4.3858187e-001
 -8.4696593e-002 -1.2540332e+000  4.6184052e-001
 -1.0485538e-001 -1.1958703e+000  5.0111190e-001
 -1.1394400e-001 -1.1533887e+000  5.4762959e-001
 -9.6581980e-002 -1.1071624e+000  5.8304387e-001
 -7.5840614e-002 -1.0698305e+000  5.8596601e-001
 -8.2365887e-002 -9.9376195e-001  5.6153827e-001
 -9.7048043e-002 -8.8445714e-001  5.1735797e-001
 -1.2944216e-001 -7.8088667e-001  4.8077499e-001
 -1.3130641e-001 -7.2237263e-001  4.2560816e-001
 -1.2606281e-001 -6.9018953e-001  3.7979168e-001
 -1.2326604e-001 -6.5636855e-001  3.8516808e-001
 -1.0415589e-001 -6.0206721e-001  4.0199850e-001
 -9.0639287e-002 -5.1932778e-001  3.9907676e-001
 -6.4887352e-002 -4.5191947e-001  3.8306443e-001
 -4.1582249e-002 -4.0112910e-001  3.5255907e-001
 -2.5152356e-002 -3.5619009e-001  3.0276863e-001
 -9.3050418e-003 -3.0504866e-001  2.5987390e-001
  7.5913049e-003 -2.3775737e-001  2.5321194e-001
  3.1712019e-002 -1.6952953e-001  2.6104260e-001
  4.4179985e-002 -8.9833001e-002  2.2960228e-001
  3.4275365e-002 -2.6468326e-003  1.6999400e-001
  1.6097345e-002  4.3111308e-002  1.1435969e-001
 -1.8393661e-002  7.0964294e-002  1.0582780e-001
 -4.4961596e-002  8.2784044e-002  1.0103575e-001
 -2.1423461e-002  8.0911733e-002  7.8945408e-002
  1.0504199e-002  1.4679879e-001  1.2745028e-001
  4.2665281e-002  2.3293178e-001  1.7852628e-001
  5.7580469e-002  3.3322531e-001  1.9734388e-001
  6.0493362e-002  4.5903104e-001  1.8168216e-001
  6.2940584e-002  5.5078136e-001  1.4591727e-001
  3.7188650e-002  6.1643438e-001  1.2815150e-001
  1.8078504e-002  6.4381889e-001  9.7295528e-002
 -6.3917572e-003  6.6862898e-001  8.8295772e-002
 -2.3520744e-002  7.3837807e-001  7.2166570e-002
 -4.6359785e-002  8.3141600e-001  6.9595043e-002
 -1.0858388e-001  9.4926362e-001  8.4321808e-002
 -1.6719599e-001  1.0832615e+000  7.6140534e-002
 -2.0809615e-001  1.1752459e+000  1.0091888e-001
 -2.3769349e-001  1.2382070e+000  1.2908645e-001
 -2.6228027e-001  1.2716774e+000  1.3785247e-001
 -2.6542659e-001  1.2871251e+000  1.1576252e-001
 -2.5831834e-001  1.3387346e+000  7.4270225e-002
 -2.5563848e-001  1.3849608e+000  6.2699335e-002
 -2.5260868e-001  1.4310704e+000  7.4503965e-002
 -2.5994996e-001  1.4775307e+000  1.0594467e-001
 -2.6274633e-001  1.5369813e+000  1.4217704e-001
 -2.4363619e-001  1.6191352e+000  1.9523983e-001
 -2.1345626e-001  1.7143965e+000  2.6209482e-001
 -1.8642266e-001  1.8128173e+000  2.9575566e-001
 -1.6008814e-001  1.8471068e+000  3.4765015e-001
 -1.5344596e-001  1.8589269e+000  4.2128358e-001
 -1.6533174e-001  1.8201903e+000  4.5587977e-001
 -1.8141209e-001  1.7444729e+000  4.8650200e-001
 -2.0611538e-001  1.7394406e+000  5.4131823e-001
 -2.2079754e-001  1.7842626e+000  6.3084752e-001
 -2.3338202e-001  1.8929819e+000  7.2890870e-001
 -2.4678250e-001  2.0238199e+000  8.0815266e-001
 -2.5878441e-001  2.1000054e+000  8.7921496e-001
 -2.8115738e-001  2.1097188e+000  9.4092729e-001
 -3.1669742e-001  2.0646628e+000  1.0013537e+000
 -3.5515036e-001  1.9960843e+000  1.0254304e+000
 -3.7554257e-001  1.9106534e+000  1.0274176e+000
 -4.1050003e-001  1.8586925e+000  1.0456504e+000
 -4.3357171e-001  1.8405533e+000  1.0334952e+000
 -4.3718409e-001  1.8778852e+000  1.0538321e+000
 -4.4417542e-001  1.9606247e+000  1.1302708e+000
 -4.2506528e-001  1.9827429e+000  1.1684903e+000
 -4.1760788e-001  1.9605077e+000  1.1831002e+000
 -3.8847660e-001  1.8836196e+000  1.1600749e+000
 -3.7297883e-001  1.8093067e+000  1.1127392e+000
 -4.0735371e-001  1.7545373e+000  1.0832856e+000
 -4.2692992e-001  1.6803411e+000  1.0481051e+000
 -4.3671802e-001  1.6714468e+000  1.0161969e+000
 -4.0036237e-001  1.6671167e+000  1.0055610e+000
 -3.3103003e-001  1.6521370e+000  1.0122233e+000
 -2.7428217e-001  1.6509669e+000  9.9071733e-001
 -2.4398573e-001  1.6423070e+000  9.7377004e-001
 -2.2767236e-001  1.6268589e+000  9.7996453e-001
 -2.2872100e-001  1.5689299e+000  9.8393850e-001
 -2.5086095e-001  1.4857224e+000  1.0181841e+000
 -2.3967426e-001  1.3768861e+000  1.0532478e+000
 -2.0728054e-001  1.2798695e+000  1.0805972e+000
 -1.5566015e-001  1.2385581e+000  1.1227907e+000
 -8.6211297e-002  1.2118757e+000  1.1731655e+000
 -2.8065249e-002  1.1743097e+000  1.2175792e+000
  2.7750092e-002  1.0861870e+000  1.2441110e+000
  5.7114406e-002  9.5289162e-001  1.2479681e+000
  3.6023101e-002  8.2533020e-001  1.1901128e+000
  8.5234309e-003  6.9671601e-001  1.1043238e+000
  5.1440833e-003  6.0859329e-001  1.0581567e+000
  2.5069839e-002  5.3732295e-001  1.0208721e+000
  5.2802932e-002  4.2930574e-001  9.9130208e-001
  5.5016731e-002  3.2608634e-001  9.8125049e-001
  4.9540100e-002  2.0940891e-001  9.8978238e-001
  7.5408550e-002  9.9401985e-002  1.0367679e+000
  1.2388301e-001  6.9495480e-003  1.0865580e+000
  1.7806713e-001 -1.1838810e-001  1.0531309e+000
  2.1675309e-001 -2.5168347e-001  9.3332997e-001
  2.2397785e-001 -3.7432968e-001  7.9775047e-001
  2.4087381e-001 -4.9065605e-001  6.5270373e-001
  2.4600089e-001 -5.6649054e-001  5.8047274e-001
  2.3726182e-001 -6.2921768e-001  5.9473202e-001
  2.4646696e-001 -7.1827655e-001  6.0034216e-001
  2.5124449e-001 -8.0300532e-001  5.7486260e-001
  2.6534407e-001 -8.9779853e-001  4.8942414e-001
  2.6930600e-001 -1.0037094e+000  3.5805234e-001
  2.6278072e-001 -1.0925338e+000  2.1031721e-001
  2.5427429e-001 -1.1654428e+000  1.0103575e-001
  2.6114911e-001 -1.2515758e+000 -4.3890011e-003
  2.7361747e-001 -1.3456665e+000 -9.7307906e-002
  2.6849039e-001 -1.4124901e+000 -1.1729420e-001
  2.8538634e-001 -1.4553224e+000 -1.3178723e-001
  2.8422118e-001 -1.4712382e+000 -1.2664457e-001
  2.9331019e-001 -1.4885587e+000 -1.7947362e-001
  3.2488831e-001 -1.5055277e+000 -3.2487096e-001
  3.6369118e-001 -1.5086876e+000 -5.1433174e-001
  4.3826712e-001 -1.5284655e+000 -7.2471337e-001
  4.5353185e-001 -1.5289335e+000 -8.2604768e-001
  4.1449595e-001 -1.5231992e+000 -8.5772174e-001
  3.6625452e-001 -1.5832349e+000 -9.0984957e-001
  3.1440111e-001 -1.6862199e+000 -1.0075605e+000
  3.3490944e-001 -1.8106214e+000 -1.1654637e+000
  3.9258943e-001 -1.9143084e+000 -1.3213801e+000
  4.0692165e-001 -1.9064677e+000 -1.4623360e+000
  3.9433716e-001 -1.8320375e+000 -1.6056293e+000
  3.7021645e-001 -1.7495325e+000 -1.7419104e+000
  3.5297095e-001 -1.6919542e+000 -1.8592567e+000
  3.7371231e-001 -1.7105619e+000 -1.9728627e+000
  3.9095782e-001 -1.7509367e+000 -2.0558469e+000
  3.8513164e-001 -1.7962268e+000 -2.0572494e+000
  3.6730317e-001 -1.8346119e+000 -2.0200820e+000
  3.2395618e-001 -1.8217390e+000 -2.0165755e+000
  2.8585240e-001 -1.7907265e+000 -2.0974557e+000
  2.7827849e-001 -1.7661504e+000 -2.2641249e+000
  2.9762167e-001 -1.7464896e+000 -2.4482093e+000
  3.2139244e-001 -1.7139558e+000 -2.5892820e+000
  3.3654066e-001 -1.6817727e+000 -2.6996157e+000
  3.3362777e-001 -1.6523985e+000 -2.7700937e+000
  3.1754742e-001 -1.6160027e+000 -2.7959238e+000
  3.3852182e-001 -1.6122577e+000 -2.8458311e+000
  3.6823568e-001 -1.6193966e+000 -2.9240229e+000
  3.9142388e-001 -1.6504092e+000 -3.0246556e+000
  4.3372261e-001 -1.7267117e+000 -3.1421191e+000
  4.5574565e-001 -1.7881517e+000 -3.2407646e+000
  4.7438973e-001 -1.8059402e+000 -3.3423327e+000
  5.0247198e-001 -1.7487130e+000 -3.4330307e+000
  5.1750369e-001 -1.6495900e+000 -3.4768600e+000
  5.3882802e-001 -1.5532755e+000 -3.4795484e+000
  5.7017310e-001 -1.4445558e+000 -3.4808339e+000
  5.9837226e-001 -1.3570186e+000 -3.4849248e+000
  6.1084023e-001 -1.2934719e+000 -3.4710161e+000
  6.0746088e-001 -1.2371813e+000 -3.4886650e+000
  6.0443147e-001 -1.2045301e+000 -3.5313256e+000
  6.0792694e-001 -1.1772626e+000 -3.5531818e+000
  6.0652875e-001 -1.1229612e+000 -3.5696620e+000
  5.9091447e-001 -1.0556700e+000 -3.5695451e+000
  5.7774702e-001 -9.6637704e-001 -3.5225596e+000
  5.8881719e-001 -8.5239145e-001 -3.4406276e+000
  5.9114750e-001 -7.6380066e-001 -3.2983861e+000
  5.7075568e-001 -6.8878530e-001 -3.1259899e+000
  5.3509913e-001 -6.2863258e-001 -3.0081758e+000
  4.8592558e-001 -5.9527968e-001 -2.9157247e+000
  4.5830939e-001 -5.4179747e-001 -2.8536618e+000
  4.3453822e-001 -4.7672955e-001 -2.8279485e+000
  4.1880742e-001 -4.1669386e-001 -2.7769894e+000
  4.1088357e-001 -3.2517758e-001 -2.6603443e+000
  3.9550232e-001 -2.3389534e-001 -2.4955450e+000
  3.8454906e-001 -1.7186992e-001 -2.3064353e+000
  3.5133934e-001 -1.0001448e-001 -2.0882222e+000
  3.0554513e-001 -2.1020458e-002 -1.9140729e+000
  2.3702879e-001  6.6751201e-002 -1.7817658e+000
  1.6117078e-001  1.7324715e-001 -1.6872111e+000
  1.1013298e-001  2.6710421e-001 -1.6503940e+000
  8.0652150e-002  3.3170366e-001 -1.5834225e+000
  7.6807130e-002  3.7032323e-001 -1.4771797e+000
  5.4201121e-002  3.6669523e-001 -1.3491975e+000
  2.3322103e-002  3.0677656e-001 -1.1985406e+000
 -1.2917030e-002  2.2228223e-001 -1.0120020e+000
 -7.4209394e-002  1.7816236e-001 -8.0699634e-001
 -9.8213201e-002  2.0215331e-001 -6.4722284e-001
 -9.8679264e-002  3.0724503e-001 -4.9434544e-001
 -9.8679264e-002  4.6254162e-001 -3.6005150e-001
 -8.2249371e-002  5.8050666e-001 -2.7332748e-001
 -1.0648660e-001  6.5493692e-001 -1.8052545e-001
 -1.4505644e-001  6.6149040e-001 -1.0022965e-001
 -1.5344596e-001  5.9759268e-001  1.1389592e-002
 -1.6148633e-001  5.3334389e-001  1.9944754e-001
 -1.5903911e-001  4.7518090e-001  3.8002542e-001
 -1.4890146e-001  4.5715834e-001  5.2051385e-001
 -1.3142292e-001  5.1298094e-001  6.2967882e-001
 -9.0988834e-002  6.2088151e-001  6.7280690e-001
 -5.5681827e-002  7.4657022e-001  6.9945556e-001
 -4.5194628e-002  8.3270322e-001  8.1072419e-001
 -5.5099248e-002  8.5435339e-001  9.5810832e-001
 -8.5162656e-002  8.3668227e-001  1.1282840e+000
 -1.0403938e-001  8.2088347e-001  1.3141214e+000
 -1.0334028e-001  8.2053201e-001  1.4533239e+000
 -9.8213201e-002  8.3001138e-001  1.5748779e+000
 -8.0618151e-002  8.5271511e-001  1.6370577e+000
 -8.9124191e-002  8.8641946e-001  1.6483948e+000
 -1.4482341e-001  9.4633774e-001  1.6935101e+000
 -2.0961085e-001  9.9654302e-001  1.8107394e+000
 -2.5190959e-001  1.0041501e+000  1.9933045e+000
 -2.5517242e-001  9.8121229e-001  2.1765704e+000
 -2.3513015e-001  9.2059150e-001  2.3337724e+000
 -2.2627417e-001  8.7974857e-001  2.4017961e+000
 -2.3524666e-001  8.7541846e-001  2.3904589e+000
 -2.6344543e-001  9.1087810e-001  2.3779527e+000
 -2.9595606e-001  9.6389223e-001  2.3733944e+000
 -3.0912312e-001  9.5242354e-001  2.4477294e+000
 -3.0702583e-001  8.8396166e-001  2.5683484e+000
 -2.9001336e-001  7.7102925e-001  2.6485273e+000
 -2.6787342e-001  6.6242656e-001  2.7122261e+000
 -2.5167656e-001  6.1210427e-001  2.7687957e+000
 -2.4328664e-001  6.1561524e-001  2.7887820e+000
 -2.4818069e-001  6.6418185e-001  2.7587441e+000
 -2.6682478e-001  7.0689749e-001  2.7144470e+000
 -3.0411255e-001  7.0853576e-001  2.6716691e+000
 -3.3312732e-001  6.7845940e-001  2.6581114e+000
 -3.3673970e-001  6.2883923e-001  2.6521507e+000
 -3.3452550e-001  5.7371874e-001  2.6274892e+000
 -3.1797910e-001  5.2164116e-001  2.6316965e+000
 -3.0411255e-001  4.7611706e-001  2.6352030e+000
 -2.9397490e-001  4.2322034e-001  2.6056326e+000
 -2.8826524e-001  3.8132384e-001  2.5703352e+000
 -2.9677167e-001  3.5124748e-001  2.5402973e+000
 -2.9315929e-001  3.3357637e-001  2.4780010e+000
 -2.9490702e-001  3.5265211e-001  2.3780695e+000
 -2.8849827e-001  3.6376974e-001  2.2592036e+000
 -3.0539461e-001  3.9864429e-001  2.1870895e+000
 -3.3161261e-001  4.3960424e-001  2.2128028e+000
 -3.1588181e-001  4.5657324e-001  2.2659828e+000
 -3.2508734e-001  4.4803043e-001  2.3204484e+000
 -3.5072276e-001  3.5955665e-001  2.3144873e+000
 -3.7262928e-001  2.8032820e-001  2.2016994e+000
 -3.7763985e-001  2.5668870e-001  2.0650680e+000
 -3.4175026e-001  3.0993648e-001  1.9500592e+000
 -3.2042632e-001  4.1163423e-001  1.8899834e+000
 -3.5666545e-001  4.9062865e-001  1.8745554e+000
 -4.0444042e-001  5.4247219e-001  1.8842564e+000
 -4.1947213e-001  5.3451448e-001  1.9602276e+000
 -4.0991706e-001  4.9027759e-001  2.0414584e+000
 -4.0781977e-001  4.2006042e-001  2.0842362e+000
 -4.1714181e-001  3.6915303e-001  2.0643668e+000
 -3.9838122e-001  3.6412080e-001  1.9744869e+000
 -3.6761871e-001  3.6997217e-001  1.8828540e+000
 -3.2986448e-001  3.4563016e-001  1.7628193e+000
 -3.2264012e-001  2.5938014e-001  1.6848609e+000
 -3.4815902e-001  1.7266205e-001  1.6848609e+000
