**************************************************************************************
  RED ACELEROGRÁFICA DE LA UNIVERSIDAD AUTONOMA METROPOLITANA (RAUAM)
				UNIDAD AZCAPOTZALCO
                        DIVISIÓN CBI-DEPARTAMENTO DE MATERIALES
     Av. San Pablo 180, Col. Reynosa, Azcapotzalco, C.P. 02200, Ciudad de México
**************************************************************************************
ARCHIVO ESTANDAR DE ACELERACION:
VERSION DEL FORMATO                    : 2.0
NOMBRE DEL ARCHIVO                     : RIDA201509301
FECHA Y HORA DE CREACION               : 11:59 a. m. 01/10/2015
REF. CATALOGO ACELEROGRAMAS, SMIS 1995 : REGISTRO NO.      /PAG.    


================================================================================
DATOS DE LA ESTACION:
NOMBRE DE LA ESTACION                  : UAM-AZCAPOTZALCO.
CLAVE DE LA ESTACION                   : RIDA
LOCALIZACION DE LA ESTACION            : AV. SAN PABLO 180, COL.REYNOSA, AZCAPOTZALCO,
                                       : C.P.02200 CIUDAD DE MEXICO.
                                       :
                                       : 
                                       : 
COORDENADAS DE LA ESTACION             : 19.498596 LAT. N
                                       : 99.195595 LONG. W
ALTITUD (msnm)                         : 2246
TIPO DE SUELO                          : ZONA DE TRANSICION 
                                       : 
                                       : 
INSTITUCION RESPONSABLE                : UAM-AZCAPOTZALCO
                                       : 

================================================================================
DATOS DEL ACELEROGRAFO: 
MODELO DEL ACELEROGRAFO                : BASALT KINEMETRICS
NUMERO DE SERIE DEL ACELEROGRAFO       : 1730
NUMERO DE CANALES                      : 3
ORIENTACION C1-C6 (rumbo;orientacion)  : /V/N00E/N90E
ORIENTACION C7-C12 (rumbo;orientacion) : 
VEL. DE MUESTREO, C1-C6 (muestras/s)   : /250/250/250
VEL. DE MUESTREO, C7-C12 (muestras/s)  : 
ESC. COMPLETA DE SENSORES, C1-C6, (g)  : /2/2/2
ESC. COMPLETA DE SENSORES, C7-C12 (g)  : 
FREC. NAT. DE SENSORES, C1-C6, (Hz)    : /210/206/212
FREC. NAT. DE SENSORES, C7-C12 (Hz)    : 
AMORTIGUAMIENTO DE SENSORES, C1-C6     : /0.70/0.70/0.70   
AMORTIGUAMIENTO DE SENSORES, C7-C12    : 
INTERVALO DE MUESTREO, C1-C6 (s)       : /0.004/0.004/0.004
INTERVALO DE MUESTREO, C7-C12 (s)      : 
UMBRAL DE DISPARO, C1-C6 (Gal)         : /2/2/2
UMBRAL DE DISPARO, C7-C12 (Gal)        : 
MEMORIA DE PREEVENTO (s)               : 30
TIEMPO DE POSEVENTO (s)                : 60


================================================================================
DATOS DEL SISMO:
FECHA DEL SISMO [GMT]                  : 2015/09/30
HORA EPICENTRO (GMT)                   : 17:46:06
MAGNITUD(ES)                           : /M=3.9
COORDENADAS DEL EPICENTRO              : 18.028 LAT. N
                                       : 102.061 LONG. W
PROFUNDIDAD FOCAL (Km)                 : 28.9
FUENTE DE LOS DATOS EPICENTRALES       : SSN
                                       : INSTITUTO DE GEOFISICA, UNAM

================================================================================
DATOS DE ESTE REGISTRO:
HORA DE LA PRIMERA MUESTRA (GMT)       : 17:46:06.00
EXACTITUD DEL TIEMPO (s)               : 
DURACION DEL REGISTRO (s), C1-C6       : /97.00/97.00/97.00
DURACION DEL REGISTRO (s), C7-C12      : 
NUM. TOTAL DE MUESTRAS, C1-C6          : /24250/24250/24250
NUM. TOTAL DE MUESTRAS, C7-C12         : 
ACEL. MAX.(Gal), C1-C6                 : /0.889/-1.450/1.569
ACEL. MAX., C1-C6, EN LA MUESTRA       : /3333/8756/3432
ACEL. MAX.(Gal), C7-C12                : 
ACEL. MAX., C7-C12,EN LA MUESTRA       : 
UNIDADES DE LOS DATOS                  : Gal (cm/s/s)
FACTOR DE DECIMACION                   : 1
FORMATO DATOS (FORTRAN,16 campos/dato) : 3E16.7


================================================================================
CALIDAD DEL ACELEROGRAMA:
REGISTRO DIGITAL COMPLETO CON TIEMPO ABSOLUTO CORRECTO


================================================================================
COMENTARIOS:














================================================================================
DATOS DE ACELERACION:
---------+---------+---------+---------+---------+---------+---------+---------+
   CANAL-1  	    CANAL-2 	     CANAL-3
       V     	     N00E              N90E
---------+---------+---------+---------+---------+---------+---------+---------+ 
[...]
  -5.3258728e-02  -1.2622436e-01  -7.5889491e-01
  -7.4466157e-02  -1.0948940e-01  -6.2915968e-01
  -6.0483095e-02  -9.2637420e-02  -5.5283746e-01
  -4.2655014e-02  -6.7827332e-02  -5.2198149e-01
  -1.1426448e-02  -7.6136106e-02  -5.5727890e-01
  -1.0377416e-02  -1.4143807e-01  -6.3418547e-01
  -1.8417784e-02  -2.1797468e-01  -6.7801477e-01
  -2.5409120e-02  -2.6595658e-01  -6.2880868e-01
  -4.8947255e-02  -2.2722000e-01  -5.1824166e-01
  -8.0059304e-02  -1.2973534e-01  -4.5921773e-01
  -9.8004293e-02  -1.1770302e-02  -4.2567336e-01
  -6.4328506e-02   8.1852330e-02  -4.0521959e-01
  -1.7951721e-02   1.0759857e-01  -4.1702422e-01
   2.1433728e-02   8.3373583e-02  -4.3876395e-01
   2.2715401e-02   1.4912097e-02  -4.5547750e-01
  -2.0049004e-02  -4.4187439e-02  -4.1854392e-01
  -5.1860539e-02  -6.5837609e-02  -3.7553232e-01
  -7.4116610e-02  -8.4562292e-02  -3.8371398e-01
  -8.0175820e-02  -6.4433375e-02  -3.9294748e-01
  -8.7750125e-02  -2.2303231e-02  -3.5203993e-01
  -8.4836841e-02   5.0722799e-02  -3.0517123e-01
  -6.8873011e-02   1.5382479e-01  -2.9336661e-01
  -9.4158882e-02   2.0555171e-01  -2.4860196e-01
  -1.3797232e-01   2.5306514e-01  -1.7438378e-01
  -2.1068362e-01   2.6184239e-01  -1.5018978e-01
  -2.5414751e-01   2.2392494e-01  -1.9273390e-01
  -1.9017528e-01   1.5710173e-01  -2.7209474e-01
  -1.5218841e-01   1.8774132e-02  -3.6454578e-01
  -1.9355463e-01  -2.9792868e-02  -4.1632300e-01
  -3.2452849e-01   5.2595110e-02  -3.9142778e-01
  -5.5536417e-01   1.9361455e-01  -2.5725111e-01
  -6.0978132e-01   3.0362147e-01   9.2918126e-02
  -3.0425319e-01   2.5493745e-01   4.9217618e-01
   1.2117902e-01   6.9915560e-02   6.3944384e-01
   3.5632617e-01  -1.6917403e-01   5.1064317e-01
   2.9072272e-01  -2.6513745e-01   1.8887564e-01
  -8.2506526e-02  -1.5747091e-01  -2.2312239e-01
  -5.5687887e-01   3.1998116e-02  -5.9374540e-01
  -6.9158163e-01   2.3211709e-01  -7.4101266e-01
  -3.3711337e-01   3.2316529e-01  -4.8224264e-01
   1.4588232e-01   2.9636587e-01   1.5065610e-01
   3.1356137e-01   9.0980633e-02   7.5047873e-01
   1.7955771e-01  -3.3125854e-01   9.5875671e-01
   5.2429262e-02  -6.8304651e-01   8.8909685e-01
  -8.9792268e-03  -7.3219821e-01   5.6242040e-01
  -1.0744285e-01  -4.3471159e-01  -3.8687413e-02
  -2.0975149e-01  -2.5345736e-02  -4.8890500e-01
  -2.0299319e-01   1.3147251e-01  -4.5360759e-01
  -1.1222039e-01  -1.5632336e-02  -1.0636711e-02
  -1.5504499e-02  -2.8713867e-01   5.4710928e-01
   1.0311752e-01  -4.5144695e-01   8.8325297e-01
   1.7244986e-01  -4.4196759e-01   8.5496813e-01
   6.7927029e-02  -3.9164529e-01   5.4500563e-01
  -1.4251683e-01  -4.1294440e-01   1.8314863e-01
  -2.8129763e-01  -4.4746789e-01   2.6414138e-02
  -2.1814141e-01  -3.9398568e-01   9.7710178e-02
   3.9261810e-02  -2.8924542e-01   3.0224832e-01
   2.5250243e-01  -2.0463368e-01   5.4874546e-01
   1.6976961e-01  -2.3552917e-01   6.3465179e-01
  -1.4519669e-01  -3.2142812e-01   4.9018940e-01
  -3.2674268e-01  -3.7444186e-01   3.1218265e-01
  -1.7980460e-01  -4.2347694e-01   3.3462360e-01
   3.3785179e-02  -3.9714560e-01   4.8820222e-01
   2.7842485e-02  -3.7397378e-01   4.7277424e-01
  -1.5743201e-01  -3.6180298e-01   3.2819537e-01
  -2.7523842e-01  -2.7356324e-01   2.9231361e-01
  -1.7269675e-01  -2.2066652e-01   3.7705046e-01
   1.2927297e-02  -2.4173159e-01   4.6108648e-01
   6.2217366e-02  -3.3149258e-01   4.6260578e-01
  -2.4127446e-02  -4.3120101e-01   4.2497098e-01
  -8.7400578e-02  -4.1469970e-01   4.0872491e-01
  -4.1373340e-02  -2.8140433e-01   4.2111388e-01
   8.7270206e-02  -1.6168400e-01   4.3420447e-01
   1.6790536e-01  -9.8605805e-02   4.7289111e-01
   1.4063872e-01  -8.8073269e-02   4.9404649e-01
   5.6973767e-02  -1.2950130e-01   4.1152978e-01
  -3.9686589e-03  -1.3816152e-01   3.2737689e-01
   3.5183759e-02  -1.4576818e-01   2.7314540e-01
   8.0628418e-02  -1.5489648e-01   2.6028855e-01
   9.2047742e-02  -1.4015085e-01   2.9991054e-01
   1.0463222e-01  -1.1194681e-01   3.4970097e-01
   1.0556474e-01  -6.9231566e-02   3.8955670e-01
   1.3492905e-01  -6.4901453e-02   3.6092125e-01
   1.4693096e-01  -7.5199951e-02   2.9394979e-01
   1.3306441e-01  -1.0820219e-01   2.2545862e-01
   1.1104137e-01  -1.4740645e-01   2.4030226e-01
   9.0766069e-02  -1.4963021e-01   3.2854598e-01
   1.0614732e-01  -1.1779857e-01   3.6758322e-01
   1.0556474e-01  -5.4485937e-02   3.6255743e-01
   8.2376154e-02   7.0710085e-03   3.0154671e-01
   5.2895325e-02   6.2776588e-02   1.9670670e-01
   4.7418694e-02   7.9043863e-02   8.6489897e-02
   6.5014135e-02   7.4713750e-02   2.1505216e-02
   6.3032976e-02   6.1138316e-02   1.6245685e-02
   5.1497136e-02   3.5509092e-02   4.1725252e-02
   4.7418694e-02   3.9488146e-02   7.7022663e-02
   7.3753207e-02   5.5052911e-02   1.1781334e-01
   1.1570239e-01   1.0361952e-01   2.0184936e-01
   1.5497133e-01   1.6915552e-01   2.4380874e-01
   1.5869983e-01   2.2837207e-01   2.0114775e-01
   1.1803271e-01   2.8805671e-01   1.5112358e-01
   8.7037175e-02   3.4153892e-01   9.0931340e-02
   8.2143122e-02   4.1643687e-01   1.6011946e-02
   1.0498216e-01   4.8618596e-01  -5.1544262e-02
   1.4867869e-01   5.2094348e-01  -8.7426021e-02
   1.7617876e-01   5.0081457e-01  -7.9361224e-02
   1.5159198e-01   4.4288562e-01  -7.0478731e-02
   1.1581891e-01   3.7102978e-01  -7.7608178e-02
   8.1677059e-02   3.1111150e-01  -6.4283849e-02
   4.1942063e-02   3.1403699e-01  -3.4713449e-02
   2.6444296e-02   3.5967811e-01  -5.0141825e-02
   6.5185400e-03   4.7951546e-01  -9.4438599e-02
   8.0332447e-03   6.0473609e-01  -1.3791768e-01
   6.7344450e-02   6.7097421e-01  -1.9659100e-01
   1.5765119e-01   6.8279396e-01  -2.7747114e-01
   1.9657058e-01   5.7103174e-01  -3.8429833e-01
   9.9855079e-02   4.7296197e-01  -4.1001164e-01
  -1.5999536e-01   4.4112993e-01  -4.1375186e-01
  -5.1096815e-01   4.8642000e-01  -3.9914197e-01
  -5.9195285e-01   5.8835219e-01  -1.5393001e-01
  -1.8213531e-01   5.5207302e-01   2.1832918e-01
   4.5117741e-01   4.1081954e-01   4.9661763e-01
   8.8849502e-01   2.5072475e-01   4.9579954e-01
   7.8408870e-01   1.8788020e-01   2.0991377e-01
   1.6767232e-01   2.2053138e-01  -2.7758801e-01
  -5.4103156e-01   2.8583334e-01  -9.3678479e-01
  -8.4784136e-01   4.5856740e-01  -1.3742624e+00
  -5.8519454e-01   5.7044664e-01  -1.2094631e+00
  -1.4251683e-01   4.8372855e-01  -5.7773268e-01
   1.7466366e-01   2.6944904e-01   1.2447531e-01
   3.8114598e-01   8.8171773e-02   5.7364068e-01
   3.8988505e-01   3.8083520e-02   6.0987344e-01
   1.4541625e-01   6.2308510e-02   2.3621142e-01
  -2.4867088e-01   1.1181167e-01  -4.0159623e-01
  -5.8810783e-01   1.7711363e-01  -9.7710800e-01
  -6.2248232e-01   3.0186618e-01  -1.1201676e+00
  -3.4596895e-01   3.9829767e-01  -7.2535094e-01
   1.9802508e-02   4.1842659e-01  -6.4634459e-02
   2.5739649e-01   3.7407268e-01   3.6699887e-01
   2.0752384e-01   2.0274285e-01   2.5643146e-01
  -6.1881675e-02   1.8047403e-03  -2.8074350e-01
  -3.4375515e-01  -1.6390777e-01  -7.8741348e-01
  -4.5864867e-01  -2.2043248e-01  -8.6829363e-01
  -3.3408357e-01  -8.7722210e-02  -5.4559114e-01
  -1.4263334e-01   8.8405812e-02  -1.6094298e-01
  -3.4265098e-02   2.1327539e-01  -8.2989238e-03
  -2.4826541e-02   3.0572822e-01  -8.1815881e-02
  -5.4540401e-02   3.6552948e-01  -1.9659100e-01
  -3.4032067e-02   3.8226483e-01  -1.9460382e-01
  -1.6437016e-02   2.8115217e-01  -1.0939910e-01
  -6.5960117e-02   4.2625416e-03  -1.3476180e-01
  -1.3307827e-01  -2.8713867e-01  -2.6870513e-01
  -1.0919059e-01  -4.2780705e-01  -3.3497537e-01
   6.9846030e-03  -3.9457078e-01  -2.3960221e-01
   9.9155594e-02  -1.7596155e-01   6.6615812e-03
   1.2467450e-01   6.5351409e-02   2.0886194e-01
   9.9039078e-02   1.6119780e-01   2.0979690e-01
   8.4356921e-02   7.6235003e-02   7.6555184e-02
   1.2607308e-01  -1.6180102e-01  -6.1946454e-02
   1.7093516e-01  -3.7175042e-01  -1.3546302e-01
   1.8340312e-01  -4.6946912e-01  -1.5451436e-01
   1.6557504e-01  -4.7239500e-01  -8.8594719e-02
   1.7314896e-01  -3.9187933e-01   3.8686247e-02
   2.6264008e-01  -3.0855481e-01   1.1080037e-01
   3.4980051e-01  -2.7648912e-01   9.6775220e-02
   3.6459918e-01  -3.0492720e-01   9.7001947e-03
   3.1705724e-01  -3.7011214e-01  -1.1010032e-01
   2.3712118e-01  -4.1867875e-01  -1.7146204e-01
   1.8282054e-01  -3.8930451e-01  -1.4083981e-01
   1.7652830e-01  -3.3090748e-01  -4.0908330e-02
   2.0134811e-01  -2.9240494e-01   7.4334266e-02
   2.2710005e-01  -2.3716744e-01   1.2248853e-01
   2.4376297e-01  -2.1797468e-01   1.0250223e-01
   2.5366759e-01  -2.2897569e-01   9.0931340e-02
   2.4318039e-01  -2.4793402e-01   1.0261910e-01
   1.9680361e-01  -2.7391469e-01   1.0098292e-01
   1.3038455e-01  -2.3705042e-01   1.2692997e-01
   1.1022576e-01  -1.5115147e-01   1.8817443e-01
   1.5252411e-01  -9.2402988e-02   2.1061499e-01
   2.2104084e-01  -7.4731873e-02   1.8829130e-01
   2.8058507e-01  -6.3965298e-02   1.2120296e-01
   2.7394289e-01  -8.0349199e-02   3.0855581e-02
   1.9540542e-01  -1.0024408e-01  -2.2675080e-02
   9.0649554e-02  -1.1335143e-01  -3.0623007e-02
   2.3880559e-02  -1.5758793e-01   1.9634908e-02
   4.4272378e-02  -1.6940807e-01   1.2377409e-01
   9.3212900e-02  -1.7935551e-01   2.0056340e-01
   1.1267259e-01  -2.2300691e-01   1.7823971e-01
   9.9621657e-02  -2.4208265e-01   1.2330661e-01
   5.8604987e-02  -2.6080733e-01   9.6307741e-02
   2.0152055e-02  -2.5940310e-01   8.8710423e-02
   1.4208970e-02  -2.2722000e-01   1.2692997e-01
   3.6931495e-02  -2.1668747e-01   1.5661724e-01
   4.6020505e-02  -1.9737768e-01   1.5252641e-01
   4.8350820e-02  -1.7092932e-01   1.3043606e-01
   5.1380620e-02  -1.5875852e-01   6.6971080e-02
   3.6581948e-02  -1.4810896e-01  -3.6237415e-03
   3.8679231e-02  -1.5033233e-01  -5.1427392e-02
   4.1242968e-02  -1.5489648e-01  -6.9777120e-02
   4.5088379e-02  -1.6308863e-01  -6.9309641e-02
   7.2471534e-02  -1.5396033e-01  -2.4077517e-02
   9.8339984e-02  -1.1931982e-01   6.0191850e-02
   8.5872017e-02  -7.0167721e-02   1.3616346e-01
   1.4908456e-02  -8.0256792e-03   1.9717418e-01
  -1.8184753e-02   3.0359843e-02   1.8361611e-01
   1.9452569e-02   5.9266004e-02   8.4268980e-02
   6.1751303e-02   3.0827921e-02  -8.0880923e-02
  -6.6489120e-03  -3.8804152e-02  -2.8401624e-01
  -2.2221985e-01  -2.2303231e-02  -3.9025908e-01
  -4.3720821e-01   9.6714979e-02  -2.5690050e-01
  -5.1912503e-01   2.5341620e-01   1.5755220e-01
  -2.8164757e-01   2.9777011e-01   7.2792091e-01
   2.4085008e-01   2.4452194e-01   1.2100463e+00
   6.3738404e-01   1.9501917e-01   1.3123152e+00
   5.3064702e-01   1.0186423e-01   8.4935799e-01
   2.0268571e-02  -5.2168196e-03   1.2851803e-03
  -3.7813004e-01  -9.8979904e-03  -7.8963401e-01
  -5.3404022e-01   1.6564493e-01  -1.1534782e+00
  -5.8379635e-01   3.9057360e-01  -8.8921488e-01
  -3.8861723e-01   4.3598069e-01  -5.4349136e-02
   5.0448494e-02   3.4867750e-01   9.4309499e-01
   3.9536168e-01   3.3521908e-01   1.5692149e+00
   3.8778777e-01   3.6435928e-01   1.4664785e+00
   4.7535210e-02   2.8700353e-01   6.7626056e-01
  -3.9304522e-01   1.2351440e-01  -3.3252111e-01
  -6.4485529e-01  -5.0857941e-02  -9.5291400e-01
  -4.9966534e-01  -3.7750977e-02  -7.8227082e-01
  -2.7856341e-02   2.4522445e-01   2.4894439e-02
   3.2171826e-01   4.7612150e-01   8.1230754e-01
   2.7732224e-01   4.3399135e-01   1.0105339e+00
  -5.4423886e-02   2.2509553e-01   5.5879704e-01
  -3.9875489e-01   1.1309888e-01  -6.4290077e-03
  -3.8908330e-01   1.8764616e-01  -1.1372368e-01
  -8.2156979e-02   2.4370280e-01   2.1318651e-01
   1.1954741e-01   1.8577385e-01   5.1999354e-01
   2.0035539e-02   6.8159876e-02   4.4297010e-01
  -2.1814141e-01  -5.1677077e-02   1.0448902e-01
  -2.9329993e-01  -4.3719361e-02  -5.3647918e-02
  -2.0730466e-01   1.0268336e-01   1.2131983e-01
  -1.0709330e-01   2.2579765e-01   3.5975256e-01
  -8.2506526e-02   3.0572822e-01   4.6342426e-01
  -1.3156356e-01   3.3954919e-01   3.9949141e-01
  -1.5801459e-01   2.8548228e-01   2.8027485e-01
  -1.4810997e-01   1.9700850e-01   2.7898928e-01
  -1.0126712e-01   9.5895842e-02   3.1580600e-01
  -6.4445022e-02   5.4701853e-02   3.2889659e-01
  -6.1532128e-02   1.1040743e-01   3.1849440e-01
  -7.3883579e-02   2.0894527e-01   2.6589869e-01
  -1.1699792e-01   3.2164404e-01   2.1552391e-01
  -1.5067332e-01   3.7524288e-01   1.6690256e-01
  -1.6046142e-01   3.2761242e-01   1.3709842e-01
  -1.2538745e-01   2.2029734e-01   1.0460589e-01
  -4.3237592e-02   1.0034297e-01   7.0477172e-02
   3.6465432e-02   8.6858471e-04   7.9710667e-02
   8.4240406e-02  -1.9260332e-02   1.1968326e-01
   7.8064680e-02   7.0383638e-02   1.7555132e-01
   3.2503506e-02   2.3656422e-01   1.9857662e-01
  -6.5323962e-03   4.0906425e-01   1.8642099e-01
   1.5724066e-02   4.6079077e-01   1.5276015e-01
   7.4568817e-02   3.6588053e-01   9.0697208e-02
   1.2956855e-01   1.7126226e-01   2.3296038e-04
   1.4891173e-01  -2.6866989e-02  -8.3335188e-02
   9.0649554e-02  -8.9243463e-02  -8.5789845e-02
   2.2016307e-02  -6.1156438e-02  -6.8024074e-02
  -1.4106311e-02  -1.2121753e-02  -3.9856110e-02
  -1.3057669e-02   3.4455917e-02   2.4543830e-02
   8.1497604e-03   6.0202160e-02   7.8191360e-02
   4.5933036e-04   5.0020682e-02   1.0554084e-01
  -3.6945351e-02   1.2571315e-02   1.0717741e-01
  -6.3046833e-02  -7.3235624e-03   1.1734587e-01
  -2.7623310e-02  -4.1027521e-02   1.0448902e-01
   8.2662762e-03  -5.0506882e-02   5.0257136e-02
   1.8753475e-02  -6.0454321e-02  -6.0660887e-02
   3.0988801e-02  -1.1943684e-01  -1.8046140e-01
   3.8096652e-02  -1.7046125e-01  -2.0781128e-01
   6.6761871e-02  -2.2031546e-01  -1.8057827e-01
   5.1031073e-02  -2.2125162e-01  -1.0402270e-01
  -7.5810379e-03  -1.5770495e-01  -3.4830319e-02
  -4.4635781e-02  -6.1624516e-02  -5.5868835e-02
  -9.0313472e-02   6.6287564e-02  -1.5170948e-01
  -1.0254880e-01   1.6880446e-01  -2.8600303e-01
  -7.6214285e-02   2.0789210e-01  -3.6057181e-01
  -4.0790762e-02   1.5440989e-01  -3.5741633e-01
   1.3975939e-02   3.1881096e-02  -3.1101511e-01
   4.6836115e-02  -1.0539333e-01  -2.0220114e-01
   5.3827451e-02  -2.3857167e-01  -9.8880042e-02
   3.4018210e-02  -2.7648912e-01  -5.2596090e-02
   1.3509876e-02  -2.1715554e-01  -9.2334943e-02
   1.8520444e-02  -8.2104491e-02  -2.1260333e-01
   3.2853053e-02   8.2203388e-02  -3.3719629e-01
   5.7206798e-02   1.3673877e-01  -4.5325698e-01
   7.5035271e-02   1.3884512e-01  -4.8189203e-01
   6.0120083e-02   7.6352023e-02  -4.4986736e-01
  -9.9113528e-03  -3.3420864e-02  -3.9189526e-01
  -1.0493931e-02  -9.4041653e-02  -3.2983271e-01
  -3.6191117e-03  -1.3991681e-01  -3.9540174e-01
  -1.4449759e-01  -9.9541960e-02  -4.8890500e-01
  -2.7652010e-01  -2.7920557e-02  -5.4605862e-01
  -4.1122285e-01  -4.0466250e-03  -5.2618919e-01
  -4.2811920e-01   9.1777513e-03  -3.0447002e-01
  -1.1711444e-01   2.4976556e-02   5.5399798e-02
   2.5541572e-01   5.0488760e-02   3.4946723e-01
   4.8485281e-01   2.8604551e-02   3.8768639e-01
   4.8228946e-01  -2.8154596e-02   6.3230856e-02
   1.4751354e-01  -6.9933683e-02  -5.7317436e-01
  -3.1940141e-01  -1.5676879e-01  -1.1039215e+00
  -5.2751495e-01  -3.7678264e-01  -1.1707761e+00
  -3.3688033e-01  -5.2798356e-01  -8.2224342e-01
   6.3965102e-02  -3.2376851e-01  -2.4334243e-01
   4.2029801e-01   6.3244666e-02   2.9067704e-01
   4.8333811e-01   2.9987646e-01   5.6931650e-01
   2.6660201e-01   2.1421154e-01   4.5313855e-01
   1.0130919e-02  -9.5679926e-02  -9.3153031e-02
  -1.6092749e-01  -3.1288492e-01  -6.9659863e-01
  -2.0881937e-01  -3.4296127e-01  -9.0546096e-01
  -1.0930710e-01  -2.2593279e-01  -6.2600381e-01
