**************************************************************************************
            UNIVERSIDAD AUTONOMA METROPOLITANA - AZCAPOTZALCO
                        Departamento de Materiales
                           Area de Estructuras
     AV. SAN PABLO 180,COL.REYNOSA, AZCAPOTZALCO, C.P.02200 CIUDAD DE MEXICO.
**************************************************************************************
ARCHIVO ESTANDAR DE ACELERACION:
VERSION DEL FORMATO                    : 2.0
NOMBRE DEL ARCHIVO                     : RIML201504281
FECHA Y HORA DE CREACION               : MON JUL 18 12:30:07 2018
REF. CATALOGO ACELEROGRAMAS, SMIS 1995 : REGISTRO NO.      /PAG.    


================================================================================
DATOS DE LA ESTACION:
NOMBRE DE LA ESTACION                  : UAM-LERMA.
CLAVE DE LA ESTACION                   : RIML
LOCALIZACION DE LA ESTACION            : AV. DE LAS GARZAS 10, EL PANTEON, C.P.52005,
                                       : LERMA DE VILLADA, ESTADO DE MEXICO. 
                                       :
                                       : 
                                       : 
COORDENADAS DE LA ESTACION             : 19.291481 LAT. N
                                       : 99.502060 LONG. W
ALTITUD (msnm)                         : 2570
TIPO DE SUELO                          : DEPOSITOS LACUSTRES
                                       : 
                                       : 
INSTITUCION RESPONSABLE                : UNIVERSIDAD AUTONOMA METROPOLITANA
                                       : 

================================================================================
DATOS DEL ACELEROGRAFO: 
MODELO DEL ACELEROGRAFO                : BASALT KINEMETRICS
NUMERO DE SERIE DEL ACELEROGRAFO       : 978
NUMERO DE CANALES                      : 3
ORIENTACION C1-C6 (rumbo;orientacion)  : /V/N00E/N90E
ORIENTACION C7-C12 (rumbo;orientacion) : 
VEL. DE MUESTREO, C1-C6 (muestras/s)   : /250/250/250
VEL. DE MUESTREO, C7-C12 (muestras/s)  : 
ESC. COMPLETA DE SENSORES, C1-C6, (g)  : /2/2/2
ESC. COMPLETA DE SENSORES, C7-C12 (g)  : 
FREC. NAT. DE SENSORES, C1-C6, (Hz)    : /210/212/212
FREC. NAT. DE SENSORES, C7-C12 (Hz)    : 
AMORTIGUAMIENTO DE SENSORES, C1-C6     : /0.7/0.7/0.7
AMORTIGUAMIENTO DE SENSORES, C7-C12    : 
INTERVALO DE MUESTREO, C1-C6 (s)       : /0.004/0.004/0.004
INTERVALO DE MUESTREO, C7-C12 (s)      : 
UMBRAL DE DISPARO, C1-C6 (Gal)         : /2/2/2
UMBRAL DE DISPARO, C7-C12 (Gal)        : 
MEMORIA DE PREEVENTO (s)               : 20
TIEMPO DE POSEVENTO (s)                : 30


================================================================================
DATOS DEL SISMO:
FECHA DEL SISMO [GMT]                  : 2015/04/28
HORA EPICENTRO (GMT)                   : 18:56:54
MAGNITUD(ES)                           : /M=5.6
COORDENADAS DEL EPICENTRO              : 17.0213 LAT. N
                                       : 95.1868 LONG. W
PROFUNDIDAD FOCAL (Km)                 : 112.9
FUENTE DE LOS DATOS EPICENTRALES       : SSN
                                       : INSTITUTO DE GEOFISICA, UNAM

================================================================================
DATOS DE ESTE REGISTRO:
HORA DE LA PRIMERA MUESTRA (GMT)       : 18:59:05.00
EXACTITUD DEL TIEMPO (s)               : 
DURACION DEL REGISTRO (s), C1-C6       : /51.00/51.00/51.00
DURACION DEL REGISTRO (s), C7-C12      : 
NUM. TOTAL DE MUESTRAS, C1-C6          : /12750/12750/12750
NUM. TOTAL DE MUESTRAS, C7-C12         : 
ACEL. MAX.(Gal), C1-C6                 : /-0.506/-1.305/-1.003
ACEL. MAX., C1-C6, EN LA MUESTRA       : /8281/6158/5063
ACEL. MAX.(Gal), C7-C12                : 
ACEL. MAX., C7-C12,EN LA MUESTRA       : 
UNIDADES DE LOS DATOS                  : Gal (cm/s/s)
FACTOR DE DECIMACION                   : 1
FORMATO DATOS (FORTRAN,16 campos/dato) : 3E16.7


================================================================================
CALIDAD DEL ACELEROGRAMA:
REGISTRO DIGITAL COMPLETO CON TIEMPO ABSOLUTO CORRECTO


================================================================================
COMENTARIOS:














================================================================================
DATOS DE ACELERACION:
---------+---------+---------+---------+---------+---------+---------+---------+
   CANAL-1   CANAL-2   CANAL-3
         V      N00E      N90E
---------+---------+---------+---------+---------+---------+---------+---------+ 
[...]
   4.7947717e-02   2.6724997e-01  -4.2010509e-01
  -6.8198124e-02   3.2569422e-01  -3.8853781e-01
   6.1955344e-02   3.0816079e-01  -4.0291818e-01
  -5.8276104e-02   3.4790282e-01  -3.9800808e-01
  -2.2323469e-02   3.5772145e-01  -4.0046313e-01
   5.8085063e-03   3.5760457e-01  -3.9379903e-01
  -4.5552402e-02   4.0272343e-01  -3.8701763e-01
   1.4563322e-02   3.8273554e-01  -3.9309758e-01
  -4.8820966e-02   4.3124428e-01  -3.7205234e-01
  -1.4502416e-02   4.1791889e-01  -3.7661211e-01
  -5.8276104e-02   4.5462167e-01  -3.6328391e-01
  -5.0571772e-02   4.4421865e-01  -3.7591066e-01
  -1.8004421e-02   4.6479094e-01  -3.6117919e-01
  -7.6018785e-02   4.9062357e-01  -3.6690803e-01
  -6.3295474e-02   4.9190924e-01  -3.6234826e-01
  -8.3723117e-02   5.2417023e-01  -3.5322911e-01
  -4.5085520e-02   5.1061147e-01  -3.6316700e-01
  -3.3179252e-02   5.5888607e-01  -3.3779619e-01
  -8.5357203e-02   5.4649610e-01  -3.5311220e-01
   3.7558814e-02   5.6847094e-01  -3.3393786e-01
   2.4134790e-02   5.8109505e-01  -3.2739028e-01
  -2.2790350e-02   5.9477069e-01  -3.3931598e-01
   2.2033822e-02   6.1861599e-01  -3.2411688e-01
   1.0594436e-02   6.1429107e-01  -3.1979092e-01
   4.3978830e-02   6.4690309e-01  -3.1090519e-01
   2.5068945e-02   6.6338422e-01  -2.9629062e-01
   5.0165796e-02   6.7098175e-01  -3.0225367e-01
   1.6781010e-02   6.7180029e-01  -2.9161395e-01
   2.8687278e-02   6.8570969e-01  -2.8763910e-01
   9.3105110e-03   6.8664512e-01  -2.8331315e-01
   1.1061317e-02   7.2229599e-01  -2.6963383e-01
   4.6196910e-02   7.2743906e-01  -2.8459912e-01
  -1.3451932e-02   7.5280379e-01  -2.4133995e-01
   6.8492080e-02   7.5011517e-01  -2.5864378e-01
   2.8103676e-02   7.5058269e-01  -2.5525308e-01
   4.4562824e-02   7.8763650e-01  -2.3432513e-01
   3.5107685e-02   7.7933730e-01  -2.5069331e-01
   8.8803002e-02   8.1896245e-01  -2.3116824e-01
   8.3433470e-02   8.0201342e-01  -2.3923562e-01
  -2.9560527e-02   8.2387177e-01  -2.1830767e-01
   5.0282517e-02   8.1557257e-01  -2.4636735e-01
  -5.8392824e-02   8.2632623e-01  -2.3549420e-01
  -5.1038654e-02   8.6186022e-01  -2.4473065e-01
  -4.4268477e-02   8.4596349e-01  -2.5104403e-01
   1.1644920e-02   8.6209398e-01  -2.1795695e-01
  -4.4636753e-03   8.4187233e-01  -2.4005397e-01
  -3.2712371e-02   8.7074382e-01  -2.0603125e-01
   1.0666280e-01   8.7086070e-01  -2.1678788e-01
  -4.2302345e-03   8.7915990e-01  -1.9925024e-01
   3.8025696e-02   8.7343243e-01  -1.9913333e-01
   1.3727381e-03   8.8231563e-01  -2.1631986e-01
  -2.8510043e-02   8.9038107e-01  -2.0755143e-01
   7.2091515e-03   8.8184811e-01  -2.1935984e-01
  -2.8626764e-02   9.0814827e-01  -2.1608605e-01
   3.7071468e-03   8.7962741e-01  -2.3654637e-01
  -2.6525796e-02   9.0288831e-01  -2.2684268e-01
   1.9115419e-02   8.8395233e-01  -2.4028779e-01
  -1.3802093e-02   9.0826514e-01  -2.3292224e-01
   1.0225768e-03   9.1329134e-01  -2.3140206e-01
   4.4078611e-03   8.8652367e-01  -2.3619564e-01
  -4.4636753e-03   9.1633019e-01  -2.3526039e-01
   6.9542564e-02   8.8745870e-01  -2.5653906e-01
   6.0087817e-02   9.0592717e-01  -2.5443473e-01
   6.3939591e-02   9.0277143e-01  -2.7863647e-01
   5.6585812e-02   8.9704357e-01  -2.7711667e-01
   6.8492080e-02   9.0160225e-01  -2.8950962e-01
   5.1916603e-02   8.9435535e-01  -2.9851225e-01
   4.6547071e-02   8.9330344e-01  -3.0669614e-01
   5.6469092e-02   8.8605615e-01  -3.2376616e-01
   8.8813299e-05   8.8360169e-01  -3.2633811e-01
   1.0127554e-02   8.8956292e-01  -3.4410957e-01
  -6.2148735e-03   8.9400472e-01  -3.4188794e-01
  -1.0183368e-02   8.8091308e-01  -3.6024393e-01
   1.4096049e-02   8.9692670e-01  -3.7193543e-01
  -2.2206748e-02   8.9096547e-01  -3.7310489e-01
   4.4446103e-02   8.9435535e-01  -3.9414975e-01
   4.3161787e-02   9.0055034e-01  -3.9777387e-01
   2.5068945e-02   8.9283593e-01  -4.0291818e-01
   4.2111303e-02   8.9190050e-01  -4.2828938e-01
   1.8181656e-02   8.9283593e-01  -4.2489868e-01
   1.0477715e-02   8.8605615e-01  -4.4079923e-01
   3.5341126e-02   8.7191261e-01  -4.5436163e-01
   6.5340628e-02   8.7577001e-01  -4.4617735e-01
  -4.0416311e-02   8.7214637e-01  -4.7026218e-01
   4.6780512e-02   8.6302940e-01  -4.6733911e-01
  -1.6136894e-02   8.4397654e-01  -4.8253822e-01
  -1.7187378e-02   8.5905512e-01  -4.9224229e-01
   1.2533963e-01   8.4666476e-01  -4.9715279e-01
  -3.2478930e-02   8.3719677e-01  -5.1024756e-01
   9.3588931e-02   8.4339215e-01  -5.1585950e-01
   4.1761142e-02   8.3181994e-01  -5.1796383e-01
   1.3279006e-02   8.2936548e-01  -5.1176736e-01
   6.4757026e-02   8.1183204e-01  -5.2486213e-01
  -2.6642516e-02   8.1674136e-01  -5.0673996e-01
   2.8453837e-02   7.8810402e-01  -5.2603120e-01
  -8.0454553e-02   7.9371461e-01  -5.2416069e-01
  -1.1584405e-02   7.8132425e-01  -5.0861047e-01
  -6.8665006e-02   7.5853125e-01  -5.3608600e-01
  -8.6057526e-02   7.6963555e-01  -5.1129973e-01
  -9.6206229e-04   7.5081645e-01  -5.1165045e-01
  -1.0158291e-01   7.3749145e-01  -5.1726238e-01
  -3.4813338e-02   7.1902298e-01  -5.0837666e-01
  -6.9832210e-02   7.4298516e-01  -5.1773001e-01
  -2.1039544e-02   7.0219121e-01  -5.2322504e-01
  -1.2868330e-02   6.9061901e-01  -5.1445661e-01
  -9.2127772e-02   7.0078827e-01  -4.9423011e-01
  -4.1467186e-02   6.6151415e-01  -5.0989684e-01
  -4.0766472e-02   6.6011121e-01  -5.0977993e-01
  -5.7692502e-02   6.4222753e-01  -4.7435432e-01
  -5.8042663e-02   6.5181240e-01  -4.6640385e-01
  -2.9093645e-02   6.0283614e-01  -4.6114264e-01
  -1.0928685e-01   5.8401703e-01  -4.5237382e-01
  -9.6913701e-02   6.0038128e-01  -4.4746333e-01
  -8.4890321e-02   5.7782205e-01  -4.3214731e-01
  -1.1932559e-01   5.7256210e-01  -4.2957536e-01
  -6.7731243e-02   5.3071624e-01  -4.3167969e-01
  -1.4523949e-01   5.4626234e-01  -4.1998819e-01
  -1.5574511e-01   5.4474252e-01  -4.0058003e-01
  -1.5165989e-01   4.9518225e-01  -3.9204503e-01
  -1.2971449e-01   4.8898687e-01  -3.8947307e-01
  -1.3228273e-01   4.8220749e-01  -3.8374423e-01
  -1.5691270e-01   4.7975264e-01  -3.6679112e-01
  -6.3528915e-02   4.4597223e-01  -3.5650251e-01
  -1.1675774e-01   4.2189317e-01  -3.4048505e-01
  -1.1990919e-01   4.2177629e-01  -3.2645502e-01
  -8.7225122e-02   3.8857988e-01  -3.3370405e-01
  -1.1559015e-01   3.9617781e-01  -3.1710166e-01
  -1.1594031e-01   3.8822925e-01  -3.2049236e-01
  -1.2481184e-01   3.4556524e-01  -3.2002473e-01
  -4.1700627e-02   3.0851143e-01  -3.4305740e-01
  -8.8392326e-02   2.9881007e-01  -3.3978361e-01
  -1.7045306e-01   3.3340864e-01  -3.0108421e-01
  -1.1150493e-01   3.0068013e-01  -3.1932329e-01
  -7.7536542e-02   2.5976931e-01  -2.9067869e-01
  -5.9443308e-02   2.4726207e-01  -2.8740529e-01
  -9.8197626e-02   2.7099049e-01  -2.6624313e-01
  -9.0376574e-02   2.8828977e-01  -2.2976536e-01
  -6.0260351e-02   2.2505348e-01  -2.4040469e-01
  -1.1267213e-01   1.7221981e-01  -2.2894701e-01
  -8.0687994e-02   1.1962029e-01  -2.5560380e-01
  -4.5435681e-02   1.3212714e-01  -2.6612623e-01
  -9.4228740e-02   2.3171598e-01  -2.2929773e-01
  -1.8422724e-01   2.5801573e-01  -1.7399634e-01
  -1.5679598e-01   1.0816536e-01  -1.7200892e-01
   2.0166295e-02  -7.2310091e-02  -2.3362369e-01
   5.2150044e-02  -2.9061687e-02  -2.5244731e-01
  -1.4827461e-01   1.8729839e-01  -1.9854880e-01
  -2.8671562e-01   2.3311853e-01  -1.4628738e-01
  -1.6953937e-02  -5.2088438e-02  -1.7481469e-01
   9.4522695e-02  -2.2683642e-01  -2.0568053e-01
  -2.0395456e-01  -2.3801735e-02  -1.4418266e-01
  -2.2695006e-01   1.7245357e-01  -8.8296732e-02
  -1.0730260e-01   1.0465859e-01  -1.1308301e-01
  -3.5980934e-02  -1.0445459e-01  -1.1565497e-01
   5.8085063e-03  -1.9036739e-01  -9.6714831e-02
  -7.3450936e-02  -1.0901327e-01  -8.3269333e-02
  -1.2492856e-01  -3.5841066e-02  -4.0127067e-02
  -1.1430622e-01  -7.7102526e-02  -1.3353370e-02
  -7.5085022e-02  -1.8978300e-01  -5.0532979e-02
  -6.5863324e-02  -1.7937997e-01  -4.3517766e-02
  -9.2711374e-02  -1.5904105e-01   1.3771049e-02
  -1.4278836e-01  -2.4881126e-01   2.0795500e-03
   1.0010834e-02  -3.0585296e-01  -1.2535020e-02
   1.4563322e-02  -2.6821476e-01   2.3358219e-02
  -2.3757279e-01  -1.7224956e-01   5.3405709e-02
  -9.7847465e-02  -2.6459111e-01   2.3942755e-02
  -6.6330597e-02  -4.2636473e-01   4.6157073e-02
  -9.0960176e-02  -4.0754562e-01   8.2284127e-02
  -3.5396941e-02  -3.0713863e-01   8.7545340e-02
  -1.5539495e-01  -3.0643736e-01   1.2753072e-01
  -4.4618638e-02  -4.4156018e-01   9.9470653e-02
  -8.6174246e-02  -4.5184633e-01   1.3711789e-01
  -1.5025886e-01  -4.1023384e-01   2.2690964e-01
  -9.0843455e-02  -4.7826297e-01   2.2468801e-01
  -6.2828593e-02  -5.3986296e-01   1.9382217e-01
   3.0671917e-02  -5.2162864e-01   2.1252888e-01
  -1.4453916e-01  -4.7767857e-01   2.7659870e-01
  -1.9823487e-01  -5.5096726e-01   2.7344221e-01
  -4.9754729e-02  -7.2793594e-01   2.6315360e-01
  -5.5591142e-02  -7.2594899e-01   2.5894455e-01
  -4.1934068e-02  -5.7142267e-01   2.6549174e-01
  -6.7614522e-02  -5.6230571e-01   3.1553192e-01
  -6.0377072e-02  -6.9193443e-01   3.0430805e-01
   1.3000884e-01  -8.6960478e-01   2.8373082e-01
   4.1294260e-02  -7.7936706e-01   3.3271884e-01
  -9.8197626e-02  -6.1934702e-01   3.6943043e-01
   1.1915267e-01  -7.3845623e-01   3.5563421e-01
   1.3654558e-01  -8.6025367e-01   3.6112924e-01
   1.8998699e-02  -8.6504610e-01   3.9819194e-01
  -6.6213877e-02  -7.7843202e-01   4.3396827e-01
  -5.8276104e-02  -8.3033027e-01   4.3291611e-01
   9.4639415e-02  -9.4780278e-01   4.0251750e-01
   9.4405975e-02  -9.3506217e-01   4.1958752e-01
   4.9815635e-02  -8.6376004e-01   4.5442859e-01
  -1.1350964e-02  -8.8059220e-01   4.4250289e-01
   7.9698416e-02  -1.0296244e+00   4.3221427e-01
   1.6584476e-01  -1.0490279e+00   4.4074928e-01
   4.2461464e-02  -9.5914084e-01   4.6366504e-01
  -7.8489596e-03  -9.3284108e-01   4.8319010e-01
   3.2889605e-02  -1.0417810e+00   4.5454550e-01
   9.8374861e-02  -1.1205634e+00   4.4460761e-01
   6.9757106e-03  -1.0542879e+00   4.8412536e-01
  -1.9521786e-02  -1.0131433e+00   5.0657310e-01
   5.9854376e-02  -1.0908742e+00   4.8903585e-01
   1.4553383e-01  -1.1828651e+00   4.6799060e-01
   9.8491581e-02  -1.1067709e+00   5.0470259e-01
  -4.5669122e-02  -1.0275206e+00   5.5065062e-01
   5.3784130e-02  -1.1338888e+00   5.1545883e-01
   9.5690291e-02  -1.2513613e+00   4.9675212e-01
   1.0876376e-01  -1.2007488e+00   5.1382213e-01
  -9.3528417e-02  -1.0775488e+00   5.4176490e-01
  -1.1057078e-01  -1.1148360e+00   5.6725261e-01
   9.4055813e-02  -1.2829214e+00   5.1382213e-01
  -2.9210366e-02  -1.2651542e+00   5.2399383e-01
  -1.9988668e-02  -1.1240702e+00   5.6503138e-01
  -9.8314346e-02  -1.1246546e+00   5.5123516e-01
  -3.0844452e-02  -1.2446988e+00   5.2738414e-01
   3.7325374e-02  -1.2908696e+00   4.9394634e-01
  -3.9015666e-02  -1.1877744e+00   5.2937195e-01
  -1.0333372e-01  -1.1158883e+00   5.5789926e-01
  -1.1862527e-01  -1.1795921e+00   5.3276226e-01
   1.4273215e-01  -1.3054807e+00   5.2305818e-01
  -5.3256734e-02  -1.2083467e+00   5.3662059e-01
  -5.0921933e-02  -1.1049004e+00   5.5427514e-01
   1.6430849e-02  -1.1752672e+00   5.6549901e-01
  -1.9054905e-02  -1.2356984e+00   5.2457837e-01
   2.1638862e-01  -1.2501925e+00   5.3498389e-01
  -1.0952029e-01  -1.0815231e+00   6.0104152e-01
  -8.4073278e-02  -1.1129659e+00   5.5485967e-01
   9.2421727e-02  -1.2552187e+00   5.3264535e-01
   3.1235446e-03  -1.1781895e+00   5.4422034e-01
  -3.0630301e-03  -1.0720551e+00   5.6760334e-01
  -1.2142695e-01  -1.0721719e+00   5.6912352e-01
   6.9192402e-02  -1.1682540e+00   5.2247365e-01
   9.4405975e-02  -1.1313175e+00   5.3732203e-01
  -1.8588023e-02  -1.0374561e+00   5.5579493e-01
   9.3105110e-03  -1.0094028e+00   5.7426783e-01
   8.3083309e-02  -1.1316681e+00   5.3089175e-01
   1.8977401e-01  -1.1476817e+00   5.0540403e-01
   7.6196412e-02  -9.7492108e-01   5.4679229e-01
  -9.1328844e-03  -9.3097101e-01   5.7496927e-01
   9.1021082e-02  -1.0243645e+00   5.5848379e-01
   2.0109707e-01  -1.1106283e+00   5.1101596e-01
   4.8297878e-02  -9.5329649e-01   5.7076022e-01
  -2.3023791e-02  -8.4178520e-01   5.8923312e-01
   9.6507334e-02  -9.1542492e-01   5.6503138e-01
   9.8374861e-02  -9.8754481e-01   5.5263804e-01
   1.3899671e-01  -9.5902396e-01   5.3334680e-01
   5.2033323e-02  -8.1595296e-01   6.0104152e-01
  -1.0066648e-02  -8.0893982e-01   5.9426052e-01
   1.5545585e-01  -9.3038662e-01   5.4620776e-01
   1.7238149e-01  -9.2243805e-01   5.5719782e-01
   3.4173530e-02  -7.5517112e-01   5.7052641e-01
   4.1294260e-02  -7.4546937e-01   5.9145435e-01
   9.6740775e-02  -8.4213584e-01   5.5556112e-01
   1.6701196e-01  -8.3535646e-01   5.2925505e-01
   1.7354870e-01  -7.4278076e-01   5.6959115e-01
  -4.5785843e-02  -6.7206342e-01   5.7754123e-01
   7.8880982e-02  -7.3494947e-01   5.4515559e-01
   2.7195186e-01  -7.7141849e-01   5.0820980e-01
   8.8803002e-02  -6.6142663e-01   5.4655848e-01
   2.8687278e-02  -5.8848859e-01   5.7765813e-01
   6.2305505e-02  -6.5838778e-01   5.3919294e-01
   2.3903395e-01  -6.9976612e-01   5.3147628e-01
   1.7786774e-01  -6.4611429e-01   5.3638677e-01
  -2.9210366e-02  -5.3086248e-01   5.7882760e-01
   1.2872452e-01  -5.6370826e-01   5.6982496e-01
   7.3044568e-02  -6.4927042e-01   5.3638677e-01
   1.6059194e-01  -5.9117680e-01   5.3977747e-01
   1.1436674e-01  -4.9649768e-01   5.5181969e-01
  -7.8587026e-02  -4.5102778e-01   5.7871030e-01
   1.8778976e-01  -5.6686399e-01   5.0633929e-01
   1.4319903e-01  -5.5190268e-01   4.9254307e-01
   1.2930813e-01  -4.2215669e-01   5.2668270e-01
   9.2771888e-02  -4.0368822e-01   5.2726723e-01
   6.6391112e-02  -4.7218486e-01   5.1171741e-01
   3.0008344e-01  -5.0608215e-01   4.7874724e-01
   1.5277089e-01  -3.6967366e-01   5.2831940e-01
   6.5223908e-02  -2.9732000e-01   5.3568533e-01
   1.6911293e-01  -3.6792047e-01   5.1814769e-01
   2.5572654e-01  -4.4284585e-01   4.8435917e-01
   1.7891823e-01  -3.4746506e-01   4.7699324e-01
   3.3706648e-02  -2.1783594e-01   5.1580955e-01
   5.9854376e-02  -2.5535727e-01   4.7991631e-01
   1.5954107e-01  -3.4302326e-01   4.3829423e-01
   2.5362518e-01  -2.8831953e-01   4.3618951e-01
   1.2580651e-01  -1.5495028e-01   4.7535654e-01
   1.0876376e-01  -1.5343046e-01   4.5992362e-01
   2.9097885e-01  -2.0567973e-01   4.2636852e-01
   3.1992748e-01  -2.1806970e-01   4.1549537e-01
   2.1498758e-01  -8.6103001e-02   4.2940850e-01
   1.0806344e-01  -3.3035576e-02   4.4495833e-01
   1.4413280e-01  -1.1076645e-01   3.8837096e-01
   2.3156345e-01  -1.0083094e-01   3.8439572e-01
   1.4448296e-01  -1.9126179e-02   3.9772431e-01
   2.9738154e-02   8.0696415e-02   4.0731109e-01
   1.2043698e-01   2.5642046e-02   3.6896280e-01
   2.2677752e-01  -1.9126179e-02   3.1553192e-01
   1.8965729e-01   7.7891317e-02   3.5446514e-01
   1.2452220e-01   1.7151853e-01   3.5598493e-01
   8.5534830e-02   1.6357036e-01   3.3108175e-01
   1.5428826e-01   1.0758096e-01   2.8653660e-01
   1.6082539e-01   1.6076487e-01   2.9285037e-01
   2.5885988e-02   2.8478340e-01   3.4020129e-01
   5.8453339e-02   2.9319909e-01   3.1974097e-01
   1.1530089e-01   2.1219560e-01   3.0290517e-01
   1.3245997e-01   2.5006756e-01   2.8267866e-01
   4.6663792e-02   3.5853960e-01   3.0781566e-01
  -2.6759237e-02   4.0377534e-01   3.0500949e-01
   5.6469092e-02   3.2721365e-01   2.5216354e-01
   3.4524083e-02   3.0897934e-01   2.4070547e-01
   2.7520074e-02   4.3112741e-01   2.2550636e-01
  -1.4535621e-01   5.2487150e-01   2.5672331e-01
  -8.7808724e-02   4.7683066e-01   2.2410347e-01
   1.3747934e-01   4.0389222e-01   1.7757090e-01
  -4.2867832e-02   5.1026083e-01   2.1545156e-01
