**************************************************************************************
            UNIVERSIDAD AUTONOMA METROPOLITANA - AZCAPOTZALCO
                        Departamento de Materiales
                           Area de Estructuras
     AV. SAN PABLO 180,COL.REYNOSA, AZCAPOTZALCO, C.P.02200 CIUDAD DE MEXICO.
**************************************************************************************
ARCHIVO ESTANDAR DE ACELERACION:
VERSION DEL FORMATO                    : 2.0
NOMBRE DEL ARCHIVO                     : RIML201503201
FECHA Y HORA DE CREACION               : MON JUL 18 12:30:07 2018
REF. CATALOGO ACELEROGRAMAS, SMIS 1995 : REGISTRO NO.      /PAG.    


================================================================================
DATOS DE LA ESTACION:
NOMBRE DE LA ESTACION                  : UAM-LERMA.
CLAVE DE LA ESTACION                   : RIML
LOCALIZACION DE LA ESTACION            : AV. DE LAS GARZAS 10, EL PANTEON, C.P.52005,
                                       : LERMA DE VILLADA, ESTADO DE MEXICO. 
                                       :
                                       : 
                                       : 
COORDENADAS DE LA ESTACION             : 19.291481 LAT. N
                                       : 99.502060 LONG. W
ALTITUD (msnm)                         : 2570
TIPO DE SUELO                          : DEPOSITOS LACUSTRES
                                       : 
                                       : 
INSTITUCION RESPONSABLE                : UNIVERSIDAD AUTONOMA METROPOLITANA
                                       : 

================================================================================
DATOS DEL ACELEROGRAFO: 
MODELO DEL ACELEROGRAFO                : BASALT KINEMETRICS
NUMERO DE SERIE DEL ACELEROGRAFO       : 978
NUMERO DE CANALES                      : 3
ORIENTACION C1-C6 (rumbo;orientacion)  : /V/N00E/N90E
ORIENTACION C7-C12 (rumbo;orientacion) : 
VEL. DE MUESTREO, C1-C6 (muestras/s)   : /250/250/250
VEL. DE MUESTREO, C7-C12 (muestras/s)  : 
ESC. COMPLETA DE SENSORES, C1-C6, (g)  : /2/2/2
ESC. COMPLETA DE SENSORES, C7-C12 (g)  : 
FREC. NAT. DE SENSORES, C1-C6, (Hz)    : /210/212/212
FREC. NAT. DE SENSORES, C7-C12 (Hz)    : 
AMORTIGUAMIENTO DE SENSORES, C1-C6     : /0.7/0.7/0.7
AMORTIGUAMIENTO DE SENSORES, C7-C12    : 
INTERVALO DE MUESTREO, C1-C6 (s)       : /0.004/0.004/0.004
INTERVALO DE MUESTREO, C7-C12 (s)      : 
UMBRAL DE DISPARO, C1-C6 (Gal)         : /2/2/2
UMBRAL DE DISPARO, C7-C12 (Gal)        : 
MEMORIA DE PREEVENTO (s)               : 20
TIEMPO DE POSEVENTO (s)                : 30


================================================================================
DATOS DEL SISMO:
FECHA DEL SISMO [GMT]                  : 2015/03/20
HORA EPICENTRO (GMT)                   : 22:30:09
MAGNITUD(ES)                           : /M=5.4
COORDENADAS DEL EPICENTRO              : 17.9397 LAT. N
                                       : 98.6127 LONG. W
PROFUNDIDAD FOCAL (Km)                 : 59.4
FUENTE DE LOS DATOS EPICENTRALES       : SSN
                                       : INSTITUTO DE GEOFISICA, UNAM

================================================================================
DATOS DE ESTE REGISTRO:
HORA DE LA PRIMERA MUESTRA (GMT)       : 22:30:34.00
EXACTITUD DEL TIEMPO (s)               : 
DURACION DEL REGISTRO (s), C1-C6       : /96.00/96.00/96.00
DURACION DEL REGISTRO (s), C7-C12      : 
NUM. TOTAL DE MUESTRAS, C1-C6          : /24000/24000/24000
NUM. TOTAL DE MUESTRAS, C7-C12         : 
ACEL. MAX.(Gal), C1-C6                 : /3.924/3.213/-4.723
ACEL. MAX., C1-C6, EN LA MUESTRA       : /11730/11691/6601
ACEL. MAX.(Gal), C7-C12                :
ACEL. MAX., C7-C12,EN LA MUESTRA       : 
UNIDADES DE LOS DATOS                  : Gal (cm/s/s)
FACTOR DE DECIMACION                   : 1
FORMATO DATOS (FORTRAN,16 campos/dato) : 3E16.7


================================================================================
CALIDAD DEL ACELEROGRAMA:
REGISTRO DIGITAL COMPLETO CON TIEMPO ABSOLUTO CORRECTO


================================================================================
COMENTARIOS:














================================================================================
DATOS DE ACELERACION:
---------+---------+---------+---------+---------+---------+---------+---------+
   CANAL-1          CANAL-2          CANAL-3
         V           N00E              N90E
---------+---------+---------+---------+---------+---------+---------+---------+ 
[...]
 -3.7441463e-001  1.9932977e-001 -1.2038951e+000
 -5.0923731e-001  1.8378367e-001 -9.5656390e-001
 -3.4955122e-001  8.5363627e-002 -7.5273504e-001
 -2.2406696e-001  3.1010532e-002 -4.6657911e-001
 -3.3799511e-001  1.2241744e-001 -1.6007537e-001
 -2.1694662e-001  1.3504117e-001  9.2869016e-002
 -9.7532218e-002  4.4452805e-002  3.4499488e-001
 -3.7766655e-002  4.7107738e-003  5.9595141e-001
  2.4216596e-002  6.5812316e-003  8.4223026e-001
  4.7445921e-002  6.4323820e-002  1.1083892e+000
  6.2737473e-002 -3.2576404e-002  1.2591268e+000
  9.1802819e-002 -1.1708666e-001  1.4151268e+000
  8.0013272e-002 -1.3532137e-001  1.6022331e+000
 -7.7688177e-002 -1.1416429e-001  1.7417445e+000
 -1.4469119e-001 -1.5636117e-001  1.8382212e+000
 -1.4235639e-001 -2.9861402e-001  1.8769289e+000
 -1.9908683e-001 -3.0235454e-001  1.9263948e+000
 -2.0760820e-001 -2.9966593e-001  1.9784341e+000
 -2.2896961e-001 -3.2105677e-001  1.9644010e+000
 -3.0239264e-001 -4.0463160e-001  1.8875705e+000
 -2.6562296e-001 -4.4554242e-001  1.8564638e+000
 -3.4628305e-001 -3.9574800e-001  1.8227849e+000
 -4.2589265e-001 -3.8172172e-001  1.7403409e+000
 -4.1632079e-001 -4.3385372e-001  1.6430457e+000
 -5.5207723e-001 -4.6307585e-001  1.5480891e+000
 -5.9480004e-001 -3.9574800e-001  1.4996756e+000
 -6.9553761e-001 -3.3110915e-001  1.4359423e+000
 -7.7094489e-001 -3.1930319e-001  1.3281224e+000
 -8.4028231e-001 -3.2701799e-001  1.2378435e+000
 -9.6004688e-001 -2.0206443e-001  1.2043981e+000
 -1.0161937e+000 -7.9331965e-002  1.1496695e+000
 -1.1398104e+000 -1.4692725e-002  1.0479304e+000
 -1.2037779e+000  3.2296594e-002  9.6946251e-001
 -1.2229217e+000  1.3130064e-001  9.0491073e-001
 -1.2251397e+000  3.1902338e-001  8.7345356e-001
 -1.2431159e+000  4.2761230e-001  8.0270397e-001
 -1.1784477e+000  4.6735433e-001  6.7547172e-001
 -1.1326897e+000  5.5934524e-001  6.2811057e-001
 -1.1175149e+000  7.4648358e-001  5.7735759e-001
 -1.1345576e+000  8.7330720e-001  5.3303708e-001
 -1.1077096e+000  9.1702312e-001  4.4930681e-001
 -9.8514373e-001  9.3759581e-001  3.4686619e-001
 -1.0268161e+000  1.0953947e+000  3.7820642e-001
 -9.9891791e-001  1.2307513e+000  3.3786161e-001
 -9.7300363e-001  1.2412712e+000  2.8219747e-001
 -9.1370534e-001  1.2825327e+000  2.7389449e-001
 -8.7004837e-001  1.3643543e+000  2.8383453e-001
 -8.4016559e-001  1.5205170e+000  3.0792456e-001
 -7.8845452e-001  1.5402711e+000  2.9552855e-001
 -7.5005036e-001  1.5401542e+000  2.9669827e-001
 -6.2503299e-001  1.6208071e+000  3.1844926e-001
 -6.8082966e-001  1.7570987e+000  4.2322893e-001
 -6.8374807e-001  1.8198679e+000  4.6790063e-001
 -6.5351512e-001  1.8075944e+000  4.9304306e-001
 -5.5476180e-001  1.8638179e+000  5.5011038e-001
 -5.0947075e-001  1.9530034e+000  6.3816754e-001
 -5.2814758e-001  2.0819312e+000  7.3768446e-001
 -3.9320819e-001  2.0509559e+000  7.2949880e-001
 -3.4955122e-001  2.0764375e+000  8.1545078e-001
 -2.4239364e-001  2.1792989e+000  9.1216133e-001
 -1.9675242e-001  2.2552762e+000  9.7191849e-001
 -1.3850422e-001  2.2631079e+000  1.0389259e+000
  2.4099875e-002  2.2080536e+000  1.0754115e+000
  5.4682979e-002  2.2679004e+000  1.1618316e+000
  7.4993902e-002  2.3088112e+000  1.2660262e+000
  1.8273548e-001  2.2922132e+000  1.3236786e+000
  1.8938894e-001  2.1740390e+000  1.3311627e+000
  2.7355103e-001  2.1461029e+000  1.4126708e+000
  3.8619486e-001  2.1416611e+000  1.4755855e+000
  3.4277134e-001  2.0327212e+000  1.4836543e+000
  4.1374324e-001  1.8767923e+000  1.5007280e+000
  4.1234220e-001  1.7227335e+000  1.4954656e+000
  4.2716687e-001  1.6438342e+000  1.5324190e+000
  3.5782945e-001  1.4950354e+000  1.5403712e+000
  2.8218873e-001  1.2708440e+000  1.4834204e+000
  3.1125447e-001  1.0104170e+000  1.4547700e+000
  1.8798829e-001  8.7085235e-001  1.4706740e+000
  1.1269774e-001  7.0218287e-001  1.4491569e+000
  3.7990782e-002  4.3754780e-001  1.3727937e+000
  8.7250722e-002  1.7151019e-001  1.3097625e+000
  7.0324693e-002 -3.3160799e-002  1.2742123e+000
 -8.0956741e-002 -1.5764684e-001  1.2330489e+000
 -1.1502599e-002 -4.2251567e-001  1.1253456e+000
  7.5927665e-002 -6.9580018e-001  1.0017386e+000
  4.0091750e-002 -8.6283335e-001  9.6455096e-001
  6.5305322e-002 -9.8205945e-001  9.0093503e-001
  7.8145745e-002 -1.1708337e+000  8.0539381e-001
  2.7835321e-002 -1.4037922e+000  7.2166355e-001
  1.0020747e-001 -1.5846183e+000  6.4541774e-001
  1.2577121e-001 -1.6609462e+000  6.4717173e-001
  7.8745600e-003 -1.7538721e+000  6.1068607e-001
  1.0909291e-002 -1.9368024e+000  5.5782871e-001
  1.2180232e-001 -2.0858347e+000  5.3350481e-001
  5.1297695e-002 -2.1302522e+000  5.5116277e-001
  7.1025015e-002 -2.1370316e+000  5.6414345e-001
  1.3044042e-001 -2.2964673e+000  5.4075501e-001
  1.8191804e-001 -2.3952380e+000  5.4671895e-001
  3.0495117e-001 -2.4384864e+000  5.5700979e-001
  2.5043842e-001 -2.4211871e+000  6.2717472e-001
  3.9016375e-001 -2.4783453e+000  5.9676994e-001
  5.1623161e-001 -2.6257412e+000  5.8905201e-001
  5.8626936e-001 -2.6054027e+000  6.4167551e-001
  6.8537284e-001 -2.5942984e+000  6.5489005e-001
  7.3113077e-001 -2.5801548e+000  7.0038028e-001
  8.7704268e-001 -2.6664186e+000  6.5839841e-001
  9.3540720e-001 -2.6738993e+000  6.7933088e-001
  1.0156004e+000 -2.5828434e+000  7.0844901e-001
  1.0653272e+000 -2.5559593e+000  7.0529183e-001
  1.1449368e+000 -2.5758303e+000  6.8225419e-001
  1.2816270e+000 -2.6038832e+000  6.3337292e-001
  1.3507310e+000 -2.4961125e+000  6.4904304e-001
  1.2987865e+000 -2.3863544e+000  6.3208627e-001
  1.3151285e+000 -2.3583010e+000  5.7829344e-001
  1.4311577e+000 -2.3947704e+000  5.0578947e-001
  1.3750108e+000 -2.2764794e+000  4.9795461e-001
  1.3529487e+000 -2.1302522e+000  4.8450621e-001
  1.3162957e+000 -2.0584830e+000  4.1504287e-001
  1.3318207e+000 -1.9950125e+000  3.5364866e-001
  1.3055567e+000 -1.8901638e+000  3.1459010e-001
  1.1660648e+000 -1.6968308e+000  3.0862616e-001
  1.1069996e+000 -1.5620586e+000  2.4337278e-001
  1.0349776e+000 -1.4617685e+000  1.5812239e-001
  9.7602905e-001 -1.3670890e+000  1.3052439e-001
  8.4307429e-001 -1.1253642e+000  1.0397838e-001
  6.6202679e-001 -9.3623931e-001  5.2758066e-002
  5.5475249e-001 -8.2870191e-001 -3.4480170e-002
  4.7444256e-001 -6.9241029e-001 -1.0780267e-001
  3.1137119e-001 -5.0094743e-001 -1.0183833e-001
  1.3779459e-001 -2.4005288e-001 -1.4814748e-001
  6.1102995e-002 -1.4969867e-001 -2.2696580e-001
  3.4021896e-002 -3.4680620e-002 -2.6590743e-001
 -9.9983738e-002  1.4228806e-001 -2.6122974e-001
 -1.7352310e-001  3.3492011e-001 -2.7198830e-001
 -1.6955460e-001  4.6723745e-001 -3.1163152e-001
 -2.5149861e-001  4.9365409e-001 -3.1385363e-001
 -1.9219993e-001  5.9008679e-001 -3.2262395e-001
 -1.9453473e-001  7.4134050e-001 -2.4883412e-001
 -2.3924179e-001  8.1895411e-001 -2.3421639e-001
 -1.3103372e-001  7.7582219e-001 -2.7070205e-001
 -5.5042846e-002  7.7769265e-001 -2.1562257e-001
 -1.5589713e-001  8.6641055e-001 -1.5761979e-001
 -1.5391250e-001  8.9528204e-001 -1.6253134e-001
 -1.0173454e-001  8.0235610e-001 -2.0123871e-001
 -2.3118769e-001  7.5758788e-001 -1.5925684e-001
 -2.4998125e-001  7.7477028e-001 -1.4510685e-001
 -3.3332590e-001  8.0691478e-001 -1.2908593e-001
 -4.0371381e-001  7.2941766e-001 -1.4721163e-001
 -3.9110722e-001  5.9569777e-001 -1.8977855e-001
 -4.0628205e-001  5.9955478e-001 -1.6498692e-001
 -4.3231267e-001  5.9756784e-001 -1.7445923e-001
 -4.8297325e-001  5.7383942e-001 -1.9223413e-001
 -4.5028879e-001  4.4736643e-001 -2.5573352e-001
 -3.7838352e-001  3.6694734e-001 -2.8941280e-001
 -3.5632179e-001  4.0902695e-001 -2.7502894e-001
 -3.8562097e-001  3.7396087e-001 -3.0859128e-001
 -2.3550674e-001  2.5064361e-001 -3.8074406e-001
 -1.4329015e-001  1.7419880e-001 -4.2272593e-001
 -1.1317393e-001  2.3007132e-001 -4.0261199e-001
 -1.1037264e-001  2.3194139e-001 -4.2810521e-001
 -6.5548468e-002  1.4182055e-001 -5.0540380e-001
  8.6550008e-002  5.0414031e-002 -5.4294185e-001
  1.8963785e-002  1.0161100e-001 -5.3849803e-001
  4.9196727e-002  1.5526282e-001 -5.6866894e-001
 -8.4678675e-003  1.0465025e-001 -6.2784144e-001
 -2.9012231e-002  4.5972233e-002 -7.1695098e-001
 -1.0452115e-002  5.2518247e-002 -7.6021911e-001
 -1.8006022e-001  1.5245772e-001 -7.5951751e-001
 -1.4037214e-001  1.1727437e-001 -8.5236929e-001
 -1.5834826e-001  6.4440699e-002 -9.4405135e-001
 -2.0107147e-001  8.3142924e-002 -9.6919378e-001
 -2.5920255e-001  1.9044617e-001 -9.7726250e-001
 -3.1359858e-001  2.5648796e-001 -1.0165549e+000
 -2.7951348e-001  1.6800382e-001 -1.0746750e+000
 -2.9293750e-001  2.0435596e-001 -1.0680091e+000
 -2.5406646e-001  2.8547633e-001 -1.0351487e+000
 -2.8570044e-001  3.4251765e-001 -1.0086031e+000
 -2.9118669e-001  3.2182848e-001 -9.9316649e-001
 -2.2570144e-001  2.6467028e-001 -9.9047704e-001
 -2.3480642e-001  3.2673779e-001 -8.9715754e-001
 -2.8336564e-001  3.7922082e-001 -8.0360456e-001
 -2.7974692e-001  3.3784209e-001 -7.7916373e-001
 -1.8577992e-001  2.3965619e-001 -7.2396732e-001
 -2.0328916e-001  2.4830603e-001 -6.2304682e-001
 -3.2713933e-001  3.2440021e-001 -5.0400022e-001
 -3.5503747e-001  2.8325524e-001 -4.7219226e-001
 -3.6659397e-001  1.7267937e-001 -4.6435700e-001
 -3.7908384e-001  1.4813280e-001 -4.1372135e-001
 -4.2099000e-001  2.2013582e-001 -3.5244407e-001
 -5.0001561e-001  2.0856400e-001 -3.4075004e-001
 -5.1110523e-001  1.1879379e-001 -3.8249805e-001
 -5.3631880e-001  8.9688546e-002 -3.7934087e-001
 -5.7682392e-001  1.4556107e-001 -3.8588948e-001
 -6.5106360e-001  2.0377157e-001 -4.0775741e-001
 -6.5608297e-001  1.2779427e-001 -5.0516994e-001
 -5.9141476e-001  5.1232185e-002 -6.3146673e-001
 -6.4149174e-001  1.1283257e-001 -6.9917569e-001
 -7.4794940e-001  1.8612125e-001 -7.8501074e-001
 -8.1098313e-001  1.6648400e-001 -9.1879199e-001
 -7.9020533e-001  9.7052321e-002 -1.0906960e+000
 -7.9429093e-001  1.4404164e-001 -1.2121981e+000
 -8.0047751e-001  2.4725373e-001 -1.3452774e+000
 -7.6697600e-001  2.5309847e-001 -1.5503929e+000
 -7.3277456e-001  2.3229203e-001 -1.7668516e+000
 -7.3475881e-001  2.7635898e-001 -1.9477602e+000
 -7.8880468e-001  3.7559718e-001 -2.1354512e+000
 -8.2300651e-001  4.4000266e-001 -2.3538982e+000
 -8.2464060e-001  4.2130043e-001 -2.5878979e+000
 -7.8857124e-001  4.3801532e-001 -2.8374513e+000
 -7.6849376e-001  5.4029277e-001 -3.0223355e+000
 -7.7001113e-001  6.4058249e-001 -3.2194992e+000
 -7.6464159e-001  6.6781767e-001 -3.4651930e+000
 -6.5830105e-001  6.4829729e-001 -3.6775591e+000
 -5.8172657e-001  7.2883326e-001 -3.8357808e+000
 -5.3573480e-001  7.9943373e-001 -3.9918977e+000
 -3.5748899e-001  7.9382314e-001 -4.1731571e+000
 -2.1286102e-001  7.6506853e-001 -4.3368754e+000
 -5.5393007e-002  7.9382314e-001 -4.4700716e+000
  5.4449538e-002  9.1456866e-001 -4.5382482e+000
  1.5717135e-001  8.6570928e-001 -4.6084132e+000
  3.1615712e-001  7.7290021e-001 -4.7096849e+000
  4.3300328e-001  7.6565293e-001 -4.7271090e+000
  5.1132896e-001  7.8014711e-001 -4.6728480e+000
  5.2813788e-001  7.6249719e-001 -4.6274747e+000
  6.3015976e-001  6.3988121e-001 -4.5500596e+000
  6.8875773e-001  5.8038544e-001 -4.4294929e+000
  7.2295956e-001  5.6857947e-001 -4.2524435e+000
  7.6019612e-001  5.3468179e-001 -4.0252262e+000
  7.2027460e-001  4.3988578e-001 -3.8126262e+000
  8.2089584e-001  3.1750356e-001 -3.5790942e+000
  8.5941632e-001  3.0943851e-001 -3.2847526e+000
  8.3782148e-001  3.0791869e-001 -2.9662036e+000
  9.2443470e-001  2.1031719e-001 -2.7019160e+000
  9.6260541e-001  1.0394897e-001 -2.4455802e+000
  9.9809117e-001  7.5661877e-002 -2.1264470e+000
  9.3003767e-001  9.1558611e-002 -1.7675532e+000
  8.0782197e-001  2.7270401e-002 -1.4514602e+000
  7.7653855e-001 -1.1100855e-001 -1.1662402e+000
  6.5817463e-001 -1.8324533e-001 -8.1611711e-001
  5.3876022e-001 -1.7997271e-001 -4.5102592e-001
  4.5833358e-001 -2.4648202e-001 -1.0979052e-001
  3.9494968e-001 -4.2859377e-001  1.8279709e-001
  3.9226472e-001 -5.5658619e-001  4.8661099e-001
  3.0098229e-001 -5.9749701e-001  8.4246413e-001
  1.7748228e-001 -6.6774684e-001  1.1555165e+000
  1.7584819e-001 -8.4611846e-001  1.4001583e+000
  1.6942817e-001 -1.0455299e+000  1.6273756e+000
  9.1335937e-002 -1.1040906e+000  1.9013694e+000
  7.7578396e-003 -1.1863802e+000  2.1379420e+000
 -4.0568337e-002 -1.3727000e+000  2.3042328e+000
 -4.0568337e-002 -1.5590198e+000  2.4430426e+000
 -4.4187062e-002 -1.6651542e+000  2.5896872e+000
 -3.5652176e-003 -1.7296762e+000  2.7425296e+000
 -2.3976216e-003 -1.8881768e+000  2.7852134e+000
  1.0966261e-001 -2.0991601e+000  2.8045089e+000
  2.5580795e-001 -2.2317112e+000  2.8349136e+000
  2.8907602e-001 -2.2566084e+000  2.8477770e+000
  4.1479372e-001 -2.3524567e+000  2.8455553e+000
  4.6090182e-001 -2.5185548e+000  2.7352794e+000
  6.6015927e-001 -2.6660676e+000  2.6163497e+000
  7.9661603e-001 -2.7035889e+000  2.5687547e+000
  7.9789995e-001 -2.7157451e+000  2.4873635e+000
  1.0304251e+000 -2.8765833e+000  2.2945267e+000
  1.1702671e+000 -2.9780422e+000  2.1251956e+000
  1.3168793e+000 -2.9776916e+000  2.0046289e+000
  1.4845032e+000 -2.9449631e+000  1.8421972e+000
  1.5999487e+000 -2.9975626e+000  1.6490096e+000
  1.7455101e+000 -3.0662930e+000  1.4054206e+000
  1.8952741e+000 -3.0270185e+000  1.2425212e+000
  1.9419662e+000 -2.9391188e+000  1.1075707e+000
  1.8992430e+000 -2.8601022e+000  8.9590655e-001
  1.9098654e+000 -2.8872201e+000  7.0985259e-001
  1.8932899e+000 -2.7786312e+000  5.5057811e-001
  1.8590881e+000 -2.5895059e+000  4.3761279e-001
  1.7268336e+000 -2.4631498e+000  3.2032018e-001
  1.6188586e+000 -2.3684703e+000  1.5438016e-001
  1.5791705e+000 -2.2320618e+000  4.5858663e-002
  1.3921699e+000 -1.9472055e+000 -2.5552723e-003
  1.2578141e+000 -1.7342349e+000 -9.1781359e-002
  1.2115893e+000 -1.5876571e+000 -2.0299309e-001
  1.0715138e+000 -1.3985322e+000 -2.6742755e-001
  1.0041610e+000 -1.1059611e+000 -2.9607834e-001
  8.6898818e-001 -8.0146712e-001 -2.8976360e-001
  6.7486682e-001 -6.0602997e-001 -3.2531379e-001
  6.3015976e-001 -3.9574800e-001 -3.6624327e-001
  4.8039570e-001 -1.0259247e-001 -2.9771539e-001
  2.8230545e-001  2.2773335e-001 -2.3164349e-001
  8.7134002e-002  4.6595178e-001 -1.9515784e-001
 -3.5315526e-002  6.3508878e-001 -1.6323294e-001
 -1.8414544e-001  8.9949008e-001 -7.6812836e-002
 -4.6464658e-001  1.2401024e+000  7.0416427e-002
 -7.1246364e-001  1.4679175e+000  1.5052140e-001
 -9.0798525e-001  1.5887799e+000  1.9484191e-001
 -1.0733910e+000  1.7691384e+000  2.8956461e-001
 -1.3564604e+000  2.0536441e+000  4.4883908e-001
 -1.5579356e+000  2.2413668e+000  5.4519883e-001
 -1.7519398e+000  2.3247079e+000  6.1793627e-001
 -1.9589016e+000  2.4440509e+000  7.1862291e-001
 -2.1010780e+000  2.6097984e+000  8.3299182e-001
 -2.3193621e+000  2.7982220e+000  9.6408323e-001
 -2.4688927e+000  2.8274441e+000  9.9495574e-001
 -2.5390472e+000  2.8279117e+000  1.0413818e+000
 -2.5685798e+000  2.9396567e+000  1.1296725e+000
 -2.7085386e+000  3.0752470e+000  1.2180804e+000
 -2.7754245e+000  3.0927805e+000  1.2721071e+000
 -2.6911457e+000  3.0060491e+000  1.2578406e+000
 -2.6324310e+000  3.0108416e+000  1.2884792e+000
 -2.5333275e+000  3.0564279e+000  1.3539664e+000
 -2.4523172e+000  3.0360894e+000  1.3627368e+000
 -2.3341868e+000  2.9027202e+000  1.3132708e+000
 -2.1672636e+000  2.8275610e+000  1.3142063e+000
 -2.0526351e+000  2.8297817e+000  1.3118672e+000
 -1.9312365e+000  2.7760134e+000  1.2780714e+000
 -1.7256757e+000  2.6178634e+000  1.2043981e+000
 -1.5049402e+000  2.4638050e+000  1.1002031e+000
 -1.2714813e+000  2.4278035e+000  1.0520235e+000
