**************************************************************************************
            UNIVERSIDAD AUTONOMA METROPOLITANA - AZCAPOTZALCO
                        Departamento de Materiales
                           Area de Estructuras
     AV. SAN PABLO 180,COL.REYNOSA, AZCAPOTZALCO, C.P.02200 CIUDAD DE MEXICO.
**************************************************************************************
ARCHIVO ESTANDAR DE ACELERACION:
VERSION DEL FORMATO                    : 2.0
NOMBRE DEL ARCHIVO                     : RIML201511231
FECHA Y HORA DE CREACION               : 12:23 p. m. 26/11/2015
REF. CATALOGO ACELEROGRAMAS, SMIS 1995 : REGISTRO NO.      /PAG.    


================================================================================
DATOS DE LA ESTACION:
NOMBRE DE LA ESTACION                  : UAM-LERMA.
CLAVE DE LA ESTACION                   : RIML
LOCALIZACION DE LA ESTACION            : AV. DE LAS GARZAS 10, EL PANTEON, C.P.52005,
                                       : LERMA DE VILLADA, ESTADO DE MEXICO. 
                                       :
                                       : 
                                       : 
COORDENADAS DE LA ESTACION             : 19.291481 LAT. N
                                       : 99.502060 LONG. W
ALTITUD (msnm)                         : 2570
TIPO DE SUELO                          : DEPOSITOS LACUSTRES
                                       : 
                                       : 
INSTITUCION RESPONSABLE                : UNIVERSIDAD AUTONOMA METROPOLITANA
                                       : 

================================================================================
DATOS DEL ACELEROGRAFO: 
MODELO DEL ACELEROGRAFO                : BASALT KINEMETRICS
NUMERO DE SERIE DEL ACELEROGRAFO       : 978
NUMERO DE CANALES                      : 3
ORIENTACION C1-C6 (rumbo;orientacion)  : /V/N00E/N90E
ORIENTACION C7-C12 (rumbo;orientacion) : 
VEL. DE MUESTREO, C1-C6 (muestras/s)   : /250/250/250
VEL. DE MUESTREO, C7-C12 (muestras/s)  : 
ESC. COMPLETA DE SENSORES, C1-C6, (g)  : /2/2/2
ESC. COMPLETA DE SENSORES, C7-C12 (g)  : 
FREC. NAT. DE SENSORES, C1-C6, (Hz)    : /210/212/212
FREC. NAT. DE SENSORES, C7-C12 (Hz)    : 
AMORTIGUAMIENTO DE SENSORES, C1-C6     : /0.7/0.7/0.7
AMORTIGUAMIENTO DE SENSORES, C7-C12    : 
INTERVALO DE MUESTREO, C1-C6 (s)       : /0.004/0.004/0.004
INTERVALO DE MUESTREO, C7-C12 (s)      : 
UMBRAL DE DISPARO, C1-C6 (Gal)         : /2/2/2
UMBRAL DE DISPARO, C7-C12 (Gal)        : 
MEMORIA DE PREEVENTO (s)               : 20
TIEMPO DE POSEVENTO (s)                : 30


================================================================================
DATOS DEL SISMO:
FECHA DEL SISMO [GMT]                  : 2015/11/23
HORA EPICENTRO (GMT)                   : 20:41:22
MAGNITUD(ES)                           : /M=5.6
COORDENADAS DEL EPICENTRO              : 16.8895 LAT. N
                                       : 98.8985 LONG. W
PROFUNDIDAD FOCAL (Km)                 : 25.6
FUENTE DE LOS DATOS EPICENTRALES       : SSN
                                       : INSTITUTO DE GEOFISICA, UNAM

================================================================================
DATOS DE ESTE REGISTRO:
HORA DE LA PRIMERA MUESTRA (GMT)       : 20:41:54.000
EXACTITUD DEL TIEMPO (s)               : 
DURACION DEL REGISTRO (s), C1-C6       : /155.00/155.00/155.00
DURACION DEL REGISTRO (s), C7-C12      : 
NUM. TOTAL DE MUESTRAS, C1-C6          : /38750/38750/38750
NUM. TOTAL DE MUESTRAS, C7-C12         : 
ACEL. MAX.(Gal), C1-C6                 : /2.997/-6.052/-7.278
ACEL. MAX., C1-C6, EN LA MUESTRA       : /13293/15725/14269
ACEL. MAX.(Gal), C7-C12                : 
ACEL. MAX., C7-C12,EN LA MUESTRA       : 
UNIDADES DE LOS DATOS                  : Gal (cm/s/s)
FACTOR DE DECIMACION                   : 1
FORMATO DATOS (FORTRAN,16 campos/dato) : 3E16.7


================================================================================
CALIDAD DEL ACELEROGRAMA:
REGISTRO DIGITAL COMPLETO CON TIEMPO ABSOLUTO CORRECTO


================================================================================
COMENTARIOS:














================================================================================
DATOS DE ACELERACION:
---------+---------+---------+---------+---------+---------+---------+---------+
   CANAL-1   	   CANAL-2   	      CANAL-3
         V           N00E              N90E
---------+---------+---------+---------+---------+---------+---------+---------+
[...]
  -1.2334191e+00  -2.4995271e-01   2.6727674e+00
  -1.3613545e+00  -3.3177435e-01   2.7648976e+00
  -1.3293708e+00  -3.3902125e-01   2.8766695e+00
  -1.2935349e+00  -4.5228612e-01   2.9451822e+00
  -1.3526001e+00  -6.4316459e-01   3.0264393e+00
  -1.4157506e+00  -7.8494992e-01   3.1142433e+00
  -1.4360615e+00  -8.3100381e-01   3.2039181e+00
  -1.2937683e+00  -9.2498206e-01   3.2821349e+00
  -1.2623682e+00  -1.1254454e+00   3.3849045e+00
  -1.3311216e+00  -1.2675814e+00   3.4149520e+00
  -1.2802276e+00  -1.3296489e+00   3.5080171e+00
  -1.1915130e+00  -1.3994312e+00   3.6010826e+00
  -1.1652489e+00  -1.5418009e+00   3.6111374e+00
  -1.2045868e+00  -1.7403942e+00   3.6937971e+00
  -1.2051704e+00  -1.8368269e+00   3.6941478e+00
  -1.1922137e+00  -1.8746985e+00   3.7257155e+00
  -1.0946276e+00  -2.0271210e+00   3.7812507e+00
  -1.1499574e+00  -2.2072454e+00   3.7479294e+00
  -1.2726403e+00  -2.3002886e+00   3.7549442e+00
  -1.1503075e+00  -2.3421345e+00   3.7585687e+00
  -1.0913594e+00  -2.4482689e+00   3.7523723e+00
  -1.1184405e+00  -2.6405503e+00   3.7107502e+00
  -1.1863769e+00  -2.7768419e+00   3.6637496e+00
  -1.1892953e+00  -2.8003362e+00   3.6179185e+00
  -1.1257943e+00  -2.8321301e+00   3.5563037e+00
  -1.1362999e+00  -3.0017346e+00   3.4797236e+00
  -1.1998009e+00  -3.1322987e+00   3.3718097e+00
  -1.2372713e+00  -3.1210776e+00   3.2948789e+00
  -1.1410858e+00  -3.1388447e+00   3.2019303e+00
  -1.1186739e+00  -3.2515248e+00   3.1026687e+00
  -1.2061042e+00  -3.3990376e+00   2.9980285e+00
  -1.3218999e+00  -3.3991545e+00   2.8956100e+00
  -1.2845466e+00  -3.3649062e+00   2.7839547e+00
  -1.1884782e+00  -3.4521050e+00   2.6690263e+00
  -1.3043906e+00  -3.5361478e+00   2.5706996e+00
  -1.3732612e+00  -3.5698113e+00   2.4098228e+00
  -1.3034569e+00  -3.5121856e+00   2.2926728e+00
  -1.2489441e+00  -3.4843660e+00   2.1758736e+00
  -1.2810446e+00  -3.5361478e+00   2.0185040e+00
  -1.2754416e+00  -3.5569538e+00   1.8836999e+00
  -1.2481271e+00  -3.4752487e+00   1.7276167e+00
  -1.1662994e+00  -3.3535681e+00   1.6125710e+00
  -1.0820210e+00  -3.3682961e+00   1.5115554e+00
  -1.1803070e+00  -3.3885177e+00   1.3648256e+00
  -1.1747041e+00  -3.2648502e+00   1.2296703e+00
  -1.0273915e+00  -3.1012065e+00   1.1551946e+00
  -9.5431864e-01  -3.0544514e+00   1.0443580e+00
  -9.8140013e-01  -3.0641531e+00   9.2323275e-01
  -9.2093425e-01  -2.9718112e+00   8.3788387e-01
  -7.6486688e-01  -2.7916868e+00   7.1897989e-01
  -6.8012119e-01  -2.6742139e+00   6.6110654e-01
  -6.0903296e-01  -2.6659150e+00   5.7037954e-01
  -5.8323540e-01  -2.5916909e+00   4.5591842e-01
  -4.7864605e-01  -2.4073581e+00   4.2224642e-01
  -3.0098345e-01  -2.2487410e+00   3.7267387e-01
  -2.4810518e-01  -2.2183501e+00   3.2894746e-01
  -2.3771628e-01  -2.1683219e+00   2.7855656e-01
  -2.0036260e-01  -1.9934570e+00   2.0910822e-01
  -3.8458828e-02  -1.8413856e+00   2.0185959e-01
   7.5235884e-02  -1.7836426e+00   2.2606093e-01
   4.7220629e-02  -1.7601483e+00   1.9390912e-01
   1.5601269e-01  -1.6356623e+00   2.0162538e-01
   3.0110755e-01  -1.4382382e+00   2.3342687e-01
   3.3449194e-01  -1.3509224e+00   2.4780762e-01
   3.4931661e-01  -1.3901970e+00   2.9913378e-01
   3.5550319e-01  -1.3145703e+00   3.1854194e-01
   3.6028912e-01  -1.1206530e+00   3.5186283e-01
   4.8192121e-01  -1.0857034e+00   4.0845059e-01
   5.4553894e-01  -1.1501085e+00   4.8280903e-01
   4.4631874e-01  -1.1238087e+00   5.2887397e-01
   4.4503481e-01  -9.8704956e-01   5.7610838e-01
   5.7939061e-01  -9.1656598e-01   6.6192489e-01
   6.4149058e-01  -9.8903651e-01   6.9056950e-01
   5.5837936e-01  -1.0335710e+00   7.7965941e-01
   6.1697733e-01  -9.7839973e-01   8.2011242e-01
   7.2401858e-01  -8.8138262e-01   8.4244364e-01
   7.2039986e-01  -9.0452665e-01   9.8414608e-01
   7.2950484e-01  -1.0181418e+00   1.0181688e+00
   7.3102220e-01  -9.8891963e-01   1.0317308e+00
   8.6315992e-01  -8.6396646e-01   1.1167290e+00
   9.6156308e-01  -8.9552617e-01   1.1999735e+00
   9.4778889e-01  -1.0703910e+00   1.2818148e+00
   1.0210952e+00  -1.1084964e+00   1.3051982e+00
   1.1579021e+00  -1.0057518e+00   1.3364148e+00
   1.2378619e+00  -1.0022450e+00   1.4183729e+00
   1.2984445e+00  -1.1543165e+00   1.4619828e+00
   1.3826066e+00  -1.2539053e+00   1.4629181e+00
   1.4332672e+00  -1.1886817e+00   1.5043064e+00
   1.6469987e+00  -1.1533815e+00   1.5432396e+00
   1.6878540e+00  -1.2106565e+00   1.5661553e+00
   1.6140812e+00  -1.3195965e+00   1.6233273e+00
   1.7979300e+00  -1.3264927e+00   1.6088296e+00
   1.8325987e+00  -1.2066826e+00   1.6274194e+00
   1.8822088e+00  -1.2368398e+00   1.7193155e+00
   1.9987048e+00  -1.3907813e+00   1.7271490e+00
   2.0026737e+00  -1.4371859e+00   1.7370865e+00
   2.1394806e+00  -1.3225189e+00   1.7508828e+00
   2.2019312e+00  -1.3121158e+00   1.7880624e+00
   2.1301422e+00  -1.4470045e+00   1.8075870e+00
   2.2002967e+00  -1.5229822e+00   1.7584825e+00
   2.3075714e+00  -1.4756422e+00   1.7878285e+00
   2.4407596e+00  -1.4111199e+00   1.8131994e+00
   2.5154665e+00  -1.5359566e+00   1.8290999e+00
   2.5069452e+00  -1.6434936e+00   1.8130825e+00
   2.5597071e+00  -1.5474115e+00   1.7905174e+00
   2.5618081e+00  -1.4363677e+00   1.8375176e+00
   2.6158539e+00  -1.5090724e+00   1.8181099e+00
   2.6199395e+00  -1.6191811e+00   1.8349457e+00
   2.6162041e+00  -1.6077258e+00   1.8652270e+00
   2.7305991e+00  -1.5207611e+00   1.8264107e+00
   2.7523107e+00  -1.4565894e+00   1.8660453e+00
   2.7155410e+00  -1.5800235e+00   1.9399365e+00
   2.6289278e+00  -1.5808417e+00   1.8880254e+00
   2.7297821e+00  -1.4786815e+00   1.8585629e+00
   2.8747602e+00  -1.4662911e+00   1.8988990e+00
   2.6968642e+00  -1.4370690e+00   1.8924683e+00
   2.6219238e+00  -1.5214624e+00   1.8969112e+00
   2.7043351e+00  -1.4433813e+00   1.8647593e+00
   2.6638300e+00  -1.2977385e+00   1.9117595e+00
   2.6124687e+00  -1.3505718e+00   1.9515111e+00
   2.4925878e+00  -1.3641310e+00   1.9329213e+00
   2.3898656e+00  -1.2714388e+00   1.9683469e+00
   2.5116144e+00  -1.1053406e+00   1.9429761e+00
   2.4545338e+00  -1.0924827e+00   2.0059941e+00
   2.2779220e+00  -1.1400561e+00   2.0114892e+00
   2.3344190e+00  -1.0347402e+00   1.9414563e+00
   2.3352361e+00  -8.9891606e-01   1.9697502e+00
   2.3534460e+00  -8.2831559e-01   1.9371303e+00
   2.2991667e+00  -8.7331718e-01   1.9264910e+00
   2.1355117e+00  -8.3848486e-01   1.8735282e+00
   2.2418527e+00  -6.9646538e-01   1.7911019e+00
   2.3054700e+00  -6.0353944e-01   1.7926221e+00
   2.2357824e+00  -6.4409962e-01   1.7590670e+00
   2.1650444e+00  -6.8173744e-01   1.7214198e+00
   2.1508037e+00  -5.5234247e-01   1.6654170e+00
   2.2320474e+00  -4.7391032e-01   1.6413321e+00
   2.1442666e+00  -4.6444233e-01   1.6330313e+00
   2.0609219e+00  -5.6718729e-01   1.5510731e+00
   2.0404943e+00  -4.9985944e-01   1.4542662e+00
   2.0338404e+00  -3.6567204e-01   1.4119427e+00
   2.1380800e+00  -5.4591333e-01   1.3651763e+00
   2.0344240e+00  -5.2183467e-01   1.1982195e+00
   1.8608474e+00  -4.8127449e-01   1.1277190e+00
   1.9300681e+00  -4.5415618e-01   1.0601416e+00
   1.9585499e+00  -4.0740101e-01   9.2182987e-01
   1.8406532e+00  -5.8062917e-01   8.6582664e-01
   1.6883209e+00  -5.7571986e-01   7.4610470e-01
   1.6416292e+00  -4.8232640e-01   6.5794966e-01
   1.6859865e+00  -4.7168962e-01   5.8581246e-01
   1.5519809e+00  -5.9056468e-01   4.8000326e-01
   1.4043182e+00  -6.4351523e-01   3.7431096e-01
   1.3291443e+00  -5.3422464e-01   2.6908629e-01
   1.1491473e+00  -4.7683269e-01   2.1097874e-01
   1.1127278e+00  -5.2604232e-01   1.0189613e-01
   1.0027685e+00  -6.5473640e-01  -1.2915703e-02
   6.7837737e-01  -5.4918634e-01  -1.1346369e-01
   6.7382488e-01  -4.2014162e-01  -2.0430760e-01
   6.3752169e-01  -5.0044383e-01  -2.8392764e-01
   4.2985998e-01  -5.8717519e-01  -4.0224669e-01
   3.4558117e-01  -5.3235457e-01  -4.9063555e-01
   2.8044607e-01  -3.5409983e-01  -5.8954684e-01
   2.6935685e-01  -3.7619194e-01  -6.9208225e-01
   1.2286135e-01  -4.7554663e-01  -7.4855272e-01
  -3.9976194e-02  -4.3603875e-01  -8.7470533e-01
  -1.2192060e-01  -3.0150031e-01  -9.9547983e-01
  -1.4725089e-01  -1.9945702e-01  -1.0575626e+00
  -2.4425301e-01  -2.5240717e-01  -1.1576430e+00
  -4.5296560e-01  -2.9846107e-01  -1.2529294e+00
  -4.6148658e-01  -1.8531347e-01  -1.3673905e+00
  -5.0934588e-01   2.9059661e-02  -1.4574160e+00
  -5.9304070e-01   2.3449072e-02  -1.5034810e+00
  -6.7848671e-01  -6.1996216e-02  -1.6276462e+00
  -7.9883488e-01   6.6931235e-02  -1.7525128e+00
  -8.2626653e-01   2.4261425e-01  -1.8203241e+00
  -8.9875541e-01   3.1391599e-01  -1.9032179e+00
  -1.0273915e+00   2.5582276e-01  -2.0191988e+00
  -1.1468059e+00   3.5669727e-01  -2.1490924e+00
  -1.1636148e+00   5.8860344e-01  -2.2642550e+00
  -1.2030695e+00   6.7498376e-01  -2.3561515e+00
  -1.3417439e+00   6.7299682e-01  -2.4664031e+00
  -1.4427149e+00   7.2057014e-01  -2.6079891e+00
  -1.4702633e+00   9.1998157e-01  -2.7550696e+00
  -1.5251262e+00   1.0904046e+00  -2.8756103e+00
  -1.6838782e+00   1.1233669e+00  -2.9703125e+00
  -1.8095959e+00   1.1520046e+00  -3.1500126e+00
  -1.8635250e+00   1.3190378e+00  -3.3200089e+00
  -1.8928242e+00   1.5331772e+00  -3.4275717e+00
  -1.9841066e+00   1.5690618e+00  -3.5603888e+00
  -2.1453101e+00   1.5675424e+00  -3.6992851e+00
  -2.2769809e+00   1.6970542e+00  -3.9278566e+00
  -2.3117663e+00   1.9090894e+00  -4.0827707e+00
  -2.3799365e+00   2.0173280e+00  -4.1685872e+00
  -2.5746415e+00   2.0061069e+00  -4.3754120e+00
  -2.5716064e+00   2.0805643e+00  -4.5811847e+00
  -2.4998178e+00   2.2601048e+00  -4.7133000e+00
  -2.5075218e+00   2.4184885e+00  -4.8249549e+00
  -2.5454590e+00   2.4056306e+00  -4.9902746e+00
  -2.5842134e+00   2.4252679e+00  -5.1522035e+00
  -2.4835925e+00   2.6077303e+00  -5.3264089e+00
  -2.4882613e+00   2.7366581e+00  -5.4636685e+00
  -2.4831252e+00   2.7262551e+00  -5.5656193e+00
  -2.5466262e+00   2.6664083e+00  -5.7346804e+00
  -2.5431242e+00   2.8048037e+00  -5.9162513e+00
  -2.3303264e+00   2.9048601e+00  -6.0566678e+00
  -2.3549564e+00   2.9062626e+00  -6.1431857e+00
  -2.3498203e+00   2.8980807e+00  -6.2852389e+00
  -2.2647245e+00   2.8832359e+00  -6.4158344e+00
  -2.1463605e+00   3.0995959e+00  -6.5362581e+00
  -2.0918482e+00   3.1545334e+00  -6.6023158e+00
  -2.0870623e+00   3.0971411e+00  -6.7263641e+00
  -2.0735215e+00   3.0692050e+00  -6.8777706e+00
  -2.0452728e+00   3.1581571e+00  -6.9067659e+00
  -1.8915403e+00   3.2824090e+00  -7.0706823e+00
  -1.9772197e+00   3.1585077e+00  -7.0525601e+00
  -1.9563252e+00   3.1855087e+00  -7.1656183e+00
  -1.9136020e+00   3.1475199e+00  -7.2378724e+00
  -1.8499843e+00   3.2677979e+00  -7.1180332e+00
  -1.8046932e+00   3.2612523e+00  -7.2561115e+00
  -2.0423548e+00   3.0403335e+00  -7.1055233e+00
  -2.0041841e+00   3.2375239e+00  -7.1934442e+00
  -1.8869878e+00   3.1256619e+00  -7.2784423e+00
  -1.6723220e+00   3.0797249e+00  -7.1662029e+00
  -1.8325917e+00   3.1441304e+00  -7.1812851e+00
  -1.9082325e+00   3.0122806e+00  -7.1506530e+00
  -1.6000666e+00   3.0833486e+00  -7.1907553e+00
  -1.8188175e+00   3.1126872e+00  -6.9326043e+00
  -1.8112303e+00   3.0106439e+00  -6.9621842e+00
  -1.8604903e+00   2.8488707e+00  -6.8820965e+00
  -1.8529027e+00   2.9893703e+00  -6.7527870e+00
  -1.7386243e+00   2.9728892e+00  -6.8173249e+00
  -1.8067946e+00   2.7581654e+00  -6.4835287e+00
  -1.6347353e+00   2.7700879e+00  -6.4828273e+00
  -1.6553964e+00   2.6832400e+00  -6.3272117e+00
  -1.5022471e+00   2.6776294e+00  -6.0910408e+00
  -1.5139203e+00   2.5552476e+00  -5.9734232e+00
  -1.5914285e+00   2.3912533e+00  -5.7701060e+00
  -1.4511196e+00   2.3773435e+00  -5.7386552e+00
  -1.4421313e+00   2.3291858e+00  -5.5139424e+00
  -1.3129120e+00   2.2222332e+00  -5.3856851e+00
  -1.3890196e+00   2.0034183e+00  -5.2348631e+00
  -1.4242719e+00   1.9623906e+00  -5.0338841e+00
  -1.3465299e+00   1.9802746e+00  -4.9104207e+00
  -1.2371546e+00   1.8300732e+00  -4.7081557e+00
  -1.1421367e+00   1.6091545e+00  -4.5445896e+00
  -1.2216292e+00   1.5159944e+00  -4.3910788e+00
  -1.1609299e+00   1.5092150e+00  -4.2540530e+00
  -9.6342362e-01   1.3646242e+00  -4.0301582e+00
  -9.0844399e-01   1.1869542e+00  -3.8226319e+00
  -1.0019445e+00   1.0300903e+00  -3.6347476e+00
  -8.6513757e-01   1.0147780e+00  -3.4640499e+00
  -7.3790211e-01   9.7550345e-01  -3.2795559e+00
  -6.7124965e-01   7.4955851e-01  -3.0468926e+00
  -7.0089899e-01   5.8275909e-01  -2.8843791e+00
  -7.3778539e-01   5.5166690e-01  -2.7067831e+00
  -6.1498610e-01   5.1718482e-01  -2.4971525e+00
  -6.5654170e-01   3.5599599e-01  -2.2975763e+00
  -4.1187648e-01   1.5798711e-01  -2.1793737e+00
  -4.6393810e-01   1.0269898e-01  -1.9142079e+00
  -6.3459670e-01   1.5997445e-01  -1.7086691e+00
  -1.5588859e-01  -4.2709596e-02  -1.6405067e+00
  -7.0325857e-02  -2.4527715e-01  -1.3704305e+00
  -2.1402007e-01  -2.5462827e-01  -1.2180887e+00
   2.5625782e-02  -3.2873510e-01  -1.1019905e+00
   2.1227625e-01  -3.6871089e-01  -8.9306132e-01
   1.9686798e-01  -5.6835608e-01  -7.2329881e-01
   3.6285736e-01  -7.0184221e-01  -5.8638996e-01
   4.6639622e-01  -6.7215257e-01  -4.2294122e-01
   5.8581062e-01  -7.3550614e-01  -2.4031775e-01
   8.6222615e-01  -8.4456296e-01  -1.2562321e-01
   8.5347134e-01  -1.0111286e+00   5.8052425e-02
   9.7335263e-01  -9.9230952e-01   1.5404064e-01
   1.0819112e+00  -9.6437345e-01   2.8603901e-01
   1.2481341e+00  -1.1027689e+00   4.6492106e-01
   1.3826066e+00  -1.2357875e+00   5.2805562e-01
   1.2571223e+00  -1.2655940e+00   6.9162166e-01
   1.4361852e+00  -1.1954611e+00   7.6855244e-01
   1.5658718e+00  -1.2989073e+00   8.8979457e-01
   1.6335751e+00  -1.4387057e+00   1.0277560e+00
   1.6438473e+00  -1.4737722e+00   1.0780300e+00
   1.7253244e+00  -1.4413939e+00   1.1917893e+00
   1.9034535e+00  -1.3986130e+00   1.2466230e+00
   1.9154769e+00  -1.5418009e+00   1.3724249e+00
   1.9857481e+00  -1.6287660e+00   1.4300648e+00
   1.9150100e+00  -1.5497495e+00   1.4525126e+00
   2.0383929e+00  -1.5207611e+00   1.5330679e+00
   2.1220881e+00  -1.6017646e+00   1.5910581e+00
   2.0329067e+00  -1.7287051e+00   1.6485812e+00
   2.0574199e+00  -1.6939897e+00   1.5950334e+00
   2.0214673e+00  -1.5893746e+00   1.6613248e+00
   2.0751626e+00  -1.6485198e+00   1.7232907e+00
   1.9160605e+00  -1.7658758e+00   1.6872806e+00
   1.8134550e+00  -1.7875000e+00   1.7182633e+00
   1.7807709e+00  -1.6894310e+00   1.7167431e+00
   1.6991771e+00  -1.6946909e+00   1.7653804e+00
   1.7075813e+00  -1.8270083e+00   1.8060672e+00
   1.4738890e+00  -1.8506198e+00   1.7850224e+00
   1.4204267e+00  -1.8236184e+00   1.7737985e+00
   1.4250960e+00  -1.7621353e+00   1.8165897e+00
   1.2689119e+00  -1.7957992e+00   1.8680327e+00
   1.1719098e+00  -1.9428445e+00   1.8492095e+00
   1.0800433e+00  -1.8827639e+00   1.8386871e+00
   1.0541294e+00  -1.7596808e+00   1.8630053e+00
   9.6459820e-01  -1.7919418e+00   1.8962097e+00
   8.7530002e-01  -1.9158434e+00   1.8639410e+00
   7.6767516e-01  -1.9184148e+00   1.8537693e+00
   6.8759868e-01  -1.7676290e+00   1.9011202e+00
   7.0615879e-01  -1.7675121e+00   1.9353767e+00
   5.8884575e-01  -1.8923488e+00   1.9953548e+00
   4.4235024e-01  -1.9150249e+00   1.9736081e+00
   4.2460717e-01  -1.7893701e+00   1.9715038e+00
   4.6581262e-01  -1.7403942e+00   2.0201411e+00
   3.4418052e-01  -1.8140335e+00   2.0605941e+00
   2.2429924e-01  -1.8633604e+00   2.0790666e+00
   2.3340421e-01  -1.8326189e+00   2.0186209e+00
   2.3783998e-01  -1.7202894e+00   2.0818728e+00
