**************************************************************************************
            UNIVERSIDAD AUTONOMA METROPOLITANA - AZCAPOTZALCO
                        Departamento de Materiales
                           Area de Estructuras
     AV. SAN PABLO 180,COL.REYNOSA, AZCAPOTZALCO, C.P.02200 CIUDAD DE MEXICO.
**************************************************************************************
ARCHIVO ESTANDAR DE ACELERACION:
VERSION DEL FORMATO                    : 2.0
NOMBRE DEL ARCHIVO                     : RIML201509301
FECHA Y HORA DE CREACION               : 11:38 a. m. 01/10/2015
REF. CATALOGO ACELEROGRAMAS, SMIS 1995 : REGISTRO NO.      /PAG.    


================================================================================
DATOS DE LA ESTACION:
NOMBRE DE LA ESTACION                  : UAM-LERMA.
CLAVE DE LA ESTACION                   : RIML
LOCALIZACION DE LA ESTACION            : AV. DE LAS GARZAS 10, EL PANTEON, C.P.52005,
                                       : LERMA DE VILLADA, ESTADO DE MEXICO. 
                                       :
                                       : 
                                       : 
COORDENADAS DE LA ESTACION             : 19.291481 LAT. N
                                       : 99.502060 LONG. W
ALTITUD (msnm)                         : 2570
TIPO DE SUELO                          : DEPOSITOS LACUSTRES
                                       : 
                                       : 
INSTITUCION RESPONSABLE                : UNIVERSIDAD AUTONOMA METROPOLITANA
                                       : 

================================================================================
DATOS DEL ACELEROGRAFO: 
MODELO DEL ACELEROGRAFO                : BASALT KINEMETRICS
NUMERO DE SERIE DEL ACELEROGRAFO       : 978
NUMERO DE CANALES                      : 3
ORIENTACION C1-C6 (rumbo;orientacion)  : /V/N00E/N90E
ORIENTACION C7-C12 (rumbo;orientacion) : 
VEL. DE MUESTREO, C1-C6 (muestras/s)   : /250/250/250
VEL. DE MUESTREO, C7-C12 (muestras/s)  : 
ESC. COMPLETA DE SENSORES, C1-C6, (g)  : /2/2/2
ESC. COMPLETA DE SENSORES, C7-C12 (g)  : 
FREC. NAT. DE SENSORES, C1-C6, (Hz)    : /210/212/212
FREC. NAT. DE SENSORES, C7-C12 (Hz)    : 
AMORTIGUAMIENTO DE SENSORES, C1-C6     : /0.7/0.7/0.7
AMORTIGUAMIENTO DE SENSORES, C7-C12    : 
INTERVALO DE MUESTREO, C1-C6 (s)       : /0.004/0.004/0.004
INTERVALO DE MUESTREO, C7-C12 (s)      : 
UMBRAL DE DISPARO, C1-C6 (Gal)         : /2/2/2
UMBRAL DE DISPARO, C7-C12 (Gal)        : 
MEMORIA DE PREEVENTO (s)               : 20
TIEMPO DE POSEVENTO (s)                : 30


================================================================================
DATOS DEL SISMO:
FECHA DEL SISMO [GMT]                  : 2015/09/30
HORA EPICENTRO (GMT)                   : 17:25:54
MAGNITUD(ES)                           : /M=5.5
COORDENADAS DEL EPICENTRO              : 17.8388 LAT. N
                                       : 101.523 LONG. W
PROFUNDIDAD FOCAL (Km)                 : 49.5
FUENTE DE LOS DATOS EPICENTRALES       : SSN
                                       : INSTITUTO DE GEOFISICA, UNAM

================================================================================
DATOS DE ESTE REGISTRO:
HORA DE LA PRIMERA MUESTRA (GMT)       : 17:26:35.000
EXACTITUD DEL TIEMPO (s)               : 
DURACION DEL REGISTRO (s), C1-C6       : /109.00/109.00/109.00
DURACION DEL REGISTRO (s), C7-C12      : 
NUM. TOTAL DE MUESTRAS, C1-C6          : /27250/27250/27250
NUM. TOTAL DE MUESTRAS, C7-C12         : 
ACEL. MAX.(Gal), C1-C6                 : /-1.674/3.476/-3.749
ACEL. MAX., C1-C6, EN LA MUESTRA       : 9698/13123/10909
ACEL. MAX.(Gal), C7-C12                : 
ACEL. MAX., C7-C12,EN LA MUESTRA       : 
UNIDADES DE LOS DATOS                  : Gal (cm/s/s)
FACTOR DE DECIMACION                   : 1
FORMATO DATOS (FORTRAN,16 campos/dato) : 3E16.7


================================================================================
CALIDAD DEL ACELEROGRAMA:
REGISTRO DIGITAL COMPLETO CON TIEMPO ABSOLUTO CORRECTO


================================================================================
COMENTARIOS:














================================================================================
DATOS DE ACELERACION:
---------+---------+---------+---------+---------+---------+---------+---------+
   CANAL-1   	   CANAL-2   	      CANAL-3
         V           N00E              N90E
---------+---------+---------+---------+---------+---------+---------+---------+
[...]
   4.6650093e-01  -1.2969672e+00   9.5014433e-01
   4.2459516e-01  -1.2139767e+00   9.1787561e-01
   6.5641996e-01  -1.0672817e+00   8.7134304e-01
   6.9447396e-01  -1.1250247e+00   6.9643622e-01
   7.5190472e-01  -9.7634269e-01   7.7851131e-01
   8.2976351e-01  -8.5302583e-01   6.9643622e-01
   6.9202243e-01  -9.1731443e-01   5.9156227e-01
   7.0217790e-01  -6.5256249e-01   5.9366700e-01
   6.0003968e-01  -6.2801591e-01   5.1954198e-01
   6.3692608e-01  -6.2614585e-01   5.0013383e-01
   4.8902993e-01  -3.7156317e-01   4.5710886e-01
   4.7829087e-01  -3.6490067e-01   4.3407619e-01
   4.2681285e-01  -2.6063628e-01   3.9631205e-01
   3.0926636e-01  -7.2913934e-02   3.5960046e-01
   3.0774900e-01  -2.6641053e-03   3.4779205e-01
   1.1316076e-01   1.3619925e-01   3.1026172e-01
   1.3339641e-03   2.5308736e-01   3.0044074e-01
  -2.3142499e-01   4.4197850e-01   3.2464248e-01
  -1.7726240e-01   4.4642030e-01   3.0757286e-01
  -3.0414731e-01   6.3274009e-01   3.4077684e-01
  -4.2566268e-01   8.5739937e-01   4.1162845e-01
  -2.8220230e-01   8.0842310e-01   3.8403601e-01
  -4.6908620e-01   1.0066657e+00   4.3945431e-01
  -4.6138187e-01   1.1440093e+00   5.3941777e-01
  -5.0200372e-01   1.2630016e+00   5.5052473e-01
  -5.6737225e-01   1.3369916e+00   6.1833636e-01
  -5.6970705e-01   1.4527109e+00   7.1619510e-01
  -6.2783814e-01   1.5949641e+00   7.6401404e-01
  -6.3157358e-01   1.6419531e+00   8.4316606e-01
  -6.2713781e-01   1.8151812e+00   9.1705726e-01
  -6.0052360e-01   1.8564427e+00   1.0271924e+00
  -6.2141812e-01   1.9077569e+00   1.1034218e+00
  -5.6900673e-01   2.1038953e+00   1.1857307e+00
  -5.6573817e-01   2.0913881e+00   1.3447369e+00
  -4.9768506e-01   2.1155840e+00   1.3582993e+00
  -4.5391137e-01   2.2980464e+00   1.4940391e+00
  -4.1574066e-01   2.2279135e+00   1.6362092e+00
  -3.3951634e-01   2.3516982e+00   1.6549155e+00
  -5.6153584e-01   2.3518151e+00   1.8102973e+00
  -3.8877628e-01   2.3183850e+00   1.9435820e+00
  -3.0414731e-01   2.4816780e+00   2.0163037e+00
  -5.6025191e-01   2.3826736e+00   2.1309987e+00
  -4.7865806e-01   2.4571314e+00   2.2578527e+00
  -5.7332578e-01   2.4168050e+00   2.2734025e+00
  -4.1340625e-01   2.4687032e+00   2.3311594e+00
  -2.9142360e-01   2.4897430e+00   2.4267969e+00
  -4.2998173e-01   2.4496504e+00   2.4763694e+00
  -4.3430077e-01   2.4609888e+00   2.5163548e+00
  -4.8274367e-01   2.3886348e+00   2.5223175e+00
  -4.1258921e-01   2.4575989e+00   2.5259420e+00
  -5.2429928e-01   2.2892797e+00   2.5575093e+00
  -4.8099247e-01   2.3892192e+00   2.5773850e+00
  -3.8959332e-01   2.3253985e+00   2.4954265e+00
  -4.4994249e-01   2.2547980e+00   2.4502968e+00
  -4.9254897e-01   2.2219522e+00   2.3953465e+00
  -2.6154121e-01   2.0625166e+00   2.4484263e+00
  -8.7047767e-03   2.2405376e+00   2.3686893e+00
  -6.8120178e-02   1.9526420e+00   2.2133076e+00
   6.7169381e-02   1.9965917e+00   2.2779623e+00
  -1.0045448e-01   1.9463298e+00   2.0330230e+00
   7.0904826e-02   1.7235409e+00   1.8729646e+00
   2.2580459e-01   1.8543389e+00   1.8668850e+00
   1.8891819e-01   1.6091073e+00   1.6664905e+00
   5.6863954e-01   1.6126141e+00   1.5441958e+00
   4.0346719e-01   1.5323118e+00   1.4478569e+00
   4.4373888e-01   1.4120338e+00   1.2261837e+00
   5.3957380e-01   1.3663306e+00   1.0857672e+00
   5.0618901e-01   1.1988299e+00   9.8954518e-01
   6.8957131e-01   1.1673871e+00   7.4869764e-01
   6.1393059e-01   1.0040940e+00   6.9000593e-01
   5.3665539e-01   9.3875349e-01   5.3930086e-01
   5.6747194e-01   8.1461809e-01   3.0067455e-01
   8.8112442e-01   6.7154709e-01   1.5125585e-01
   1.0576194e+00   6.9352193e-01  -5.1476831e-02
   1.0862183e+00   5.3244998e-01  -1.8242303e-01
   1.2083173e+00   4.4326456e-01  -3.3815551e-01
   1.0310052e+00   4.0504196e-01  -4.1344959e-01
   1.0234176e+00   2.4876245e-01  -5.7000041e-01
   9.6178451e-01   2.0282543e-01  -6.6727500e-01
   9.0423663e-01   9.3768603e-02  -7.6829062e-01
   9.9575290e-01   2.1999345e-02  -8.6720152e-01
   5.9245207e-01  -3.3288782e-02  -9.6166994e-01
   7.0696383e-01  -3.2808101e-01  -1.2406324e+00
   9.5069528e-01  -2.8716979e-01  -9.3828694e-01
   8.5976302e-01  -2.2825841e-01  -1.0168544e+00
   8.2976351e-01  -5.4864873e-01  -1.4003397e+00
   4.4023687e-01  -5.0738727e-01  -1.1169348e+00
   5.4342596e-01  -5.1007588e-01  -1.1280418e+00
   6.8945458e-01  -6.8704457e-01  -1.2815530e+00
   4.8249280e-01  -6.9277203e-01  -1.2975704e+00
   4.8494432e-01  -7.5133317e-01  -1.2094154e+00
   6.4486385e-01  -8.3257042e-01  -1.1158826e+00
   7.0369526e-01  -8.8926109e-01  -1.1131934e+00
   4.6988621e-01  -8.1024455e-01  -1.0716882e+00
   3.9494582e-01  -9.6371896e-01  -1.0293647e+00
   4.4934185e-01  -1.0017074e+00  -8.9479396e-01
   4.6661765e-01  -8.9183283e-01  -8.5586074e-01
   3.4019963e-01  -1.0057986e+00  -8.2090276e-01
   2.6992844e-01  -9.3765296e-01  -7.7062876e-01
   3.2023887e-01  -9.4419858e-01  -6.1103835e-01
   3.8362315e-01  -8.8236483e-01  -4.8126122e-01
   2.8942232e-01  -8.4998658e-01  -5.3282120e-01
   1.7561089e-01  -8.2567377e-01  -3.4610598e-01
   2.5510377e-01  -7.1299369e-01  -2.3795863e-01
   1.3428872e-01  -7.0703246e-01  -1.6535341e-01
   1.0008689e-01  -5.3871322e-01  -3.3939583e-02
  -2.6214409e-02  -5.3041442e-01   4.7598200e-03
  -7.2789387e-02  -4.3877414e-01   2.1357206e-01
  -3.5202665e-02  -2.5677888e-01   2.6782129e-01
  -3.3274616e-01  -1.4561822e-01   3.3691890e-01
  -6.5550323e-01   1.1713200e-02   4.8762398e-01
  -7.0628054e-01  -2.2301363e-02   4.7990732e-01
  -3.1687101e-01   5.2624022e-02   6.1716690e-01
  -6.6252651e-02   2.5951611e-01   7.0134671e-01
  -4.0441799e-01   6.3110378e-01   7.4063065e-01
  -1.0271701e+00   4.9714975e-01   6.7153304e-01
  -1.0856517e+00   4.4922579e-01   7.7348391e-01
  -1.0837838e+00   1.0602003e+00   9.2559226e-01
  -1.1645606e+00   7.7335663e-01   7.1409077e-01
  -1.1821870e+00   9.8001495e-01   9.2301992e-01
  -1.3495770e+00   1.2388057e+00   8.4620604e-01
  -8.3001399e-01   9.5278016e-01   6.7071469e-01
  -8.4845699e-01   1.5556896e+00   9.1682344e-01
  -1.1779846e+00   1.4061895e+00   6.9047356e-01
  -1.1657278e+00   1.4518927e+00   6.4031648e-01
  -1.5113640e+00   1.7643349e+00   6.1833636e-01
  -1.3651020e+00   1.5839763e+00   5.1346242e-01
  -1.1868562e+00   1.8922108e+00   5.6046262e-01
  -1.1505530e+00   1.8242986e+00   3.1587405e-01
  -1.0624224e+00   1.9345242e+00   2.2117181e-01
  -1.1821870e+00   2.0346974e+00   1.8048499e-01
  -1.0205166e+00   2.0303725e+00   7.4486843e-03
  -1.0213337e+00   2.2356283e+00  -1.7599274e-01
  -1.1670121e+00   2.1096228e+00  -3.1068037e-01
  -1.1328103e+00   2.2569018e+00  -3.7545202e-01
  -1.0556522e+00   2.3303078e+00  -5.2685854e-01
  -6.1079578e-01   2.2842535e+00  -7.1006616e-01
  -5.6818969e-01   2.4369098e+00  -8.6778644e-01
  -8.0293250e-01   2.5289007e+00  -9.3817004e-01
  -7.0324541e-01   2.4978085e+00  -1.1658059e+00
  -7.7888613e-01   2.4781712e+00  -1.3206031e+00
  -6.9997724e-01   2.5417586e+00  -1.3283194e+00
  -6.9087226e-01   2.5899163e+00  -1.5059151e+00
  -7.7036515e-01   2.6055793e+00  -1.6161671e+00
  -7.6161033e-01   2.5609279e+00  -1.7399816e+00
  -8.1565620e-01   2.6277882e+00  -1.8219398e+00
  -7.5694112e-01   2.6171515e+00  -1.9136020e+00
  -6.5888851e-01   2.5892150e+00  -2.0619690e+00
  -6.3962808e-01   2.6149304e+00  -2.1067479e+00
  -7.3966532e-01   2.5857082e+00  -2.1688303e+00
  -7.0359597e-01   2.6200734e+00  -2.2165324e+00
  -7.6499561e-01   2.5589410e+00  -2.2733536e+00
  -7.0896550e-01   2.5280825e+00  -2.2843436e+00
  -6.1476467e-01   2.5634996e+00  -2.2677416e+00
  -6.3005622e-01   2.4788725e+00  -2.2865649e+00
  -5.9293599e-01   2.4560795e+00  -2.2635326e+00
  -6.3169030e-01   2.4448579e+00  -2.2205072e+00
  -5.1752871e-01   2.3550881e+00  -2.1558525e+00
  -5.0982477e-01   2.3931935e+00  -2.0855862e+00
  -3.7978802e-01   2.3246968e+00  -2.0502771e+00
  -3.3461369e-01   2.2830847e+00  -1.9905332e+00
  -2.4624966e-01   2.2718635e+00  -1.8922065e+00
  -6.5201775e-02   2.2138868e+00  -1.8001935e+00
  -1.2309981e-01   2.1986913e+00  -1.6934490e+00
  -6.7072832e-05   2.1050641e+00  -1.5990975e+00
  -3.7770515e-02   2.1298445e+00  -1.4822982e+00
   3.7850932e-03   2.0142420e+00  -1.3660835e+00
   1.2635134e-01   2.0000985e+00  -1.2648337e+00
   1.9510477e-01   1.9719282e+00  -1.1463977e+00
   2.7039532e-01   1.8759631e+00  -1.0664270e+00
   2.5813890e-01   1.8922108e+00  -9.4857556e-01
   3.7300081e-01   1.7741535e+00  -8.2347511e-01
   4.2167676e-01   1.7602437e+00  -7.0842946e-01
   5.1587759e-01   1.6634604e+00  -5.8099086e-01
   5.5719976e-01   1.6417193e+00  -4.8850986e-01
   4.6731797e-01   1.5742746e+00  -3.9263855e-01
   4.9965227e-01   1.5314937e+00  -3.2389205e-01
   4.6556717e-01   1.4889462e+00  -2.4637634e-01
   4.1969251e-01   1.3898252e+00  -1.8382631e-01
   4.4747432e-01   1.3863185e+00  -1.7248514e-01
   4.4875825e-01   1.2298052e+00  -1.2244535e-01
   4.7852431e-01   1.2570400e+00  -1.0525843e-01
   3.9728062e-01   1.1346582e+00  -9.4736004e-02
   3.6459616e-01   1.0775000e+00  -8.7370462e-02
   3.7813690e-01   1.0506154e+00  -1.3168141e-01
   3.5047181e-01   9.2764920e-01  -1.4360711e-01
   3.5444070e-01   9.4857212e-01  -2.0522188e-01
   2.8942232e-01   8.2689157e-01  -2.5830204e-01
   2.1471537e-01   7.8025328e-01  -2.8986932e-01
   1.2191557e-01   6.9024931e-01  -3.7439986e-01
   1.6417150e-01   6.7376779e-01  -4.3531319e-01
   1.3895793e-01   6.0258293e-01  -5.3562736e-01
   1.3031984e-01   5.5863325e-01  -6.6739191e-01
   1.1993093e-01   5.7090634e-01  -7.7951449e-01
   4.6158136e-02   4.8978597e-01  -9.0157496e-01
   1.4958027e-01   4.9820205e-01  -1.0598798e+00
   1.3849105e-01   4.5483638e-01  -1.1764452e+00
   1.4467762e-01   4.8078550e-01  -1.2893862e+00
   6.0515924e-02   4.2491297e-01  -1.4478079e+00
   4.8025663e-02   4.1544498e-01  -1.5618010e+00
   8.2344212e-02   4.0480820e-01  -1.7183522e+00
   6.7869703e-02   3.7196282e-01  -1.8805150e+00
   1.2728510e-01   3.8458655e-01  -2.0188267e+00
   6.0048651e-02   3.1714221e-01  -2.1916292e+00
   5.9931931e-02   3.4765001e-01  -2.3300578e+00
   3.8687245e-02   2.9481634e-01  -2.4476754e+00
   4.7558781e-02   2.7482845e-01  -2.6097217e+00
   1.4524157e-02   2.7856897e-01  -2.7580882e+00
   6.5768736e-02   2.4221682e-01  -2.8757058e+00
   9.8336087e-02   2.3625560e-01  -3.0188116e+00
   1.4222650e-01   2.1252718e-01  -3.1419242e+00
   2.3922862e-01   2.0668283e-01  -3.2277407e+00
   2.1891770e-01   1.2626374e-01  -3.3199879e+00
   3.1253493e-01   1.1422401e-01  -3.4264985e+00
   2.3876174e-01   7.5651166e-02  -3.4682375e+00
   2.9782698e-01  -1.7742686e-02  -3.5498450e+00
   2.7494781e-01  -1.6457016e-02  -3.6296988e+00
   2.5930610e-01  -1.0552556e-01  -3.6498084e+00
   2.9981122e-01  -1.6689218e-01  -3.7291947e+00
   2.1880098e-01  -2.0043884e-01  -3.7360926e+00
   3.4043307e-01  -2.7781907e-01  -3.7494212e+00
   2.2347018e-01  -3.1674256e-01  -3.7421725e+00
   2.4880048e-01  -3.7892734e-01  -3.7290778e+00
   2.7483109e-01  -4.1399381e-01  -3.7307145e+00
   1.2366638e-01  -5.0306235e-01  -3.6498084e+00
   1.0055378e-01  -5.3134945e-01  -3.6323881e+00
   1.3043656e-01  -5.8920892e-01  -3.5905318e+00
   1.3662352e-01  -6.7816097e-01  -3.5263451e+00
  -4.0355676e-03  -6.7114783e-01  -3.4525708e+00
  -1.2625165e-01  -7.8651652e-01  -3.3678065e+00
  -2.0749534e-01  -8.0077656e-01  -3.3116867e+00
  -8.9131423e-02  -8.4858403e-01  -3.2232982e+00
   6.4134258e-02  -9.1415830e-01  -3.1188919e+00
   1.7442559e-02  -9.4057494e-01  -3.0096920e+00
  -1.3220479e-01  -9.9878544e-01  -2.8859948e+00
  -2.5430376e-01  -1.0190071e+00  -2.7458122e+00
  -4.3173253e-01  -1.1034005e+00  -2.6145153e+00
  -4.8262695e-01  -1.1169592e+00  -2.4449866e+00
  -4.6535076e-01  -1.2053269e+00  -2.3274859e+00
  -5.3807346e-01  -1.2197042e+00  -2.2124402e+00
  -3.7150009e-01  -1.2582770e+00  -2.0495756e+00
  -3.8387363e-01  -1.3109938e+00  -1.9395578e+00
  -4.1574066e-01  -1.3227994e+00  -1.7886189e+00
  -3.8352347e-01  -1.4206350e+00  -1.6386153e+00
  -4.2612956e-01  -1.4024003e+00  -1.4765694e+00
  -4.1515706e-01  -1.5170678e+00  -1.2626125e+00
  -5.5569943e-01  -1.5115740e+00  -1.1157657e+00
  -5.9281927e-01  -1.5168340e+00  -9.9861574e-01
  -5.2511632e-01  -1.6313845e+00  -8.1985059e-01
  -5.1239262e-01  -1.6167735e+00  -6.6540410e-01
  -4.6254947e-01  -1.6293972e+00  -5.1072418e-01
  -3.6963256e-01  -1.6506708e+00  -3.3605118e-01
  -4.3044861e-01  -1.7047901e+00  -1.9762214e-01
  -4.3570142e-01  -1.6886596e+00  -3.7447189e-02
  -3.8258970e-01  -1.7210375e+00   8.1106069e-02
  -4.2029315e-01  -1.7211543e+00   1.9205958e-01
  -3.7908770e-01  -1.7105176e+00   3.1049554e-01
  -3.8048834e-01  -1.7365836e+00   4.1349897e-01
  -3.5632526e-01  -1.7052576e+00   5.3041513e-01
  -2.6247498e-01  -1.7113357e+00   6.1810255e-01
  -1.8123129e-01  -1.6938027e+00   7.3490181e-01
  -1.2881950e-01  -1.6842178e+00   8.4620604e-01
  -1.1175567e-03  -1.6573337e+00   9.3506253e-01
   5.8998167e-02  -1.6338390e+00   1.0380656e+00
   6.6352338e-02  -1.5942138e+00   1.1030710e+00
   1.1094307e-01  -1.5759795e+00   1.1653873e+00
   1.0685746e-01  -1.5522511e+00   1.2317956e+00
   1.8319850e-01  -1.5120416e+00   1.2841743e+00
   2.4074598e-01  -1.5014048e+00   1.3376048e+00
   2.8101767e-01  -1.4499737e+00   1.3763042e+00
   3.0319651e-01  -1.3981923e+00   1.4083395e+00
   3.6599680e-01  -1.3527228e+00   1.4181601e+00
   4.4642345e-01  -1.3350729e+00   1.4473892e+00
   4.8704529e-01  -1.2889017e+00   1.4780213e+00
   5.4260853e-01  -1.2558226e+00   1.4729939e+00
   5.8182973e-01  -1.2352503e+00   1.4863225e+00
   6.3190671e-01  -1.2133919e+00   1.4859717e+00
   7.0696383e-01  -1.1867415e+00   1.5025737e+00
   7.8482262e-01  -1.1500388e+00   1.5043277e+00
   8.2556119e-01  -1.1437269e+00   1.4835163e+00
   8.9268053e-01  -1.1099461e+00   1.4705388e+00
   9.1334161e-01  -1.1139204e+00   1.4326578e+00
   9.5326313e-01  -1.1032836e+00   1.4168741e+00
   9.5302969e-01  -1.0861008e+00   1.3774733e+00
   9.5711530e-01  -1.0932312e+00   1.3419308e+00
   9.1626001e-01  -1.0749965e+00   1.3471920e+00
   8.2112542e-01  -1.0760484e+00   1.3094282e+00
   8.5509381e-01  -1.0831788e+00   1.2771591e+00
   7.9847970e-01  -1.0719572e+00   1.2702612e+00
   8.4622227e-01  -1.0789708e+00   1.2195196e+00
   7.5680737e-01  -1.0724248e+00   1.1830418e+00
   6.6447445e-01  -1.0775678e+00   1.1383797e+00
   6.7521352e-01  -1.1152060e+00   1.0854165e+00
   5.9478687e-01  -1.0942831e+00   1.0642547e+00
   6.7824825e-01  -1.1275960e+00   1.0316353e+00
   5.7074050e-01  -1.1432594e+00   1.0302320e+00
   5.4295908e-01  -1.1494544e+00   9.9585895e-01
   5.4576037e-01  -1.2098856e+00   9.6592837e-01
   4.6510028e-01  -1.1990150e+00   9.5470410e-01
   4.8354368e-01  -1.2295228e+00   9.2301992e-01
   4.2296107e-01  -1.2766286e+00   9.2945020e-01
   4.1642395e-01  -1.3045651e+00   9.1319893e-01
   3.5759254e-01  -1.3543591e+00   9.1577128e-01
   3.3027761e-01  -1.3785550e+00   9.3284090e-01
   2.9969450e-01  -1.4246089e+00   9.4371405e-01
   2.7261340e-01  -1.4990668e+00   9.6347292e-01
   3.2199006e-01  -1.5374063e+00   9.7984110e-01
   2.9128985e-01  -1.5928113e+00   1.0136300e+00
   2.3584333e-01  -1.6497357e+00   1.0361951e+00
   2.0024086e-01  -1.7277004e+00   1.0588766e+00
   2.0747831e-01  -1.7967810e+00   1.1075139e+00
   2.0059102e-01  -1.8000540e+00   1.1687780e+00
   1.9031884e-01  -1.8973049e+00   1.1954347e+00
   2.0444319e-01  -1.9529436e+00   1.2405644e+00
   2.0957928e-01  -1.9805295e+00   1.3017116e+00
