**************************************************************************************
  	RED ACELEROGRÁFICA DE LA UNIVERSIDAD AUTONOMA METROPOLITANA (RA-UAM)
	   UNIDAD AZCAPOTZALCO. DIVISIÓN CBI-DEPARTAMENTO DE MATERIALES
     Av. San Pablo 420, Col. Nueva el Rosario, Azcapotzalco, C.P. 02128, Ciudad de México
		Área de Estructuras. e-mail: agb@azc.uam.mx
**************************************************************************************
ARCHIVO ESTANDAR DE ACELERACION:
VERSION DEL FORMATO                    : 2.0
NOMBRE DEL ARCHIVO                     : RIDA202310.221
FECHA Y HORA DE CREACION               : 11:30 a. m. 27/10/2023
REF. CATALOGO ACELEROGRAMAS, SMIS 1999 : REGISTRO NO.      /PAG.    


================================================================================
DATOS DE LA ESTACION:
NOMBRE DE LA ESTACION                  : UAM-AZCAPOTZALCO.
CLAVE DE LA ESTACION                   : RIDA
LOCALIZACION DE LA ESTACION            : AV. SAN PABLO 420, COL. NUEVA EL ROSARIO,
                                       : AZCAPOTZALCO, C.P.02128, CIUDAD DE MEXICO. 
                                       :
                                       : 
                                       : 
COORDENADAS DE LA ESTACION             : 19.498596 LAT. N
                                       : 99.195595 LONG. W
ALTITUD (msnm)                         : 2546
TIPO DE SUELO                          : ZONA DE TRANSICION
                                       : 
                                       : 
INSTITUCION RESPONSABLE                : UNIVERSIDAD AUTONOMA METROPOLITANA
                                       : 

================================================================================
DATOS DEL ACELEROGRAFO: 
MODELO DEL ACELEROGRAFO                : ETNA2 KINEMETRICS
NUMERO DE SERIE DEL ACELEROGRAFO       : 103732
NUMERO DE CANALES                      : 3
ORIENTACION C1-C6 (rumbo;orientacion)  : /N90E/N00E/V
ORIENTACION C7-C12 (rumbo;orientacion) : 
VEL. DE MUESTREO, C1-C6 (muestras/s)   : /200/200/200
VEL. DE MUESTREO, C7-C12 (muestras/s)  : 
ESC. COMPLETA DE SENSORES, C1-C6, (g)  : /2/2/2
ESC. COMPLETA DE SENSORES, C7-C12 (g)  : 
FREC. NAT. DE SENSORES, C1-C6, (Hz)    : /198/212/200   
FREC. NAT. DE SENSORES, C7-C12 (Hz)    : 
AMORTIGUAMIENTO DE SENSORES, C1-C6     : /0.7/0.7/0.7      
AMORTIGUAMIENTO DE SENSORES, C7-C12    : 
INTERVALO DE MUESTREO, C1-C6 (s)       : /0.005/0.005/0.005
INTERVALO DE MUESTREO, C7-C12 (s)      : 
UMBRAL DE DISPARO, C1-C6 (Gal)         : /2/2/2
UMBRAL DE DISPARO, C7-C12 (Gal)        : 
MEMORIA DE PREEVENTO (s)               : 50
TIEMPO DE POSEVENTO (s)                : 60


================================================================================
DATOS DEL SISMO:
FECHA DEL SISMO [GMT]                  : 2023/10/22
HORA EPICENTRO (GMT)                   : 02:05:16
MAGNITUD(ES)                           : /M=4.9
COORDENADAS DEL EPICENTRO              : 16.1700 LAT. N
                                       : -99.1300 LONG. W
PROFUNDIDAD FOCAL (Km)                 : 17.1
FUENTE DE LOS DATOS EPICENTRALES       : SSN
                                       : INSTITUTO DE GEOFISICA, UNAM

================================================================================
DATOS DE ESTE REGISTRO:
HORA DE LA PRIMERA MUESTRA (GMT)       : 02:06:13.000
EXACTITUD DEL TIEMPO (s)               : 
DURACION DEL REGISTRO (s), C1-C6       : /135/135/135
DURACION DEL REGISTRO (s), C7-C12      : 
NUM. TOTAL DE MUESTRAS, C1-C6          : /27000/27000/27000
NUM. TOTAL DE MUESTRAS, C7-C12         : 
ACEL. MAX.(Gal), C1-C6                 : /0.335/-0.547/0.130
ACEL. MAX., C1-C6, EN LA MUESTRA       : /11953/10478/11073
ACEL. MAX.(Gal), C7-C12                : 
ACEL. MAX., C7-C12,EN LA MUESTRA       : 
UNIDADES DE LOS DATOS                  : Gal (cm/s/s)
FACTOR DE DECIMACION                   : 1
FORMATO DATOS (FORTRAN,16 campos/dato) : 3E16.7


================================================================================
CALIDAD DEL ACELEROGRAMA:
REGISTRO DIGITAL COMPLETO CON TIEMPO ABSOLUTO CORRECTO


================================================================================
COMENTARIOS:














================================================================================
DATOS DE ACELERACION:
---------+---------+---------+---------+---------+---------+---------+---------+
   CANAL-1   	     CANAL-2          CANAL-3
     N90E             N00E              V
---------+---------+---------+---------+---------+---------+---------+---------+ 
[...]
  -4.8636400e-03   1.7361200e-01  -4.4363000e-03
  -7.2045300e-03   1.4628700e-01   4.7761200e-04
  -1.3993100e-02   1.2736900e-01   9.6198300e-06
   8.0112900e-03   1.1499100e-01   2.3495800e-03
  -9.3113400e-03   1.0378100e-01   4.6895400e-03
  -7.4386200e-03   6.5946400e-02  -4.4363000e-03
   2.6272300e-03   5.4502600e-02  -1.5668100e-02
  -1.6334000e-02   2.9513000e-02  -1.4030100e-02
   2.6272300e-03   1.0128600e-02  -2.7983300e-03
   1.2459000e-02   2.0404700e-02  -1.0988200e-02
   2.6270300e-02  -4.8183900e-03  -2.9239900e-02
   5.0381500e-02  -3.7982100e-02  -2.5027900e-02
   4.6870200e-02  -6.6941900e-02  -1.0286200e-02
   6.1149600e-02  -9.2398600e-02  -1.2626200e-02
   6.6533700e-02  -9.0763800e-02  -2.3624000e-02
   7.3088200e-02  -1.1108200e-01  -2.9005900e-02
   9.6263100e-02  -1.1692100e-01  -3.2281800e-02
   8.9240400e-02  -1.0430900e-01  -3.4855800e-02
   1.1007400e-01  -1.2789800e-01  -3.7663700e-02
   1.2505600e-01  -1.6316300e-01  -3.2281800e-02
   1.0937200e-01  -1.4774900e-01  -2.1284000e-02
   1.2669500e-01  -1.6456500e-01  -2.7601900e-02
   1.3324900e-01  -2.0286600e-01  -3.1111800e-02
   1.2997200e-01  -1.6596600e-01  -1.8944100e-02
   1.3371700e-01  -1.7997900e-01  -1.1603600e-03
   1.1990600e-01  -1.9002100e-01   3.9875500e-03
   1.1522400e-01  -2.1898100e-01   1.8815900e-03
   1.1288300e-01  -2.4046700e-01   3.0515700e-03
   1.1826800e-01  -2.5051000e-01  -9.2636400e-04
   1.1967200e-01  -2.4373700e-01   2.5835800e-03
   1.0094500e-01  -2.0263300e-01   7.1160800e-04
   1.0726500e-01  -2.2295100e-01   5.8595200e-03
   1.0117900e-01  -2.3579700e-01   1.0071400e-02
   1.0937200e-01  -2.6802600e-01  -3.2663200e-03
   1.3371700e-01  -2.8367400e-01  -8.4142300e-03
   1.2622700e-01  -2.6826000e-01   1.8815900e-03
   1.4214500e-01  -2.6872700e-01   1.1475400e-02
   1.4472000e-01  -2.5378000e-01   6.3275100e-03
   1.4214500e-01  -2.5191100e-01   3.2855600e-03
   1.5736100e-01  -2.7503200e-01   6.3275100e-03
   1.4144200e-01  -2.6592400e-01   1.4751400e-02
   1.3629200e-01  -2.6335500e-01   1.2645400e-02
   1.4495400e-01  -2.4910900e-01   3.5195600e-03
   1.3114200e-01  -2.3743100e-01   3.0515700e-03
   1.2927000e-01  -2.5284500e-01   7.4974900e-03
   1.2716300e-01  -2.3252700e-01   3.0515700e-03
   1.1686300e-01  -2.4490500e-01  -1.0754200e-02
   1.2131100e-01  -2.4630600e-01  -7.9462400e-03
   1.1850200e-01  -2.4210200e-01  -7.2442500e-03
   1.1733100e-01  -2.5681600e-01  -1.3562100e-02
   1.0937200e-01  -2.1361000e-01  -1.7540100e-02
   1.1241500e-01  -2.1921500e-01  -1.3796100e-02
   1.1428800e-01  -2.3346100e-01  -1.0052200e-02
   1.0960600e-01  -2.1968200e-01  -1.7540100e-02
   1.1803300e-01  -2.2552000e-01  -2.1752000e-02
   1.1943800e-01  -2.1010600e-01  -2.0348000e-02
   1.2014000e-01  -1.9702800e-01  -1.8944100e-02
   1.1662900e-01  -1.7647600e-01  -2.2220000e-02
   1.2037400e-01  -1.8418300e-01  -1.8476100e-02
   9.8838100e-02  -1.7250500e-01  -1.6370100e-02
   9.0644900e-02  -1.7904500e-01  -1.2626200e-02
   8.5260900e-02  -1.8908700e-01  -1.0754200e-02
   6.2086000e-02  -1.5195300e-01  -5.1382900e-03
   5.9745100e-02  -1.5405500e-01   9.8374500e-03
   4.2422500e-02  -1.3560500e-01   9.3694600e-03
   2.7206600e-02  -1.1598700e-01   7.7314900e-03
   1.5736300e-02  -1.1271700e-01   7.4974900e-03
   2.8613200e-03  -1.0267500e-01   1.0071400e-02
  -1.0481800e-02  -8.8194700e-02   1.1241400e-02
  -1.6802200e-02  -6.8109700e-02   5.1575300e-03
  -1.0950000e-02  -6.7876100e-02   3.2855600e-03
  -1.6099900e-02  -4.1018200e-02   5.3915300e-03
  -1.6568100e-02  -3.5646600e-02   9.4560400e-04
  -9.5454300e-03  -2.2801500e-02  -3.2663200e-03
  -2.5931700e-02   2.3907900e-02   1.6475900e-03
  -2.4995300e-02   1.0128600e-02   4.2215500e-03
  -3.3188500e-02   2.1806000e-02  -4.5837200e-04
  -4.7936100e-02   3.0447200e-02  -3.0323300e-03
  -2.9911200e-02   2.7177600e-02  -5.3722900e-03
  -4.6531600e-02   4.2591700e-02  -6.5422700e-03
  -5.8470200e-02   3.6285900e-02  -6.3082700e-03
  -5.7767900e-02   4.0723300e-02  -1.3562100e-02
  -7.7665500e-02   5.3568400e-02  -1.8944100e-02
  -7.0876900e-02   4.5394300e-02  -2.3624000e-02
  -7.0876900e-02   5.0065200e-02  -2.9473900e-02
  -8.0708700e-02   5.9173500e-02  -2.7601900e-02
  -6.1981500e-02   6.9683200e-02  -2.2922000e-02
  -5.9406500e-02   8.0659900e-02  -1.6604100e-02
  -4.5829300e-02   7.6923100e-02  -1.8242100e-02
  -3.6465700e-02   1.0775100e-01  -1.6604100e-02
  -3.9040700e-02   1.0378100e-01  -9.1162200e-03
  -2.6634000e-02   1.0331400e-01  -9.3502200e-03
  -2.9209000e-02   1.0728400e-01  -6.3082700e-03
  -1.6568100e-02   9.8409500e-02  -1.0520200e-02
  -1.0950000e-02   9.9343700e-02  -6.0742800e-03
  -2.4527200e-02   1.0938600e-01   7.1160800e-04
  -2.2886500e-03   9.1169500e-02  -3.5003200e-03
  -4.3954600e-03   8.6265000e-02   3.2855600e-03
  -7.2045300e-03   1.1218900e-01   8.6674700e-03
   1.7140800e-02   6.5946400e-02   8.4334700e-03
  -1.1184100e-02   8.6031500e-02   6.5615100e-03
  -7.2045300e-03   1.0611700e-01   7.9654800e-03
  -8.6090700e-03   8.5797900e-02   1.2411400e-02
  -1.4929500e-02   9.1636600e-02   9.6034500e-03
   8.2453800e-03   8.1127000e-02   7.9654800e-03
  -1.2822700e-02   1.0004400e-01   1.6475900e-03
   3.3295000e-03   8.1594100e-02  -7.2442500e-03
  -1.3522900e-03   9.3271400e-02  -2.3303400e-03
  -1.1418100e-02   1.0378100e-01  -5.8402800e-03
   2.9079400e-02   7.4354100e-02  -7.2442500e-03
   1.4799900e-02   1.0868600e-01   3.2855600e-03
   2.8377100e-02   9.1169500e-02   6.3275100e-03
   3.6336100e-02   8.8366900e-02   3.0515700e-03
   9.1817400e-03   1.0121200e-01  -4.5837200e-04
   3.8208900e-02   8.4396600e-02  -8.8822300e-03
   2.6738500e-02   9.2337200e-02  -8.6482300e-03
   2.7206600e-02   9.7708800e-02  -4.4363000e-03
   3.8208900e-02   1.1802700e-01  -2.2454000e-02
   7.3090200e-03   1.1849500e-01  -3.5323800e-02
   2.1354400e-02   1.0471500e-01  -3.7195700e-02
  -2.7568300e-03   1.0564900e-01  -4.0705700e-02
  -1.3290900e-02   8.7666300e-02  -3.5791800e-02
   1.1990800e-02   8.6965700e-02  -2.5495900e-02
  -6.5022700e-03   1.2059600e-01  -2.3156000e-02
   2.2524900e-02   1.1452400e-01  -2.5729900e-02
   1.6438500e-02   1.0798500e-01  -1.1456200e-02
  -6.0340900e-03   1.0845200e-01   2.4361600e-04
   5.4363100e-03   7.9725700e-02   4.9235400e-03
  -3.1783900e-02   9.2337200e-02   1.8261300e-02
  -2.8740800e-02   1.0985300e-01   2.1303300e-02
  -3.0379400e-02   9.2804300e-02   2.6919200e-02
  -5.4490600e-02   1.1265600e-01   3.6747000e-02
  -4.1381600e-02   1.3040500e-01   3.8385000e-02
  -7.0876900e-02   1.3787900e-01   4.4234900e-02
  -8.3517800e-02   1.4535200e-01   5.2190700e-02
  -8.4454100e-02   1.4301700e-01   5.5232700e-02
  -1.1769500e-01   1.6380300e-01   5.1722700e-02
  -1.0599000e-01   1.4979000e-01   6.4592500e-02
  -1.1816300e-01   1.5889800e-01   7.3718300e-02
  -1.3735800e-01   1.5913200e-01   6.3188500e-02
  -1.3852900e-01   1.2059600e-01   6.0614600e-02
  -1.6427900e-01   1.4932300e-01   4.2830900e-02
  -1.5491500e-01   1.3624400e-01   3.3237000e-02
  -1.7059900e-01   1.6567100e-01   3.9086900e-02
  -1.8745400e-01   1.8925900e-01   2.2005200e-02
  -1.7574900e-01   1.6333600e-01   4.2215500e-03
  -1.9892400e-01   1.7314500e-01   5.1575300e-03
  -1.8628300e-01   1.5773000e-01   2.5835800e-03
  -1.7645100e-01   1.9112800e-01  -1.7306100e-02
  -1.8043100e-01   2.0280500e-01  -1.9178000e-02
  -1.7013100e-01   2.1658400e-01  -1.2860200e-02
  -1.9705100e-01   2.2919600e-01  -2.0582000e-02
  -1.9377400e-01   2.0584100e-01  -2.7133900e-02
  -1.9166700e-01   2.1378200e-01  -2.9941900e-02
  -1.9892400e-01   2.2289000e-01  -3.5323800e-02
  -1.6357600e-01   2.1191300e-01  -3.0643900e-02
  -1.6240600e-01   2.2569300e-01  -3.0643900e-02
  -1.5093600e-01   2.2919600e-01  -4.1641700e-02
  -1.1816300e-01   2.1868600e-01  -3.0877800e-02
  -1.2354700e-01   2.4764600e-01  -2.5729900e-02
  -1.1067200e-01   2.4157400e-01  -3.0877800e-02
  -9.9435900e-02   2.4087300e-01  -2.7367900e-02
  -1.0716100e-01   2.4204100e-01  -1.8710100e-02
  -9.5924500e-02   2.3199800e-01  -1.3796100e-02
  -8.8433600e-02   2.5512000e-01  -9.5842100e-03
  -7.0876900e-02   2.3153100e-01  -7.2442500e-03
  -5.7533800e-02   2.1938700e-01  -6.3082700e-03
  -5.4022500e-02   2.3783700e-01   1.8815900e-03
  -2.8740800e-02   2.2522600e-01  -4.9043000e-03
  -1.8909000e-02   2.2359100e-01  -7.9462400e-03
   3.0954100e-03   2.1168000e-01   4.4555400e-03
   2.2758900e-02   2.0163700e-01   1.4985400e-02
   2.9547500e-02   1.9930200e-01   1.2879400e-02
   5.0849700e-02   1.7781600e-01   1.7793300e-02
   5.7638300e-02   1.7664800e-01   2.6217200e-02
   8.1281400e-02   1.7454600e-01   2.1771200e-02
   9.6965400e-02   1.4488500e-01   3.1365100e-02
   9.5794900e-02   1.4184900e-01   3.9788900e-02
   1.1475600e-01   1.3180700e-01   3.7449000e-02
   1.1920400e-01   1.0962000e-01   3.6981000e-02
   1.3488800e-01   1.0518200e-01   3.2067100e-02
   1.5782900e-01   8.8366900e-02   1.5453400e-02
   1.6017000e-01   5.8706400e-02   2.1303300e-02
   1.7538500e-01   4.4927200e-02   3.4641000e-02
   1.7140600e-01   3.2782700e-02   2.6685200e-02
   1.7187400e-01   1.2931200e-02   2.3409200e-02
   1.8919700e-01  -1.0816300e-03   2.7855100e-02
   1.7374700e-01  -1.5561600e-02   3.2301100e-02
   1.8357900e-01  -1.8597700e-02   3.0663100e-02
   1.9411300e-01  -3.0508600e-02   3.7917000e-02
   1.8498300e-01  -4.8024600e-02   4.0256900e-02
   2.1681900e-01  -7.4882500e-02   3.6279000e-02
   2.1541500e-01  -8.4691500e-02   3.9086900e-02
   2.1120100e-01  -9.0296700e-02   3.5577000e-02
   2.1962800e-01  -1.1925700e-01   4.4234900e-02
   2.0628500e-01  -1.2392700e-01   4.6808800e-02
   2.3039600e-01  -1.4774900e-01   3.1365100e-02
   2.3484400e-01  -1.8044600e-01   3.4875000e-02
   2.3741900e-01  -1.9983000e-01   4.4468900e-02
   2.5333700e-01  -2.3089200e-01   3.3705000e-02
   2.4116500e-01  -2.4724000e-01   2.9025100e-02
   2.5240100e-01  -2.6288800e-01   3.2301100e-02
   2.5450800e-01  -2.8087100e-01   1.5453400e-02
   2.4093100e-01  -3.0095600e-01   3.2855600e-03
   2.6223300e-01  -3.3412000e-01   8.9014700e-03
   2.5333700e-01  -3.5116900e-01   8.6674700e-03
   2.5029400e-01  -3.6798400e-01   3.7535600e-03
   2.6738300e-01  -4.0278300e-01   1.4136000e-03
   2.4537800e-01  -4.1796300e-01  -1.1603600e-03
   2.3999400e-01  -4.2894000e-01   1.1709400e-02
   2.2524700e-01  -4.4458800e-01   2.3175200e-02
   2.0417800e-01  -4.5299500e-01   1.7325300e-02
   2.0277400e-01  -4.6537300e-01   2.0367300e-02
   1.8779200e-01  -4.6747500e-01   2.2473200e-02
   1.6625600e-01  -4.9526700e-01   2.1303300e-02
   1.4612400e-01  -5.0577700e-01   2.3175200e-02
   1.3044000e-01  -5.0017200e-01   1.9899300e-02
   1.1943800e-01  -5.3170100e-01   9.6034500e-03
   9.7199500e-02  -5.3380300e-01   1.1796000e-03
   8.3856300e-02  -5.4664800e-01   3.0515700e-03
   6.4895100e-02  -5.2586200e-01  -4.2023100e-03
   4.1954300e-02  -5.3240100e-01  -6.3082700e-03
   4.1252000e-02  -5.3707200e-01  -6.3082700e-03
   3.1654400e-02  -5.0344200e-01  -1.6136100e-02
   2.8845300e-02  -5.2843100e-01  -1.4732100e-02
   2.0184000e-02  -5.0624400e-01  -1.0052200e-02
   7.0749400e-03  -4.9993800e-01  -1.0052200e-02
   8.7135600e-03  -4.8802800e-01  -1.8476100e-02
   1.2459000e-02  -4.8896200e-01  -2.2454000e-02
   5.2245300e-05  -4.3571300e-01  -2.6899900e-02
  -1.3993100e-02  -4.0161500e-01  -3.5557800e-02
  -2.0313600e-02  -4.2333500e-01  -4.3045600e-02
  -3.8572500e-02  -3.7382300e-01  -4.8895500e-02
  -4.2318000e-02  -3.8550000e-01  -4.6555600e-02
  -4.2318000e-02  -3.5560600e-01  -4.2109700e-02
  -4.5595200e-02  -3.2034100e-01  -4.8193500e-02
  -5.7533800e-02  -2.9605200e-01  -5.1235500e-02
  -7.7899600e-02  -2.6405600e-01  -4.6087600e-02
  -8.6092800e-02  -2.8063800e-01  -4.9831500e-02
  -9.8031300e-02  -2.7082900e-01  -5.1703500e-02
  -9.4285900e-02  -2.4630600e-01  -5.7553400e-02
  -6.8770100e-02  -2.2808900e-01  -6.1765300e-02
  -7.1345100e-02  -2.0146500e-01  -6.1063300e-02
  -5.9640600e-02  -1.6082800e-01  -5.7319400e-02
  -4.2552100e-02  -1.5405500e-01  -5.2639500e-02
  -5.6363400e-02  -1.3630500e-01  -5.2873500e-02
  -5.0979300e-02  -1.4027600e-01  -4.1641700e-02
  -5.5427000e-02  -1.1505300e-01  -3.6259800e-02
  -4.5595200e-02  -7.4181900e-02  -3.6025800e-02
  -2.9911200e-02  -6.3205200e-02  -2.5729900e-02
  -4.9340700e-02  -8.0880500e-03  -1.6370100e-02
  -5.1447500e-02  -7.8545000e-03  -1.2392200e-02
  -6.2683800e-02   9.1944400e-03  -1.4732100e-02
  -5.9874700e-02   1.9237000e-02  -1.9178000e-02
  -2.8740800e-02   4.5861300e-02  -2.3390000e-02
  -2.8740800e-02   1.0167900e-01  -1.7072100e-02
  -1.7738600e-02   1.1195500e-01  -1.6136100e-02
  -2.5697600e-02   1.3274100e-01  -2.1518000e-02
  -3.7168000e-02   1.3040500e-01  -1.7072100e-02
  -1.9143100e-02   1.1779400e-01  -1.9412000e-02
  -3.1315800e-02   1.3110600e-01  -1.3796100e-02
  -3.1081700e-02   1.6847400e-01  -3.2663200e-03
  -3.9040700e-02   1.7758200e-01   4.7761200e-04
  -5.1681600e-02   1.8855900e-01  -1.1690200e-02
  -5.0042900e-02   2.0607500e-01  -1.4030100e-02
  -8.2347300e-02   2.0771000e-01   2.4361600e-04
  -8.5858700e-02   2.0841000e-01  -1.2860200e-02
  -7.3686000e-02   2.3036400e-01  -3.2047800e-02
  -8.8199600e-02   2.6936600e-01  -4.0939700e-02
  -7.6261000e-02   2.7216900e-01  -4.0705700e-02
  -9.2413200e-02   3.0439800e-01  -4.6087600e-02
  -1.1324700e-01   3.2238100e-01  -5.9893300e-02
  -1.3010200e-01   3.1654300e-01  -6.7147200e-02
  -1.6919500e-01   3.3195700e-01  -6.7849200e-02
  -1.5866100e-01   3.1887800e-01  -8.0017000e-02
  -1.7645100e-01   3.3896300e-01  -9.5694700e-02
  -1.8839000e-01   3.6325200e-01  -9.3354800e-02
  -1.7949500e-01   3.6698900e-01  -9.8268700e-02
  -1.9705100e-01   3.7422900e-01  -1.0458700e-01
  -1.8862400e-01   3.4830500e-01  -1.0809700e-01
  -1.9283800e-01   3.5601200e-01  -1.0482100e-01
  -2.0360600e-01   3.7563000e-01  -1.0669300e-01
  -1.9588100e-01   3.5764700e-01  -1.0528900e-01
  -2.0594700e-01   3.7422900e-01  -1.0084300e-01
  -2.0992600e-01   3.7890000e-01  -1.0575700e-01
  -2.0852200e-01   3.5951500e-01  -8.6802900e-02
  -2.3216500e-01   3.6558700e-01  -7.3933100e-02
  -2.3965600e-01   3.6044900e-01  -6.9487200e-02
  -2.5674400e-01   3.5881500e-01  -6.3871300e-02
  -2.6868300e-01   3.7119300e-01  -5.4979400e-02
  -2.7500300e-01   3.6652200e-01  -3.8131700e-02
  -2.9841200e-01   3.7446200e-01  -2.6665900e-02
  -2.9841200e-01   3.5811400e-01  -1.0520200e-02
  -3.1152100e-01   3.3195700e-01   5.6255200e-03
  -3.2205500e-01   3.4083100e-01   1.0071400e-02
  -3.1128700e-01   3.1584200e-01   1.6857300e-02
  -3.1760700e-01   3.2284800e-01   3.6279000e-02
  -3.2041700e-01   3.2868700e-01   5.9444600e-02
  -3.2182100e-01   3.1560800e-01   7.3952300e-02
  -3.3071600e-01   3.1303900e-01   7.3016400e-02
  -3.1807600e-01   2.7053400e-01   8.0036200e-02
  -3.2743900e-01   2.6469500e-01   8.9162100e-02
  -3.2720500e-01   2.4858000e-01   8.7992100e-02
  -3.1105300e-01   2.3480100e-01   8.8928100e-02
  -3.1105300e-01   2.5138300e-01   9.1502000e-02
  -2.8928300e-01   2.3269900e-01   9.6416000e-02
  -2.9279400e-01   2.4811300e-01   9.6182000e-02
  -2.7313000e-01   2.5278400e-01   8.2376200e-02
  -2.4433700e-01   2.3433400e-01   7.6526300e-02
  -2.5627600e-01   2.3993900e-01   8.5184100e-02
  -2.3356900e-01   2.2639300e-01   8.9162100e-02
  -2.3520800e-01   2.1027900e-01   9.0098100e-02
  -2.4269900e-01   2.2966300e-01   8.7056100e-02
  -2.1648100e-01   2.1495000e-01   8.7524100e-02
