**************************************************************************************
  	RED ACELEROGRÁFICA DE LA UNIVERSIDAD AUTONOMA METROPOLITANA (RA-UAM)
	   UNIDAD AZCAPOTZALCO. DIVISIÓN CBI-DEPARTAMENTO DE MATERIALES
     Av. San Pablo 420, Col. Nueva el Rosario, Azcapotzalco, C.P. 02128, Ciudad de México
		Área de Estructuras. e-mail: agb@azc.uam.mx
**************************************************************************************
ARCHIVO ESTANDAR DE ACELERACION:
VERSION DEL FORMATO                    : 2.0
NOMBRE DEL ARCHIVO                     : RIDA202310.251
FECHA Y HORA DE CREACION               : 11:30 a. m. 31/10/2023
REF. CATALOGO ACELEROGRAMAS, SMIS 1999 : REGISTRO NO.      /PAG.    


================================================================================
DATOS DE LA ESTACION:
NOMBRE DE LA ESTACION                  : UAM-AZCAPOTZALCO.
CLAVE DE LA ESTACION                   : RIDA
LOCALIZACION DE LA ESTACION            : AV. SAN PABLO 420, COL. NUEVA EL ROSARIO,
                                       : AZCAPOTZALCO, C.P.02128, CIUDAD DE MEXICO. 
                                       :
                                       : 
                                       : 
COORDENADAS DE LA ESTACION             : 19.498596 LAT. N
                                       : 99.195595 LONG. W
ALTITUD (msnm)                         : 2546
TIPO DE SUELO                          : ZONA DE TRANSICION
                                       : 
                                       : 
INSTITUCION RESPONSABLE                : UNIVERSIDAD AUTONOMA METROPOLITANA
                                       : 

================================================================================
DATOS DEL ACELEROGRAFO: 
MODELO DEL ACELEROGRAFO                : ETNA2 KINEMETRICS
NUMERO DE SERIE DEL ACELEROGRAFO       : 103732
NUMERO DE CANALES                      : 3
ORIENTACION C1-C6 (rumbo;orientacion)  : /N90E/N00E/V
ORIENTACION C7-C12 (rumbo;orientacion) : 
VEL. DE MUESTREO, C1-C6 (muestras/s)   : /200/200/200
VEL. DE MUESTREO, C7-C12 (muestras/s)  : 
ESC. COMPLETA DE SENSORES, C1-C6, (g)  : /2/2/2
ESC. COMPLETA DE SENSORES, C7-C12 (g)  : 
FREC. NAT. DE SENSORES, C1-C6, (Hz)    : /198/212/200   
FREC. NAT. DE SENSORES, C7-C12 (Hz)    : 
AMORTIGUAMIENTO DE SENSORES, C1-C6     : /0.7/0.7/0.7      
AMORTIGUAMIENTO DE SENSORES, C7-C12    : 
INTERVALO DE MUESTREO, C1-C6 (s)       : /0.005/0.005/0.005
INTERVALO DE MUESTREO, C7-C12 (s)      : 
UMBRAL DE DISPARO, C1-C6 (Gal)         : /2/2/2
UMBRAL DE DISPARO, C7-C12 (Gal)        : 
MEMORIA DE PREEVENTO (s)               : 50
TIEMPO DE POSEVENTO (s)                : 60


================================================================================
DATOS DEL SISMO:
FECHA DEL SISMO [GMT]                  : 2023/10/25
HORA EPICENTRO (GMT)                   : 17:06:16
MAGNITUD(ES)                           : /M=4.4
COORDENADAS DEL EPICENTRO              : 17.5200 LAT. N
                                       : -101.7800 LONG. W
PROFUNDIDAD FOCAL (Km)                 : 5.4
FUENTE DE LOS DATOS EPICENTRALES       : SSN
                                       : INSTITUTO DE GEOFISICA, UNAM

================================================================================
DATOS DE ESTE REGISTRO:
HORA DE LA PRIMERA MUESTRA (GMT)       : 17:07:04.000
EXACTITUD DEL TIEMPO (s)               : 
DURACION DEL REGISTRO (s), C1-C6       : /125/125/125
DURACION DEL REGISTRO (s), C7-C12      : 
NUM. TOTAL DE MUESTRAS, C1-C6          : /25000/25000/25000
NUM. TOTAL DE MUESTRAS, C7-C12         : 
ACEL. MAX.(Gal), C1-C6                 : /-0.357/0.529/0.198
ACEL. MAX., C1-C6, EN LA MUESTRA       : /11134/11656/2414
ACEL. MAX.(Gal), C7-C12                : 
ACEL. MAX., C7-C12,EN LA MUESTRA       : 
UNIDADES DE LOS DATOS                  : Gal (cm/s/s)
FACTOR DE DECIMACION                   : 1
FORMATO DATOS (FORTRAN,16 campos/dato) : 3E16.7


================================================================================
CALIDAD DEL ACELEROGRAMA:
REGISTRO DIGITAL COMPLETO CON TIEMPO ABSOLUTO CORRECTO


================================================================================
COMENTARIOS:














================================================================================
DATOS DE ACELERACION:
---------+---------+---------+---------+---------+---------+---------+---------+
   CANAL-1   	     CANAL-2          CANAL-3
     N90E             N00E              V
---------+---------+---------+---------+---------+---------+---------+---------+ 
[...]
  -1.9005100e-01   7.0979700e-02   4.6026800e-02
  -1.5634200e-01   3.1276700e-02   6.1470500e-02
  -1.6055500e-01   4.1851900e-03   4.0410900e-02
  -1.3480600e-01  -1.2630200e-02   1.6543300e-02
  -1.1701500e-01   5.4164300e-02   1.9585200e-02
  -1.2497400e-01   1.1885700e-01   4.1414900e-03
  -1.1467400e-01   1.6019500e-01  -2.0194100e-02
  -1.2403700e-01   1.8962200e-01  -1.1770200e-02
  -1.2965600e-01   1.3240300e-01  -4.7503500e-03
  -1.3106000e-01   6.0703600e-02  -1.0834200e-02
  -1.6968500e-01   6.7943600e-02  -3.7509800e-02
  -1.6687600e-01   4.0385000e-02  -4.7571600e-02
  -1.6383300e-01   1.4928400e-02  -2.3938000e-02
  -1.7834600e-01   4.5523000e-02  -2.7448000e-02
  -1.6711000e-01   2.7072800e-02  -2.9319900e-02
  -1.8068700e-01   1.1490800e-03  -3.0442900e-04
  -1.8560300e-01  -3.3649500e-02   1.5373300e-02
  -2.0386200e-01  -4.8362900e-02  -4.0483600e-03
  -2.0784200e-01  -1.2630200e-02   2.9715100e-03
  -2.0175500e-01  -1.8001800e-02   1.0693400e-02
  -2.0831000e-01   7.9219500e-03  -1.0366300e-02
  -1.8115500e-01   2.0533500e-02  -2.6044000e-02
  -1.5212800e-01   2.7839100e-03  -2.8149900e-02
  -1.5610800e-01  -4.2225100e-03  -2.1364100e-02
  -1.4814900e-01  -2.3606900e-02  -3.3531900e-02
  -1.4604200e-01  -2.1972100e-02  -3.3999800e-02
  -1.2169700e-01  -3.8320400e-02  -2.9319900e-02
  -6.6451400e-02  -1.8235300e-02  -2.6512000e-02
  -7.0430900e-02  -6.7915200e-03  -8.2602900e-03
  -5.8258200e-02  -5.1399000e-02  -1.0366300e-02
  -7.3240000e-02  -4.0188800e-02  -2.7916000e-02
  -8.4242200e-02  -2.7110100e-02  -2.5810000e-02
  -5.4278700e-02  -1.2630200e-02  -2.9553900e-02
  -5.0533300e-02  -1.9403100e-02  -5.2251500e-02
  -1.7526600e-02  -5.0231300e-02  -7.8225100e-02
  -1.1206200e-02  -5.2800300e-02  -9.1562900e-02
  -1.3547100e-02  -1.0231200e-01  -9.6008800e-02
   8.2232300e-03  -8.4562700e-02  -1.0349700e-01
   2.3709900e-03  -6.5178300e-02  -1.0817700e-01
   1.0330000e-02  -9.8575600e-02  -1.0443300e-01
   2.9993600e-02  -1.0978600e-01  -9.7412800e-02
   8.2232300e-03  -1.3594300e-01  -1.0817700e-01
   1.6650500e-02  -1.6770600e-01  -9.8114700e-02
  -3.2471600e-03  -1.7377800e-01  -7.7523100e-02
  -3.0167500e-02  -1.6490300e-01  -8.8988900e-02
  -1.7994800e-02  -1.9082700e-01  -9.7412800e-02
  -1.9165300e-02  -1.5813000e-01  -8.9456900e-02
   2.6248100e-02  -1.9292900e-01  -8.7584900e-02
   5.8318400e-02  -2.0670800e-01  -8.0331000e-02
   9.9284100e-02  -1.7471200e-01  -6.7695300e-02
   1.3439800e-01  -2.0857600e-01  -7.2609200e-02
   1.1824500e-01  -1.4715300e-01  -7.8927100e-02
   1.2175700e-01  -1.3150600e-01  -6.8631200e-02
   1.2222500e-01  -1.2730200e-01  -6.2547400e-02
   1.0888200e-01  -1.1842700e-01  -5.7165400e-02
   1.2433200e-01  -1.0768400e-01  -3.9615800e-02
   1.0794500e-01  -9.2503300e-02  -3.4467800e-02
   8.7813700e-02  -9.7874900e-02  -3.9147800e-02
   7.7747900e-02  -2.5708800e-02  -4.5699600e-02
   5.9723000e-02  -2.2439200e-02  -2.7682000e-02
   8.1025100e-02  -4.8362900e-02  -4.5163600e-03
   7.7045600e-02  -3.9021000e-02  -1.8790100e-02
   1.0864800e-01  -3.1314000e-02  -3.6807800e-02
   1.4305900e-01   9.1553300e-04  -3.8445800e-02
   1.3603600e-01   1.7030300e-02  -2.8851900e-02
   1.5640200e-01   2.1467700e-02  -1.8088100e-02
   1.6693600e-01   5.0894600e-02  -6.8563200e-03
   1.7934300e-01   3.8516600e-02  -6.3883200e-03
   1.9151500e-01   4.9026300e-02  -1.0834200e-02
   1.7559700e-01   9.2466000e-02  -1.0064200e-03
   1.6459500e-01   7.3315200e-02   1.0693400e-02
   1.3650400e-01   9.9706000e-02   1.6309300e-02
   1.1496800e-01   9.6669900e-02   4.8434800e-03
   1.1777700e-01   7.6584800e-02   2.0355300e-03
   9.2963700e-02   9.6669900e-02   3.2055100e-03
   1.0583900e-01   7.3548700e-02  -2.8783800e-03
   9.2261400e-02   9.8071200e-02   6.9494500e-03
   6.7916100e-02   1.3590600e-01   3.6735000e-03
   7.6577400e-02   9.7837600e-02   2.7375200e-03
   6.4638800e-02   1.1582100e-01   2.1691200e-02
   1.0303000e-01   1.2236000e-01   2.6371100e-02
   1.1309500e-01   1.0601200e-01   1.1629400e-02
   1.0232700e-01   1.5318800e-01   5.3114700e-03
   1.3205700e-01   1.8331600e-01   1.4203300e-02
   1.1075500e-01   2.1811400e-01   1.4671300e-02
   1.1005200e-01   2.2255200e-01   1.6356300e-04
   1.5897700e-01   2.3259400e-01   1.0927400e-02
   1.5429500e-01   2.1601200e-01   2.9413100e-02
   1.7349100e-01   1.9639500e-01  -1.4744100e-03
   2.0696500e-01   2.3025900e-01  -1.0600300e-02
   2.2288300e-01   2.3399600e-01   8.6555100e-04
   2.2920400e-01   2.2488700e-01   2.0355300e-03
   2.0415600e-01   2.3703200e-01   8.1194300e-03
   2.2756500e-01   2.5057700e-01   6.7154500e-03
   2.1211500e-01   2.5151200e-01   1.2331400e-02
   1.9221800e-01   2.4217000e-01   2.0521200e-02
   2.0345400e-01   2.2792300e-01   3.0817000e-02
   1.6389300e-01   1.7747700e-01   3.3157000e-02
   1.6436100e-01   1.2796500e-01   4.7664700e-02
   1.6787200e-01   1.7304000e-01   7.3404300e-02
   1.4984700e-01   1.7747700e-01   7.5744300e-02
   1.7419300e-01   1.2516300e-01   7.9020200e-02
   1.7676800e-01   1.5365500e-01   1.0499400e-01
   1.9572900e-01   1.2095900e-01   1.1880000e-01
   2.1234900e-01   5.9302300e-02   1.0218600e-01
   1.9713400e-01   1.0391000e-01   8.6274100e-02
   2.0696500e-01   9.9706000e-02   8.5806100e-02
   1.6927700e-01   1.2142600e-01   8.5806100e-02
   1.5218800e-01   1.3520500e-01   9.0954000e-02
   1.4727200e-01   1.1115000e-01   9.2358000e-02
   1.0794500e-01   9.4100900e-02   8.3700100e-02
   1.1122300e-01   4.5756600e-02   9.0252000e-02
   9.5304600e-02   6.9812000e-02   8.6742100e-02
   7.3300200e-02   1.0134100e-01   6.5682400e-02
   6.8618400e-02   1.0064000e-01   5.5386600e-02
   2.1566300e-02   9.5735700e-02   4.7664700e-02
  -3.2508400e-02   6.8410700e-02   2.3797200e-02
  -8.3539900e-02   5.7434000e-02   1.9819200e-02
  -1.1959000e-01   6.0003000e-02   3.2221000e-02
  -1.0882200e-01   5.2996600e-02   1.0927400e-02
  -9.2201200e-02   9.2466000e-02  -2.7916000e-02
  -7.6049000e-02   9.5035000e-02  -3.7743800e-02
  -7.7687700e-02   7.1680300e-02  -2.3002000e-02
  -9.7819400e-02   5.3463600e-02  -1.6684100e-02
  -8.8455800e-02  -1.5666300e-02  -1.0132300e-02
  -6.5280900e-02  -2.9679100e-02  -1.8088100e-02
  -4.8660600e-02  -2.7810800e-02  -2.9553900e-02
  -6.9962700e-02  -2.5708800e-02  -1.4110200e-02
  -9.8989800e-02  -7.0250700e-03  -1.5748200e-02
  -1.2754900e-01  -4.7195200e-02  -2.3938000e-02
  -1.7975100e-01  -4.1356500e-02  -2.4874000e-02
  -2.0690500e-01  -5.8639000e-02  -3.3999800e-02
  -2.5278700e-01  -8.7598800e-02  -3.4701800e-02
  -2.8555900e-01  -1.4031500e-02  -3.5637800e-02
  -2.7666400e-01   8.6225900e-03  -4.4529700e-02
  -2.8766600e-01   2.1000600e-02  -4.0083700e-02
  -2.5840500e-01   4.0151500e-02  -2.8851900e-02
  -2.4038000e-01   1.6096100e-02  -2.2534000e-02
  -2.4763700e-01   1.1658700e-02   7.4174400e-03
  -2.0409600e-01   1.1490800e-03   3.1519000e-02
  -2.0058500e-01   1.3060000e-02   3.8772900e-02
  -1.7717600e-01   7.6884000e-03   4.3686800e-02
  -1.5985300e-01  -3.2248200e-02   4.2048800e-02
  -2.1814100e-01  -3.9021000e-02   4.3920800e-02
  -2.1486400e-01  -9.3437500e-02   3.9006900e-02
  -2.4553000e-01  -1.1936100e-01   4.2750800e-02
  -2.5068000e-01  -9.3904600e-02   3.4327000e-02
  -2.0198900e-01  -1.0815100e-01   1.5139300e-02
  -2.4131600e-01  -1.1305500e-01   2.1457200e-02
  -2.3218700e-01  -1.1585800e-01   3.1753000e-02
  -2.2867600e-01  -1.1912800e-01   3.6198900e-02
  -2.4412500e-01  -1.2660100e-01   3.0349000e-02
  -1.9824400e-01  -1.3594300e-01   2.8711100e-02
  -2.0948000e-01  -1.0745000e-01   3.2455000e-02
  -2.0503200e-01  -1.4131500e-01   2.9413100e-02
  -1.7670800e-01  -1.6770600e-01   3.3157000e-02
  -1.7741000e-01  -1.4575200e-01   2.1925200e-02
  -1.4604200e-01  -2.0951000e-01   1.8883200e-02
  -1.4510500e-01  -1.9082700e-01   2.3797200e-02
  -1.2403700e-01  -1.9573100e-01   1.6543300e-02
  -1.0460800e-01  -2.1838500e-01   2.0989200e-02
  -1.0273500e-01  -1.8732300e-01   1.6309300e-02
  -6.1301400e-02  -2.4734500e-01   9.5234000e-03
  -6.4344600e-02  -2.5808800e-01   1.6543300e-02
  -3.9297000e-02  -2.9335400e-01   2.0053200e-02
   3.5414400e-03  -3.1157100e-01   2.1223200e-02
  -1.4249400e-02  -2.8191000e-01   1.3267300e-02
   4.2437100e-03  -3.0386400e-01  -9.1962800e-03
   6.5846100e-03  -2.9125200e-01  -2.6512000e-02
   3.0732600e-03  -3.1203800e-01  -2.9319900e-02
   4.2400300e-02  -3.5150700e-01  -2.0194100e-02
   2.1566300e-02  -3.2628400e-01  -1.6918100e-02
   4.4507100e-02  -3.4753700e-01  -3.6573800e-02
   5.6679800e-02  -3.3399100e-01  -4.0317700e-02
   5.7382100e-02  -3.1390600e-01  -3.3765900e-02
   1.0864800e-01  -3.6762200e-01  -2.8617900e-02
   1.1215900e-01  -3.2114600e-01  -4.5163600e-03
   1.6131800e-01  -3.5104000e-01   1.1161400e-02
   1.6740400e-01  -3.6388500e-01   1.3501300e-02
   1.6412700e-01  -3.0853400e-01   1.2097400e-02
   1.9900600e-01  -3.3983000e-01   1.8181300e-02
   1.9128100e-01  -2.7957500e-01   3.2689000e-02
   2.4137700e-01  -2.6719700e-01   3.3859000e-02
   2.5589000e-01  -2.7677200e-01   1.7947300e-02
   2.2428800e-01  -2.2492500e-01  -3.8143700e-03
   2.5003800e-01  -2.3006300e-01  -1.1770200e-02
   2.1117900e-01  -1.7611300e-01  -1.7620100e-02
   1.9877200e-01  -1.4061400e-01  -3.8913800e-02
   2.1071100e-01  -1.2590100e-01  -6.1611400e-02
   1.3112000e-01  -7.0316400e-02  -8.2905000e-02
   1.3252500e-01  -9.4838800e-02  -1.1028300e-01
   9.9752300e-02  -6.5645400e-02  -1.1706800e-01
   7.9386500e-02  -3.8320400e-02  -1.0887900e-01
   1.2152300e-01  -3.5984900e-02  -1.0958100e-01
   7.8684200e-02   1.9832900e-02  -1.1215400e-01
   1.0303000e-01   5.5565600e-02  -1.4070200e-01
   9.9752300e-02   1.0718000e-01  -1.5240200e-01
   6.0191100e-02   1.4711600e-01  -1.3578800e-01
   8.8047800e-02   1.5318800e-01  -1.4046800e-01
   5.3636600e-02   1.4898400e-01  -1.3672400e-01
   6.3468400e-02   1.5272100e-01  -1.2081200e-01
   9.0622800e-02   1.7607600e-01  -1.1519600e-01
   4.5677600e-02   2.3329500e-01  -9.9518700e-02
   8.2195600e-02   2.8187300e-01  -6.3951300e-02
   5.3168400e-02   3.1573700e-01  -4.3593700e-02
   3.6079900e-02   3.1363500e-01  -3.3297900e-02
   4.6848000e-02   2.8654400e-01  -1.0132300e-02
   1.1734600e-02   2.7977100e-01   1.6356300e-04
   5.9254800e-02   2.8864600e-01  -2.8783800e-03
   7.2597900e-02   3.3675600e-01  -1.0366300e-02
   9.6240900e-02   3.5684100e-01  -3.0021900e-02
   1.1379800e-01   4.3321100e-01  -2.6044000e-02
   8.6643300e-02   4.8342400e-01  -1.0132300e-02
   9.9050000e-02   4.4792500e-01  -6.6223200e-03
   8.9218300e-02   4.7828600e-01  -1.0064200e-03
   8.8984200e-02   4.2924100e-01   6.9494500e-03
   1.2269300e-01   4.2106700e-01   2.2159200e-02
   7.1895600e-02   4.7431600e-01   2.8477100e-02
   6.4638800e-02   4.6053600e-01   1.6075300e-02
   4.1698100e-02   5.2873200e-01  -1.9424000e-03
   1.7586800e-02   5.2779800e-01   7.4174400e-03
   5.0593500e-02   4.8459200e-01   2.7541100e-02
   1.9225400e-02   4.5469800e-01   1.9351200e-02
   1.6650500e-02   3.3255300e-01  -3.0442900e-04
  -1.3078900e-02   3.1456900e-01  -1.2472200e-02
  -6.6685500e-02   3.7248900e-01  -1.5748200e-02
  -8.1433100e-02   4.0635300e-01  -1.0600300e-02
  -1.0437400e-01   4.4185300e-01  -7.0432800e-05
  -1.1514200e-01   3.7622600e-01   7.1834400e-03
  -1.0694900e-01   2.8187300e-01   2.0053200e-02
  -1.1607800e-01   2.2558800e-01   2.3329200e-02
  -1.1748300e-01   1.7887800e-01   2.7375200e-03
  -1.4814900e-01   1.8938800e-01   3.6735000e-03
  -1.6453500e-01   2.2839000e-01   2.8711100e-02
  -1.4814900e-01   2.3913400e-01   4.0176900e-02
  -1.3644400e-01   2.2862400e-01   4.2516800e-02
  -9.4308000e-02   1.9522700e-01   5.1174700e-02
  -8.2369500e-02   1.2633000e-01   7.1064300e-02
  -8.9626200e-02   8.3357700e-02   8.7678100e-02
  -9.0328500e-02   5.3463600e-02   9.7505900e-02
  -1.3784900e-01   6.6775800e-02   8.5104100e-02
  -1.6570500e-01   5.3697200e-02   7.5978300e-02
  -1.5446900e-01   3.5480500e-02   8.1360200e-02
  -1.4323300e-01   1.7964500e-02   6.3576500e-02
  -1.1069400e-01  -6.1208000e-02   6.1470500e-02
  -1.0016000e-01  -9.2269800e-02   4.7898700e-02
  -1.1841900e-01  -1.3197300e-01   2.1691200e-02
  -1.4229600e-01  -1.4271600e-01   2.2861200e-02
  -1.5727800e-01  -1.1165400e-01   3.4561000e-02
  -1.5961900e-01  -1.1165400e-01   4.2516800e-02
  -1.5634200e-01  -1.4808800e-01   4.6494800e-02
  -1.4042400e-01  -1.9456300e-01   3.5029000e-02
  -1.4370100e-01  -2.7256800e-01   1.7713300e-02
  -1.3855100e-01  -3.0619900e-01   1.8649200e-02
  -1.3784900e-01  -3.2768500e-01   2.0287200e-02
  -1.6032100e-01  -3.9027600e-01   3.4327000e-02
  -1.6734400e-01  -3.4893800e-01   5.2344700e-02
  -1.6593900e-01  -3.4099800e-01   5.6790600e-02
  -1.4487100e-01  -3.4963900e-01   4.2282800e-02
  -1.0905600e-01  -3.3796100e-01   3.3391000e-02
  -9.3137600e-02  -3.7509500e-01   4.6026800e-02
  -9.3137600e-02  -3.9821700e-01   6.3576500e-02
  -9.4776200e-02  -4.0265400e-01   7.6212300e-02
  -1.0531000e-01  -3.8630600e-01   7.2234300e-02
  -9.6414800e-02  -3.7205900e-01   7.7850200e-02
  -1.0016000e-01  -3.7112500e-01   7.2702300e-02
  -9.5478500e-02  -3.8023300e-01   7.2936300e-02
  -8.2837600e-02  -3.8000000e-01   8.3934100e-02
  -7.4410400e-02  -3.9307900e-01   7.7382200e-02
  -3.3912900e-02  -3.8443700e-01   6.7320400e-02
  -2.5017500e-02  -3.3188900e-01   4.5558800e-02
  -4.2574200e-02  -2.9545600e-01   3.9708900e-02
  -5.7087800e-02  -2.9125200e-01   4.4622800e-02
  -6.9728600e-02  -2.6602900e-01   3.2455000e-02
  -4.7256000e-02  -2.5551900e-01   1.2565300e-02
   1.7352700e-02  -2.6019000e-01  -1.1536200e-02
   6.0659300e-02  -2.4290800e-01  -3.2595900e-02
   6.3936600e-02  -2.3426600e-01  -3.2595900e-02
   5.3168400e-02  -2.3309900e-01  -2.6278000e-02
   3.4909500e-02  -2.2679300e-01  -4.2891700e-02
   2.4843600e-02  -1.8638900e-01  -6.3483300e-02
   2.5780000e-02  -1.9246200e-01  -7.6119100e-02
   2.6248100e-02  -1.8405400e-01  -7.1673200e-02
   3.5845800e-02  -1.6910700e-01  -5.1783500e-02
   5.9723000e-02  -1.5836400e-01  -4.2657700e-02
   6.3702500e-02  -1.3944600e-01  -4.5933600e-02
   8.6409200e-02  -1.5275900e-01  -4.7337600e-02
   7.8918300e-02  -1.2636800e-01  -3.4467800e-02
   6.4170700e-02  -1.2076300e-01  -1.7620100e-02
   8.3366000e-02  -9.5539500e-02  -3.5803700e-03
   7.4704700e-02  -3.0613300e-02   2.9715100e-03
   9.0856900e-02  -2.0804400e-02  -1.2404100e-03
   9.6475000e-02  -9.1270000e-03   2.0355300e-03
   1.2058600e-01   1.0491000e-02   7.4174400e-03
   1.3837700e-01   3.0174600e-03  -6.1543300e-03
   1.4025000e-01   4.3888200e-02  -5.2183400e-03
   1.5031600e-01   7.2614500e-02  -1.9424000e-03
   1.2128900e-01   1.0694600e-01  -2.0194100e-02
   1.0794500e-01   1.4758300e-01  -2.5576000e-02
   1.0864800e-01   1.3613900e-01  -1.7620100e-02
   1.1894800e-01   1.3030100e-01  -2.7682000e-02
   1.5593400e-01   1.3497200e-01  -4.8273600e-02
   1.7325600e-01   1.2469600e-01  -4.8507600e-02
   1.7466100e-01   1.0904800e-01  -3.9849700e-02
   1.9128100e-01   1.5225400e-01  -5.5059500e-02
   1.6108400e-01   1.4291200e-01  -8.0097100e-02
   1.5195400e-01   1.3333700e-01  -6.4419300e-02
   1.4001600e-01   1.5482300e-01  -5.5059500e-02
   1.0818000e-01   1.2376100e-01  -6.6525300e-02
   1.3580200e-01   1.2983400e-01  -7.2141200e-02
   1.5570000e-01   1.4104400e-01  -8.8988900e-02
   1.8051300e-01   1.4151100e-01  -8.0565000e-02
   1.6810600e-01   1.7070400e-01  -3.6573800e-02
   1.4563400e-01   1.5785900e-01  -2.6746000e-02
