**************************************************************************************
  	RED ACELEROGRÁFICA DE LA UNIVERSIDAD AUTONOMA METROPOLITANA (RA-UAM)
	   UNIDAD AZCAPOTZALCO. DIVISIÓN CBI-DEPARTAMENTO DE MATERIALES
     Av. San Pablo 420, Col. Nueva el Rosario, Azcapotzalco, C.P. 02128, Ciudad de México
		Área de Estructuras. e-mail: agb@azc.uam.mx
**************************************************************************************
ARCHIVO ESTANDAR DE ACELERACION:
VERSION DEL FORMATO                    : 2.0
NOMBRE DEL ARCHIVO                     : RIDA202312.121
FECHA Y HORA DE CREACION               : 11:30 a. m. 19/12/2023
REF. CATALOGO ACELEROGRAMAS, SMIS 1999 : REGISTRO NO.      /PAG.    


================================================================================
DATOS DE LA ESTACION:
NOMBRE DE LA ESTACION                  : UAM-AZCAPOTZALCO.
CLAVE DE LA ESTACION                   : RIDA
LOCALIZACION DE LA ESTACION            : AV. SAN PABLO 420, COL. NUEVA EL ROSARIO,
                                       : AZCAPOTZALCO, C.P.02128, CIUDAD DE MEXICO. 
                                       :
                                       : 
                                       : 
COORDENADAS DE LA ESTACION             : 19.498596 LAT. N
                                       : 99.195595 LONG. W
ALTITUD (msnm)                         : 2546
TIPO DE SUELO                          : ZONA DE TRANSICION
                                       : 
                                       : 
INSTITUCION RESPONSABLE                : UNIVERSIDAD AUTONOMA METROPOLITANA
                                       : 

================================================================================
DATOS DEL ACELEROGRAFO: 
MODELO DEL ACELEROGRAFO                : ETNA2 KINEMETRICS
NUMERO DE SERIE DEL ACELEROGRAFO       : 103732
NUMERO DE CANALES                      : 3
ORIENTACION C1-C6 (rumbo;orientacion)  : /N90E/N00E/V
ORIENTACION C7-C12 (rumbo;orientacion) : 
VEL. DE MUESTREO, C1-C6 (muestras/s)   : /200/200/200
VEL. DE MUESTREO, C7-C12 (muestras/s)  : 
ESC. COMPLETA DE SENSORES, C1-C6, (g)  : /2/2/2
ESC. COMPLETA DE SENSORES, C7-C12 (g)  : 
FREC. NAT. DE SENSORES, C1-C6, (Hz)    : /198/212/200   
FREC. NAT. DE SENSORES, C7-C12 (Hz)    : 
AMORTIGUAMIENTO DE SENSORES, C1-C6     : /0.7/0.7/0.7      
AMORTIGUAMIENTO DE SENSORES, C7-C12    : 
INTERVALO DE MUESTREO, C1-C6 (s)       : /0.005/0.005/0.005
INTERVALO DE MUESTREO, C7-C12 (s)      : 
UMBRAL DE DISPARO, C1-C6 (Gal)         : /2/2/2
UMBRAL DE DISPARO, C7-C12 (Gal)        : 
MEMORIA DE PREEVENTO (s)               : 50
TIEMPO DE POSEVENTO (s)                : 60


================================================================================
DATOS DEL SISMO:
FECHA DEL SISMO [GMT]                  : 2023/12/12
HORA EPICENTRO (GMT)                   : 17:06:27
MAGNITUD(ES)                           : /M=2.8
COORDENADAS DEL EPICENTRO              : 19.3630 LAT. N
                                       : -99.2000 LONG. W
PROFUNDIDAD FOCAL (Km)                 : 1.0
FUENTE DE LOS DATOS EPICENTRALES       : SSN
                                       : INSTITUTO DE GEOFISICA, UNAM

================================================================================
DATOS DE ESTE REGISTRO:
HORA DE LA PRIMERA MUESTRA (GMT)       : 17:05:54.000
EXACTITUD DEL TIEMPO (s)               : 
DURACION DEL REGISTRO (s), C1-C6       : /120/120/120
DURACION DEL REGISTRO (s), C7-C12      : 
NUM. TOTAL DE MUESTRAS, C1-C6          : /24000/24000/24000
NUM. TOTAL DE MUESTRAS, C7-C12         : 
ACEL. MAX.(Gal), C1-C6                 : /-0.503/0.664/-0.283
ACEL. MAX., C1-C6, EN LA MUESTRA       : /3738/19450/3989
ACEL. MAX.(Gal), C7-C12                : 
ACEL. MAX., C7-C12,EN LA MUESTRA       : 
UNIDADES DE LOS DATOS                  : Gal (cm/s/s)
FACTOR DE DECIMACION                   : 1
FORMATO DATOS (FORTRAN,16 campos/dato) : 3E16.7


================================================================================
CALIDAD DEL ACELEROGRAMA:
REGISTRO DIGITAL COMPLETO CON TIEMPO ABSOLUTO CORRECTO


================================================================================
COMENTARIOS:














================================================================================
DATOS DE ACELERACION:
---------+---------+---------+---------+---------+---------+---------+---------+
   CANAL-1   	     CANAL-2          CANAL-3
     N90E             N00E              V
---------+---------+---------+---------+---------+---------+---------+---------+ 
[...]
  -2.0789300e-02   1.8762800e-02   3.2569100e-02
  -2.3598300e-02   3.4176900e-02   2.0167300e-02
  -4.4198200e-02   2.6002800e-02   2.7763600e-04
  -5.2859600e-02   4.1183300e-02  -2.9983100e-03
  -3.3898300e-02   2.9038900e-02  -6.0402500e-03
  -1.4468800e-02   3.1374300e-02  -1.0954200e-02
   1.1749200e-02   2.5068600e-02  -6.5082500e-03
   2.6028700e-02  -1.8371200e-02  -8.1462200e-03
   1.0812800e-02  -2.5377600e-02  -2.2420000e-02
   6.8333100e-03  -3.8923400e-02  -2.1952000e-02
  -7.2120700e-03  -8.7957700e-03  -9.3162000e-03
  -1.7746100e-02  -2.9570900e-03   2.1496000e-03
  -1.8916600e-02  -1.6736400e-02   6.5955300e-03
  -2.8748300e-02  -1.5335100e-02  -2.7643100e-03
  -2.5705200e-02  -2.7012400e-02  -1.5634100e-02
  -2.6407400e-02  -1.9772500e-02  -1.5166100e-02
  -2.7577900e-02  -2.0006000e-02  -1.9846000e-02
  -3.5536900e-02  -5.9932000e-03  -2.4291900e-02
  -5.0986800e-02   1.2223500e-02  -1.9144000e-02
  -4.6773200e-02   7.5525400e-03  -2.6631900e-02
  -4.3496000e-02   1.1989900e-02  -3.6693700e-02
  -2.5471100e-02   2.8815900e-03  -4.3245600e-02
  -6.5098000e-03  -1.7893500e-03  -4.3245600e-02
  -2.1959700e-02   4.2828800e-03  -4.3011600e-02
  -1.8214300e-02   8.7202700e-03  -4.1607600e-02
  -1.6575700e-02   3.3242700e-02  -2.6397900e-02
  -4.1689000e-03   4.0482700e-02  -5.5722600e-03
   2.2049100e-02   2.9739500e-02   1.7827300e-02
  -1.7512000e-02   3.4644000e-02   3.4207100e-02
  -5.4732300e-02   2.0164100e-02   3.8887000e-02
  -8.3525300e-02   7.7860800e-03   4.6374800e-02
  -9.5932100e-02   1.1055700e-02   6.1116600e-02
  -3.9048300e-02   9.4209100e-03   6.0648600e-02
  -5.1052600e-03   2.3900800e-02   5.5500700e-02
   1.2451500e-02   2.5769200e-02   6.2520600e-02
  -1.5873400e-02   3.1374300e-02   5.6904700e-02
  -9.6400200e-02   2.0864700e-02   4.1460900e-02
  -1.0693400e-01  -1.7670600e-02   2.4145200e-02
  -8.5866200e-02  -2.5844700e-02   1.0339500e-02
  -3.1323300e-02  -3.0749200e-02   1.3147400e-02
   2.5560500e-02  -2.2808600e-02   5.1163200e-04
  -1.8937900e-04   1.1756400e-02  -2.0314000e-02
  -2.4768800e-02   3.8157800e-03  -2.3122000e-02
  -5.1923200e-02  -1.9071800e-02  -2.2420000e-02
  -5.9414100e-02  -3.8923400e-02  -2.1484000e-02
   5.4287700e-03  -5.6672900e-02  -2.1016000e-02
   2.0176400e-02  -1.8838300e-02  -2.0548000e-02
   6.5992200e-03   1.0355100e-02  -3.0843800e-02
  -1.7043800e-02   2.3667300e-02  -3.5991700e-02
  -7.2523100e-02   1.5493100e-02  -2.2186000e-02
  -8.1184400e-02  -1.5101500e-02  -1.4698100e-02
  -9.4527500e-02  -8.5516200e-04  -1.3060100e-02
  -8.5632100e-02  -2.0229000e-03  -1.6102100e-02
  -4.6071000e-02   2.0397600e-02  -1.3060100e-02
  -2.7109700e-02   4.5153600e-02   4.9575600e-03
   2.3219600e-02  -2.7235400e-03   5.1915500e-03
   4.7096700e-02  -1.7904100e-02  -1.2592100e-02
   3.8669500e-02  -5.7596500e-03  -2.6163900e-02
   4.4053600e-02  -2.6311800e-02  -2.9907800e-02
  -2.5302800e-03   1.3624800e-02  -3.0375800e-02
  -1.8916600e-02   3.5344700e-02  -3.5289700e-02
  -1.6809700e-02   2.0864700e-02  -3.5289700e-02
  -4.8880000e-02   4.9357500e-02  -2.5929900e-02
  -1.5873400e-02   3.4644000e-02  -1.3762100e-02
  -9.3188800e-03   3.3242700e-02  -8.1462200e-03
  -6.9779800e-03   2.9506000e-02  -1.1263400e-03
   4.7265000e-03  -6.2267500e-03   1.1509400e-02
  -2.4768800e-02  -1.9772500e-02   2.6485200e-02
   2.4858200e-02  -4.4995600e-02   2.4145200e-02
   5.8801200e-02  -5.5271700e-02   2.5549200e-02
   4.7799000e-02  -5.9475500e-02   3.8419000e-02
   3.8435400e-02  -6.6715500e-02   3.4207100e-02
  -1.9618800e-02  -1.0197000e-02   4.0992900e-02
  -1.5639300e-02   1.7128000e-02   4.7310800e-02
  -9.7870500e-03   1.0588600e-02   4.1694900e-02
  -2.2427900e-02   1.1055700e-02   3.3037100e-02
   7.5355800e-03  -2.9347900e-02   1.8529300e-02
  -1.5405200e-02  -2.3509200e-02   1.5487400e-02
  -5.1052600e-03  -1.2999600e-02   1.0339500e-02
  -1.5939200e-03  -1.3233200e-02   6.3615300e-03
  -3.4366500e-02   1.7361500e-02   1.0105500e-02
  -8.3825200e-03   6.8518900e-03  -1.5943300e-03
  -2.9684700e-02   1.0355100e-02  -6.9762400e-03
  -3.9048300e-02   1.1522800e-02  -1.5166100e-02
  -1.9384700e-02  -1.0430600e-02  -2.8737900e-02
  -4.4900500e-02   1.0355100e-02  -1.4464100e-02
  -1.3532500e-02  -9.9635000e-03  -1.8283300e-03
  -1.6107500e-02  -2.0239600e-02  -1.4464100e-02
  -2.1023400e-02  -1.8371200e-02  -4.4181600e-02
   1.3856000e-02  -5.2235500e-02  -6.6411200e-02
  -2.1491500e-02  -5.6672900e-02  -6.5241200e-02
  -1.4468800e-02  -7.3254800e-02  -6.5007200e-02
  -2.6875600e-02  -4.5229100e-02  -6.1029300e-02
  -4.1857300e-02   1.4325400e-02  -4.9563500e-02
   9.4083000e-03   2.9038900e-02  -3.8331700e-02
  -7.2120700e-03   4.0249100e-02  -1.5868100e-02
  -1.5939200e-03   1.4091900e-02  -3.9342900e-03
   1.0812800e-02  -2.8880800e-02  -2.2963200e-03
  -1.8682500e-02  -1.9538900e-02  -1.5943300e-03
   2.0878700e-02   1.4803100e-03  -1.8283300e-03
   8.2378500e-03   1.2223500e-02   9.4034800e-03
  -2.5705200e-02   1.8762800e-02   2.0635300e-02
  -1.5873400e-02  -1.3222600e-03   2.8825100e-02
  -5.0986800e-02  -9.4964100e-03   2.7655200e-02
  -4.1689000e-03  -1.0897700e-02   1.7827300e-02
   3.0710500e-02  -1.1131200e-02   2.3677200e-02
   1.6196900e-02   1.0822200e-02   3.4675000e-02
   4.6628600e-02   4.9835200e-03   3.1165100e-02
   1.8303700e-02  -9.4964100e-03   2.1805300e-02
   3.0242300e-02  -2.4910500e-02   2.2507300e-02
   4.5692200e-02   1.0355100e-02   2.1103300e-02
   7.3014900e-03   3.0440200e-02   1.2445400e-02
   2.1112800e-02   3.6745900e-02   1.2211400e-02
  -1.8448400e-02   2.5068600e-02   1.2679400e-02
  -5.7541300e-02  -6.6949000e-02  -6.5082500e-03
  -5.5902700e-02  -6.6949000e-02  -2.6397900e-02
  -6.3159500e-02  -2.7246000e-02  -2.2420000e-02
  -3.9348100e-03   9.4209100e-03   9.7962400e-04
   3.2583200e-02   5.2393600e-02   1.7125300e-02
   4.3117200e-02   2.9739500e-02   1.0105500e-02
   4.1712700e-02  -5.2925600e-03   5.4255500e-03
  -1.8916600e-02  -1.3933800e-02  -2.0623200e-03
  -3.2961900e-02  -2.3042100e-02  -1.3996100e-02
  -7.4461600e-03   1.9930500e-02  -1.7038100e-02
   2.7667300e-02   4.9591000e-02  -1.5634100e-02
   7.3080700e-02   3.9081400e-02  -1.1188200e-02
   3.7967200e-02   5.7064500e-02  -2.1250000e-02
  -2.5471100e-02   1.1989900e-02  -4.7223500e-02
  -7.6034400e-02   7.3189900e-03  -5.4945400e-02
  -8.6802600e-02   7.3189900e-03  -3.8799700e-02
  -2.0087000e-02  -6.9273900e-03  -2.0782000e-02
   4.0776300e-02   2.5769200e-02  -1.0252200e-02
   8.6657900e-02   2.1809500e-03  -3.9342900e-03
   7.6592000e-02  -8.5516200e-04   4.3640200e-05
   4.0542200e-02  -1.6969900e-02  -1.1422200e-02
   3.9605900e-02  -5.2002000e-02  -3.3651800e-02
   4.8969500e-02  -2.3275700e-02  -3.0843800e-02
   5.3183100e-02   8.2531800e-03  -1.8910000e-02
   9.4083000e-03   1.4325400e-02  -1.2826100e-02
  -3.3430100e-02   3.3709800e-02  -6.9762400e-03
  -4.2325500e-02   3.5811700e-02   5.1163200e-04
  -1.7277900e-02   1.3624800e-02   1.3615400e-02
   4.2414900e-02   3.7446600e-02   8.4674900e-03
   7.8698800e-02   3.0673700e-02   2.0635300e-02
   8.1507900e-02   1.3858300e-02   4.7544800e-02
   5.7162600e-02   7.5525400e-03   4.8948800e-02
   1.6833400e-03  -5.7607100e-02   4.0290900e-02
  -2.2896100e-02  -5.8074200e-02   3.2569100e-02
  -2.5705200e-02  -2.4443400e-02   3.0463100e-02
  -3.0621000e-02  -2.9114400e-02   1.7359300e-02
  -2.8280100e-02  -8.0951200e-03   7.5315100e-03
  -4.9582300e-02  -4.9900100e-02   8.4674900e-03
  -5.2859600e-02  -9.5908900e-02   4.3640200e-05
  -5.4030000e-02  -9.2872800e-02  -1.3762100e-02
  -5.0752700e-02  -7.5356700e-02  -2.2888000e-02
  -2.0555200e-02  -1.0197000e-02  -1.0486200e-02
  -1.3766600e-02   3.9782000e-02   5.1163200e-04
   2.7880100e-04   6.8741900e-02   3.0855900e-03
   1.7601400e-02   6.8508400e-02   1.3381400e-02
   5.6628600e-03   4.7022000e-02   1.8763300e-02
  -1.3766600e-02   1.0822200e-02   1.9699300e-02
  -3.2961900e-02  -3.1216300e-02   4.0215700e-03
  -4.2793700e-02  -5.7840700e-02  -9.5501900e-03
  -4.2091400e-02  -4.7331100e-02  -1.1656200e-02
  -6.8543600e-02  -3.4018900e-02  -2.6631900e-02
  -1.1465900e-01  -7.6280300e-03  -3.6693700e-02
  -1.4064300e-01   2.3900800e-02  -4.0671700e-02
  -1.1606400e-01  -1.8371200e-02  -3.3417800e-02
  -3.6707400e-02  -2.9815000e-02  -1.4230100e-02
   2.4624100e-02  -2.5844700e-02  -1.9035600e-04
   2.8135500e-02  -2.4910500e-02   9.7962400e-04
  -1.3766600e-02  -1.0430600e-02  -1.1656200e-02
  -5.1220900e-02  -4.5919200e-03  -2.3122000e-02
  -1.5405200e-02  -2.2564500e-03  -3.5289700e-02
   5.4587600e-02   2.3900800e-02  -3.5055800e-02
   8.5487400e-02   5.4028400e-02  -2.0782000e-02
   6.0908000e-02   5.7064500e-02  -1.3294100e-02
  -2.8046000e-02   5.0291700e-02  -8.6142100e-03
  -8.4695700e-02   2.2733100e-02   7.7655100e-03
  -4.7709600e-02   3.3476300e-02   2.4847200e-02
  -1.1257400e-03   2.6703400e-02   3.3037100e-02
   1.6665100e-02   1.2457000e-02   3.9121000e-02
  -3.0152900e-02  -7.6280300e-03   4.4502900e-02
  -9.3591200e-02  -1.6736400e-02   6.5094500e-02
  -9.5698000e-02   1.5259600e-02   7.8666300e-02
  -6.6436800e-02   9.1873700e-03   6.5562500e-02
  -3.1089200e-02   2.3433700e-02   4.8246800e-02
  -1.5873400e-02   1.9697000e-02   3.5377000e-02
  -1.0489300e-02  -2.6545400e-02   2.3209200e-02
   9.1742100e-03  -3.5653700e-02   7.0635200e-03
   8.4719400e-03  -1.5802200e-02  -2.1250000e-02
  -2.8514200e-02   2.0397600e-02  -5.4477400e-02
  -5.0986800e-02   7.7149600e-02  -5.2605500e-02
  -5.2391400e-02   1.1521800e-01  -3.1779800e-02
  -1.9384700e-02   7.0376700e-02  -1.0954200e-02
   5.2949000e-02   1.3157700e-02   4.2555700e-03
   8.4551100e-02  -1.5568600e-02  -6.0402500e-03
   6.6292100e-02  -4.4528500e-02  -4.1607600e-02
   6.8333100e-03  -5.5038100e-02  -5.9157300e-02
  -7.8609400e-02  -6.7883200e-02  -3.3885800e-02
  -1.2378900e-01  -7.1620000e-02  -5.5722600e-03
  -9.4059300e-02  -7.2554100e-02   2.3836000e-03
   1.1983300e-02  -3.4719500e-02  -3.8799700e-02
   1.3417800e-01  -5.7596500e-03  -8.1387000e-02
   1.7678200e-01   1.3624800e-02  -6.3135300e-02
   1.0421500e-01   6.3603900e-02  -6.7422400e-03
  -7.8843500e-02   6.8508400e-02   6.8838500e-02
  -2.6892400e-01   3.4176900e-02   1.0932000e-01
  -2.9303600e-01  -7.8159300e-02   5.6904700e-02
  -1.1723400e-01  -1.7951900e-01  -6.4071300e-02
   1.8240100e-01  -1.6083500e-01  -1.4433200e-01
   3.8301500e-01   4.4219400e-02  -7.8579000e-02
   2.8142000e-01   2.7473100e-01   1.0791600e-01
  -7.2757200e-02   2.6422100e-01   2.4503700e-01
  -4.5643000e-01  -4.1959500e-02   1.6079900e-01
  -4.8592500e-01  -4.8032800e-01  -8.4662900e-02
  -7.2523100e-02  -5.6627300e-01  -2.5407600e-01
   3.9191100e-01  -1.4215100e-01  -2.1008500e-01
   4.9889000e-01   4.5339400e-01   2.5081200e-02
   1.4120100e-01   6.6358700e-01   2.3895400e-01
  -3.5038800e-01   2.3806400e-01   1.9028200e-01
  -4.8101000e-01  -4.0395800e-01  -3.1077800e-02
  -1.5000700e-01  -5.8846000e-01  -1.4784200e-01
   2.6784300e-01  -1.2813800e-01  -7.3899100e-02
   3.5492500e-01   4.8539000e-01   9.1068100e-02
   4.7564900e-02   5.9282200e-01   1.6430900e-01
  -3.0637900e-01   8.5323700e-02   6.4860500e-02
  -3.3329900e-01  -4.3081600e-01  -6.0327300e-02
  -5.0986800e-02  -4.6327900e-01  -9.5192700e-02
   1.6765300e-01  -3.7288500e-02  -6.5709200e-02
   1.3792400e-01   3.4245900e-01  -5.5722600e-03
  -2.7577900e-02   3.0135500e-01   3.7483000e-02
  -1.6054100e-01   6.6183500e-03   5.4255500e-03
  -1.0318900e-01  -2.2132400e-01  -4.7223500e-02
   4.0308100e-02  -1.5990100e-01  -5.8221400e-02
   9.7660100e-02   4.1650400e-02  -3.8331700e-02
   4.0308100e-02   1.1895500e-01   1.3147400e-02
  -5.4498200e-02   8.6024400e-02   3.9589000e-02
  -6.6202700e-02   2.6002800e-02   7.9995000e-03
   4.9605900e-03  -4.2660100e-02  -3.5289700e-02
   6.6760300e-02  -8.5632800e-02  -4.3947600e-02
   3.8669500e-02  -7.1152900e-02  -1.2592100e-02
  -3.8111900e-02   2.8815900e-03   9.6374700e-03
  -7.4161700e-02   1.3506900e-01  -8.8482100e-03
  -5.0050500e-02   1.7126900e-01  -5.4477400e-02
   5.1289000e-04   6.8508400e-02  -6.8985200e-02
   1.3621900e-02  -6.3679400e-02  -2.2654000e-02
  -4.1389200e-02  -1.0501700e-01   3.4909000e-02
  -9.4293400e-02   3.1151400e-03   4.3332900e-02
  -7.2523100e-02   1.1124700e-01   2.3677200e-02
  -1.5171100e-02   9.3731400e-02   3.1399100e-02
   3.0476400e-02  -5.9709100e-02   4.3332900e-02
   1.8537800e-02  -1.7111100e-01   4.5672900e-02
  -2.8748300e-02  -1.1225700e-01   3.2803100e-02
  -2.1959700e-02   1.4803100e-03  -4.1682900e-03
  -1.6809700e-02   9.4198500e-02  -1.5634100e-02
  -4.0686900e-02   8.0652800e-02   9.8714700e-03
  -6.2223100e-02  -5.4571000e-02   3.0463100e-02
  -6.9479900e-02  -9.7777200e-02   2.7889200e-02
   1.7601400e-02  -3.8923400e-02   1.4551400e-02
   1.0093700e-01   6.8975400e-02   1.2136200e-03
   8.7126100e-02   1.4114200e-01  -9.3162000e-03
   2.1815100e-02   7.6916100e-02  -1.2592100e-02
  -5.9180000e-02  -8.5516200e-04  -4.6362800e-03
  -4.0452800e-02  -6.4847100e-02   1.9465300e-02
   4.1946800e-02  -5.0834300e-02   3.9121000e-02
   9.8830500e-02   1.7595100e-02   2.9527100e-02
   9.4851000e-02   3.2308500e-02  -1.0486200e-02
  -3.4666300e-03   2.6002800e-02  -4.4181600e-02
  -6.5500400e-02  -5.7596500e-03  -3.4119800e-02
  -4.3730100e-02  -2.1407300e-02  -6.5834800e-04
   2.7667300e-02  -3.4018900e-02   1.5253400e-02
   1.1147100e-01  -4.5929800e-02  -9.5501900e-03
   8.7594200e-02  -3.5186600e-02  -3.9033700e-02
  -1.8682500e-02  -1.5802200e-02  -5.2137500e-02
  -1.0038000e-01   4.0015600e-02  -5.3307400e-02
  -9.3123000e-02   5.0291700e-02  -2.7333900e-02
   1.9174300e-03   1.2690600e-02  -1.5400100e-02
   7.1442100e-02  -4.1959500e-02  -3.8565700e-02
   5.5758100e-02  -5.7607100e-02  -5.2137500e-02
  -1.0489300e-02  -1.6736400e-02  -3.7395700e-02
  -5.6839100e-02   5.1459400e-02  -1.5400100e-02
  -1.6575700e-02   9.3965000e-02   4.7235600e-03
   2.4155900e-02   3.6979500e-02   9.8714700e-03
  -5.5734400e-03  -1.6969900e-02   2.7763600e-04
  -2.8982400e-02  -5.8774900e-02   1.4476200e-03
  -4.2559600e-02  -3.8456300e-02   1.5721400e-02
   7.4698000e-04   8.2531800e-03   2.1571300e-02
   8.4082900e-02  -6.2267500e-03   3.0697100e-02
   5.0842200e-02   7.9026500e-05   5.1054800e-02
  -2.7109700e-02  -2.4209900e-02   5.5734700e-02
  -9.3357100e-02  -1.1831900e-02   5.6436700e-02
  -1.1536100e-01   4.7022000e-02   5.4798700e-02
  -4.1389200e-02   3.7213000e-02   3.9589000e-02
   2.1112800e-02   1.7828600e-02   2.1337300e-02
   5.8801200e-02  -3.6577300e-03   8.2335000e-03
   5.9971700e-02  -5.9932000e-03   1.0339500e-02
   2.1346900e-02   3.7913700e-02   1.4785400e-02
  -1.4234800e-02   9.6767600e-02  -6.9762400e-03
  -5.6136800e-02   1.0424100e-01  -3.5757700e-02
  -5.2157300e-02   5.4028400e-02  -2.2420000e-02
   4.4711100e-05  -4.1248200e-03   6.5955300e-03
   5.2246700e-02  -3.7288500e-02  -1.9035600e-04
   8.5253300e-02   7.9026500e-05  -1.4932100e-02
   6.3014800e-02   4.7956200e-02  -1.3996100e-02
  -1.4234800e-02   2.8104700e-02  -8.9234400e-04
  -7.8375300e-02  -2.7713100e-02   3.3195800e-03
  -7.6736700e-02  -6.7883200e-02  -1.7272100e-02
  -2.0789300e-02  -6.7416100e-02  -4.3947600e-02
   1.9708200e-02  -2.4209900e-02  -5.8221400e-02
   1.4324200e-02  -1.6736400e-02  -5.7051400e-02
  -1.9384700e-02  -1.3933800e-02  -5.2371500e-02
  -7.6736700e-02  -2.7713100e-02  -4.1841600e-02
  -8.6568500e-02  -3.5186600e-02  -3.8799700e-02
