**************************************************************************************
  	RED ACELEROGRÁFICA DE LA UNIVERSIDAD AUTONOMA METROPOLITANA (RA-UAM)
	   UNIDAD AZCAPOTZALCO. DIVISIÓN CBI-DEPARTAMENTO DE MATERIALES
     Av. San Pablo 420, Col. Nueva el Rosario, Azcapotzalco, C.P. 02128, Ciudad de México
		Área de Estructuras. e-mail: agb@azc.uam.mx
**************************************************************************************
ARCHIVO ESTANDAR DE ACELERACION:
VERSION DEL FORMATO                    : 2.0
NOMBRE DEL ARCHIVO                     : RIDA202312.071
FECHA Y HORA DE CREACION               : 11:30 a. m. 07/12/2023
REF. CATALOGO ACELEROGRAMAS, SMIS 1999 : REGISTRO NO.      /PAG.    


================================================================================
DATOS DE LA ESTACION:
NOMBRE DE LA ESTACION                  : UAM-AZCAPOTZALCO.
CLAVE DE LA ESTACION                   : RIDA
LOCALIZACION DE LA ESTACION            : AV. SAN PABLO 420, COL. NUEVA EL ROSARIO,
                                       : AZCAPOTZALCO, C.P.02128, CIUDAD DE MEXICO. 
                                       :
                                       : 
                                       : 
COORDENADAS DE LA ESTACION             : 19.498596 LAT. N
                                       : 99.195595 LONG. W
ALTITUD (msnm)                         : 2546
TIPO DE SUELO                          : ZONA DE TRANSICION
                                       : 
                                       : 
INSTITUCION RESPONSABLE                : UNIVERSIDAD AUTONOMA METROPOLITANA
                                       : 

================================================================================
DATOS DEL ACELEROGRAFO: 
MODELO DEL ACELEROGRAFO                : ETNA2 KINEMETRICS
NUMERO DE SERIE DEL ACELEROGRAFO       : 103732
NUMERO DE CANALES                      : 3
ORIENTACION C1-C6 (rumbo;orientacion)  : /N90E/N00E/V
ORIENTACION C7-C12 (rumbo;orientacion) : 
VEL. DE MUESTREO, C1-C6 (muestras/s)   : /200/200/200
VEL. DE MUESTREO, C7-C12 (muestras/s)  : 
ESC. COMPLETA DE SENSORES, C1-C6, (g)  : /2/2/2
ESC. COMPLETA DE SENSORES, C7-C12 (g)  : 
FREC. NAT. DE SENSORES, C1-C6, (Hz)    : /198/212/200   
FREC. NAT. DE SENSORES, C7-C12 (Hz)    : 
AMORTIGUAMIENTO DE SENSORES, C1-C6     : /0.7/0.7/0.7      
AMORTIGUAMIENTO DE SENSORES, C7-C12    : 
INTERVALO DE MUESTREO, C1-C6 (s)       : /0.005/0.005/0.005
INTERVALO DE MUESTREO, C7-C12 (s)      : 
UMBRAL DE DISPARO, C1-C6 (Gal)         : /2/2/2
UMBRAL DE DISPARO, C7-C12 (Gal)        : 
MEMORIA DE PREEVENTO (s)               : 50
TIEMPO DE POSEVENTO (s)                : 60


================================================================================
DATOS DEL SISMO:
FECHA DEL SISMO [GMT]                  : 2023/12/07
HORA EPICENTRO (GMT)                   : 20:03:40
MAGNITUD(ES)                           : /M=5.7
COORDENADAS DEL EPICENTRO              : 18.7600 LAT. N
                                       : -98.7600 LONG. W
PROFUNDIDAD FOCAL (Km)                 : 48.0
FUENTE DE LOS DATOS EPICENTRALES       : SSN
                                       : INSTITUTO DE GEOFISICA, UNAM

================================================================================
DATOS DE ESTE REGISTRO:
HORA DE LA PRIMERA MUESTRA (GMT)       : 20:03:12.000
EXACTITUD DEL TIEMPO (s)               : 
DURACION DEL REGISTRO (s), C1-C6       : /231/231/231
DURACION DEL REGISTRO (s), C7-C12      : 
NUM. TOTAL DE MUESTRAS, C1-C6          : /46200/46200/46200
NUM. TOTAL DE MUESTRAS, C7-C12         : 
ACEL. MAX.(Gal), C1-C6                 : /-14.77/9.268/-4.179
ACEL. MAX., C1-C6, EN LA MUESTRA       : /15044/14255/13643
ACEL. MAX.(Gal), C7-C12                : 
ACEL. MAX., C7-C12,EN LA MUESTRA       : 
UNIDADES DE LOS DATOS                  : Gal (cm/s/s)
FACTOR DE DECIMACION                   : 1
FORMATO DATOS (FORTRAN,16 campos/dato) : 3E16.7


================================================================================
CALIDAD DEL ACELEROGRAMA:
REGISTRO DIGITAL COMPLETO CON TIEMPO ABSOLUTO CORRECTO


================================================================================
COMENTARIOS:














================================================================================
DATOS DE ACELERACION:
---------+---------+---------+---------+---------+---------+---------+---------+
   CANAL-1   	     CANAL-2          CANAL-3
     N90E             N00E              V
---------+---------+---------+---------+---------+---------+---------+---------+
[...]
  -3.2780200e+00   1.3315600e+00  -7.5389400e-02
  -3.1462300e+00   1.3677600e+00  -9.5045000e-02
  -3.1272700e+00   1.4691200e+00  -1.4090800e-01
  -3.1637900e+00   1.5525000e+00  -2.0876700e-01
  -3.2276900e+00   1.6034100e+00  -2.6399000e-01
  -3.2312000e+00   1.5854300e+00  -3.1149100e-01
  -3.1996000e+00   1.5483000e+00  -3.5501500e-01
  -3.1689400e+00   1.5312500e+00  -3.8122200e-01
  -3.1293800e+00   1.5497000e+00  -3.9830400e-01
  -3.0537600e+00   1.5849600e+00  -4.1491800e-01
  -2.8611100e+00   1.6115900e+00  -4.2895700e-01
  -2.5692000e+00   1.6029500e+00  -4.0813200e-01
  -2.2386600e+00   1.5648800e+00  -3.4822900e-01
  -1.8545200e+00   1.4761300e+00  -2.9628200e-01
  -1.4767000e+00   1.4020900e+00  -2.9698400e-01
  -1.1075400e+00   1.3537500e+00  -3.4144300e-01
  -7.6811300e-01   1.2615000e+00  -3.9385800e-01
  -5.0850700e-01   1.1169300e+00  -4.3036100e-01
  -2.6903400e-01   8.3294000e-01  -4.4065700e-01
  -4.4073400e-02   4.2189700e-01  -4.2404300e-01
   2.1670300e-01  -1.4515500e-01  -4.0041000e-01
   5.3108500e-01  -8.2991600e-01  -3.8098800e-01
   8.7730400e-01  -1.5681600e+00  -3.4191100e-01
   1.2605100e+00  -2.3330300e+00  -2.6750000e-01
   1.6348200e+00  -3.0149800e+00  -1.3178200e-01
   2.0133400e+00  -3.6077300e+00   4.5352500e-02
   2.3991200e+00  -4.0533300e+00   2.2903900e-01
   2.7818600e+00  -4.3494700e+00   4.0570600e-01
   3.1662300e+00  -4.5540600e+00   5.5476200e-01
   3.5253300e+00  -4.6741000e+00   6.7737600e-01
   3.8127900e+00  -4.7693900e+00   7.5670000e-01
   3.9569900e+00  -4.8060600e+00   7.9343800e-01
   3.9396600e+00  -4.7565400e+00   7.8782200e-01
   3.7835300e+00  -4.5928300e+00   7.3213100e-01
   3.5302400e+00  -4.3354600e+00   6.3759600e-01
   3.2341200e+00  -4.0141000e+00   5.0070900e-01
   2.9293300e+00  -3.6490600e+00   3.5843900e-01
   2.5976300e+00  -3.3176600e+00   2.5384300e-01
   2.2315100e+00  -3.0385700e+00   1.8762200e-01
   1.8335600e+00  -2.8526700e+00   1.3590900e-01
   1.4683800e+00  -2.7258500e+00   9.4725700e-02
   1.2368700e+00  -2.6284600e+00   8.4195900e-02
   1.1544700e+00  -2.6160800e+00   8.7003800e-02
   1.2237600e+00  -2.6733000e+00   6.3136200e-02
   1.3857500e+00  -2.7826000e+00  -1.0572500e-02
   1.5842500e+00  -2.9222600e+00  -1.3669600e-01
   1.7860400e+00  -3.0474500e+00  -2.9932400e-01
   1.9892300e+00  -3.1158800e+00  -4.4908100e-01
   2.2322100e+00  -3.1242800e+00  -5.6678100e-01
   2.5231900e+00  -3.0743000e+00  -6.3253400e-01
   2.8396800e+00  -2.9612700e+00  -6.2130200e-01
   3.1566300e+00  -2.8725200e+00  -5.5203900e-01
   3.4007900e+00  -2.7613500e+00  -4.3316900e-01
   3.5414800e+00  -2.6352400e+00  -2.8411400e-01
   3.6025800e+00  -2.4979100e+00  -1.2218900e-01
   3.5693300e+00  -2.3246200e+00   4.2544600e-02
   3.4426900e+00  -2.1835600e+00   2.1383000e-01
   3.1645900e+00  -1.9411300e+00   3.8043500e-01
   2.7835000e+00  -1.6172000e+00   5.0889900e-01
   2.3406000e+00  -1.2042900e+00   5.8611700e-01
   1.8202200e+00  -6.9002100e-01   6.1138900e-01
   1.2965600e+00  -2.7897800e-01   6.6661200e-01
   7.9630900e-01   1.6926500e-02   7.7495200e-01
   3.5107000e-01   2.6098300e-01   8.7791000e-01
   5.3195600e-03   5.5852200e-01   9.3664300e-01
  -2.0348800e-01   1.0543400e+00   9.1347800e-01
  -2.1425700e-01   1.6473200e+00   8.3859900e-01
  -3.8455200e-02   2.1454800e+00   7.1387900e-01
   2.4994300e-01   2.4075200e+00   5.8167100e-01
   6.1723000e-01   2.4273700e+00   5.2270400e-01
   9.8943300e-01   2.4147600e+00   4.2676600e-01
   1.3237100e+00   2.5105100e+00   2.0517200e-01
   1.6640800e+00   2.6791300e+00   1.9379000e-02
   1.9602000e+00   2.7370500e+00  -4.5671900e-02
   2.0653100e+00   2.7141600e+00  -1.5518200e-01
   1.9585600e+00   2.5896800e+00  -3.2131900e-01
   1.8045300e+00   2.3792600e+00  -4.6031300e-01
   1.6373900e+00   2.2062000e+00  -6.0656000e-01
   1.3789600e+00   2.0803200e+00  -7.6942100e-01
   1.0697300e+00   2.0137500e+00  -9.2315700e-01
   7.4176600e-01   1.8362600e+00  -1.0424900e+00
   3.9414200e-01   1.6592300e+00  -1.1494300e+00
   4.3008000e-02   1.4350300e+00  -1.2456000e+00
  -2.8799500e-01   1.1804600e+00  -1.3183800e+00
  -5.6773200e-01   1.0181400e+00  -1.3668100e+00
  -7.9339400e-01   8.8572200e-01  -1.3544100e+00
  -9.6287500e-01   8.6120000e-01  -1.2474800e+00
  -1.1007500e+00   8.6587100e-01  -1.0537300e+00
  -1.2519800e+00   9.3476700e-01  -8.2277200e-01
  -1.3510000e+00   1.0333200e+00  -6.0164600e-01
  -1.3849400e+00   1.1463600e+00  -4.2380900e-01
  -1.3837700e+00   1.2972300e+00  -2.6305400e-01
  -1.3793200e+00   1.4072300e+00  -9.6683000e-02
  -1.4366700e+00   1.5226100e+00   2.8738800e-02
  -1.4998800e+00   1.6737100e+00   8.8875800e-02
  -1.5207100e+00   1.8698900e+00   1.2303900e-01
  -1.5136900e+00   2.0912900e+00   1.5626700e-01
  -1.4863000e+00   2.2708900e+00   1.8036800e-01
  -1.4579700e+00   2.3463300e+00   2.4237700e-01
  -1.4734200e+00   2.3320800e+00   3.5656700e-01
  -1.5216500e+00   2.2127400e+00   4.6046100e-01
  -1.6003000e+00   2.0492500e+00   5.2481000e-01
  -1.6632700e+00   1.8909100e+00   5.7582100e-01
  -1.6955800e+00   1.7307000e+00   6.5093400e-01
  -1.7295200e+00   1.6375100e+00   7.3049300e-01
  -1.7292800e+00   1.5307800e+00   7.7518600e-01
  -1.7985800e+00   1.4275500e+00   7.7401600e-01
  -1.9888900e+00   1.3063400e+00   7.4617000e-01
  -2.3182500e+00   1.1484600e+00   6.8182200e-01
  -2.7660700e+00   9.4714500e-01   5.6131400e-01
  -3.2122400e+00   6.8860800e-01   4.2629800e-01
  -3.6378200e+00   4.5366000e-01   2.9572800e-01
  -3.9845000e+00   1.8391300e-01   1.4269500e-01
  -4.2921000e+00  -7.3623700e-03  -3.5844100e-02
  -4.5924400e+00  -1.3020800e-01  -1.9753500e-01
  -4.8305000e+00  -2.5398800e-01  -3.0985300e-01
  -4.9988200e+00  -3.7052800e-01  -3.6484200e-01
  -5.0727900e+00  -5.0995600e-01  -3.7958400e-01
  -5.0339300e+00  -6.5825800e-01  -3.5337700e-01
  -4.9386500e+00  -7.4467100e-01  -2.6913800e-01
  -4.8134200e+00  -7.5354600e-01  -1.5916000e-01
  -4.6345700e+00  -6.8394900e-01  -6.0647600e-02
  -4.4267000e+00  -5.4779100e-01  -1.2444500e-02
  -4.1539900e+00  -4.5600700e-01  -4.4267900e-02
  -3.8489700e+00  -3.7286400e-01  -1.5097000e-01
  -3.4969000e+00  -3.2288500e-01  -3.1336300e-01
  -3.1094800e+00  -2.3974200e-01  -5.0243200e-01
  -2.7293200e+00  -8.5600700e-02  -6.9009700e-01
  -2.3271500e+00   1.0404000e-01  -8.4125800e-01
  -1.9341100e+00   2.9554800e-01  -9.4749200e-01
  -1.5371000e+00   4.1372300e-01  -9.9359000e-01
  -1.1417200e+00   4.8939200e-01  -9.4679000e-01
  -7.6436700e-01   4.8191900e-01  -8.2792000e-01
  -4.1206200e-01   4.5506100e-01  -6.6763300e-01
  -1.3185700e-01   4.8986000e-01  -4.6031300e-01
   7.9057800e-02   5.3540100e-01  -1.9870500e-01
   2.5041100e-01   6.1480700e-01   8.1855900e-02
   3.8805600e-01   6.9351300e-01   3.3059400e-01
   5.0018500e-01   7.5937300e-01   4.9649700e-01
   5.4138500e-01   8.9226100e-01   5.9430700e-01
   5.2546700e-01   1.0408000e+00   7.0147700e-01
   5.1633700e-01   1.1736900e+00   8.0349900e-01
   5.5800500e-01   1.2369800e+00   8.4936300e-01
   7.2327300e-01   1.2168900e+00   8.4842700e-01
   1.0027800e+00   1.1183400e+00   8.1519900e-01
   1.3272200e+00   9.2168800e-01   7.4476600e-01
   1.6423100e+00   7.3508400e-01   6.3057600e-01
   1.9367900e+00   5.8654800e-01   4.8900900e-01
   2.2750500e+00   4.4548600e-01   3.4650500e-01
   2.6950100e+00   3.1867000e-01   2.1663800e-01
   3.1809800e+00   2.3015500e-01   4.6288500e-02
   3.6721000e+00   2.0399800e-01  -1.8606900e-01
   4.1543200e+00   2.8223600e-01  -4.1515200e-01
   4.6337400e+00   4.4898900e-01  -6.4423400e-01
   5.0904500e+00   7.1126200e-01  -8.6231800e-01
   5.5768900e+00   1.0169800e+00  -1.0081000e+00
   6.1059300e+00   1.2306700e+00  -1.0371100e+00
   6.6356800e+00   1.3563200e+00  -9.5942600e-01
   7.1394400e+00   1.3708000e+00  -8.0381900e-01
   7.5973200e+00   1.2857900e+00  -6.3183200e-01
   8.0301500e+00   1.1409900e+00  -4.8839200e-01
   8.4482300e+00   9.0720800e-01  -3.3161500e-01
   8.7888300e+00   5.5128200e-01  -1.9847100e-01
   9.0086400e+00   1.1501600e-01  -8.2175300e-02
   9.1568200e+00  -3.0023100e-01   4.4884500e-02
   9.2869700e+00  -5.9870400e-01   1.4503500e-01
   9.4042500e+00  -7.4537100e-01   2.3067700e-01
   9.5320700e+00  -7.8087100e-01   3.2731800e-01
   9.5992500e+00  -7.7853500e-01   4.2793600e-01
   9.5580500e+00  -8.4976700e-01   5.0234700e-01
   9.4257900e+00  -9.5626500e-01   5.2972400e-01
   9.2230700e+00  -1.0856500e+00   5.1638600e-01
   9.0404800e+00  -1.2290500e+00   4.7684100e-01
   8.9236700e+00  -1.3983700e+00   4.3331800e-01
   8.8489900e+00  -1.6534000e+00   4.0617400e-01
   8.7532500e+00  -1.9259500e+00   3.4346300e-01
   8.6015600e+00  -2.2146200e+00   2.3980300e-01
   8.3899400e+00  -2.4248100e+00   1.3427100e-01
   8.1340800e+00  -2.5672700e+00   3.6928700e-02
   7.8286000e+00  -2.6406100e+00  -4.2630000e-02
   7.4779300e+00  -2.5925000e+00  -1.0744700e-01
   7.0968300e+00  -2.4761900e+00  -1.3459000e-01
   6.6485500e+00  -2.2216200e+00  -1.0580900e-01
   6.1230200e+00  -1.9093700e+00  -6.3923600e-02
   5.4961300e+00  -1.5819400e+00  -3.5844100e-02
   4.8214800e+00  -1.3044800e+00  -4.0206200e-03
   4.1632200e+00  -1.2173700e+00   1.5167100e-02
   3.4906800e+00  -1.3028500e+00   1.1272900e-03
   2.8242300e+00  -1.5410700e+00  -3.6780100e-02
   2.0805200e+00  -1.8687300e+00  -9.8789000e-02
   1.2375700e+00  -2.1816900e+00  -2.0268300e-01
   3.8665200e-01  -2.4544700e+00  -3.0681100e-01
  -4.7128700e-01  -2.6515800e+00  -4.0626000e-01
  -1.2753800e+00  -2.8169300e+00  -4.5399500e-01
  -2.0446000e+00  -2.9488900e+00  -3.9900600e-01
  -2.8283400e+00  -2.9923300e+00  -3.3863500e-01
  -3.5196000e+00  -2.9547300e+00  -2.1602100e-01
  -4.1486000e+00  -2.7475700e+00  -1.9698300e-02
  -4.7630900e+00  -2.4694200e+00   1.5556500e-01
  -5.4201800e+00  -2.1249300e+00   3.1655400e-01
  -6.1259600e+00  -1.7514900e+00   4.4993200e-01
  -6.7547200e+00  -1.4721700e+00   5.7722500e-01
  -7.3003800e+00  -1.2253100e+00   7.0124300e-01
  -7.7542800e+00  -1.0662700e+00   8.0654100e-01
  -8.1623000e+00  -1.0186200e+00   8.8446200e-01
  -8.5389500e+00  -1.0770100e+00   9.2962300e-01
  -8.9287100e+00  -1.1760300e+00   9.5700100e-01
  -9.4174900e+00  -1.2187700e+00   9.4857700e-01
  -9.9544900e+00  -1.2362900e+00   9.2447500e-01
  -1.0497100e+01  -1.2201700e+00   9.2658100e-01
  -1.1012100e+01  -1.1954200e+00   9.1768900e-01
  -1.1474200e+01  -1.1680900e+00   8.8750400e-01
  -1.1933300e+01  -9.6794200e-01   8.5872200e-01
  -1.2396800e+01  -6.3070000e-01   8.2151700e-01
  -1.2870800e+01  -2.0167400e-01   8.0115900e-01
  -1.3387700e+01   2.7873300e-01   7.7659000e-01
  -1.3901000e+01   7.4395900e-01   6.9375500e-01
  -1.4371800e+01   1.2042800e+00   5.6576000e-01
  -1.4681000e+01   1.5641800e+00   4.3074400e-01
  -1.4767100e+01   1.8549400e+00   2.5711900e-01
  -1.4663400e+01   2.0983000e+00   3.2950700e-02
  -1.4392800e+01   2.3169000e+00  -2.1344700e-01
  -1.4070700e+01   2.5168200e+00  -5.3799900e-01
  -1.3646100e+01   2.6347600e+00  -9.2690100e-01
  -1.3049600e+01   2.6606800e+00  -1.2507500e+00
  -1.2336800e+01   2.6511100e+00  -1.4615800e+00
  -1.1569000e+01   2.6109400e+00  -1.6354400e+00
  -1.0858100e+01   2.5630600e+00  -1.8254500e+00
  -1.0144300e+01   2.5990200e+00  -2.0002400e+00
  -9.3870600e+00   2.6553100e+00  -2.1343200e+00
  -8.6389100e+00   2.8080500e+00  -2.2515500e+00
  -7.8949700e+00   3.0387900e+00  -2.3982700e+00
  -7.1601700e+00   3.1835900e+00  -2.5651100e+00
  -6.4314400e+00   3.2758400e+00  -2.7183700e+00
  -5.6591800e+00   3.2816800e+00  -2.8473100e+00
  -4.8433800e+00   3.2900900e+00  -2.9182100e+00
  -4.0158700e+00   3.3874800e+00  -2.9165700e+00
  -3.2115400e+00   3.5336800e+00  -2.8456700e+00
  -2.4767300e+00   3.6623600e+00  -2.6879500e+00
  -1.7732900e+00   3.6623600e+00  -2.4462400e+00
  -1.0494900e+00   3.5593700e+00  -2.1879000e+00
  -2.7956800e-01   3.4355900e+00  -1.9443200e+00
   5.2944600e-01   3.3055000e+00  -1.6651600e+00
   1.3082600e+00   3.1308100e+00  -1.3417800e+00
   2.0278500e+00   2.9178200e+00  -9.9054800e-01
   2.6950100e+00   2.6985200e+00  -6.2972600e-01
   3.3045800e+00   2.4869200e+00  -2.8785800e-01
   3.9029100e+00   2.2449700e+00   1.1891100e-02
   4.4874300e+00   2.0006800e+00   2.5922500e-01
   5.0544000e+00   1.7155200e+00   4.9415700e-01
   5.6033400e+00   1.3878500e+00   7.5833800e-01
   6.1230200e+00   1.0632200e+00   1.0520000e+00
   6.6188200e+00   6.8300300e-01   1.3440300e+00
   7.0804500e+00   3.0769300e-01   1.6231900e+00
   7.5027400e+00  -4.7532500e-02   1.8979000e+00
   7.8508300e+00  -3.3970000e-01   2.1293200e+00
   8.1118400e+00  -5.9613500e-01   2.3106700e+00
   8.2771100e+00  -8.1963900e-01   2.4468500e+00
   8.3489800e+00  -9.9269800e-01   2.5025400e+00
   8.4016500e+00  -1.1916800e+00   2.4770400e+00
   8.4622800e+00  -1.3986000e+00   2.3813300e+00
   8.5215000e+00  -1.6088000e+00   2.2252600e+00
   8.5741700e+00  -1.7634000e+00   2.0193400e+00
   8.5943000e+00  -1.8981600e+00   1.7970500e+00
   8.5458500e+00  -1.9943800e+00   1.5616500e+00
   8.4117100e+00  -2.0679500e+00   1.3021400e+00
   8.2260800e+00  -2.1826200e+00   1.0288400e+00
   8.0622200e+00  -2.2947200e+00   7.1294300e-01
   8.0025200e+00  -2.4206100e+00   3.9213500e-01
   8.0409200e+00  -2.5621400e+00   1.3286700e-01
   8.1366600e+00  -2.7055300e+00  -6.6965500e-02
   8.1656900e+00  -2.8132000e+00  -2.3684700e-01
   8.0402100e+00  -2.8804600e+00  -3.7841400e-01
   7.7668000e+00  -2.8454300e+00  -4.6826900e-01
   7.3868700e+00  -2.7172100e+00  -4.8511600e-01
   6.9938300e+00  -2.5394800e+00  -4.2310700e-01
   6.6347400e+00  -2.3351300e+00  -3.0798100e-01
   6.3042000e+00  -2.1907900e+00  -1.3178200e-01
   5.9394900e+00  -2.0740200e+00   1.0478800e-01
   5.5427100e+00  -1.9962500e+00   3.8207300e-01
   5.1714400e+00  -1.9103000e+00   6.8673500e-01
   4.8889000e+00  -1.7557000e+00   9.9093000e-01
   4.7327600e+00  -1.5406000e+00   1.2333500e+00
   4.6466200e+00  -1.3026200e+00   1.3913000e+00
   4.5220800e+00  -1.0615900e+00   1.5139100e+00
   4.2931400e+00  -8.1823800e-01   1.6054000e+00
   3.9799300e+00  -5.7861900e-01   1.6353600e+00
   3.6355800e+00  -2.7337300e-01   1.5696000e+00
   3.3202600e+00   5.2425700e-02   1.4205500e+00
   3.0620600e+00   3.4856400e-01   1.2345200e+00
   2.8401500e+00   6.1527400e-01   1.0239200e+00
   2.6009100e+00   8.1986200e-01   8.0466900e-01
   2.2860600e+00   9.6839800e-01   6.1372900e-01
   1.8860000e+00   1.0562100e+00   4.8339300e-01
   1.4072800e+00   1.0683600e+00   3.9119900e-01
   9.2084400e-01   1.0506100e+00   3.0462000e-01
   5.0346200e-01   1.0141700e+00   2.4120700e-01
   1.8556900e-01   9.8427900e-01   2.0961800e-01
  -5.5543800e-02   9.4784600e-01   2.0259800e-01
  -3.0297700e-01   9.6069100e-01   2.1663800e-01
  -5.8599100e-01   1.0597100e+00   2.4846100e-01
  -9.1418500e-01   1.2341700e+00   2.9923800e-01
  -1.2072600e+00   1.5083600e+00   3.7832900e-01
  -1.3744000e+00   1.7841800e+00   4.9041300e-01
  -1.4509500e+00   2.0529900e+00   6.2987400e-01
  -1.5097100e+00   2.2643500e+00   7.8782200e-01
  -1.6415000e+00   2.4493200e+00   8.9780000e-01
  -1.8826100e+00   2.6228500e+00   9.4881100e-01
  -2.1433900e+00   2.7970700e+00   9.8812200e-01
  -2.3463500e+00   2.9876500e+00   9.9210000e-01
  -2.4650300e+00   3.0696200e+00   9.3570700e-01
  -2.4825900e+00   3.0824700e+00   8.1239100e-01
  -2.4882000e+00   2.9701300e+00   6.5187000e-01
  -2.5036500e+00   2.7853900e+00   4.8666900e-01
