**************************************************************************************
  	RED ACELEROGRÁFICA DE LA UNIVERSIDAD AUTONOMA METROPOLITANA (RA-UAM)
	   UNIDAD AZCAPOTZALCO. DIVISIÓN CBI-DEPARTAMENTO DE MATERIALES
     Av. San Pablo 420, Col. Nueva el Rosario, Azcapotzalco, C.P. 02128, Ciudad de México
		Área de Estructuras. e-mail: agb@azc.uam.mx
**************************************************************************************
ARCHIVO ESTANDAR DE ACELERACION:
VERSION DEL FORMATO                    : 2.0
NOMBRE DEL ARCHIVO                     : RIDA202312.142
FECHA Y HORA DE CREACION               : 11:30 a. m. 21/12/2023
REF. CATALOGO ACELEROGRAMAS, SMIS 1999 : REGISTRO NO.      /PAG.    


================================================================================
DATOS DE LA ESTACION:
NOMBRE DE LA ESTACION                  : UAM-AZCAPOTZALCO.
CLAVE DE LA ESTACION                   : RIDA
LOCALIZACION DE LA ESTACION            : AV. SAN PABLO 420, COL. NUEVA EL ROSARIO,
                                       : AZCAPOTZALCO, C.P.02128, CIUDAD DE MEXICO. 
                                       :
                                       : 
                                       : 
COORDENADAS DE LA ESTACION             : 19.498596 LAT. N
                                       : 99.195595 LONG. W
ALTITUD (msnm)                         : 2546
TIPO DE SUELO                          : ZONA DE TRANSICION
                                       : 
                                       : 
INSTITUCION RESPONSABLE                : UNIVERSIDAD AUTONOMA METROPOLITANA
                                       : 

================================================================================
DATOS DEL ACELEROGRAFO: 
MODELO DEL ACELEROGRAFO                : ETNA2 KINEMETRICS
NUMERO DE SERIE DEL ACELEROGRAFO       : 103732
NUMERO DE CANALES                      : 3
ORIENTACION C1-C6 (rumbo;orientacion)  : /N90E/N00E/V
ORIENTACION C7-C12 (rumbo;orientacion) : 
VEL. DE MUESTREO, C1-C6 (muestras/s)   : /200/200/200
VEL. DE MUESTREO, C7-C12 (muestras/s)  : 
ESC. COMPLETA DE SENSORES, C1-C6, (g)  : /2/2/2
ESC. COMPLETA DE SENSORES, C7-C12 (g)  : 
FREC. NAT. DE SENSORES, C1-C6, (Hz)    : /198/212/200   
FREC. NAT. DE SENSORES, C7-C12 (Hz)    : 
AMORTIGUAMIENTO DE SENSORES, C1-C6     : /0.7/0.7/0.7      
AMORTIGUAMIENTO DE SENSORES, C7-C12    : 
INTERVALO DE MUESTREO, C1-C6 (s)       : /0.005/0.005/0.005
INTERVALO DE MUESTREO, C7-C12 (s)      : 
UMBRAL DE DISPARO, C1-C6 (Gal)         : /2/2/2
UMBRAL DE DISPARO, C7-C12 (Gal)        : 
MEMORIA DE PREEVENTO (s)               : 50
TIEMPO DE POSEVENTO (s)                : 60


================================================================================
DATOS DEL SISMO:
FECHA DEL SISMO [GMT]                  : 2023/12/14
HORA EPICENTRO (GMT)                   : 20:15:20
MAGNITUD(ES)                           : /M=2.4
COORDENADAS DEL EPICENTRO              : 19.3700 LAT. N
                                       : -99.2000 LONG. W
PROFUNDIDAD FOCAL (Km)                 : 1.3
FUENTE DE LOS DATOS EPICENTRALES       : SSN
                                       : INSTITUTO DE GEOFISICA, UNAM

================================================================================
DATOS DE ESTE REGISTRO:
HORA DE LA PRIMERA MUESTRA (GMT)       : 20:12:33.000
EXACTITUD DEL TIEMPO (s)               : 
DURACION DEL REGISTRO (s), C1-C6       : /139/139/139
DURACION DEL REGISTRO (s), C7-C12      : 
NUM. TOTAL DE MUESTRAS, C1-C6          : /27800/27800/27800
NUM. TOTAL DE MUESTRAS, C7-C12         : 
ACEL. MAX.(Gal), C1-C6                 : /-1.003/-0.778/0.508
ACEL. MAX., C1-C6, EN LA MUESTRA       : /12146/20004/10413
ACEL. MAX.(Gal), C7-C12                : 
ACEL. MAX., C7-C12,EN LA MUESTRA       : 
UNIDADES DE LOS DATOS                  : Gal (cm/s/s)
FACTOR DE DECIMACION                   : 1
FORMATO DATOS (FORTRAN,16 campos/dato) : 3E16.7


================================================================================
CALIDAD DEL ACELEROGRAMA:
REGISTRO DIGITAL COMPLETO CON TIEMPO ABSOLUTO CORRECTO


================================================================================
COMENTARIOS:














================================================================================
DATOS DE ACELERACION:
---------+---------+---------+---------+---------+---------+---------+---------+
   CANAL-1   	     CANAL-2          CANAL-3
     N90E             N00E              V
---------+---------+---------+---------+---------+---------+---------+---------+
[...]
   2.9119800e-02  -5.9233400e-02   1.9842300e-02
   2.8417500e-02  -4.4286300e-02   2.2416300e-02
   5.8615100e-02  -4.8168600e-03   2.9436200e-02
   7.2660400e-02   5.4971200e-02   1.6332400e-02
   7.7108200e-02   8.6500100e-02   1.9608300e-02
   8.2024000e-02   5.7306700e-02   2.9946200e-03
   5.3465100e-02  -8.7871600e-03  -3.2806800e-02
   3.3801600e-02  -3.6579300e-02  -2.6020900e-02
   3.1460700e-02  -2.8872200e-02   1.2588500e-02
   1.4372100e-02   4.8899000e-02   2.5692200e-02
   3.4269700e-02   1.0378300e-01   7.4405400e-03
   4.8549200e-02   1.0798600e-01  -6.1312200e-03
   5.9551400e-02   9.7476800e-02  -9.8751600e-03
   8.7174000e-02   4.7030600e-02   4.6325900e-03
   8.7876300e-02   1.0130200e-02   8.8445200e-03
   1.1830800e-01   1.7603700e-02  -2.8552800e-03
   1.3656700e-01   7.5756900e-02   1.8666600e-04
   1.2486200e-01   9.6075500e-02  -3.3232700e-03
   1.3516200e-01   9.3039400e-02  -1.3619100e-02
   1.4382400e-01   7.7158200e-02  -1.8767000e-02
   1.6676400e-01   4.3293900e-02  -2.2276900e-02
   2.0117600e-01   4.2126100e-02  -2.7424900e-02
   2.0960300e-01   5.6372500e-02  -3.7018700e-02
   1.8642800e-01   8.8368500e-02  -5.1292400e-02
   1.4124900e-01   1.2410100e-01  -5.6440400e-02
   1.2111700e-01   1.4955800e-01  -3.1402800e-02
   1.8619400e-01   1.6660700e-01  -2.8594800e-02
   2.7795700e-01   1.7548200e-01  -7.0480100e-02
   3.5239800e-01   1.5913300e-01  -8.4753900e-02
   3.6972000e-01   1.4021600e-01  -4.5442500e-02
   3.1611400e-01   1.2620300e-01   1.1184500e-02
   2.7936200e-01   1.2643700e-01   3.6456000e-02
   2.6695500e-01   1.7454700e-01   3.2946100e-02
   2.7772300e-01   2.1261600e-01   2.3586300e-02
   2.9691800e-01   2.3456900e-01   2.1246300e-02
   2.9668400e-01   2.4624600e-01   3.5052100e-02
   3.2173200e-01   2.2662800e-01   3.2244100e-02
   3.2992500e-01   2.1425000e-01   1.4928400e-02
   2.9691800e-01   1.8552400e-01  -2.0405000e-02
   2.6367800e-01   1.5796600e-01  -6.6736200e-02
   2.0328200e-01   1.9159600e-01  -7.8670000e-02
   1.8408700e-01   2.2779600e-01  -8.6391800e-02
   2.1264600e-01   2.5815700e-01  -9.9729600e-02
   2.4143900e-01   3.0369900e-01  -1.0815300e-01
   2.8193700e-01   2.8221300e-01  -1.2617100e-01
   2.7795700e-01   2.3597000e-01  -1.6010100e-01
   2.5010000e-01   2.0701000e-01  -1.9683800e-01
   1.8993900e-01   1.3671300e-01  -1.9215800e-01
   7.5235400e-02   1.4115000e-01  -1.5588900e-01
  -2.0975400e-02   1.5539700e-01  -1.2617100e-01
  -8.7222800e-02   1.7991900e-01  -1.3061700e-01
  -9.7756800e-02   2.1378300e-01  -1.4910300e-01
  -8.0200100e-02   1.5703100e-01  -1.3014900e-01
  -9.4011400e-02   1.1709500e-01  -9.7389600e-02
  -1.1437700e-01   5.3803500e-02  -7.3522100e-02
  -1.7570900e-01   7.4589200e-02  -4.8718500e-02
  -2.6372600e-01   1.4979100e-01  -1.9469000e-02
  -3.3512400e-01   1.7991900e-01   3.6966100e-03
  -3.9200800e-01   2.0350700e-01   1.5864400e-02
  -3.8475100e-01   1.8062000e-01   2.9436200e-02
  -3.7562100e-01   1.4605500e-01   3.3414100e-02
  -3.6438500e-01   9.3273000e-02   2.7330200e-02
  -3.4495600e-01   1.5166000e-01   2.0544300e-02
  -3.6368300e-01   2.7310400e-01  -7.7692000e-03
  -3.3933700e-01   2.9879400e-01  -1.9235000e-02
  -3.9973200e-01   2.7964400e-01   4.3943900e-02
  -5.0530700e-01   2.0233900e-01   8.9807100e-02
  -5.7412900e-01   1.5166000e-01   8.9339100e-02
  -6.3358800e-01   2.1518500e-01   7.3427400e-02
  -5.5750900e-01   2.6236100e-01   2.1480300e-02
  -4.5848900e-01   2.2125700e-01  -6.8332100e-03
  -3.9130500e-01   1.5025800e-01   1.3056400e-02
  -4.2220500e-01   7.3275900e-03   4.6517900e-02
  -5.5376300e-01  -1.4868200e-01   6.6641500e-02
  -6.2352200e-01  -1.5592200e-01   6.2663600e-02
  -5.9800600e-01  -7.1377800e-02   2.8734200e-02
  -4.6995900e-01   1.4889100e-03  -7.0672100e-03
  -3.6578900e-01  -2.3734200e-02   2.3118300e-02
  -3.8006900e-01  -1.5685600e-01   8.3723200e-02
  -4.8025900e-01  -2.9838600e-01   1.0197500e-01
  -5.6031800e-01  -3.5840700e-01   7.3895400e-02
  -5.8583400e-01  -2.8577400e-01   3.6222000e-02
  -5.6008400e-01  -2.0309800e-01   4.8857800e-02
  -4.8072800e-01  -1.9212200e-01   8.9573100e-02
  -3.9926400e-01  -2.4560400e-01   1.0431500e-01
  -2.6653500e-01  -3.2174000e-01   8.2319200e-02
  -2.0099000e-01  -3.5397000e-01   3.7392000e-02
  -2.6419500e-01  -3.6050900e-01   3.1776100e-02
  -3.4378500e-01  -3.5000000e-01   5.7047700e-02
  -4.1541700e-01  -3.5023300e-01   5.1665800e-02
  -3.4331700e-01  -3.4229300e-01   2.5692200e-02
  -1.6634500e-01  -2.9394800e-01   1.4460400e-02
  -5.2343400e-02  -2.8484000e-01  -1.7363000e-02
  -2.2145900e-02  -3.5537100e-01  -7.6798000e-02
  -6.0302500e-02  -3.7755800e-01  -8.3349900e-02
  -8.9329600e-02  -3.6588100e-01  -6.2524300e-02
  -5.2577500e-02  -4.0838600e-01  -8.7093800e-02
   1.0392600e-02  -3.7148600e-01  -1.0604700e-01
   7.1490000e-02  -3.5980900e-01  -1.0604700e-01
   1.2931000e-01  -3.9787700e-01  -1.2102300e-01
   1.5646500e-01  -3.6798300e-01  -1.1376900e-01
   1.6770100e-01  -3.6774900e-01  -1.0885500e-01
   1.3001200e-01  -3.3014800e-01  -1.0464400e-01
   7.8746800e-02  -3.3201600e-01  -7.1182100e-02
   8.7642200e-02  -3.7428900e-01  -5.4100400e-02
   1.0613500e-01  -3.8059400e-01  -5.2462400e-02
   1.6301900e-01  -3.9624200e-01  -4.5676500e-02
   1.7285100e-01  -3.5140100e-01  -1.5023100e-02
   1.2533100e-01  -3.0282300e-01   1.4460400e-02
   1.3446000e-01  -2.9838600e-01   1.6566400e-02
   1.0683800e-01  -2.9698400e-01   3.5520100e-02
   9.8644400e-02  -2.8904400e-01   6.1961600e-02
   7.5235400e-02  -2.8787600e-01   6.5237500e-02
   1.7312800e-03  -2.3626200e-01   5.6813700e-02
   2.7247100e-02  -2.2224900e-01   6.2429600e-02
   4.3165100e-02  -2.0193100e-01   1.0454900e-01
   4.5740100e-02  -1.6269500e-01   1.1273900e-01
   4.7378800e-02  -1.7460600e-01   8.0681300e-02
  -1.3118900e-03  -9.2163500e-02   6.9215500e-02
  -1.5459800e-03  -5.5963700e-02   6.2897600e-02
   1.3435800e-02  -5.8766300e-02   6.6641500e-02
   5.0187800e-02  -3.0740600e-02   7.7873300e-02
   1.1526500e-01  -2.5602600e-02   8.4191200e-02
   1.2181900e-01   1.2553700e-03   8.6531200e-02
   1.2931000e-01   3.3251300e-02   9.0509100e-02
   1.4710100e-01   3.6988100e-02   8.0915300e-02
   1.8127800e-01   3.2317100e-02   6.2429600e-02
   2.6508200e-01   1.9705600e-02   6.1259600e-02
   3.1002700e-01  -1.6727800e-02   5.9621600e-02
   2.9645000e-01  -1.3925200e-02   6.3599600e-02
   2.7936200e-01  -2.2478400e-03   6.0089600e-02
   2.3558700e-01   1.5501700e-02   3.8094000e-02
   2.2435100e-01   2.1574000e-02   2.8032200e-02
   2.6765700e-01   5.0533800e-02   4.2305900e-02
   2.7538200e-01   6.3145400e-02   6.7577500e-02
   3.1541100e-01   6.2444700e-02   7.4129400e-02
   3.1143200e-01   1.1008800e-01   8.1149300e-02
   2.8568200e-01   1.0495000e-01   8.2787200e-02
   2.8615000e-01   8.9069100e-02   7.6703300e-02
   2.4565300e-01   7.3888500e-02   8.6531200e-02
   2.5829400e-01   6.2678300e-02   7.5533400e-02
   2.6672100e-01   9.0236800e-02   6.1259600e-02
   2.9715200e-01   1.5166000e-01   5.4473700e-02
   3.3133000e-01   2.0654300e-01   3.7158000e-02
   2.8708700e-01   2.6703200e-01   2.6862200e-02
   2.5993200e-01   2.5582200e-01   1.3992400e-02
   1.8993900e-01   2.3433500e-01  -1.4789100e-02
   1.3703500e-01   2.4110800e-01  -4.2166600e-02
   1.7495800e-01   2.2686200e-01  -5.8780300e-02
   1.9462100e-01   3.1210700e-01  -5.9014300e-02
   2.5244100e-01   3.5274400e-01  -5.2228400e-02
   2.8872500e-01   3.3989900e-01  -4.7314500e-02
   2.7444600e-01   3.3149100e-01  -4.9186500e-02
   2.9410900e-01   2.7917700e-01  -6.6268200e-02
   2.6718900e-01   2.4858200e-01  -6.6268200e-02
   2.5735700e-01   2.2265800e-01  -6.0418300e-02
   2.8989600e-01   1.7571500e-01  -5.5738400e-02
   2.9364100e-01   2.0677700e-01  -5.2930400e-02
   3.5310000e-01   2.3059900e-01  -6.5098200e-02
   3.8002000e-01   2.3807200e-01  -5.6206400e-02
   3.4326800e-01   2.6376200e-01  -4.2634600e-02
   3.1236800e-01   1.9860300e-01  -3.0232800e-02
   2.3137300e-01   1.6894200e-01  -6.3652200e-03
   2.4752500e-01   1.7151100e-01   3.2286100e-03
   3.2852000e-01   1.7735000e-01  -1.4513100e-03
   3.7229500e-01   2.5208500e-01  -7.0672100e-03
   4.0342900e-01   2.5979200e-01  -1.0109200e-02
   3.0347300e-01   2.2989800e-01  -2.4382900e-02
   2.1568900e-01   1.7618200e-01  -5.1760400e-02
   2.1194400e-01   9.0236800e-02  -5.8780300e-02
   2.1545500e-01   1.4465300e-01  -5.8546300e-02
   2.8872500e-01   1.8552400e-01  -7.4458000e-02
   3.1985900e-01   1.8926100e-01  -8.3115900e-02
   3.1447500e-01   1.9229700e-01  -8.1009900e-02
   2.9200200e-01   1.0728600e-01  -7.7032000e-02
   1.9930300e-01   5.0300300e-02  -7.2118100e-02
   1.9462100e-01   3.5353300e-02  -6.2992200e-02
   2.1334800e-01   2.9281000e-02  -7.0714100e-02
   2.1475300e-01   4.5162200e-02  -9.4581700e-02
   2.6718900e-01   2.7879700e-02  -1.0908900e-01
   2.4846200e-01  -2.2478400e-03  -1.1119500e-01
   2.3371400e-01   1.9705600e-02  -8.5923800e-02
   2.1756200e-01   6.8605000e-03  -5.7142300e-02
   1.2509700e-01   9.6630700e-03  -2.0873000e-02
   1.2977800e-01   1.4100500e-02   2.1480300e-02
   1.6419000e-01  -2.1398700e-02   3.7158000e-02
   2.1030500e-01  -6.5772700e-02   6.4301600e-02
   2.9879100e-01  -1.3700500e-01   9.8699000e-02
   2.3933200e-01  -2.0496700e-01   9.8465000e-02
   1.5904000e-01  -2.2902200e-01   6.0323600e-02
   7.9215000e-02  -1.6059300e-01   3.7860000e-02
   3.1928800e-02  -1.1925500e-01   3.8094000e-02
   1.2439400e-01  -1.0874500e-01   1.3992400e-02
   1.2322400e-01  -1.1061400e-01  -9.6411600e-03
   1.2111700e-01  -1.5335300e-01  -2.7190900e-02
   1.0519900e-01  -1.4587900e-01  -3.5380700e-02
   5.2426200e-03  -1.5592200e-01  -2.4148900e-02
   2.6676400e-03  -1.5055000e-01  -7.7692000e-03
  -2.0975400e-02  -6.1568800e-02   1.6332400e-02
  -3.5254900e-02  -6.0167500e-02   2.1480300e-02
  -4.1575300e-02  -7.8150700e-02   5.1005800e-03
  -1.0852500e-01  -8.5857700e-02   2.9946200e-03
  -1.0126800e-01  -9.9637000e-02  -2.8552800e-03
  -1.1156800e-01  -1.6027100e-02  -5.8972300e-03
  -1.5721600e-01   7.5756900e-02   2.5266300e-03
  -1.8530600e-01   1.3484400e-01  -3.5572700e-03
  -2.7449500e-01   1.5469600e-01  -2.7892800e-02
  -3.3020800e-01   1.2199900e-01  -6.8842100e-02
  -3.5549000e-01   1.3087400e-01  -7.0948100e-02
  -4.2197100e-01   2.1798700e-01  -4.3804600e-02
  -4.7862100e-01   2.5278600e-01  -4.4974600e-02
  -6.0807200e-01   3.2845500e-01  -6.5098200e-02
  -6.9187600e-01   3.7002600e-01  -7.3054100e-02
  -7.0217600e-01   3.3149100e-01  -4.4038600e-02
  -7.6186900e-01   3.3826400e-01  -2.7190900e-02
  -7.8434200e-01   3.1888000e-01  -4.5910500e-02
  -8.8383000e-01   3.8427300e-01  -5.5036400e-02
  -9.7395400e-01   3.9688400e-01  -3.6082700e-02
  -9.8378600e-01   3.2331700e-01  -3.7912600e-03
  -1.0029800e+00   3.1607700e-01   3.6966100e-03
  -9.1004800e-01   2.2522700e-01  -1.9703000e-02
  -8.5948500e-01   1.7501400e-01  -2.6956900e-02
  -8.8148900e-01   2.3924000e-01  -1.0343200e-02
  -8.8898000e-01   2.2546100e-01   1.6566400e-02
  -9.5078000e-01   2.6352900e-01   4.9793800e-02
  -9.3088200e-01   2.5628900e-01   6.3833600e-02
  -8.8804400e-01   2.0654300e-01   6.0557600e-02
  -8.6627300e-01   2.1425000e-01   4.5113900e-02
  -8.1173000e-01   1.3904800e-01   4.4411900e-02
  -8.3467100e-01   1.1382500e-01   7.5299400e-02
  -8.2109400e-01   7.7158200e-02   1.0127300e-01
  -7.4805800e-01   1.4801100e-02   1.1180300e-01
  -6.8555600e-01  -2.1865800e-02   1.1273900e-01
  -5.7530000e-01  -5.7832100e-02   9.1679100e-02
  -5.0881800e-01  -8.6091300e-02   6.6641500e-02
  -4.8025900e-01  -1.0804500e-01   6.9917500e-02
  -4.5895700e-01  -8.3522300e-02   8.1617300e-02
  -4.7979100e-01  -1.2089000e-01   7.6469300e-02
  -4.6598000e-01  -1.7367100e-01   6.3599600e-02
  -4.5099800e-01  -2.3626200e-01   6.0791600e-02
  -4.3929400e-01  -3.0585900e-01   5.5409700e-02
  -3.6040500e-01  -3.3038200e-01   2.4756200e-02
  -2.7262200e-01  -3.5023300e-01  -9.1731700e-03
  -1.8390200e-01  -3.3481900e-01  -2.8126800e-02
  -1.0688600e-01  -3.4696300e-01  -2.7190900e-02
  -8.5584200e-02  -3.7685800e-01  -1.7363000e-02
  -4.8363900e-02  -3.8736700e-01  -1.4321100e-02
  -1.7464100e-02  -3.9110400e-01  -1.5257100e-02
   3.3567500e-02  -4.4738900e-01  -3.8188700e-02
   1.0543300e-01  -5.2586100e-01  -6.7906200e-02
   1.4405800e-01  -5.9265500e-01  -1.1072700e-01
   2.2341400e-01  -6.3399300e-01  -1.4465700e-01
   2.4963200e-01  -5.7163600e-01  -1.3904100e-01
   2.4658900e-01  -5.2819600e-01  -1.4184900e-01
   2.8685200e-01  -5.2772900e-01  -1.4910300e-01
   3.1213400e-01  -5.3683700e-01  -1.5378300e-01
   3.9640600e-01  -5.7887600e-01  -1.5846300e-01
   4.5212000e-01  -5.7654000e-01  -1.2406500e-01
   4.3924500e-01  -5.0344000e-01  -8.1243900e-02
   4.5446100e-01  -4.9246300e-01  -8.1477900e-02
   4.6312200e-01  -5.0437400e-01  -6.6502200e-02
   5.3826500e-01  -4.3991500e-01  -1.6895000e-02
   6.4430700e-01  -4.4201700e-01   3.1308100e-02
   6.5179800e-01  -4.5486200e-01   7.7405300e-02
   6.1551400e-01  -4.4038200e-01   1.1063300e-01
   5.5699200e-01  -4.4738900e-01   1.0408100e-01
   5.4996900e-01  -4.0511700e-01   6.8279500e-02
   6.3634800e-01  -3.2360900e-01   5.1197800e-02
   7.1266200e-01  -2.3789700e-01   6.7109500e-02
   7.6580000e-01  -1.7834200e-01   1.0174100e-01
   7.5807500e-01  -1.7180300e-01   1.3707400e-01
   7.2272700e-01  -1.7951000e-01   1.6258000e-01
   7.3396400e-01  -1.5078400e-01   1.5134800e-01
   7.4683900e-01  -1.2275800e-01   1.1273900e-01
   7.4871100e-01  -3.9615400e-02   1.0267700e-01
   7.4192300e-01   2.7879700e-02   1.3286200e-01
   7.1336400e-01   1.1998500e-02   1.6960000e-01
   6.7544100e-01   3.4886200e-02   1.7006800e-01
   6.5671400e-01   3.7688700e-02   1.3988200e-01
   6.2581400e-01   6.7816300e-02   1.1882300e-01
   6.3283700e-01   1.0915400e-01   1.3075600e-01
   6.6443900e-01   9.9812300e-02   1.4620000e-01
   6.6303500e-01   1.2900600e-01   1.3216000e-01
   6.6678000e-01   1.2760400e-01   1.0922900e-01
   6.1457800e-01   8.8835600e-02   8.9339100e-02
   5.4037200e-01   8.6266500e-02   6.4301600e-02
   4.8840400e-01   1.3297600e-01   3.9030000e-02
   4.6382400e-01   2.1028000e-01   4.8389800e-02
   4.8044500e-01   2.8758400e-01   6.3365600e-02
   4.7623100e-01   2.9879400e-01   3.8796000e-02
   4.6944200e-01   3.0626800e-01  -9.8331300e-04
   4.3526500e-01   3.6208600e-01  -3.2104800e-02
   3.6059100e-01   3.7282900e-01  -2.5786900e-02
   2.9996200e-01   3.9688400e-01   1.3758400e-02
   2.3441600e-01   3.5718100e-01   5.6345700e-02
   1.6770100e-01   2.7660700e-01   5.6111700e-02
   1.3305600e-01   3.1397500e-01   2.0076300e-02
   1.3984400e-01   3.5905000e-01  -1.3853100e-02
   1.7051000e-01   4.1883800e-01  -5.4100400e-02
   1.6559400e-01   4.4172500e-01  -8.3583900e-02
   7.3128600e-02   3.8403900e-01  -7.0012100e-02
  -3.4552600e-02   3.3569500e-01  -2.3914900e-02
  -1.4363800e-01   2.9575800e-01   1.4460400e-02
  -2.0520400e-01   3.0136300e-01   2.8266200e-02
  -1.4434100e-01   3.5251000e-01   1.1886500e-02
  -9.5650000e-02   3.7049300e-01  -2.3872900e-03
  -7.6220600e-02   3.0533400e-01   2.7096200e-02
  -1.3170000e-01   2.5442100e-01   8.5829200e-02
  -2.4710600e-01   2.2943100e-01   1.0876100e-01
  -2.9720100e-01   1.9533300e-01   6.7343500e-02
  -3.2974000e-01   2.0607600e-01   3.8328000e-02
  -3.0960800e-01   2.0747800e-01   6.2429600e-02
  -3.1148100e-01   1.8645800e-01   9.2381100e-02
  -3.8451700e-01   1.8085300e-01   9.9868900e-02
