**************************************************************************************
  	RED ACELEROGRÁFICA DE LA UNIVERSIDAD AUTONOMA METROPOLITANA (RA-UAM)
	   UNIDAD AZCAPOTZALCO. DIVISIÓN CBI-DEPARTAMENTO DE MATERIALES
     Av. San Pablo 420, Col. Nueva el Rosario, Azcapotzalco, C.P. 02128, Ciudad de México
		Área de Estructuras. e-mail: agb@azc.uam.mx
**************************************************************************************
ARCHIVO ESTANDAR DE ACELERACION:
VERSION DEL FORMATO                    : 2.0
NOMBRE DEL ARCHIVO                     : RIDA202304.191
FECHA Y HORA DE CREACION               : 11:00 a. m. 26/04/2023
REF. CATALOGO ACELEROGRAMAS, SMIS 1999 : REGISTRO NO.      /PAG.    


================================================================================
DATOS DE LA ESTACION:
NOMBRE DE LA ESTACION                  : UAM-AZCAPOTZALCO.
CLAVE DE LA ESTACION                   : RIDA
LOCALIZACION DE LA ESTACION            : AV. SAN PABLO 420, COL. NUEVA EL ROSARIO,
                                       : AZCAPOTZALCO, C.P.02128, CIUDAD DE MEXICO. 
                                       :
                                       : 
                                       : 
COORDENADAS DE LA ESTACION             : 19.498596 LAT. N
                                       : 99.195595 LONG. W
ALTITUD (msnm)                         : 2546
TIPO DE SUELO                          : ZONA DE TRANSICION
                                       : 
                                       : 
INSTITUCION RESPONSABLE                : UNIVERSIDAD AUTONOMA METROPOLITANA
                                       : 

================================================================================
DATOS DEL ACELEROGRAFO: 
MODELO DEL ACELEROGRAFO                : ETNA2 KINEMETRICS
NUMERO DE SERIE DEL ACELEROGRAFO       : 103732
NUMERO DE CANALES                      : 3
ORIENTACION C1-C6 (rumbo;orientacion)  : /N90E/N00E/V
ORIENTACION C7-C12 (rumbo;orientacion) : 
VEL. DE MUESTREO, C1-C6 (muestras/s)   : /200/200/200
VEL. DE MUESTREO, C7-C12 (muestras/s)  : 
ESC. COMPLETA DE SENSORES, C1-C6, (g)  : /2/2/2
ESC. COMPLETA DE SENSORES, C7-C12 (g)  : 
FREC. NAT. DE SENSORES, C1-C6, (Hz)    : /198/212/200   
FREC. NAT. DE SENSORES, C7-C12 (Hz)    : 
AMORTIGUAMIENTO DE SENSORES, C1-C6     : /0.7/0.7/0.7      
AMORTIGUAMIENTO DE SENSORES, C7-C12    : 
INTERVALO DE MUESTREO, C1-C6 (s)       : /0.005/0.005/0.005
INTERVALO DE MUESTREO, C7-C12 (s)      : 
UMBRAL DE DISPARO, C1-C6 (Gal)         : /2/2/2
UMBRAL DE DISPARO, C7-C12 (Gal)        : 
MEMORIA DE PREEVENTO (s)               : 50
TIEMPO DE POSEVENTO (s)                : 60


================================================================================
DATOS DEL SISMO:
FECHA DEL SISMO [GMT]                  : 2023/04/19
HORA EPICENTRO (GMT)                   : 04:55:31
MAGNITUD(ES)                           : /M=5.1
COORDENADAS DEL EPICENTRO              : 17.2200 LAT. N
                                       : -101.1200 LONG. W
PROFUNDIDAD FOCAL (Km)                 : 16.3
FUENTE DE LOS DATOS EPICENTRALES       : SSN
                                       : INSTITUTO DE GEOFISICA, UNAM

================================================================================
DATOS DE ESTE REGISTRO:
HORA DE LA PRIMERA MUESTRA (GMT)       : 04:55:40.000
EXACTITUD DEL TIEMPO (s)               : 
DURACION DEL REGISTRO (s), C1-C6       : /198/198/198
DURACION DEL REGISTRO (s), C7-C12      : 
NUM. TOTAL DE MUESTRAS, C1-C6          : /39600/39600/39600
NUM. TOTAL DE MUESTRAS, C7-C12         : 
ACEL. MAX.(Gal), C1-C6                 : /-2.305/3.004/-0.790
ACEL. MAX., C1-C6, EN LA MUESTRA       : /17209/17149/16740
ACEL. MAX.(Gal), C7-C12                : 
ACEL. MAX., C7-C12,EN LA MUESTRA       : 
UNIDADES DE LOS DATOS                  : Gal (cm/s/s)
FACTOR DE DECIMACION                   : 1
FORMATO DATOS (FORTRAN,16 campos/dato) : 3E16.7


================================================================================
CALIDAD DEL ACELEROGRAMA:
REGISTRO DIGITAL COMPLETO CON TIEMPO ABSOLUTO CORRECTO


================================================================================
COMENTARIOS:














================================================================================
DATOS DE ACELERACION:
---------+---------+---------+---------+---------+---------+---------+---------+
   CANAL-1   	     CANAL-2          CANAL-3
     N90E             N00E              V
---------+---------+---------+---------+---------+---------+---------+---------+ 
[...]
   7.7024300e-01  -9.0570500e-02   4.7531400e-01
   8.9758800e-01  -1.8936100e-01   4.5823200e-01
   1.0214200e+00  -3.1898000e-01   4.4044800e-01
   1.1361300e+00  -4.1216500e-01   4.1307100e-01
   1.2470800e+00  -5.3174100e-01   3.8358700e-01
   1.3440000e+00  -6.5739000e-01   3.4217000e-01
   1.4292100e+00  -7.5337700e-01   3.0168900e-01
   1.5095000e+00  -8.6664800e-01   2.6682300e-01
   1.5841700e+00  -9.5492900e-01   2.2447000e-01
   1.6480800e+00  -1.0425100e+00   1.7977700e-01
   1.6993500e+00  -1.1235500e+00   1.3344600e-01
   1.7431200e+00  -1.2006200e+00   8.3838400e-02
   1.7721500e+00  -1.2573700e+00   4.0783200e-02
   1.7936800e+00  -1.3395800e+00   4.2797900e-03
   1.8201400e+00  -1.3881600e+00  -4.1817400e-02
   1.8444800e+00  -1.4236600e+00  -8.4404700e-02
   1.8608700e+00  -1.4832100e+00  -1.2886400e-01
   1.8678900e+00  -1.5023600e+00  -1.7028100e-01
   1.8620400e+00  -1.5675200e+00  -1.9742500e-01
   1.8360500e+00  -1.5981200e+00  -2.2784400e-01
   1.8096000e+00  -1.6427300e+00  -2.5241400e-01
   1.7639500e+00  -1.7013500e+00  -2.7277100e-01
   1.6958300e+00  -1.7186300e+00  -2.9032100e-01
   1.6211600e+00  -1.7828500e+00  -2.9593700e-01
   1.5244800e+00  -1.8108800e+00  -2.9897900e-01
   1.4271000e+00  -1.8480100e+00  -3.0693500e-01
   1.3196500e+00  -1.8683300e+00  -3.0880700e-01
   1.2086900e+00  -1.8720700e+00  -3.0061700e-01
   1.0930500e+00  -1.8744000e+00  -3.0319100e-01
   9.6406900e-01  -1.8440400e+00  -3.0576500e-01
   8.3695900e-01  -1.8171800e+00  -3.0412700e-01
   7.0329300e-01  -1.7828500e+00  -3.1512500e-01
   5.6892600e-01  -1.7368400e+00  -3.2986600e-01
   4.4041100e-01  -1.6892000e+00  -3.4390600e-01
   3.0815000e-01  -1.6291800e+00  -3.6566800e-01
   1.7542100e-01  -1.5437000e+00  -3.8438700e-01
   5.4162900e-02  -1.4939600e+00  -3.8742900e-01
  -7.0606900e-02  -1.4224900e+00  -3.9795900e-01
  -1.9139700e-01  -1.3493900e+00  -4.1574300e-01
  -3.0259000e-01  -1.2788600e+00  -4.1831700e-01
  -4.1659100e-01  -1.1870700e+00  -4.1901900e-01
  -5.2848600e-01  -1.1170100e+00  -4.2814500e-01
  -6.4248800e-01  -1.0144800e+00  -4.3048500e-01
  -7.5087200e-01  -9.3320900e-01  -4.2089100e-01
  -8.4427300e-01  -8.6991700e-01  -4.0544700e-01
  -9.3065200e-01  -7.9611700e-01  -3.8462100e-01
  -1.0043900e+00  -7.3165800e-01  -3.6005200e-01
  -1.0668900e+00  -6.7840900e-01  -3.3010000e-01
  -1.1277600e+00  -6.3940600e-01  -2.9453300e-01
  -1.1869800e+00  -5.7588200e-01  -2.5452000e-01
  -1.2410600e+00  -5.3267500e-01  -2.0304100e-01
  -1.2738300e+00  -4.9320600e-01  -1.4922200e-01
  -1.2827200e+00  -4.2524400e-01  -1.0476200e-01
  -1.2820200e+00  -3.7129400e-01  -6.3579000e-02
  -1.2731300e+00  -2.8791800e-01  -2.3331700e-02
  -1.2616600e+00  -2.1154800e-01   1.4809600e-02
  -1.2410600e+00  -1.2957300e-01   4.6867100e-02
  -1.2014900e+00  -2.8447000e-02   7.8924500e-02
  -1.1469500e+00   3.6946200e-02   1.0606800e-01
  -1.0830400e+00   1.6236100e-01   1.1636400e-01
  -1.0065000e+00   2.6792400e-01   1.3134000e-01
  -9.2573600e-01   3.4406100e-01   1.4491100e-01
  -8.5340300e-01   4.6060100e-01   1.4701700e-01
  -7.7943000e-01   5.6896700e-01   1.5427100e-01
  -6.9937200e-01   6.7593100e-01   1.5895100e-01
  -6.1509900e-01   7.8803400e-01   1.5333500e-01
  -5.2918900e-01   8.7094300e-01   1.5473900e-01
  -4.3695700e-01   9.3937300e-01   1.6409900e-01
  -3.3864000e-01   9.9939400e-01   1.6831100e-01
  -2.4336500e-01   1.0306900e+00   1.7930900e-01
  -1.4785700e-01   1.1021500e+00   1.8983900e-01
  -4.7432100e-02   1.1540000e+00   1.9779400e-01
   4.5033400e-02   1.2018800e+00   2.1043000e-01
   1.3796700e-01   1.2469500e+00   2.1955600e-01
   2.3698700e-01   1.2710100e+00   2.3453200e-01
   3.3366600e-01   1.2927300e+00   2.6073900e-01
   4.3549500e-01   1.3009000e+00   2.8741500e-01
   5.3006700e-01   1.3310300e+00   3.1268600e-01
   6.2253300e-01   1.3422400e+00   3.3608600e-01
   7.0703900e-01   1.3445800e+00   3.5855000e-01
   7.7071100e-01   1.3420100e+00   3.8545900e-01
   8.3110600e-01   1.3462100e+00   4.1307100e-01
   8.7722200e-01   1.3319700e+00   4.2734400e-01
   9.1350600e-01   1.3240200e+00   4.2523900e-01
   9.5751500e-01   1.3338300e+00   4.2523900e-01
   9.7694400e-01   1.3067400e+00   4.2172900e-01
   9.9731000e-01   1.2822200e+00   4.0675300e-01
   1.0319600e+00   1.2581600e+00   3.9177700e-01
   1.0530200e+00   1.2282700e+00   3.6416600e-01
   1.0747900e+00   1.2004800e+00   3.1549400e-01
   1.0806500e+00   1.1745500e+00   2.6261100e-01
   1.0771300e+00   1.1505000e+00   2.1089800e-01
   1.0743300e+00   1.1161700e+00   1.5661100e-01
   1.0546600e+00   1.0904800e+00   1.0045200e-01
   1.0518500e+00   1.0605800e+00   4.5463100e-02
   1.0558300e+00   1.0211100e+00  -1.4907900e-02
   1.0584100e+00   9.9542400e-01  -7.3874900e-02
   1.0813500e+00   9.6809900e-01  -1.3003400e-01
   1.0902400e+00   9.4007300e-01  -1.8595900e-01
   1.1026500e+00   9.0457400e-01  -2.2878000e-01
   1.1127200e+00   8.7701500e-01  -2.8189700e-01
   1.0977300e+00   8.4361800e-01  -3.3782200e-01
   1.0881400e+00   7.8499800e-01  -3.7994200e-01
   1.0532600e+00   7.4132500e-01  -4.1433900e-01
   1.0064400e+00   6.7032600e-01  -4.4616200e-01
   9.6243100e-01   5.8391400e-01  -4.7190200e-01
   8.8892700e-01   5.1338300e-01  -4.8032600e-01
   8.2104100e-01   4.2930600e-01  -4.8828200e-01
   7.4028000e-01   3.5713900e-01  -4.8711200e-01
   6.3353500e-01   2.6418800e-01  -4.7658200e-01
   5.4200600e-01   1.8454800e-01  -4.6441400e-01
   4.3198400e-01   1.0420800e-01  -4.3797300e-01
   3.2687700e-01  -4.3916100e-03  -4.0638300e-01
   2.2106900e-01  -6.8850600e-02  -3.7526200e-01
   1.0472600e-01  -1.6320400e-01  -3.3501400e-01
   1.1090400e-02  -2.4447800e-01  -2.9359700e-01
  -1.0010200e-01  -3.0590100e-01  -2.4773400e-01
  -1.9561100e-01  -3.7526500e-01  -2.0070100e-01
  -2.7964900e-01  -4.2757900e-01  -1.5764500e-01
  -3.6766700e-01  -4.8573200e-01  -1.1739800e-01
  -4.3391400e-01  -5.2940600e-01  -7.8554800e-02
  -5.1280200e-01  -5.5976700e-01  -4.3923400e-02
  -5.8022000e-01  -5.6980900e-01  -1.6545800e-02
  -6.2657000e-01  -5.8102000e-01   2.3701500e-02
  -6.7924000e-01  -5.6116800e-01   5.5056900e-02
  -7.0943800e-01  -5.6000000e-01   8.1030500e-02
  -7.3846500e-01  -5.6934200e-01   1.1940600e-01
  -7.7615300e-01  -5.6023400e-01   1.4444300e-01
  -8.0822300e-01  -5.9550000e-01   1.6994900e-01
  -8.5808500e-01  -5.9620000e-01   2.0224000e-01
  -9.0045500e-01  -6.1932100e-01   2.3219200e-01
  -9.4493200e-01  -6.5645500e-01   2.5863300e-01
  -9.8613200e-01  -6.8471500e-01   2.8133100e-01
  -1.0153900e+00  -7.4800600e-01   3.1175000e-01
  -1.0558900e+00  -7.8981100e-01   3.3304400e-01
  -1.0814100e+00  -8.5894100e-01   3.5410400e-01
  -1.1069200e+00  -9.2223200e-01   3.7563100e-01
  -1.1249500e+00  -9.9369700e-01   3.9271300e-01
  -1.1413300e+00  -1.0611900e+00   4.2289900e-01
  -1.1659100e+00  -1.1165400e+00   4.5051000e-01
  -1.1684900e+00  -1.2071600e+00   4.7461200e-01
  -1.1717600e+00  -1.2543400e+00   4.9426700e-01
  -1.1614600e+00  -1.3314100e+00   5.1181700e-01
  -1.1509300e+00  -1.4028700e+00   5.2164500e-01
  -1.1439100e+00  -1.4530800e+00   5.2585700e-01
  -1.1188600e+00  -1.5247800e+00   5.2421900e-01
  -1.0984900e+00  -1.5532800e+00   5.1368900e-01
  -1.0596400e+00  -1.6044200e+00   4.9777700e-01
  -1.0212500e+00  -1.6256800e+00   4.6899600e-01
  -9.9268600e-01  -1.6445900e+00   4.3810800e-01
  -9.5265700e-01  -1.6850000e+00   4.0839100e-01
  -9.1824600e-01  -1.6920000e+00   3.7329100e-01
  -8.8008900e-01  -1.7022800e+00   3.1900400e-01
  -8.2578000e-01  -1.7193300e+00   2.7407700e-01
  -7.8083500e-01  -1.6994800e+00   2.2727800e-01
  -7.2886700e-01  -1.6868700e+00   1.6714100e-01
  -6.7549500e-01  -1.6702800e+00   1.2408600e-01
  -6.2282400e-01  -1.6128300e+00   7.6584500e-02
  -5.4604300e-01  -1.6198400e+00   2.2297500e-02
  -4.8213700e-01  -1.5974200e+00  -2.4501700e-02
  -4.0067300e-01  -1.5892400e+00  -6.6855000e-02
  -3.1780600e-01  -1.5906400e+00  -1.1412200e-01
  -2.4383300e-01  -1.5385600e+00  -1.6770700e-01
  -1.3872700e-01  -1.5289900e+00  -2.1591000e-01
  -4.6729800e-02  -1.4951200e+00  -2.6645400e-01
   5.0885600e-02  -1.4628900e+00  -3.1184900e-01
   1.4826700e-01  -1.4685000e+00  -3.4180000e-01
   2.2528200e-01  -1.4776100e+00  -3.7058200e-01
   3.1704600e-01  -1.4701300e+00  -3.9515100e-01
   4.0248800e-01  -1.4612600e+00  -4.0942500e-01
   4.7341700e-01  -1.4689700e+00  -4.1153100e-01
   5.4598500e-01  -1.4519200e+00  -4.1129700e-01
   6.0895500e-01  -1.4671000e+00  -4.1012700e-01
   6.6607300e-01  -1.4748000e+00  -4.0568100e-01
   7.1780700e-01  -1.4673300e+00  -3.9889500e-01
   7.4566400e-01  -1.4834500e+00  -3.8625900e-01
   7.6720000e-01  -1.4797100e+00  -3.7526200e-01
   7.6649800e-01  -1.4603200e+00  -3.6543400e-01
   7.4847300e-01  -1.4164200e+00  -3.6028600e-01
   7.3466200e-01  -1.3846600e+00  -3.5864800e-01
   6.9322800e-01  -1.3155300e+00  -3.5233000e-01
   6.4781400e-01  -1.2447600e+00  -3.4343800e-01
   5.9420800e-01  -1.1761000e+00  -3.4460800e-01
   5.2187400e-01  -1.0502200e+00  -3.4507600e-01
   4.5469000e-01  -9.3601100e-01  -3.4694800e-01
   3.7416300e-01  -7.9751800e-01  -3.5724400e-01
   2.9035900e-01  -6.4828100e-01  -3.5630800e-01
   2.1685500e-01  -5.0254800e-01  -3.5069200e-01
   1.2907200e-01  -3.2271600e-01  -3.5045800e-01
   5.1119700e-02  -1.5269400e-01  -3.5256400e-01
  -2.1916300e-02   2.7137300e-02  -3.4718200e-01
  -9.8463600e-02   2.2098100e-01  -3.3899200e-01
  -1.5230400e-01   3.9217200e-01  -3.2448500e-01
  -2.1527400e-01   5.8788400e-01  -2.9827700e-01
  -2.6068800e-01   7.5743900e-01  -2.7768500e-01
  -2.8924700e-01   9.2092200e-01  -2.5826400e-01
  -3.2178500e-01   1.1035600e+00  -2.3088600e-01
  -3.3068100e-01   1.2429800e+00  -2.0538100e-01
  -3.4496000e-01   1.4123100e+00  -1.7402500e-01
  -3.3489400e-01   1.5428600e+00  -1.3073600e-01
  -3.0844200e-01   1.6458500e+00  -9.3062500e-02
  -2.9509900e-01   1.7817800e+00  -6.0537100e-02
  -2.5694200e-01   1.8730900e+00  -2.2863700e-02
  -2.3072400e-01   1.9772600e+00   2.1361500e-02
  -2.0661300e-01   2.0744100e+00   6.3480800e-02
  -1.5441100e-01   2.1650300e+00   1.0396200e-01
  -1.1016800e-01   2.2491100e+00   1.3555200e-01
  -3.4791200e-02   2.3056200e+00   1.6456700e-01
   5.2056000e-02   2.4100200e+00   1.8492500e-01
   1.3632800e-01   2.4667700e+00   1.9264700e-01
   2.3815700e-01   2.5352000e+00   2.1323800e-01
   3.2781400e-01   2.6288500e+00   2.2798000e-01
   4.3455900e-01   2.6804700e+00   2.2306600e-01
   5.4317600e-01   2.7570700e+00   2.1487600e-01
   6.4641000e-01   2.8208300e+00   2.2540600e-01
   7.4121600e-01   2.8841200e+00   2.3078800e-01
   8.2127500e-01   2.9310600e+00   2.3546800e-01
   9.0273800e-01   2.9754400e+00   2.4225400e-01
   9.8654200e-01   3.0004300e+00   2.3453200e-01
   1.0649600e+00   3.0039300e+00   2.3687200e-01
   1.1328500e+00   2.9920200e+00   2.3570200e-01
   1.2051800e+00   2.9350300e+00   2.2938400e-01
   1.2709600e+00   2.8899600e+00   2.1838600e-01
   1.3402500e+00   2.8329700e+00   2.0598400e-01
   1.4025200e+00   2.7755200e+00   1.8656300e-01
   1.4615100e+00   2.7035900e+00   1.6433300e-01
   1.5261200e+00   2.6248800e+00   1.5895100e-01
   1.5907300e+00   2.5195500e+00   1.4842100e-01
   1.6618900e+00   2.3920400e+00   1.3508400e-01
   1.7187700e+00   2.2750300e+00   1.1730000e-01
   1.7761300e+00   2.1122500e+00   1.0677000e-01
   1.8306700e+00   1.9646400e+00   8.6646400e-02
   1.8650800e+00   1.8021000e+00   5.2717000e-02
   1.8884900e+00   1.6283400e+00   2.8147400e-02
   1.8931700e+00   1.4716300e+00  -3.2080800e-03
   1.8793600e+00   1.3018400e+00  -3.0819600e-02
   1.8573600e+00   1.1437300e+00  -6.5919000e-02
   1.8299700e+00   9.9705900e-01  -8.8616600e-02
   1.7941500e+00   8.5576300e-01  -1.0172000e-01
   1.7379700e+00   7.1633500e-01  -1.3588400e-01
   1.6775700e+00   5.9278900e-01  -1.5600700e-01
   1.6169500e+00   4.5966700e-01  -1.5881500e-01
   1.5411000e+00   3.3144900e-01  -1.6513300e-01
   1.4533200e+00   2.1724500e-01  -1.7355700e-01
   1.3643600e+00   1.1985500e-01  -1.8385300e-01
   1.2737700e+00   2.7137300e-02  -1.9976500e-01
   1.1717100e+00  -6.9784800e-02  -2.0046700e-01
   1.0724500e+00  -1.3657900e-01  -1.9204300e-01
   9.6289900e-01  -2.1785400e-01  -1.9485100e-01
   8.5826100e-01  -3.1197300e-01  -1.9344700e-01
   7.4940900e-01  -4.0118800e-01  -1.9391500e-01
   6.1457400e-01  -5.0184700e-01  -1.9672300e-01
   4.6897000e-01  -5.8452300e-01  -1.8783100e-01
   3.0463900e-01  -6.5645500e-01  -1.6606900e-01
   1.3843500e-01  -7.3049000e-01  -1.4828600e-01
  -3.6663900e-02  -7.8420600e-01  -1.3962800e-01
  -2.0637900e-01  -8.1783600e-01  -1.1552600e-01
  -3.6813500e-01  -8.8229500e-01  -8.8148600e-02
  -5.3621100e-01  -9.2877100e-01  -6.3111000e-02
  -6.9656300e-01  -9.4558700e-01  -2.4735700e-02
  -8.5948900e-01  -9.8902700e-01   8.7257200e-03
  -1.0203100e+00  -1.0158800e+00   3.1189300e-02
  -1.1722300e+00  -1.0336300e+00   4.2889100e-02
  -1.3220500e+00  -1.0371400e+00   4.2655100e-02
  -1.4655500e+00  -1.0635300e+00   4.6633100e-02
  -1.5999100e+00  -1.0745000e+00   4.4293100e-02
  -1.7289000e+00  -1.0875800e+00   2.4871400e-02
  -1.8436000e+00  -1.0980900e+00  -1.3971900e-02
  -1.9426200e+00  -1.0763700e+00  -4.8135300e-02
  -2.0290000e+00  -1.1004300e+00  -7.2938900e-02
  -2.1008700e+00  -1.1188800e+00  -1.1342000e-01
  -2.1661800e+00  -1.1373300e+00  -1.5062600e-01
  -2.2087800e+00  -1.1532100e+00  -1.8034300e-01
  -2.2336000e+00  -1.1763300e+00  -2.0514700e-01
  -2.2630900e+00  -1.1884800e+00  -2.2222800e-01
  -2.2771400e+00  -1.1964200e+00  -2.3018400e-01
  -2.2811200e+00  -1.2057600e+00  -2.2690800e-01
  -2.2886100e+00  -1.2055200e+00  -2.1988800e-01
  -2.2989100e+00  -1.2001500e+00  -2.0421100e-01
  -2.3045200e+00  -1.2104300e+00  -1.6840900e-01
  -2.2930500e+00  -1.2251400e+00  -1.2067400e-01
  -2.2794800e+00  -1.2151000e+00  -8.3000700e-02
  -2.2584100e+00  -1.2237400e+00  -4.9071300e-02
  -2.2317200e+00  -1.2085600e+00  -6.2500300e-03
  -2.1973100e+00  -1.1952500e+00   2.7211400e-02
  -2.1519000e+00  -1.1742300e+00   5.3418900e-02
  -2.1104600e+00  -1.1434000e+00   8.8284300e-02
  -2.0563900e+00  -1.1200500e+00   1.2525600e-01
  -2.0084000e+00  -1.0854800e+00   1.5169700e-01
  -1.9618200e+00  -1.0341000e+00   1.7579900e-01
  -1.9056400e+00  -9.6567200e-01   1.9358300e-01
  -1.8574100e+00  -8.8953500e-01   2.0692000e-01
  -1.7860200e+00  -8.1550100e-01   2.2400200e-01
  -1.7108700e+00  -7.4473600e-01   2.1955600e-01
  -1.6345600e+00  -6.7233700e-01   2.0504800e-01
  -1.5505200e+00  -6.0764400e-01   2.0013400e-01
  -1.4866200e+00  -5.3454400e-01   1.8679700e-01
  -1.4196700e+00  -4.7662400e-01   1.5918500e-01
  -1.3379700e+00  -4.2804600e-01   1.2853200e-01
  -1.2497200e+00  -3.8624100e-01   9.5772200e-02
  -1.1396900e+00  -3.7783400e-01   5.8800900e-02
  -1.0254600e+00  -3.6241900e-01   1.9723500e-02
  -9.2105500e-01  -3.5774800e-01  -1.9353800e-02
  -8.1150100e-01  -3.6078500e-01  -5.4687200e-02
  -7.1201300e-01  -3.5774800e-01  -8.4404700e-02
  -6.1790900e-01  -3.8087000e-01  -1.1505800e-01
  -5.2567700e-01  -3.7876800e-01  -1.3448000e-01
  -4.2829600e-01  -3.8740900e-01  -1.3097000e-01
  -3.2482800e-01  -3.8857700e-01  -1.2863000e-01
  -2.2440400e-01  -3.7666600e-01  -1.2207800e-01
  -1.1531800e-01  -3.7993500e-01  -9.3998500e-02
  -1.1616300e-02  -3.6195200e-01  -5.6091200e-02
   8.6467200e-02  -3.5377800e-01  -2.4735700e-02
   1.7144200e-01  -3.4630500e-01   1.0831700e-02
