**************************************************************************************
  	RED ACELEROGRÁFICA DE LA UNIVERSIDAD AUTONOMA METROPOLITANA (RA-UAM)
	   UNIDAD AZCAPOTZALCO. DIVISIÓN CBI-DEPARTAMENTO DE MATERIALES
     Av. San Pablo 420, Col. Nueva el Rosario, Azcapotzalco, C.P. 02128, Ciudad de México
		Área de Estructuras. e-mail: agb@azc.uam.mx
**************************************************************************************
ARCHIVO ESTANDAR DE ACELERACION:
VERSION DEL FORMATO                    : 2.0
NOMBRE DEL ARCHIVO                     : RIDA202307.161
FECHA Y HORA DE CREACION               : 11:30 a. m. 21/07/2023
REF. CATALOGO ACELEROGRAMAS, SMIS 1999 : REGISTRO NO.      /PAG.    


================================================================================
DATOS DE LA ESTACION:
NOMBRE DE LA ESTACION                  : UAM-AZCAPOTZALCO.
CLAVE DE LA ESTACION                   : RIDA
LOCALIZACION DE LA ESTACION            : AV. SAN PABLO 420, COL. NUEVA EL ROSARIO,
                                       : AZCAPOTZALCO, C.P.02128, CIUDAD DE MEXICO. 
                                       :
                                       : 
                                       : 
COORDENADAS DE LA ESTACION             : 19.498596 LAT. N
                                       : 99.195595 LONG. W
ALTITUD (msnm)                         : 2546
TIPO DE SUELO                          : ZONA DE TRANSICION
                                       : 
                                       : 
INSTITUCION RESPONSABLE                : UNIVERSIDAD AUTONOMA METROPOLITANA
                                       : 

================================================================================
DATOS DEL ACELEROGRAFO: 
MODELO DEL ACELEROGRAFO                : ETNA2 KINEMETRICS
NUMERO DE SERIE DEL ACELEROGRAFO       : 103732
NUMERO DE CANALES                      : 3
ORIENTACION C1-C6 (rumbo;orientacion)  : /N90E/N00E/V
ORIENTACION C7-C12 (rumbo;orientacion) : 
VEL. DE MUESTREO, C1-C6 (muestras/s)   : /200/200/200
VEL. DE MUESTREO, C7-C12 (muestras/s)  : 
ESC. COMPLETA DE SENSORES, C1-C6, (g)  : /2/2/2
ESC. COMPLETA DE SENSORES, C7-C12 (g)  : 
FREC. NAT. DE SENSORES, C1-C6, (Hz)    : /198/212/200   
FREC. NAT. DE SENSORES, C7-C12 (Hz)    : 
AMORTIGUAMIENTO DE SENSORES, C1-C6     : /0.7/0.7/0.7      
AMORTIGUAMIENTO DE SENSORES, C7-C12    : 
INTERVALO DE MUESTREO, C1-C6 (s)       : /0.005/0.005/0.005
INTERVALO DE MUESTREO, C7-C12 (s)      : 
UMBRAL DE DISPARO, C1-C6 (Gal)         : /2/2/2
UMBRAL DE DISPARO, C7-C12 (Gal)        : 
MEMORIA DE PREEVENTO (s)               : 50
TIEMPO DE POSEVENTO (s)                : 60


================================================================================
DATOS DEL SISMO:
FECHA DEL SISMO [GMT]                  : 2023/07/16
HORA EPICENTRO (GMT)                   : 13:44:36
MAGNITUD(ES)                           : /M=5.2
COORDENADAS DEL EPICENTRO              : 18.3000 LAT. N
                                       : -100.9100 LONG. W
PROFUNDIDAD FOCAL (Km)                 : 44.6
FUENTE DE LOS DATOS EPICENTRALES       : SSN
                                       : INSTITUTO DE GEOFISICA, UNAM

================================================================================
DATOS DE ESTE REGISTRO:
HORA DE LA PRIMERA MUESTRA (GMT)       : 13:44:17.000
EXACTITUD DEL TIEMPO (s)               : 
DURACION DEL REGISTRO (s), C1-C6       : /194/194/194
DURACION DEL REGISTRO (s), C7-C12      : 
NUM. TOTAL DE MUESTRAS, C1-C6          : /38800/38800/38800
NUM. TOTAL DE MUESTRAS, C7-C12         : 
ACEL. MAX.(Gal), C1-C6                 : /1.574/-1.450/-0.639
ACEL. MAX., C1-C6, EN LA MUESTRA       : /18524/17412/13683
ACEL. MAX.(Gal), C7-C12                : 
ACEL. MAX., C7-C12,EN LA MUESTRA       : 
UNIDADES DE LOS DATOS                  : Gal (cm/s/s)
FACTOR DE DECIMACION                   : 1
FORMATO DATOS (FORTRAN,16 campos/dato) : 3E16.7


================================================================================
CALIDAD DEL ACELEROGRAMA:
REGISTRO DIGITAL COMPLETO CON TIEMPO ABSOLUTO CORRECTO


================================================================================
COMENTARIOS:














================================================================================
DATOS DE ACELERACION:
---------+---------+---------+---------+---------+---------+---------+---------+
   CANAL-1   	     CANAL-2          CANAL-3
     N90E             N00E              V
---------+---------+---------+---------+---------+---------+---------+---------+ 
[...]
   9.9017100e-01  -7.1482300e-01   6.6641800e-02
   1.0203700e+00  -7.8208500e-01   3.8562300e-02
   1.0678900e+00  -8.5775400e-01   1.1886800e-02
   1.0962100e+00  -9.1380600e-01  -2.2276600e-02
   1.1236000e+00  -9.9134300e-01  -6.1588000e-02
   1.1465400e+00  -1.0497300e+00  -9.5517400e-02
   1.1601200e+00  -1.1165200e+00  -1.2827700e-01
   1.1851700e+00  -1.1641700e+00  -1.6431200e-01
   1.2024900e+00  -1.1917300e+00  -1.9613600e-01
   1.2191100e+00  -1.2241900e+00  -2.2187500e-01
   1.2418200e+00  -1.2410100e+00  -2.4644500e-01
   1.2490700e+00  -1.2438100e+00  -2.6610000e-01
   1.2635900e+00  -1.2519800e+00  -2.7663000e-01
   1.2593700e+00  -1.2564200e+00  -2.8739400e-01
   1.2312800e+00  -1.2391400e+00  -2.9090400e-01
   1.2146600e+00  -1.2146100e+00  -2.9698800e-01
   1.1758000e+00  -1.1739800e+00  -3.0330600e-01
   1.1428000e+00  -1.1510900e+00  -3.0096600e-01
   1.1006600e+00  -1.1130200e+00  -3.0073200e-01
   1.0489300e+00  -1.0763500e+00  -2.9628600e-01
   1.0098300e+00  -1.0506600e+00  -2.8973400e-01
   9.4546000e-01  -1.0228700e+00  -2.7288600e-01
   9.0145100e-01  -9.9367900e-01  -2.6259000e-01
   8.5791100e-01  -9.7476100e-01  -2.5182700e-01
   8.0687900e-01  -9.5747900e-01  -2.1859900e-01
   7.8136300e-01  -9.3389100e-01  -1.8724400e-01
   7.3595000e-01  -9.5304200e-01  -1.5916400e-01
   6.9873000e-01  -9.2992000e-01  -1.4044500e-01
   6.7017100e-01  -9.3178900e-01  -1.1774700e-01
   6.2475700e-01  -9.4346600e-01  -9.2241400e-02
   5.8379200e-01  -9.0843400e-01  -7.3521700e-02
   5.2971700e-01  -8.9815800e-01  -5.5270100e-02
   4.9390100e-01  -8.6312600e-01  -4.0762300e-02
   4.6955600e-01  -8.2669300e-01  -2.0170700e-02
   4.3654900e-01  -7.8395300e-01  -2.3869800e-03
   4.2273800e-01  -7.3490900e-01   1.8698000e-04
   3.8973100e-01  -6.8352800e-01   5.8028800e-03
   3.6468400e-01  -6.1042800e-01   2.0544600e-02
   3.4010400e-01  -5.4620200e-01   3.0606500e-02
   3.0358600e-01  -4.7847400e-01   2.9904500e-02
   2.8766800e-01  -4.0397200e-01   2.0076600e-02
   2.5419400e-01  -3.2620100e-01   1.9608600e-02
   2.2797500e-01  -2.5029800e-01   1.5630700e-02
   2.0199200e-01  -1.5781300e-01   5.8028800e-03
   1.5985500e-01  -5.8555900e-02   1.3569600e-03
   1.2567800e-01   3.1593300e-02  -1.0810800e-02
   8.5180800e-02   1.3388700e-01  -2.2510600e-02
   5.0301400e-02   2.1656300e-01  -2.8594500e-02
   1.2144800e-02   2.8405800e-01  -2.6722600e-02
  -4.2632200e-02   3.7163800e-01  -3.2338500e-02
  -7.8213800e-02   4.1741300e-01  -3.8656300e-02
  -1.1309300e-01   4.4730700e-01  -3.5614400e-02
  -1.6248600e-01   5.1270100e-01  -4.0528300e-02
  -1.9291800e-01   5.2764800e-01  -3.9124300e-02
  -2.3130800e-01   5.4983500e-01  -3.6082400e-02
  -2.5588800e-01   5.7155400e-01  -3.4678400e-02
  -2.7297600e-01   5.8463300e-01  -3.6550400e-02
  -2.9685400e-01   6.1219200e-01  -3.2104500e-02
  -3.0106700e-01   6.1989900e-01  -2.6488600e-02
  -3.2798700e-01   6.7478200e-01  -2.4850600e-02
  -3.3711700e-01   7.0864700e-01  -7.7688800e-03
  -3.4811900e-01   7.4531400e-01   6.9728600e-03
  -3.7574200e-01   8.0697000e-01   1.9842600e-02
  -3.8042400e-01   8.3172600e-01   3.9264300e-02
  -4.0453500e-01   8.8590900e-01   6.1961900e-02
  -4.1717600e-01   9.2024000e-01   8.2553600e-02
  -4.2981600e-01   9.2514500e-01   1.0454900e-01
  -4.4573500e-01   9.5784100e-01   1.1227100e-01
  -4.3637100e-01   9.5900900e-01   1.1788700e-01
  -4.3660500e-01   9.6858500e-01   1.3496900e-01
  -4.2443200e-01   9.6554900e-01   1.4315900e-01
  -4.1296200e-01   9.5503900e-01   1.4245700e-01
  -4.1015300e-01   9.5247000e-01   1.4198900e-01
  -3.8627600e-01   9.3121700e-01   1.5696400e-01
  -3.7504000e-01   9.3775600e-01   1.5907000e-01
  -3.5373700e-01   9.1533600e-01   1.4760400e-01
  -3.2915800e-01   9.1510200e-01   1.4526400e-01
  -3.2354000e-01   9.0155700e-01   1.4643400e-01
  -3.0036500e-01   8.7960300e-01   1.4081900e-01
  -2.9240600e-01   8.7563300e-01   1.1414300e-01
  -2.7836000e-01   8.2145000e-01   1.0057100e-01
  -2.6033600e-01   8.0720400e-01   9.8699300e-02
  -2.5027000e-01   7.8665100e-01   8.5829500e-02
  -2.2100900e-01   7.3737300e-01   6.5237900e-02
  -2.0532400e-01   7.0911400e-01   4.3944200e-02
  -1.8964000e-01   6.7805200e-01   3.7860300e-02
  -1.8004300e-01   6.2363500e-01   2.6394500e-02
  -1.7325400e-01   5.7996200e-01   1.1418800e-02
  -1.5757000e-01   5.4259500e-01  -8.9388600e-03
  -1.4563200e-01   4.8350700e-01  -2.9998500e-02
  -1.2924500e-01   4.4216900e-01  -3.6784400e-02
  -1.0279300e-01   3.9008800e-01  -4.5910200e-02
  -9.2493300e-02   3.4361200e-01  -5.7142000e-02
  -7.7277500e-02   2.9503500e-01  -6.1588000e-02
  -6.8148000e-02   2.4342100e-01  -5.7610000e-02
  -7.4468400e-02   1.9507600e-01  -4.9420200e-02
  -5.4336700e-02   1.3809100e-01  -4.5910200e-02
  -6.2529800e-02   1.0726300e-01  -4.0294300e-02
  -6.6977500e-02   5.4948100e-02  -3.0232500e-02
  -7.0957000e-02   4.5018600e-03  -2.7658500e-02
  -8.8045600e-02  -4.6177900e-02  -2.1106700e-02
  -9.1322800e-02  -1.0760100e-01  -1.5490700e-02
  -1.0021800e-01  -1.6108300e-01  -6.1309100e-03
  -8.9918300e-02  -1.9891800e-01   5.8028800e-03
  -8.1022900e-02  -2.1900300e-01   6.9728600e-03
  -6.4636600e-02  -2.5613700e-01   5.5688900e-03
  -3.8652700e-02  -2.7925800e-01   5.5688900e-03
  -2.3202700e-02  -3.0051100e-01   1.7970700e-02
   1.3766800e-03  -3.3297400e-01   3.9498300e-02
   2.5722000e-02  -3.6590400e-01   5.1198100e-02
   4.9833200e-02  -3.8271900e-01   4.9326100e-02
   8.5414900e-02  -4.0420600e-01   5.2836100e-02
   1.0976000e-01  -4.1541600e-01   6.3833900e-02
   1.2825300e-01  -4.3456700e-01   7.0619800e-02
   1.4674600e-01  -4.8174300e-01   7.0619800e-02
   1.5400300e-01  -4.9715700e-01   6.6875800e-02
   1.7319800e-01  -5.3826200e-01   6.4301900e-02
   1.9098900e-01  -5.5601100e-01   5.7984000e-02
   2.0175700e-01  -5.4807100e-01   5.8920000e-02
   2.1135500e-01  -5.6138300e-01   7.0619800e-02
   2.0901400e-01  -5.3779500e-01   8.1149600e-02
   2.1299400e-01  -5.3219000e-01   8.6765500e-02
   2.0480100e-01  -5.1233800e-01   8.9339400e-02
   1.8747800e-01  -4.7660500e-01   9.0275400e-02
   1.7319800e-01  -4.5908900e-01   9.8231300e-02
   1.4276700e-01  -4.2148800e-01   9.6125300e-02
   1.1374000e-01  -3.9066000e-01   8.4659500e-02
   8.0733100e-02  -3.5235800e-01   7.3193700e-02
   4.4215100e-02  -3.1849400e-01   4.8390100e-02
   6.7607400e-03  -2.7038300e-01   3.0372500e-02
  -2.5075500e-02  -2.3114700e-01   1.3758700e-02
  -4.3568500e-02  -1.9868400e-01  -7.5348900e-03
  -5.9252500e-02  -1.4987300e-01  -3.8422400e-02
  -6.6509300e-02  -1.2838600e-01  -6.2289900e-02
  -7.0020700e-02  -9.0084700e-02  -6.4863900e-02
  -7.8447900e-02  -5.9256500e-02  -6.7671800e-02
  -9.5536400e-02  -3.5434700e-02  -7.3521700e-02
  -9.7877300e-02  -7.4090400e-03  -7.9137700e-02
  -1.0138900e-01   1.8748200e-02  -6.9777800e-02
  -1.1285900e-01   4.3270700e-02  -5.2228100e-02
  -1.2690400e-01   6.5924800e-02  -3.8422400e-02
  -1.5405900e-01   1.1263400e-01  -2.6488600e-02
  -1.7512700e-01   1.4486400e-01  -1.0342800e-02
  -1.9713100e-01   1.8339900e-01   8.1428400e-03
  -2.2147700e-01   2.0582000e-01   1.5396700e-02
  -2.4394900e-01   2.3524600e-01   3.0372500e-02
  -2.6899700e-01   2.5673300e-01   5.4474000e-02
  -2.8866000e-01   2.6140400e-01   7.1789700e-02
  -3.1160100e-01   2.8008800e-01   8.9807400e-02
  -3.4320300e-01   2.8008800e-01   1.1039900e-01
  -3.5537600e-01   2.9036400e-01   1.2911900e-01
  -3.6520800e-01   2.5743300e-01   1.3964900e-01
  -3.8651000e-01   2.6911100e-01   1.5298600e-01
  -3.9774600e-01   2.5439700e-01   1.7053600e-01
  -4.2302800e-01   2.2753900e-01   1.7264200e-01
  -4.5182100e-01   2.3921700e-01   1.7030200e-01
  -4.7897500e-01   2.1165800e-01   1.7006800e-01
  -5.0823700e-01   2.0815500e-01   1.6772800e-01
  -5.3234800e-01   1.9134000e-01   1.6000600e-01
  -5.6137500e-01   1.8760300e-01   1.4643400e-01
  -5.6956800e-01   1.6401500e-01   1.4035100e-01
  -5.7448400e-01   1.6424800e-01   1.3941500e-01
  -5.8735900e-01   1.5840900e-01   1.4175500e-01
  -5.8220900e-01   1.5957700e-01   1.3309700e-01
  -5.7893200e-01   1.8807000e-01   1.1297300e-01
  -5.8244300e-01   1.8690200e-01   1.0220900e-01
  -5.7307900e-01   2.2707200e-01   9.4721300e-02
  -5.7284500e-01   2.3197700e-01   7.7873600e-02
  -5.6933400e-01   2.2800700e-01   4.8624100e-02
  -5.6933400e-01   2.4715700e-01   2.5224500e-02
  -5.7588800e-01   2.3734800e-01   1.2822800e-02
  -5.8478400e-01   2.3851600e-01  -8.4708700e-03
  -6.1989700e-01   2.4272000e-01  -3.4678400e-02
  -6.3370900e-01   2.3454600e-01  -5.7376000e-02
  -6.4986100e-01   2.1983200e-01  -7.5627700e-02
  -6.7561100e-01   2.0278300e-01  -9.2475400e-02
  -6.7748300e-01   1.7802700e-01  -1.1821500e-01
  -6.8989000e-01   1.4252800e-01  -1.3950900e-01
  -6.9433800e-01   1.3295300e-01  -1.4676200e-01
  -6.7888800e-01   1.1310100e-01  -1.6056800e-01
  -6.5852200e-01   7.5033100e-02  -1.8022400e-01
  -6.2762200e-01   6.7559600e-02  -1.8818000e-01
  -6.0421300e-01   4.2336500e-02  -1.7671400e-01
  -5.5856600e-01   1.2676000e-02  -1.6361000e-01
  -5.1596100e-01   1.3376700e-02  -1.5986600e-01
  -4.7640000e-01  -1.0912300e-02  -1.5378200e-01
  -3.9961900e-01   3.3341300e-03  -1.4582700e-01
  -3.3852200e-01   1.5245000e-02  -1.3248900e-01
  -2.6033600e-01   3.5676700e-03  -1.3038300e-01
  -1.7278600e-01   1.2208900e-02  -1.3295700e-01
  -9.7877300e-02  -2.7381000e-03  -1.2897900e-01
  -1.4073200e-02  -1.1032700e-03  -1.2804300e-01
   6.3878600e-02  -9.0438700e-03  -1.2874500e-01
   1.4534200e-01  -9.5109700e-03  -1.3763700e-01
   2.1720700e-01  -2.5045500e-03  -1.4184900e-01
   2.9164800e-01  -1.0445200e-02  -1.4442300e-01
   3.8083600e-01  -2.2823200e-02  -1.5354800e-01
   4.6112900e-01  -3.7069500e-02  -1.6337600e-01
   5.3954900e-01  -5.6687500e-02  -1.7320400e-01
   6.1164800e-01  -8.1210000e-02  -1.8326600e-01
   6.6666000e-01  -1.1600800e-01  -1.9169000e-01
   7.2330900e-01  -1.6061600e-01  -1.9660400e-01
   7.6942500e-01  -1.8724000e-01  -1.9754000e-01
   8.1039100e-01  -2.5193300e-01  -1.8864800e-01
   8.4854700e-01  -2.9023500e-01  -1.8350000e-01
   8.9747200e-01  -3.4208200e-01  -1.8279800e-01
   9.4850300e-01  -4.1308100e-01  -1.6946000e-01
   9.8104200e-01  -4.4437600e-01  -1.4465700e-01
   1.0426100e+00  -5.0463100e-01  -1.2312900e-01
   1.1074500e+00  -5.4643600e-01  -1.0698300e-01
   1.1666800e+00  -5.7399500e-01  -7.1181800e-02
   1.2404100e+00  -6.0155300e-01  -3.7954400e-02
   1.3113400e+00  -6.1790100e-01  -1.9936700e-02
   1.3808700e+00  -6.1766800e-01   6.0368800e-03
   1.4405600e+00  -6.2280600e-01   4.1136300e-02
   1.4941700e+00  -6.2607600e-01   6.7577800e-02
   1.5208500e+00  -5.9711600e-01   7.5299700e-02
   1.5452000e+00  -5.9921800e-01   9.4487400e-02
   1.5711800e+00  -5.9197800e-01   1.1273900e-01
   1.5735200e+00  -5.6231700e-01   1.3169300e-01
   1.5730500e+00  -5.5110700e-01   1.4456200e-01
   1.5643900e+00  -5.3289000e-01   1.4245700e-01
   1.5510500e+00  -5.1420600e-01   1.5673000e-01
   1.5173400e+00  -4.7683900e-01   1.7264200e-01
   1.4845700e+00  -4.4928000e-01   1.8247000e-01
   1.4471100e+00  -4.1751800e-01   1.7825800e-01
   1.3991300e+00  -3.6917400e-01   1.7849200e-01
   1.3626100e+00  -3.3017100e-01   1.8013000e-01
   1.3223400e+00  -2.9116900e-01   1.6749400e-01
   1.2727200e+00  -2.4235800e-01   1.6141000e-01
   1.2191100e+00  -1.8864200e-01   1.6328200e-01
   1.1711200e+00  -1.4566900e-01   1.6375000e-01
   1.1076800e+00  -8.6581500e-02   1.4503000e-01
   1.0416700e+00  -2.2356100e-02   1.2935300e-01
   9.8010600e-01   3.9767500e-02   1.2701300e-01
   9.1011300e-01   9.6052400e-02   1.2420500e-01
   8.2982000e-01   1.6775100e-01   1.2046100e-01
   7.5491100e-01   2.2403600e-01   1.0548500e-01
   6.7204400e-01   2.7868600e-01   8.5595500e-02
   5.7559900e-01   3.5155300e-01   7.1321800e-02
   4.8687900e-01   3.8635200e-01   5.9388000e-02
   3.9300900e-01   4.4684000e-01   4.4412200e-02
   2.9984100e-01   4.8140500e-01   3.6924300e-02
   1.9660700e-01   5.1316800e-01   2.5926500e-02
   9.9928400e-02   5.5123600e-01   5.3348900e-03
  -7.2846400e-03   5.7318900e-01  -5.6629200e-03
  -1.2362700e-01   6.1335900e-01  -6.5989000e-03
  -2.1773100e-01   5.9350800e-01  -2.3869800e-03
  -3.3875600e-01   6.1242500e-01  -9.8300000e-04
  -4.4316000e-01   6.1616200e-01   8.8896800e-04
  -5.3890200e-01   5.9420900e-01   4.6329000e-03
  -6.5407400e-01   6.1265900e-01   1.1184800e-02
  -7.5871200e-01   5.9350800e-01   1.0482800e-02
  -8.6498900e-01   5.8369900e-01   9.5468200e-03
  -9.5417700e-01   5.7272200e-01   7.2068600e-03
  -1.0508600e+00   5.6641600e-01  -8.0028800e-03
  -1.1276400e+00   5.4843300e-01  -2.4616600e-02
  -1.1812400e+00   5.2040800e-01  -3.3274400e-02
  -1.2568600e+00   5.2391100e-01  -3.9124300e-02
  -1.3032100e+00   4.9495100e-01  -6.4161900e-02
  -1.3519000e+00   4.7323100e-01  -8.6625500e-02
  -1.4113500e+00   4.4590600e-01  -9.7857300e-02
  -1.4417900e+00   3.9592700e-01  -1.0698300e-01
  -1.4806400e+00   3.6650000e-01  -1.1868300e-01
  -1.4939900e+00   3.0671200e-01  -1.4161500e-01
  -1.4991400e+00   2.6654200e-01  -1.6150400e-01
  -1.5099100e+00   2.2170100e-01  -1.6314200e-01
  -1.5010100e+00   1.6518200e-01  -1.6220600e-01
  -1.5169300e+00   1.2758100e-01  -1.7437400e-01
  -1.5054600e+00   6.8727300e-02  -1.8794600e-01
  -1.4930500e+00   2.6688800e-02  -1.8981800e-01
  -1.4998400e+00  -3.5434700e-02  -1.8467000e-01
  -1.4736200e+00  -9.2653800e-02  -1.8794600e-01
  -1.4710500e+00  -1.4263300e-01  -1.8420200e-01
  -1.4565300e+00  -2.0452300e-01  -1.7952200e-01
  -1.4272700e+00  -2.4796300e-01  -1.8022400e-01
  -1.4034000e+00  -3.0424800e-01  -1.7741600e-01
  -1.3565800e+00  -3.5259200e-01  -1.8116000e-01
  -1.3231000e+00  -3.8809100e-01  -1.7226800e-01
  -1.2692600e+00  -4.2218900e-01  -1.5799400e-01
  -1.2123800e+00  -4.5114900e-01  -1.5682400e-01
  -1.1590100e+00  -4.6959900e-01  -1.5659000e-01
  -1.0845700e+00  -4.7870700e-01  -1.4769800e-01
  -1.0304900e+00  -5.0323000e-01  -1.2476700e-01
  -9.5324100e-01  -5.3242300e-01  -1.0604700e-01
  -8.7973700e-01  -5.4153100e-01  -9.8091300e-02
  -8.2168300e-01  -5.6512000e-01  -8.2179600e-02
  -7.3717600e-01  -5.8543800e-01  -6.2289900e-02
  -6.7818600e-01  -5.9384600e-01  -3.3508400e-02
  -6.0749100e-01  -6.1369800e-01  -7.7688800e-03
  -5.2532500e-01  -6.2397400e-01   9.7808100e-03
  -4.5743900e-01  -6.4219000e-01   3.1542400e-02
  -3.6965500e-01  -6.4195700e-01   4.8156200e-02
  -2.9661900e-01  -6.5456800e-01   8.0213600e-02
  -2.1913600e-01  -6.6601200e-01   1.1039900e-01
  -1.5616600e-01  -6.5129900e-01   1.2982100e-01
  -1.0934800e-01  -6.4032200e-01   1.6047400e-01
  -5.1059400e-02  -6.1696700e-01   1.8293800e-01
  -2.4841400e-02  -6.1930300e-01   2.0189100e-01
   9.3357300e-03  -6.1299700e-01   2.1944100e-01
   3.2510600e-02  -5.7399500e-01   2.2505700e-01
   4.1640100e-02  -5.6208400e-01   2.3067300e-01
   7.7924000e-02  -5.5110700e-01   2.3418300e-01
   9.4310300e-02  -5.1747600e-01   2.3441700e-01
   1.2123100e-01  -5.0159500e-01   2.2950300e-01
   1.5704600e-01  -4.7987500e-01   2.1663300e-01
   1.8981900e-01  -4.5908900e-01   2.1054900e-01
   2.2727300e-01  -4.2522500e-01   1.9159600e-01
   2.4810700e-01  -3.7804800e-01   1.6094200e-01
   2.8298700e-01  -3.4418400e-01   1.3660700e-01
   3.0663000e-01  -3.1148700e-01   1.1063300e-01
   3.1997300e-01  -2.7552100e-01   8.7233500e-02
   3.4759500e-01  -2.5356800e-01   5.2134100e-02
   3.5742700e-01  -2.2881200e-01   9.0788300e-03
