**************************************************************************************
  	RED ACELEROGRÁFICA DE LA UNIVERSIDAD AUTONOMA METROPOLITANA (RA-UAM)
	   UNIDAD AZCAPOTZALCO. DIVISIÓN CBI-DEPARTAMENTO DE MATERIALES
     Av. San Pablo 420, Col. Nueva el Rosario, Azcapotzalco, C.P. 02128, Ciudad de México
		Área de Estructuras. e-mail: agb@azc.uam.mx
**************************************************************************************
ARCHIVO ESTANDAR DE ACELERACION:
VERSION DEL FORMATO                    : 2.0
NOMBRE DEL ARCHIVO                     : RIDA202312.122
FECHA Y HORA DE CREACION               : 11:30 a. m. 19/12/2023
REF. CATALOGO ACELEROGRAMAS, SMIS 1999 : REGISTRO NO.      /PAG.    


================================================================================
DATOS DE LA ESTACION:
NOMBRE DE LA ESTACION                  : UAM-AZCAPOTZALCO.
CLAVE DE LA ESTACION                   : RIDA
LOCALIZACION DE LA ESTACION            : AV. SAN PABLO 420, COL. NUEVA EL ROSARIO,
                                       : AZCAPOTZALCO, C.P.02128, CIUDAD DE MEXICO. 
                                       :
                                       : 
                                       : 
COORDENADAS DE LA ESTACION             : 19.498596 LAT. N
                                       : 99.195595 LONG. W
ALTITUD (msnm)                         : 2546
TIPO DE SUELO                          : ZONA DE TRANSICION
                                       : 
                                       : 
INSTITUCION RESPONSABLE                : UNIVERSIDAD AUTONOMA METROPOLITANA
                                       : 

================================================================================
DATOS DEL ACELEROGRAFO: 
MODELO DEL ACELEROGRAFO                : ETNA2 KINEMETRICS
NUMERO DE SERIE DEL ACELEROGRAFO       : 103732
NUMERO DE CANALES                      : 3
ORIENTACION C1-C6 (rumbo;orientacion)  : /N90E/N00E/V
ORIENTACION C7-C12 (rumbo;orientacion) : 
VEL. DE MUESTREO, C1-C6 (muestras/s)   : /200/200/200
VEL. DE MUESTREO, C7-C12 (muestras/s)  : 
ESC. COMPLETA DE SENSORES, C1-C6, (g)  : /2/2/2
ESC. COMPLETA DE SENSORES, C7-C12 (g)  : 
FREC. NAT. DE SENSORES, C1-C6, (Hz)    : /198/212/200   
FREC. NAT. DE SENSORES, C7-C12 (Hz)    : 
AMORTIGUAMIENTO DE SENSORES, C1-C6     : /0.7/0.7/0.7      
AMORTIGUAMIENTO DE SENSORES, C7-C12    : 
INTERVALO DE MUESTREO, C1-C6 (s)       : /0.005/0.005/0.005
INTERVALO DE MUESTREO, C7-C12 (s)      : 
UMBRAL DE DISPARO, C1-C6 (Gal)         : /2/2/2
UMBRAL DE DISPARO, C7-C12 (Gal)        : 
MEMORIA DE PREEVENTO (s)               : 50
TIEMPO DE POSEVENTO (s)                : 60


================================================================================
DATOS DEL SISMO:
FECHA DEL SISMO [GMT]                  : 2023/12/12
HORA EPICENTRO (GMT)                   : 17:07:52
MAGNITUD(ES)                           : /M=3.0
COORDENADAS DEL EPICENTRO              : 19.3630 LAT. N
                                       : -99.2000 LONG. W
PROFUNDIDAD FOCAL (Km)                 : 1.0
FUENTE DE LOS DATOS EPICENTRALES       : SSN
                                       : INSTITUTO DE GEOFISICA, UNAM

================================================================================
DATOS DE ESTE REGISTRO:
HORA DE LA PRIMERA MUESTRA (GMT)       : 17:07:14.000
EXACTITUD DEL TIEMPO (s)               : 
DURACION DEL REGISTRO (s), C1-C6       : /180/180/180
DURACION DEL REGISTRO (s), C7-C12      : 
NUM. TOTAL DE MUESTRAS, C1-C6          : /36000/36000/36000
NUM. TOTAL DE MUESTRAS, C7-C12         : 
ACEL. MAX.(Gal), C1-C6                 : /0.977/0.668/-0.373
ACEL. MAX., C1-C6, EN LA MUESTRA       : /23913/3450/19322
ACEL. MAX.(Gal), C7-C12                : 
ACEL. MAX., C7-C12,EN LA MUESTRA       : 
UNIDADES DE LOS DATOS                  : Gal (cm/s/s)
FACTOR DE DECIMACION                   : 1
FORMATO DATOS (FORTRAN,16 campos/dato) : 3E16.7


================================================================================
CALIDAD DEL ACELEROGRAMA:
REGISTRO DIGITAL COMPLETO CON TIEMPO ABSOLUTO CORRECTO


================================================================================
COMENTARIOS:














================================================================================
DATOS DE ACELERACION:
---------+---------+---------+---------+---------+---------+---------+---------+
   CANAL-1   	     CANAL-2          CANAL-3
     N90E             N00E              V
---------+---------+---------+---------+---------+---------+---------+---------+
[...]
  -4.1736100e-02  -1.1690700e-02   5.2937600e-02
   2.0148300e-01  -1.5018400e-01  -2.8259000e-02
   3.9648000e-01  -2.3986600e-01  -5.8210500e-02
   1.9750400e-01  -1.2029000e-01   3.6089900e-02
   1.0934100e-02  -1.2122400e-01   7.5167200e-02
  -7.3248700e-03  -1.0067200e-01   4.5683700e-02
   1.6660400e-01  -9.9971500e-02   2.9070000e-02
   2.6070800e-01  -1.7167100e-01  -4.3914200e-03
   1.4623800e-01  -1.8498300e-01  -3.6916900e-02
   7.6245100e-02  -1.7050300e-01  -1.3751300e-02
   2.1702200e-02  -1.0487600e-01   9.4354900e-02
   6.4540700e-02  -1.3220100e-01   1.0933100e-01
   1.6660400e-01  -2.4080000e-01   1.2244800e-03
   1.2985200e-01  -2.4617200e-01  -2.1239100e-02
   5.2368000e-02  -1.5392100e-01   2.9304000e-02
  -4.2817100e-03  -1.0440900e-01   5.9723500e-02
  -2.8392900e-02  -1.3920700e-01   2.9772000e-02
   2.3575000e-02  -2.1207400e-01  -8.3693500e-03
   5.7752100e-02  -2.5247800e-01  -5.7954000e-03
   5.5177100e-02  -2.4897500e-01  -1.0709300e-02
  -6.0931400e-02  -1.4434600e-01  -7.9013600e-03
  -1.5035400e-01  -2.2901000e-02   6.3723900e-03
  -2.2072500e-02  -6.0268500e-02  -6.2633900e-03
   6.8286100e-02  -7.8952300e-02  -5.8912500e-02
   1.1791300e-01  -1.1678700e-01  -9.4947900e-02
   6.0795200e-02  -1.4177600e-01  -5.1892600e-02
  -1.0751500e-01  -8.3623200e-02  -1.1177300e-02
  -1.8851000e-01  -5.0226000e-02   1.3626300e-02
  -1.7867900e-01   6.7595200e-03  -1.1177300e-02
   5.5500600e-03  -2.8039000e-02  -1.0033000e-01
   1.0082500e-01  -3.0608000e-02  -8.2780100e-02
  -2.1838400e-02  -1.1457200e-02   1.1754300e-02
  -1.2928600e-01  -9.6701900e-02   3.7493900e-02
  -1.3256300e-01  -1.2099100e-01   2.1348100e-02
  -1.2085800e-01  -2.3835200e-02   2.3220100e-02
  -1.3584000e-01   5.7672800e-02   1.5030200e-02
  -1.1009000e-01   4.3426400e-02  -2.5194500e-03
  -5.7186000e-02   1.0274700e-01   4.8257700e-02
  -4.4545100e-02   1.5062500e-01   1.0933100e-01
  -7.7083600e-02   6.5146300e-02   5.0597600e-02
  -5.8824600e-02   2.2019600e-04  -2.3111100e-02
  -6.8656400e-02   6.7014700e-02  -3.6894300e-03
  -1.2530600e-01   1.6487100e-01   3.9131800e-02
  -1.3490400e-01   1.4455200e-01   3.6557900e-02
  -5.4611000e-02   1.1582600e-01  -7.1993700e-03
   2.8959000e-02   9.0135900e-02  -2.1005100e-02
  -1.7156600e-02   2.7311700e-02  -1.8899200e-02
  -7.5210900e-02  -3.2830100e-03  -3.3874900e-02
  -7.2870000e-02  -1.4146300e-03  -1.0709300e-02
  -6.1165500e-02   5.9541200e-02   3.5387900e-02
  -5.4142800e-02   1.0298100e-01   4.5449700e-02
  -4.8524700e-02   6.2810800e-02   1.7604200e-02
  -5.2504200e-02   6.3044400e-02   2.4390100e-02
  -8.7617600e-02   1.0228000e-01   7.6103200e-02
  -1.3443600e-01   1.0835300e-01   7.4231200e-02
  -1.0002400e-01   6.9350200e-02   2.2752100e-02
  -4.0097400e-02   4.2492200e-02  -1.5834700e-03
  -1.6688500e-02   4.4360600e-02   2.8134000e-02
   1.2806800e-02   5.3469000e-02   5.5745500e-02
  -2.3477100e-02   9.8543600e-02   3.6791900e-02
  -6.5145000e-02   9.5974500e-02   1.6902200e-02
  -6.3740500e-02   6.7014700e-02  -2.3345100e-02
  -3.9629200e-02   5.0899900e-02  -8.0206100e-02
  -5.7186000e-02   7.9159100e-02  -7.8568100e-02
  -1.1804900e-01   9.7142300e-02  -6.8506300e-02
  -7.1933600e-02   6.7595200e-03  -8.3950000e-02
   6.3417500e-04  -4.2986000e-02  -6.4060400e-02
   1.2338700e-02  -1.2005700e-01  -5.7742500e-02
  -3.3453500e-03  -1.5765800e-01  -8.6056000e-02
  -7.3572200e-02   2.4976200e-02  -6.8038300e-02
  -1.6346300e-01   1.6206800e-01  -1.9835200e-02
  -7.9892700e-02   7.5422400e-02  -1.8899200e-02
   8.2331500e-02  -1.0254100e-01  -5.6806500e-02
   6.9222400e-02  -1.8404900e-01  -5.9848500e-02
  -4.1736100e-02  -1.4831600e-01   2.1114100e-02
  -1.4356500e-01  -4.3453100e-02   1.0114100e-01
  -1.6791000e-01   4.1791600e-02   8.1719100e-02
  -1.5082200e-01   7.4955300e-02   4.6385700e-02
  -7.3806300e-02   3.9569500e-03   6.6063900e-03
   2.2728000e-03  -8.3856800e-02  -2.2175100e-02
  -1.1219700e-01   9.5620800e-03   4.3343800e-02
  -2.4703300e-01   4.9031600e-02   1.0020500e-01
  -2.5475800e-01  -6.0035000e-02   3.4451900e-02
  -7.1231400e-02  -1.1725400e-01  -5.0956600e-02
   1.0293100e-01  -3.8548600e-02  -1.7963200e-02
  -4.9839800e-03   5.8607000e-02   9.4143400e-03
  -1.6603800e-01   2.5443300e-02  -5.7954000e-03
  -2.4492600e-01   2.8946500e-02   3.9833800e-02
  -2.1660100e-01   3.5252300e-02   6.7913300e-02
  -8.0594900e-02  -5.9567900e-02   2.7432000e-02
   3.9727100e-02  -1.2893100e-01  -1.5623200e-02
   4.5813500e-02  -1.3990800e-01  -9.5393300e-03
  -6.5847300e-02  -7.9185800e-02   4.4981700e-02
  -9.1597200e-02  -6.4705900e-02   5.0363600e-02
   1.5615900e-02  -1.3663800e-01  -1.3985300e-02
   3.5513500e-02  -1.6746700e-01  -5.3062600e-02
  -4.5481500e-02  -1.2869800e-01  -6.8740300e-02
  -1.0072700e-01  -6.7742000e-02  -5.8678500e-02
  -8.2467700e-02  -6.0855800e-03  -1.4453200e-02
   5.2836200e-02   5.1246900e-03   3.5644400e-03
   1.6426300e-01  -5.8166600e-02  -9.0267900e-02
   1.5630400e-01  -1.3453700e-01  -1.7146500e-01
  -7.7930500e-03  -1.0990100e-02  -7.3654200e-02
  -2.0864200e-01   1.6627200e-01   1.0350300e-02
  -1.9225600e-01   1.1559300e-01  -3.5278900e-02
  -6.8094100e-05  -1.3559100e-02  -9.4713900e-02
   1.8182000e-01  -8.5958700e-02  -8.6992000e-02
   1.2563800e-01  -4.3219600e-02  -3.2470900e-02
  -2.9329300e-02   7.2266100e-03   1.7838200e-02
  -4.5247400e-02   3.0814900e-02   5.1533600e-02
   1.4679600e-02   3.4898600e-03   2.9304000e-02
   8.0458800e-02  -6.2370400e-02  -3.0365000e-02
   1.3429900e-01  -1.1982300e-01  -6.7804300e-02
   1.3781100e-01  -1.4551300e-01  -5.3296600e-02
   1.1346500e-01  -9.8803800e-02  -5.0020600e-02
   1.2821300e-01  -6.1436300e-02  -6.2422400e-02
   1.0808100e-01  -6.5526700e-03  -4.2766800e-02
   1.0386800e-01  -5.3495700e-02  -3.7618800e-02
   9.6845000e-02  -1.0043900e-01  -3.8086800e-02
   1.1393400e-01  -9.3432200e-02  -1.6325200e-02
   2.0967600e-01  -1.4154300e-01   1.9008200e-02
   2.1740100e-01  -1.1118200e-01   2.2752100e-02
   2.1271900e-01  -9.4366400e-02  -1.4453200e-02
   2.5017400e-01  -1.0277400e-01  -2.8493000e-02
   2.3776700e-01  -1.3559100e-02   2.2518100e-02
   1.7198800e-01   9.3285400e-03   3.7727900e-02
   1.6379500e-01  -9.5534100e-02   6.3723900e-03
   2.3800100e-01  -1.2285900e-01   1.9944200e-02
   2.1833800e-01  -1.1982300e-01   1.6668200e-02
   9.3099600e-02  -1.0020500e-01   8.0103600e-03
   6.7583800e-02  -3.6213200e-02   3.2579900e-02
   1.3664000e-01   8.8614400e-03   7.9379100e-02
   1.5887900e-01  -8.8881400e-03   9.0610900e-02
   1.8977900e-01  -1.3827300e-01   1.4584800e-03
   2.3542600e-01  -1.8194700e-01  -7.0378300e-02
   2.9043700e-01  -9.9037400e-02  -4.0660800e-02
   2.2161500e-01  -2.5236400e-02   1.9008200e-02
  -2.3243000e-02   3.3383900e-02   7.5869200e-02
  -9.3235800e-02  -3.4578300e-02   1.0090700e-01
   1.3406500e-01  -1.8288100e-01   4.3343800e-02
   3.7751900e-01  -1.8451600e-01  -1.4921200e-02
   3.5808900e-01  -1.2963200e-01  -1.1411300e-02
   1.4974900e-01  -1.2799700e-01  -3.2236900e-02
   4.6515700e-02  -1.5181900e-01  -5.8444500e-02
  -1.0044500e-03  -1.1445100e-01  -1.7261200e-02
  -6.1165500e-02  -6.7975600e-02   9.8823300e-03
   1.6318200e-02  -1.6606500e-01  -2.4983100e-02
   6.0327000e-02  -2.2655400e-01  -3.7150900e-02
  -2.4089900e-03  -1.3383600e-01   2.1816100e-02
  -2.6052000e-02  -9.0162600e-02   4.7087700e-02
  -1.9965700e-02  -1.0767900e-01  -3.0599000e-02
  -8.7294100e-03  -6.3538200e-02  -7.7632200e-02
  -6.7485900e-02   4.9498700e-02  -1.9367200e-02
  -1.2249700e-01   1.0321500e-01   1.9008200e-02
  -1.1734700e-01   5.5570900e-02   1.7370200e-02
  -1.2132700e-01   5.9541200e-02   3.5387900e-02
  -4.2672400e-02  -6.5526700e-03  -1.2815300e-02
   3.0129500e-02  -1.2986600e-01  -7.7398200e-02
  -2.9563400e-02  -9.6468300e-02  -3.4342900e-02
  -1.4075600e-01   2.3808500e-02   3.1176000e-02
  -2.2268700e-01   3.7821300e-02   3.7961800e-02
  -1.9506500e-01  -1.3092000e-02   4.0301800e-02
  -1.6463300e-01  -7.2413000e-02   5.7851500e-02
  -2.4539400e-01  -1.4621400e-01   5.2001600e-02
  -2.9923500e-01  -9.7636100e-02   5.4809600e-02
  -3.3879600e-01  -1.3559100e-02   6.3701400e-02
  -3.8280500e-01   8.0794000e-02   5.1533600e-02
  -3.5260700e-01   1.0695100e-01   3.7961800e-02
  -2.9572300e-01   9.3285400e-03   1.4562300e-02
  -2.6037600e-01  -2.8039000e-02   1.7136200e-02
  -3.0485300e-01   3.7234000e-03   7.4465200e-02
  -3.5026600e-01   5.3469000e-02   1.1728600e-01
  -3.0204400e-01   6.0008300e-02   6.7211300e-02
  -2.2643300e-01   3.1048400e-02  -1.1645300e-02
  -2.2151700e-01   5.6505100e-02  -1.9133200e-02
  -2.7067600e-01   1.1372400e-01   1.9944200e-02
  -2.6950500e-01   8.5932000e-02   5.0597600e-02
  -2.0911000e-01  -3.9836500e-03   2.1816100e-02
  -1.8991500e-01  -2.9440300e-02  -1.8665200e-02
  -2.7020800e-01   8.3830100e-02   8.4783600e-03
  -3.2919800e-01   2.2232400e-01   4.8257700e-02
  -3.1726000e-01   2.4381000e-01   5.2469600e-02
  -2.7676200e-01   2.1741900e-01   3.4919900e-02
  -2.2971000e-01   1.7374600e-01   5.4501600e-05
  -2.0396000e-01   9.4106200e-02  -1.6091200e-02
  -1.8148800e-01   1.1932900e-01   1.1754300e-02
  -2.2456000e-01   1.9616600e-01  -2.3111100e-02
  -3.0859800e-01   2.2162300e-01  -1.0477600e-01
  -2.8636000e-01   2.5852300e-01  -9.4011900e-02
  -1.6042000e-01   2.1531700e-01  -9.8925800e-02
  -3.5883800e-02   1.5786500e-01  -1.5882900e-01
   9.0614000e-03   1.4735500e-01  -1.1320000e-01
  -8.4106300e-02   1.9710000e-01   4.5004200e-03
  -1.7189000e-01   2.3400100e-01   3.9599800e-02
  -5.6015500e-02   1.5412800e-01   4.9684200e-03
   2.1342200e-01   8.3596500e-02   7.5423700e-03
   3.8969100e-01   5.6505100e-02   2.6964000e-02
   2.4525800e-01   1.1185600e-01   5.4364100e-03
   9.7079100e-02   2.2536000e-01  -1.1177300e-02
   9.8015500e-02   3.3629500e-01   5.1065600e-02
   1.1604000e-01   4.2130600e-01   1.2056200e-01
   2.0522900e-01   3.3816300e-01   8.1251100e-02
   2.5462100e-01   2.0761000e-01   5.5043600e-02
   2.1833800e-01   2.2349100e-01   1.1611600e-01
   1.2212700e-01   2.9262100e-01   1.1120300e-01
   1.0527200e-01   2.9542400e-01   3.5387900e-02
   2.5532400e-01   2.2022200e-01  -1.8174700e-03
   3.7798700e-01   1.5412800e-01  -5.7954000e-03
   3.0963300e-01   1.4548700e-01  -3.5044900e-02
   1.6356100e-01   1.5109200e-01  -6.1486400e-02
   1.4623800e-01   1.5412800e-01  -1.1177300e-02
   2.7334900e-01   1.2143100e-01  -2.5194500e-03
   4.0326800e-01   5.0666400e-02  -1.2443100e-01
   4.3253000e-01   7.4955300e-02  -1.5578700e-01
   3.9133000e-01   5.9541200e-02  -4.1830800e-02
   2.5766500e-01   5.8373400e-02   9.4120900e-02
   6.7349700e-02   2.8444700e-01   1.7929500e-01
   2.6149900e-02   3.6081700e-01   4.1003800e-02
   4.3768000e-01   5.1133500e-02  -1.0524400e-01
   9.7749000e-01  -2.3659700e-01   5.9489500e-02
   6.6521500e-01  -2.1954800e-01   1.2688000e-01
  -1.8078500e-01  -7.7317500e-02  -4.8616700e-02
  -4.3383600e-01   1.9243000e-01   5.9044000e-03
   1.1487000e-01   3.3209100e-01   1.6315000e-01
   7.7828000e-01   3.0114200e-02   8.6867000e-02
   6.6521500e-01  -3.0035500e-01  -6.4996400e-02
  -3.3777000e-02  -3.1903900e-01  -5.1190600e-02
  -4.6731100e-01  -1.0814600e-01   3.5153900e-02
  -2.3579600e-01   9.3872600e-02  -5.4934500e-02
   2.7475300e-01   1.6417000e-01  -1.4970300e-01
   3.3023200e-01   1.5996600e-01  -7.1314300e-02
   7.4227800e-03   5.9541200e-02  -2.7089000e-02
  -1.9225600e-01  -9.1797400e-02  -7.6228200e-02
  -1.3513800e-01  -2.0810400e-01  -1.2138900e-01
   5.5177100e-02  -2.6392200e-01  -1.7731400e-01
   9.1695100e-02  -1.2496100e-01  -1.7754800e-01
  -3.7288400e-02   1.0531600e-01  -8.0206100e-02
  -8.1063100e-02   1.3941400e-01  -1.4219300e-02
  -5.2738300e-02  -1.2916500e-01  -4.0192800e-02
   1.0700000e-02  -4.5262800e-01  -3.5980900e-02
   3.3406700e-02  -5.1848800e-01   2.9304000e-02
  -1.2240800e-02  -3.8139600e-01   2.9772000e-02
  -8.8319900e-02  -2.0203200e-01   4.2407800e-02
  -2.8682800e-01  -1.3874000e-01   1.1167100e-01
  -2.9548900e-01  -2.2235000e-01   1.1237300e-01
  -1.6922500e-02  -2.4710600e-01   1.1635000e-01
   1.1674300e-01  -1.6700000e-01   1.3811200e-01
  -6.0229100e-02  -1.2005700e-01   9.8332800e-02
  -3.4628700e-01  -9.2731600e-02   8.9675000e-02
  -4.0012700e-01  -8.3389700e-02   1.1167100e-01
  -2.6529200e-01  -2.9673800e-02   8.8505000e-02
  -1.3045600e-01   2.1940100e-02   4.8023700e-02
   6.2523300e-03  -1.6595200e-02   4.2875800e-02
  -9.4316800e-03  -1.7529400e-02   6.1829400e-02
  -1.9670300e-01  -9.4754000e-04   9.8823300e-03
  -3.0204400e-01   1.3298800e-02  -7.4590200e-02
  -2.7418700e-01   9.5620800e-03  -6.8974300e-02
  -1.7306000e-01  -7.2179400e-02  -3.9490800e-02
  -1.0306800e-01  -1.4411200e-01  -4.6276700e-02
  -1.3443600e-01  -9.7402500e-02  -5.0020600e-02
  -1.5246000e-01  -6.8442700e-02  -6.0082500e-02
  -1.7212400e-01  -1.4621400e-01  -9.9393800e-02
  -1.4567200e-01  -2.3052400e-01  -1.1507200e-01
  -1.9225600e-01  -2.0950500e-01  -9.0033900e-02
  -3.4722300e-01  -8.3623200e-02  -7.2250300e-02
  -2.9151000e-01  -1.9164200e-02  -4.4170700e-02
  -1.2998800e-01  -3.4811900e-02  -1.3517300e-02
  -1.5518000e-02  -9.2965100e-02  -3.4810900e-02
   1.7254500e-02  -1.1795500e-01  -3.0365000e-02
  -6.0229100e-02  -5.1860800e-02   7.9847100e-02
  -9.6981200e-02   2.3107800e-02   1.4560000e-01
  -7.8020000e-02   3.1282000e-02   1.3553800e-01
  -3.3777000e-02   1.3298800e-02   1.4115400e-01
   3.6918100e-02   6.9930600e-03   1.0465100e-01
   6.7349700e-02   3.3383900e-02   4.7321700e-02
   6.9456500e-02   1.1699400e-01   4.9895600e-02
   4.1455200e-03   1.5506200e-01   6.6275400e-02
  -1.2483800e-01   1.4151600e-01   3.3281900e-02
  -1.7797600e-01   1.3217400e-01  -1.1177300e-02
  -1.6182400e-01   1.3147400e-01  -2.8961000e-02
  -1.0025800e-01   9.1303600e-02  -4.6978700e-02
  -8.2467700e-02   6.8649500e-02  -8.0674100e-02
  -1.8008300e-01   9.7375800e-02  -8.3482100e-02
  -2.6435500e-01   1.2493400e-01  -4.8616700e-02
  -2.2947600e-01   1.0718500e-01  -2.3345100e-02
  -4.0799700e-02  -3.9249300e-02  -2.5217100e-02
   1.3781100e-01  -1.8218000e-01  -1.7261200e-02
   1.2961800e-01  -2.0833700e-01   3.1644000e-02
   5.4240700e-02  -1.6793400e-01   8.4761000e-02
   5.7752100e-02  -1.0090600e-01   1.2547600e-01
   9.9654100e-02  -6.7274900e-02   7.5869200e-02
   1.5209000e-01  -5.6998900e-02  -3.1768900e-02
   1.6519900e-01  -4.6722800e-02  -4.6254200e-03
   9.0056400e-02  -6.4005300e-02   9.6460800e-02
  -6.2804100e-02   6.8883100e-02   1.3483600e-01
  -1.9249000e-01   2.4427700e-01   7.8443100e-02
  -5.1333700e-02   1.5039100e-01  -2.9195000e-02
   1.8275600e-01   3.3617400e-02  -6.0293900e-03
   1.2306300e-01   3.2563100e-03   1.4328300e-02
  -1.5175800e-01  -8.1054200e-02  -1.0852000e-01
  -3.2217500e-01  -3.3410600e-02  -1.0758400e-01
  -1.8804200e-01   6.3044400e-02  -3.9022800e-02
   1.2470200e-01   2.4042000e-02  -7.3654200e-02
   2.7358300e-01  -7.4047800e-02  -1.1904900e-01
   5.5411200e-02  -1.3336900e-01  -1.0407400e-01
  -2.5171400e-01  -1.0908000e-01  -4.9552600e-02
  -1.5784500e-01  -1.4457900e-01  -5.5168500e-02
   2.0265400e-01  -1.6676600e-01  -7.0144300e-02
   3.8524300e-01  -9.2264500e-02  -2.3579100e-02
   2.8411700e-01   1.4233000e-02   6.6063900e-03
   7.8820100e-02   8.9902300e-02   2.2050100e-02
   2.5068900e-03   1.1664000e-02   4.2407800e-02
   3.1534000e-02  -9.1563800e-02  -2.7534500e-03
   8.4672400e-02  -1.3453700e-01  -5.2360600e-02
