**************************************************************************************
  	RED ACELEROGRÁFICA DE LA UNIVERSIDAD AUTONOMA METROPOLITANA (RA-UAM)
	   UNIDAD AZCAPOTZALCO. DIVISIÓN CBI-DEPARTAMENTO DE MATERIALES
     Av. San Pablo 420, Col. Nueva el Rosario, Azcapotzalco, C.P. 02128, Ciudad de México
		Área de Estructuras. e-mail: agb@azc.uam.mx
**************************************************************************************
ARCHIVO ESTANDAR DE ACELERACION:
VERSION DEL FORMATO                    : 2.0
NOMBRE DEL ARCHIVO                     : RIDA202305.111
FECHA Y HORA DE CREACION               : 11:30 a. m. 18/05/2023
REF. CATALOGO ACELEROGRAMAS, SMIS 1999 : REGISTRO NO.      /PAG.    


================================================================================
DATOS DE LA ESTACION:
NOMBRE DE LA ESTACION                  : UAM-AZCAPOTZALCO.
CLAVE DE LA ESTACION                   : RIDA
LOCALIZACION DE LA ESTACION            : AV. SAN PABLO 420, COL. NUEVA EL ROSARIO,
                                       : AZCAPOTZALCO, C.P.02128, CIUDAD DE MEXICO. 
                                       :
                                       : 
                                       : 
COORDENADAS DE LA ESTACION             : 19.498596 LAT. N
                                       : 99.195595 LONG. W
ALTITUD (msnm)                         : 2546
TIPO DE SUELO                          : ZONA DE TRANSICION
                                       : 
                                       : 
INSTITUCION RESPONSABLE                : UNIVERSIDAD AUTONOMA METROPOLITANA
                                       : 

================================================================================
DATOS DEL ACELEROGRAFO: 
MODELO DEL ACELEROGRAFO                : ETNA2 KINEMETRICS
NUMERO DE SERIE DEL ACELEROGRAFO       : 103732
NUMERO DE CANALES                      : 3
ORIENTACION C1-C6 (rumbo;orientacion)  : /N90E/N00E/V
ORIENTACION C7-C12 (rumbo;orientacion) : 
VEL. DE MUESTREO, C1-C6 (muestras/s)   : /200/200/200
VEL. DE MUESTREO, C7-C12 (muestras/s)  : 
ESC. COMPLETA DE SENSORES, C1-C6, (g)  : /2/2/2
ESC. COMPLETA DE SENSORES, C7-C12 (g)  : 
FREC. NAT. DE SENSORES, C1-C6, (Hz)    : /198/212/200   
FREC. NAT. DE SENSORES, C7-C12 (Hz)    : 
AMORTIGUAMIENTO DE SENSORES, C1-C6     : /0.7/0.7/0.7      
AMORTIGUAMIENTO DE SENSORES, C7-C12    : 
INTERVALO DE MUESTREO, C1-C6 (s)       : /0.005/0.005/0.005
INTERVALO DE MUESTREO, C7-C12 (s)      : 
UMBRAL DE DISPARO, C1-C6 (Gal)         : /2/2/2
UMBRAL DE DISPARO, C7-C12 (Gal)        : 
MEMORIA DE PREEVENTO (s)               : 50
TIEMPO DE POSEVENTO (s)                : 60


================================================================================
DATOS DEL SISMO:
FECHA DEL SISMO [GMT]                  : 2023/05/11
HORA EPICENTRO (GMT)                   : 04:20:17
MAGNITUD(ES)                           : /M=3.0
COORDENADAS DEL EPICENTRO              : 19.3600 LAT. N
                                       : -99.2000 LONG. W
PROFUNDIDAD FOCAL (Km)                 : 1.1
FUENTE DE LOS DATOS EPICENTRALES       : SSN
                                       : INSTITUTO DE GEOFISICA, UNAM

================================================================================
DATOS DE ESTE REGISTRO:
HORA DE LA PRIMERA MUESTRA (GMT)       : 04:19:38.000
EXACTITUD DEL TIEMPO (s)               : 
DURACION DEL REGISTRO (s), C1-C6       : /138/138/138
DURACION DEL REGISTRO (s), C7-C12      : 
NUM. TOTAL DE MUESTRAS, C1-C6          : /27600/27600/27600
NUM. TOTAL DE MUESTRAS, C7-C12         : 
ACEL. MAX.(Gal), C1-C6                 : /-0.928/-1.050/-0.351
ACEL. MAX., C1-C6, EN LA MUESTRA       : /12460/12135/10202
ACEL. MAX.(Gal), C7-C12                : 
ACEL. MAX., C7-C12,EN LA MUESTRA       : 
UNIDADES DE LOS DATOS                  : Gal (cm/s/s)
FACTOR DE DECIMACION                   : 1
FORMATO DATOS (FORTRAN,16 campos/dato) : 3E16.7


================================================================================
CALIDAD DEL ACELEROGRAMA:
REGISTRO DIGITAL COMPLETO CON TIEMPO ABSOLUTO CORRECTO


================================================================================
COMENTARIOS:














================================================================================
DATOS DE ACELERACION:
---------+---------+---------+---------+---------+---------+---------+---------+
   CANAL-1   	     CANAL-2          CANAL-3
     N90E             N00E              V
---------+---------+---------+---------+---------+---------+---------+---------+
[...]
  -4.8682400e-01  -3.1535100e-01   9.4178800e-02
  -5.2240600e-01  -3.2726200e-01   7.3587200e-02
  -5.4534600e-01  -3.1465100e-01   6.5163300e-02
  -5.5822100e-01  -3.2422600e-01   5.1357600e-02
  -5.7133000e-01  -3.2399200e-01   3.3807900e-02
  -5.5611400e-01  -3.2749600e-01   1.8598100e-02
  -5.4511200e-01  -3.4010700e-01   1.5088200e-02
  -5.3926000e-01  -3.2913000e-01   3.8563700e-03
  -5.2779000e-01  -3.3146600e-01  -2.1883200e-02
  -5.2942800e-01  -3.3730500e-01  -3.5454900e-02
  -5.0742400e-01  -3.2235800e-01  -5.3940600e-02
  -5.1210600e-01  -3.1511800e-01  -7.6872200e-02
  -5.0999900e-01  -3.1768700e-01  -9.2784000e-02
  -4.8799400e-01  -2.9690100e-01  -1.1875800e-01
  -4.8869700e-01  -2.8896000e-01  -1.3888100e-01
  -4.6973500e-01  -2.8382200e-01  -1.4449700e-01
  -4.5264700e-01  -2.5276100e-01  -1.6228100e-01
  -4.4983800e-01  -2.5182600e-01  -1.7866000e-01
  -4.1495800e-01  -2.2917200e-01  -1.8076600e-01
  -3.7071500e-01  -2.1515900e-01  -1.9223200e-01
  -3.3326100e-01  -2.1702800e-01  -2.0580400e-01
  -2.8129300e-01  -1.9227200e-01  -2.1282400e-01
  -2.3775300e-01  -2.0581800e-01  -2.1610000e-01
  -1.9468000e-01  -1.8900200e-01  -2.2546000e-01
  -1.5582100e-01  -1.7896000e-01  -2.3294800e-01
  -1.0783300e-01  -1.6938400e-01  -2.2943800e-01
  -4.7671700e-02  -1.6261100e-01  -2.2101400e-01
   1.0850700e-02  -1.5537100e-01  -2.0954800e-01
   7.4991300e-02  -1.4883200e-01  -2.0650600e-01
   1.3047100e-01  -1.4556200e-01  -1.9316800e-01
   1.8548200e-01  -1.0585900e-01  -1.6415300e-01
   2.3136300e-01  -1.0585900e-01  -1.5549500e-01
   2.8099000e-01  -6.1251800e-02  -1.4168900e-01
   3.4676900e-01  -4.5604200e-02  -1.1665200e-01
   4.0412100e-01  -4.2568000e-02  -1.0893000e-01
   4.5796200e-01   1.7109000e-04  -8.5530100e-02
   5.1110000e-01   8.1116900e-03  -5.8854500e-02
   5.4668200e-01   4.3377300e-02  -4.3176800e-02
   5.8975400e-01   6.6965600e-02  -2.0479200e-02
   6.2744300e-01   1.0083000e-01  -6.9074400e-03
   6.4265900e-01   1.2768800e-01   1.1344200e-02
   6.7028100e-01   1.3796400e-01   3.7551800e-02
   6.7941100e-01   1.5407900e-01   5.5335500e-02
   6.7987900e-01   1.5314400e-01   6.9843200e-02
   6.9158300e-01   1.7182800e-01   7.4757100e-02
   6.7402700e-01   1.7276200e-01   7.9437100e-02
   6.5576800e-01   1.8117000e-01   9.0902900e-02
   6.4242500e-01   1.6902600e-01   9.4178800e-02
   6.0941800e-01   1.5594700e-01   8.6223000e-02
   5.9724500e-01   1.6622300e-01   8.2011000e-02
   5.7617700e-01   1.3072400e-01   7.4055200e-02
   5.2210300e-01   1.1437600e-01   6.1419400e-02
   4.8371200e-01   9.6859600e-02   6.7971300e-02
   4.4251200e-01   8.6350000e-02   6.8439300e-02
   4.1020800e-01   6.8366900e-02   5.2293500e-02
   3.6971000e-01   4.7114100e-02   4.3401700e-02
   3.2242400e-01   4.7114100e-02   5.1357600e-02
   2.9878100e-01   2.9364500e-02   5.7441400e-02
   2.4728100e-01   2.0956800e-02   5.3463500e-02
   2.0186800e-01   2.3292300e-02   5.5335500e-02
   1.6020000e-01   2.2825200e-02   5.3931500e-02
   1.0308200e-01   2.2358100e-02   5.2059500e-02
   6.5393600e-02   3.4969600e-02   5.6505500e-02
   2.4193800e-02   2.3759400e-02   6.8673300e-02
  -2.1453700e-02   3.4269000e-02   7.5927100e-02
  -6.0780700e-02   2.9598000e-02   7.6161100e-02
  -1.1134400e-01   1.5351700e-02   8.8094900e-02
  -1.6237600e-01   3.9173500e-02   9.5114800e-02
  -2.0661900e-01   2.5160600e-02   9.6518800e-02
  -2.4875500e-01   2.3759400e-02   1.0728300e-01
  -2.8223000e-01   1.4884600e-02   1.1243000e-01
  -3.2881300e-01  -3.5656600e-03   1.1594000e-01
  -3.7001300e-01   1.1848400e-02   1.1968400e-01
  -4.0957400e-01   2.2591600e-02   1.2225800e-01
  -4.5545600e-01   2.9831600e-02   1.2600200e-01
  -4.8261000e-01   2.7496100e-02   1.1921600e-01
  -5.2404400e-01   5.1551500e-02   1.1032500e-01
  -5.5143300e-01   6.1126900e-02   1.0821900e-01
  -5.7437300e-01   7.1403000e-02   1.1102700e-01
  -6.1182800e-01   1.0176400e-01   9.8156700e-02
  -6.2587300e-01   1.0199800e-01   8.9966900e-02
  -6.5466600e-01   1.4076600e-01   8.0373100e-02
  -6.6988200e-01   1.3796400e-01   6.3291300e-02
  -6.7971400e-01   1.5197700e-01   7.0077200e-02
  -6.8556600e-01   1.7649900e-01   6.5163300e-02
  -6.7479800e-01   1.4310200e-01   5.5803500e-02
  -6.8697100e-01   1.6762400e-01   4.6677600e-02
  -6.6566800e-01   1.5758200e-01   3.0297900e-02
  -6.5888000e-01   1.3072400e-01   2.9127900e-02
  -6.3266200e-01   1.3446100e-01   2.5852000e-02
  -5.8982300e-01   9.8728000e-02   2.0236100e-02
  -5.8350300e-01   8.0044200e-02   2.0002100e-02
  -5.3434400e-01   8.6583500e-02   2.0938100e-02
  -5.0859400e-01   7.9810700e-02   1.6492200e-02
  -4.7746000e-01   7.6541000e-02   6.6643200e-03
  -4.2385400e-01   5.8557900e-02   1.8832100e-02
  -3.9693300e-01   5.1084400e-02   2.7022000e-02
  -3.4192200e-01   3.8239300e-02   2.2576000e-02
  -3.0072300e-01   3.1232900e-02   2.9361900e-02
  -2.5530900e-01   3.5436700e-02   3.5211800e-02
  -1.9702100e-01   1.6052300e-02   4.0827700e-02
  -1.6776000e-01   9.0458800e-03   3.6849800e-02
  -1.0876900e-01  -5.4340400e-03   3.4743800e-02
  -8.1146500e-02  -2.9600400e-04   4.1997700e-02
  -4.0414900e-02  -8.0030600e-03   4.9017600e-02
   1.8107500e-02  -2.5285600e-02   4.2699700e-02
   3.5430100e-02  -1.0338500e-02   2.9829900e-02
   1.0074100e-01  -2.6686800e-02   2.6086000e-02
   1.2813000e-01  -4.3035100e-02   1.8130100e-02
   1.5692300e-01  -5.2377000e-02   8.0683000e-03
   2.0725200e-01  -8.0402700e-02   3.6223800e-03
   2.2129700e-01  -8.2504600e-02   1.2824200e-03
   2.7162700e-01  -1.0679400e-01  -1.2055400e-02
   2.9573800e-01  -1.3341800e-01  -2.9839000e-02
   3.1961500e-01  -1.3738800e-01  -3.5454900e-02
   3.5379200e-01  -1.7125300e-01  -3.1711000e-02
   3.5215300e-01  -1.9087100e-01  -3.4987000e-02
   3.8469200e-01  -2.1539300e-01  -3.7326900e-02
   3.9897100e-01  -2.2566900e-01  -4.2006800e-02
   3.9756700e-01  -2.4271800e-01  -5.3238600e-02
   4.1863500e-01  -2.8102000e-01  -4.5516800e-02
   4.0084400e-01  -2.7494700e-01  -2.7967100e-02
   4.0482400e-01  -3.0320700e-01  -2.9605100e-02
   4.1418700e-01  -3.2352500e-01  -2.8435100e-02
   3.9546000e-01  -3.2165700e-01  -1.7671300e-02
   4.1184600e-01  -3.4057400e-01  -2.3755200e-02
   3.9452400e-01  -3.4804800e-01  -9.0134100e-03
   3.9288500e-01  -3.4407700e-01   1.7194100e-02
   4.0739900e-01  -3.5668900e-01   2.0704100e-02
   3.7743500e-01  -3.6906700e-01   2.2342100e-02
   3.9358700e-01  -3.5482100e-01   2.8192000e-02
   3.6947600e-01  -3.7560600e-01   3.8721800e-02
   3.4115100e-01  -3.5248500e-01   4.6911600e-02
   3.5917600e-01  -3.4314300e-01   3.7317800e-02
   3.2406300e-01  -3.4921500e-01   3.1935900e-02
   3.2242400e-01  -3.2422600e-01   3.5445800e-02
   3.1165600e-01  -3.2866300e-01   2.9127900e-02
   2.8099000e-01  -3.1254900e-01   2.7724000e-02
   3.0393100e-01  -3.0787800e-01   2.2576000e-02
   2.7490400e-01  -2.8055300e-01   1.5088200e-02
   2.6226300e-01  -2.7775000e-01   1.6492200e-02
   2.7630800e-01  -2.4949100e-01   1.7662100e-02
   2.4821800e-01  -2.0184700e-01   1.6960100e-02
   2.7279700e-01  -2.1305700e-01   3.1233900e-02
   2.6858300e-01  -1.3388500e-01   4.5741600e-02
   2.5266500e-01  -1.1239900e-01   4.3401700e-02
   2.6015600e-01  -7.7833700e-02   4.7145600e-02
   2.3019300e-01   6.9439600e-03   6.3525300e-02
   2.4259900e-01   2.8897400e-02   7.6863100e-02
   2.3136300e-01   9.5458300e-02   7.5927100e-02
   2.2878800e-01   1.3399400e-01   7.8969100e-02
   2.4283400e-01   1.7930200e-01   7.8033100e-02
   2.0982700e-01   2.2554400e-01   8.0139100e-02
   2.1708400e-01   2.6174400e-01   9.8390700e-02
   1.9601600e-01   3.1475900e-01   9.6518800e-02
   1.8290700e-01   3.5890000e-01   8.4351000e-02
   1.9601600e-01   3.9486600e-01   8.1777000e-02
   1.7003200e-01   4.5255200e-01   7.9671100e-02
   1.7799100e-01   4.7870900e-01   7.5693100e-02
   1.6394500e-01   5.0650100e-01   7.3821200e-02
   1.4709100e-01   5.7026000e-01   6.5397300e-02
   1.6090200e-01   5.7609800e-01   4.9017600e-02
   1.2532100e-01   6.2958100e-01   4.6209600e-02
   1.1642500e-01   6.7442200e-01   5.3463500e-02
   1.0518900e-01   6.8703300e-01   5.0187600e-02
   6.9841300e-02   7.1202300e-01   5.0421600e-02
   8.4354900e-02   7.3280900e-01   5.5569500e-02
   5.0177800e-02   7.6830800e-01   5.0421600e-02
   2.3257500e-02   7.9516600e-01   5.8143400e-02
   3.0514200e-02   8.1711900e-01   6.5397300e-02
  -6.2378400e-03   8.3019800e-01   6.9843200e-02
   1.4596100e-02   8.3066500e-01   8.0139100e-02
   3.1257500e-03   8.2155700e-01   7.5693100e-02
  -2.6603600e-02   8.2132300e-01   6.9843200e-02
  -2.7264900e-03   8.0310600e-01   6.8907200e-02
  -3.1285400e-02   7.9610000e-01   7.3119200e-02
  -2.3092300e-02   7.9539900e-01   7.0311200e-02
  -2.7540000e-02   7.7671500e-01   5.7207500e-02
  -5.5396700e-02   7.6433700e-01   4.7847600e-02
  -3.4328600e-02   7.3094000e-01   4.2933700e-02
  -6.3121600e-02   7.1389100e-01   3.4041900e-02
  -5.8908000e-02   6.8680000e-01   2.0938100e-02
  -5.7269400e-02   6.5363600e-01   5.0263500e-03
  -9.3553300e-02   6.3308400e-01  -1.3693300e-02
  -9.0276000e-02   6.0459100e-01  -2.8201100e-02
  -1.2749600e-01   5.7796700e-01  -5.0430700e-02
  -1.4411700e-01   5.2611900e-01  -6.5874400e-02
  -1.5488500e-01   4.9085400e-01  -7.7340200e-02
  -1.9608500e-01   4.5558800e-01  -1.0284600e-01
  -1.9866000e-01   4.0701000e-01  -1.2998900e-01
  -2.2417500e-01   3.6824100e-01  -1.3771100e-01
  -2.4220000e-01   3.2129800e-01  -1.3700900e-01
  -2.5203200e-01   2.6991800e-01  -1.6251500e-01
  -2.8620900e-01   2.1690300e-01  -1.8263800e-01
  -2.9346600e-01   1.5781500e-01  -1.8100000e-01
  -3.0891600e-01   8.3781000e-02  -1.7959600e-01
  -3.3724100e-01   2.1657400e-02  -1.7608700e-01
  -3.3700700e-01  -3.9064800e-02  -1.6836500e-01
  -3.4824300e-01  -1.0796100e-01  -1.6462100e-01
  -3.6205400e-01  -1.6191100e-01  -1.5970700e-01
  -3.6556500e-01  -2.1726100e-01  -1.4075300e-01
  -3.8967700e-01  -2.7938500e-01  -1.2530900e-01
  -3.8195200e-01  -3.5061700e-01  -1.1361000e-01
  -3.7914300e-01  -4.1484200e-01  -9.8633900e-02
  -3.7656800e-01  -4.8490600e-01  -9.2316000e-02
  -3.6392700e-01  -5.6104300e-01  -8.0616200e-02
  -3.7071500e-01  -6.1172300e-01  -6.3300500e-02
  -3.4613600e-01  -6.7548100e-01  -5.2068700e-02
  -3.6088400e-01  -7.4437700e-01  -4.9260700e-02
  -3.6299000e-01  -7.9739300e-01  -4.6452800e-02
  -3.4426300e-01  -8.5507900e-01  -4.3878800e-02
  -3.7071500e-01  -8.9758400e-01  -3.9198900e-02
  -3.5994700e-01  -9.3962300e-01  -3.4987000e-02
  -3.6392700e-01  -9.6601400e-01  -4.2474800e-02
  -3.6533100e-01  -9.9006900e-01  -3.4519000e-02
  -3.3770900e-01  -1.0127200e+00  -3.7092900e-02
  -3.5526600e-01  -1.0150600e+00  -4.9026700e-02
  -3.3958200e-01  -1.0288400e+00  -3.1009000e-02
  -3.3209100e-01  -1.0195000e+00  -2.7967100e-02
  -3.5245600e-01  -1.0503200e+00  -3.8964900e-02
  -3.3911300e-01  -1.0262700e+00  -2.9371100e-02
  -3.5690400e-01  -9.9894400e-01  -2.4925100e-02
  -3.5152000e-01  -1.0213600e+00  -2.8669100e-02
  -3.4239100e-01  -9.5503700e-01  -1.7203300e-02
  -3.3958200e-01  -9.4429400e-01  -6.9074400e-03
  -3.2085400e-01  -9.1206400e-01  -1.0183400e-02
  -3.2506800e-01  -8.4643700e-01   1.7504100e-03
  -3.1734300e-01  -8.1817800e-01   1.8598100e-02
  -3.1827900e-01  -7.6539700e-01   1.7896100e-02
  -3.1804500e-01  -7.1681900e-01   2.7958000e-02
  -3.0002000e-01  -6.7104400e-01   4.9017600e-02
  -2.8410200e-01  -6.1265700e-01   5.1357600e-02
  -2.6841800e-01  -5.7155200e-01   5.3931500e-02
  -2.5226600e-01  -5.1199800e-01   6.3993300e-02
  -2.3283700e-01  -4.7042600e-01   6.6567300e-02
  -2.0638500e-01  -4.2511800e-01   7.5693100e-02
  -1.7852800e-01  -3.4384400e-01   7.2651200e-02
  -1.3545500e-01  -3.3496900e-01   6.9141200e-02
  -9.4255600e-02  -2.9503300e-01   7.9671100e-02
  -5.4694400e-02  -2.4645500e-01   7.3587200e-02
  -8.5787300e-03  -2.1913000e-01   6.3057400e-02
   3.4961900e-02  -1.6774900e-01   6.4461300e-02
   8.0609400e-02  -1.2454300e-01   5.5101500e-02
   1.1619100e-01  -9.5349700e-02   4.3401700e-02
   1.7284100e-01  -5.2377000e-02   4.4337700e-02
   2.1708400e-01  -1.0338500e-02   3.8487800e-02
   2.6062400e-01   3.4736100e-02   2.5852000e-02
   3.1750800e-01   8.8218400e-02   2.3512000e-02
   3.4021500e-01   1.1507600e-01   2.2108100e-02
   3.7603100e-01   1.6645700e-01   6.6643200e-03
   4.1208000e-01   2.1993900e-01   4.7923600e-03
   4.3759600e-01   2.8019400e-01  -2.4615200e-03
   4.7364600e-01   3.0354900e-01  -2.0479200e-02
   4.8371200e-01   3.4325200e-01  -1.6033300e-02
   5.0173700e-01   3.6800800e-01  -1.6033300e-02
   5.1367500e-01   3.8575700e-01  -2.6095100e-02
   5.1133400e-01   4.5395300e-01  -2.6797100e-02
   5.4668200e-01   4.5558800e-01  -2.9605100e-02
   5.3848900e-01   4.8945200e-01  -3.1477000e-02
   5.4176600e-01   5.1724500e-01  -2.9605100e-02
   5.5815200e-01   5.2004700e-01  -3.1945000e-02
   5.5721600e-01   5.5858200e-01  -3.3817000e-02
   6.0216100e-01   5.5975000e-01  -3.7326900e-02
   5.8249800e-01   5.8310500e-01  -3.6858900e-02
   5.8343400e-01   6.0412400e-01  -4.2006800e-02
   5.9630900e-01   5.8403900e-01  -3.8262900e-02
   5.6681400e-01   6.0692700e-01  -2.8201100e-02
   5.9537300e-01   5.9314700e-01  -4.0368900e-02
   5.7383600e-01   5.8660800e-01  -4.3878800e-02
   5.5370500e-01   5.8544000e-01  -3.8028900e-02
   5.5393900e-01   5.5274400e-01  -4.3644800e-02
   5.0899400e-01   5.6839100e-01  -4.8558700e-02
   5.2186800e-01   5.3966500e-01  -5.6748600e-02
   5.0243900e-01   5.0510000e-01  -5.9790500e-02
   4.7528500e-01   4.9015300e-01  -5.1366700e-02
   4.8371200e-01   4.6352900e-01  -5.6280600e-02
   4.4274600e-01   4.5488700e-01  -6.5874400e-02
   4.5351400e-01   4.2849700e-01  -6.4002500e-02
   4.3104200e-01   4.1425000e-01  -6.1428500e-02
   3.6854000e-01   3.7898500e-01  -6.4938400e-02
   3.5332400e-01   3.5002500e-01  -5.5344600e-02
   2.8918300e-01   3.4068300e-01  -4.3410800e-02
   2.4704700e-01   2.9911100e-01  -4.0134900e-02
   2.1497700e-01   2.8766800e-01  -3.4051000e-02
   1.4358000e-01   2.6851700e-01  -2.8669100e-02
   1.1080700e-01   2.3628700e-01  -1.5565300e-02
   4.6432300e-02   2.1970500e-01  -3.3975000e-03
  -5.7696600e-03   2.1036400e-01   5.8042900e-04
  -3.4796800e-02   1.8794300e-01  -1.2915400e-03
  -1.0174600e-01   1.7019300e-01  -6.9074400e-03
  -1.3826400e-01   1.5664800e-01  -9.2474000e-03
  -2.0053200e-01   1.5571400e-01  -1.3225300e-02
  -2.4781800e-01   1.3773000e-01  -1.3225300e-02
  -2.7637700e-01   1.1180700e-01  -1.2523300e-02
  -3.4754100e-01   1.0853700e-01  -2.4691100e-02
  -3.8218600e-01   7.1870100e-02  -3.4285000e-02
  -4.2432200e-01   5.6923100e-02  -3.0307000e-02
  -4.7722600e-01   4.1275400e-02  -2.3287200e-02
  -4.9712400e-01   1.8621300e-02  -2.2117200e-02
  -5.4698500e-01   8.3452400e-03  -3.0541000e-02
  -5.7531000e-01  -1.0105000e-02  -2.9839000e-02
  -5.9193000e-01  -1.7111400e-02  -2.8435100e-02
  -6.3476900e-01  -3.8130600e-02  -2.7265100e-02
  -6.2610700e-01  -6.0784700e-02  -1.7905300e-02
  -6.2634100e-01  -6.9659500e-02  -2.0947200e-02
  -6.4694100e-01  -9.2313600e-02  -1.5565300e-02
  -6.4951600e-01  -1.0352400e-01  -1.8373200e-02
  -6.6543400e-01  -1.2407600e-01  -1.4395300e-02
  -6.7245700e-01  -1.3411900e-01   9.9402700e-03
  -6.5724100e-01  -1.2921400e-01   1.7896100e-02
  -6.5162300e-01  -1.5373700e-01   2.1640100e-02
  -6.3242800e-01  -1.7265400e-01   2.4682000e-02
  -6.0878500e-01  -1.7709100e-01   3.7551800e-02
  -5.9965500e-01  -1.7312100e-01   5.3463500e-02
