**************************************************************************************
  	RED ACELEROGRÁFICA DE LA UNIVERSIDAD AUTONOMA METROPOLITANA (RA-UAM)
	   UNIDAD AZCAPOTZALCO. DIVISIÓN CBI-DEPARTAMENTO DE MATERIALES
     Av. San Pablo 420, Col. Nueva el Rosario, Azcapotzalco, C.P. 02128, Ciudad de México
		Área de Estructuras. e-mail: agb@azc.uam.mx
**************************************************************************************
ARCHIVO ESTANDAR DE ACELERACION:
VERSION DEL FORMATO                    : 2.0
NOMBRE DEL ARCHIVO                     : RIDA202310.071
FECHA Y HORA DE CREACION               : 11:30 a. m. 13/10/2023
REF. CATALOGO ACELEROGRAMAS, SMIS 1999 : REGISTRO NO.      /PAG.    


================================================================================
DATOS DE LA ESTACION:
NOMBRE DE LA ESTACION                  : UAM-AZCAPOTZALCO.
CLAVE DE LA ESTACION                   : RIDA
LOCALIZACION DE LA ESTACION            : AV. SAN PABLO 420, COL. NUEVA EL ROSARIO,
                                       : AZCAPOTZALCO, C.P.02128, CIUDAD DE MEXICO. 
                                       :
                                       : 
                                       : 
COORDENADAS DE LA ESTACION             : 19.498596 LAT. N
                                       : 99.195595 LONG. W
ALTITUD (msnm)                         : 2546
TIPO DE SUELO                          : ZONA DE TRANSICION
                                       : 
                                       : 
INSTITUCION RESPONSABLE                : UNIVERSIDAD AUTONOMA METROPOLITANA
                                       : 

================================================================================
DATOS DEL ACELEROGRAFO: 
MODELO DEL ACELEROGRAFO                : ETNA2 KINEMETRICS
NUMERO DE SERIE DEL ACELEROGRAFO       : 103732
NUMERO DE CANALES                      : 3
ORIENTACION C1-C6 (rumbo;orientacion)  : /N90E/N00E/V
ORIENTACION C7-C12 (rumbo;orientacion) : 
VEL. DE MUESTREO, C1-C6 (muestras/s)   : /200/200/200
VEL. DE MUESTREO, C7-C12 (muestras/s)  : 
ESC. COMPLETA DE SENSORES, C1-C6, (g)  : /2/2/2
ESC. COMPLETA DE SENSORES, C7-C12 (g)  : 
FREC. NAT. DE SENSORES, C1-C6, (Hz)    : /198/212/200   
FREC. NAT. DE SENSORES, C7-C12 (Hz)    : 
AMORTIGUAMIENTO DE SENSORES, C1-C6     : /0.7/0.7/0.7      
AMORTIGUAMIENTO DE SENSORES, C7-C12    : 
INTERVALO DE MUESTREO, C1-C6 (s)       : /0.005/0.005/0.005
INTERVALO DE MUESTREO, C7-C12 (s)      : 
UMBRAL DE DISPARO, C1-C6 (Gal)         : /2/2/2
UMBRAL DE DISPARO, C7-C12 (Gal)        : 
MEMORIA DE PREEVENTO (s)               : 50
TIEMPO DE POSEVENTO (s)                : 60


================================================================================
DATOS DEL SISMO:
FECHA DEL SISMO [GMT]                  : 2023/10/07
HORA EPICENTRO (GMT)                   : 05:06:56
MAGNITUD(ES)                           : /M=6.0
COORDENADAS DEL EPICENTRO              : 16.9600 LAT. N
                                       : -95.1100 LONG. W
PROFUNDIDAD FOCAL (Km)                 : 110.3
FUENTE DE LOS DATOS EPICENTRALES       : SSN
                                       : INSTITUTO DE GEOFISICA, UNAM

================================================================================
DATOS DE ESTE REGISTRO:
HORA DE LA PRIMERA MUESTRA (GMT)       : 05:07:55.000
EXACTITUD DEL TIEMPO (s)               : 
DURACION DEL REGISTRO (s), C1-C6       : /231/231/231
DURACION DEL REGISTRO (s), C7-C12      : 
NUM. TOTAL DE MUESTRAS, C1-C6          : /46200/46200/46200
NUM. TOTAL DE MUESTRAS, C7-C12         : 
ACEL. MAX.(Gal), C1-C6                 : /-1.274/1.445/-0.434
ACEL. MAX., C1-C6, EN LA MUESTRA       : /22209/22780/10111
ACEL. MAX.(Gal), C7-C12                : 
ACEL. MAX., C7-C12,EN LA MUESTRA       : 
UNIDADES DE LOS DATOS                  : Gal (cm/s/s)
FACTOR DE DECIMACION                   : 1
FORMATO DATOS (FORTRAN,16 campos/dato) : 3E16.7


================================================================================
CALIDAD DEL ACELEROGRAMA:
REGISTRO DIGITAL COMPLETO CON TIEMPO ABSOLUTO CORRECTO


================================================================================
COMENTARIOS:














================================================================================
DATOS DE ACELERACION:
---------+---------+---------+---------+---------+---------+---------+---------+
   CANAL-1   	     CANAL-2          CANAL-3
     N90E             N00E              V
---------+---------+---------+---------+---------+---------+---------+---------+
[...]
  -1.1445900e+00  -3.4548800e-01  -4.4616400e-02
  -1.1483400e+00  -3.5903400e-01  -4.7658400e-02
  -1.1387400e+00  -3.4735600e-01  -5.6550200e-02
  -1.1293800e+00  -3.4945800e-01  -5.8656200e-02
  -1.1090100e+00  -3.5039300e-01  -5.2806300e-02
  -1.0877100e+00  -3.2867300e-01  -4.7892400e-02
  -1.0523600e+00  -3.4875800e-01  -4.6020400e-02
  -1.0238000e+00  -3.3521200e-01  -4.8594300e-02
  -1.0060100e+00  -3.1863000e-01  -4.9764300e-02
  -9.7768500e-01  -3.3848200e-01  -4.7892400e-02
  -9.4865800e-01  -3.0882100e-01  -5.0934300e-02
  -9.1401300e-01  -3.0158100e-01  -4.9062300e-02
  -8.7211100e-01  -3.0415000e-01  -4.0638500e-02
  -8.3770000e-01  -2.7122000e-01  -3.4086600e-02
  -8.0141600e-01  -2.8196300e-01  -2.9172700e-02
  -7.5974800e-01  -2.6141100e-01  -2.1684800e-02
  -7.3118900e-01  -2.1657000e-01  -8.3470400e-03
  -6.9631000e-01  -2.2030700e-01   9.2026600e-03
  -6.5066200e-01  -1.8901100e-01   2.0668500e-02
  -6.0571700e-01  -1.6986100e-01   2.6986300e-02
  -5.6124000e-01  -1.4884100e-01   2.8390300e-02
  -5.1887000e-01  -1.2338500e-01   2.7454300e-02
  -4.7275400e-01  -9.4424900e-02   2.7454300e-02
  -4.2312700e-01  -7.2237900e-02   3.4006200e-02
  -3.6998900e-01  -5.0985100e-02   3.8218200e-02
  -3.1053000e-01  -1.4551700e-02   3.4240200e-02
  -2.4568700e-01  -1.8755600e-02   3.8218200e-02
  -1.8576000e-01   3.6128000e-02   4.1260100e-02
  -1.2208800e-01   4.4769200e-02   5.0385900e-02
  -6.1692600e-02   6.0416900e-02   5.5533900e-02
  -8.7883300e-03   9.5682500e-02   5.5767900e-02
   4.0838700e-02   9.1245100e-02   6.1851700e-02
   6.7290800e-02   1.3328400e-01   6.8403600e-02
   9.7722500e-02   1.5360200e-01   7.4253500e-02
   1.2581300e-01   1.7252000e-01   8.1039400e-02
   1.4009300e-01   2.0801900e-01   9.4845200e-02
   1.7450400e-01   2.3534400e-01   1.0607700e-01
   2.0048800e-01   2.3230800e-01   1.1473500e-01
   2.2530100e-01   2.6336900e-01   1.1964900e-01
   2.6275600e-01   2.7131000e-01   1.1964900e-01
   2.7492800e-01   2.8018500e-01   1.1637300e-01
   3.0255100e-01   3.2152300e-01   1.0982100e-01
   3.3485500e-01   3.2923000e-01   9.8823100e-02
   3.5522100e-01   3.6683100e-01   8.7357300e-02
   3.9852800e-01   3.7523900e-01   7.6359500e-02
   4.3832300e-01   3.8691600e-01   6.4659700e-02
   4.8326800e-01   4.0069500e-01   5.1789900e-02
   5.3219300e-01   4.0092900e-01   4.1026100e-02
   5.6520000e-01   4.2451700e-01   3.7984200e-02
   6.0593100e-01   4.2521800e-01   3.5878200e-02
   6.3519200e-01   4.5931500e-01   2.9794300e-02
   6.6328300e-01   4.7169300e-01   2.2774400e-02
   7.0214200e-01   4.7286100e-01   1.3882600e-02
   7.2227400e-01   5.1233100e-01   4.9907300e-03
   7.5013000e-01   5.1770200e-01   1.0128000e-03
   7.6956000e-01   5.2073800e-01  -6.2517400e-04
   7.7143300e-01   5.4946500e-01  -5.3050900e-03
   7.8313700e-01   5.6955000e-01  -1.5366900e-02
   7.7939200e-01   5.7515500e-01  -2.4024800e-02
   7.7236900e-01   6.1859500e-01  -2.9172700e-02
   7.7588000e-01   6.1906200e-01  -3.4320600e-02
   7.7751900e-01   6.2022900e-01  -4.6722400e-02
   7.8430700e-01   6.5572900e-01  -6.4506100e-02
   7.9226700e-01   6.4194900e-01  -7.7375800e-02
   8.0046000e-01   6.6203400e-01  -8.9075600e-02
   8.0537600e-01   6.7067600e-01  -9.6329500e-02
   8.0373700e-01   6.6343600e-01  -9.9839500e-02
   8.0865300e-01   6.6740600e-01  -1.0779500e-01
   8.1333500e-01   6.4848900e-01  -1.0873100e-01
   8.1567500e-01   6.5946500e-01  -1.1200700e-01
   8.2667800e-01   6.4989000e-01  -1.1177300e-01
   8.2831600e-01   6.4989000e-01  -1.0849700e-01
   8.2480500e-01   6.5082400e-01  -1.0662500e-01
   8.1637800e-01   6.3797900e-01  -1.0171100e-01
   7.9835300e-01   6.3914700e-01  -1.0100900e-01
   7.8032800e-01   6.2676900e-01  -9.3521600e-02
   7.6347300e-01   6.2093000e-01  -8.5331700e-02
   7.4778900e-01   6.0948600e-01  -8.0885800e-02
   7.3280800e-01   6.1672600e-01  -7.8077800e-02
   7.1852800e-01   6.0177900e-01  -6.9888000e-02
   6.8762800e-01   6.1135500e-01  -6.1464100e-02
   6.6492200e-01   6.0831900e-01  -5.8656200e-02
   6.3378800e-01   6.0551600e-01  -6.4740100e-02
   6.0522900e-01   6.1299000e-01  -6.6612000e-02
   5.9609900e-01   5.8893400e-01  -6.5676100e-02
   5.6309300e-01   5.7562200e-01  -6.6612000e-02
   5.3055400e-01   5.6301000e-01  -6.2634100e-02
   4.9942000e-01   5.4876400e-01  -6.5442100e-02
   4.6735000e-01   5.2260700e-01  -6.7782000e-02
   4.3645000e-01   5.2751100e-01  -7.3865900e-02
   3.9688900e-01   5.1092900e-01  -7.7609800e-02
   3.5475300e-01   5.0719300e-01  -8.3927700e-02
   3.1589400e-01   4.9294600e-01  -8.6033700e-02
   2.6181900e-01   4.6702300e-01  -8.6267700e-02
   2.1008600e-01   4.5604600e-01  -9.3521600e-02
   1.6677900e-01   4.2918800e-01  -8.9543600e-02
   1.1574700e-01   4.1400700e-01  -8.7203700e-02
   7.8527100e-02   3.8014300e-01  -8.6033700e-02
   3.0772800e-02   3.7734000e-01  -8.2523800e-02
  -1.5108700e-02   3.5421900e-01  -7.9481800e-02
  -4.6008600e-02   3.2689400e-01  -7.7609800e-02
  -8.4399300e-02   3.1007900e-01  -7.2695900e-02
  -1.0827600e-01   2.6827400e-01  -6.1698100e-02
  -1.3191900e-01   2.4725500e-01  -5.0466300e-02
  -1.6001000e-01   1.9821000e-01  -3.8532500e-02
  -1.7546000e-01   1.5477000e-01  -3.1512600e-02
  -2.1338300e-01   1.0922800e-01  -2.1684800e-02
  -2.5505100e-01   7.7932900e-02  -1.1857000e-02
  -2.8735500e-01   3.2157700e-02  -2.2631500e-03
  -3.2434100e-01  -3.5103900e-02   9.2026600e-03
  -3.4611200e-01  -6.1961800e-02   2.1370400e-02
  -3.7139300e-01  -1.2525300e-01   3.5410200e-02
  -3.9948400e-01  -1.6542300e-01   4.6876000e-02
  -4.2219100e-01  -2.1376700e-01   6.2553700e-02
  -4.5262200e-01  -2.4926700e-01   8.0103400e-02
  -4.8211800e-01  -2.9177200e-01   9.5547200e-02
  -5.0459000e-01  -3.5996800e-01   1.0818300e-01
  -5.2682900e-01  -3.8542500e-01   1.2152100e-01
  -5.4274700e-01  -4.4918300e-01   1.3439000e-01
  -5.5211000e-01  -4.8748500e-01   1.4538800e-01
  -5.6077200e-01  -5.2531900e-01   1.5147200e-01
  -5.6194200e-01  -5.7833500e-01   1.5662000e-01
  -5.6030400e-01  -6.2177400e-01   1.6668200e-01
  -5.4813100e-01  -6.5633900e-01   1.6598000e-01
  -5.3432000e-01  -7.0818700e-01   1.6598000e-01
  -5.2331700e-01  -7.7217900e-01   1.6621400e-01
  -5.1091100e-01  -7.9553400e-01   1.5521600e-01
  -5.0224900e-01  -8.4411100e-01   1.4421800e-01
  -4.8211800e-01  -9.0343200e-01   1.3813400e-01
  -4.6502900e-01  -9.2935600e-01   1.2947700e-01
  -4.4864300e-01  -9.6392100e-01   1.1379900e-01
  -4.2780900e-01  -1.0157700e+00   1.0186500e-01
  -4.1633800e-01  -1.0227700e+00   9.2739200e-02
  -4.0159100e-01  -1.0622400e+00   8.8293300e-02
  -3.8707700e-01  -1.1194600e+00   9.1335200e-02
  -3.8333200e-01  -1.1248400e+00   8.5251300e-02
  -3.6600900e-01  -1.1664100e+00   7.7061500e-02
  -3.4423900e-01  -1.1914000e+00   7.0509600e-02
  -3.2598000e-01  -1.2054100e+00   6.4893700e-02
  -2.8454600e-01  -1.2544500e+00   6.6765700e-02
  -2.5575300e-01  -1.2701000e+00   6.0915800e-02
  -2.2227800e-01  -1.2873800e+00   5.5065900e-02
  -1.8037600e-01  -1.3037300e+00   4.6876000e-02
  -1.5275300e-01  -1.3221800e+00   3.7516200e-02
  -1.1389500e-01  -1.3277900e+00   3.2836200e-02
  -8.4165200e-02  -1.3362000e+00   2.6050400e-02
  -5.4201700e-02  -1.3541800e+00   2.6518400e-02
  -2.6111000e-02  -1.3483400e+00   2.3710400e-02
  -1.0661000e-02  -1.3467000e+00   1.9030500e-02
   1.0875200e-02  -1.3317600e+00   2.2306400e-02
   3.2645500e-02  -1.3322200e+00   2.6752400e-02
   4.6222700e-02  -1.3053700e+00   2.9326300e-02
   6.1204500e-02  -1.2936900e+00   3.4240200e-02
   8.0165700e-02  -1.2873800e+00   4.2898100e-02
   9.1636100e-02  -1.2614600e+00   4.6642000e-02
   1.0872500e-01  -1.2661300e+00   5.4597900e-02
   1.2885600e-01  -1.2304000e+00   6.1149800e-02
   1.3939000e-01  -1.2217600e+00   6.8637600e-02
   1.4500900e-01  -1.2033100e+00   6.7467700e-02
   1.5577700e-01  -1.1591700e+00   5.9979800e-02
   1.6186300e-01  -1.1596300e+00   6.4659700e-02
   1.5811800e-01  -1.1178300e+00   6.2787700e-02
   1.7029000e-01  -1.0727500e+00   6.1851700e-02
   1.7427000e-01  -1.0484700e+00   5.4363900e-02
   1.6841800e-01  -1.0038600e+00   4.6642000e-02
   1.6912000e-01  -9.5761500e-01   4.5940000e-02
   1.6092700e-01  -9.2188300e-01   3.7048200e-02
   1.5203100e-01  -8.6209400e-01   2.2072400e-02
   1.4734900e-01  -8.0978000e-01   1.0372600e-02
   1.4430600e-01  -7.7731700e-01   5.2247200e-03
   1.3892200e-01  -7.1706200e-01  -2.0291500e-03
   1.4337000e-01  -6.7058600e-01  -1.0219000e-02
   1.4266800e-01  -6.2340900e-01  -2.1216800e-02
   1.3962500e-01  -5.6408800e-01  -2.5896700e-02
   1.3845400e-01  -5.2134900e-01  -2.9874700e-02
   1.2862200e-01  -4.5782400e-01  -3.4086600e-02
   1.2300400e-01  -3.9663500e-01  -2.8938700e-02
   1.1621600e-01  -3.5693200e-01  -2.8236700e-02
   1.1902500e-01  -3.0508400e-01  -3.0342700e-02
   1.0989500e-01  -2.3969100e-01  -3.6192600e-02
   1.0263800e-01  -1.6962700e-01  -3.9702500e-02
   1.0123400e-01  -1.2175000e-01  -3.4788600e-02
   8.0868000e-02  -5.2152800e-02  -3.1278600e-02
   7.1504400e-02   5.5333100e-03  -2.6364700e-02
   5.0436400e-02   6.2285300e-02  -2.8704700e-02
   3.4050100e-02   1.2581000e-01  -3.3150600e-02
   2.7729700e-02   1.7905900e-01  -3.1512600e-02
   3.1502400e-03   2.5052400e-01  -2.5896700e-02
  -9.4906000e-03   3.1031200e-01  -1.5132900e-02
  -2.3536000e-02   3.7173500e-01  -3.6671200e-03
  -4.8115400e-02   4.3175700e-01   5.4480500e-04
  -6.1458500e-02   4.9388000e-01   4.2887400e-03
  -8.4399300e-02   5.5693800e-01   1.4116600e-02
  -1.0219000e-01   6.2349900e-01   2.3008400e-02
  -1.0827600e-01   6.7114300e-01   3.4708200e-02
  -1.2325800e-01   7.3139800e-01   4.7578000e-02
  -1.1834200e-01   7.7647300e-01   5.3193900e-02
  -1.2536500e-01   8.2458300e-01   5.7171800e-02
  -1.3964400e-01   8.7689800e-01   6.1383800e-02
  -1.3941000e-01   9.0282200e-01   6.2553700e-02
  -1.5462600e-01   9.6868200e-01   6.3021700e-02
  -1.5743500e-01   9.8526400e-01   6.7233700e-02
  -1.6562800e-01   1.0298700e+00   7.3551500e-02
  -1.8107800e-01   1.0847500e+00   7.7061500e-02
  -1.8388700e-01   1.0980700e+00   7.7763500e-02
  -1.9840100e-01   1.1639300e+00   8.0337400e-02
  -1.9933700e-01   1.1900800e+00   8.3613400e-02
  -1.9606000e-01   1.2160100e+00   8.5485300e-02
  -2.0191200e-01   1.2501100e+00   9.2271200e-02
  -2.0027400e-01   1.2816400e+00   9.4377200e-02
  -2.0284900e-01   1.3005500e+00   9.2739200e-02
  -2.0776500e-01   1.3178300e+00   8.8527300e-02
  -2.0542400e-01   1.3624400e+00   8.3379400e-02
  -1.9793300e-01   1.3596400e+00   8.8995300e-02
  -1.9465600e-01   1.4012100e+00   8.5251300e-02
  -1.8599400e-01   1.4100900e+00   7.8231500e-02
  -1.7709900e-01   1.4077500e+00   7.4487500e-02
  -1.7007600e-01   1.4322700e+00   7.0509600e-02
  -1.5462600e-01   1.4290000e+00   6.6297700e-02
  -1.3753800e-01   1.4451200e+00   5.5767900e-02
  -1.1764000e-01   1.4313400e+00   4.7344000e-02
  -9.4933300e-02   1.4206000e+00   3.4006200e-02
  -6.9183500e-02   1.4012100e+00   2.1604400e-02
  -5.0456300e-02   1.3921000e+00   8.2666700e-03
  -2.9622300e-02   1.3682800e+00  -2.4971400e-03
  -1.5315500e-03   1.3330200e+00  -1.3962900e-02
   2.7495600e-02   1.3313800e+00  -3.0108700e-02
   6.1438600e-02   1.2884100e+00  -3.8298500e-02
   8.6954300e-02   1.2529100e+00  -4.8360400e-02
   1.1387500e-01   1.2293200e+00  -5.0466300e-02
   1.4407200e-01   1.1840100e+00  -5.3976300e-02
   1.6069300e-01   1.1452400e+00  -6.0294100e-02
   1.8574000e-01   1.0999400e+00  -6.5910000e-02
   2.1406500e-01   1.0625700e+00  -7.0824000e-02
   2.3536700e-01   1.0242700e+00  -7.2929900e-02
   2.6041500e-01   1.0006800e+00  -8.0183800e-02
   2.8265300e-01   9.4719600e-01  -7.7375800e-02
   3.0114600e-01   8.9815100e-01  -7.8311800e-02
   3.1566000e-01   8.5447700e-01  -8.3225700e-02
   3.2993900e-01   7.9375500e-01  -8.3927700e-02
   3.4211200e-01   7.5638800e-01  -8.6969700e-02
   3.5053900e-01   6.9146100e-01  -8.3225700e-02
   3.5475300e-01   6.5222500e-01  -8.2289800e-02
   3.6458500e-01   5.9547300e-01  -8.3459700e-02
   3.7535300e-01   5.4829700e-01  -8.7671700e-02
   3.8588700e-01   5.0789300e-01  -9.0245600e-02
   4.0906200e-01   4.5207600e-01  -9.3521600e-02
   4.3013000e-01   4.1867800e-01  -9.9605500e-02
   4.4721800e-01   3.6216000e-01  -9.9605500e-02
   4.6149800e-01   3.2642700e-01  -1.0826300e-01
   4.7858600e-01   2.6734000e-01  -1.1224100e-01
   4.8537500e-01   2.3697900e-01  -1.2394100e-01
   4.8724800e-01   2.0731800e-01  -1.3868300e-01
   4.9918600e-01   1.5150000e-01  -1.3798100e-01
   4.9848400e-01   1.3561900e-01  -1.4476700e-01
   4.9895200e-01   7.0926500e-02  -1.5202100e-01
   4.9754800e-01   3.7529300e-02  -1.5950800e-01
   4.9310000e-01   4.8326700e-03  -1.6769800e-01
   4.9122700e-01  -5.5656100e-02  -1.7682400e-01
   4.8795000e-01  -7.2237900e-02  -1.8922600e-01
   4.8303400e-01  -1.0937200e-01  -1.9671400e-01
   4.7320200e-01  -1.5538100e-01  -2.0396800e-01
   4.6430700e-01  -1.7569900e-01  -2.0630800e-01
   4.5119800e-01  -2.1680400e-01  -2.0724400e-01
   4.3106600e-01  -2.4996700e-01  -2.0888200e-01
   4.0882800e-01  -2.5814100e-01  -2.0677600e-01
   3.9595300e-01  -2.9574300e-01  -2.0513800e-01
   3.7254400e-01  -3.1606100e-01  -1.9928800e-01
   3.5030500e-01  -3.4805700e-01  -1.8173800e-01
   3.3415300e-01  -3.7771800e-01  -1.6395400e-01
   3.0840300e-01  -3.8682600e-01  -1.4991500e-01
   2.8359000e-01  -4.1531900e-01  -1.4125700e-01
   2.5573300e-01  -4.2582800e-01  -1.3447100e-01
   2.3419700e-01  -4.4614700e-01  -1.1294300e-01
   2.0891500e-01  -4.6763300e-01  -9.4691600e-02
   1.7871700e-01  -4.7954400e-01  -8.1821800e-02
   1.5624500e-01  -5.0500100e-01  -7.0122000e-02
   1.2932500e-01  -5.2041500e-01  -5.7018200e-02
   1.0357500e-01  -5.3699700e-01  -4.4382400e-02
   8.9529300e-02  -5.5521300e-01  -4.0170500e-02
   6.6120400e-02  -5.6759100e-01  -2.8938700e-02
   4.5520500e-02  -5.9515000e-01  -1.9578800e-02
   2.6559200e-02  -6.0168900e-01  -1.9812800e-02
   8.0934700e-04  -6.2247500e-01  -1.5600900e-02
  -1.3704200e-02  -6.5143500e-01  -1.7238900e-02
  -3.8283600e-02  -6.3555400e-01  -1.7472900e-02
  -5.8415300e-02  -6.3905700e-01  -9.2830200e-03
  -7.1992500e-02  -6.3975800e-01  -1.3261000e-02
  -9.1422000e-02  -6.3975800e-01  -1.5132900e-02
  -1.0499900e-01  -6.3718900e-01  -1.0219000e-02
  -1.2279000e-01  -6.2761300e-01  -1.2325000e-02
  -1.4339000e-01  -6.3625400e-01  -1.7004900e-02
  -1.6094700e-01  -6.3345200e-01  -1.4664900e-02
  -1.7826900e-01  -6.1897200e-01  -1.5366900e-02
  -1.8927100e-01  -6.2317600e-01  -2.3088800e-02
  -2.0261500e-01  -6.1803800e-01  -2.9640700e-02
  -2.2859900e-01  -5.9188000e-01  -3.0576700e-02
  -2.4428300e-01  -5.9118000e-01  -2.8236700e-02
  -2.7096900e-01  -5.6222000e-01  -3.2682600e-02
  -3.0046400e-01  -5.6735800e-01  -3.2916600e-02
  -3.1778700e-01  -5.5264400e-01  -3.3150600e-02
  -3.3206600e-01  -5.4236800e-01  -2.7066700e-02
  -3.4353700e-01  -5.4166800e-01  -2.5428700e-02
  -3.5196400e-01  -5.0686900e-01  -2.7300700e-02
  -3.4798400e-01  -5.1154000e-01  -1.2091000e-02
  -3.4892100e-01  -4.7977800e-01  -2.2631500e-03
  -3.4704800e-01  -4.6366300e-01  -1.5718200e-04
  -3.4728200e-01  -4.3960800e-01   5.4587200e-03
  -3.4775000e-01  -4.1648600e-01   1.5052600e-02
  -3.4845200e-01  -3.8869400e-01   2.3242400e-02
  -3.5290000e-01  -3.6697400e-01   4.1728100e-02
  -3.5266600e-01  -3.5833300e-01   6.2553700e-02
  -3.5290000e-01  -3.2119900e-01   7.8933500e-02
  -3.5032500e-01  -3.0158100e-01   1.0022700e-01
