**************************************************************************************
  	RED ACELEROGRÁFICA DE LA UNIVERSIDAD AUTONOMA METROPOLITANA (RA-UAM)
	   UNIDAD AZCAPOTZALCO. DIVISIÓN CBI-DEPARTAMENTO DE MATERIALES
     Av. San Pablo 420, Col. Nueva el Rosario, Azcapotzalco, C.P. 02128, Ciudad de México
		Área de Estructuras. e-mail: agb@azc.uam.mx
**************************************************************************************
ARCHIVO ESTANDAR DE ACELERACION:
VERSION DEL FORMATO                    : 2.0
NOMBRE DEL ARCHIVO                     : RIDR202312.142
FECHA Y HORA DE CREACION               : 11:30 a. m. 21/12/2023
REF. CATALOGO ACELEROGRAMAS, SMIS 1999 : REGISTRO NO.      /PAG.    


================================================================================
DATOS DE LA ESTACION:
NOMBRE DE LA ESTACION                  : UAM-RECTORIA.
CLAVE DE LA ESTACION                   : RIDR
LOCALIZACION DE LA ESTACION            : PROL. CANAL DE MIRAMONTES 3855, COL. EX
                                       : DE SAN JUAN DE DIOS, C.P.14387 CIUDAD DE MEXICO.
                                       :
                                       : 
                                       : 
COORDENADAS DE LA ESTACION             : 19.287271 LAT. N
                                       : 99.137132 LONG. W
ALTITUD (msnm)                         : 2240
TIPO DE SUELO                          : TRANSICION
                                       : 
                                       : 
INSTITUCION RESPONSABLE                : UNIVERSIDAD AUTONOMA METROPOLITANA
                                       : 

================================================================================
DATOS DEL ACELEROGRAFO: 
MODELO DEL ACELEROGRAFO                : ETNA2 KINEMETRICS
NUMERO DE SERIE DEL ACELEROGRAFO       : 103462
NUMERO DE CANALES                      : 3
ORIENTACION C1-C6 (rumbo;orientacion)  : /N90E/N00E/V
ORIENTACION C7-C12 (rumbo;orientacion) : 
VEL. DE MUESTREO, C1-C6 (muestras/s)   : /200/200/200
VEL. DE MUESTREO, C7-C12 (muestras/s)  : 
ESC. COMPLETA DE SENSORES, C1-C6, (g)  : /2/2/2
ESC. COMPLETA DE SENSORES, C7-C12 (g)  : 
FREC. NAT. DE SENSORES, C1-C6, (Hz)    : /200/200/202   
FREC. NAT. DE SENSORES, C7-C12 (Hz)    : 
AMORTIGUAMIENTO DE SENSORES, C1-C6     : /0.7/0.7/0.7      
AMORTIGUAMIENTO DE SENSORES, C7-C12    : 
INTERVALO DE MUESTREO, C1-C6 (s)       : /0.005/0.005/0.005
INTERVALO DE MUESTREO, C7-C12 (s)      : 
UMBRAL DE DISPARO, C1-C6 (Gal)         : /2/2/2
UMBRAL DE DISPARO, C7-C12 (Gal)        : 
MEMORIA DE PREEVENTO (s)               : 50
TIEMPO DE POSEVENTO (s)                : 60


================================================================================
DATOS DEL SISMO:
FECHA DEL SISMO [GMT]                  : 2023/12/14
HORA EPICENTRO (GMT)                   : 20:15:20
MAGNITUD(ES)                           : /M=2.4
COORDENADAS DEL EPICENTRO              : 19.3700 LAT. N
                                       : -99.2000 LONG. W
PROFUNDIDAD FOCAL (Km)                 : 1.3
FUENTE DE LOS DATOS EPICENTRALES       : SSN
                                       : INSTITUTO DE GEOFISICA, UNAM

================================================================================
DATOS DE ESTE REGISTRO:
HORA DE LA PRIMERA MUESTRA (GMT)       : 20:12:39.000
EXACTITUD DEL TIEMPO (s)               : 
DURACION DEL REGISTRO (s), C1-C6       : /120/120/120
DURACION DEL REGISTRO (s), C7-C12      : 
NUM. TOTAL DE MUESTRAS, C1-C6          : /24000/24000/24000
NUM. TOTAL DE MUESTRAS, C7-C12         : 
ACEL. MAX.(Gal), C1-C6                 : /-2.054/2.369/-1.041
ACEL. MAX., C1-C6, EN LA MUESTRA       : /11033/10429/11024
ACEL. MAX.(Gal), C7-C12                : 
ACEL. MAX., C7-C12,EN LA MUESTRA       : 
UNIDADES DE LOS DATOS                  : Gal (cm/s/s)
FACTOR DE DECIMACION                   : 1
FORMATO DATOS (FORTRAN,16 campos/dato) : 3E16.7


================================================================================
CALIDAD DEL ACELEROGRAMA:
REGISTRO DIGITAL COMPLETO CON TIEMPO ABSOLUTO CORRECTO


================================================================================
COMENTARIOS:














================================================================================
DATOS DE ACELERACION:
---------+---------+---------+---------+---------+---------+---------+---------+
   CANAL-1   	     CANAL-2          CANAL-3
     N90E             N00E              V
---------+---------+---------+---------+---------+---------+---------+---------+
[...]
  -9.2692400e-01   7.8218400e-01  -6.8584500e-01
  -9.7407800e-01   7.4685900e-01  -7.0176100e-01
  -1.0660500e+00   7.3352400e-01  -6.5635500e-01
  -1.1216100e+00   6.6193900e-01  -6.5448200e-01
  -1.1279100e+00   5.8169800e-01  -6.8795200e-01
  -1.2000400e+00   5.8006000e-01  -6.7016400e-01
  -1.2135800e+00   5.8029400e-01  -6.2194900e-01
  -1.1619900e+00   4.6426000e-01  -6.2171500e-01
  -1.1398200e+00   3.1968500e-01  -7.1065500e-01
  -1.1771700e+00   2.3546700e-01  -7.2540000e-01
  -1.1914100e+00   2.3359500e-01  -5.8192600e-01
  -1.1673600e+00   1.9359100e-01  -4.3775000e-01
  -1.1330500e+00  -5.4384700e-02  -3.5793800e-01
  -1.0469100e+00  -3.3885500e-01  -3.3242700e-01
  -1.0184300e+00  -4.3617400e-01  -3.1253200e-01
  -9.9812200e-01  -4.9044800e-01  -2.8444600e-01
  -9.4816700e-01  -5.9946400e-01  -2.4887000e-01
  -8.9307600e-01  -8.3223400e-01  -2.0205900e-01
  -8.6553100e-01  -1.1370600e+00  -1.7795200e-01
  -8.4265400e-01  -1.2261900e+00  -1.6390900e-01
  -7.4321100e-01  -1.1812700e+00  -9.8140300e-02
  -6.2485900e-01  -1.1103900e+00   5.0767000e-03
  -5.5833000e-01  -1.1936700e+00   1.7013400e-02
  -5.2331500e-01  -1.4334600e+00  -4.6180700e-02
  -4.7569400e-01  -1.5230600e+00  -8.1756700e-02
  -3.9772600e-01  -1.5258700e+00  -4.7351000e-02
  -2.6093300e-01  -1.5080900e+00   2.0992200e-02
  -1.3044300e-01  -1.5279700e+00   7.9505300e-02
  -6.1346200e-02  -1.6376900e+00   1.4855100e-01
  -2.8898700e-02  -1.6910300e+00   2.1174500e-01
   4.7901500e-02  -1.7207400e+00   2.2929900e-01
   1.3357200e-01  -1.7970000e+00   2.5176800e-01
   2.5379100e-01  -1.7476400e+00   3.1355700e-01
   3.6023800e-01  -1.6650600e+00   3.5170800e-01
   3.3245900e-01  -1.6023600e+00   3.6434700e-01
   3.5043400e-01  -1.5223600e+00   3.9547600e-01
   3.9081800e-01  -1.5455200e+00   4.1911500e-01
   4.2443300e-01  -1.5326500e+00   4.0834900e-01
   4.9306300e-01  -1.4893700e+00   3.7558100e-01
   5.2644400e-01  -1.4065600e+00   3.4304800e-01
   5.2527700e-01  -1.3148500e+00   3.4655900e-01
   5.4091700e-01  -1.2416300e+00   3.1636600e-01
   5.8480300e-01  -1.2306300e+00   2.9483300e-01
   6.3242300e-01  -1.2879500e+00   3.1472800e-01
   6.7374100e-01  -1.2374200e+00   3.4000500e-01
   5.9880900e-01  -1.1936700e+00   3.8283700e-01
   5.4862000e-01  -1.1527300e+00   3.7768800e-01
   5.0660200e-01  -1.1833800e+00   3.9851800e-01
   3.8591600e-01  -1.1099200e+00   4.0811500e-01
   3.2078700e-01  -1.0378700e+00   4.0788000e-01
   1.7862500e-01  -1.0565800e+00   3.5873000e-01
   7.3345900e-02  -9.6394200e-01   2.9413100e-01
   2.0589600e-02  -9.5037400e-01   2.8336500e-01
  -2.2362500e-02  -8.4065600e-01   1.2186900e-01
   6.4708800e-02  -7.8076800e-01   1.0220800e-01
   1.7208900e-01  -6.4929400e-01   2.7704500e-01
   1.1069600e-01  -5.3302500e-01   3.7932600e-01
  -9.8462400e-02  -6.3759700e-01   4.2332800e-01
  -2.4365900e-01  -5.9080900e-01   4.2754100e-01
  -2.8754500e-01  -4.9840200e-01   3.9102900e-01
  -1.7502900e-01  -3.8470800e-01   2.8945000e-01
  -7.4185100e-02  -2.7148100e-01   2.5083100e-01
  -4.9441000e-02  -1.6480400e-01   2.8523700e-01
  -7.1383900e-02  -1.5147000e-01   2.8383300e-01
  -7.6986400e-02  -9.2984800e-02   2.3093700e-01
   7.4746600e-02   1.2990000e-02   2.6089600e-01
   2.3208200e-01   1.1124500e-01   3.2970700e-01
   3.0187900e-01   2.3944400e-01   3.0513200e-01
   3.0351300e-01   1.8142700e-01   2.9015200e-01
   3.3105800e-01   2.2353600e-01   2.6393800e-01
   3.6467300e-01   2.2377000e-01   1.9021200e-01
   4.8535900e-01   2.4809900e-01   1.3591200e-01
   5.4792000e-01   3.7746800e-01   1.2023000e-01
   5.7429800e-01   3.7817000e-01   1.2561400e-01
   6.4806400e-01   4.4507700e-01   1.3567800e-01
   6.6183600e-01   4.9116300e-01   8.6526900e-02
   7.0922400e-01   4.7151200e-01   9.2896400e-03
   7.0525500e-01   5.1291900e-01  -3.9861300e-02
   7.1295900e-01   5.4754200e-01  -9.3927400e-02
   6.7841000e-01   5.6391800e-01  -1.6461100e-01
   6.6323700e-01   6.3854500e-01  -2.1259200e-01
   6.7210700e-01   7.1036400e-01  -2.2499700e-01
   6.8331200e-01   8.5657700e-01  -2.2593300e-01
   7.4097100e-01   9.6301900e-01  -2.2101800e-01
   7.4353900e-01   1.0313300e+00  -2.0931500e-01
   7.0385500e-01   1.1141400e+00  -1.8871800e-01
   6.7327500e-01   1.1553200e+00  -1.9971900e-01
   6.9054900e-01   1.2488900e+00  -1.7186700e-01
   6.2145200e-01   1.3761600e+00  -9.8374400e-02
   5.8176800e-01   1.4959300e+00  -5.5308800e-02
   5.8760400e-01   1.4898500e+00  -3.9627300e-02
   5.5002100e-01   1.5445900e+00  -1.9966900e-02
   4.8419200e-01   1.5869400e+00   1.0694000e-02
   4.3003500e-01   1.6222600e+00   5.7788600e-03
   4.1416100e-01   1.7441400e+00   1.3736600e-02
   3.2615600e-01   1.7516300e+00   7.0143200e-02
   2.4562100e-01   1.8300000e+00   1.5182700e-01
   2.0593700e-01   1.8014600e+00   2.1900000e-01
   1.2446800e-01   1.7427400e+00   2.6510900e-01
   2.5958600e-02   1.8082400e+00   3.2713200e-01
  -2.9132100e-02   1.7944400e+00   3.2526000e-01
  -5.9478700e-02   1.7832100e+00   2.6019400e-01
  -8.7957800e-02   1.7200500e+00   2.2602200e-01
  -7.6286100e-02   1.6840200e+00   1.9863800e-01
  -7.7453200e-02   1.6257700e+00   1.6399800e-01
  -6.5314600e-02   1.5717300e+00   1.4199700e-01
  -7.1892200e-03   1.5181600e+00   1.6118900e-01
   5.0002400e-02   1.4295000e+00   1.8459500e-01
   1.4641100e-01   1.3883200e+00   1.5557200e-01
   2.1667500e-01   1.2736900e+00   1.1952800e-01
   3.1541800e-01   1.2617600e+00   1.0829400e-01
   3.7191000e-01   1.1497000e+00   9.8229500e-02
   3.6233900e-01   1.0053600e+00   7.0377300e-02
   3.9805400e-01   9.6255100e-01   7.5760500e-02
   4.1953000e-01   8.9283700e-01   1.2701800e-01
   4.1719600e-01   9.5529900e-01   1.6399800e-01
   3.7938000e-01   9.7658800e-01   1.4621000e-01
   3.0724800e-01   9.3307500e-01   9.3080300e-02
   2.1667500e-01   8.9751600e-01   3.5737500e-02
   2.2507900e-01   7.5738600e-01  -5.6245000e-02
   2.2951400e-01   6.1983000e-01  -1.3301400e-01
   1.7045500e-01   6.1983000e-01  -1.2997100e-01
   6.3308200e-02   5.6929900e-01  -1.4027000e-01
  -6.7649000e-02   5.5994100e-01  -1.7350500e-01
  -1.8646800e-01   5.6134500e-01  -1.7912200e-01
  -3.2045900e-01   5.0964400e-01  -1.6086600e-01
  -4.3227500e-01   4.8835600e-01  -1.6461100e-01
  -5.5459500e-01   4.2004500e-01  -2.5121000e-01
  -6.4423400e-01   4.3899400e-01  -2.9427600e-01
  -6.9302200e-01   5.3491000e-01  -2.6221100e-01
  -7.0352700e-01   5.6812900e-01  -2.6548800e-01
  -7.6422000e-01   5.3280400e-01  -2.8023300e-01
  -8.1510900e-01   5.0332800e-01  -2.8280700e-01
  -8.2374600e-01   3.7115200e-01  -2.8468000e-01
  -8.1650900e-01   2.9699300e-01  -3.0270200e-01
  -8.1604200e-01   2.3032000e-01  -3.0621300e-01
  -8.0227000e-01   1.5826700e-01  -2.4957200e-01
  -7.2687000e-01   7.6387600e-02  -2.0720900e-01
  -7.2360200e-01  -1.5357500e-01  -2.0814500e-01
  -7.0936200e-01  -2.5229800e-01  -1.8825000e-01
  -7.0072500e-01  -3.6856600e-01  -1.6578100e-01
  -7.1823300e-01  -4.5933400e-01  -1.8169700e-01
  -7.1519800e-01  -4.8600400e-01  -2.1610300e-01
  -6.7901600e-01  -5.1688400e-01  -2.4465700e-01
  -6.3606400e-01  -5.5829100e-01  -2.3904000e-01
  -5.8237400e-01  -6.4508300e-01  -2.1399600e-01
  -5.2214700e-01  -7.4357100e-01  -1.8544200e-01
  -5.0043800e-01  -8.8604100e-01  -1.2458800e-01
  -4.5351700e-01  -1.0102600e+00  -1.0165100e-01
  -4.1826900e-01  -1.1536700e+00  -1.2365200e-01
  -3.8395400e-01  -1.1637300e+00  -1.0797000e-01
  -3.3563300e-01  -1.1541400e+00  -7.1224300e-02
  -2.9431500e-01  -1.1885200e+00  -2.1605200e-02
  -3.0108400e-01  -1.1567100e+00   6.2469600e-03
  -3.5827600e-01  -1.2437300e+00   1.1162100e-02
  -4.1803500e-01  -1.2615100e+00  -8.4983300e-03
  -4.5795300e-01  -1.1969500e+00  -4.1967800e-02
  -4.4418000e-01  -1.1995200e+00  -9.3459300e-02
  -3.9982700e-01  -1.1641900e+00  -1.7514300e-01
  -3.0435200e-01  -1.1417400e+00  -1.2716300e-01
  -1.3744600e-01  -1.1040700e+00  -5.9287600e-02
  -6.1346200e-02  -1.1213800e+00  -3.7754800e-02
  -9.9396200e-02  -1.2523900e+00   9.0555900e-03
  -1.8086500e-01  -1.3328700e+00  -1.8094500e-02
  -1.9790600e-01  -1.3904100e+00  -9.8374400e-02
  -9.9396200e-02  -1.4517100e+00  -1.5852600e-01
   5.7472300e-02  -1.3960300e+00  -1.2669500e-01
   2.1270700e-01  -1.3791900e+00  -6.6777300e-02
   2.5495900e-01  -1.3958000e+00   2.0524100e-02
   2.6966500e-01  -1.4489000e+00   1.2350700e-01
   2.4071900e-01  -1.6699700e+00   1.3146500e-01
   2.3208200e-01  -1.7677600e+00   1.0431500e-01
   3.4856600e-01  -1.7593400e+00   1.0688900e-01
   4.9002800e-01  -1.7698600e+00   1.4176300e-01
   5.3601500e-01  -1.7916200e+00   2.0051000e-01
   5.5142100e-01  -1.8599300e+00   2.5387400e-01
   5.5118800e-01  -1.9380700e+00   2.5972500e-01
   5.2154200e-01  -1.9394700e+00   2.6674700e-01
   6.3032200e-01  -1.8837900e+00   2.8219400e-01
   7.3373400e-01  -1.8309200e+00   2.4544800e-01
   7.3443500e-01  -1.8161900e+00   1.8646700e-01
   7.2836500e-01  -1.8299900e+00   1.4948700e-01
   7.2509700e-01  -1.7780500e+00   1.1133600e-01
   7.1459300e-01  -1.7268200e+00   6.8504800e-02
   7.6991700e-01  -1.6182700e+00   2.6609500e-02
   7.5544400e-01  -1.5717200e+00  -1.3179400e-02
   7.2789800e-01  -1.4956900e+00  -6.8883800e-02
   7.8018800e-01  -1.3462000e+00  -1.5852600e-01
   7.6711600e-01  -1.2612800e+00  -2.0744300e-01
   8.0563200e-01  -1.0860600e+00  -2.0603800e-01
   7.9676200e-01  -9.0569100e-01  -1.8076100e-01
   6.8097800e-01  -7.8380900e-01  -1.3675900e-01
   5.8106800e-01  -7.3585100e-01  -1.0165100e-01
   5.2294200e-01  -6.0344100e-01  -1.3675900e-01
   3.6257200e-01  -4.8319600e-01  -2.4161400e-01
   2.1037200e-01  -3.5757100e-01  -3.3921400e-01
   2.0360300e-01  -1.6152900e-01  -4.2183400e-01
   1.1699800e-01  -1.0047100e-01  -4.7917700e-01
   8.8285800e-02  -5.4912900e-03  -4.7824100e-01
   1.0626000e-01   8.4341600e-02  -4.3096200e-01
   2.5725100e-02   1.9055000e-01  -3.8930100e-01
  -4.0337000e-02   3.4565200e-01  -3.9538700e-01
  -9.2860000e-02   4.8320900e-01  -4.3775000e-01
  -2.0164100e-01   5.5877100e-01  -4.4851600e-01
  -2.2358400e-01   6.4907200e-01  -3.8321600e-01
  -1.1223500e-01   7.4943200e-01  -3.1393600e-01
  -1.5658800e-01   8.0487600e-01  -2.5238100e-01
  -2.3712300e-01   1.0037200e+00  -1.9363400e-01
  -2.5976600e-01   1.1733300e+00  -2.3669900e-01
  -3.2256000e-01   1.3083100e+00  -3.4389500e-01
  -2.7984200e-01   1.4517200e+00  -3.9842900e-01
  -1.8460000e-01   1.5600300e+00  -3.6706600e-01
  -2.3759000e-01   1.7029700e+00  -2.9544600e-01
  -2.7797400e-01   1.8026300e+00  -2.2265600e-01
  -2.2218300e-01   1.9076700e+00  -1.1709900e-01
  -3.2886300e-01   2.0127100e+00  -1.8094500e-02
  -3.7438300e-01   2.0340000e+00   3.2694900e-02
  -3.0458600e-01   2.0749400e+00   3.2928900e-02
  -3.4730400e-01   2.1224200e+00   1.5843100e-02
  -3.7228200e-01   2.2022000e+00   4.1588800e-02
  -3.6177700e-01   2.3694700e+00   7.8569100e-02
  -4.5141700e-01   2.3612800e+00   9.7293300e-02
  -4.7616100e-01   2.3109800e+00   1.1180400e-01
  -3.7671700e-01   2.2707400e+00   7.7866900e-02
  -4.0776400e-01   2.1818500e+00   1.1630200e-02
  -4.4698100e-01   2.2349500e+00   2.3800900e-02
  -4.2293700e-01   2.3037300e+00   8.9335500e-02
  -4.3811100e-01   2.2719100e+00   1.3099700e-01
  -4.3741000e-01   2.1079200e+00   1.5393400e-01
  -3.8161900e-01   1.9350400e+00   1.8365900e-01
  -3.6037700e-01   1.8082400e+00   1.8085000e-01
  -3.6411200e-01   1.7528000e+00   1.4644400e-01
  -3.3399900e-01   1.7811100e+00   1.3333700e-01
  -3.5384100e-01   1.7881200e+00   1.5510400e-01
  -3.6084400e-01   1.7347900e+00   1.6259400e-01
  -2.6980400e-01   1.6232000e+00   1.4293300e-01
  -2.0047400e-01   1.5794500e+00   1.6329600e-01
  -2.1774800e-01   1.5242400e+00   1.7968000e-01
  -1.3697900e-01   1.4252800e+00   1.4246500e-01
  -5.6910900e-02   1.3282000e+00   5.5866000e-02
  -3.2633700e-02   1.1929800e+00  -6.1578100e-03
   7.3345900e-02   1.0919200e+00  -3.2371600e-02
   1.1606500e-01   1.0161200e+00  -4.8755300e-02
   1.3917500e-01   9.4149700e-01  -1.5285800e-02
   2.0640400e-01   8.5330200e-01   5.3993600e-02
   1.7395700e-01   7.9341300e-01   9.9165700e-02
   1.8609500e-01   7.3024900e-01   5.8206500e-02
   2.7480100e-01   6.6287500e-01   1.6160300e-04
   2.5449200e-01   6.7246600e-01  -1.2711300e-02
   2.5425800e-01   5.8310100e-01  -3.7052700e-02
   3.2288800e-01   4.7853000e-01  -1.0282100e-01
   3.3642700e-01   4.2589400e-01  -1.1569400e-01
   3.3199200e-01   3.5196900e-01  -1.0492800e-01
   3.8404800e-01   2.4084700e-01  -1.5290900e-01
   4.6458300e-01   8.5979200e-02  -1.9808100e-01
   4.8045700e-01   1.2054200e-02  -1.9808100e-01
   4.6131500e-01  -5.4852600e-02  -1.6929200e-01
   4.9609700e-01  -1.0959400e-01  -1.8216500e-01
   4.6435000e-01  -1.6457000e-01  -1.7584600e-01
   4.1813000e-01  -2.2305500e-01  -1.2365200e-01
   3.9852100e-01  -3.4540600e-01  -1.1358800e-01
   3.8755000e-01  -5.1197100e-01  -1.4682300e-01
   4.9726400e-01  -5.9080900e-01  -1.4658900e-01
   5.0426700e-01  -6.6052300e-01  -9.8374400e-02
   4.5291200e-01  -7.0310000e-01  -8.2692900e-02
   5.1010300e-01  -8.2545000e-01  -8.7842000e-02
   5.4301800e-01  -9.8312600e-01  -8.9714400e-02
   6.7350800e-01  -1.0715500e+00  -8.9948500e-02
   8.7169500e-01  -1.0986900e+00  -4.0563500e-02
   9.5759900e-01  -1.1363600e+00   6.9909100e-02
   1.0400000e+00  -1.3017500e+00   1.7125400e-01
   1.0584400e+00  -1.4613000e+00   2.5832100e-01
   9.2701900e-01  -1.5810800e+00   2.8359900e-01
   8.7192800e-01  -1.6529000e+00   2.6276800e-01
   1.0192300e+00  -1.6746500e+00   2.7119400e-01
   1.1515800e+00  -1.7368800e+00   2.9834400e-01
   1.2078400e+00  -1.8028500e+00   4.0273100e-01
   1.2437900e+00  -1.9214600e+00   4.9658600e-01
   1.2139100e+00  -2.0927000e+00   5.3965200e-01
   1.2071400e+00  -2.1933000e+00   5.6703600e-01
   1.1952400e+00  -2.2241800e+00   5.9137700e-01
   1.1037300e+00  -2.2641800e+00   6.2437900e-01
   9.9494800e-01  -2.3423200e+00   6.3467700e-01
   9.6787000e-01  -2.3346000e+00   6.0893100e-01
   8.3691300e-01  -2.2765800e+00   5.4597100e-01
   6.4969800e-01  -2.2049900e+00   4.9986300e-01
   5.9530700e-01  -2.1142200e+00   4.4298800e-01
   4.0762500e-01  -2.1327100e+00   3.9219900e-01
   2.4959000e-01  -2.1511900e+00   3.8400700e-01
   2.3021400e-01  -2.1343400e+00   3.9407100e-01
   1.6391900e-01  -2.0318800e+00   3.7113400e-01
   2.9460100e-02  -1.9053200e+00   2.5270400e-01
  -1.6008900e-01  -1.8582900e+00   9.3080300e-02
  -1.9347100e-01  -1.8185200e+00  -2.1605200e-02
  -1.3814600e-01  -1.8316300e+00  -4.1031600e-02
  -1.7549600e-01  -1.7474100e+00  -1.4817700e-02
  -3.2629500e-01  -1.6496200e+00  -3.0031100e-02
  -4.7546000e-01  -1.6442400e+00  -1.4144000e-01
  -4.7942900e-01  -1.6648300e+00  -3.0434000e-01
  -4.5982000e-01  -1.5878600e+00  -3.6472600e-01
  -5.0580700e-01  -1.4692500e+00  -3.5278900e-01
  -5.7023500e-01  -1.4227000e+00  -3.2095800e-01
  -6.3256200e-01  -1.3857400e+00  -3.2470300e-01
  -7.3130500e-01  -1.5134700e+00  -4.0708900e-01
  -7.4344400e-01  -1.6051700e+00  -4.7590100e-01
  -6.7761500e-01  -1.5857500e+00  -5.3698800e-01
  -6.7644800e-01  -1.5378000e+00  -5.5477600e-01
  -7.2406900e-01  -1.4446900e+00  -5.2177500e-01
  -7.7682500e-01  -1.4276100e+00  -5.0422100e-01
  -7.7939300e-01  -1.4196600e+00  -4.7777300e-01
  -7.9456600e-01  -1.3527500e+00  -4.2347300e-01
  -7.9386600e-01  -1.2640900e+00  -3.4974600e-01
  -7.8499600e-01  -1.2266600e+00  -2.6970100e-01
  -7.9900200e-01  -1.1592800e+00  -1.9667600e-01
  -8.1254100e-01  -1.1094500e+00  -1.3792900e-01
