**************************************************************************************
  	RED ACELEROGRÁFICA DE LA UNIVERSIDAD AUTONOMA METROPOLITANA (RA-UAM)
	   UNIDAD AZCAPOTZALCO. DIVISIÓN CBI-DEPARTAMENTO DE MATERIALES
     Av. San Pablo 420, Col. Nueva el Rosario, Azcapotzalco, C.P. 02128, Ciudad de México
		Área de Estructuras. e-mail: agb@azc.uam.mx
**************************************************************************************
ARCHIVO ESTANDAR DE ACELERACION:
VERSION DEL FORMATO                    : 2.0
NOMBRE DEL ARCHIVO                     : RIDR202310.071
FECHA Y HORA DE CREACION               : 11:30 a. m. 13/10/2023
REF. CATALOGO ACELEROGRAMAS, SMIS 1999 : REGISTRO NO.      /PAG.    


================================================================================
DATOS DE LA ESTACION:
NOMBRE DE LA ESTACION                  : UAM-RECTORIA.
CLAVE DE LA ESTACION                   : RIDR
LOCALIZACION DE LA ESTACION            : PROL. CANAL DE MIRAMONTES 3855, COL. EX
                                       : DE SAN JUAN DE DIOS, C.P.14387 CIUDAD DE MEXICO.
                                       :
                                       : 
                                       : 
COORDENADAS DE LA ESTACION             : 19.287271 LAT. N
                                       : 99.137132 LONG. W
ALTITUD (msnm)                         : 2240
TIPO DE SUELO                          : TRANSICION
                                       : 
                                       : 
INSTITUCION RESPONSABLE                : UNIVERSIDAD AUTONOMA METROPOLITANA
                                       : 

================================================================================
DATOS DEL ACELEROGRAFO: 
MODELO DEL ACELEROGRAFO                : ETNA2 KINEMETRICS
NUMERO DE SERIE DEL ACELEROGRAFO       : 103462
NUMERO DE CANALES                      : 3
ORIENTACION C1-C6 (rumbo;orientacion)  : /N90E/N00E/V
ORIENTACION C7-C12 (rumbo;orientacion) : 
VEL. DE MUESTREO, C1-C6 (muestras/s)   : /200/200/200
VEL. DE MUESTREO, C7-C12 (muestras/s)  : 
ESC. COMPLETA DE SENSORES, C1-C6, (g)  : /2/2/2
ESC. COMPLETA DE SENSORES, C7-C12 (g)  : 
FREC. NAT. DE SENSORES, C1-C6, (Hz)    : /200/200/202   
FREC. NAT. DE SENSORES, C7-C12 (Hz)    : 
AMORTIGUAMIENTO DE SENSORES, C1-C6     : /0.7/0.7/0.7      
AMORTIGUAMIENTO DE SENSORES, C7-C12    : 
INTERVALO DE MUESTREO, C1-C6 (s)       : /0.005/0.005/0.005
INTERVALO DE MUESTREO, C7-C12 (s)      : 
UMBRAL DE DISPARO, C1-C6 (Gal)         : /2/2/2
UMBRAL DE DISPARO, C7-C12 (Gal)        : 
MEMORIA DE PREEVENTO (s)               : 50
TIEMPO DE POSEVENTO (s)                : 60


================================================================================
DATOS DEL SISMO:
FECHA DEL SISMO [GMT]                  : 2023/10/07
HORA EPICENTRO (GMT)                   : 05:06:56
MAGNITUD(ES)                           : /M=6.0
COORDENADAS DEL EPICENTRO              : 16.9600 LAT. N
                                       : -95.1100 LONG. W
PROFUNDIDAD FOCAL (Km)                 : 110.3
FUENTE DE LOS DATOS EPICENTRALES       : SSN
                                       : INSTITUTO DE GEOFISICA, UNAM

================================================================================
DATOS DE ESTE REGISTRO:
HORA DE LA PRIMERA MUESTRA (GMT)       : 05:08:17.000
EXACTITUD DEL TIEMPO (s)               : 
DURACION DEL REGISTRO (s), C1-C6       : /171/171/171
DURACION DEL REGISTRO (s), C7-C12      : 
NUM. TOTAL DE MUESTRAS, C1-C6          : /34200/34200/34200
NUM. TOTAL DE MUESTRAS, C7-C12         : 
ACEL. MAX.(Gal), C1-C6                 : /3.074/-2.992/-1.454
ACEL. MAX., C1-C6, EN LA MUESTRA       : /18083/19937/19920
ACEL. MAX.(Gal), C7-C12                : 
ACEL. MAX., C7-C12,EN LA MUESTRA       : 
UNIDADES DE LOS DATOS                  : Gal (cm/s/s)
FACTOR DE DECIMACION                   : 1
FORMATO DATOS (FORTRAN,16 campos/dato) : 3E16.7


================================================================================
CALIDAD DEL ACELEROGRAMA:
REGISTRO DIGITAL COMPLETO CON TIEMPO ABSOLUTO CORRECTO


================================================================================
COMENTARIOS:














================================================================================
DATOS DE ACELERACION:
---------+---------+---------+---------+---------+---------+---------+---------+
   CANAL-1   	     CANAL-2          CANAL-3
     N90E             N00E              V
---------+---------+---------+---------+---------+---------+---------+---------+
[...]
   1.7888500e-01  -4.6724000e-02   4.7808400e-02
   1.7888500e-01  -2.4499700e-02   2.5807500e-02
   1.7888500e-01  -4.6148400e-03   4.5087400e-03
   1.6721400e-01   1.9714900e-02  -9.7684400e-03
   1.6698000e-01   2.1352500e-02  -3.0599100e-02
   1.4106900e-01  -9.2936300e-03  -5.9621600e-02
   1.0652000e-01  -2.9646400e-02  -7.2494400e-02
   7.5707000e-02  -5.6549500e-02  -6.8983600e-02
   8.1076000e-02  -9.4213800e-02  -8.0218100e-02
   8.5044400e-02  -1.1409900e-01  -8.6069400e-02
   6.7536700e-02  -1.4334100e-01  -8.2792700e-02
   7.7341000e-02  -1.6229000e-01  -9.2154800e-02
   7.9208500e-02  -1.5831300e-01  -9.3793200e-02
   5.6331800e-02  -1.4919000e-01  -9.4027200e-02
   4.5360400e-02  -1.6556500e-01  -9.8942300e-02
   5.4931200e-02  -1.8825800e-01  -1.1158100e-01
   7.0338000e-02  -2.2685800e-01  -1.2117700e-01
   8.0609100e-02  -2.2849500e-01  -1.2609200e-01
   7.9675400e-02  -2.2475200e-01  -1.3241200e-01
   7.6173800e-02  -2.6732900e-01  -1.0947500e-01
   7.4306400e-02  -2.8815000e-01  -8.7941900e-02
   5.6565300e-02  -3.7283600e-01  -9.4963400e-02
   4.7461300e-02  -4.1868800e-01  -1.0034700e-01
   3.5322700e-02  -3.9786800e-01  -9.2857000e-02
   3.6723300e-02  -3.8874400e-01  -1.0994300e-01
   8.5978100e-02  -3.5412100e-01  -1.3943300e-01
   1.1095600e-01  -3.5341900e-01  -1.5347600e-01
   1.1352300e-01  -4.0020700e-01  -1.6190200e-01
   1.3196500e-01  -4.3272500e-01  -1.7056200e-01
   1.1912600e-01  -4.6664600e-01  -1.8577600e-01
   8.5044400e-02  -5.0150300e-01  -1.6775400e-01
   9.8350200e-02  -4.9518700e-01  -1.4411400e-01
   1.0885500e-01  -5.4244200e-01  -1.2819900e-01
   1.1469100e-01  -6.0139500e-01  -1.1041100e-01
   1.4877200e-01  -6.4794900e-01  -9.5899600e-02
   1.6558000e-01  -6.7298100e-01  -7.7877600e-02
   1.7445000e-01  -6.5075600e-01  -4.5578400e-02
   1.9756000e-01  -6.2455500e-01  -1.2109000e-02
   2.0783100e-01  -6.0701000e-01  -3.2149800e-03
   2.1273300e-01  -5.9180400e-01   1.3402700e-02
   2.4308000e-01  -5.7425800e-01   1.6445400e-02
   2.8696600e-01  -5.9180400e-01   1.8785900e-02
   3.4135600e-01  -5.6443300e-01   3.0956600e-02
   3.9341200e-01  -5.8759300e-01   5.2021300e-02
   4.4220000e-01  -5.7776700e-01   7.7064900e-02
   4.6951200e-01  -5.4595100e-01   9.3682600e-02
   4.6764500e-01  -5.8268000e-01   1.1544900e-01
   4.8748700e-01  -5.5180000e-01   1.5149400e-01
   5.2226900e-01  -5.6536800e-01   1.8847400e-01
   5.3277300e-01  -5.7121700e-01   2.2194300e-01
   5.5798400e-01  -5.5109800e-01   2.6992400e-01
   5.7152300e-01  -5.4384600e-01   2.8864800e-01
   5.6405400e-01  -5.3331900e-01   3.0971300e-01
   5.8973100e-01  -5.1530500e-01   3.3007500e-01
   6.1867700e-01  -5.1320000e-01   3.2679900e-01
   6.5065800e-01  -5.1296600e-01   3.4131000e-01
   6.7680300e-01  -4.7623700e-01   3.5605500e-01
   7.1041700e-01  -4.6688000e-01   3.6284300e-01
   7.4986800e-01  -4.3553200e-01   3.5675700e-01
   7.7718000e-01  -4.1634900e-01   3.5184200e-01
   8.1196200e-01  -4.0207800e-01   3.5699100e-01
   8.8409300e-01  -3.8710600e-01   3.5348100e-01
   9.4128500e-01  -4.0652300e-01   3.5067200e-01
   9.7163200e-01  -4.1985800e-01   3.7080000e-01
   1.0173800e+00  -4.1143600e-01   3.9373700e-01
   1.0187900e+00  -4.2032600e-01   4.1807900e-01
   1.0304600e+00  -4.4067900e-01   4.5388900e-01
   1.0447000e+00  -4.1705100e-01   4.7074100e-01
   1.0407300e+00  -4.2102800e-01   4.6582600e-01
   1.0423600e+00  -3.8804200e-01   4.5669800e-01
   1.0440000e+00  -3.2675000e-01   4.4008000e-01
   1.0598700e+00  -3.0195200e-01   3.9912100e-01
   1.1002500e+00  -2.6990300e-01   3.6120400e-01
   1.1406400e+00  -2.6452200e-01   3.2937300e-01
   1.1691200e+00  -2.8089800e-01   3.0315900e-01
   1.2144000e+00  -2.8440700e-01   2.9379700e-01
   1.2246800e+00  -2.8557600e-01   3.0690400e-01
   1.2400800e+00  -3.0148400e-01   3.4716100e-01
   1.2494200e+00  -3.0125000e-01   3.7665200e-01
   1.1990000e+00  -3.2347500e-01   3.9069500e-01
   1.1460100e+00  -3.2558000e-01   3.8929100e-01
   1.1219600e+00  -2.8183300e-01   3.6892800e-01
   1.1130900e+00  -2.4978400e-01   3.3873500e-01
   1.1023600e+00  -1.9246800e-01   3.1392600e-01
   1.1278000e+00  -1.5574000e-01   2.6079600e-01
   1.1544100e+00  -1.4895600e-01   2.0228300e-01
   1.1616500e+00  -1.1035600e-01   1.6296200e-01
   1.1814900e+00  -1.1854400e-01   1.1474700e-01
   1.2113700e+00  -1.3889600e-01   9.0405900e-02
   1.2260800e+00  -1.2415800e-01   9.0874000e-02
   1.1915300e+00  -1.6439600e-01   1.1404500e-01
   1.1390000e+00  -1.7749600e-01   1.2855600e-01
   1.0213500e+00  -1.7796400e-01   1.3885500e-01
   8.6588500e-01  -1.9083100e-01   1.4891900e-01
   7.7111100e-01  -1.7001000e-01   1.3183300e-01
   6.8800800e-01  -1.5176300e-01   8.2214100e-02
   5.8436200e-01  -1.3772700e-01   1.5275100e-02
   5.1666600e-01  -1.2930500e-01  -5.9855600e-02
   4.7814900e-01  -8.0177400e-02  -1.5792300e-01
   4.2375900e-01  -4.0641600e-02  -2.2556500e-01
   4.0368400e-01  -3.6790800e-03  -2.7658800e-01
   4.1302100e-01   8.9536700e-03  -3.2082400e-01
   3.7590500e-01   6.3957200e-05  -3.4422900e-01
   3.1707900e-01   2.1694200e-03  -3.3416500e-01
   2.5195100e-01  -2.0288800e-02  -3.2105800e-01
   1.4036900e-01  -1.7247600e-02  -3.2480300e-01
  -3.1941500e-03  -2.9880300e-02  -2.9063100e-01
  -1.4372200e-01  -1.4908200e-02  -2.6348100e-01
  -2.9335400e-01  -3.6790800e-03  -2.7073700e-01
  -4.7380000e-01   1.4676000e-03  -3.0092900e-01
  -6.0942600e-01   2.1352500e-02  -3.2761100e-01
  -7.0420000e-01   4.5916200e-02  -3.5335700e-01
  -7.8753700e-01   8.4048300e-02  -3.8635800e-01
  -8.4449500e-01   8.8961100e-02  -4.0999800e-01
  -9.0075300e-01   1.1048400e-01  -4.2731800e-01
  -9.6868200e-01   1.2077700e-01  -4.2053000e-01
  -1.0706900e+00   1.2288200e-01  -3.8635800e-01
  -1.1713000e+00   1.2428600e-01  -3.2948400e-01
  -1.2635100e+00   1.1071700e-01  -2.7846000e-01
  -1.3860600e+00   1.1025000e-01  -2.1901100e-01
  -1.5102500e+00   1.3364400e-01  -1.5558300e-01
  -1.6073600e+00   1.4463900e-01  -1.3919900e-01
  -1.7457900e+00   1.6429000e-01  -1.4388000e-01
  -1.9215700e+00   2.0569700e-01  -1.5956200e-01
  -2.0410800e+00   2.3961800e-01  -2.0052100e-01
  -2.1412300e+00   2.9085100e-01  -2.5528900e-01
  -2.2467400e+00   3.3108900e-01  -3.0748300e-01
  -2.3002000e+00   3.7249600e-01  -3.5171900e-01
  -2.3363800e+00   4.0969200e-01  -3.6552800e-01
  -2.3947400e+00   4.2138900e-01  -3.4259100e-01
  -2.4559000e+00   4.1554100e-01  -3.0490800e-01
  -2.5140200e+00   4.1858200e-01  -2.6465100e-01
  -2.5777500e+00   4.2770600e-01  -2.2439400e-01
  -2.6484800e+00   4.5671400e-01  -1.8881800e-01
  -2.7061400e+00   4.7543000e-01  -1.7430700e-01
  -2.7346200e+00   4.6256300e-01  -1.7992400e-01
  -2.7829400e+00   4.8174600e-01  -1.8577600e-01
  -2.8403700e+00   4.7659900e-01  -1.8975500e-01
  -2.8536700e+00   4.8689300e-01  -2.1128700e-01
  -2.8959200e+00   5.0841500e-01  -2.1994700e-01
  -2.9269700e+00   5.2455700e-01  -2.1830900e-01
  -2.8882200e+00   5.4841900e-01  -2.1667100e-01
  -2.8639400e+00   5.5146000e-01  -2.1058500e-01
  -2.8772500e+00   5.5918000e-01  -2.0192500e-01
  -2.8760800e+00   5.8140400e-01  -1.9256300e-01
  -2.8732800e+00   6.1485800e-01  -1.9607400e-01
  -2.8772500e+00   6.2936200e-01  -1.8718000e-01
  -2.8618400e+00   6.3170100e-01  -1.7711600e-01
  -2.8359300e+00   5.9707800e-01  -1.7711600e-01
  -2.8062800e+00   5.7625800e-01  -1.8741400e-01
  -2.7871400e+00   5.8117000e-01  -1.9092500e-01
  -2.7278500e+00   5.9286700e-01  -1.8483900e-01
  -2.6613200e+00   6.3053200e-01  -1.6517900e-01
  -2.6102000e+00   6.3684800e-01  -1.4154000e-01
  -2.5156600e+00   6.2678900e-01  -1.3217800e-01
  -2.4456300e+00   6.5369200e-01  -1.1860300e-01
  -2.4348900e+00   6.7498000e-01  -9.5665600e-02
  -2.3987100e+00   7.0492400e-01  -6.1494000e-02
  -2.3212100e+00   7.5218000e-01  -4.6748700e-02
  -2.2507100e+00   7.4586400e-01  -2.4747800e-02
  -2.1536000e+00   7.6832200e-01   4.7427900e-03
  -2.0518200e+00   7.8540000e-01   8.2535800e-03
  -1.9661500e+00   7.9569300e-01   8.2535800e-03
  -1.8720800e+00   8.3733400e-01   2.6041500e-02
  -1.7728700e+00   8.4833000e-01   3.9850600e-02
  -1.6584800e+00   8.4061000e-01   6.0915300e-02
  -1.5513400e+00   8.2236200e-01   1.1708800e-01
  -1.4523600e+00   7.8610200e-01   1.6670700e-01
  -1.3426500e+00   7.5194600e-01   2.1398500e-01
  -1.2485700e+00   7.6457900e-01   2.5237000e-01
  -1.1650000e+00   7.5615700e-01   2.9660600e-01
  -1.0678900e+00   7.9288600e-01   3.2282000e-01
  -9.7125000e-01   8.3452700e-01   3.1673400e-01
  -8.7951000e-01   8.6353600e-01   3.1720200e-01
  -7.8263400e-01   9.5664400e-01   3.0198900e-01
  -6.6778400e-01   1.0106800e+00   2.7179600e-01
  -5.4289600e-01   1.0785300e+00   2.3364600e-01
  -3.9466500e-01   1.1194700e+00   2.1609200e-01
  -2.4339900e-01   1.1391200e+00   2.0462300e-01
  -9.1199200e-02   1.1299900e+00   2.0953800e-01
   7.1972000e-02   1.1056600e+00   2.2592200e-01
   2.2253800e-01   1.0740800e+00   2.3973100e-01
   3.7263700e-01   1.0228500e+00   2.6922200e-01
   4.8772000e-01   1.0240200e+00   3.1322400e-01
   5.8436200e-01   1.0060000e+00   3.5441700e-01
   6.6886600e-01   1.0116200e+00   3.5839600e-01
   7.1742100e-01   1.0132600e+00   3.6026800e-01
   7.6504100e-01   1.0118500e+00   3.4716100e-01
   8.5841500e-01   9.9945500e-01   3.1743600e-01
   9.5225600e-01   9.8144100e-01   2.8396700e-01
   1.0489000e+00   9.7535900e-01   2.5002900e-01
   1.1889600e+00   9.5407000e-01   2.0977200e-01
   1.3199200e+00   9.6015300e-01   1.7911200e-01
   1.4662800e+00   9.6179000e-01   1.8075000e-01
   1.6163800e+00   9.7255200e-01   1.8004800e-01
   1.7702100e+00   9.5711200e-01   1.8004800e-01
   1.8794600e+00   9.3980000e-01   1.8753800e-01
   1.9583600e+00   9.2740100e-01   1.9455900e-01
   2.0412300e+00   9.2038300e-01   1.7864400e-01
   2.0986600e+00   9.5594200e-01   1.6062200e-01
   2.1451100e+00   9.5173100e-01   1.3979100e-01
   2.1964700e+00   9.4003400e-01   1.0000200e-01
   2.2758300e+00   9.3816200e-01   6.3255800e-02
   2.3239200e+00   9.1430100e-01   3.2126900e-02
   2.4011900e+00   8.9628700e-01   9.4238400e-03
   2.4798600e+00   8.8318700e-01  -1.3045200e-02
   2.5459200e+00   8.6189800e-01  -8.5981800e-03
   2.6252900e+00   8.4996700e-01   6.6152100e-03
   2.6822500e+00   8.3405900e-01   1.4660600e-03
   2.7060600e+00   7.9616100e-01   8.0195200e-03
   2.7135300e+00   7.7955100e-01   1.9488100e-02
   2.7322000e+00   7.6177200e-01   2.5573400e-02
   2.7494700e+00   7.6598300e-01   1.2466500e-02
   2.7854200e+00   7.4305700e-01  -1.0704600e-02
   2.8027000e+00   7.0679600e-01  -4.1833600e-02
   2.8531200e+00   6.8691100e-01  -8.5367300e-02
   2.9229200e+00   6.3521000e-01  -1.2047500e-01
   2.9850100e+00   6.2515100e-01  -1.5300800e-01
   3.0415000e+00   5.9123000e-01  -1.7618000e-01
   3.0669500e+00   5.4584500e-01  -1.8109500e-01
   3.0741800e+00   5.3508400e-01  -1.7266900e-01
   3.0730200e+00   5.2993800e-01  -1.6939200e-01
   3.0415000e+00   5.0864900e-01  -1.4013500e-01
   3.0013500e+00   4.8665900e-01  -9.6835800e-02
   2.9577000e+00   4.4057300e-01  -7.2728500e-02
   2.9009700e+00   3.7483500e-01  -5.1429700e-02
   2.8771600e+00   3.2079500e-01  -1.7726200e-02
   2.8279100e+00   2.3657700e-01   2.6041500e-02
   2.8071300e+00   1.5844100e-01   4.1489000e-02
   2.8015300e+00   5.9718600e-02   4.1020900e-02
   2.7508800e+00  -9.2936300e-03   4.2659200e-02
   2.7114200e+00  -5.5145800e-02   3.8446300e-02
   2.6880800e+00  -6.7778600e-02   1.5509200e-02
   2.6374300e+00  -3.8536100e-02   1.0126000e-02
   2.6035800e+00  -2.2628200e-02   6.3811600e-03
   2.5706600e+00  -2.7540900e-02  -1.3425600e-03
   2.4805600e+00  -5.9824600e-02  -5.7895500e-03
   2.4016600e+00  -1.0193400e-01  -3.1769300e-02
   2.3099200e+00  -1.5995100e-01  -4.3237900e-02
   2.2265800e+00  -1.8615200e-01  -3.6450400e-02
   2.1728900e+00  -2.6007700e-01  -8.1300800e-03
   2.0981900e+00  -3.4336000e-01   4.2746900e-03
   2.0146200e+00  -4.4605900e-01   2.2998900e-02
   1.9396900e+00  -5.3472200e-01   4.3595500e-02
   1.8437500e+00  -6.0607400e-01   4.5467900e-02
   1.7417300e+00  -7.0573200e-01   6.4426100e-02
   1.6448600e+00  -7.5930500e-01   7.1447700e-02
   1.5258100e+00  -8.5171100e-01   7.0511500e-02
   1.4254300e+00  -9.0528300e-01   5.0617000e-02
   1.3173500e+00  -9.5558000e-01   3.8680400e-02
   1.1976000e+00  -9.7944200e-01   2.4871300e-02
   1.1119300e+00  -9.8950100e-01   8.0195200e-03
   1.0297600e+00  -1.0026000e+00   8.9557300e-03
   9.3895100e-01  -1.0070500e+00   8.4876300e-03
   8.4931100e-01  -1.0807400e+00   1.1062200e-02
   7.5430300e-01  -1.1111500e+00   2.9580200e-04
   6.4949100e-01  -1.1558300e+00   5.2109000e-03
   5.6708800e-01  -1.1841400e+00   1.2934600e-02
   4.7931700e-01  -1.2075300e+00   7.0833200e-03
   3.4859300e-01  -1.2845000e+00   1.4660600e-03
   2.2767300e-01  -1.3357300e+00  -1.0002500e-02
   1.0418600e-01  -1.3939800e+00  -3.3875800e-02
  -1.9301200e-02  -1.4506000e+00  -6.4068500e-02
  -1.1337600e-01  -1.4863900e+00  -7.4600900e-02
  -1.9787900e-01  -1.4931700e+00  -8.4665100e-02
  -2.8238300e-01  -1.4695500e+00  -1.0315500e-01
  -3.9116400e-01  -1.4145700e+00  -1.0736800e-01
  -4.9154100e-01  -1.3829900e+00  -1.0666600e-01
  -5.7137600e-01  -1.3626400e+00  -1.0830400e-01
  -6.2529900e-01  -1.3158500e+00  -9.5431500e-02
  -6.7525400e-01  -1.3158500e+00  -7.5771200e-02
  -7.3944900e-01  -1.3156100e+00  -5.9621600e-02
  -8.2045100e-01  -1.3053200e+00  -4.2535700e-02
  -9.0845600e-01  -1.3137400e+00  -2.4513700e-02
  -1.0067300e+00  -1.3102300e+00  -1.5151600e-02
  -1.1498300e+00  -1.3333900e+00  -3.2237400e-02
  -1.2623400e+00  -1.3588900e+00  -5.7515100e-02
  -1.3657600e+00  -1.3254400e+00  -8.4431100e-02
  -1.4757000e+00  -1.2838000e+00  -1.2609200e-01
  -1.5959200e+00  -1.2356100e+00  -1.6681700e-01
  -1.6629200e+00  -1.1853100e+00  -2.1386200e-01
  -1.6930300e+00  -1.1712700e+00  -2.4592700e-01
  -1.7289800e+00  -1.1186400e+00  -2.6137500e-01
  -1.7245500e+00  -1.0819100e+00  -2.5833200e-01
  -1.7245500e+00  -1.0388600e+00  -2.2767100e-01
  -1.7182400e+00  -9.7078600e-01  -1.8905200e-01
  -1.7450900e+00  -9.5908900e-01  -1.3334800e-01
  -1.7511600e+00  -9.2025500e-01  -9.2388900e-02
  -1.7873400e+00  -9.0832400e-01  -4.9323300e-02
  -1.8611100e+00  -8.9662700e-01  -1.6087800e-02
  -1.8884200e+00  -8.4562800e-01  -8.7445900e-04
  -1.9281000e+00  -7.7638200e-01   1.7001200e-03
  -1.9909000e+00  -7.4480000e-01  -3.4490300e-03
  -2.0368800e+00  -7.3544300e-01  -8.7445900e-04
  -2.0499500e+00  -7.1953500e-01  -2.5918000e-02
  -2.0749300e+00  -7.1509000e-01  -4.7450800e-02
  -2.0534600e+00  -6.3625200e-01  -5.0493500e-02
  -2.0161100e+00  -5.8034100e-01  -5.0025400e-02
  -2.0105000e+00  -4.9121000e-01  -5.6812900e-02
  -1.9880900e+00  -4.0745900e-01  -4.2067600e-02
  -1.9610200e+00  -3.4686900e-01  -2.2787700e-03
  -1.9369700e+00  -2.6920100e-01   2.7914000e-02
  -1.9262300e+00  -2.6101300e-01   5.2021300e-02
  -1.9176000e+00  -2.2989900e-01   7.8001100e-02
  -1.8937900e+00  -1.9434000e-01   7.3554100e-02
  -1.8790800e+00  -1.7632700e-01   4.1957100e-02
  -1.8592400e+00  -1.3491900e-01   1.8317800e-02
  -1.8230600e+00  -9.9126500e-02  -1.7960300e-02
  -1.7731000e+00  -1.0801600e-01  -5.4004300e-02
  -1.7110100e+00  -1.0006200e-01  -8.6303500e-02
  -1.6265000e+00  -1.1877700e-01  -1.0690000e-01
  -1.5583400e+00  -1.3679100e-01  -1.1532600e-01
  -1.5030200e+00  -1.2556200e-01  -1.2375200e-01
  -1.4236500e+00  -1.1480000e-01  -1.0104900e-01
  -1.3898000e+00  -4.3916700e-02  -5.8451300e-02
