**************************************************************************************
  	RED ACELEROGRÁFICA DE LA UNIVERSIDAD AUTONOMA METROPOLITANA (RA-UAM)
	   UNIDAD AZCAPOTZALCO. DIVISIÓN CBI-DEPARTAMENTO DE MATERIALES
     Av. San Pablo 420, Col. Nueva el Rosario, Azcapotzalco, C.P. 02128, Ciudad de México
		Área de Estructuras. e-mail: agb@azc.uam.mx
**************************************************************************************
ARCHIVO ESTANDAR DE ACELERACION:
VERSION DEL FORMATO                    : 2.0
NOMBRE DEL ARCHIVO                     : RIDR202305.111
FECHA Y HORA DE CREACION               : 11:30 a. m. 18/04/2023
REF. CATALOGO ACELEROGRAMAS, SMIS 1999 : REGISTRO NO.      /PAG.    


================================================================================
DATOS DE LA ESTACION:
NOMBRE DE LA ESTACION                  : UAM-RECTORIA.
CLAVE DE LA ESTACION                   : RIDR
LOCALIZACION DE LA ESTACION            : PROL. CANAL DE MIRAMONTES 3855, COL. EX
                                       : DE SAN JUAN DE DIOS, C.P.14387 CIUDAD DE MEXICO.
                                       :
                                       : 
                                       : 
COORDENADAS DE LA ESTACION             : 19.287271 LAT. N
                                       : 99.137132 LONG. W
ALTITUD (msnm)                         : 2240
TIPO DE SUELO                          : TRANSICION
                                       : 
                                       : 
INSTITUCION RESPONSABLE                : UNIVERSIDAD AUTONOMA METROPOLITANA
                                       : 

================================================================================
DATOS DEL ACELEROGRAFO: 
MODELO DEL ACELEROGRAFO                : ETNA2 KINEMETRICS
NUMERO DE SERIE DEL ACELEROGRAFO       : 103462
NUMERO DE CANALES                      : 3
ORIENTACION C1-C6 (rumbo;orientacion)  : /N90E/N00E/V
ORIENTACION C7-C12 (rumbo;orientacion) : 
VEL. DE MUESTREO, C1-C6 (muestras/s)   : /200/200/200
VEL. DE MUESTREO, C7-C12 (muestras/s)  : 
ESC. COMPLETA DE SENSORES, C1-C6, (g)  : /2/2/2
ESC. COMPLETA DE SENSORES, C7-C12 (g)  : 
FREC. NAT. DE SENSORES, C1-C6, (Hz)    : /200/200/202   
FREC. NAT. DE SENSORES, C7-C12 (Hz)    : 
AMORTIGUAMIENTO DE SENSORES, C1-C6     : /0.7/0.7/0.7      
AMORTIGUAMIENTO DE SENSORES, C7-C12    : 
INTERVALO DE MUESTREO, C1-C6 (s)       : /0.005/0.005/0.005
INTERVALO DE MUESTREO, C7-C12 (s)      : 
UMBRAL DE DISPARO, C1-C6 (Gal)         : /2/2/2
UMBRAL DE DISPARO, C7-C12 (Gal)        : 
MEMORIA DE PREEVENTO (s)               : 50
TIEMPO DE POSEVENTO (s)                : 60


================================================================================
DATOS DEL SISMO:
FECHA DEL SISMO [GMT]                  : 2023/05/11
HORA EPICENTRO (GMT)                   : 04:20:17
MAGNITUD(ES)                           : /M=3.0
COORDENADAS DEL EPICENTRO              : 19.3600 LAT. N
                                       : -99.2000 LONG. W
PROFUNDIDAD FOCAL (Km)                 : 1.1
FUENTE DE LOS DATOS EPICENTRALES       : SSN
                                       : INSTITUTO DE GEOFISICA, UNAM

================================================================================
DATOS DE ESTE REGISTRO:
HORA DE LA PRIMERA MUESTRA (GMT)       : 04:19:40.000
EXACTITUD DEL TIEMPO (s)               : 
DURACION DEL REGISTRO (s), C1-C6       : /124/124/124
DURACION DEL REGISTRO (s), C7-C12      : 
NUM. TOTAL DE MUESTRAS, C1-C6          : /24800/24800/24800
NUM. TOTAL DE MUESTRAS, C7-C12         : 
ACEL. MAX.(Gal), C1-C6                 : /-3.977/4.171/2.114
ACEL. MAX., C1-C6, EN LA MUESTRA       : /10756/10762/12430
ACEL. MAX.(Gal), C7-C12                : 
ACEL. MAX., C7-C12,EN LA MUESTRA       : 
UNIDADES DE LOS DATOS                  : Gal (cm/s/s)
FACTOR DE DECIMACION                   : 1
FORMATO DATOS (FORTRAN,16 campos/dato) : 3E16.7


================================================================================
CALIDAD DEL ACELEROGRAMA:
REGISTRO DIGITAL COMPLETO CON TIEMPO ABSOLUTO CORRECTO


================================================================================
COMENTARIOS:














================================================================================
DATOS DE ACELERACION:
---------+---------+---------+---------+---------+---------+---------+---------+
   CANAL-1   	     CANAL-2          CANAL-3
     N90E             N00E              V
---------+---------+---------+---------+---------+---------+---------+---------+
[...]
  -7.7805600e-01   1.4110900e-01   6.0428800e-01
  -7.2973500e-01   1.7082000e-01   6.1013900e-01
  -6.8654900e-01   2.1386500e-01   6.2348000e-01
  -6.1885300e-01   2.9574400e-01   6.5905600e-01
  -5.3364900e-01   2.9504200e-01   6.5835400e-01
  -4.2066700e-01   1.7643400e-01   6.0943700e-01
  -2.7780400e-01   9.2917900e-02   5.2096500e-01
  -1.5198300e-01   4.3807100e-05   4.3530200e-01
   3.4852600e-03  -7.8326000e-02   3.2600000e-01
   1.6175400e-01  -1.3564100e-01   2.2722900e-01
   2.6143100e-01  -2.1588300e-01   1.7012100e-01
   3.6647700e-01  -3.2677000e-01   1.2120400e-01
   4.7012200e-01  -4.2900200e-01   7.1818900e-02
   5.5299200e-01  -5.4082500e-01   1.1901500e-02
   6.3492800e-01  -6.2831800e-01  -3.6781300e-02
   7.3833900e-01  -6.3369900e-01  -1.0044400e-01
   7.9879900e-01  -6.9873400e-01  -1.5404100e-01
   8.8680400e-01  -7.4575600e-01  -1.7674500e-01
   1.0271000e+00  -7.6213200e-01  -2.0436300e-01
   1.1263100e+00  -7.7804000e-01  -2.3783200e-01
   1.2231800e+00  -7.7382900e-01  -2.7691900e-01
   1.3280000e+00  -7.2329800e-01  -3.0500500e-01
   1.3634800e+00  -5.8199800e-01  -3.2630400e-01
   1.3781900e+00  -4.8210600e-01  -3.3613400e-01
   1.4461200e+00  -3.4735700e-01  -3.3075100e-01
   1.4687600e+00  -1.6581900e-01  -3.1062200e-01
   1.4820600e+00   1.7355300e-02  -2.6966300e-01
   1.5273500e+00   2.3725900e-01  -2.4134300e-01
   1.5331900e+00   3.9820900e-01  -2.2004400e-01
   1.4888300e+00   4.9412500e-01  -1.9149000e-01
   1.4507800e+00   5.7927900e-01  -1.9266000e-01
   1.4136700e+00   6.2279100e-01  -2.2238500e-01
   1.3536700e+00   6.3659400e-01  -2.5023700e-01
   1.3181900e+00   7.3250900e-01  -2.4555600e-01
   1.2792100e+00   8.4035500e-01  -1.9406400e-01
   1.2357900e+00   8.5509400e-01  -1.1682700e-01
   1.1559600e+00   8.1742900e-01  -1.6886900e-02
   1.0320000e+00   7.1309200e-01   6.9010200e-02
   9.2205300e-01   5.7600400e-01   1.2260800e-01
   8.0510200e-01   4.2721800e-01   1.5420500e-01
   6.2792500e-01   2.6112100e-01   1.3829000e-01
   4.1176400e-01   1.2543600e-01   1.0505400e-01
   1.9256800e-01   1.9928700e-02   7.4393400e-02
  -6.0009100e-02  -8.6747800e-02   7.5329600e-02
  -2.7570300e-01  -2.5541800e-01   9.6628400e-02
  -4.2953700e-01  -4.3134100e-01   7.8138300e-02
  -6.0134600e-01  -6.0422300e-01   5.4967100e-02
  -7.5191100e-01  -7.2797700e-01   3.3668400e-02
  -8.6139200e-01  -7.9558500e-01   9.0928800e-03
  -9.8558000e-01  -8.6085500e-01   1.4242000e-02
  -1.0369400e+00  -8.4775400e-01   6.8308100e-02
  -9.9375000e-01  -8.7559300e-01   1.3314100e-01
  -9.6830600e-01  -9.7267800e-01   1.5514100e-01
  -9.6363700e-01  -1.0749100e+00   1.2728900e-01
  -9.1368200e-01  -1.1427500e+00   2.6880800e-02
  -8.3127900e-01  -1.1324600e+00  -9.4826300e-02
  -7.2483300e-01  -1.0391200e+00  -1.9757500e-01
  -6.0438000e-01  -9.2284900e-01  -2.7504600e-01
  -5.0843800e-01  -8.9594500e-01  -3.2724000e-01
  -4.3654000e-01  -9.0764200e-01  -3.9956200e-01
  -4.0852800e-01  -9.3150400e-01  -4.7305500e-01
  -3.6300800e-01  -9.0039000e-01  -5.2454600e-01
  -2.7103500e-01  -8.1734200e-01  -5.2758900e-01
  -1.6575500e-01  -7.9722300e-01  -5.1260900e-01
  -6.4677800e-02  -9.0834400e-01  -5.0067300e-01
   1.7724800e-02  -1.0466000e+00  -4.8709800e-01
   2.2160100e-02  -1.1069600e+00  -4.7562900e-01
  -2.4527000e-02  -1.1652100e+00  -4.4239400e-01
  -4.4835800e-02  -1.1904800e+00  -4.0564800e-01
  -1.2653800e-01  -1.2852200e+00  -3.5017700e-01
  -2.3648600e-01  -1.4957700e+00  -3.0243100e-01
  -3.0231500e-01  -1.7077200e+00  -2.7949300e-01
  -3.7281200e-01  -1.8880800e+00  -2.6287600e-01
  -4.6735400e-01  -2.0293800e+00  -2.1372500e-01
  -5.0306900e-01  -2.0750000e+00  -1.1963600e-01
  -4.9513200e-01  -2.1086900e+00  -1.0099400e-02
  -4.9723300e-01  -2.2588800e+00   9.8734900e-02
  -4.4097500e-01  -2.3484800e+00   1.6450400e-01
  -3.7164500e-01  -2.3475400e+00   1.9469600e-01
  -3.4876900e-01  -2.2425000e+00   2.2793200e-01
  -3.2659200e-01  -1.9975700e+00   3.1616900e-01
  -2.8060500e-01  -1.7982500e+00   4.0183200e-01
  -2.1897900e-01  -1.6588200e+00   4.5940900e-01
  -1.2537100e-01  -1.5186900e+00   5.0458100e-01
  -3.6432200e-02  -1.3542300e+00   4.8796400e-01
   3.1497500e-02  -1.1146800e+00   4.5121700e-01
   1.0806400e-01  -8.1032400e-01   3.9902400e-01
   1.9210100e-01  -5.4293000e-01   3.3770200e-01
   2.6633300e-01  -2.9027500e-01   2.7638000e-01
   3.6344200e-01  -2.6157400e-02   2.3776200e-01
   4.8833000e-01   2.0614500e-01   2.1388900e-01
   5.8147100e-01   3.9750700e-01   1.5443900e-01
   6.1018400e-01   5.2243100e-01   8.1649100e-02
   5.8473900e-01   6.8642300e-01  -7.9929300e-03
   5.8310500e-01   8.4058900e-01  -8.6166400e-02
   6.1345200e-01   1.0029400e+00  -1.4233900e-01
   6.4216400e-01   1.1629600e+00  -1.5076500e-01
   6.5757100e-01   1.2640200e+00  -1.0208200e-01
   6.9165200e-01   1.3636800e+00  -2.9525700e-02
   6.6784200e-01   1.3657800e+00   5.2860600e-02
   5.6489700e-01   1.3788800e+00   1.0084100e-01
   5.1937700e-01   1.4439200e+00   1.3431100e-01
   4.9510000e-01   1.5828800e+00   1.5654600e-01
   4.8226100e-01   1.6958700e+00   1.8767500e-01
   5.0443700e-01   1.6930700e+00   2.0546300e-01
   5.0420400e-01   1.6626500e+00   1.9937700e-01
   4.3557400e-01   1.6114200e+00   2.0195200e-01
   2.9644700e-01   1.7010200e+00   2.2091000e-01
   1.6502200e-01   1.8346000e+00   2.9159400e-01
   5.1106100e-02   1.9300500e+00   3.6204400e-01
  -5.2072300e-02   1.9361300e+00   4.1681200e-01
  -1.0202700e-01   1.8369400e+00   4.4560000e-01
  -1.3914400e-01   1.7924900e+00   4.8679300e-01
  -1.7626000e-01   1.7662900e+00   5.6824400e-01
  -1.8303000e-01   1.7174000e+00   6.2769300e-01
  -2.2084600e-01   1.6533000e+00   6.8737600e-01
  -3.0581600e-01   1.5744600e+00   7.3301600e-01
  -3.0278200e-01   1.4567900e+00   7.4986800e-01
  -2.6099700e-01   1.4146800e+00   7.2505800e-01
  -2.7570300e-01   1.4041500e+00   7.2248400e-01
  -2.7453600e-01   1.4366700e+00   7.6531500e-01
  -2.9834700e-01   1.5272000e+00   7.6180500e-01
  -3.8144900e-01   1.5597200e+00   7.3371800e-01
  -4.6361900e-01   1.6785600e+00   6.9299300e-01
  -4.8976300e-01   1.7938900e+00   6.3775700e-01
  -4.7319000e-01   1.8956600e+00   5.5911500e-01
  -4.0105800e-01   1.9721600e+00   4.8328300e-01
  -2.8200600e-01   2.0060800e+00   4.0347100e-01
  -2.5119300e-01   2.1099500e+00   3.2225500e-01
  -2.1477700e-01   2.1569700e+00   2.5063500e-01
  -1.3190700e-01   2.1422300e+00   1.4460900e-01
  -9.8292500e-02   2.0872500e+00   1.0497200e-02
  -4.7170200e-02   1.9957800e+00  -1.5053100e-01
   1.3756400e-02   1.9305100e+00  -2.8160000e-01
   8.1686100e-02   1.9047800e+00  -3.9183800e-01
   2.0213900e-01   1.8739000e+00  -4.9084300e-01
   3.6320900e-01   1.8563600e+00  -5.5005800e-01
   4.9743400e-01   1.8654800e+00  -5.9920900e-01
   7.1149400e-01   1.8156500e+00  -6.6240300e-01
   9.8041200e-01   1.7330700e+00  -7.2770300e-01
   1.1531500e+00   1.6614800e+00  -7.8855700e-01
   1.3868200e+00   1.5700100e+00  -8.7960300e-01
   1.6258600e+00   1.4815800e+00  -9.5613800e-01
   1.7159700e+00   1.4217000e+00  -9.7977800e-01
   1.7871600e+00   1.3110400e+00  -9.7439400e-01
   1.8849700e+00   1.1327800e+00  -9.5028700e-01
   1.8581300e+00   9.6949000e-01  -8.9809300e-01
   1.7836600e+00   8.4152500e-01  -8.2296300e-01
   1.7923000e+00   7.2642700e-01  -7.3893800e-01
   1.7892700e+00   5.9986500e-01  -6.7644600e-01
   1.7409400e+00   4.5318500e-01  -6.3829500e-01
   1.7220400e+00   3.1328900e-01  -5.9452800e-01
   1.6930900e+00   1.8719600e-01  -5.4327000e-01
   1.5789400e+00   5.9698400e-02  -4.7211800e-01
   1.4774000e+00  -9.1426600e-02  -3.8598700e-01
   1.3770200e+00  -2.4559300e-01  -2.9260000e-01
   1.2350900e+00  -3.8034200e-01  -2.1957600e-01
   1.1379800e+00  -5.5275600e-01  -1.6878700e-01
   1.0868600e+00  -7.1066500e-01  -1.2057200e-01
   1.0280300e+00  -8.7886800e-01  -6.7676200e-02
   1.0130900e+00  -1.0873100e+00   1.2603700e-02
   1.0994600e+00  -1.2770300e+00   9.3351700e-02
   1.1844300e+00  -1.5163500e+00   2.1435700e-01
   1.2752400e+00  -1.7570800e+00   3.3746800e-01
   1.3784200e+00  -2.0013100e+00   3.8170400e-01
   1.4085300e+00  -2.2090500e+00   4.2617400e-01
   1.4162400e+00  -2.2979500e+00   4.8445300e-01
   1.4321100e+00  -2.4179600e+00   5.1628400e-01
   1.4724900e+00  -2.6149300e+00   4.9779400e-01
   1.4848700e+00  -2.7674600e+00   4.6689900e-01
   1.4673600e+00  -2.9216300e+00   4.9896400e-01
   1.4767000e+00  -3.0924100e+00   5.4998700e-01
   1.4715600e+00  -3.2355800e+00   5.7432900e-01
   1.4449500e+00  -3.4765300e+00   5.4624300e-01
   1.3497100e+00  -3.6325700e+00   4.8960200e-01
   1.2451300e+00  -3.6576000e+00   4.2898200e-01
   1.1650600e+00  -3.6800600e+00   3.5549000e-01
   1.0371400e+00  -3.6634500e+00   3.2693600e-01
   8.9637500e-01  -3.6889500e+00   2.8153000e-01
   7.3833900e-01  -3.7142200e+00   2.0733500e-01
   5.4809000e-01  -3.7041600e+00   1.2541700e-01
   3.3379600e-01  -3.6697700e+00   1.4242000e-02
   1.5171700e-01  -3.6208800e+00  -5.5505500e-02
  -1.8837500e-03  -3.5546700e+00  -1.1308200e-01
  -1.2373700e-01  -3.5076500e+00  -1.4116900e-01
  -2.0403900e-01  -3.4732600e+00  -1.6317000e-01
  -3.5016900e-01  -3.4217900e+00  -2.2917200e-01
  -4.9396500e-01  -3.3172200e+00  -3.2138900e-01
  -6.1115000e-01  -3.0790700e+00  -3.9745600e-01
  -7.2436600e-01  -2.8378800e+00  -4.2484000e-01
  -8.0793600e-01  -2.6502600e+00  -4.7539500e-01
  -9.1975100e-01  -2.4649800e+00  -5.3227000e-01
  -1.1095300e+00  -2.1903300e+00  -5.4724900e-01
  -1.3130900e+00  -1.8663300e+00  -4.7001200e-01
  -1.4174400e+00  -1.5441900e+00  -3.6913500e-01
  -1.4699600e+00  -1.2901300e+00  -3.0547300e-01
  -1.5220100e+00  -1.1263800e+00  -2.4602400e-01
  -1.5822400e+00  -9.0202800e-01  -2.2753400e-01
  -1.6228600e+00  -6.9218400e-01  -2.0459700e-01
  -1.6905500e+00  -4.1239200e-01  -1.3508300e-01
  -1.8121700e+00  -1.7892000e-01  -5.8548200e-02
  -1.9681100e+00  -8.2536900e-02  -4.4505100e-02
  -2.1959400e+00   1.1233500e-01  -7.3995600e-02
  -2.4552900e+00   4.0967200e-01  -8.6400400e-02
  -2.7326100e+00   7.9076000e-01  -2.6951200e-02
  -2.9711800e+00   1.1297400e+00   6.3158900e-02
  -3.1612000e+00   1.3536200e+00   1.2986400e-01
  -3.3313700e+00   1.5405400e+00   2.2676100e-01
  -3.4994400e+00   1.7761100e+00   3.1827600e-01
  -3.6383400e+00   1.9946100e+00   4.1681200e-01
  -3.7123400e+00   2.1581400e+00   4.9966600e-01
  -3.7819000e+00   2.2896100e+00   5.5513700e-01
  -3.8855500e+00   2.4248300e+00   6.0569200e-01
  -3.9749500e+00   2.6737400e+00   6.3050100e-01
  -3.9770500e+00   2.9030000e+00   6.5016200e-01
  -3.9651500e+00   3.1865400e+00   6.5156600e-01
  -3.9401700e+00   3.4529900e+00   6.4384200e-01
  -3.8699100e+00   3.6691600e+00   6.3190600e-01
  -3.7319500e+00   3.9459100e+00   6.4922600e-01
  -3.5452000e+00   4.0956300e+00   6.9252500e-01
  -3.3677900e+00   4.1709600e+00   7.1452600e-01
  -3.1577000e+00   4.1625300e+00   7.3301600e-01
  -2.9305600e+00   4.1073200e+00   7.6040000e-01
  -2.6651500e+00   3.9126900e+00   7.2739900e-01
  -2.3514100e+00   3.5332400e+00   5.7315900e-01
  -2.0288000e+00   3.1764800e+00   3.6649100e-01
  -1.7535800e+00   2.8880300e+00   1.7620600e-01
  -1.4386800e+00   2.6466000e+00   1.4944200e-02
  -1.0423000e+00   2.3527800e+00  -1.2150800e-01
  -7.2530000e-01   2.0318100e+00  -2.3408700e-01
  -4.7692500e-01   1.7064000e+00  -3.0617500e-01
  -2.1571000e-01   1.4427500e+00  -3.4315600e-01
   5.2506700e-02   1.2630800e+00  -3.3941100e-01
   3.4826900e-01   1.0724200e+00  -2.7832300e-01
   6.7881300e-01   8.6328200e-01  -2.5515200e-01
   9.7527600e-01   5.8653100e-01  -3.1436700e-01
   1.1837300e+00   3.1095000e-01  -4.0400900e-01
   1.3585800e+00   1.6450300e-01  -5.0348100e-01
   1.5595600e+00   9.2917900e-02  -5.8914400e-01
   1.7218000e+00   1.5483800e-02  -7.1038300e-01
   1.8189100e+00  -9.4000000e-02  -8.3958000e-01
   1.8056100e+00  -1.4102200e-01  -9.6011700e-01
   1.6636800e+00  -8.6280000e-02  -1.0717600e+00
   1.5189500e+00   1.6419600e-02  -1.0921200e+00
   1.4645600e+00   1.6590700e-01  -1.0181600e+00
   1.4566200e+00   2.3515300e-01  -9.2922200e-01
   1.4272100e+00   2.1854400e-01  -9.0066800e-01
   1.3296300e+00   2.3351600e-01  -8.8194400e-01
   1.1687900e+00   3.1750000e-01  -8.6298500e-01
   1.0789200e+00   4.0405800e-01  -8.3653800e-01
   1.0576800e+00   4.5973500e-01  -8.2670700e-01
   1.0651500e+00   4.5224900e-01  -8.6439000e-01
   1.0044600e+00   4.0639700e-01  -9.0066800e-01
   8.4572000e-01   4.3634100e-01  -9.2407300e-01
   7.2830200e-01   4.3891500e-01  -9.3905200e-01
   6.6013900e-01   4.2487800e-01  -9.4279700e-01
   5.9594400e-01   4.1879600e-01  -9.0651900e-01
   5.1867700e-01   4.2441100e-01  -8.6064500e-01
   4.4327700e-01   4.1107600e-01  -7.7404600e-01
   3.1932300e-01   3.7247600e-01  -6.4625300e-01
   2.0330600e-01   3.6007700e-01  -5.1635400e-01
   1.8206300e-01   3.0135800e-01  -4.4122300e-01
   1.7996200e-01   2.5457000e-01  -4.3350000e-01
   1.4914900e-01   2.3187800e-01  -4.2694600e-01
   1.3070700e-01   2.1363100e-01  -4.4824500e-01
   1.5942000e-01   1.5818700e-01  -4.7656500e-01
   1.7552700e-01   1.0578500e-01  -4.9973700e-01
   1.8883300e-01   2.9286300e-02  -4.7375700e-01
   2.1591100e-01  -1.1887100e-02  -4.2881900e-01
   2.3855500e-01   7.2959400e-03  -3.5415600e-01
   2.5022600e-01  -3.9024100e-02  -2.1091600e-01
   2.8477500e-01  -6.8266600e-02  -9.3187900e-02
   3.7674800e-01  -1.2955900e-01   4.3294900e-04
   4.7105600e-01  -1.1505500e-01   8.1415000e-02
   6.0014600e-01  -7.0138100e-02   1.8205700e-01
   7.1896400e-01  -1.3056800e-02   2.7708300e-01
   8.1537300e-01   7.0693600e-02   3.6134100e-01
   9.0944800e-01   9.5491200e-02   4.5262200e-01
   9.6827300e-01   1.6076000e-01   5.3477400e-01
   1.0098200e+00   1.9748900e-01   6.2582000e-01
   1.0247600e+00   2.1012200e-01   7.2786700e-01
   9.8694800e-01   1.6333400e-01   8.5940400e-01
   8.8680400e-01   8.6133600e-02   9.8181400e-01
   8.1887500e-01  -9.0798400e-03   1.0915800e+00
   7.5117800e-01  -9.4000000e-02   1.1905900e+00
   7.0565900e-01  -2.2290100e-01   1.2460600e+00
   6.8138100e-01  -4.0397000e-01   1.2762500e+00
   6.2815800e-01  -5.2678900e-01   1.3059800e+00
   5.6303000e-01  -6.6036800e-01   1.3221300e+00
   4.5214800e-01  -7.6470500e-01   1.3195500e+00
   3.2772700e-01  -9.3127000e-01   1.3083200e+00
   2.0400600e-01  -1.0950300e+00   1.2647800e+00
   1.1016500e-01  -1.2824100e+00   1.2147000e+00
   3.5465900e-02  -1.5210300e+00   1.1601600e+00
   5.8196200e-03  -1.7577800e+00   1.0723900e+00
   3.7187000e-03  -2.0509100e+00   9.7596200e-01
   2.3180900e-03  -2.2549000e+00   9.0855500e-01
   3.3598400e-02  -2.4918800e+00   8.4325500e-01
   1.1950300e-01  -2.7948300e+00   7.2201600e-01
   2.3552000e-01  -3.0226900e+00   5.9118100e-01
   3.2726000e-01  -3.1894900e+00   4.8562300e-01
   4.6895500e-01  -3.3752400e+00   3.8474700e-01
   6.6784200e-01  -3.5839100e+00   2.6608200e-01
   8.7700000e-01  -3.7605400e+00   1.4039600e-01
   1.0990000e+00  -3.8864000e+00   1.5646300e-02
   1.3268300e+00  -3.9072200e+00  -1.1144400e-01
   1.5450900e+00  -3.8997300e+00  -2.0904400e-01
   1.7605500e+00  -3.8770400e+00  -3.0055800e-01
   1.9811500e+00  -3.8248700e+00  -4.1524400e-01
   2.2122500e+00  -3.7334000e+00  -5.1939700e-01
   2.4288800e+00  -3.6257900e+00  -6.0857100e-01
   2.6121200e+00  -3.5752600e+00  -7.2910800e-01
   2.7414500e+00  -3.4819200e+00  -8.4496300e-01
   2.8040100e+00  -3.3141800e+00  -9.0020000e-01
   2.8735700e+00  -3.1282000e+00  -9.1073200e-01
