**************************************************************************************
  	RED ACELEROGRÁFICA DE LA UNIVERSIDAD AUTONOMA METROPOLITANA (RA-UAM)
	   UNIDAD AZCAPOTZALCO. DIVISIÓN CBI-DEPARTAMENTO DE MATERIALES
     Av. San Pablo 420, Col. Nueva el Rosario, Azcapotzalco, C.P. 02128, Ciudad de México
		Área de Estructuras. e-mail: agb@azc.uam.mx
**************************************************************************************
ARCHIVO ESTANDAR DE ACELERACION:
VERSION DEL FORMATO                    : 2.0
NOMBRE DEL ARCHIVO                     : RIDR202312.122
FECHA Y HORA DE CREACION               : 11:30 a. m. 19/12/2023
REF. CATALOGO ACELEROGRAMAS, SMIS 1999 : REGISTRO NO.      /PAG.    


================================================================================
DATOS DE LA ESTACION:
NOMBRE DE LA ESTACION                  : UAM-RECTORIA.
CLAVE DE LA ESTACION                   : RIDR
LOCALIZACION DE LA ESTACION            : PROL. CANAL DE MIRAMONTES 3855, COL. EX
                                       : DE SAN JUAN DE DIOS, C.P.14387 CIUDAD DE MEXICO.
                                       :
                                       : 
                                       : 
COORDENADAS DE LA ESTACION             : 19.287271 LAT. N
                                       : 99.137132 LONG. W
ALTITUD (msnm)                         : 2240
TIPO DE SUELO                          : TRANSICION
                                       : 
                                       : 
INSTITUCION RESPONSABLE                : UNIVERSIDAD AUTONOMA METROPOLITANA
                                       : 

================================================================================
DATOS DEL ACELEROGRAFO: 
MODELO DEL ACELEROGRAFO                : ETNA2 KINEMETRICS
NUMERO DE SERIE DEL ACELEROGRAFO       : 103462
NUMERO DE CANALES                      : 3
ORIENTACION C1-C6 (rumbo;orientacion)  : /N90E/N00E/V
ORIENTACION C7-C12 (rumbo;orientacion) : 
VEL. DE MUESTREO, C1-C6 (muestras/s)   : /200/200/200
VEL. DE MUESTREO, C7-C12 (muestras/s)  : 
ESC. COMPLETA DE SENSORES, C1-C6, (g)  : /2/2/2
ESC. COMPLETA DE SENSORES, C7-C12 (g)  : 
FREC. NAT. DE SENSORES, C1-C6, (Hz)    : /200/200/202   
FREC. NAT. DE SENSORES, C7-C12 (Hz)    : 
AMORTIGUAMIENTO DE SENSORES, C1-C6     : /0.7/0.7/0.7      
AMORTIGUAMIENTO DE SENSORES, C7-C12    : 
INTERVALO DE MUESTREO, C1-C6 (s)       : /0.005/0.005/0.005
INTERVALO DE MUESTREO, C7-C12 (s)      : 
UMBRAL DE DISPARO, C1-C6 (Gal)         : /2/2/2
UMBRAL DE DISPARO, C7-C12 (Gal)        : 
MEMORIA DE PREEVENTO (s)               : 50
TIEMPO DE POSEVENTO (s)                : 60


================================================================================
DATOS DEL SISMO:
FECHA DEL SISMO [GMT]                  : 2023/12/12
HORA EPICENTRO (GMT)                   : 17:07:52
MAGNITUD(ES)                           : /M=3.0
COORDENADAS DEL EPICENTRO              : 19.3630 LAT. N
                                       : -99.2000 LONG. W
PROFUNDIDAD FOCAL (Km)                 : 1.0
FUENTE DE LOS DATOS EPICENTRALES       : SSN
                                       : INSTITUTO DE GEOFISICA, UNAM

================================================================================
DATOS DE ESTE REGISTRO:
HORA DE LA PRIMERA MUESTRA (GMT)       : 17:07:17.000
EXACTITUD DEL TIEMPO (s)               : 
DURACION DEL REGISTRO (s), C1-C6       : /175/175/175
DURACION DEL REGISTRO (s), C7-C12      : 
NUM. TOTAL DE MUESTRAS, C1-C6          : /35000/35000/35000
NUM. TOTAL DE MUESTRAS, C7-C12         : 
ACEL. MAX.(Gal), C1-C6                 : /-2.035/-3.136/1.494
ACEL. MAX., C1-C6, EN LA MUESTRA       : /10769/11479/15362
ACEL. MAX.(Gal), C7-C12                : 
ACEL. MAX., C7-C12,EN LA MUESTRA       : 
UNIDADES DE LOS DATOS                  : Gal (cm/s/s)
FACTOR DE DECIMACION                   : 1
FORMATO DATOS (FORTRAN,16 campos/dato) : 3E16.7


================================================================================
CALIDAD DEL ACELEROGRAMA:
REGISTRO DIGITAL COMPLETO CON TIEMPO ABSOLUTO CORRECTO


================================================================================
COMENTARIOS:














================================================================================
DATOS DE ACELERACION:
---------+---------+---------+---------+---------+---------+---------+---------+
   CANAL-1   	     CANAL-2          CANAL-3
     N90E             N00E              V
---------+---------+---------+---------+---------+---------+---------+---------+
[...]
   5.9059500e-01  -1.1292700e+00  -4.7543900e-02
   5.0422400e-01  -1.1564100e+00  -2.2032300e-02
   4.6664100e-01  -1.1545400e+00   4.9587700e-02
   4.6080500e-01  -1.1086900e+00   4.5842900e-02
   4.6920900e-01  -1.1671700e+00   3.0161400e-02
   4.1481800e-01  -1.1994600e+00   6.7609700e-02
   3.7583500e-01  -1.1929000e+00   8.8206300e-02
   3.5062400e-01  -1.2144300e+00   1.1980300e-01
   3.5902700e-01  -1.1030700e+00   1.7761400e-01
   4.3069200e-01  -1.0740600e+00   1.9750900e-01
   5.1519500e-01  -1.0787400e+00   1.3642100e-01
   5.6888600e-01  -1.0551100e+00   1.0342000e-01
   5.4367500e-01  -1.1217900e+00   8.7270100e-02
   3.5132400e-01  -1.2074100e+00   3.3438100e-02
   5.5794900e-02  -1.3066000e+00  -4.9182300e-02
  -2.4740300e-02  -1.1868200e+00  -5.8826600e-03
  -2.0538400e-02  -8.9884200e-01   1.6965600e-01
   3.1984500e-02  -8.1298700e-01   2.8668300e-01
   1.4823500e-01  -8.6515500e-01   3.5291900e-01
   1.9375500e-01  -9.2200200e-01   3.5736600e-01
   1.2535900e-01  -1.0387400e+00   2.9838500e-01
   3.0350400e-02  -1.0102000e+00   2.5625600e-01
  -3.2443600e-02  -9.5054300e-01   2.2278600e-01
  -1.1484600e-01  -9.6458000e-01   1.6310300e-01
  -1.0387500e-01  -9.1475000e-01   1.7995500e-01
  -5.9522100e-02  -8.5252200e-01   1.9704100e-01
  -6.1389600e-02  -7.8210600e-01   2.0336000e-01
  -9.8972700e-02  -7.6385900e-01   1.9165700e-01
  -3.5711700e-02  -7.3251100e-01   1.7574200e-01
   7.2403500e-03  -7.3859400e-01   3.1289600e-01
  -1.9137800e-02  -8.3123400e-01   3.8358000e-01
  -1.8090800e-01  -1.0368700e+00   3.1032200e-01
  -3.6812400e-01  -1.0703200e+00   1.8814700e-01
  -2.7988500e-01  -9.3697500e-01   9.8972700e-02
   1.2609400e-02  -7.3882800e-01   8.0248500e-02
   2.8666200e-01  -4.5201700e-01   1.3291000e-01
   2.7055500e-01  -3.8628000e-01   2.3425500e-01
   1.3586300e-01  -4.1622500e-01   2.6912900e-01
   3.2451400e-02  -5.4091500e-01   2.7170300e-01
  -5.9989000e-02  -6.1179800e-01   1.9891300e-01
  -1.0457500e-01  -5.5892800e-01   1.4835800e-01
   3.8616900e-06  -4.0406000e-01   2.0242400e-01
   1.2022300e-01  -2.5433800e-01   2.9557700e-01
   1.7297900e-01  -2.3328400e-01   3.7632500e-01
   1.5267100e-01  -3.2381800e-01   3.2787600e-01
   1.3026100e-01  -4.7517800e-01   2.5414900e-01
   1.5710600e-01  -4.6043900e-01   1.2378200e-01
   1.9492200e-01  -3.7130800e-01  -1.0792900e-01
   3.9334200e-01  -9.8534500e-02  -8.9673300e-02
   3.9544300e-01   1.8991300e-01   1.3688900e-01
   2.7732500e-01   1.7119800e-01   2.7544800e-01
   2.8456100e-01  -9.3855700e-02   3.2225800e-01
   2.6238500e-01  -3.4955200e-01   2.2512700e-01
   2.8316100e-01  -4.4125600e-01   5.6141200e-02
   4.1715300e-01  -3.4721200e-01  -1.2735600e-01
   4.6080500e-01  -1.5912500e-01  -2.6076500e-01
   3.9357600e-01  -1.2678600e-02  -2.8066000e-01
   4.2462300e-01   3.1068100e-02  -2.8159600e-01
   5.0492400e-01  -3.3967100e-02  -2.6100000e-01
   6.1627300e-01   1.7967500e-02  -2.3150900e-01
   6.1767400e-01   6.3585700e-02  -1.5380400e-01
   5.7542200e-01   4.7677800e-02  -9.3652200e-02
   5.6538400e-01   2.4751700e-02  -6.6034100e-02
   5.2710100e-01  -8.9355800e-03  -2.4138700e-02
   5.4180700e-01  -2.3673800e-02  -2.8117600e-02
   5.5137800e-01  -1.6655600e-02  -6.6034100e-02
   5.6818500e-01  -4.2622900e-02  -1.5871900e-01
   5.4414100e-01  -6.7186600e-02  -2.6006300e-01
   5.2266500e-01   1.7733600e-02  -3.2887500e-01
   4.7737900e-01   2.4517800e-02  -3.6491900e-01
   3.9544300e-01   1.0452500e-01  -3.7381300e-01
   3.2214500e-01   1.2838700e-01  -3.6960000e-01
   1.9865700e-01   1.4663400e-01  -3.2606600e-01
   2.4557800e-01   3.3097900e-01  -2.8276600e-01
   3.1350700e-01   3.9905500e-01  -2.1723200e-01
   2.9880100e-01   5.6374900e-01  -1.5239900e-01
   2.4931300e-01   5.2374500e-01  -1.1869600e-01
   8.7775500e-02   3.1413500e-01  -1.1167400e-01
   3.1984500e-02   2.1611400e-01  -1.8703900e-01
   8.8942700e-02   9.5401600e-02  -2.5116900e-01
   1.1765500e-01   2.4816400e-01  -2.3946700e-01
   1.2142500e-02   3.9484400e-01  -1.6995300e-01
  -1.2885200e-01   4.3672000e-01  -1.4514400e-01
  -2.5677500e-01   5.1415400e-01  -8.0779400e-02
  -3.5108300e-01   5.6796000e-01   4.8183400e-02
  -3.1443300e-01   6.4375600e-01   1.7246500e-01
  -3.2727200e-01   6.5919600e-01   2.5883000e-01
  -4.3582000e-01   6.0632600e-01   1.4554900e-01
  -4.9511200e-01   4.8818600e-01   9.1483000e-02
  -5.0188200e-01   4.9239700e-01   4.5608800e-02
  -6.0902900e-01   4.8537900e-01  -4.3331000e-02
  -7.9951200e-01   5.2772200e-01  -5.0118500e-02
  -9.2766800e-01   6.9966800e-01  -5.7608200e-02
  -9.9536400e-01   6.9545700e-01  -3.1862500e-02
  -9.1086100e-01   6.4399000e-01  -6.5800000e-02
  -7.6869800e-01   6.2784800e-01  -9.7397100e-02
  -8.4246400e-01   8.1687200e-01  -2.2968500e-02
  -9.9559800e-01   1.1001700e+00   1.2939900e-01
  -1.0378500e+00   1.1890700e+00   2.1763700e-01
  -1.0658600e+00   1.1652100e+00   2.8878900e-01
  -1.0534900e+00   1.1181900e+00   3.9551700e-01
  -1.0103000e+00   1.1109300e+00   4.7415800e-01
  -1.0892100e+00   1.0947900e+00   5.2260700e-01
  -1.1431300e+00   9.8086400e-01   4.7345600e-01
  -1.2232000e+00   7.4060700e-01   3.5291900e-01
  -1.3562600e+00   5.3333700e-01   9.7334300e-02
  -1.4111100e+00   4.8116800e-01  -2.1512500e-01
  -1.3333800e+00   7.1814900e-01  -3.7662100e-01
  -1.1760400e+00   1.1301200e+00  -3.4923700e-01
  -1.0056400e+00   1.5098000e+00  -5.8778400e-02
  -9.3560500e-01   1.6426800e+00   2.4829800e-01
  -1.1797800e+00   1.4805600e+00   3.6321800e-01
  -1.2442100e+00   1.3846400e+00   4.9615900e-01
  -1.0429800e+00   1.3287300e+00   5.3875700e-01
  -9.5988200e-01   1.2908300e+00   3.6509000e-01
  -9.6851900e-01   1.1364300e+00   1.2752700e-01
  -9.4704300e-01   1.1088300e+00  -4.4969400e-02
  -9.3023600e-01   1.2721200e+00  -1.0441900e-01
  -9.3443800e-01   1.3313100e+00  -8.4992300e-02
  -9.1109400e-01   1.4595000e+00  -5.5969800e-02
  -1.0675000e+00   1.5271100e+00  -1.5010700e-02
  -1.0985400e+00   1.6705200e+00   6.7141600e-02
  -8.6253900e-01   1.7879600e+00   9.9206800e-02
  -6.2163400e-01   1.8588400e+00   1.3595300e-01
  -4.4772500e-01   1.9580300e+00   2.9253400e-01
  -3.3474200e-01   1.8515900e+00   4.5590200e-01
  -3.2657200e-01   1.5165900e+00   4.3764600e-01
  -4.5659600e-01   1.0257800e+00   1.9914700e-01
  -5.1098600e-01   8.1687200e-01  -1.0839800e-01
  -5.1705500e-01   9.8788200e-01  -3.3215100e-01
  -4.4048800e-01   1.3738800e+00  -4.4051800e-01
  -2.7311500e-01   1.6630300e+00  -4.9973300e-01
  -1.9584800e-01   1.7519300e+00  -5.1962700e-01
  -2.0752000e-01   1.8230500e+00  -4.5666700e-01
  -1.4472600e-01   1.8576700e+00  -2.7504300e-01
  -5.1585300e-02   1.9334700e+00  -9.5056500e-02
  -3.6645500e-02   1.9203700e+00   4.4672600e-02
   8.0072200e-02   1.8080700e+00   1.3852800e-01
   2.1943300e-01   1.5799800e+00   3.9475300e-03
   2.6752100e-01   1.3226500e+00  -2.2144500e-01
   2.3180500e-01   1.3249900e+00  -3.7849400e-01
   1.0434900e-01   1.4740100e+00  -4.8873200e-01
   6.3731700e-02   1.6672400e+00  -5.4888400e-01
   8.8709300e-02   1.8225800e+00  -5.0745600e-01
   1.5080300e-01   1.9114800e+00  -3.8668600e-01
   2.7148900e-01   1.8181300e+00  -2.2308300e-01
   3.1327400e-01   1.5619700e+00  -8.5226300e-02
   2.7382300e-01   1.2866200e+00  -1.6503800e-01
   3.1023900e-01   1.2157400e+00  -3.3004500e-01
   4.3886200e-01   1.5402100e+00  -2.9915000e-01
   4.3302600e-01   1.8958000e+00  -9.3418200e-02
   4.5800400e-01   1.9416500e+00   7.2992900e-02
   4.8951800e-01   1.5797500e+00   1.1044100e-01
   4.8695000e-01   1.2803100e+00   1.5416100e-02
   5.4577600e-01   1.1909400e+00  -1.2337700e-01
   5.5651400e-01   1.2920000e+00  -2.0412500e-01
   5.3923900e-01   1.4014900e+00  -2.1091200e-01
   4.2765700e-01   1.2901300e+00  -1.8516700e-01
   3.9871100e-01   1.1932800e+00  -1.9710300e-01
   4.0618100e-01   1.0786500e+00  -2.0155000e-01
   4.0268000e-01   1.2449800e+00  -1.5169700e-01
   4.0268000e-01   1.3607800e+00  -1.4356700e-03
   4.7714600e-01   1.2896600e+00   1.3103800e-01
   5.8452600e-01   1.0718700e+00   1.0646200e-01
   4.4002900e-01   8.3114200e-01   1.0969100e-02
   3.2961400e-01   8.5851300e-01  -1.1050400e-01
   3.6416300e-01   7.7523100e-01  -2.5023300e-01
   4.2905800e-01   8.2155100e-01  -3.6913200e-01
   4.7481100e-01   8.9407200e-01  -4.2109100e-01
   5.6024800e-01   9.8039600e-01  -3.2021500e-01
   5.7425500e-01   1.0449600e+00  -1.4771800e-01
   4.1785300e-01   8.7067800e-01  -7.4694000e-02
   3.5902700e-01   6.9148000e-01  -1.0563700e-02
   3.4852300e-01   6.0679400e-01   1.1465400e-01
   3.5575900e-01   5.7334000e-01   2.3355300e-01
   3.9100800e-01   4.1543100e-01   2.8387400e-01
   4.3092500e-01   3.2021800e-01   3.2389700e-01
   4.3162600e-01   2.1658200e-01   3.6930300e-01
   3.8423800e-01   6.1246400e-02   2.7053300e-01
   3.3498300e-01  -1.1654800e-01   8.6099800e-02
   3.1584200e-01  -3.2592400e-01  -1.1776000e-01
   3.8657300e-01  -3.5961100e-01  -2.5257400e-01
   4.5707000e-01  -3.6031300e-01  -3.2419400e-01
   5.5184500e-01  -3.1375900e-01  -3.7357900e-01
   6.0156700e-01  -1.8181700e-01  -2.4812700e-01
   6.4101700e-01  -1.7105600e-01  -1.0863200e-01
   6.2491000e-01  -3.2194700e-01  -2.7649500e-02
   5.4507500e-01  -4.8149400e-01   9.0780900e-02
   4.2182100e-01  -6.6420100e-01   1.2120800e-01
   1.7741500e-01  -8.2211000e-01   1.0295200e-01
   1.3236200e-01  -8.6047600e-01   9.8738700e-02
   1.7881500e-01  -9.0492500e-01   1.2841500e-02
   2.3717400e-01  -9.1007200e-01  -8.6912900e-03
   4.2765700e-01  -8.9439800e-01   1.4625100e-01
   4.4189700e-01  -9.9522600e-01   1.9750900e-01
   2.0239200e-01  -1.3781900e+00   3.4374300e-02
   3.8987600e-02  -1.8147200e+00  -2.4250900e-01
   1.7227900e-01  -1.8479400e+00  -4.9645600e-01
   4.7364400e-01  -1.5746900e+00  -5.8563000e-01
   7.0871300e-01  -1.1325500e+00  -3.1483200e-01
   6.8653700e-01  -7.6502900e-01   1.9025300e-01
   2.9319900e-01  -8.8621000e-01   4.0324100e-01
  -3.0109300e-02  -1.2315000e+00   5.9563100e-01
  -2.1705600e-02  -1.5700200e+00   6.4876100e-01
  -8.7534400e-02  -2.0086500e+00   3.2928000e-01
  -4.7383500e-02  -2.2713700e+00   1.2120800e-01
   1.2535900e-01  -2.2638800e+00  -2.2734400e-02
   1.0575000e-01  -2.2241100e+00  -1.2805800e-01
   5.2059900e-02  -2.4599200e+00  -2.3431800e-01
   3.0583900e-02  -2.6667300e+00  -3.7077000e-01
   6.8400400e-02  -2.5666000e+00  -4.6322100e-01
   2.7055500e-01  -2.3539500e+00  -4.0938900e-01
   4.9068500e-01  -1.9730900e+00  -1.8891100e-01
   4.2975800e-01  -1.7700300e+00   6.3864900e-02
   2.6378600e-01  -1.7983400e+00   3.3606800e-01
   1.5407100e-01  -1.9445500e+00   5.4835300e-01
   9.9213800e-02  -2.1258600e+00   7.1663600e-01
   1.0505000e-01  -2.2971000e+00   7.5900000e-01
  -2.8708700e-02  -2.6524500e+00   5.8626900e-01
  -1.6760300e-01  -2.9497900e+00   3.0189600e-01
  -2.2946300e-01  -3.1362400e+00   9.3307300e-03
  -1.1087800e-01  -3.1154200e+00  -2.1161500e-01
   1.0481600e-01  -2.9030000e+00  -2.3080700e-01
   2.0892800e-01  -2.6510500e+00  -4.3565100e-02
   1.9655600e-01  -2.4468200e+00   1.9774300e-01
   1.0271500e-01  -2.3705600e+00   4.0160200e-01
   9.3144500e-02  -2.3116000e+00   4.9171200e-01
   9.2911100e-02  -2.3088000e+00   4.8749900e-01
   9.2210800e-02  -2.3427200e+00   4.0534700e-01
   1.3726400e-01  -2.5195800e+00   2.3472300e-01
   2.5001300e-01  -2.6061300e+00   5.8013600e-02
   3.3825200e-01  -2.4690500e+00  -1.0329700e-02
   3.1981000e-01  -2.2709000e+00   4.2800200e-02
   2.4534400e-01  -2.2374500e+00   7.4865300e-02
   2.2737000e-01  -2.5149000e+00  -1.8287400e-02
   2.7008800e-01  -2.6529200e+00  -7.8204800e-02
   2.0239200e-01  -2.6157300e+00  -2.9756000e-02
   1.9235500e-01  -2.5137300e+00   1.6352300e-02
   2.0682800e-01  -2.4706800e+00   9.5696000e-02
   1.4963600e-01  -2.4952500e+00   8.5631700e-02
   1.4053200e-01  -2.4407400e+00  -3.2798700e-02
   1.7251300e-01  -2.3368700e+00  -1.7323000e-01
   3.4362100e-01  -2.0407000e+00  -3.0570300e-01
   4.3045800e-01  -1.7599700e+00  -3.2559800e-01
   3.4268700e-01  -1.7634800e+00  -4.1009100e-01
   3.7536800e-01  -1.9412800e+00  -5.7720400e-01
   4.4726600e-01  -1.9001000e+00  -5.8492800e-01
   4.3792800e-01  -1.5508300e+00  -3.1553400e-01
   3.1654200e-01  -1.3854400e+00   7.6035600e-02
   1.2675900e-01  -1.6577400e+00   3.0236400e-01
  -6.9644400e-04  -2.0772000e+00   3.0213000e-01
   1.3076200e-02  -2.2933600e+00   1.4742200e-01
   9.8046700e-02  -2.2229400e+00   1.9629000e-02
   1.8558500e-01  -1.8802200e+00  -6.2289200e-02
   2.9553300e-01  -1.5695500e+00  -2.2612600e-01
   4.9208500e-01  -1.2860100e+00  -2.9306500e-01
   7.1244800e-01  -1.0272800e+00  -2.4063700e-01
   7.6940600e-01  -9.7604300e-01  -2.0880600e-01
   7.3369100e-01  -9.1287900e-01  -1.3882400e-01
   5.6515100e-01  -8.4667400e-01  -4.8714200e-02
   3.2798000e-01  -7.1028700e-01   7.5801500e-02
   1.3329500e-01  -7.5146000e-01   2.0944500e-01
  -3.0342700e-02  -1.0990900e+00   2.2021200e-01
  -6.5824900e-02  -1.3765500e+00   1.4765600e-01
  -4.7850400e-02  -1.4174900e+00   1.2308000e-01
  -4.9484400e-02  -1.1999200e+00   1.4110200e-01
  -1.4702600e-02  -9.9943700e-01   6.6673500e-02
   8.1706200e-02  -8.9743900e-01  -7.6566400e-02
   2.8339400e-01  -6.5601300e-01  -8.4992300e-02
   5.8592600e-01  -2.5480600e-01   4.3502300e-02
   7.9251700e-01   5.5865700e-02   2.2770100e-01
   8.5951300e-01   2.1634800e-01   4.1541100e-01
   7.8224500e-01   1.6792300e-01   5.1792600e-01
   6.1277100e-01   1.4692300e-02   5.8626900e-01
   5.3994000e-01  -3.2563500e-02   5.9563100e-01
   4.9301900e-01  -1.2333200e-01   5.2635200e-01
   3.6953200e-01  -2.0591300e-01   4.3015700e-01
   2.3250500e-01  -3.5890900e-01   2.7591600e-01
   1.1018500e-01  -4.9295700e-01   1.1933500e-01
   5.6063100e-03  -3.0065800e-01   7.2758900e-02
   5.8397400e-03   7.9025800e-02   1.9446600e-01
   1.1975600e-01   5.1181400e-01   4.8679700e-01
   1.6971100e-01   7.7523100e-01   7.7280900e-01
   1.2535900e-01   7.3335500e-01   8.5121600e-01
   7.4469700e-02   6.0585800e-01   7.5197800e-01
   1.6344300e-02   5.6842800e-01   4.7439200e-01
   4.2489100e-02   5.4433200e-01   3.8353200e-02
   1.4683500e-01   6.3744000e-01  -3.1834200e-01
   2.1289700e-01   9.1606200e-01  -4.4777300e-01
   2.2947100e-01   1.2222900e+00  -3.5508800e-01
   1.9468900e-01   1.4475700e+00  -7.8906900e-02
   4.6725700e-03   1.3240500e+00   1.6778400e-01
  -2.1148800e-01   1.1046200e+00   3.1383300e-01
  -2.2782900e-01   1.0091700e+00   4.6011500e-01
  -1.4402600e-01   1.1025100e+00   5.7035400e-01
  -2.0938800e-01   1.3525900e+00   6.3050500e-01
  -3.9893700e-01   1.3790300e+00   6.0522800e-01
  -5.1285300e-01   1.3589100e+00   4.3834800e-01
  -5.3736400e-01   1.3416000e+00   1.2542100e-01
  -4.9978100e-01   1.3743500e+00  -2.5912700e-01
  -5.2569200e-01   1.5755400e+00  -5.4888400e-01
  -5.6444300e-01   1.7963800e+00  -6.8791100e-01
  -5.6654400e-01   1.8871500e+00  -7.6280700e-01
  -5.7074500e-01   1.8618800e+00  -7.7942500e-01
  -5.6490900e-01   2.0347600e+00  -5.9756700e-01
  -6.6995500e-01   2.2890500e+00  -2.7551100e-01
  -8.2775800e-01   2.3800600e+00   2.3139800e-02
  -9.6151600e-01   2.3894100e+00   2.6725600e-01
  -1.0941100e+00   2.3657900e+00   4.0160200e-01
  -1.2068600e+00   2.3316300e+00   4.2453900e-01
  -1.2264700e+00   2.2513900e+00   2.9183200e-01
  -1.1769800e+00   2.1285700e+00   1.4245800e-02
  -1.1085800e+00   2.0981600e+00  -2.5608400e-01
  -1.0420500e+00   2.2081100e+00  -4.6930600e-01
  -9.3420400e-01   2.4422900e+00  -6.0669500e-01
