**************************************************************************************
  	RED ACELEROGRÁFICA DE LA UNIVERSIDAD AUTONOMA METROPOLITANA (RA-UAM)
	   UNIDAD AZCAPOTZALCO. DIVISIÓN CBI-DEPARTAMENTO DE MATERIALES
     Av. San Pablo 420, Col. Nueva el Rosario, Azcapotzalco, C.P. 02128, Ciudad de México
		Área de Estructuras. e-mail: agb@azc.uam.mx
**************************************************************************************
ARCHIVO ESTANDAR DE ACELERACION:
VERSION DEL FORMATO                    : 2.0
NOMBRE DEL ARCHIVO                     : RIDR202304.191
FECHA Y HORA DE CREACION               : 11:30 a. m. 26/04/2023
REF. CATALOGO ACELEROGRAMAS, SMIS 1999 : REGISTRO NO.      /PAG.    


================================================================================
DATOS DE LA ESTACION:
NOMBRE DE LA ESTACION                  : UAM-RECTORIA.
CLAVE DE LA ESTACION                   : RIDR
LOCALIZACION DE LA ESTACION            : PROL. CANAL DE MIRAMONTES 3855, COL. EX
                                       : DE SAN JUAN DE DIOS, C.P.14387 CIUDAD DE MEXICO.
                                       :
                                       : 
                                       : 
COORDENADAS DE LA ESTACION             : 19.287271 LAT. N
                                       : 99.137132 LONG. W
ALTITUD (msnm)                         : 2240
TIPO DE SUELO                          : TRANSICION
                                       : 
                                       : 
INSTITUCION RESPONSABLE                : UNIVERSIDAD AUTONOMA METROPOLITANA
                                       : 

================================================================================
DATOS DEL ACELEROGRAFO: 
MODELO DEL ACELEROGRAFO                : ETNA2 KINEMETRICS
NUMERO DE SERIE DEL ACELEROGRAFO       : 103462
NUMERO DE CANALES                      : 3
ORIENTACION C1-C6 (rumbo;orientacion)  : /N90E/N00E/V
ORIENTACION C7-C12 (rumbo;orientacion) : 
VEL. DE MUESTREO, C1-C6 (muestras/s)   : /200/200/200
VEL. DE MUESTREO, C7-C12 (muestras/s)  : 
ESC. COMPLETA DE SENSORES, C1-C6, (g)  : /2/2/2
ESC. COMPLETA DE SENSORES, C7-C12 (g)  : 
FREC. NAT. DE SENSORES, C1-C6, (Hz)    : /200/200/202   
FREC. NAT. DE SENSORES, C7-C12 (Hz)    : 
AMORTIGUAMIENTO DE SENSORES, C1-C6     : /0.7/0.7/0.7      
AMORTIGUAMIENTO DE SENSORES, C7-C12    : 
INTERVALO DE MUESTREO, C1-C6 (s)       : /0.005/0.005/0.005
INTERVALO DE MUESTREO, C7-C12 (s)      : 
UMBRAL DE DISPARO, C1-C6 (Gal)         : /2/2/2
UMBRAL DE DISPARO, C7-C12 (Gal)        : 
MEMORIA DE PREEVENTO (s)               : 50
TIEMPO DE POSEVENTO (s)                : 60


================================================================================
DATOS DEL SISMO:
FECHA DEL SISMO [GMT]                  : 2023/04/19
HORA EPICENTRO (GMT)                   : 04:55:31
MAGNITUD(ES)                           : /M=5.1
COORDENADAS DEL EPICENTRO              : 17.2200 LAT. N
                                       : -101.1200 LONG. W
PROFUNDIDAD FOCAL (Km)                 : 16.3
FUENTE DE LOS DATOS EPICENTRALES       : SSN
                                       : INSTITUTO DE GEOFISICA, UNAM

================================================================================
DATOS DE ESTE REGISTRO:
HORA DE LA PRIMERA MUESTRA (GMT)       : 04:55:54.000
EXACTITUD DEL TIEMPO (s)               : 
DURACION DEL REGISTRO (s), C1-C6       : /163/163/163
DURACION DEL REGISTRO (s), C7-C12      : 
NUM. TOTAL DE MUESTRAS, C1-C6          : /32600/32600/32600
NUM. TOTAL DE MUESTRAS, C7-C12         : 
ACEL. MAX.(Gal), C1-C6                 : /4.868/5.330/1.949
ACEL. MAX., C1-C6, EN LA MUESTRA       : /13929/13623/13843
ACEL. MAX.(Gal), C7-C12                : 
ACEL. MAX., C7-C12,EN LA MUESTRA       : 
UNIDADES DE LOS DATOS                  : Gal (cm/s/s)
FACTOR DE DECIMACION                   : 1
FORMATO DATOS (FORTRAN,16 campos/dato) : 3E16.7


================================================================================
CALIDAD DEL ACELEROGRAMA:
REGISTRO DIGITAL COMPLETO CON TIEMPO ABSOLUTO CORRECTO


================================================================================
COMENTARIOS:














================================================================================
DATOS DE ACELERACION:
---------+---------+---------+---------+---------+---------+---------+---------+
   CANAL-1   	     CANAL-2          CANAL-3
     N90E             N00E              V
---------+---------+---------+---------+---------+---------+---------+---------+
[...]
   5.5460000e-01  -1.7767900e+00   1.2641500e+00
   4.6659500e-01  -1.7173600e+00   1.1967400e+00
   4.1453900e-01  -1.6757200e+00   1.1026500e+00
   3.8185800e-01  -1.5952500e+00   9.8047900e-01
   3.2746700e-01  -1.5433100e+00   8.7024100e-01
   2.6584000e-01  -1.4649400e+00   7.5813000e-01
   2.2709000e-01  -1.3919500e+00   6.2355000e-01
   1.9044100e-01  -1.3505500e+00   4.8803300e-01
   1.5402500e-01  -1.2450400e+00   3.7358200e-01
   1.5892700e-01  -1.1961500e+00   2.5164100e-01
   1.6523000e-01  -1.1198800e+00   1.1823100e-01
   1.6242900e-01  -1.0185900e+00   3.7793800e-03
   1.6499600e-01  -9.5823000e-01  -1.0294800e-01
   1.8460500e-01  -8.6465400e-01  -2.1201700e-01
   1.9627700e-01  -8.0032100e-01  -3.2997900e-01
   2.0491400e-01  -7.1399700e-01  -4.4232400e-01
   2.3806200e-01  -6.1855000e-01  -5.4577500e-01
   2.7377700e-01  -5.4790000e-01  -6.5437500e-01
   2.9642000e-01  -4.4192500e-01  -7.4799600e-01
   3.1766300e-01  -3.4507400e-01  -8.3389300e-01
   3.3026900e-01  -2.7395600e-01  -9.1885400e-01
   3.1929700e-01  -1.7383000e-01  -1.0010100e+00
   3.4567500e-01  -7.8148800e-02  -1.0892400e+00
   3.6388300e-01   3.2036900e-02  -1.1547800e+00
   3.4871000e-01   1.5813000e-01  -1.2027600e+00
   3.6551700e-01   2.5474800e-01  -1.2619700e+00
   3.9212900e-01   3.7803400e-01  -1.3057400e+00
   3.9142900e-01   4.7277900e-01  -1.3209600e+00
   3.8185800e-01   5.6939700e-01  -1.3380400e+00
   3.9959900e-01   6.6484400e-01  -1.3633200e+00
   4.1967400e-01   7.5163600e-01  -1.3747900e+00
   4.2014100e-01   8.8170600e-01  -1.3534900e+00
   4.5072100e-01   9.7364400e-01  -1.3375700e+00
   5.0044300e-01   1.0742400e+00  -1.3225900e+00
   5.0067600e-01   1.1825500e+00  -1.2631400e+00
   4.7896700e-01   1.2394000e+00  -1.1870800e+00
   4.6892900e-01   1.2995200e+00  -1.1178000e+00
   4.5865800e-01   1.3549700e+00  -1.0337700e+00
   4.4511900e-01   1.3989500e+00  -9.1113100e-01
   4.5795800e-01   1.4366100e+00  -7.7701900e-01
   4.7546500e-01   1.4272500e+00  -6.5180100e-01
   4.5328900e-01   1.4113500e+00  -5.0809300e-01
   4.3694800e-01   1.3942700e+00  -3.3934100e-01
   4.3391400e-01   1.3638600e+00  -1.7971800e-01
   4.0520100e-01   1.3591800e+00  -7.6891700e-03
   3.7695600e-01   1.3589400e+00   1.8797800e-01
   3.6808500e-01   1.3615200e+00   3.7662400e-01
   3.6668400e-01   1.3603500e+00   5.6176000e-01
   3.7438800e-01   1.3680700e+00   7.3870300e-01
   3.8185800e-01   1.3886500e+00   9.0979500e-01
   3.9773100e-01   1.3975400e+00   1.0663800e+00
   4.1360500e-01   1.4333400e+00   1.2042300e+00
   4.2107500e-01   1.4834000e+00   1.3463000e+00
   4.2177500e-01   1.5058600e+00   1.4827600e+00
   4.1267100e-01   1.5264400e+00   1.5986100e+00
   4.2270900e-01   1.5479700e+00   1.6852100e+00
   4.4745300e-01   1.5358000e+00   1.7409100e+00
   4.3671500e-01   1.5395400e+00   1.7870200e+00
   4.1570600e-01   1.5652800e+00   1.8123000e+00
   4.1897400e-01   1.6010700e+00   1.8041100e+00
   3.9376300e-01   1.6560500e+00   1.7832800e+00
   3.4100700e-01   1.6775700e+00   1.7470000e+00
   3.0855900e-01   1.7070500e+00   1.6737400e+00
   2.9642000e-01   1.7479900e+00   1.5824600e+00
   2.8451500e-01   1.7884600e+00   1.4961000e+00
   2.7704500e-01   1.8329100e+00   1.4048200e+00
   2.8521600e-01   1.8560700e+00   1.2936400e+00
   3.0342300e-01   1.8991100e+00   1.1775500e+00
   3.1766300e-01   1.9274200e+00   1.0766700e+00
   3.5127800e-01   1.9407500e+00   9.6784000e-01
   4.0496800e-01   1.9608700e+00   8.5970800e-01
   4.6075900e-01   1.9601700e+00   7.6959800e-01
   5.2658800e-01   1.9512800e+00   6.8370100e-01
   6.0945700e-01   1.9182900e+00   6.0108100e-01
   6.9722900e-01   1.8946700e+00   5.1284300e-01
   7.6655900e-01   1.8701000e+00   4.2273300e-01
   8.3659000e-01   1.8172300e+00   3.2489900e-01
   9.1175600e-01   1.7819100e+00   2.2917200e-01
   9.7641700e-01   1.7369900e+00   1.5287100e-01
   1.0249700e+00   1.6679800e+00   7.7973900e-02
   1.0571900e+00   1.5921800e+00   9.3966300e-03
   1.0959400e+00   1.4883100e+00  -5.4499600e-02
   1.1493900e+00   1.3907600e+00  -1.1909800e-01
   1.1790400e+00   1.3170700e+00  -1.7597300e-01
   1.1888400e+00   1.2279400e+00  -2.2348500e-01
   1.2219900e+00   1.1703900e+00  -2.6865700e-01
   1.2343600e+00   1.1285100e+00  -3.0306300e-01
   1.2028500e+00   1.0768100e+00  -3.2225500e-01
   1.1750700e+00   1.0510800e+00  -3.3770300e-01
   1.1592000e+00   1.0162200e+00  -3.7093800e-01
   1.1052700e+00   9.8066300e-01  -3.9715200e-01
   1.0203000e+00   9.5937400e-01  -4.0721600e-01
   9.5447400e-01   9.3925500e-01  -4.2991900e-01
   8.7860800e-01   9.1515900e-01  -4.3670700e-01
   7.7869800e-01   8.7281600e-01  -4.1798300e-01
   6.8112200e-01   8.3164300e-01  -4.0113100e-01
   5.8728100e-01   7.8111200e-01  -3.9691800e-01
   4.6589400e-01   7.1467300e-01  -3.8544900e-01
   3.3517100e-01   6.6133500e-01  -3.6555500e-01
   2.4903300e-01   5.8787800e-01  -3.6836400e-01
   1.6499600e-01   5.0365900e-01  -3.8896000e-01
   5.4814900e-02   4.2084500e-01  -3.9387500e-01
  -3.0855800e-02   3.0902200e-01  -3.9481100e-01
  -1.0182000e-01   2.0000600e-01  -4.0206700e-01
  -1.9052600e-01   7.3444200e-02  -4.0113100e-01
  -2.6709200e-01  -7.1364500e-02  -4.0066300e-01
  -3.1284600e-01  -2.0330700e-01  -3.9785400e-01
  -3.4062400e-01  -3.6168400e-01  -3.8802400e-01
  -3.6280100e-01  -5.1140500e-01  -3.7678900e-01
  -3.6163400e-01  -6.6674100e-01  -3.6110800e-01
  -3.2451700e-01  -8.3821900e-01  -3.4917100e-01
  -2.8880200e-01  -9.5940000e-01  -3.3091500e-01
  -2.6008900e-01  -1.0908700e+00  -3.0680800e-01
  -2.5355300e-01  -1.2282000e+00  -2.8714700e-01
  -2.7643000e-01  -1.3610700e+00  -2.5250800e-01
  -2.6569200e-01  -1.4984000e+00  -2.2910300e-01
  -2.4585000e-01  -1.5966500e+00  -2.1693200e-01
  -2.5075200e-01  -1.7016900e+00  -1.8814300e-01
  -2.5425300e-01  -1.7922300e+00  -1.6473800e-01
  -2.4048100e-01  -1.8773800e+00  -1.5092900e-01
  -2.4655000e-01  -1.9833500e+00  -1.2963000e-01
  -2.7946400e-01  -2.0593800e+00  -9.9905700e-02
  -2.6265700e-01  -2.1295700e+00  -7.8841000e-02
  -2.1316900e-01  -2.2098100e+00  -6.5500100e-02
  -1.7815300e-01  -2.2802200e+00  -4.7478000e-02
  -1.3706900e-01  -2.3476000e+00  -4.5605600e-02
  -6.6571400e-02  -2.3993000e+00  -6.1053100e-02
  -5.0922500e-04  -2.4294800e+00  -7.2053500e-02
   4.1742600e-02  -2.4650400e+00  -8.2819900e-02
   8.9830200e-02  -2.4952100e+00  -1.0669300e-01
   1.3091500e-01  -2.5328800e+00  -1.3220500e-01
   1.5916000e-01  -2.5291400e+00  -1.4882300e-01
   2.1378400e-01  -2.5144000e+00  -1.7831300e-01
   2.7704500e-01  -2.5258600e+00  -2.3589000e-01
   3.1182700e-01  -2.4797700e+00  -3.0938200e-01
   3.3540400e-01  -2.4786000e+00  -3.8264100e-01
   3.6061500e-01  -2.4474900e+00  -4.8047500e-01
   3.8372500e-01  -2.3588300e+00  -5.7432900e-01
   3.7788900e-01  -2.3031500e+00  -6.4548100e-01
   3.6528400e-01  -2.2119100e+00  -7.1195200e-01
   3.6855200e-01  -2.1471100e+00  -7.7233800e-01
   3.5431200e-01  -2.1017300e+00  -8.3061700e-01
   3.5851400e-01  -2.0455800e+00  -8.8913000e-01
   3.6178200e-01  -1.9882700e+00  -9.5770700e-01
   3.3657100e-01  -1.9251000e+00  -1.0059200e+00
   3.4427500e-01  -1.8612400e+00  -1.0503900e+00
   3.4054000e-01  -1.8114100e+00  -1.0843300e+00
   3.0249000e-01  -1.7765500e+00  -1.0883100e+00
   2.8848400e-01  -1.7456700e+00  -1.0866700e+00
   3.0132300e-01  -1.7164300e+00  -1.0812900e+00
   3.0599100e-01  -1.6899900e+00  -1.0801200e+00
   2.9688700e-01  -1.6726800e+00  -1.0616300e+00
   3.0272300e-01  -1.6053100e+00  -1.0347100e+00
   3.1953100e-01  -1.5901000e+00  -9.9936800e-01
   3.0062200e-01  -1.5840200e+00  -9.4225900e-01
   2.7727900e-01  -1.5615600e+00  -8.7391600e-01
   2.8288100e-01  -1.6099900e+00  -7.9925400e-01
   2.5136700e-01  -1.5856600e+00  -7.1382500e-01
   2.0187900e-01  -1.6043700e+00  -6.0920300e-01
   1.6733100e-01  -1.6436700e+00  -5.2354000e-01
   9.9634500e-02  -1.6256600e+00  -4.3904700e-01
   2.0733400e-02  -1.6556000e+00  -3.4027700e-01
  -3.4824200e-02  -1.6598200e+00  -2.4103900e-01
  -9.0381800e-02  -1.6593500e+00  -1.3712000e-01
  -1.5481000e-01  -1.6584100e+00  -3.2732800e-02
  -2.2950900e-01  -1.6429700e+00   7.7739900e-02
  -2.9253700e-01  -1.6455500e+00   1.5521100e-01
  -3.4669400e-01  -1.6411000e+00   2.2144800e-01
  -4.2559500e-01  -1.6273000e+00   2.8979100e-01
  -4.9982700e-01  -1.6202800e+00   3.4034600e-01
  -5.4651400e-01  -1.6125600e+00   3.9347600e-01
  -6.1211000e-01  -1.6137300e+00   4.5222300e-01
  -6.8727600e-01  -1.5978200e+00   5.1120400e-01
  -7.5870700e-01  -1.5702200e+00   5.5544000e-01
  -8.5651600e-01  -1.5756000e+00   5.9429300e-01
  -9.4545500e-01  -1.5344200e+00   6.2284700e-01
  -1.0255200e+00  -1.5115000e+00   6.3455000e-01
  -1.1308000e+00  -1.4883400e+00   6.4508200e-01
  -1.2353800e+00  -1.3921900e+00   6.5538100e-01
  -1.3089100e+00  -1.3449300e+00   6.6942400e-01
  -1.3978500e+00  -1.2621200e+00   6.9165900e-01
  -1.5131700e+00  -1.1680700e+00   7.0523400e-01
  -1.6119100e+00  -1.1000000e+00   6.9891400e-01
  -1.7136900e+00  -9.8185800e-01   6.8978600e-01
  -1.8138300e+00  -8.9062200e-01   6.7902000e-01
  -1.8985700e+00  -7.4815200e-01   6.6755100e-01
  -1.9842400e+00  -5.9889900e-01   6.5233800e-01
  -2.0734100e+00  -4.6110800e-01   6.4882700e-01
  -2.1450800e+00  -2.6600200e-01   6.5959400e-01
  -2.1908300e+00  -1.0154300e-01   6.5491300e-01
  -2.2461600e+00   7.9292700e-02   6.5538100e-01
  -2.3147900e+00   2.7697200e-01   6.6053000e-01
  -2.3486300e+00   4.6552700e-01   6.4882700e-01
  -2.3561000e+00   6.8098600e-01   6.3782700e-01
  -2.3794500e+00   8.9153200e-01   6.1582600e-01
  -2.3843500e+00   1.0854700e+00   5.8025000e-01
  -2.3589100e+00   1.3086500e+00   5.2548200e-01
  -2.3481700e+00   1.5210600e+00   4.7118200e-01
  -2.3470000e+00   1.7479900e+00   4.3584000e-01
  -2.3215600e+00   1.9908100e+00   3.7381600e-01
  -2.3068500e+00   2.1882600e+00   3.1015400e-01
  -2.2949400e+00   2.4247700e+00   2.5351300e-01
  -2.2333200e+00   2.6287700e+00   1.8189300e-01
  -2.1770600e+00   2.8215300e+00   9.9272700e-02
  -2.1324700e+00   3.0489200e+00   3.0461300e-02
  -2.0671100e+00   3.2501100e+00  -1.4944800e-02
  -2.0115500e+00   3.4805400e+00  -6.0350900e-02
  -1.9553000e+00   3.6705000e+00  -9.7565200e-02
  -1.8932000e+00   3.8419800e+00  -1.2705600e-01
  -1.7958600e+00   4.0225800e+00  -1.7035500e-01
  -1.6754100e+00   4.1580300e+00  -2.2699600e-01
  -1.5755000e+00   4.3313800e+00  -2.8597700e-01
  -1.4471100e+00   4.5105800e+00  -3.5010700e-01
  -1.3012100e+00   4.6684900e+00  -4.0745000e-01
  -1.1814600e+00   4.8568100e+00  -4.5449500e-01
  -1.0586700e+00   4.9932000e+00  -4.8304900e-01
  -9.1744300e-01   5.1075900e+00  -5.0528400e-01
  -7.8415100e-01   5.2133300e+00  -5.1441200e-01
  -6.4899200e-01   5.2493600e+00  -5.1136900e-01
  -5.1103200e-01   5.3078500e+00  -5.1675300e-01
  -4.0481900e-01   5.3303000e+00  -5.1113500e-01
  -3.4506000e-01   5.3024700e+00  -5.0200700e-01
  -2.6662500e-01   5.2750900e+00  -4.9381600e-01
  -1.6881600e-01   5.1894700e+00  -4.8890000e-01
  -1.0042000e-01   5.1061900e+00  -4.7883600e-01
  -2.3385900e-02   4.9934300e+00  -4.6338900e-01
   4.8512200e-02   4.8610200e+00  -4.5472900e-01
   1.0733800e-01   4.7447500e+00  -4.3179200e-01
   1.5262400e-01   4.5814600e+00  -4.1564200e-01
   2.1215000e-01   4.4310400e+00  -4.2055700e-01
   2.9268500e-01   4.2682200e+00  -4.1985500e-01
   3.4380800e-01   4.1177900e+00  -3.9738600e-01
   4.0730200e-01   3.9603500e+00  -3.6602300e-01
   4.7149700e-01   3.7626700e+00  -3.4074500e-01
   4.9133900e-01   3.5888600e+00  -2.9229700e-01
   5.2332000e-01   3.3727000e+00  -2.5391200e-01
   5.7280800e-01   3.1567700e+00  -2.4946500e-01
   5.9825200e-01   2.9621300e+00  -2.4197500e-01
   6.1225800e-01   2.7569700e+00  -2.2184700e-01
   6.4470600e-01   2.5482900e+00  -1.8673900e-01
   6.7855400e-01   2.3283900e+00  -1.5631200e-01
   6.9699500e-01   2.1077800e+00  -1.2612000e-01
   7.2664200e-01   1.8944300e+00  -8.7969100e-02
   7.6539200e-01   1.7199100e+00  -5.9648800e-02
   8.1651400e-01   1.5234000e+00  -3.4839200e-02
   8.7370600e-01   1.3276000e+00  -1.6583200e-02
   9.2856300e-01   1.1666400e+00  -7.6891700e-03
   9.8785600e-01   9.7598400e-01   7.2901600e-03
   1.0431800e+00   8.2298700e-01   2.4844100e-02
   1.0859000e+00   6.6858700e-01   5.3632500e-02
   1.1132100e+00   4.6856800e-01   8.9676500e-02
   1.1288500e+00   2.7931100e-01   1.1776300e-01
   1.1510300e+00   6.1747200e-02   1.3087000e-01
   1.1790400e+00  -1.4739500e-01   1.3835900e-01
   1.1727400e+00  -3.5139000e-01   1.6457300e-01
   1.1729700e+00  -6.0287600e-01   1.8470200e-01
   1.1725000e+00  -8.3237100e-01   1.9336200e-01
   1.1293200e+00  -1.0637400e+00   2.2121400e-01
   1.0945400e+00  -1.3093700e+00   2.5796000e-01
   1.0639600e+00  -1.4981600e+00   2.8159900e-01
   1.0142300e+00  -1.7028600e+00   3.1436700e-01
   9.4210200e-01  -1.9134100e+00   3.5134700e-01
   8.6646900e-01  -2.1043000e+00   3.7053900e-01
   7.7916500e-01  -2.3178900e+00   3.7756100e-01
   6.7131700e-01  -2.4865600e+00   3.8926300e-01
   5.8868100e-01  -2.6507800e+00   4.0915800e-01
   5.1024700e-01  -2.8075200e+00   4.0915800e-01
   4.1453900e-01  -2.9167700e+00   4.0705100e-01
   3.3470400e-01  -3.0576100e+00   3.9932800e-01
   2.6840800e-01  -3.1666200e+00   3.6773100e-01
   2.0164600e-01  -3.2828900e+00   3.2115400e-01
   1.4865600e-01  -3.4092200e+00   2.6591800e-01
   1.1060600e-01  -3.4677000e+00   2.2191600e-01
   8.8196200e-02  -3.5544900e+00   1.6995600e-01
   4.5477500e-02  -3.6150800e+00   1.1097500e-01
  -3.0770100e-03  -3.6695900e+00   6.4867000e-02
  -1.4048500e-02  -3.7582600e+00   1.8290600e-02
  -4.3227900e-02  -3.8174400e+00  -1.6115100e-02
  -6.1435800e-02  -3.9033000e+00  -2.8051700e-02
  -4.5095400e-02  -3.9812000e+00  -3.1796500e-02
  -3.9726300e-02  -4.0453000e+00  -2.7583600e-02
  -3.1322700e-02  -4.1213300e+00  -2.2200400e-02
   8.9138600e-04  -4.1260100e+00  -2.3136600e-02
   2.6569300e-02  -4.1351300e+00  -6.0508100e-03
   2.7503000e-02  -4.1325600e+00   2.5780300e-02
   5.3647800e-02  -4.0829600e+00   6.6271300e-02
   8.8196200e-02  -4.0499800e+00   1.2150800e-01
   1.0547000e-01  -3.9580400e+00   1.8938300e-01
   1.2227800e-01  -3.8534700e+00   2.6030100e-01
   1.4608800e-01  -3.7196600e+00   3.0079200e-01
   1.5449200e-01  -3.5446700e+00   3.4268700e-01
   1.2321100e-01  -3.3736600e+00   3.9628500e-01
   1.0757100e-01  -3.1724700e+00   4.4356300e-01
   1.0920500e-01  -2.9878900e+00   4.9014000e-01
   7.5590700e-02  -2.8035500e+00   5.3858900e-01
   2.9137100e-02  -2.6215400e+00   6.0108100e-01
   2.9923000e-03  -2.4596600e+00   6.3618800e-01
  -2.8288000e-02  -2.3008100e+00   6.4742300e-01
  -8.5713100e-02  -2.1464100e+00   6.6965800e-01
  -1.1582600e-01  -1.9917800e+00   6.9259500e-01
  -1.5761100e-01  -1.8451000e+00   7.2887300e-01
  -2.4421600e-01  -1.7377200e+00   7.9089700e-01
  -3.1424600e-01  -1.6726800e+00   8.5104800e-01
  -3.7844100e-01  -1.5992300e+00   8.8615600e-01
  -4.1649100e-01  -1.5543100e+00   8.8615600e-01
  -4.6854700e-01  -1.4930200e+00   8.7609200e-01
  -5.4091200e-01  -1.4427200e+00   8.6532500e-01
  -5.8479800e-01  -1.4450600e+00   8.4472900e-01
  -6.4245600e-01  -1.4003800e+00   8.2717500e-01
  -6.8144000e-01  -1.3919500e+00   8.0681200e-01
  -6.9544600e-01  -1.3781500e+00   7.8410900e-01
  -6.9124400e-01  -1.3671600e+00   7.2934100e-01
  -6.5109300e-01  -1.3959300e+00   6.4016700e-01
  -6.2448200e-01  -1.3680900e+00   5.5450400e-01
  -6.0557300e-01  -1.3671600e+00   4.7469200e-01
