**************************************************************************************
  	RED ACELEROGRÁFICA DE LA UNIVERSIDAD AUTONOMA METROPOLITANA (RA-UAM)
	   UNIDAD AZCAPOTZALCO. DIVISIÓN CBI-DEPARTAMENTO DE MATERIALES
     Av. San Pablo 420, Col. Nueva el Rosario, Azcapotzalco, C.P. 02128, Ciudad de México
		Área de Estructuras. e-mail: agb@azc.uam.mx
**************************************************************************************
ARCHIVO ESTANDAR DE ACELERACION:
VERSION DEL FORMATO                    : 2.0
NOMBRE DEL ARCHIVO                     : RIDR202307.161
FECHA Y HORA DE CREACION               : 11:30 a. m. 21/07/2023
REF. CATALOGO ACELEROGRAMAS, SMIS 1999 : REGISTRO NO.      /PAG.    


================================================================================
DATOS DE LA ESTACION:
NOMBRE DE LA ESTACION                  : UAM-RECTORIA.
CLAVE DE LA ESTACION                   : RIDR
LOCALIZACION DE LA ESTACION            : PROL. CANAL DE MIRAMONTES 3855, COL. EX
                                       : DE SAN JUAN DE DIOS, C.P.14387 CIUDAD DE MEXICO.
                                       :
                                       : 
                                       : 
COORDENADAS DE LA ESTACION             : 19.287271 LAT. N
                                       : 99.137132 LONG. W
ALTITUD (msnm)                         : 2240
TIPO DE SUELO                          : TRANSICION
                                       : 
                                       : 
INSTITUCION RESPONSABLE                : UNIVERSIDAD AUTONOMA METROPOLITANA
                                       : 

================================================================================
DATOS DEL ACELEROGRAFO: 
MODELO DEL ACELEROGRAFO                : ETNA2 KINEMETRICS
NUMERO DE SERIE DEL ACELEROGRAFO       : 103462
NUMERO DE CANALES                      : 3
ORIENTACION C1-C6 (rumbo;orientacion)  : /N90E/N00E/V
ORIENTACION C7-C12 (rumbo;orientacion) : 
VEL. DE MUESTREO, C1-C6 (muestras/s)   : /200/200/200
VEL. DE MUESTREO, C7-C12 (muestras/s)  : 
ESC. COMPLETA DE SENSORES, C1-C6, (g)  : /2/2/2
ESC. COMPLETA DE SENSORES, C7-C12 (g)  : 
FREC. NAT. DE SENSORES, C1-C6, (Hz)    : /200/200/202   
FREC. NAT. DE SENSORES, C7-C12 (Hz)    : 
AMORTIGUAMIENTO DE SENSORES, C1-C6     : /0.7/0.7/0.7      
AMORTIGUAMIENTO DE SENSORES, C7-C12    : 
INTERVALO DE MUESTREO, C1-C6 (s)       : /0.005/0.005/0.005
INTERVALO DE MUESTREO, C7-C12 (s)      : 
UMBRAL DE DISPARO, C1-C6 (Gal)         : /2/2/2
UMBRAL DE DISPARO, C7-C12 (Gal)        : 
MEMORIA DE PREEVENTO (s)               : 50
TIEMPO DE POSEVENTO (s)                : 60


================================================================================
DATOS DEL SISMO:
FECHA DEL SISMO [GMT]                  : 2023/07/16
HORA EPICENTRO (GMT)                   : 13:44:36
MAGNITUD(ES)                           : /M=5.2
COORDENADAS DEL EPICENTRO              : 18.3000 LAT. N
                                       : -100.9100 LONG. W
PROFUNDIDAD FOCAL (Km)                 : 44.6
FUENTE DE LOS DATOS EPICENTRALES       : SSN
                                       : INSTITUTO DE GEOFISICA, UNAM

================================================================================
DATOS DE ESTE REGISTRO:
HORA DE LA PRIMERA MUESTRA (GMT)       : 13:44:50.000
EXACTITUD DEL TIEMPO (s)               : 
DURACION DEL REGISTRO (s), C1-C6       : /129/129/129
DURACION DEL REGISTRO (s), C7-C12      : 
NUM. TOTAL DE MUESTRAS, C1-C6          : /25800/25800/25800
NUM. TOTAL DE MUESTRAS, C7-C12         : 
ACEL. MAX.(Gal), C1-C6                 : /3.936/-3.083/-1.196
ACEL. MAX., C1-C6, EN LA MUESTRA       : /11537/11462/11785
ACEL. MAX.(Gal), C7-C12                : 
ACEL. MAX., C7-C12,EN LA MUESTRA       : 
UNIDADES DE LOS DATOS                  : Gal (cm/s/s)
FACTOR DE DECIMACION                   : 1
FORMATO DATOS (FORTRAN,16 campos/dato) : 3E16.7


================================================================================
CALIDAD DEL ACELEROGRAMA:
REGISTRO DIGITAL COMPLETO CON TIEMPO ABSOLUTO CORRECTO


================================================================================
COMENTARIOS:














================================================================================
DATOS DE ACELERACION:
---------+---------+---------+---------+---------+---------+---------+---------+
   CANAL-1   	     CANAL-2          CANAL-3
     N90E             N00E              V
---------+---------+---------+---------+---------+---------+---------+---------+
[...]
  -4.0818800e-01  -1.0755200e+00  -1.9271700e-01
  -3.4072500e-01  -9.5363600e-01  -1.9927100e-01
  -2.5738900e-01  -8.5374400e-01  -2.2548500e-01
  -1.2666500e-01  -7.9291900e-01  -2.1916500e-01
  -4.1227600e-02  -7.5946600e-01  -2.4257000e-01
   6.4051700e-02  -7.5034200e-01  -2.9733900e-01
   1.8473800e-01  -7.0799900e-01  -3.5702200e-01
   2.8721600e-01  -6.4296400e-01  -3.8885300e-01
   3.5654600e-01  -5.9874900e-01  -3.8136300e-01
   4.4291700e-01  -5.1757200e-01  -3.8276800e-01
   6.1099100e-01  -4.6540400e-01  -3.5678800e-01
   7.8139800e-01  -4.1627600e-01  -3.0108300e-01
   8.9438100e-01  -4.2937700e-01  -2.7463600e-01
   9.0208400e-01  -5.4938800e-01  -3.1816900e-01
   9.2426100e-01  -6.2190900e-01  -3.9985300e-01
   9.9872700e-01  -6.3454200e-01  -4.7217600e-01
   1.1415900e+00  -5.8939200e-01  -5.3513600e-01
   1.3077900e+00  -5.3301200e-01  -5.8124400e-01
   1.4322200e+00  -4.9113700e-01  -6.0020200e-01
   1.5136800e+00  -4.3429000e-01  -5.5620000e-01
   1.5753100e+00  -3.0679300e-01  -4.8598500e-01
   1.6567800e+00  -1.9684100e-01  -4.2185400e-01
   1.7454900e+00  -1.3999300e-01  -3.5959600e-01
   1.8320900e+00  -1.3976000e-01  -3.3197800e-01
   1.8204200e+00  -2.3754600e-01  -3.6357500e-01
   1.7861000e+00  -2.4199100e-01  -4.2513100e-01
   1.8204200e+00  -1.2221400e-01  -4.3589700e-01
   1.9189300e+00   7.5231100e-02  -3.7598000e-01
   2.0172000e+00   2.4787900e-01  -2.7604000e-01
   1.9983000e+00   2.8507500e-01  -2.1144100e-01
   1.9331700e+00   2.2121000e-01  -2.0325000e-01
   1.9887300e+00   1.8682000e-01  -2.3133600e-01
   2.1364900e+00   3.3841300e-01  -2.2899500e-01
   2.2308000e+00   6.8908900e-01  -7.2414400e-02
   2.2018500e+00   9.9601800e-01   1.6257400e-01
   2.1005400e+00   1.0196500e+00   2.7632300e-01
   2.0905000e+00   8.9308500e-01   2.4753500e-01
   2.1493300e+00   8.2781500e-01   2.3044900e-01
   2.1645000e+00   9.5273900e-01   2.6391900e-01
   2.1166500e+00   1.1314700e+00   3.1775100e-01
   2.0314400e+00   1.2325300e+00   4.1909500e-01
   1.9534800e+00   1.2540500e+00   5.2114200e-01
   1.9602500e+00   1.2093700e+00   5.6935700e-01
   1.9978300e+00   1.2248100e+00   6.0657100e-01
   1.9224300e+00   1.2489100e+00   6.7748900e-01
   1.7564600e+00   1.2138200e+00   7.2172500e-01
   1.6201300e+00   1.1136900e+00   7.1119200e-01
   1.6245700e+00   1.1012900e+00   6.9434000e-01
   1.6600500e+00   1.1850400e+00   7.2406500e-01
   1.6166300e+00   1.2222400e+00   7.7415200e-01
   1.4992100e+00   1.1897200e+00   8.0715400e-01
   1.3932300e+00   1.0149700e+00   8.3243100e-01
   1.3143300e+00   8.4629700e-01   7.8679100e-01
   1.2564400e+00   7.4827600e-01   7.2336300e-01
   1.2260900e+00   7.7868800e-01   7.0487300e-01
   1.0750600e+00   8.3881100e-01   6.8965900e-01
   8.4792700e-01   6.5399800e-01   6.3278500e-01
   6.8195500e-01   4.4321800e-01   5.1201400e-01
   7.0763300e-01   4.3620000e-01   4.2167000e-01
   8.1758100e-01   6.4417300e-01   4.3150000e-01
   8.0567600e-01   8.9495600e-01   5.0639700e-01
   7.1650300e-01   1.0781300e+00   5.5344100e-01
   6.3316700e-01   1.1546300e+00   5.7239900e-01
   5.6290300e-01   1.1225800e+00   5.4829200e-01
   3.8409100e-01   1.0243200e+00   4.3922400e-01
   1.0957200e-01   8.2126500e-01   2.5806700e-01
  -1.0192100e-01   7.5529400e-01   3.1738800e-02
  -1.8339000e-01   9.0899200e-01  -7.4520900e-02
  -1.7451900e-01   1.2917200e+00  -2.7476400e-02
  -1.5817900e-01   1.7247400e+00   1.2348700e-01
  -2.1093500e-01   1.8775000e+00   2.8474900e-01
  -3.6080000e-01   1.7918800e+00   3.2266600e-01
  -5.5361800e-01   1.5689400e+00   2.5151400e-01
  -6.8877700e-01   1.5277600e+00   1.3050900e-01
  -7.8051700e-01   1.6700000e+00  -1.2625800e-03
  -8.9466700e-01   1.8206600e+00  -1.2788500e-01
  -1.0134900e+00   1.9521300e+00  -1.9061100e-01
  -1.1537800e+00   1.9514300e+00  -2.4186800e-01
  -1.2688600e+00   1.9116600e+00  -2.9710500e-01
  -1.3055100e+00   1.8618300e+00  -2.9406200e-01
  -1.3344600e+00   1.8246300e+00  -3.1816900e-01
  -1.4042600e+00   1.7911800e+00  -3.5795800e-01
  -1.4868900e+00   1.8405400e+00  -3.4485100e-01
  -1.5216700e+00   1.9528300e+00  -3.2191400e-01
  -1.5256400e+00   1.9212500e+00  -3.4438300e-01
  -1.5303100e+00   1.8000700e+00  -4.2232200e-01
  -1.5459500e+00   1.6438000e+00  -5.4145500e-01
  -1.5613600e+00   1.5649600e+00  -6.6058800e-01
  -1.5440800e+00   1.5949000e+00  -7.4742100e-01
  -1.5578600e+00   1.6033300e+00  -8.0195500e-01
  -1.6185500e+00   1.5778300e+00  -8.0921100e-01
  -1.6318600e+00   1.4830800e+00  -8.0663600e-01
  -1.5891400e+00   1.3052900e+00  -8.3846700e-01
  -1.5340500e+00   1.2103100e+00  -8.6023400e-01
  -1.5100000e+00   1.2269200e+00  -8.7825600e-01
  -1.4784900e+00   1.2800200e+00  -8.8340500e-01
  -1.3508000e+00   1.3682200e+00  -8.2138100e-01
  -1.2102700e+00   1.3852900e+00  -7.7410300e-01
  -1.1148000e+00   1.3176900e+00  -7.4250600e-01
  -1.0025100e+00   1.2949900e+00  -6.8680100e-01
  -9.0073600e-01   1.3399100e+00  -6.1167100e-01
  -8.4494500e-01   1.3738300e+00  -5.0587900e-01
  -8.1926700e-01   1.3434200e+00  -4.2442900e-01
  -8.7295700e-01   1.2318300e+00  -3.6685200e-01
  -9.7777000e-01   1.0547400e+00  -3.5468100e-01
  -1.0431300e+00   8.7062600e-01  -4.1132200e-01
  -9.9877900e-01   8.1097200e-01  -4.2185400e-01
  -8.1903400e-01   9.8221600e-01  -2.7791200e-01
  -6.4839300e-01   1.2086700e+00  -5.6264800e-02
  -6.0754200e-01   1.2227100e+00   1.4197700e-01
  -6.7313700e-01   1.0797700e+00   2.7843000e-01
  -6.8901000e-01   8.3974600e-01   3.0792000e-01
  -5.9330200e-01   6.2569100e-01   2.4847100e-01
  -4.8778900e-01   6.6242000e-01   1.9089400e-01
  -3.9558200e-01   7.5529400e-01   2.2834300e-01
  -2.8843600e-01   7.7962400e-01   3.4607100e-01
  -2.1420300e-01   6.6101600e-01   4.4999000e-01
  -2.2400700e-01   3.6461500e-01   4.9680000e-01
  -1.7405200e-01   1.3956500e-01   5.1575900e-01
  -6.4804600e-02  -4.6885400e-02   5.1763100e-01
  -5.6167400e-02  -2.6187600e-01   4.8931100e-01
  -1.1149200e-01  -4.1534100e-01   4.5537300e-01
  -1.2152900e-01  -5.4096600e-01   4.4039400e-01
   2.0165900e-02  -6.7665100e-01   4.1254200e-01
   2.4683200e-01  -8.1865300e-01   3.7696600e-01
   3.4534100e-01  -9.2439300e-01   3.8749800e-01
   3.5047700e-01  -9.7960300e-01   4.2681900e-01
   4.3731500e-01  -1.1099100e+00   4.4554300e-01
   5.5263200e-01  -1.3064200e+00   4.3196800e-01
   5.6617100e-01  -1.4804700e+00   3.8351900e-01
   5.3395700e-01  -1.6344000e+00   3.0464400e-01
   5.0127600e-01  -1.7481000e+00   2.3161900e-01
   4.6205900e-01  -1.8777000e+00   1.7404200e-01
   4.7653200e-01  -1.9988800e+00   1.1014600e-01
   5.3745800e-01  -2.0681200e+00   6.7782800e-02
   5.4773000e-01  -2.1041500e+00   6.0995300e-02
   4.9217200e-01  -2.1865000e+00   8.0187600e-02
   4.4128300e-01  -2.3778600e+00   8.2060000e-02
   4.1630600e-01  -2.5303900e+00   2.5653400e-02
   4.2354200e-01  -2.5687600e+00   1.6525400e-02
   4.4805300e-01  -2.5329600e+00   8.8613500e-02
   4.2284200e-01  -2.5222000e+00   1.2723200e-01
   2.7577700e-01  -2.6536800e+00   9.8677700e-02
   8.3426800e-02  -2.8710100e+00   2.8228000e-02
   2.1913700e-03  -3.0214300e+00  -6.1414000e-02
  -4.3328500e-02  -3.0831900e+00  -1.6416300e-01
  -1.2573100e-01  -3.0488000e+00  -2.2595300e-01
  -1.9319400e-01  -2.9673900e+00  -1.8499400e-01
  -2.8283300e-01  -2.9914900e+00  -1.3397000e-01
  -4.2616200e-01  -3.0410800e+00  -1.3560900e-01
  -5.3284200e-01  -3.0350000e+00  -1.4122600e-01
  -5.1696900e-01  -2.9844700e+00  -1.2624600e-01
  -5.1533500e-01  -2.8686700e+00  -1.2554400e-01
  -6.5983100e-01  -2.8132200e+00  -1.4520500e-01
  -8.6782200e-01  -2.8317000e+00  -1.5807800e-01
  -1.0316900e+00  -2.8614100e+00  -2.2056900e-01
  -1.2002300e+00  -2.9713700e+00  -2.9780700e-01
  -1.3823100e+00  -3.0024800e+00  -3.5468100e-01
  -1.5027700e+00  -2.9472700e+00  -3.9915100e-01
  -1.6416600e+00  -2.9344000e+00  -3.9470400e-01
  -1.8025000e+00  -2.8590800e+00  -3.6404300e-01
  -1.9276200e+00  -2.7989500e+00  -3.0061500e-01
  -2.0149200e+00  -2.7701800e+00  -2.4748500e-01
  -2.0541400e+00  -2.7163700e+00  -2.0956900e-01
  -2.0639400e+00  -2.6195200e+00  -1.3373600e-01
  -2.1267400e+00  -2.4917900e+00  -5.8839400e-02
  -2.2570000e+00  -2.4784600e+00  -5.6498900e-02
  -2.4056900e+00  -2.5631400e+00  -1.1360800e-01
  -2.5210100e+00  -2.5853700e+00  -1.7352500e-01
  -2.4652200e+00  -2.4536600e+00  -2.0184500e-01
  -2.3246900e+00  -2.2459200e+00  -1.2671500e-01
  -2.2808100e+00  -2.0030900e+00   9.9719300e-03
  -2.3286600e+00  -1.8210800e+00   1.4244500e-01
  -2.3804800e+00  -1.7165100e+00   2.5174800e-01
  -2.3106900e+00  -1.5857400e+00   3.1517600e-01
  -2.1584900e+00  -1.4669000e+00   3.7509300e-01
  -2.1155300e+00  -1.2809200e+00   4.1745700e-01
  -2.1946700e+00  -1.0832400e+00   3.9428600e-01
  -2.2581600e+00  -9.9247000e-01   3.4747500e-01
  -2.1589500e+00  -9.0123300e-01   3.1306900e-01
  -1.9495600e+00  -7.1501700e-01   2.8685600e-01
  -1.8281700e+00  -4.3475800e-01   3.1845300e-01
  -1.7849900e+00  -9.9989800e-02   4.0903100e-01
  -1.7287300e+00   1.3886300e-01   4.8743800e-01
  -1.6573000e+00   2.4998400e-01   5.4407900e-01
  -1.5781700e+00   3.7654600e-01   5.4829200e-01
  -1.5212100e+00   4.8953800e-01   4.9867300e-01
  -1.4917900e+00   6.5891100e-01   4.4577700e-01
  -1.3809100e+00   8.9004300e-01   3.9124300e-01
  -1.2392200e+00   1.1129900e+00   3.5917800e-01
  -1.0935500e+00   1.3605000e+00   3.6339100e-01
  -8.8906400e-01   1.5462400e+00   3.7790200e-01
  -7.3803200e-01   1.6487100e+00   3.5168800e-01
  -6.8387500e-01   1.7015800e+00   2.8849400e-01
  -6.1151000e-01   1.7712900e+00   1.9136200e-01
  -4.1705800e-01   1.9032400e+00   1.1857200e-01
  -1.5000800e-01   2.1212700e+00   1.3729600e-01
   5.0512500e-02   2.2962600e+00   1.6468000e-01
   1.3805100e-01   2.3154400e+00   1.3472200e-01
   2.6317200e-01   2.2808200e+00   4.9526700e-02
   4.8260100e-01   2.2396400e+00  -3.2391500e-02
   7.4241500e-01   2.2988300e+00  -1.0213900e-01
   9.3103000e-01   2.4087800e+00  -1.5831200e-01
   1.0050300e+00   2.4801300e+00  -1.9927100e-01
   1.1880400e+00   2.4923000e+00  -2.2876100e-01
   1.5860500e+00   2.4611800e+00  -2.5497500e-01
   2.0027300e+00   2.5257500e+00  -2.8727400e-01
   2.2207600e+00   2.6483300e+00  -2.8282700e-01
   2.3664200e+00   2.7325500e+00  -2.7510400e-01
   2.6299700e+00   2.6822600e+00  -2.5520900e-01
   2.9609800e+00   2.5931200e+00  -2.4537900e-01
   3.1850800e+00   2.5622400e+00  -2.8025300e-01
   3.3022700e+00   2.5313600e+00  -2.9242300e-01
   3.4474600e+00   2.5309000e+00  -2.6246500e-01
   3.5716500e+00   2.4632900e+00  -2.5216600e-01
   3.6792600e+00   2.3713500e+00  -2.5942200e-01
   3.7759100e+00   2.3360200e+00  -2.2642100e-01
   3.7906100e+00   2.2550800e+00  -2.1097300e-01
   3.8183900e+00   2.1575300e+00  -2.2220800e-01
   3.8949600e+00   2.0782200e+00  -2.2056900e-01
   3.9358100e+00   2.0461700e+00  -1.8616400e-01
   3.8874900e+00   2.0910900e+00  -1.2109700e-01
   3.7980800e+00   2.1282900e+00  -6.1179900e-02
   3.7819800e+00   2.0845400e+00   2.7291800e-02
   3.7726400e+00   1.9893300e+00   8.9315600e-02
   3.6666600e+00   1.8901400e+00   7.4102200e-02
   3.5013900e+00   1.8599600e+00   9.0719900e-02
   3.3482500e+00   1.8274400e+00   1.1038000e-01
   3.2147300e+00   1.6838000e+00   6.5208200e-02
   3.1099200e+00   1.6250800e+00   5.5144000e-02
   3.0676600e+00   1.6824000e+00   1.3519000e-01
   3.0214400e+00   1.7195900e+00   2.2483200e-01
   2.9012200e+00   1.6802900e+00   2.8755800e-01
   2.6857600e+00   1.5268300e+00   3.1868700e-01
   2.4558300e+00   1.3476300e+00   2.8732400e-01
   2.3762300e+00   1.2287900e+00   2.5783300e-01
   2.3949000e+00   1.2351000e+00   2.6134400e-01
   2.3048000e+00   1.2900800e+00   2.7445100e-01
   2.1052100e+00   1.2386100e+00   2.7538700e-01
   1.9495100e+00   1.1249200e+00   2.5853500e-01
   1.8493600e+00   1.0423400e+00   2.4659900e-01
   1.7800300e+00   9.7940800e-01   2.4706700e-01
   1.7303100e+00   9.7426200e-01   2.6579100e-01
   1.6089300e+00   9.9508200e-01   3.1892100e-01
   1.4735300e+00   9.1998800e-01   4.1558400e-01
   1.4000000e+00   7.7962400e-01   4.5982000e-01
   1.3075600e+00   6.5119100e-01   4.3875500e-01
   1.2279600e+00   6.2709500e-01   4.7058700e-01
   1.1990100e+00   6.5680500e-01   5.6491000e-01
   1.0759900e+00   6.1399400e-01   6.4846600e-01
   8.1431300e-01   4.4953500e-01   6.7163700e-01
   6.0375400e-01   3.1806100e-01   6.4963600e-01
   5.4819600e-01   2.5957600e-01   6.3348700e-01
   5.3442400e-01   1.9290300e-01   6.2810400e-01
   4.3381300e-01   2.2588800e-01   6.4776400e-01
   1.8987300e-01   1.8331100e-01   6.9387200e-01
  -4.5896300e-02   8.0845700e-02   7.1493700e-01
  -1.4767400e-01   6.2188900e-03   6.9434000e-01
  -2.0930100e-01  -8.3614000e-02   6.3255100e-01
  -2.4618400e-01  -6.0687900e-02   6.0586900e-01
  -3.1668100e-01  -3.6358100e-02   6.0867700e-01
  -5.0623100e-01  -7.5660000e-02   5.8199500e-01
  -6.7663800e-01  -1.3648400e-01   5.1622700e-01
  -7.3569800e-01  -2.0245500e-01   4.3196800e-01
  -7.5110400e-01  -1.9754300e-01   3.9896700e-01
  -7.6441000e-01  -1.3110400e-01   3.6081600e-01
  -8.2883800e-01  -1.3344300e-01   3.2219800e-01
  -9.9691200e-01  -2.4409700e-01   2.6579100e-01
  -1.1733900e+00  -4.3686300e-01   1.0757200e-01
  -1.2695600e+00  -6.1910200e-01  -5.9073500e-02
  -1.3269900e+00  -6.3711500e-01  -1.7961000e-01
  -1.3587400e+00  -6.2869400e-01  -2.7018900e-01
  -1.3374900e+00  -6.2729000e-01  -3.3174400e-01
  -1.3141500e+00  -6.3384000e-01  -3.9540600e-01
  -1.2957100e+00  -7.0683000e-01  -4.6000500e-01
  -1.2641900e+00  -7.6695200e-01  -5.1524100e-01
  -1.2877700e+00  -8.6661000e-01  -5.8124400e-01
  -1.3344600e+00  -9.8030500e-01  -6.6597100e-01
  -1.3631700e+00  -1.0649900e+00  -7.6497500e-01
  -1.3017800e+00  -1.0724800e+00  -8.1810500e-01
  -1.1626500e+00  -1.0598400e+00  -8.1365800e-01
  -1.0956500e+00  -1.1501500e+00  -8.3355200e-01
  -1.1341700e+00  -1.3099300e+00  -8.7825600e-01
  -1.1869300e+00  -1.4837400e+00  -9.1757700e-01
  -1.1558800e+00  -1.6177900e+00  -9.7023900e-01
  -1.1105900e+00  -1.7420100e+00  -1.0636300e+00
  -1.0711400e+00  -1.7878700e+00  -1.1134800e+00
  -9.8430600e-01  -1.7719600e+00  -1.0657300e+00
  -8.3700800e-01  -1.7986300e+00  -9.9481400e-01
  -6.8597600e-01  -1.8182800e+00  -9.0119300e-01
  -6.4465800e-01  -1.8620200e+00  -8.1857300e-01
  -6.3228600e-01  -1.9450700e+00  -7.7574100e-01
  -6.0754200e-01  -2.0463700e+00  -7.3805900e-01
  -6.8807700e-01  -2.1822900e+00  -7.5467600e-01
  -7.1142000e-01  -2.3121200e+00  -8.0546600e-01
  -5.6599000e-01  -2.3549400e+00  -7.9587000e-01
  -4.3526600e-01  -2.3044000e+00  -7.2542000e-01
  -3.5146300e-01  -2.2728200e+00  -6.3835300e-01
  -3.0220800e-01  -2.2945800e+00  -5.3607200e-01
  -3.2998700e-01  -2.3614900e+00  -4.4666400e-01
  -4.0772100e-01  -2.5095700e+00  -4.1717300e-01
  -3.9791700e-01  -2.5598700e+00  -3.5912800e-01
  -2.6789300e-01  -2.4740100e+00  -2.6855000e-01
  -1.9366100e-01  -2.4178600e+00  -2.1050500e-01
  -2.0626600e-01  -2.3179700e+00  -1.3256600e-01
  -2.6532500e-01  -2.2424100e+00  -3.7540700e-02
  -3.7900800e-01  -2.2625300e+00   1.4418900e-02
  -4.9175800e-01  -2.3086200e+00   3.7579000e-04
  -5.3564300e-01  -2.3357500e+00  -5.9436200e-03
  -4.8965700e-01  -2.1918800e+00   7.1995800e-02
  -4.7308300e-01  -1.9981800e+00   1.7334000e-01
  -6.0637400e-01  -1.8849500e+00   2.5362000e-01
  -8.0222700e-01  -1.8154700e+00   3.3179400e-01
  -9.2501400e-01  -1.8154700e+00   3.7251900e-01
  -9.7310100e-01  -1.7642400e+00   4.0060500e-01
