**************************************************************************************
  	RED ACELEROGRÁFICA DE LA UNIVERSIDAD AUTONOMA METROPOLITANA (RA-UAM)
	   UNIDAD AZCAPOTZALCO. DIVISIÓN CBI-DEPARTAMENTO DE MATERIALES
     Av. San Pablo 420, Col. Nueva el Rosario, Azcapotzalco, C.P. 02128, Ciudad de México
		Área de Estructuras. e-mail: agb@azc.uam.mx
**************************************************************************************
ARCHIVO ESTANDAR DE ACELERACION:
VERSION DEL FORMATO                    : 2.0
NOMBRE DEL ARCHIVO                     : RIDR202312.071
FECHA Y HORA DE CREACION               : 11:30 a. m. 14/12/2023
REF. CATALOGO ACELEROGRAMAS, SMIS 1999 : REGISTRO NO.      /PAG.    


================================================================================
DATOS DE LA ESTACION:
NOMBRE DE LA ESTACION                  : UAM-RECTORIA.
CLAVE DE LA ESTACION                   : RIDR
LOCALIZACION DE LA ESTACION            : PROL. CANAL DE MIRAMONTES 3855, COL. EX
                                       : DE SAN JUAN DE DIOS, C.P.14387 CIUDAD DE MEXICO.
                                       :
                                       : 
                                       : 
COORDENADAS DE LA ESTACION             : 19.287271 LAT. N
                                       : 99.137132 LONG. W
ALTITUD (msnm)                         : 2240
TIPO DE SUELO                          : TRANSICION
                                       : 
                                       : 
INSTITUCION RESPONSABLE                : UNIVERSIDAD AUTONOMA METROPOLITANA
                                       : 

================================================================================
DATOS DEL ACELEROGRAFO: 
MODELO DEL ACELEROGRAFO                : ETNA2 KINEMETRICS
NUMERO DE SERIE DEL ACELEROGRAFO       : 103462
NUMERO DE CANALES                      : 3
ORIENTACION C1-C6 (rumbo;orientacion)  : /N90E/N00E/V
ORIENTACION C7-C12 (rumbo;orientacion) : 
VEL. DE MUESTREO, C1-C6 (muestras/s)   : /200/200/200
VEL. DE MUESTREO, C7-C12 (muestras/s)  : 
ESC. COMPLETA DE SENSORES, C1-C6, (g)  : /2/2/2
ESC. COMPLETA DE SENSORES, C7-C12 (g)  : 
FREC. NAT. DE SENSORES, C1-C6, (Hz)    : /200/200/202   
FREC. NAT. DE SENSORES, C7-C12 (Hz)    : 
AMORTIGUAMIENTO DE SENSORES, C1-C6     : /0.7/0.7/0.7      
AMORTIGUAMIENTO DE SENSORES, C7-C12    : 
INTERVALO DE MUESTREO, C1-C6 (s)       : /0.005/0.005/0.005
INTERVALO DE MUESTREO, C7-C12 (s)      : 
UMBRAL DE DISPARO, C1-C6 (Gal)         : /2/2/2
UMBRAL DE DISPARO, C7-C12 (Gal)        : 
MEMORIA DE PREEVENTO (s)               : 50
TIEMPO DE POSEVENTO (s)                : 60


================================================================================
DATOS DEL SISMO:
FECHA DEL SISMO [GMT]                  : 2023/12/07
HORA EPICENTRO (GMT)                   : 20:03:40
MAGNITUD(ES)                           : /M=5.7
COORDENADAS DEL EPICENTRO              : 18.2900 LAT. N
                                       : -98.7600 LONG. W
PROFUNDIDAD FOCAL (Km)                 : 48.0
FUENTE DE LOS DATOS EPICENTRALES       : SSN
                                       : INSTITUTO DE GEOFISICA, UNAM

================================================================================
DATOS DE ESTE REGISTRO:
HORA DE LA PRIMERA MUESTRA (GMT)       : 20:03:09.000
EXACTITUD DEL TIEMPO (s)               : 
DURACION DEL REGISTRO (s), C1-C6       : /179/179/179
DURACION DEL REGISTRO (s), C7-C12      : 
NUM. TOTAL DE MUESTRAS, C1-C6          : /35800/35800/35800
NUM. TOTAL DE MUESTRAS, C7-C12         : 
ACEL. MAX.(Gal), C1-C6                 : /-26.34/-15.90/11.03
ACEL. MAX., C1-C6, EN LA MUESTRA       : /13089/13304/13223
ACEL. MAX.(Gal), C7-C12                : 
ACEL. MAX., C7-C12,EN LA MUESTRA       : 
UNIDADES DE LOS DATOS                  : Gal (cm/s/s)
FACTOR DE DECIMACION                   : 1
FORMATO DATOS (FORTRAN,16 campos/dato) : 3E16.7


================================================================================
CALIDAD DEL ACELEROGRAMA:
REGISTRO DIGITAL COMPLETO CON TIEMPO ABSOLUTO CORRECTO


================================================================================
COMENTARIOS:














================================================================================
DATOS DE ACELERACION:
---------+---------+---------+---------+---------+---------+---------+---------+
   CANAL-1   	     CANAL-2          CANAL-3
     N90E             N00E              V
---------+---------+---------+---------+---------+---------+---------+---------+
[...]
  -8.8593500e-01   2.2505600e-01   4.1188500e+00
  -1.0430400e+00   1.4715400e-01   4.2223000e+00
  -1.0710500e+00  -5.6607200e-02   4.1780700e+00
  -1.1004600e+00  -2.6200600e-01   3.9702300e+00
  -1.1212400e+00  -2.1358100e-01   3.7307900e+00
  -1.0633500e+00  -1.7942600e-01   3.4866800e+00
  -9.9401600e-01  -5.3098100e-02   3.2725200e+00
  -8.0189900e-01  -5.1404400e-03   3.0710000e+00
  -5.6496200e-01  -1.4035800e-01   2.7885000e+00
  -3.5020100e-01  -1.9299400e-01   2.5027200e+00
  -1.3497400e-01  -2.9873500e-01   2.2677300e+00
  -3.9265500e-02  -4.0354000e-01   2.1455600e+00
  -3.9499000e-02  -5.6589400e-01   2.1191100e+00
  -4.6735500e-02  -8.7516200e-01   2.1153600e+00
   4.3868500e-03  -1.0159900e+00   2.1799600e+00
   7.7218700e-02  -1.0929600e+00   2.3674400e+00
  -4.5101400e-02  -1.2115700e+00   2.7620500e+00
  -3.0328100e-01  -1.3430400e+00   3.2067500e+00
  -4.9749900e-01  -1.7809800e+00   3.4897200e+00
  -6.1515000e-01  -2.2745900e+00   3.5915300e+00
  -6.0511300e-01  -2.5211600e+00   3.5283400e+00
  -6.2705600e-01  -2.5677200e+00   3.4372900e+00
  -6.8588100e-01  -2.3651200e+00   3.4085000e+00
  -6.3242500e-01  -2.1819500e+00   3.3380500e+00
  -6.0417900e-01  -2.1276800e+00   3.1526800e+00
  -6.0908100e-01  -1.9910600e+00   2.8238400e+00
  -6.2238700e-01  -1.7620300e+00   2.4196300e+00
  -7.4354000e-01  -1.2847900e+00   2.0790900e+00
  -8.3504600e-01  -7.2941800e-01   1.7886300e+00
  -9.0974600e-01  -3.6727900e-01   1.4743000e+00
  -1.1298800e+00  -1.4550400e-01   1.1000500e+00
  -1.3812800e+00  -2.3206200e-01   5.7600300e-01
  -1.6513700e+00  -4.4892400e-01  -1.0462100e-01
  -1.9023100e+00  -6.0964100e-01  -8.5803500e-01
  -2.0944300e+00  -8.6837800e-01  -1.6975800e+00
  -2.2877100e+00  -1.2403400e+00  -2.5869800e+00
  -2.4606900e+00  -1.6836600e+00  -3.5199100e+00
  -2.5636300e+00  -2.0518800e+00  -4.4828000e+00
  -2.5372600e+00  -2.1800800e+00  -5.3834300e+00
  -2.4044300e+00  -2.0942200e+00  -6.1497200e+00
  -2.2020400e+00  -1.7924400e+00  -6.7051300e+00
  -1.9420000e+00  -1.4508900e+00  -7.0377100e+00
  -1.6775100e+00  -1.1179900e+00  -7.2127900e+00
  -1.5103700e+00  -7.1584900e-01  -7.2184000e+00
  -1.3353000e+00  -3.0177600e-01  -7.0005000e+00
  -9.6436900e-01   2.1265700e-01  -6.5946500e+00
  -6.6393800e-01   5.8930000e-01  -6.0034400e+00
  -3.9595500e-01   6.8264200e-01  -5.4569300e+00
   1.2437300e-01   7.2943000e-01  -5.1074900e+00
   4.3740900e-01   8.2417600e-01  -4.7306600e+00
   2.5859800e-01   8.8710600e-01  -4.2508500e+00
  -6.0274700e-02   8.5716200e-01  -3.8204300e+00
  -3.3386100e-01   8.0499300e-01  -3.4663100e+00
  -3.3946300e-01   8.2581400e-01  -3.2154100e+00
   2.1194200e-02   7.9165800e-01  -3.2299200e+00
   1.2273900e-01   7.6218200e-01  -3.3787800e+00
  -1.5621700e-01   7.4533800e-01  -3.4583500e+00
  -4.2443400e-01   4.9104600e-01  -3.4752100e+00
  -5.1033800e-01   1.5978700e-01  -3.5332500e+00
  -3.6187300e-01   5.5450000e-02  -3.5545500e+00
  -1.9146500e-01   2.4611100e-01  -3.4157600e+00
  -1.6882200e-01   5.7081900e-01  -3.0967400e+00
  -2.6779900e-01   8.8991300e-01  -2.4793100e+00
  -2.1597600e-01   1.2609400e+00  -1.6594300e+00
   6.7647800e-02   1.7035600e+00  -7.0496500e-01
   3.4660300e-01   2.2123700e+00   4.0631500e-01
   5.0720600e-01   2.7312500e+00   1.6456200e+00
   6.9138700e-01   3.0152600e+00   2.9965700e+00
   9.5867000e-01   3.0222700e+00   4.2445400e+00
   9.8551500e-01   2.8905700e+00   5.3717300e+00
   8.5852600e-01   2.8138300e+00   6.4245000e+00
   8.5549200e-01   2.6154500e+00   7.1727600e+00
   6.5987300e-01   2.2755400e+00   7.6715300e+00
   2.4155700e-01   2.0270900e+00   8.0731600e+00
  -8.9921000e-02   1.7512800e+00   8.1932300e+00
  -3.6724200e-01   1.4918400e+00   8.0240100e+00
  -5.8830500e-01   1.3505400e+00   7.7653800e+00
  -6.8261300e-01   1.2993100e+00   7.3951100e+00
  -7.9326100e-01   1.2305300e+00   6.8544500e+00
  -8.5769000e-01   1.2494800e+00   6.2639400e+00
  -7.1809500e-01   1.2139200e+00   5.5877600e+00
  -4.9563100e-01   1.0721500e+00   4.7177900e+00
  -2.7340100e-01   9.9892900e-01   3.8012400e+00
  -2.0123900e-02   9.2734300e-01   2.9294000e+00
   1.4491500e-01   8.2604800e-01   2.0271300e+00
   1.6802500e-01   6.2369000e-01   1.0523000e+00
   2.5743100e-01   3.5840200e-01   9.6429900e-02
   3.5430600e-01   1.1580600e-01  -8.7090800e-01
   3.5547300e-01  -1.6772900e-01  -1.9234400e+00
   4.4301200e-01  -4.3652500e-01  -2.9710600e+00
   6.0081400e-01  -5.9981500e-01  -3.9215400e+00
   7.9736600e-01  -6.7654800e-01  -4.6634900e+00
   1.0543800e+00  -5.5536700e-01  -5.1159100e+00
   1.1813700e+00  -3.9628800e-01  -5.3328800e+00
   1.3226000e+00  -3.0224400e-01  -5.4126900e+00
   1.6643500e+00  -1.7287500e-01  -5.2696800e+00
   2.0100600e+00  -4.7951400e-02  -4.9539500e+00
   2.2694100e+00   7.2059700e-02  -4.5696300e+00
   2.4220800e+00   2.2786400e-01  -4.0406800e+00
   2.5205900e+00   3.3290300e-01  -3.4419700e+00
   2.6120900e+00   3.5676400e-01  -2.8509900e+00
   2.6492100e+00   2.4330400e-01  -2.2660900e+00
   2.7026700e+00   9.5977600e-03  -1.7319900e+00
   2.7414200e+00  -1.7264100e-01  -1.2886900e+00
   2.7855300e+00  -4.2015000e-01  -9.6335800e-01
   2.8842800e+00  -7.0766200e-01  -7.4147700e-01
   2.8861500e+00  -9.1399600e-01  -5.6664000e-01
   2.9330700e+00  -1.0751800e+00  -4.7793400e-01
   3.0411500e+00  -1.1640800e+00  -4.6693400e-01
   3.1132800e+00  -1.1799900e+00  -4.6108200e-01
   3.2250900e+00  -1.2424500e+00  -5.3480900e-01
   3.3278000e+00  -1.3021000e+00  -7.2462500e-01
   3.4592300e+00  -1.3210500e+00  -9.5820900e-01
   3.6816900e+00  -1.2045500e+00  -1.1056600e+00
   4.0654600e+00  -1.0101500e+00  -1.0441100e+00
   4.5701500e+00  -8.7890500e-01  -8.3860800e-01
   5.0253500e+00  -7.4883500e-01  -5.0414800e-01
   5.5340000e+00  -6.8239600e-01  -2.1298300e-02
   6.2359400e+00  -5.7969600e-01   5.3200100e-01
   6.8363400e+00  -4.0400800e-01   1.1716700e+00
   7.4007800e+00  -2.0937000e-01   1.9793800e+00
   8.0074800e+00  -6.1753900e-02   2.8371800e+00
   8.3553000e+00  -1.0503300e-01   3.6095500e+00
   8.5712300e+00  -3.6260000e-01   4.3302000e+00
   8.7815500e+00  -5.8016400e-01   4.9651800e+00
   8.9213800e+00  -8.1410400e-01   5.4999900e+00
   8.9316500e+00  -1.0939000e+00   5.8866500e+00
   8.8006900e+00  -1.2735600e+00   6.1047800e+00
   8.5609600e+00  -1.4586100e+00   6.1724200e+00
   8.3205200e+00  -1.4427000e+00   6.0870000e+00
   8.1741500e+00  -1.2536800e+00   5.9161400e+00
   8.1029600e+00  -9.8183900e-01   5.6490800e+00
   7.9519200e+00  -7.0157900e-01   5.2774100e+00
   7.8060300e+00  -4.1219600e-01   4.8406700e+00
   7.7423000e+00  -1.3974000e-03   4.3100700e+00
   7.6062100e+00   3.9068600e-01   3.7535000e+00
   7.6706300e+00   8.3025800e-01   3.1690700e+00
   7.8762900e+00   1.2036300e+00   2.4435100e+00
   8.0109800e+00   1.4962800e+00   1.6676200e+00
   8.2131400e+00   1.8093000e+00   8.6599300e-01
   8.3805100e+00   2.2114400e+00   3.8151000e-02
   8.5490500e+00   2.7462300e+00  -7.3422100e-01
   8.8191400e+00   3.2211200e+00  -1.4342700e+00
   9.2001000e+00   3.7582500e+00  -2.0133200e+00
   9.7671200e+00   4.2644900e+00  -2.5043600e+00
   1.0194100e+01   4.6530700e+00  -2.8940500e+00
   1.0231900e+01   4.9719300e+00  -3.1058700e+00
   1.0278600e+01   5.1588500e+00  -3.3076200e+00
   1.0560800e+01   5.3130100e+00  -3.5421500e+00
   1.0832500e+01   5.4234300e+00  -3.7382800e+00
   1.0906000e+01   5.5092900e+00  -3.9732700e+00
   1.0724900e+01   5.6332800e+00  -4.1277400e+00
   1.0289100e+01   5.8438200e+00  -4.0130600e+00
   9.6653400e+00   5.9530700e+00  -3.7226000e+00
   8.9477600e+00   5.9699200e+00  -3.3975000e+00
   8.2194400e+00   6.0730800e+00  -2.9745700e+00
   7.5361800e+00   6.2635100e+00  -2.5097400e+00
   6.9133700e+00   6.4155700e+00  -2.0781500e+00
   6.2737600e+00   6.5011900e+00  -1.6503000e+00
   5.6717300e+00   6.6637800e+00  -1.3411200e+00
   5.2104600e+00   6.7566500e+00  -1.1475600e+00
   4.7447600e+00   6.8525700e+00  -9.6944400e-01
   4.1786800e+00   6.9735200e+00  -7.7728700e-01
   3.7505600e+00   6.9346800e+00  -6.8507000e-01
   3.4811700e+00   6.6862400e+00  -7.4124300e-01
   3.2573100e+00   6.3100600e+00  -8.6716300e-01
   3.2003500e+00   5.8361000e+00  -1.1098700e+00
   3.2043200e+00   5.4615600e+00  -1.3390100e+00
   3.2094500e+00   5.1445800e+00  -1.4366100e+00
   3.1517900e+00   4.5721200e+00  -1.4693800e+00
   3.0481500e+00   4.0022500e+00  -1.3965900e+00
   2.9839500e+00   3.3635900e+00  -1.2205800e+00
   2.7927700e+00   2.7392100e+00  -9.6921000e-01
   2.4767000e+00   2.1431300e+00  -6.4621800e-01
   2.0607200e+00   1.5781600e+00  -2.8320300e-01
   1.4190000e+00   1.1416300e+00   1.1117500e-01
   5.8120500e-01   6.1667100e-01   4.8987200e-01
  -3.5860500e-01   2.4283600e-01   8.0701200e-01
  -1.3742800e+00  -3.5318700e-02   9.8723200e-01
  -2.3862200e+00  -2.8189100e-01   1.0141500e+00
  -3.5599400e+00  -3.2283100e-01   9.8980700e-01
  -4.7768300e+00  -1.7030200e-01   8.8167500e-01
  -5.9300000e+00  -5.0056900e-02   6.4738900e-01
  -7.2106300e+00   9.8962800e-02   3.3048200e-01
  -8.4167900e+00   3.4951200e-01  -1.1281300e-01
  -9.4406400e+00   6.1667100e-01  -7.0145400e-01
  -1.0375300e+01   1.1285300e+00  -1.3619500e+00
  -1.1216800e+01   1.8001700e+00  -1.9819500e+00
  -1.1884900e+01   2.4786000e+00  -2.5553800e+00
  -1.2510100e+01   3.1242700e+00  -3.1316200e+00
  -1.3025300e+01   3.7065500e+00  -3.6353000e+00
  -1.3457400e+01   4.2602800e+00  -4.0025300e+00
  -1.3794200e+01   4.7784600e+00  -4.2300200e+00
  -1.3869800e+01   5.1602500e+00  -4.3629700e+00
  -1.3993600e+01   5.3925500e+00  -4.3983100e+00
  -1.4055700e+01   5.4185200e+00  -4.2773000e+00
  -1.4095600e+01   5.2411900e+00  -4.0139900e+00
  -1.4268500e+01   4.9141400e+00  -3.6491100e+00
  -1.4415600e+01   4.3531600e+00  -3.2324900e+00
  -1.4590200e+01   3.5996400e+00  -2.7648600e+00
  -1.4723700e+01   2.6283200e+00  -2.3009700e+00
  -1.4867500e+01   1.6057700e+00  -1.8443300e+00
  -1.5197900e+01   5.1607700e-01  -1.2732400e+00
  -1.5633400e+01  -7.3339500e-01  -6.8881500e-01
  -1.6126500e+01  -2.1038100e+00  -1.3294100e-01
  -1.6817400e+01  -3.5757600e+00   4.2667800e-01
  -1.7489700e+01  -5.0175300e+00   8.8027100e-01
  -1.8106200e+01  -6.4679600e+00   1.3106900e+00
  -1.8934200e+01  -7.7857400e+00   1.7699000e+00
  -1.9837600e+01  -9.1961700e+00   2.1296400e+00
  -2.0798700e+01  -1.0676500e+01   2.3803100e+00
  -2.1788700e+01  -1.1853300e+01   2.6405800e+00
  -2.2713300e+01  -1.2884700e+01   2.8854000e+00
  -2.3620700e+01  -1.3773200e+01   3.0436100e+00
  -2.4386600e+01  -1.4523900e+01   3.1796000e+00
  -2.4965700e+01  -1.5137800e+01   3.3020100e+00
  -2.5467600e+01  -1.5611300e+01   3.4234800e+00
  -2.5882700e+01  -1.5856700e+01   3.5454200e+00
  -2.6182100e+01  -1.5867400e+01   3.6743900e+00
  -2.6340400e+01  -1.5694100e+01   3.7394500e+00
  -2.6342800e+01  -1.5353500e+01   3.6456000e+00
  -2.6179600e+01  -1.4825200e+01   3.4150600e+00
  -2.5838100e+01  -1.4078700e+01   3.0609300e+00
  -2.5378400e+01  -1.3157000e+01   2.6789600e+00
  -2.4821500e+01  -1.1941000e+01   2.2773300e+00
  -2.4274300e+01  -1.0814600e+01   1.7762200e+00
  -2.3631600e+01  -9.7122400e+00   1.2367300e+00
  -2.2822500e+01  -8.5198500e+00   7.5903200e-01
  -2.1969300e+01  -7.4418500e+00   3.3539700e-01
  -2.1059900e+01  -6.4141500e+00  -4.4469500e-02
  -2.0152300e+01  -5.5408600e+00  -3.1737400e-01
  -1.9097600e+01  -4.8004400e+00  -5.1795700e-01
  -1.7974300e+01  -4.3512700e+00  -7.4569000e-01
  -1.6975200e+01  -4.0567400e+00  -9.7974200e-01
  -1.6116700e+01  -3.8235100e+00  -1.2058400e+00
  -1.5492000e+01  -3.7133200e+00  -1.4590800e+00
  -1.4883200e+01  -3.6730800e+00  -1.6903200e+00
  -1.4248000e+01  -3.6564700e+00  -1.8319300e+00
  -1.3794000e+01  -3.7753100e+00  -2.0037200e+00
  -1.3218800e+01  -4.1936000e+00  -2.5343200e+00
  -1.2467800e+01  -4.3859000e+00  -3.2498100e+00
  -1.2346000e+01  -4.3737300e+00  -3.6338900e+00
  -1.2702000e+01  -4.4792400e+00  -3.7230700e+00
  -1.2712000e+01  -4.6357400e+00  -3.7251700e+00
  -1.2172500e+01  -4.7152800e+00  -3.6781300e+00
  -1.1254000e+01  -4.7632400e+00  -3.6179800e+00
  -1.0503900e+01  -4.8680500e+00  -3.5941000e+00
  -1.0040600e+01  -4.8519000e+00  -3.4677200e+00
  -9.4095900e+00  -4.9038400e+00  -3.2264100e+00
  -8.2816300e+00  -5.0376500e+00  -3.0351900e+00
  -7.0792100e+00  -5.0598800e+00  -2.6157700e+00
  -6.1865500e+00  -4.9625600e+00  -1.8838900e+00
  -5.3046300e+00  -4.9113300e+00  -1.0918500e+00
  -4.3543200e+00  -5.0687700e+00  -2.6775500e-01
  -3.5328600e+00  -5.2336900e+00   5.8630100e-01
  -2.6455700e+00  -5.3712500e+00   1.3778700e+00
  -1.8257500e+00  -5.5640200e+00   2.0147200e+00
  -1.3700800e+00  -5.5548900e+00   2.6057000e+00
  -9.1651500e-01  -5.4994500e+00   3.2378800e+00
  -3.0234700e-01  -5.4033000e+00   3.7485800e+00
   4.5608400e-01  -5.1249100e+00   4.1293800e+00
   1.1825300e+00  -4.9775300e+00   4.3629700e+00
   1.8774700e+00  -4.6163300e+00   4.4549500e+00
   2.7918400e+00  -4.0806100e+00   4.5268000e+00
   3.8448600e+00  -3.5846500e+00   4.5516100e+00
   4.9452800e+00  -2.9839000e+00   4.5577000e+00
   6.3309500e+00  -2.4357700e+00   4.5090200e+00
   7.7339000e+00  -1.9620500e+00   4.4139900e+00
   9.0572400e+00  -1.5510100e+00   4.3250500e+00
   1.0517100e+01  -1.2183500e+00   4.1527900e+00
   1.1802000e+01  -1.0368100e+00   3.9089100e+00
   1.3151000e+01  -9.5072500e-01   3.6477000e+00
   1.4442600e+01  -1.0251200e+00   3.3790100e+00
   1.5517800e+01  -1.1182300e+00   3.1915400e+00
   1.6689200e+01  -1.2272400e+00   3.0047600e+00
   1.7691800e+01  -1.4492500e+00   2.7896700e+00
   1.8450200e+01  -1.5316000e+00   2.6330900e+00
   1.9217000e+01  -1.8619200e+00   2.4877400e+00
   1.9800600e+01  -2.1290800e+00   2.4371900e+00
   2.0255600e+01  -2.1389100e+00   2.4758000e+00
   2.0718000e+01  -2.2444100e+00   2.5020200e+00
   2.1063300e+01  -2.0224000e+00   2.5017800e+00
   2.1314700e+01  -1.8118600e+00   2.4470200e+00
   2.1396900e+01  -1.6558200e+00   2.3292900e+00
   2.1352300e+01  -1.3589500e+00   2.1479000e+00
   2.1249100e+01  -1.1114400e+00   1.8918400e+00
   2.1167900e+01  -4.9641400e-01   1.6313400e+00
   2.1068700e+01   2.8751800e-01   1.3371400e+00
   2.0966400e+01   9.6290200e-01   9.1022900e-01
   2.0911500e+01   1.7524500e+00   3.5739800e-01
   2.1071200e+01   2.5183700e+00  -3.3305600e-01
   2.1281100e+01   3.3766900e+00  -1.0806200e+00
   2.1477400e+01   4.4804200e+00  -1.8075800e+00
   2.1893400e+01   5.4718600e+00  -2.4781400e+00
   2.2281800e+01   6.4738200e+00  -3.0206800e+00
   2.2684500e+01   7.3599900e+00  -3.4342500e+00
   2.3096500e+01   8.0620400e+00  -3.7235400e+00
   2.3562700e+01   8.8281900e+00  -3.8873700e+00
   2.4028100e+01   9.4624000e+00  -3.9255200e+00
   2.4397200e+01   1.0043300e+01  -3.8684100e+00
   2.4568800e+01   1.0369400e+01  -3.7226000e+00
   2.4586800e+01   1.0349000e+01  -3.4845700e+00
   2.4435300e+01   1.0069700e+01  -3.1999600e+00
   2.3986800e+01   9.5580800e+00  -2.8545000e+00
   2.3461400e+01   8.7601100e+00  -2.5160600e+00
   2.2862400e+01   7.7162800e+00  -2.2916000e+00
   2.2309800e+01   6.5159300e+00  -2.1476600e+00
   2.1669500e+01   5.1792000e+00  -2.0582500e+00
   2.1086900e+01   3.7994200e+00  -2.0945300e+00
   2.0498400e+01   2.3150700e+00  -2.2780300e+00
   1.9736200e+01   9.8699800e-01  -2.5298700e+00
   1.9104100e+01  -2.3463500e-01  -2.8325000e+00
   1.8537000e+01  -1.2929800e+00  -3.2032400e+00
   1.8012300e+01  -2.1938800e+00  -3.6350600e+00
   1.7537900e+01  -3.1212200e+00  -4.1027000e+00
