**************************************************************************************
  	RED ACELEROGRÁFICA DE LA UNIVERSIDAD AUTONOMA METROPOLITANA (RA-UAM)
	   UNIDAD AZCAPOTZALCO. DIVISIÓN CBI-DEPARTAMENTO DE MATERIALES
     Av. San Pablo 420, Col. Nueva el Rosario, Azcapotzalco, C.P. 02128, Ciudad de México
		Área de Estructuras. e-mail: agb@azc.uam.mx
**************************************************************************************
ARCHIVO ESTANDAR DE ACELERACION:
VERSION DEL FORMATO                    : 2.0
NOMBRE DEL ARCHIVO                     : RIDX202310.221
FECHA Y HORA DE CREACION               : 11:30 a. m. 27/10/2023
REF. CATALOGO ACELEROGRAMAS, SMIS 1999 : REGISTRO NO.      /PAG.    


================================================================================
DATOS DE LA ESTACION:
NOMBRE DE LA ESTACION                  : UAM-XOCHIMILCO.
CLAVE DE LA ESTACION                   : RIDX
LOCALIZACION DE LA ESTACION            : CALZADA DEL HUESO 1100, COL. VILLA
                                       : QUIETUD, DEL. COYOACAN, C.P.04960,  
                                       : CIUDAD DE MEXICO.
                                       : 
                                       : 
COORDENADAS DE LA ESTACION             : 19.301345 LAT. N
                                       : 99.10268 LONG. W
ALTITUD (msnm)                         : 2232
TIPO DE SUELO                          : LAGO
                                       : 
                                       : 
INSTITUCION RESPONSABLE                : UNIVERSIDAD AUTONOMA METROPOLITANA
                                       : 

================================================================================
DATOS DEL ACELEROGRAFO: 
MODELO DEL ACELEROGRAFO                : BASALT KINEMETRICS
NUMERO DE SERIE DEL ACELEROGRAFO       : 1729
NUMERO DE CANALES                      : 3
ORIENTACION C1-C6 (rumbo;orientacion)  : /V/N00E/N90E
ORIENTACION C7-C12 (rumbo;orientacion) : 
VEL. DE MUESTREO, C1-C6 (muestras/s)   : /200/200/200
VEL. DE MUESTREO, C7-C12 (muestras/s)  : 
ESC. COMPLETA DE SENSORES, C1-C6, (g)  : /2/2/2
ESC. COMPLETA DE SENSORES, C7-C12 (g)  : 
FREC. NAT. DE SENSORES, C1-C6, (Hz)    : /208/210/200   
FREC. NAT. DE SENSORES, C7-C12 (Hz)    : 
AMORTIGUAMIENTO DE SENSORES, C1-C6     : /0.7/0.7/0.7      
AMORTIGUAMIENTO DE SENSORES, C7-C12    : 
INTERVALO DE MUESTREO, C1-C6 (s)       : /0.005/0.005/0.005
INTERVALO DE MUESTREO, C7-C12 (s)      : 
UMBRAL DE DISPARO, C1-C6 (Gal)         : /2/2/2
UMBRAL DE DISPARO, C7-C12 (Gal)        : 
MEMORIA DE PREEVENTO (s)               : 60
TIEMPO DE POSEVENTO (s)                : 80


================================================================================
DATOS DEL SISMO:
FECHA DEL SISMO [GMT]                  : 2023/10/22
HORA EPICENTRO (GMT)                   : 02:05:16
MAGNITUD(ES)                           : /M=4.9
COORDENADAS DEL EPICENTRO              : 16.1700 LAT. N
                                       : -99.1300 LONG. W
PROFUNDIDAD FOCAL (Km)                 : 17.1
FUENTE DE LOS DATOS EPICENTRALES       : SSN
                                       : INSTITUTO DE GEOFISICA, UNAM

================================================================================
DATOS DE ESTE REGISTRO:
HORA DE LA PRIMERA MUESTRA (GMT)       : 02:06:01.000
EXACTITUD DEL TIEMPO (s)               : 
DURACION DEL REGISTRO (s), C1-C6       : /174/174/174
DURACION DEL REGISTRO (s), C7-C12      : 
NUM. TOTAL DE MUESTRAS, C1-C6          : /34800/34800/34800
NUM. TOTAL DE MUESTRAS, C7-C12         : 
ACEL. MAX.(Gal), C1-C6                 : /-0.460/-0.780/-0.603
ACEL. MAX., C1-C6, EN LA MUESTRA       : /14603/14929/13244
ACEL. MAX.(Gal), C7-C12                : 
ACEL. MAX., C7-C12,EN LA MUESTRA       : 
UNIDADES DE LOS DATOS                  : Gal (cm/s/s)
FACTOR DE DECIMACION                   : 1
FORMATO DATOS (FORTRAN,16 campos/dato) : 3E16.7


================================================================================
CALIDAD DEL ACELEROGRAMA:
REGISTRO DIGITAL COMPLETO CON TIEMPO ABSOLUTO CORRECTO


================================================================================
COMENTARIOS:














================================================================================
DATOS DE ACELERACION:
---------+---------+---------+---------+---------+---------+---------+---------+
   CANAL-1   	      CANAL-2          CANAL-3
      V                 N00E             N90E
---------+---------+---------+---------+---------+---------+---------+---------+
[...]
  -3.4346100e-02  -4.7919000e-04  -3.3195600e-01
  -4.1105500e-02  -6.0883600e-03  -3.3593500e-01
  -4.2270900e-02  -3.2498200e-02  -3.3804100e-01
  -4.4368600e-02  -3.9977100e-02  -3.3593500e-01
  -5.8353500e-02  -4.9092000e-02  -3.3546700e-01
  -6.3947500e-02  -7.0827500e-02  -3.3616900e-01
  -5.7887400e-02  -8.0877200e-02  -3.3827500e-01
  -6.5579100e-02  -8.5084100e-02  -3.2751000e-01
  -7.9097800e-02  -9.9808200e-02  -3.2657400e-01
  -8.5157900e-02  -1.0121000e-01  -3.1744800e-01
  -7.6300800e-02  -1.0588500e-01  -3.0855500e-01
  -6.8842200e-02  -1.1920700e-01  -3.0270500e-01
  -7.9330900e-02  -1.2014100e-01  -2.8796200e-01
  -9.0751900e-02  -1.3065900e-01  -2.8889800e-01
  -8.5857100e-02  -1.3393100e-01  -2.7860100e-01
  -7.9330900e-02  -1.3509900e-01  -2.7275100e-01
  -8.2594000e-02  -1.2925600e-01  -2.5988000e-01
  -8.1894800e-02  -1.2738700e-01  -2.4677500e-01
  -7.9563900e-02  -1.3463200e-01  -2.4981700e-01
  -8.4691700e-02  -1.2832100e-01  -2.3250000e-01
  -8.6556400e-02  -1.3603400e-01  -2.2126700e-01
  -7.7932400e-02  -1.2972400e-01  -2.0792900e-01
  -6.5579100e-02  -1.1640200e-01  -1.9318600e-01
  -7.1173000e-02  -1.1149400e-01  -1.8218700e-01
  -8.2594000e-02  -9.7003600e-02  -1.6299800e-01
  -7.0007600e-02  -8.7187600e-02  -1.5527500e-01
  -6.9541400e-02  -7.5268100e-02  -1.3936200e-01
  -7.0706800e-02  -7.1061200e-02  -1.2461900e-01
  -6.6511400e-02  -5.7973100e-02  -1.1806700e-01
  -7.8398500e-02  -4.3716500e-02  -1.0777000e-01
  -7.0007600e-02  -3.8574800e-02  -9.8175800e-02
  -7.3970000e-02  -1.4034700e-02  -8.6475000e-02
  -7.4669200e-02  -8.6592200e-03  -7.8284500e-02
  -6.3714400e-02   6.0648400e-03  -6.1201500e-02
  -7.3037700e-02   2.7099200e-02  -4.4586400e-02
  -6.3947500e-02   2.8267800e-02  -3.8034000e-02
  -7.3970000e-02   5.3041600e-02  -2.5163200e-02
  -8.3060200e-02   6.5662200e-02  -1.0420300e-02
  -7.3970000e-02   8.2256000e-02   2.6845500e-03
  -7.9097800e-02   1.0469300e-01   9.0029500e-03
  -7.8631600e-02   1.2035200e-01   2.1171700e-02
  -8.1428600e-02   1.4232100e-01   3.7084700e-02
  -7.2105300e-02   1.4348900e-01   4.1531000e-02
  -7.6067700e-02   1.6803000e-01   4.8083400e-02
  -9.4947300e-02   1.9023200e-01   4.9253500e-02
  -9.8443600e-02   1.9537400e-01   5.6976000e-02
  -1.0310500e-01   2.1757700e-01   7.0080800e-02
  -1.0030800e-01   2.2832800e-01   7.8505300e-02
  -1.0753400e-01   2.4538900e-01   9.9566600e-02
  -1.0217300e-01   2.6034700e-01   1.1173500e-01
  -8.9353400e-02   2.7226700e-01   1.2226600e-01
  -1.0217300e-01   2.9400200e-01   1.4122100e-01
  -1.0427100e-01   3.0545400e-01   1.4707200e-01
  -1.0100700e-01   3.2134700e-01   1.4824200e-01
  -9.0984900e-02   3.3513600e-01   1.5783600e-01
  -8.4924800e-02   3.4658800e-01   1.5877200e-01
  -8.8188000e-02   3.5850700e-01   1.6509100e-01
  -8.6789500e-02   3.6762200e-01   1.8662000e-01
  -8.3526300e-02   3.7627000e-01   1.8568400e-01
  -7.9563900e-02   3.8561800e-01   1.9738500e-01
  -8.4924800e-02   4.0244600e-01   2.1259600e-01
  -6.8609100e-02   3.9660300e-01   2.0393700e-01
  -5.9285900e-02   4.0735400e-01   2.1821200e-01
  -6.2082800e-02   4.2558400e-01   2.2453000e-01
  -4.4368600e-02   4.2044200e-01   2.2546700e-01
  -3.4812300e-02   4.4498200e-01   2.3740100e-01
  -1.8030400e-02   4.5129200e-01   2.3880500e-01
  -1.6398900e-02   4.5526600e-01   2.5144200e-01
  -9.6394900e-03   4.6765300e-01   2.5331400e-01
   1.0638600e-02   4.6204300e-01   2.5518600e-01
   1.5533300e-02   4.6975600e-01   2.6173900e-01
   3.5811400e-02   4.6344600e-01   2.5471800e-01
   4.3503100e-02   4.6858700e-01   2.6899300e-01
   5.6555700e-02   4.7700100e-01   2.7203500e-01
   7.3803700e-02   4.7606600e-01   2.7344000e-01
   7.2871400e-02   4.8307800e-01   2.7835400e-01
   9.2217100e-02   4.8307800e-01   2.7367400e-01
   1.1412700e-01   4.8401300e-01   2.7929000e-01
   1.2088600e-01   4.7887100e-01   2.6688700e-01
   1.3044300e-01   4.7817000e-01   2.7297200e-01
   1.4839000e-01   4.8448000e-01   2.8046000e-01
   1.5841200e-01   4.8821900e-01   2.7203500e-01
   1.7029900e-01   4.7887100e-01   2.7788600e-01
   1.8078800e-01   4.7957200e-01   2.6641900e-01
   1.8591600e-01   4.8214300e-01   2.6478100e-01
   2.0502900e-01   4.6484800e-01   2.6641900e-01
   2.1994600e-01   4.6695100e-01   2.5729300e-01
   2.1971300e-01   4.6835400e-01   2.6407900e-01
   2.2833700e-01   4.6344600e-01   2.5893100e-01
   2.4535200e-01   4.6414700e-01   2.3927300e-01
   2.4395300e-01   4.5713500e-01   2.4067700e-01
   2.5420900e-01   4.5433100e-01   2.4020900e-01
   2.6842700e-01   4.5409700e-01   2.2874300e-01
   2.6563000e-01   4.4942300e-01   2.2991300e-01
   2.6959200e-01   4.4918900e-01   2.2476400e-01
   2.6959200e-01   4.4848800e-01   2.2382800e-01
   2.7495300e-01   4.4778700e-01   2.1236200e-01
   2.7658500e-01   4.5433100e-01   2.0510700e-01
   2.6796100e-01   4.5152600e-01   2.1119200e-01
   2.6469700e-01   4.4287900e-01   1.9644900e-01
   2.6586300e-01   4.3353000e-01   1.9949100e-01
   2.6726100e-01   4.3095900e-01   1.9223600e-01
   2.6213400e-01   4.2651900e-01   1.8474800e-01
   2.6003600e-01   4.2207800e-01   1.8615200e-01
   2.5490800e-01   4.2207800e-01   1.7398300e-01
   2.4255500e-01   4.1319700e-01   1.7421700e-01
   2.3183300e-01   4.0805500e-01   1.6438900e-01
   2.2880300e-01   3.9169500e-01   1.5502800e-01
   2.1528400e-01   3.9309700e-01   1.5105000e-01
   1.9570500e-01   3.8725400e-01   1.5105000e-01
   1.8684800e-01   3.7042700e-01   1.4519900e-01
   1.7309600e-01   3.7697100e-01   1.4543400e-01
   1.6284100e-01   3.5640400e-01   1.4800800e-01
   1.4419400e-01   3.5126200e-01   1.4145500e-01
   1.3347300e-01   3.4144600e-01   1.4800800e-01
   1.2135200e-01   3.2298300e-01   1.4309300e-01
   9.5480300e-02   3.1901000e-01   1.4449700e-01
   9.0352500e-02   3.0078000e-01   1.4145500e-01
   7.0540600e-02   2.9376800e-01   1.4098700e-01
   5.2360200e-02   2.8114800e-01   1.4660400e-01
   3.5112200e-02   2.6829300e-01   1.4449700e-01
   1.7164900e-02   2.4235100e-01   1.4285900e-01
   1.2736300e-02   2.2225100e-01   1.4426300e-01
  -1.6631900e-02   2.0893000e-01   1.5058200e-01
  -2.6887500e-02   1.8018300e-01   1.3630700e-01
  -4.2970100e-02   1.7200300e-01   1.3911500e-01
  -7.0473800e-02   1.5564300e-01   1.4122100e-01
  -8.0263200e-02   1.3437500e-01   1.3700900e-01
  -1.0380400e-01   1.1591100e-01   1.4098700e-01
  -1.1009800e-01   9.1370900e-02   1.3958300e-01
  -1.1988700e-01   7.5712000e-02   1.5058200e-01
  -1.3666900e-01   5.7715900e-02   1.5198600e-01
  -1.5205200e-01   3.2474700e-02   1.4941200e-01
  -1.6953300e-01   1.5647200e-02   1.4262500e-01
  -1.7093200e-01  -7.9580800e-03   1.3630700e-01
  -1.8468400e-01  -3.8107300e-02   1.3186100e-01
  -1.9074400e-01  -6.4750900e-02   1.2975500e-01
  -1.9517200e-01  -9.3264200e-02   1.2764800e-01
  -2.1381900e-01  -1.1009200e-01   1.2811600e-01
  -2.2757100e-01  -1.3673500e-01   1.4051900e-01
  -2.3293200e-01  -1.6057400e-01   1.3654100e-01
  -2.3805900e-01  -1.7716800e-01   1.3326500e-01
  -2.5087900e-01  -2.0124100e-01   1.3420100e-01
  -2.4878100e-01  -2.2601400e-01   1.2694600e-01
  -2.5577400e-01  -2.4611400e-01   1.2601000e-01
  -2.6602900e-01  -2.6598000e-01   1.2905200e-01
  -2.6672800e-01  -2.8888400e-01   1.3396700e-01
  -2.7208900e-01  -3.0734700e-01   1.3069100e-01
  -2.7325500e-01  -3.3422500e-01   1.2413800e-01
  -2.8421000e-01  -3.5666100e-01   1.2250000e-01
  -2.8048000e-01  -3.8237000e-01   1.1711800e-01
  -2.7302200e-01  -4.0317100e-01   1.1056500e-01
  -2.7675100e-01  -4.2186800e-01   1.0728900e-01
  -2.8141300e-01  -4.3916300e-01   1.1688400e-01
  -2.9143500e-01  -4.4664200e-01   1.0775700e-01
  -2.8164600e-01  -4.6697500e-01   8.9972000e-02
  -2.7745000e-01  -4.7819300e-01   9.1142100e-02
  -2.8584100e-01  -4.9174900e-01   8.4355700e-02
  -2.8117900e-01  -5.0436900e-01   7.7803300e-02
  -2.8071300e-01  -5.1932700e-01   6.5166500e-02
  -2.7838200e-01  -5.3592100e-01   6.9144700e-02
  -2.7278900e-01  -5.4550300e-01   5.8146000e-02
  -2.7814900e-01  -5.5718900e-01   3.8254800e-02
  -2.7651800e-01  -5.6022700e-01   3.9658900e-02
  -2.7278900e-01  -5.7378300e-01   2.0469700e-02
  -2.7208900e-01  -5.8523500e-01   1.9533600e-02
  -2.6463100e-01  -5.9645300e-01   1.2747200e-02
  -2.6369800e-01  -5.9949100e-01   8.3009000e-03
  -2.6299900e-01  -5.9481700e-01   1.2804600e-03
  -2.5810400e-01  -6.0673700e-01  -1.7206700e-02
  -2.4948000e-01  -6.0743800e-01  -8.0801200e-03
  -2.3805900e-01  -6.0813900e-01  -2.1184900e-02
  -2.3572900e-01  -6.1585200e-01  -3.3353700e-02
  -2.3712700e-01  -6.1655300e-01  -3.3587700e-02
  -2.2873600e-01  -6.2520000e-01  -4.3884400e-02
  -2.1964600e-01  -6.2590100e-01  -4.6458500e-02
  -2.1568400e-01  -6.2379800e-01  -5.4649000e-02
  -2.0519500e-01  -6.3034200e-01  -6.1201500e-02
  -2.0030000e-01  -6.2683600e-01  -6.1903500e-02
  -1.9307500e-01  -6.2894000e-01  -6.7285800e-02
  -1.7512700e-01  -6.3338000e-01  -5.9329300e-02
  -1.7372900e-01  -6.3618500e-01  -6.8221900e-02
  -1.6580400e-01  -6.3361400e-01  -7.3370200e-02
  -1.3923300e-01  -6.3151000e-01  -6.4243600e-02
  -1.3480400e-01  -6.2940700e-01  -7.2434200e-02
  -1.2781200e-01  -6.2683600e-01  -6.8689900e-02
  -1.0543600e-01  -6.3735300e-01  -7.6646400e-02
  -9.8676600e-02  -6.3501600e-01  -7.1966100e-02
  -8.4924800e-02  -6.4553300e-01  -7.3604200e-02
  -7.2804600e-02  -6.4693600e-01  -8.5305000e-02
  -6.3947500e-02  -6.4109300e-01  -7.3838200e-02
  -4.1338600e-02  -6.4646800e-01  -8.2964800e-02
  -2.9684500e-02  -6.4296200e-01  -8.7177100e-02
  -2.0594300e-02  -6.4833800e-01  -8.6007000e-02
  -7.5417500e-03  -6.4226100e-01  -8.9517200e-02
   9.0070300e-03  -6.5511600e-01  -8.7177100e-02
   2.3458100e-02  -6.6352900e-01  -8.8581200e-02
   3.3946800e-02  -6.5815400e-01  -8.9751200e-02
   5.1194800e-02  -6.6282800e-01  -8.7879100e-02
   6.4014300e-02  -6.6002400e-01  -9.7005700e-02
   8.0796100e-02  -6.7100800e-01  -9.5367600e-02
   9.8277300e-02  -6.7591600e-01  -9.3729500e-02
   1.0480400e-01  -6.8479800e-01  -1.0613200e-01
   1.1342800e-01  -6.9484700e-01  -1.0496200e-01
   1.2997600e-01  -6.9531500e-01  -1.1104700e-01
   1.4512700e-01  -7.0302700e-01  -1.1525900e-01
   1.5142000e-01  -7.0489700e-01  -1.1221700e-01
   1.6657000e-01  -7.0887000e-01  -1.2087500e-01
   1.7799100e-01  -7.2102300e-01  -1.2813000e-01
   1.7915700e-01  -7.2546400e-01  -1.1970500e-01
   1.9757000e-01  -7.3457900e-01  -1.2649200e-01
   2.0642700e-01  -7.4836800e-01  -1.3538400e-01
   2.0502900e-01  -7.4205800e-01  -1.3491600e-01
   2.2111100e-01  -7.4322600e-01  -1.4802100e-01
   2.2297600e-01  -7.5444500e-01  -1.5059500e-01
   2.2437400e-01  -7.5140600e-01  -1.5082900e-01
   2.3766000e-01  -7.5538000e-01  -1.6276400e-01
   2.2857000e-01  -7.6706500e-01  -1.7025200e-01
   2.2810400e-01  -7.6800000e-01  -1.7306000e-01
   2.3672800e-01  -7.7524500e-01  -1.8593100e-01
   2.3323100e-01  -7.8015300e-01  -1.8991000e-01
   2.3929200e-01  -7.6916900e-01  -1.9880200e-01
   2.3672800e-01  -7.7407700e-01  -2.0769500e-01
   2.2693800e-01  -7.7641400e-01  -2.1354500e-01
   2.2996800e-01  -7.6963600e-01  -2.2688400e-01
   2.3346500e-01  -7.7057100e-01  -2.3016000e-01
   2.2507400e-01  -7.6192400e-01  -2.4069100e-01
   2.1808100e-01  -7.5631400e-01  -2.5028500e-01
   2.2390800e-01  -7.4743300e-01  -2.6573000e-01
   2.1085600e-01  -7.3598100e-01  -2.6877200e-01
   2.0526200e-01  -7.3948700e-01  -2.7977100e-01
   2.0502900e-01  -7.3294300e-01  -2.9123800e-01
   1.9523900e-01  -7.1985500e-01  -2.9170600e-01
   1.9407400e-01  -7.1050600e-01  -3.1393700e-01
   1.7472800e-01  -6.9998900e-01  -3.1908600e-01
   1.6936700e-01  -6.8386300e-01  -3.3078600e-01
   1.6167500e-01  -6.6726900e-01  -3.3453100e-01
   1.4209700e-01  -6.6049100e-01  -3.4318900e-01
   1.3323900e-01  -6.5044100e-01  -3.5395400e-01
   1.3184100e-01  -6.3688600e-01  -3.5816600e-01
   1.3463800e-01  -6.2730400e-01  -3.7454700e-01
   1.1063100e-01  -6.0930700e-01  -3.6705900e-01
   9.9442700e-02  -5.8780600e-01  -3.8250400e-01
   9.6412600e-02  -5.7518500e-01  -3.9256600e-01
   8.3360000e-02  -5.5835800e-01  -3.8741800e-01
   6.9375200e-02  -5.4597100e-01  -3.9888500e-01
   5.6089500e-02  -5.3895900e-01  -4.0590500e-01
   5.8886500e-02  -5.2376800e-01  -4.1081900e-01
   3.7909100e-02  -5.0881000e-01  -4.0964900e-01
   1.6931800e-02  -4.9315100e-01  -4.1433000e-01
   1.0638600e-02  -4.8076400e-01  -4.1667000e-01
  -8.3145800e-05  -4.6370300e-01  -4.1316000e-01
  -1.9195800e-02  -4.5318600e-01  -4.1386200e-01
  -4.4834800e-02  -4.4547300e-01  -4.1198900e-01
  -4.4368600e-02  -4.2747700e-01  -4.0941500e-01
  -4.7631800e-02  -4.1158400e-01  -4.0660700e-01
  -6.8143000e-02  -3.9732800e-01  -4.0145900e-01
  -8.5857100e-02  -3.8400600e-01  -3.9584200e-01
  -9.6345800e-02  -3.6974900e-01  -3.8531200e-01
  -1.0730100e-01  -3.5853100e-01  -3.7922700e-01
  -1.1569200e-01  -3.5035100e-01  -3.7712100e-01
  -1.1755600e-01  -3.4520900e-01  -3.6799500e-01
  -1.3177400e-01  -3.2324000e-01  -3.5746400e-01
  -1.4296200e-01  -3.1412500e-01  -3.5348600e-01
  -1.5368400e-01  -3.0641200e-01  -3.4412500e-01
  -1.6790200e-01  -2.9192200e-01  -3.2868000e-01
  -1.7139800e-01  -2.9425900e-01  -3.2306400e-01
  -1.7839100e-01  -2.7229000e-01  -3.0644900e-01
  -1.8981200e-01  -2.7158900e-01  -2.9311000e-01
  -1.9983400e-01  -2.6200700e-01  -2.8913200e-01
  -2.0892400e-01  -2.4144000e-01  -2.7415500e-01
  -2.1894700e-01  -2.4237500e-01  -2.5894400e-01
  -2.2570600e-01  -2.2227500e-01  -2.4607300e-01
  -2.2710500e-01  -2.1035600e-01  -2.3203200e-01
  -2.3502900e-01  -1.9796900e-01  -2.1354500e-01
  -2.4085600e-01  -1.9119100e-01  -1.9880200e-01
  -2.3945800e-01  -1.8020600e-01  -1.8522900e-01
  -2.4761600e-01  -1.6431400e-01  -1.6557200e-01
  -2.4761600e-01  -1.5496500e-01  -1.5925400e-01
  -2.4155600e-01  -1.3486500e-01  -1.4942500e-01
  -2.4761600e-01  -1.2551700e-01  -1.3070400e-01
  -2.5344300e-01  -1.1827200e-01  -1.2298100e-01
  -2.5484100e-01  -1.0237900e-01  -1.0238800e-01
  -2.5437500e-01  -8.8589800e-02  -9.4899600e-02
  -2.5204400e-01  -8.1578400e-02  -7.4774300e-02
  -2.4108900e-01  -6.0310300e-02  -5.1372800e-02
  -2.3992400e-01  -4.2547900e-02  -5.4883100e-02
  -2.4621700e-01  -2.8992500e-02  -3.5459800e-02
  -2.4295400e-01  -5.6209300e-03  -3.0779500e-02
  -2.4248800e-01   1.8579600e-03  -1.1122300e-02
  -2.3083400e-01   1.5880900e-02   1.0464500e-03
  -2.2454100e-01   3.1773500e-02   6.4287900e-03
  -2.2104400e-01   4.4394100e-02   2.4681900e-02
  -2.1358600e-01   6.7064500e-02   1.7661500e-02
  -2.1684900e-01   8.7164000e-02   4.0594900e-02
  -2.0566100e-01   9.8382400e-02   4.2233000e-02
  -1.9424000e-01   1.1147000e-01   4.6679300e-02
  -1.8561600e-01   1.3086900e-01   5.7210000e-02
  -1.8375100e-01   1.4021700e-01   5.2997700e-02
  -1.7652600e-01   1.5727900e-01   6.9144700e-02
  -1.6044300e-01   1.8205200e-01   6.1890300e-02
  -1.6557100e-01   1.9140100e-01   7.3825000e-02
  -1.4855600e-01   2.0238600e-01   7.8271300e-02
  -1.2921000e-01   2.1874600e-01   7.4527100e-02
  -1.2687900e-01   2.3183400e-01   8.8567900e-02
  -1.1429300e-01   2.3931300e-01   8.1547500e-02
  -1.0846600e-01   2.5473800e-01   9.0440100e-02
  -9.4015000e-02   2.7670700e-01   9.1142100e-02
  -7.8864700e-02   2.8231600e-01   8.3887600e-02
  -7.2571500e-02   2.9750800e-01   9.5120300e-02
  -5.9752000e-02   3.1410200e-01   9.8864600e-02
  -4.2037800e-02   3.1714000e-01   1.0260900e-01
  -2.8519100e-02   3.3630500e-01   9.9566600e-02
  -1.7098100e-02   3.4869100e-01   1.0237500e-01
  -1.0154700e-03   3.5593700e-01   1.0237500e-01
