**************************************************************************************
  	RED ACELEROGRÁFICA DE LA UNIVERSIDAD AUTONOMA METROPOLITANA (RA-UAM)
	   UNIDAD AZCAPOTZALCO. DIVISIÓN CBI-DEPARTAMENTO DE MATERIALES
     Av. San Pablo 420, Col. Nueva el Rosario, Azcapotzalco, C.P. 02128, Ciudad de México
		Área de Estructuras. e-mail: agb@azc.uam.mx
**************************************************************************************
ARCHIVO ESTANDAR DE ACELERACION:
VERSION DEL FORMATO                    : 2.0
NOMBRE DEL ARCHIVO                     : RIDX202307.161
FECHA Y HORA DE CREACION               : 11:30 a. m. 21/07/2023
REF. CATALOGO ACELEROGRAMAS, SMIS 1999 : REGISTRO NO.      /PAG.    


================================================================================
DATOS DE LA ESTACION:
NOMBRE DE LA ESTACION                  : UAM-XOCHIMILCO.
CLAVE DE LA ESTACION                   : RIDX
LOCALIZACION DE LA ESTACION            : CALZADA DEL HUESO 1100, COL. VILLA
                                       : QUIETUD, DEL. COYOACAN, C.P.04960,  
                                       : CIUDAD DE MEXICO.
                                       : 
                                       : 
COORDENADAS DE LA ESTACION             : 19.301345 LAT. N
                                       : 99.10268 LONG. W
ALTITUD (msnm)                         : 2232
TIPO DE SUELO                          : LAGO
                                       : 
                                       : 
INSTITUCION RESPONSABLE                : UNIVERSIDAD AUTONOMA METROPOLITANA
                                       : 

================================================================================
DATOS DEL ACELEROGRAFO: 
MODELO DEL ACELEROGRAFO                : BASALT KINEMETRICS
NUMERO DE SERIE DEL ACELEROGRAFO       : 1729
NUMERO DE CANALES                      : 3
ORIENTACION C1-C6 (rumbo;orientacion)  : /V/N00E/N90E
ORIENTACION C7-C12 (rumbo;orientacion) : 
VEL. DE MUESTREO, C1-C6 (muestras/s)   : /200/200/200
VEL. DE MUESTREO, C7-C12 (muestras/s)  : 
ESC. COMPLETA DE SENSORES, C1-C6, (g)  : /2/2/2
ESC. COMPLETA DE SENSORES, C7-C12 (g)  : 
FREC. NAT. DE SENSORES, C1-C6, (Hz)    : /208/210/200   
FREC. NAT. DE SENSORES, C7-C12 (Hz)    : 
AMORTIGUAMIENTO DE SENSORES, C1-C6     : /0.7/0.7/0.7      
AMORTIGUAMIENTO DE SENSORES, C7-C12    : 
INTERVALO DE MUESTREO, C1-C6 (s)       : /0.005/0.005/0.005
INTERVALO DE MUESTREO, C7-C12 (s)      : 
UMBRAL DE DISPARO, C1-C6 (Gal)         : /2/2/2
UMBRAL DE DISPARO, C7-C12 (Gal)        : 
MEMORIA DE PREEVENTO (s)               : 60
TIEMPO DE POSEVENTO (s)                : 80


================================================================================
DATOS DEL SISMO:
FECHA DEL SISMO [GMT]                  : 2023/07/16
HORA EPICENTRO (GMT)                   : 13:44:36
MAGNITUD(ES)                           : /M=5.2
COORDENADAS DEL EPICENTRO              : 18.3000 LAT. N
                                       : -100.9100 LONG. W
PROFUNDIDAD FOCAL (Km)                 : 44.6
FUENTE DE LOS DATOS EPICENTRALES       : SSN
                                       : INSTITUTO DE GEOFISICA, UNAM

================================================================================
DATOS DE ESTE REGISTRO:
HORA DE LA PRIMERA MUESTRA (GMT)       : 13:44:24.000
EXACTITUD DEL TIEMPO (s)               : 
DURACION DEL REGISTRO (s), C1-C6       : /209/209/209
DURACION DEL REGISTRO (s), C7-C12      : 
NUM. TOTAL DE MUESTRAS, C1-C6          : /41800/41800/41800
NUM. TOTAL DE MUESTRAS, C7-C12         : 
ACEL. MAX.(Gal), C1-C6                 : /1.497/-1.869/1.530
ACEL. MAX., C1-C6, EN LA MUESTRA       : /18046/17615/16697
ACEL. MAX.(Gal), C7-C12                : 
ACEL. MAX., C7-C12,EN LA MUESTRA       : 
UNIDADES DE LOS DATOS                  : Gal (cm/s/s)
FACTOR DE DECIMACION                   : 1
FORMATO DATOS (FORTRAN,16 campos/dato) : 3E16.7


================================================================================
CALIDAD DEL ACELEROGRAMA:
REGISTRO DIGITAL COMPLETO CON TIEMPO ABSOLUTO CORRECTO


================================================================================
COMENTARIOS:














================================================================================
DATOS DE ACELERACION:
---------+---------+---------+---------+---------+---------+---------+---------+
   CANAL-1   	      CANAL-2          CANAL-3
      V                 N00E             N90E
---------+---------+---------+---------+---------+---------+---------+---------+
[...]
  -1.2044100e-01  -6.5896600e-01  -1.8888100e-01
  -8.3847500e-02  -6.7182000e-01  -2.0222000e-01
  -4.3757400e-02  -6.6971700e-01  -2.0853800e-01
  -7.3967100e-03  -6.6831400e-01  -2.2211100e-01
   3.1294800e-02  -6.5849800e-01  -2.3872600e-01
   7.7211900e-02  -6.2975100e-01  -2.3989600e-01
   1.1334000e-01  -5.9796600e-01  -2.4200200e-01
   1.5529400e-01  -5.7225700e-01  -2.4902300e-01
   2.0470700e-01  -5.2457900e-01  -2.4481000e-01
   2.4759400e-01  -4.8204300e-01  -2.3919400e-01
   2.8582000e-01  -4.3997400e-01  -2.3591800e-01
   3.2078200e-01  -3.8598600e-01  -2.2281300e-01
   3.5830800e-01  -3.3503600e-01  -2.0783600e-01
   3.9443600e-01  -2.7754200e-01  -1.9051900e-01
   4.3359400e-01  -2.2378800e-01  -1.7530800e-01
   4.6948800e-01  -1.5834800e-01  -1.5448100e-01
   4.9955600e-01  -9.9217600e-02  -1.3412200e-01
   5.2892400e-01  -4.6631600e-02  -1.2405900e-01
   5.5060000e-01   1.8574900e-02  -1.0674200e-01
   5.6714900e-01   7.5367700e-02  -9.6679200e-02
   5.7367600e-01   1.3660100e-01  -8.4510400e-02
   5.7787100e-01   1.9736700e-01  -6.8129400e-02
   5.7670600e-01   2.5649700e-01  -5.3386500e-02
   5.6831500e-01   3.1913300e-01  -3.5835400e-02
   5.5852500e-01   3.7475700e-01  -2.4134700e-02
   5.4290900e-01   4.2827800e-01  -1.3838000e-02
   5.2729200e-01   4.7852700e-01  -1.2433900e-02
   4.9978900e-01   5.3158000e-01  -9.1577200e-03
   4.6715700e-01   5.7551800e-01  -7.2856000e-03
   4.2660100e-01   6.1501600e-01   4.3688500e-04
   3.8021800e-01   6.5521500e-01   1.3073700e-02
   3.3756400e-01   6.8559800e-01   1.8222000e-02
   2.8628600e-01   7.1341000e-01   3.4369000e-02
   2.3920400e-01   7.3304300e-01   4.1857500e-02
   1.8279800e-01   7.5197300e-01   5.6600400e-02
   1.2406100e-01   7.6412700e-01   6.9237200e-02
   6.7422500e-02   7.6810000e-01   7.4385500e-02
  -6.3734400e-04   7.7464400e-01   9.5212800e-02
  -6.3569400e-02   7.6880100e-01   1.0012700e-01
  -1.3186200e-01   7.5688100e-01   1.0761600e-01
  -2.0598200e-01   7.3654800e-01   1.1276400e-01
  -2.8266600e-01   7.0616500e-01   1.1159400e-01
  -3.5818400e-01   6.6736900e-01   1.0925400e-01
  -4.2531200e-01   6.1782100e-01   9.2872700e-02
  -4.8964200e-01   5.6780600e-01   8.3512100e-02
  -5.5467200e-01   5.0727400e-01   6.5961000e-02
  -6.1387500e-01   4.3645800e-01   4.4431600e-02
  -6.5792700e-01   3.6283800e-01   2.6646500e-02
  -6.9638600e-01   2.7916700e-01   6.5212700e-03
  -7.3367900e-01   1.9830200e-01  -1.0795800e-02
  -7.6607700e-01   1.2538300e-01  -3.0219000e-02
  -7.8938500e-01   5.0827600e-02  -4.5196000e-02
  -8.0500200e-01  -1.8352100e-02  -5.8300800e-02
  -8.1619000e-01  -8.9869000e-02  -7.3745800e-02
  -8.2108400e-01  -1.5086900e-01  -8.4744500e-02
  -8.1665600e-01  -2.0532400e-01  -9.8083300e-02
  -8.0616700e-01  -2.6515500e-01  -1.1469800e-01
  -7.9148300e-01  -3.1236600e-01  -1.2639900e-01
  -7.7003900e-01  -3.6752300e-01  -1.4114200e-01
  -7.4976100e-01  -4.2665300e-01  -1.5120500e-01
  -7.2668600e-01  -4.7900500e-01  -1.5986300e-01
  -7.0291200e-01  -5.2691700e-01  -1.7554200e-01
  -6.8403200e-01  -5.6244100e-01  -1.8420100e-01
  -6.6585200e-01  -5.9562900e-01  -1.8981700e-01
  -6.4207800e-01  -6.2344100e-01  -1.9262500e-01
  -6.0851400e-01  -6.4704600e-01  -1.9098700e-01
  -5.7495000e-01  -6.6831400e-01  -1.8186100e-01
  -5.4371700e-01  -6.8958200e-01  -1.7062800e-01
  -5.1131900e-01  -7.0734500e-01  -1.6033100e-01
  -4.7332700e-01  -7.1575800e-01  -1.4465200e-01
  -4.2950700e-01  -7.2417200e-01  -1.2850500e-01
  -3.8405600e-01  -7.2417200e-01  -1.0346600e-01
  -3.3114700e-01  -7.1248600e-01  -7.4915800e-02
  -2.7963600e-01  -7.0547500e-01  -4.8238200e-02
  -2.3325300e-01  -6.9846400e-01  -1.8050300e-02
  -1.8034300e-01  -6.8654400e-01   1.2371600e-02
  -1.2487000e-01  -6.7135300e-01   4.5367700e-02
  -7.3358800e-02  -6.5335700e-01   7.2981400e-02
  -2.2313900e-02  -6.2741400e-01   9.6850900e-02
   2.7099400e-02  -5.8768300e-01   1.2633700e-01
   7.0452500e-02  -5.4888600e-01   1.5044000e-01
   1.1030900e-01  -5.0845300e-01   1.7384200e-01
   1.4806900e-01  -4.6311200e-01   1.9186100e-01
   1.7813600e-01  -4.2454900e-01   2.0239200e-01
   2.0097800e-01  -3.8995900e-01   2.1456000e-01
   2.2451900e-01  -3.5583700e-01   2.1970900e-01
   2.4409800e-01  -3.1423600e-01   2.2392100e-01
   2.5132400e-01  -2.7403700e-01   2.2345300e-01
   2.5761700e-01  -2.4318600e-01   2.1385800e-01
   2.6530900e-01  -2.0719400e-01   1.9934900e-01
   2.6274500e-01  -1.7447400e-01   1.8273400e-01
   2.5785000e-01  -1.4829800e-01   1.6120500e-01
   2.5645200e-01  -1.2118700e-01   1.3405900e-01
   2.5528600e-01  -9.4777000e-02   1.0855200e-01
   2.5598500e-01  -6.6263700e-02   8.3512100e-02
   2.6134600e-01  -4.4060800e-02   5.2154100e-02
   2.6460900e-01  -1.5547500e-02   1.9158100e-02
   2.6530900e-01   1.2264600e-02  -1.6178200e-02
   2.7113600e-01   3.6571000e-02  -6.6023300e-02
   2.7346700e-01   7.3965400e-02  -1.0838000e-01
   2.7486500e-01   9.9206700e-02  -1.5565100e-01
   2.7183500e-01   1.3262800e-01  -2.0385800e-01
   2.6088000e-01   1.7095700e-01  -2.3849200e-01
   2.5202300e-01   2.0297600e-01  -2.8506100e-01
   2.4083500e-01   2.3803400e-01  -3.2156700e-01
   2.3151200e-01   2.6794900e-01  -3.5713800e-01
   2.1985800e-01   3.0417500e-01  -3.9762200e-01
   2.0424100e-01   3.2894900e-01  -4.3389400e-01
   1.8722600e-01   3.5979900e-01  -4.6642200e-01
   1.6555000e-01   3.8994800e-01  -4.9895000e-01
   1.4853500e-01   4.0584100e-01  -5.3615900e-01
   1.3058800e-01   4.2944600e-01  -5.6119800e-01
   1.1007600e-01   4.4019700e-01  -5.8811000e-01
   8.7001300e-02   4.5024700e-01  -6.1080900e-01
   5.9264600e-02   4.5912800e-01  -6.3304100e-01
   2.7332400e-02   4.6216700e-01  -6.5152800e-01
  -9.4944400e-03   4.6637300e-01  -6.5878200e-01
  -3.8629600e-02   4.6099800e-01  -6.7118500e-01
  -6.9629500e-02   4.5842700e-01  -6.6790900e-01
  -1.0505800e-01   4.5001300e-01  -6.6088900e-01
  -1.4188500e-01   4.3178400e-01  -6.5480400e-01
  -1.8127600e-01   4.1332000e-01  -6.3935900e-01
  -2.1227500e-01   3.9111700e-01  -6.3374300e-01
  -2.5259800e-01   3.7522400e-01  -6.2180800e-01
  -2.9245500e-01   3.5185300e-01  -6.1268200e-01
  -3.2811700e-01   3.2544300e-01  -6.0659700e-01
  -3.7007200e-01   2.9926700e-01  -5.9442800e-01
  -4.0130400e-01   2.6163900e-01  -5.9442800e-01
  -4.3393600e-01   2.3289200e-01  -5.8577000e-01
  -4.6750000e-01   1.9456300e-01  -5.8483400e-01
  -4.9756700e-01   1.5389600e-01  -5.8694000e-01
  -5.3043200e-01   1.1954000e-01  -5.8530200e-01
  -5.6259700e-01   7.8172300e-02  -5.9255600e-01
  -5.8474000e-01   3.6571000e-02  -5.8436600e-01
  -5.9429600e-01  -9.9383500e-03  -5.7968600e-01
  -6.0455200e-01  -5.7148800e-02  -5.8015400e-01
  -6.0804800e-01  -1.1043600e-01  -5.7687700e-01
  -6.0851400e-01  -1.5344000e-01  -5.6868700e-01
  -6.1037900e-01  -1.9363900e-01  -5.5722000e-01
  -6.0664900e-01  -2.4388700e-01  -5.5090200e-01
  -5.9895800e-01  -2.8174900e-01  -5.2750000e-01
  -5.8567200e-01  -3.2732400e-01  -5.0269500e-01
  -5.7122100e-01  -3.7243100e-01  -4.7648500e-01
  -5.5513800e-01  -4.1192900e-01  -4.4255300e-01
  -5.3719100e-01  -4.5890500e-01  -4.0745100e-01
  -5.1365000e-01  -4.9653400e-01  -3.6181800e-01
  -4.8008600e-01  -5.3509700e-01  -3.2320500e-01
  -4.4838700e-01  -5.7179000e-01  -2.7687100e-01
  -4.1505600e-01  -5.9913500e-01  -2.2562100e-01
  -3.7240200e-01  -6.2507700e-01  -1.8537100e-01
  -3.2555300e-01  -6.3699600e-01  -1.3927000e-01
  -2.7660600e-01  -6.4073600e-01  -9.9487400e-02
  -2.2416300e-01  -6.3933400e-01  -6.6725300e-02
  -1.6402700e-01  -6.2601200e-01  -3.6069400e-02
  -1.0086200e-01  -6.1011900e-01  -1.3136000e-02
  -3.0937900e-02  -5.9118800e-01   9.3294400e-03
   4.3182000e-02  -5.5823400e-01   3.1092800e-02
   1.1450500e-01  -5.2668300e-01   4.0453400e-02
   1.9445200e-01  -4.9302800e-01   5.0516000e-02
   2.8022600e-01  -4.4558400e-01   6.1046700e-02
   3.6809800e-01  -3.9556900e-01   6.7833100e-02
   4.5293900e-01  -3.3690600e-01   7.8363800e-02
   5.3358600e-01  -2.8408600e-01   7.7895700e-02
   6.1190100e-01  -2.2729400e-01   8.1640000e-02
   6.8112600e-01  -1.6886500e-01   8.7022300e-02
   7.5175000e-01  -1.2399100e-01   8.7256300e-02
   8.2120800e-01  -6.6030000e-02   9.1702600e-02
   8.8320800e-01  -9.2372000e-03   9.6148900e-02
   9.4101200e-01   4.1479000e-02   1.0012700e-01
   9.8832800e-01   9.3363800e-02   1.0246700e-01
   1.0344800e+00   1.4150900e-01   1.0293500e-01
   1.0717700e+00   1.8918700e-01   9.4510800e-02
   1.0957800e+00   2.2588000e-01   8.8660400e-02
   1.1237500e+00   2.6000300e-01   7.9065800e-02
   1.1386700e+00   3.0043600e-01   6.9939200e-02
   1.1417000e+00   3.3432400e-01   6.4322900e-02
   1.1421600e+00   3.6003300e-01   4.3963600e-02
   1.1361000e+00   3.8644300e-01   2.6178500e-02
   1.1312100e+00   4.0841200e-01   2.3090000e-03
   1.1132600e+00   4.2453800e-01  -2.2964600e-02
   1.0890200e+00   4.3762600e-01  -5.1514400e-02
   1.0619800e+00   4.5819300e-01  -8.4276400e-02
   1.0260900e+00   4.6917800e-01  -1.1259200e-01
   9.9322200e-01   4.6356900e-01  -1.5331100e-01
   9.5313200e-01   4.6403600e-01  -1.8466900e-01
   9.0838100e-01   4.4276800e-01  -2.1860100e-01
   8.5174200e-01   4.1916300e-01  -2.5066100e-01
   7.9044100e-01   3.9579100e-01  -2.8084900e-01
   7.3170500e-01   3.5863100e-01  -3.1314300e-01
   6.6201300e-01   3.2848100e-01  -3.2952400e-01
   6.0234500e-01   2.8501000e-01  -3.5105300e-01
   5.3871300e-01   2.4177300e-01  -3.5573300e-01
   4.6832300e-01   1.8872000e-01  -3.5596700e-01
   4.0282700e-01   1.2538300e-01  -3.5971200e-01
   3.3709800e-01   6.8356300e-02  -3.5011700e-01
   2.7906000e-01   3.4512700e-04  -3.3794800e-01
   2.1636200e-01  -6.9068300e-02  -3.1244100e-01
   1.5319600e-01  -1.4198700e-01  -2.9020900e-01
   9.4693000e-02  -2.2168400e-01  -2.6423400e-01
   3.5490300e-02  -3.1236600e-01  -2.2983400e-01
  -3.0471800e-02  -4.0047700e-01  -1.9051900e-01
  -9.1772200e-02  -4.9513100e-01  -1.4980100e-01
  -1.4071900e-01  -5.9749900e-01  -1.0487000e-01
  -1.9852400e-01  -6.9402300e-01  -4.4025900e-02
  -2.5702700e-01  -7.9872700e-01   8.3933800e-03
  -3.1017000e-01  -8.9992600e-01   6.3386800e-02
  -3.6797400e-01  -1.0046300e+00   1.2516700e-01
  -4.2554500e-01  -1.1095700e+00   1.7571400e-01
  -4.7728900e-01  -1.2112300e+00   2.2087900e-01
  -5.3392800e-01  -1.3026200e+00   2.7002200e-01
  -5.7937900e-01  -1.3904900e+00   3.1167600e-01
  -6.0595000e-01  -1.4830500e+00   3.4911900e-01
  -6.3112300e-01  -1.5597000e+00   3.9264500e-01
  -6.4580700e-01  -1.6354300e+00   4.2868400e-01
  -6.5676200e-01  -1.7069400e+00   4.6121200e-01
  -6.5955900e-01  -1.7656100e+00   4.9093200e-01
  -6.5676200e-01  -1.8086100e+00   5.2158800e-01
  -6.4790500e-01  -1.8434300e+00   5.4732900e-01
  -6.2180000e-01  -1.8635300e+00   5.7400700e-01
  -5.9499500e-01  -1.8670400e+00   6.0676900e-01
  -5.6655900e-01  -1.8691400e+00   6.3134000e-01
  -5.3229600e-01  -1.8595600e+00   6.5918800e-01
  -4.9197300e-01  -1.8406300e+00   6.8539800e-01
  -4.5188300e-01  -1.8095500e+00   7.1558600e-01
  -4.1109400e-01  -1.7770600e+00   7.4343300e-01
  -3.6447800e-01  -1.7340600e+00   7.6285700e-01
  -3.1459800e-01  -1.6786700e+00   7.9234300e-01
  -2.6681600e-01  -1.6204700e+00   8.2463700e-01
  -2.2183200e-01  -1.5562000e+00   8.5388800e-01
  -1.7102000e-01  -1.4912300e+00   8.7635400e-01
  -1.2137400e-01  -1.4180700e+00   9.0162700e-01
  -7.4524200e-02  -1.3493600e+00   9.2292300e-01
  -3.0238700e-02  -1.2780800e+00   9.3158100e-01
   1.2182100e-02  -1.2060900e+00   9.4258000e-01
   5.4136800e-02  -1.1378500e+00   9.4655800e-01
   9.2129100e-02  -1.0663300e+00   9.4047400e-01
   1.2779100e-01  -9.9341200e-01   9.3509200e-01
   1.6415100e-01  -9.2119400e-01   9.2292300e-01
   2.0680500e-01  -8.5388400e-01   8.9507500e-01
   2.4036900e-01  -7.7909500e-01   8.6886500e-01
   2.6554200e-01  -7.1575800e-01   8.3142300e-01
   2.9211300e-01  -6.5639500e-01   7.7502500e-01
   3.0982700e-01  -5.8370900e-01   7.2401000e-01
   3.2148100e-01  -5.2317700e-01   6.6012400e-01
   3.2660900e-01  -4.5750300e-01   5.9389800e-01
   3.2334600e-01  -3.8925800e-01   5.3211800e-01
   3.1355700e-01  -3.2498700e-01   4.7057200e-01
   2.9467700e-01  -2.5837800e-01   4.1932300e-01
   2.7649700e-01  -2.0976500e-01   3.5941500e-01
   2.5948200e-01  -1.5367300e-01   3.0489000e-01
   2.3291000e-01  -1.0132100e-01   2.5551300e-01
   2.0097800e-01  -6.9068300e-02   2.0028500e-01
   1.7021100e-01  -2.6298400e-02   1.4903600e-01
   1.3688100e-01   9.9274500e-03   9.9425100e-02
   9.9587700e-02   4.5919600e-02   5.6366400e-02
   6.2294700e-02   8.4248900e-02   1.4243800e-02
   2.4069300e-02   1.2070800e-01  -2.0858500e-02
  -1.8817700e-02   1.6394600e-01  -4.7302100e-02
  -6.5900200e-02   1.9876900e-01  -7.2107700e-02
  -1.1554700e-01   2.3639800e-01  -8.9190700e-02
  -1.6239600e-01   2.7192200e-01  -9.9721400e-02
  -2.0528300e-01   3.0557700e-01  -9.7615300e-02
  -2.4863600e-01   3.3666100e-01  -9.5509100e-02
  -2.9082400e-01   3.6166900e-01  -8.9190700e-02
  -3.3161300e-01   3.9041600e-01  -6.7193400e-02
  -3.7380100e-01   4.0724300e-01  -5.3152500e-02
  -4.1389100e-01   4.2710900e-01  -3.2793200e-02
  -4.4442500e-01   4.4931200e-01  -4.9454500e-03
  -4.7053000e-01   4.6520500e-01   1.5647800e-02
  -4.9710100e-01   4.8483700e-01   4.5133700e-02
  -5.2017600e-01   4.9605500e-01   7.4385500e-02
  -5.4698000e-01   5.0914300e-01   1.0387100e-01
  -5.6958900e-01   5.1989400e-01   1.3452700e-01
  -5.8264200e-01   5.2363400e-01   1.6167300e-01
  -5.8753700e-01   5.2924300e-01   1.9279700e-01
  -5.8543900e-01   5.3087900e-01   2.2392100e-01
  -5.8730400e-01   5.3438500e-01   2.5832100e-01
  -5.8007800e-01   5.2760700e-01   2.8195700e-01
  -5.6026600e-01   5.2573700e-01   3.0465600e-01
  -5.4698000e-01   5.2176400e-01   3.2782300e-01
  -5.3183000e-01   4.9862600e-01   3.3297200e-01
  -5.0712400e-01   4.8670700e-01   3.4607700e-01
  -4.7938700e-01   4.6146500e-01   3.5028900e-01
  -4.5118400e-01   4.3412100e-01   3.4958700e-01
  -4.2810900e-01   4.1261900e-01   3.5403300e-01
  -4.0736500e-01   3.7919800e-01   3.4420400e-01
  -3.8312400e-01   3.5208700e-01   3.3601400e-01
  -3.5888400e-01   3.2263800e-01   3.2782300e-01
  -3.3114700e-01   2.9809800e-01   3.2103700e-01
  -2.9735000e-01   2.7028600e-01   3.1167600e-01
  -2.6238800e-01   2.4668100e-01   3.0372000e-01
  -2.3558400e-01   2.3172300e-01   2.9623100e-01
  -2.1111000e-01   2.0975400e-01   2.8172300e-01
  -1.7754600e-01   1.9269300e-01   2.6698000e-01
  -1.3978700e-01   1.8100700e-01   2.4545000e-01
  -1.0552400e-01   1.7750100e-01   2.2860100e-01
  -6.9163300e-02   1.7142500e-01   2.0707200e-01
  -2.2080800e-02   1.6815300e-01   1.8039400e-01
   2.4535500e-02   1.8124100e-01   1.6284300e-01
   7.1151800e-02   1.9900300e-01   1.3499500e-01
   1.2988800e-01   2.0881900e-01   1.0270100e-01
   1.9095600e-01   2.2985400e-01   7.5789600e-02
   2.4759400e-01   2.5883400e-01   4.3261600e-02
   2.9863900e-01   2.8314100e-01   1.1903600e-02
   3.4805300e-01   3.1399100e-01  -2.1326500e-02
   4.0306000e-01   3.4554300e-01  -5.4556600e-02
   4.5177400e-01   3.8106700e-01  -8.3106400e-02
   4.9769100e-01   4.0327000e-01  -1.1961300e-01
   5.4733700e-01   4.2851200e-01  -1.5050300e-01
   5.8509700e-01   4.6263400e-01  -1.7835000e-01
   6.0560800e-01   4.8226600e-01  -2.1860100e-01
   6.2378800e-01   5.0727400e-01  -2.4832100e-01
   6.4546500e-01   5.2830800e-01  -2.7570000e-01
   6.6341200e-01   5.4560300e-01  -3.0846200e-01
   6.7273500e-01   5.6663700e-01  -3.2835400e-01
