**************************************************************************************
  	RED ACELEROGRÁFICA DE LA UNIVERSIDAD AUTONOMA METROPOLITANA (RA-UAM)
	   UNIDAD AZCAPOTZALCO. DIVISIÓN CBI-DEPARTAMENTO DE MATERIALES
     Av. San Pablo 420, Col. Nueva el Rosario, Azcapotzalco, C.P. 02128, Ciudad de México
		Área de Estructuras. e-mail: agb@azc.uam.mx
**************************************************************************************
ARCHIVO ESTANDAR DE ACELERACION:
VERSION DEL FORMATO                    : 2.0
NOMBRE DEL ARCHIVO                     : RIDX202312.122
FECHA Y HORA DE CREACION               : 11:30 a. m. 19/12/2023
REF. CATALOGO ACELEROGRAMAS, SMIS 1999 : REGISTRO NO.      /PAG.    


================================================================================
DATOS DE LA ESTACION:
NOMBRE DE LA ESTACION                  : UAM-XOCHIMILCO.
CLAVE DE LA ESTACION                   : RIDX
LOCALIZACION DE LA ESTACION            : CALZADA DEL HUESO 1100, COL. VILLA
                                       : QUIETUD, DEL. COYOACAN, C.P.04960,  
                                       : CIUDAD DE MEXICO.
                                       : 
                                       : 
COORDENADAS DE LA ESTACION             : 19.301345 LAT. N
                                       : 99.10268 LONG. W
ALTITUD (msnm)                         : 2232
TIPO DE SUELO                          : LAGO
                                       : 
                                       : 
INSTITUCION RESPONSABLE                : UNIVERSIDAD AUTONOMA METROPOLITANA
                                       : 

================================================================================
DATOS DEL ACELEROGRAFO: 
MODELO DEL ACELEROGRAFO                : BASALT KINEMETRICS
NUMERO DE SERIE DEL ACELEROGRAFO       : 1729
NUMERO DE CANALES                      : 3
ORIENTACION C1-C6 (rumbo;orientacion)  : /V/N00E/N90E
ORIENTACION C7-C12 (rumbo;orientacion) : 
VEL. DE MUESTREO, C1-C6 (muestras/s)   : /200/200/200
VEL. DE MUESTREO, C7-C12 (muestras/s)  : 
ESC. COMPLETA DE SENSORES, C1-C6, (g)  : /2/2/2
ESC. COMPLETA DE SENSORES, C7-C12 (g)  : 
FREC. NAT. DE SENSORES, C1-C6, (Hz)    : /208/210/200   
FREC. NAT. DE SENSORES, C7-C12 (Hz)    : 
AMORTIGUAMIENTO DE SENSORES, C1-C6     : /0.7/0.7/0.7      
AMORTIGUAMIENTO DE SENSORES, C7-C12    : 
INTERVALO DE MUESTREO, C1-C6 (s)       : /0.005/0.005/0.005
INTERVALO DE MUESTREO, C7-C12 (s)      : 
UMBRAL DE DISPARO, C1-C6 (Gal)         : /2/2/2
UMBRAL DE DISPARO, C7-C12 (Gal)        : 
MEMORIA DE PREEVENTO (s)               : 60
TIEMPO DE POSEVENTO (s)                : 80


================================================================================
DATOS DEL SISMO:
FECHA DEL SISMO [GMT]                  : 2023/12/12
HORA EPICENTRO (GMT)                   : 17:07:52
MAGNITUD(ES)                           : /M=3.0
COORDENADAS DEL EPICENTRO              : 19.3630 LAT. N
                                       : -99.2000 LONG. W
PROFUNDIDAD FOCAL (Km)                 : 1.0
FUENTE DE LOS DATOS EPICENTRALES       : SSN
                                       : INSTITUTO DE GEOFISICA, UNAM

================================================================================
DATOS DE ESTE REGISTRO:
HORA DE LA PRIMERA MUESTRA (GMT)       : 17:07:04.000
EXACTITUD DEL TIEMPO (s)               : 
DURACION DEL REGISTRO (s), C1-C6       : /222/222/222
DURACION DEL REGISTRO (s), C7-C12      : 
NUM. TOTAL DE MUESTRAS, C1-C6          : /44400/44400/44400
NUM. TOTAL DE MUESTRAS, C7-C12         : 
ACEL. MAX.(Gal), C1-C6                 : /-0.974/-1.513/-0.954
ACEL. MAX., C1-C6, EN LA MUESTRA       : /24445/24448/14759
ACEL. MAX.(Gal), C7-C12                : 
ACEL. MAX., C7-C12,EN LA MUESTRA       : 
UNIDADES DE LOS DATOS                  : Gal (cm/s/s)
FACTOR DE DECIMACION                   : 1
FORMATO DATOS (FORTRAN,16 campos/dato) : 3E16.7


================================================================================
CALIDAD DEL ACELEROGRAMA:
REGISTRO DIGITAL COMPLETO CON TIEMPO ABSOLUTO CORRECTO


================================================================================
COMENTARIOS:














================================================================================
DATOS DE ACELERACION:
---------+---------+---------+---------+---------+---------+---------+---------+
   CANAL-1   	      CANAL-2          CANAL-3
      V                 N00E             N90E
---------+---------+---------+---------+---------+---------+---------+---------+
[...]
  -4.9041100e-02  -1.7508600e-01   2.7778800e-03
  -6.6755300e-02  -1.5942700e-01  -2.3704500e-03
  -7.8642400e-02  -1.3862700e-01  -1.1029000e-02
  -7.0018400e-02  -1.2530500e-01  -3.7004600e-02
  -5.7665100e-02  -1.3301700e-01  -6.9064600e-02
  -3.7620100e-02  -1.4891000e-01  -1.1212300e-01
  -2.0605100e-02  -1.5755800e-01  -1.4839600e-01
   3.8684300e-03  -1.6527000e-01  -1.8513600e-01
   3.1372000e-02  -1.6924300e-01  -2.1181400e-01
   7.7289100e-02  -1.8396700e-01  -2.3708700e-01
   1.2134200e-01  -2.0313200e-01  -2.6423300e-01
   1.3299600e-01  -2.0289800e-01  -2.5955300e-01
   1.8846900e-01  -2.2182900e-01  -2.8974000e-01
   2.6492000e-01  -2.6296300e-01  -3.6298700e-01
   2.1574000e-01  -2.0874100e-01  -3.3911800e-01
  -3.0627600e-02   1.5391800e-02  -1.5986200e-01
  -2.9284400e-01   2.2596900e-01   1.1202400e-02
  -3.5088200e-01   2.3601900e-01   3.4799200e-03
  -2.2595000e-01   4.5307300e-02  -1.6313900e-01
  -6.2326700e-02  -2.0967600e-01  -3.4286200e-01
   3.3236700e-02  -3.4873700e-01  -4.2734100e-01
   1.1015400e-01  -3.5224200e-01  -4.6103900e-01
   2.1853700e-01  -2.5688700e-01  -4.8373900e-01
   3.5885200e-01  -1.1572200e-01  -5.0480000e-01
   4.5371600e-01   8.3870300e-02  -4.8093000e-01
   3.7120500e-01   4.0733200e-01  -2.9746300e-01
   2.0664900e-01   7.0952600e-01  -5.7831900e-02
   1.3672500e-01   7.6561800e-01   7.3918300e-02
   2.1597300e-01   5.1414000e-01   6.8302000e-02
   3.0780700e-01   1.4744100e-01  -2.3431800e-02
   2.7494200e-01  -1.1595600e-01  -9.7848400e-02
   2.1760400e-01  -2.3702100e-01  -1.6781900e-01
   1.8777000e-01  -2.2907400e-01  -2.3006700e-01
   1.7005600e-01  -1.3628900e-01  -2.5651000e-01
   1.5840100e-01  -3.6259300e-02  -2.5604200e-01
   1.3486000e-01   5.5123400e-02  -1.9753900e-01
   1.2530400e-01   1.6029500e-01  -1.0018900e-01
   1.0246200e-01   2.8112600e-01   2.7115400e-02
   5.3747900e-02   3.9447800e-01   1.5512100e-01
   5.5000000e-03   4.1784900e-01   2.2392200e-01
  -2.4334400e-02   3.2553200e-01   2.0005200e-01
  -3.9717800e-02   1.7338300e-01   8.0938800e-02
  -3.5988500e-02   2.3104400e-02  -7.2340800e-02
  -1.6875800e-02  -4.3738200e-02  -2.0198500e-01
  -3.4823100e-02  -7.2786100e-03  -2.5206400e-01
  -7.2349200e-02   8.2701800e-02  -2.1766400e-01
  -8.0507100e-02   1.6356700e-01  -1.6898900e-01
  -5.8364300e-02   2.1568600e-01  -1.4746000e-01
  -5.3702700e-02   2.3952500e-01  -1.3809900e-01
  -7.4680000e-02   2.0657100e-01  -1.2054800e-01
  -7.4213900e-02   1.2430300e-01  -1.0463500e-01
  -5.4635000e-02   4.0866700e-02  -9.4806200e-02
  -2.9229100e-02  -1.6627200e-02  -9.6444300e-02
  -2.2236700e-02  -6.2435400e-02  -1.0323100e-01
  -3.4356900e-02  -9.5389300e-02  -1.0557100e-01
  -4.9507200e-02  -1.1969600e-01  -1.1282500e-01
  -7.1883100e-02  -1.1899500e-01  -1.2756800e-01
  -9.2860400e-02  -7.8561800e-02  -1.3880100e-01
  -1.2246200e-01  -2.6443300e-02  -1.2499400e-01
  -1.4996500e-01   1.0951200e-02  -1.0369900e-01
  -1.7653700e-01   1.0717500e-02  -9.1530000e-02
  -2.0986700e-01   6.6771000e-04  -8.8955900e-02
  -2.1895800e-01  -2.5742100e-02  -1.0393300e-01
  -2.1686000e-01  -5.7761100e-02  -1.2078200e-01
  -2.1336400e-01  -7.7393200e-02  -1.3458900e-01
  -2.1383000e-01  -1.0286800e-01  -1.4441700e-01
  -2.2268700e-01  -1.0917800e-01  -1.4160900e-01
  -2.2082200e-01  -1.0730900e-01  -1.2686600e-01
  -2.1546100e-01  -9.3052100e-02  -1.0159300e-01
  -2.0170900e-01  -7.8795500e-02  -6.4618400e-02
  -1.8562700e-01  -7.6458300e-02  -2.6942000e-02
  -1.8469500e-01  -7.3420000e-02  -1.0092900e-02
  -1.8912300e-01  -5.7994800e-02  -8.4548300e-03
  -1.8539400e-01  -2.3638700e-02  -1.1497000e-02
  -1.7047700e-01  -1.8730700e-02  -1.3369100e-02
  -1.4926600e-01  -3.4155900e-02  -1.2003700e-03
  -1.1290500e-01  -6.6876000e-02   2.3605200e-02
  -7.6078500e-02  -9.7025300e-02   6.6195900e-02
  -4.0184000e-02  -1.1058100e-01   1.0527600e-01
  -6.6202400e-03  -1.0684100e-01   1.3265600e-01
   1.3890900e-02  -6.8979400e-02   1.6354600e-01
   4.5356900e-02  -5.1684500e-02   1.7360900e-01
   6.1206500e-02  -2.9949000e-02   1.8460700e-01
   6.7266600e-02  -1.6627200e-02   1.8624500e-01
   7.0529700e-02  -1.3822600e-02   1.7524700e-01
   6.3071100e-02   1.0016300e-02   1.8624500e-01
   7.3093600e-02   1.5391800e-02   1.9350000e-01
   8.5913100e-02   1.3522100e-02   2.1151900e-01
   1.0036400e-01  -5.6426000e-03   2.3889900e-01
   1.0968700e-01  -2.9949000e-02   2.6300200e-01
   1.1621400e-01  -5.8228500e-02   2.8734000e-01
   1.2553700e-01  -7.6925800e-02   3.0840100e-01
   1.3742400e-01  -7.5289800e-02   3.2688800e-01
   1.4977700e-01  -8.5105800e-02   3.1940000e-01
   1.4604800e-01  -9.1416100e-02   3.0676300e-01
   1.5140900e-01  -1.0684100e-01   2.9014800e-01
   1.5793500e-01  -1.2109800e-01   2.7025700e-01
   1.6865700e-01  -1.2904400e-01   2.6370400e-01
   1.7634900e-01  -1.2624000e-01   2.6861900e-01
   1.7518300e-01  -1.0497200e-01   2.7680900e-01
   1.7844600e-01  -8.2067500e-02   2.8055300e-01
   1.6492800e-01  -5.1450800e-02   2.9108400e-01
   1.6283000e-01  -3.9297600e-02   2.8336100e-01
   1.6306300e-01  -4.7711400e-02   2.6932100e-01
   1.6912300e-01  -7.7393200e-02   2.4521700e-01
   1.7518300e-01  -1.1174900e-01   2.1877300e-01
   1.8124300e-01  -1.2366900e-01   1.9116000e-01
   2.0478500e-01  -1.2109800e-01   1.4435700e-01
   1.7401800e-01  -7.4822300e-02   1.6284400e-01
   1.5047700e-01  -1.4056400e-02   1.7805500e-01
   2.1061200e-01  -1.4991200e-02   1.3055000e-01
   3.0454400e-01  -4.3270800e-02   8.4917000e-02
   2.8123500e-01   4.6475900e-02   1.2821000e-01
   2.7642700e-02   2.6733700e-01   3.1940000e-01
  -2.8911500e-01   4.2556200e-01   4.8274200e-01
  -4.3222700e-01   3.3488100e-01   4.2611000e-01
  -3.1545300e-01  -2.4807300e-02   1.3218800e-01
  -5.0206500e-02  -4.4035300e-01  -2.3287500e-01
   1.9709300e-01  -6.6986100e-01  -4.5940100e-01
   2.9755100e-01  -5.8408800e-01  -4.4653000e-01
   2.1061200e-01  -2.3748800e-01  -2.4668200e-01
   3.4402100e-02   1.3996200e-01  -4.5195100e-02
  -8.0274000e-02   3.6245900e-01   4.3496400e-02
  -3.6687800e-02   3.7531300e-01   2.7778800e-03
   5.1417100e-02   3.0963900e-01  -8.2403500e-02
   6.1905700e-02   3.0473100e-01  -1.1680400e-01
   4.1161500e-02   3.1478100e-01  -1.4652300e-01
   4.6289300e-02   2.5705300e-01  -2.3802300e-01
   8.8010900e-02   9.4153800e-02  -3.6462500e-01
   1.4814600e-01  -1.1525500e-01  -4.5589100e-01
   1.8194300e-01  -2.0079500e-01  -4.6923000e-01
   1.4791300e-01  -6.3136600e-02  -3.9013300e-01
   3.9763000e-02   2.3531800e-01  -2.6329700e-01
  -1.1337200e-01   5.3470700e-01  -1.4114100e-01
  -2.1755900e-01   6.7119700e-01  -5.1513500e-02
  -2.3690500e-01   5.9056500e-01  -1.4305200e-02
  -2.2711500e-01   3.4656600e-01  -3.7745400e-03
  -2.0124300e-01   5.5590800e-02  -3.6302600e-02
  -1.7793500e-01  -1.8326600e-01  -1.2499400e-01
  -1.5299500e-01  -3.3167500e-01  -2.5089400e-01
  -9.7755100e-02  -3.4920400e-01  -3.7749600e-01
  -4.4146400e-02  -2.5197900e-01  -4.2429900e-01
   8.9962200e-03  -8.1833800e-02  -3.9200500e-01
   4.9319300e-02   1.3669000e-01  -3.0190900e-01
   4.2326900e-02   3.4095700e-01  -1.8841200e-01
   2.8342000e-02   4.6576100e-01  -1.1212300e-01
   2.2981100e-02   4.6879900e-01  -7.9829300e-02
   2.1582600e-02   3.7484600e-01  -9.8082500e-02
   1.9718000e-02   2.2690400e-01  -1.4394900e-01
   1.9951100e-02   7.6625200e-02  -1.9192200e-01
   5.1184000e-02  -4.1868500e-02  -2.2772700e-01
   9.2905600e-02  -1.2366900e-01  -2.4387400e-01
   1.0759000e-01  -1.4353500e-01  -2.5744600e-01
   1.0222900e-01  -1.2717500e-01  -2.5534000e-01
   8.8243900e-02  -7.2485200e-02  -2.3615100e-01
   7.2394400e-02   1.0717500e-02  -2.0760100e-01
   7.7289100e-02   8.2234300e-02  -1.7858400e-01
   9.6401800e-02   1.1261700e-01  -1.5518200e-01
   1.1131900e-01   7.2885700e-02  -1.3552500e-01
   1.1551400e-01   4.6408700e-03  -1.2593000e-01
   1.0269500e-01  -5.4956500e-02  -1.1984600e-01
   8.6379300e-02  -8.7442900e-02  -1.1867600e-01
   8.1717700e-02  -1.0380300e-01  -1.2522800e-01
   8.0086100e-02  -1.0941200e-01  -1.2616400e-01
   7.3792900e-02  -1.0707500e-01  -1.0908100e-01
   6.3304200e-02  -1.1174900e-01  -8.0765400e-02
   4.4191500e-02  -9.5389300e-02  -5.0109400e-02
   3.5101400e-02  -6.1968000e-02  -2.9750200e-02
   3.7199100e-02  -1.8496900e-02  -2.0155600e-02
   4.7454700e-02   1.1652300e-02  -1.8517500e-02
   5.8409500e-02   1.6560300e-02  -2.0623600e-02
   5.7011000e-02   2.5374300e-03  -2.3431800e-02
   6.1206500e-02  -1.6627200e-02  -2.6239900e-02
   6.9830500e-02  -2.6910700e-02  -6.5827100e-03
   8.9642400e-02  -4.0232500e-02  -1.9024200e-03
   9.8499500e-02  -3.5558200e-02   1.4478600e-02
   9.6634900e-02  -2.8079300e-02   5.3793100e-02
   9.2439400e-02  -3.7728800e-03   6.5961800e-02
   7.3559800e-02   3.8763300e-02   1.0106400e-01
   6.9597400e-02   7.9196000e-02   1.1393500e-01
   5.0018600e-02   1.2243300e-01   1.0363800e-01
   1.7853300e-02   1.5047900e-01   1.0855300e-01
  -1.4778100e-02   1.6286600e-01   9.3809600e-02
  -5.4868100e-02   1.5305000e-01   8.3747000e-02
  -7.2116200e-02   1.4393500e-01   6.8536000e-02
  -8.1905600e-02   1.2664000e-01   5.7303300e-02
  -8.4935600e-02   1.1799300e-01   5.2155000e-02
  -8.2371700e-02   1.2897700e-01   4.5836600e-02
  -9.3326600e-02   1.4580500e-01   5.1686900e-02
  -1.0847700e-01   1.7385100e-01   4.3730400e-02
  -1.2455900e-01   1.8203100e-01   4.6070600e-02
  -1.3201800e-01   1.9161300e-01   4.8176700e-02
  -1.2013100e-01   1.8740600e-01   2.6179300e-02
  -1.2269500e-01   1.7992700e-01   3.9479500e-03
  -1.3411600e-01   1.7712300e-01  -2.8814100e-02
  -1.3761200e-01   1.6403500e-01  -6.0640100e-02
  -1.4367200e-01   1.5912700e-01  -7.8893200e-02
  -1.4367200e-01   1.4860900e-01  -8.4977600e-02
  -1.4880000e-01   1.4697300e-01  -7.6319100e-02
  -1.5229600e-01   1.4767500e-01  -7.0702700e-02
  -1.5789000e-01   1.5281600e-01  -7.0000700e-02
  -1.7024300e-01   1.4393500e-01  -8.6615700e-02
  -1.7443900e-01   1.2430300e-01  -1.1399500e-01
  -1.5206300e-01   8.9713200e-02  -1.4324700e-01
  -1.2455900e-01   5.7460500e-02  -1.7764700e-01
  -1.1104100e-01   4.8111900e-02  -1.9730500e-01
  -8.4702600e-02   3.9464400e-02  -2.1368600e-01
  -8.0740200e-02   5.3487400e-02  -2.2608800e-01
  -5.4402000e-02   4.1801600e-02  -2.3310900e-01
  -4.5544900e-02   4.1801600e-02  -2.3334300e-01
   8.0639000e-03  -5.4489100e-02  -2.6727500e-01
   1.3928900e-01  -1.4937700e-01  -2.8178400e-01
   1.1271800e-01  -7.8094300e-02  -2.1836600e-01
   1.3812300e-01  -1.2553900e-01  -2.2679100e-01
   1.3998800e-01  -1.1952900e-02  -1.8069000e-01
  -2.1686000e-01   4.9380700e-01   6.0579500e-02
  -7.0027100e-01   9.4768200e-01   3.3882300e-01
  -9.7367600e-01   8.5723400e-01   3.5450200e-01
  -7.3989500e-01  -3.5391700e-03  -1.1282500e-01
  -1.4250700e-01  -1.0734900e+00  -6.4988900e-01
   3.4696400e-01  -1.5126400e+00  -8.3990900e-01
   5.0219700e-01  -1.1207000e+00  -6.6088800e-01
   4.5721200e-01  -4.2212300e-01  -3.0729200e-01
   3.8798700e-01   1.1308500e-01  -9.3636200e-02
   2.8682900e-01   4.7417500e-01   1.6116700e-02
   2.9661900e-01   5.2348900e-01   1.3289000e-01
   3.7889700e-01   4.3093800e-01   2.4966300e-01
   3.3950600e-01   5.5924700e-01   2.7259700e-01
   1.9452900e-01   6.1440400e-01   1.6565200e-01
   1.6687900e-02   4.8329000e-01   1.0551000e-01
  -8.9131100e-02   2.3438300e-01   8.7257200e-02
  -7.3747700e-02  -2.3258000e-01   3.6476000e-02
  -1.1048800e-02  -6.9089600e-01  -1.6645300e-02
   2.0184100e-02  -9.2718200e-01  -5.2683600e-02
   7.4026000e-02  -8.9376100e-01  -2.9984200e-02
   1.8124300e-01  -6.0792700e-01   6.9940100e-02
   2.6958100e-01  -2.0126200e-01   1.9747800e-01
   3.3088200e-01   1.2056400e-01   3.2057000e-01
   3.6747600e-01   2.8767000e-01   4.3898100e-01
   3.4882900e-01   3.6970400e-01   5.0286700e-01
   2.6888200e-01   3.5591500e-01   4.4810800e-01
   1.6935600e-01   2.6009200e-01   3.0044500e-01
   1.2180800e-01   1.2827600e-01   1.5301500e-01
   1.4301800e-01   3.2920400e-02   5.9643400e-02
   1.7098800e-01   7.6791700e-03   5.9175400e-02
   1.5746900e-01   1.2820900e-02   1.1510500e-01
   1.1062000e-01   1.6794100e-02   1.4833500e-01
   6.5168900e-02   9.5488900e-03   1.4061300e-01
   3.0672800e-02  -2.5508400e-02   8.0236700e-02
   1.3890900e-02  -8.4170900e-02   3.3901800e-02
   4.4890800e-02  -1.0730900e-01   4.5368500e-02
   1.0479300e-01  -1.0637400e-01   7.3216300e-02
   1.4534900e-01  -8.4170900e-02   9.7553800e-02
   1.4721400e-01  -5.2853100e-02   1.0129800e-01
   1.1062000e-01  -5.3554200e-02   6.8770000e-02
   6.5168900e-02  -8.0431500e-02  -2.6431500e-04
   3.6033700e-02  -9.9362400e-02  -6.6022400e-02
   1.9951100e-02  -8.6274400e-02  -1.1025100e-01
   7.1315700e-03  -6.6642300e-02  -1.4886400e-01
  -1.9672800e-02  -1.5692400e-02  -1.5494800e-01
  -5.2770400e-02   2.5675200e-02  -1.3061000e-01
  -7.4213900e-02   1.8897500e-02  -1.1516600e-01
  -9.7289000e-02   3.4722900e-03  -1.1422900e-01
  -1.1197300e-01  -1.8964400e-02  -1.2897200e-01
  -1.2269500e-01  -3.6025600e-02  -1.5682000e-01
  -1.4483800e-01  -6.9680600e-02  -1.7694500e-01
  -1.4926600e-01  -1.2133200e-01  -1.9332600e-01
  -1.4623600e-01  -1.6830800e-01  -2.0923900e-01
  -1.3318400e-01  -1.8700600e-01  -2.2000400e-01
  -1.1034200e-01  -1.7368400e-01  -2.4129900e-01
  -1.0241700e-01  -1.5849200e-01  -2.7382700e-01
  -1.0358200e-01  -1.4587200e-01  -2.9722900e-01
  -1.2292800e-01  -1.2483700e-01  -3.0846200e-01
  -1.3901100e-01  -8.7209200e-02  -3.0518500e-01
  -1.3574700e-01  -4.7477600e-02  -2.7710400e-01
  -1.3924400e-01  -3.7728800e-03  -2.4223500e-01
  -1.4880000e-01   1.8663800e-02  -2.1555800e-01
  -1.5835600e-01   9.7826100e-03  -1.9192200e-01
  -1.6395000e-01  -1.8964400e-02  -1.7015900e-01
  -1.6534900e-01  -7.3186300e-02  -1.6150000e-01
  -1.5602600e-01  -1.1104800e-01  -1.6781900e-01
  -1.2083000e-01  -1.2624000e-01  -1.8326400e-01
  -7.7010900e-02  -1.1572200e-01  -1.9894300e-01
  -5.1838100e-02  -8.5339500e-02  -1.9800700e-01
  -4.9740300e-02  -5.2853100e-02  -1.8139200e-01
  -5.0672600e-02  -3.1585000e-02  -1.5401200e-01
  -3.4823100e-02  -3.7895300e-02  -1.2218600e-01
  -4.2894200e-03  -4.6776500e-02  -8.5913700e-02
   3.1605100e-02  -5.7060000e-02  -5.3619700e-02
   4.6056200e-02  -6.7343400e-02  -4.2621000e-02
   4.1161500e-02  -8.0665200e-02  -5.4321700e-02
   3.2304400e-02  -8.9079000e-02  -6.6490500e-02
   2.6710400e-02  -9.3285800e-02  -5.7597900e-02
   3.5800600e-02  -9.8193900e-02  -5.3853700e-02
   3.7898300e-02  -8.8144100e-02  -4.3323000e-02
   2.6943500e-02  -9.1649800e-02  -2.7644000e-02
  -3.3571000e-03  -7.9029200e-02  -2.4835900e-02
  -2.4567500e-02  -6.0332000e-02  -1.5475300e-02
  -1.2680400e-02  -7.0615400e-02  -1.1965000e-02
  -4.7555900e-03  -7.7159500e-02   2.3098500e-03
   1.0627800e-02  -9.3519500e-02   1.9392900e-02
  -7.9320200e-04  -9.3052100e-02   3.9284200e-02
  -1.7342000e-02  -7.0615400e-02   6.5727800e-02
  -1.9439700e-02  -6.2201700e-02   7.2982300e-02
  -3.5289300e-02  -5.6125100e-02   9.2405500e-02
  -2.6432200e-02  -4.9581100e-02   1.1416900e-01
  -4.8108800e-02  -1.7094700e-02   1.4810100e-01
  -7.5845500e-02   1.1418600e-02   1.8975600e-01
  -1.1243900e-01  -7.5123200e-03   1.8975600e-01
  -1.3085300e-01  -4.9347400e-02   1.5816400e-01
  -1.0591300e-01  -1.1992900e-01   1.0293600e-01
  -1.1896600e-01  -1.2717500e-01   7.5556400e-02
  -7.1883100e-02  -7.5056000e-02   9.9660000e-02
  -9.2394200e-02  -1.0427000e-01   1.5582300e-01
  -1.5486000e-01  -6.9213200e-02   2.0215800e-01
