**************************************************************************************
  	RED ACELEROGRÁFICA DE LA UNIVERSIDAD AUTONOMA METROPOLITANA (RA-UAM)
	   UNIDAD AZCAPOTZALCO. DIVISIÓN CBI-DEPARTAMENTO DE MATERIALES
     Av. San Pablo 420, Col. Nueva el Rosario, Azcapotzalco, C.P. 02128, Ciudad de México
		Área de Estructuras. e-mail: agb@azc.uam.mx
**************************************************************************************
ARCHIVO ESTANDAR DE ACELERACION:
VERSION DEL FORMATO                    : 2.0
NOMBRE DEL ARCHIVO                     : RIDX202307.141
FECHA Y HORA DE CREACION               : 11:30 a. m. 21/04/2023
REF. CATALOGO ACELEROGRAMAS, SMIS 1999 : REGISTRO NO.      /PAG.    


================================================================================
DATOS DE LA ESTACION:
NOMBRE DE LA ESTACION                  : UAM-XOCHIMILCO.
CLAVE DE LA ESTACION                   : RIDX
LOCALIZACION DE LA ESTACION            : CALZADA DEL HUESO 1100, COL. VILLA
                                       : QUIETUD, DEL. COYOACAN, C.P.04960,  
                                       : CIUDAD DE MEXICO.
                                       : 
                                       : 
COORDENADAS DE LA ESTACION             : 19.301345 LAT. N
                                       : 99.10268 LONG. W
ALTITUD (msnm)                         : 2232
TIPO DE SUELO                          : LAGO
                                       : 
                                       : 
INSTITUCION RESPONSABLE                : UNIVERSIDAD AUTONOMA METROPOLITANA
                                       : 

================================================================================
DATOS DEL ACELEROGRAFO: 
MODELO DEL ACELEROGRAFO                : BASALT KINEMETRICS
NUMERO DE SERIE DEL ACELEROGRAFO       : 1729
NUMERO DE CANALES                      : 3
ORIENTACION C1-C6 (rumbo;orientacion)  : /V/N00E/N90E
ORIENTACION C7-C12 (rumbo;orientacion) : 
VEL. DE MUESTREO, C1-C6 (muestras/s)   : /200/200/200
VEL. DE MUESTREO, C7-C12 (muestras/s)  : 
ESC. COMPLETA DE SENSORES, C1-C6, (g)  : /2/2/2
ESC. COMPLETA DE SENSORES, C7-C12 (g)  : 
FREC. NAT. DE SENSORES, C1-C6, (Hz)    : /208/210/200   
FREC. NAT. DE SENSORES, C7-C12 (Hz)    : 
AMORTIGUAMIENTO DE SENSORES, C1-C6     : /0.7/0.7/0.7      
AMORTIGUAMIENTO DE SENSORES, C7-C12    : 
INTERVALO DE MUESTREO, C1-C6 (s)       : /0.005/0.005/0.005
INTERVALO DE MUESTREO, C7-C12 (s)      : 
UMBRAL DE DISPARO, C1-C6 (Gal)         : /2/2/2
UMBRAL DE DISPARO, C7-C12 (Gal)        : 
MEMORIA DE PREEVENTO (s)               : 60
TIEMPO DE POSEVENTO (s)                : 80


================================================================================
DATOS DEL SISMO:
FECHA DEL SISMO [GMT]                  : 2023/07/14
HORA EPICENTRO (GMT)                   : 09:29:00
MAGNITUD(ES)                           : /M=6.5
COORDENADAS DEL EPICENTRO              : 14.8100 LAT. N
                                       : -94.1500 LONG. W
PROFUNDIDAD FOCAL (Km)                 : 16.1
FUENTE DE LOS DATOS EPICENTRALES       : SSN
                                       : INSTITUTO DE GEOFISICA, UNAM

================================================================================
DATOS DE ESTE REGISTRO:
HORA DE LA PRIMERA MUESTRA (GMT)       : 09:31:22.000
EXACTITUD DEL TIEMPO (s)               : 
DURACION DEL REGISTRO (s), C1-C6       : /283/283/283
DURACION DEL REGISTRO (s), C7-C12      : 
NUM. TOTAL DE MUESTRAS, C1-C6          : /56600/56600/56600
NUM. TOTAL DE MUESTRAS, C7-C12         : 
ACEL. MAX.(Gal), C1-C6                 : /-0.268/-1.979/-1.415
ACEL. MAX., C1-C6, EN LA MUESTRA       : /14159/17907/23631
ACEL. MAX.(Gal), C7-C12                : 
ACEL. MAX., C7-C12,EN LA MUESTRA       : 
UNIDADES DE LOS DATOS                  : Gal (cm/s/s)
FACTOR DE DECIMACION                   : 1
FORMATO DATOS (FORTRAN,16 campos/dato) : 3E16.7


================================================================================
CALIDAD DEL ACELEROGRAMA:
REGISTRO DIGITAL COMPLETO CON TIEMPO ABSOLUTO CORRECTO


================================================================================
COMENTARIOS:














================================================================================
DATOS DE ACELERACION:
---------+---------+---------+---------+---------+---------+---------+---------+
   CANAL-1   	      CANAL-2          CANAL-3
      V                 N00E             N90E
---------+---------+---------+---------+---------+---------+---------+---------+
[...]
  -9.4716500e-02   1.6344400e+00  -5.6946600e-02
  -1.0031000e-01   1.6409900e+00  -5.1330300e-02
  -1.0031000e-01   1.6517400e+00  -4.5713900e-02
  -1.0170900e-01   1.6564100e+00  -4.4543800e-02
  -1.0124300e-01   1.6664600e+00  -4.3139700e-02
  -9.7047300e-02   1.6765100e+00  -4.0799600e-02
  -9.8912000e-02   1.6886600e+00  -3.5417300e-02
  -9.6581200e-02   1.6910000e+00  -3.6353300e-02
  -9.9611200e-02   1.6991800e+00  -2.9098900e-02
  -1.0054400e-01   1.7047900e+00  -2.2312400e-02
  -9.9611200e-02   1.7090000e+00  -2.5822700e-02
  -1.0450600e-01   1.7183500e+00  -2.0206300e-02
  -1.0194200e-01   1.7199800e+00  -1.8100200e-02
  -1.0240800e-01   1.7377500e+00  -1.3185900e-02
  -1.0520500e-01   1.7414800e+00  -1.2249800e-02
  -1.0287400e-01   1.7403200e+00  -1.3653900e-02
  -1.0240800e-01   1.7531700e+00  -4.2933100e-03
  -1.0310700e-01   1.7541100e+00  -1.1547800e-02
  -1.0637100e-01   1.7592500e+00  -1.0845700e-02
  -1.0637100e-01   1.7611200e+00  -4.9953500e-03
  -1.0194200e-01   1.7667300e+00  -4.7613300e-03
  -1.0404000e-01   1.7711700e+00  -3.1505600e-04
  -1.0730300e-01   1.7657900e+00  -1.4851300e-03
  -1.0707000e-01   1.7742000e+00   3.8972100e-03
  -1.0846800e-01   1.7728000e+00   2.7271400e-03
  -1.1033300e-01   1.7721000e+00   3.1951600e-03
  -1.0800200e-01   1.7756100e+00   6.0033400e-03
  -1.0707000e-01   1.7725700e+00   4.3652400e-03
  -1.1010000e-01   1.7739700e+00   8.3434900e-03
  -1.1126500e-01   1.7669600e+00   9.5135600e-03
  -1.1219800e-01   1.7700000e+00   1.1619700e-02
  -1.1149800e-01   1.7622900e+00   1.0449600e-02
  -1.1056600e-01   1.7564400e+00   1.2087700e-02
  -1.0963400e-01   1.7601800e+00   1.5129900e-02
  -1.1289700e-01   1.7431200e+00   1.1619700e-02
  -1.1755900e-01   1.7405500e+00   1.0917600e-02
  -1.1499500e-01   1.7279300e+00   1.2087700e-02
  -1.1079900e-01   1.7199800e+00   1.3725800e-02
  -1.0730300e-01   1.7169400e+00   1.0683600e-02
  -1.0707000e-01   1.6989500e+00   1.0683600e-02
  -1.0473900e-01   1.6982500e+00   1.3725800e-02
  -1.0077700e-01   1.6849300e+00   1.1151700e-02
  -1.0124300e-01   1.6765100e+00   9.0455300e-03
  -9.8912000e-02   1.6690300e+00   5.7693300e-03
  -1.0101000e-01   1.6510400e+00   4.8332700e-03
  -1.0101000e-01   1.6402900e+00   2.4931200e-03
  -9.5881900e-02   1.6236900e+00   4.1312200e-03
  -9.4017300e-02   1.6120100e+00   6.2373600e-03
  -9.4716500e-02   1.5968100e+00   1.5570600e-03
  -9.4017300e-02   1.5823200e+00   2.0250900e-03
  -8.9122600e-02   1.5706400e+00   1.0890300e-03
  -8.8656400e-02   1.5507700e+00  -3.1505600e-04
  -8.7491000e-02   1.5358200e+00  -1.4851300e-03
  -8.4694000e-02   1.5236600e+00  -1.9531600e-03
  -8.1197800e-02   1.5038000e+00  -8.2715500e-03
  -7.9799300e-02   1.4930500e+00  -8.7395800e-03
  -8.1663900e-02   1.4818300e+00  -7.8035300e-03
  -8.0265500e-02   1.4605600e+00  -1.5526000e-02
  -7.7468500e-02   1.4472400e+00  -1.0611700e-02
  -7.0242900e-02   1.4283100e+00  -1.6228100e-02
  -6.5581300e-02   1.4107800e+00  -1.5760000e-02
  -5.9288100e-02   1.3930100e+00  -1.6930100e-02
  -5.5558800e-02   1.3724500e+00  -2.3950500e-02
  -5.8822000e-02   1.3570200e+00  -1.8334200e-02
  -5.1829500e-02   1.3383300e+00  -2.3950500e-02
  -4.4604000e-02   1.3226700e+00  -2.2546500e-02
  -4.1340800e-02   1.3014000e+00  -2.6992700e-02
  -3.5980000e-02   1.2831700e+00  -2.5822700e-02
  -2.8754400e-02   1.2651700e+00  -2.2780500e-02
  -2.4092800e-02   1.2439000e+00  -3.2843100e-02
  -2.1995100e-02   1.2352600e+00  -2.9098900e-02
  -2.2927400e-02   1.2118900e+00  -3.5417300e-02
  -2.1295800e-02   1.1882800e+00  -3.6587300e-02
  -1.2904900e-02   1.1761300e+00  -3.2141100e-02
  -7.3109400e-03   1.1473800e+00  -3.9395500e-02
  -3.1154700e-03   1.1291500e+00  -3.7055400e-02
  -2.4162200e-03   1.1118600e+00  -4.0097600e-02
  -2.6493100e-03   1.0870800e+00  -4.7820000e-02
  -3.1849000e-04   1.0676800e+00  -4.5947900e-02
   1.3130800e-03   1.0457100e+00  -4.7352000e-02
   7.3732000e-03   1.0279500e+00  -4.8756100e-02
   1.0403300e-02   1.0020100e+00  -4.9692200e-02
   1.2734100e-02   9.7489800e-01  -5.1564300e-02
   1.5997200e-02   9.5550000e-01  -5.2032300e-02
   1.5064900e-02   9.3166100e-01  -5.8350700e-02
   1.8561100e-02   9.0431600e-01  -6.0456800e-02
   2.0658800e-02   8.8188000e-01  -5.9988800e-02
   1.8794200e-02   8.5617100e-01  -6.3031000e-02
   1.7861900e-02   8.2485300e-01  -6.4903100e-02
   2.0891900e-02   8.0241600e-01  -6.4903100e-02
   2.4388200e-02   7.7811000e-01  -6.3031000e-02
   2.4854300e-02   7.5076500e-01  -6.7945300e-02
   2.5087400e-02   7.2669300e-01  -6.8881400e-02
   2.1591200e-02   7.0028300e-01  -6.7477300e-02
   1.9726500e-02   6.7106800e-01  -7.0519500e-02
   1.7162600e-02   6.3975100e-01  -7.0987500e-02
   1.7162600e-02   6.0936800e-01  -7.4029700e-02
   2.1824300e-02   5.7968600e-01  -7.3093600e-02
   1.9027300e-02   5.5117300e-01  -7.2859600e-02
   1.7861900e-02   5.2102300e-01  -7.2391600e-02
   2.2290400e-02   4.8853700e-01  -7.3093600e-02
   2.1358100e-02   4.6142600e-01  -7.3561700e-02
   1.5531100e-02   4.3080900e-01  -6.9115400e-02
   1.5764100e-02   3.9248000e-01  -7.9178000e-02
   1.5531100e-02   3.6677100e-01  -7.6135800e-02
   1.6929500e-02   3.3451800e-01  -7.6837900e-02
   1.7162600e-02   3.0156500e-01  -8.5262400e-02
   1.1102500e-02   2.7702500e-01  -7.7539900e-02
   1.2034800e-02   2.4009800e-01  -8.5730400e-02
   9.2378500e-03   2.0784500e-01  -8.1284100e-02
   5.9747100e-03   1.7138500e-01  -7.9412000e-02
   6.4408700e-03   1.3960000e-01  -8.8304600e-02
   3.4108100e-03   1.0804800e-01  -8.4092300e-02
   7.6062800e-03   7.2991100e-02  -8.7836500e-02
   4.1100600e-03   4.8451000e-02  -8.5496400e-02
   1.4767300e-04   1.1290300e-02  -8.7836500e-02
   5.0423900e-03  -2.1196200e-02  -9.0176700e-02
   2.4784900e-03  -4.9943100e-02  -8.8304600e-02
   3.1777300e-03  -8.5701600e-02  -9.4154900e-02
   2.4784900e-03  -1.1772100e-01  -9.5325000e-02
   2.0123300e-03  -1.4296200e-01  -9.3218900e-02
   7.1401200e-03  -1.7170900e-01  -9.7197100e-02
   3.8769800e-03  -2.0840200e-01  -9.9069200e-02
   1.5461600e-03  -2.3481200e-01  -9.6027100e-02
   2.4784900e-03  -2.7127200e-01  -1.0445200e-01
  -8.5408300e-05  -3.0445900e-01  -1.0187700e-01
   6.1383600e-04  -3.2829800e-01  -9.9069200e-02
   5.2754700e-03  -3.6288800e-01  -1.0889800e-01
   6.2077900e-03  -3.8439000e-01  -1.0304700e-01
   2.2454100e-03  -4.1594100e-01  -1.0632400e-01
  -5.5157100e-04  -4.5076500e-01  -1.0726000e-01
  -3.1849000e-04  -4.7483800e-01  -1.0445200e-01
   2.0123300e-03  -5.0755800e-01  -1.1077000e-01
   3.4108100e-03  -5.3350000e-01  -1.0398400e-01
   2.2454100e-03  -5.6411700e-01  -1.0960000e-01
   1.3130800e-03  -5.9192900e-01  -1.1006800e-01
   6.1383600e-04  -6.1740400e-01  -1.0398400e-01
  -1.4839000e-03  -6.4872200e-01  -1.1053600e-01
  -2.8823900e-03  -6.7489800e-01  -1.0889800e-01
  -4.2808800e-03  -7.0364500e-01  -1.1006800e-01
  -6.8447700e-03  -7.2888600e-01  -1.1287600e-01
  -7.5440200e-03  -7.5810000e-01  -1.1123800e-01
  -7.7771000e-03  -7.8451000e-01  -1.1615200e-01
  -8.7094300e-03  -8.0928400e-01  -1.2013100e-01
  -1.1040200e-02  -8.3943300e-01  -1.1591800e-01
  -9.8748300e-03  -8.6490800e-01  -1.1942900e-01
  -1.2438700e-02  -8.9388900e-01  -1.1942900e-01
  -1.6168000e-02  -9.2287000e-01  -1.1685400e-01
  -1.2904900e-02  -9.4741000e-01  -1.2176900e-01
  -1.7799600e-02  -9.7031400e-01  -1.2223700e-01
  -2.1062700e-02  -1.0002300e+00  -1.2481100e-01
  -2.2228200e-02  -1.0257000e+00  -1.2317300e-01
  -2.6656700e-02  -1.0479100e+00  -1.2317300e-01
  -2.9919800e-02  -1.0796900e+00  -1.2644900e-01
  -3.4348400e-02  -1.1044700e+00  -1.2995900e-01
  -3.6446100e-02  -1.1266700e+00  -1.3346900e-01
  -4.2273200e-02  -1.1500400e+00  -1.3768200e-01
  -4.6701700e-02  -1.1766800e+00  -1.4002200e-01
  -5.0664100e-02  -1.2026300e+00  -1.3932000e-01
  -5.0431000e-02  -1.2257600e+00  -1.4189400e-01
  -4.9964900e-02  -1.2507700e+00  -1.3815000e-01
  -5.6025000e-02  -1.2736800e+00  -1.4142600e-01
  -5.9288100e-02  -1.2998500e+00  -1.4493600e-01
  -6.7679100e-02  -1.3213500e+00  -1.4704200e-01
  -7.0709100e-02  -1.3451900e+00  -1.5078600e-01
  -7.1408400e-02  -1.3681000e+00  -1.4868000e-01
  -7.3972300e-02  -1.3893700e+00  -1.5359500e-01
  -7.5370700e-02  -1.4171800e+00  -1.5780700e-01
  -8.0032400e-02  -1.4391500e+00  -1.5757300e-01
  -8.1897000e-02  -1.4601800e+00  -1.6178500e-01
  -8.8423300e-02  -1.4802800e+00  -1.6623100e-01
  -9.2851900e-02  -1.4994500e+00  -1.6599700e-01
  -9.3084900e-02  -1.5193100e+00  -1.6950800e-01
  -9.3318000e-02  -1.5401100e+00  -1.7067800e-01
  -9.5415800e-02  -1.5595100e+00  -1.7114600e-01
  -1.0170900e-01  -1.5807800e+00  -1.7442200e-01
  -1.0077700e-01  -1.6050800e+00  -1.7957000e-01
  -9.8912000e-02  -1.6195700e+00  -1.8144200e-01
  -9.8445800e-02  -1.6380400e+00  -1.7793200e-01
  -9.7746600e-02  -1.6579000e+00  -1.9010100e-01
  -9.6581200e-02  -1.6745000e+00  -1.9080300e-01
  -9.4716500e-02  -1.6889900e+00  -1.8846300e-01
  -9.4250300e-02  -1.7037100e+00  -1.9735500e-01
  -9.2385700e-02  -1.7231100e+00  -1.9571700e-01
  -9.4017300e-02  -1.7341000e+00  -1.9876000e-01
  -9.4250300e-02  -1.7520900e+00  -2.0297200e-01
  -9.1686500e-02  -1.7642400e+00  -2.0601400e-01
  -9.0754100e-02  -1.7724200e+00  -2.0695000e-01
  -8.8190200e-02  -1.7904200e+00  -2.0882200e-01
  -8.5393200e-02  -1.7993000e+00  -2.1046000e-01
  -7.9799300e-02  -1.8137900e+00  -2.0671600e-01
  -7.3739200e-02  -1.8261800e+00  -2.1373600e-01
  -7.2806800e-02  -1.8367000e+00  -2.1560900e-01
  -6.9077500e-02  -1.8509500e+00  -2.1771500e-01
  -5.8822000e-02  -1.8551600e+00  -2.2379900e-01
  -5.6957300e-02  -1.8603000e+00  -2.1724700e-01
  -5.3694200e-02  -1.8736200e+00  -2.1935300e-01
  -4.4137800e-02  -1.8853100e+00  -2.2333100e-01
  -4.5303200e-02  -1.8878800e+00  -2.1958700e-01
  -4.2040100e-02  -1.9016700e+00  -2.2613900e-01
  -4.0175400e-02  -1.9086800e+00  -2.2684100e-01
  -4.0874700e-02  -1.9075100e+00  -2.2028900e-01
  -3.3882200e-02  -1.9222400e+00  -2.2707500e-01
  -3.0386000e-02  -1.9231700e+00  -2.2075700e-01
  -2.1762000e-02  -1.9280800e+00  -2.1701300e-01
  -1.5002600e-02  -1.9393000e+00  -2.2590500e-01
  -1.2205600e-02  -1.9400000e+00  -2.2099100e-01
  -1.0107900e-02  -1.9479400e+00  -2.2520300e-01
  -6.8447700e-03  -1.9477100e+00  -2.2567100e-01
  -1.4839000e-03  -1.9484100e+00  -2.2028900e-01
   6.1383600e-04  -1.9556600e+00  -2.2333100e-01
   6.6739600e-03  -1.9584600e+00  -2.1958700e-01
   1.1335600e-02  -1.9657100e+00  -2.1677900e-01
   1.4365600e-02  -1.9708500e+00  -2.1443800e-01
   1.6230300e-02  -1.9706200e+00  -2.1139600e-01
   1.9493400e-02  -1.9720200e+00  -2.1467300e-01
   2.4621200e-02  -1.9682800e+00  -2.1092800e-01
   2.7651300e-02  -1.9722500e+00  -2.1022600e-01
   3.7440700e-02  -1.9769300e+00  -2.1280000e-01
   4.2335400e-02  -1.9706200e+00  -2.0578000e-01
   4.1636200e-02  -1.9790300e+00  -2.0929000e-01
   4.4666200e-02  -1.9783300e+00  -2.0835400e-01
   4.9094800e-02  -1.9724900e+00  -2.0929000e-01
   5.2591000e-02  -1.9741200e+00  -2.0648200e-01
   5.6087200e-02  -1.9710800e+00  -1.9922800e-01
   6.1448100e-02  -1.9708500e+00  -2.0203600e-01
   6.3545800e-02  -1.9706200e+00  -1.9384500e-01
   6.6342800e-02  -1.9703800e+00  -1.9758900e-01
   6.8906700e-02  -1.9645400e+00  -1.9501500e-01
   7.0538300e-02  -1.9624400e+00  -1.9361100e-01
   7.3801400e-02  -1.9598600e+00  -1.9665300e-01
   7.4733800e-02  -1.9563600e+00  -1.8612300e-01
   7.8463100e-02  -1.9544900e+00  -1.8682500e-01
   8.2425500e-02  -1.9500500e+00  -1.8261200e-01
   8.4989400e-02  -1.9512200e+00  -1.7980400e-01
   8.4989400e-02  -1.9437400e+00  -1.8027200e-01
   8.5921700e-02  -1.9350900e+00  -1.7746400e-01
   9.1748700e-02  -1.9308800e+00  -1.7863400e-01
   9.1282600e-02  -1.9222400e+00  -1.7067800e-01
   9.1515600e-02  -1.9194300e+00  -1.6927400e-01
   9.4079500e-02  -1.9189600e+00  -1.7114600e-01
   9.5478000e-02  -1.9082100e+00  -1.6318900e-01
   1.0107200e-01  -1.9000300e+00  -1.6435900e-01
   1.0083900e-01  -1.8895200e+00  -1.5944500e-01
   9.9440400e-02  -1.8792300e+00  -1.5406300e-01
   1.0247000e-01  -1.8724500e+00  -1.5382900e-01
   1.0526700e-01  -1.8593700e+00  -1.4821200e-01
   1.0340300e-01  -1.8523600e+00  -1.4774400e-01
   1.0083900e-01  -1.8469800e+00  -1.4634000e-01
   1.0526700e-01  -1.8348300e+00  -1.4727600e-01
   1.0759800e-01  -1.8231400e+00  -1.4166000e-01
   1.0736500e-01  -1.8137900e+00  -1.3838400e-01
   1.0666600e-01  -1.8000000e+00  -1.3370300e-01
   1.0923000e-01  -1.7871500e+00  -1.2738500e-01
   1.1668800e-01  -1.7768700e+00  -1.2949100e-01
   1.1738800e-01  -1.7619100e+00  -1.2293900e-01
   1.1645500e-01  -1.7467200e+00  -1.2551300e-01
   1.1622200e-01  -1.7350300e+00  -1.2293900e-01
   1.1249300e-01  -1.7224100e+00  -1.1498200e-01
   1.1389100e-01  -1.7100200e+00  -1.1428000e-01
   1.1552300e-01  -1.6927300e+00  -1.1006800e-01
   1.1272600e-01  -1.6726300e+00  -1.0375000e-01
   1.1295900e-01  -1.6653800e+00  -1.0328200e-01
   1.1249300e-01  -1.6492600e+00  -1.0562200e-01
   1.1295900e-01  -1.6314900e+00  -9.8367200e-02
   1.1249300e-01  -1.6198100e+00  -9.6261100e-02
   1.1179400e-01  -1.5983100e+00  -9.1112800e-02
   1.1179400e-01  -1.5833500e+00  -8.3624300e-02
   1.0689900e-01  -1.5669900e+00  -8.2922200e-02
   1.0689900e-01  -1.5501600e+00  -7.9178000e-02
   1.0806400e-01  -1.5333300e+00  -7.5667800e-02
   1.0759800e-01  -1.5141700e+00  -7.4731700e-02
   1.1016200e-01  -1.4999100e+00  -7.4731700e-02
   1.0829800e-01  -1.4844900e+00  -6.9115400e-02
   1.0713200e-01  -1.4636900e+00  -6.7945300e-02
   1.0410200e-01  -1.4440500e+00  -6.5371100e-02
   1.0177100e-01  -1.4288600e+00  -5.8350700e-02
   1.0689900e-01  -1.4085300e+00  -6.0690800e-02
   1.0317000e-01  -1.3898300e+00  -5.6010500e-02
   9.7808800e-02  -1.3748800e+00  -5.1330300e-02
   9.5944200e-02  -1.3561800e+00  -5.1330300e-02
   9.2681000e-02  -1.3370100e+00  -4.5479900e-02
   9.4312600e-02  -1.3176100e+00  -4.1969700e-02
   9.3613400e-02  -1.2986800e+00  -4.0331600e-02
   9.1981800e-02  -1.2806900e+00  -3.7523400e-02
   8.4989400e-02  -1.2601200e+00  -3.7055400e-02
   7.9395400e-02  -1.2458600e+00  -3.7055400e-02
   8.2658500e-02  -1.2260000e+00  -3.0971000e-02
   8.1027000e-02  -1.1998200e+00  -2.6290700e-02
   7.6598400e-02  -1.1834600e+00  -2.1844400e-02
   6.9372900e-02  -1.1647700e+00  -2.2078400e-02
   6.7974400e-02  -1.1486400e+00  -2.5120600e-02
   6.2846600e-02  -1.1264400e+00  -1.7164100e-02
   5.4222600e-02  -1.1086700e+00  -1.7398100e-02
   5.2824100e-02  -1.0941800e+00  -1.4121900e-02
   5.0027100e-02  -1.0696400e+00  -9.4416300e-03
   5.1192500e-02  -1.0530500e+00  -8.9736000e-03
   4.7696300e-02  -1.0301500e+00  -2.1871700e-03
   4.7463200e-02  -1.0116800e+00  -3.3572500e-03
   4.7463200e-02  -9.8831000e-01   1.5570600e-03
   3.9538500e-02  -9.6891200e-01   1.3230500e-03
   3.7906900e-02  -9.5792700e-01  -3.1505600e-04
   3.4876800e-02  -9.2497300e-01   6.7053800e-03
   3.2546000e-02  -9.0604200e-01   7.8754600e-03
   3.1613700e-02  -8.9038300e-01   1.0449600e-02
   2.9282900e-02  -8.6303900e-01   1.3959800e-02
   2.7185100e-02  -8.4270500e-01   1.8406100e-02
   2.1824300e-02  -8.2424200e-01   1.7938100e-02
   1.7628800e-02  -8.0531100e-01   2.0746300e-02
   1.6230300e-02  -7.7983600e-01   2.8234700e-02
   1.4831800e-02  -7.5903500e-01   2.4022500e-02
   1.3433300e-02  -7.4010400e-01   2.8468700e-02
   1.2967200e-02  -7.1533100e-01   3.7829300e-02
   1.2267900e-02  -6.9546500e-01   3.8531400e-02
   6.9070400e-03  -6.7489800e-01   4.6253900e-02
