**************************************************************************************
  	RED ACELEROGRÁFICA DE LA UNIVERSIDAD AUTONOMA METROPOLITANA (RA-UAM)
	   UNIDAD AZCAPOTZALCO. DIVISIÓN CBI-DEPARTAMENTO DE MATERIALES
     Av. San Pablo 420, Col. Nueva el Rosario, Azcapotzalco, C.P. 02128, Ciudad de México
		Área de Estructuras. e-mail: agb@azc.uam.mx
**************************************************************************************
ARCHIVO ESTANDAR DE ACELERACION:
VERSION DEL FORMATO                    : 2.0
NOMBRE DEL ARCHIVO                     : RIDX202310.071
FECHA Y HORA DE CREACION               : 11:30 a. m. 13/10/2023
REF. CATALOGO ACELEROGRAMAS, SMIS 1999 : REGISTRO NO.      /PAG.    


================================================================================
DATOS DE LA ESTACION:
NOMBRE DE LA ESTACION                  : UAM-XOCHIMILCO.
CLAVE DE LA ESTACION                   : RIDX
LOCALIZACION DE LA ESTACION            : CALZADA DEL HUESO 1100, COL. VILLA
                                       : QUIETUD, DEL. COYOACAN, C.P.04960,  
                                       : CIUDAD DE MEXICO.
                                       : 
                                       : 
COORDENADAS DE LA ESTACION             : 19.301345 LAT. N
                                       : 99.10268 LONG. W
ALTITUD (msnm)                         : 2232
TIPO DE SUELO                          : LAGO
                                       : 
                                       : 
INSTITUCION RESPONSABLE                : UNIVERSIDAD AUTONOMA METROPOLITANA
                                       : 

================================================================================
DATOS DEL ACELEROGRAFO: 
MODELO DEL ACELEROGRAFO                : BASALT KINEMETRICS
NUMERO DE SERIE DEL ACELEROGRAFO       : 1729
NUMERO DE CANALES                      : 3
ORIENTACION C1-C6 (rumbo;orientacion)  : /V/N00E/N90E
ORIENTACION C7-C12 (rumbo;orientacion) : 
VEL. DE MUESTREO, C1-C6 (muestras/s)   : /200/200/200
VEL. DE MUESTREO, C7-C12 (muestras/s)  : 
ESC. COMPLETA DE SENSORES, C1-C6, (g)  : /2/2/2
ESC. COMPLETA DE SENSORES, C7-C12 (g)  : 
FREC. NAT. DE SENSORES, C1-C6, (Hz)    : /208/210/200   
FREC. NAT. DE SENSORES, C7-C12 (Hz)    : 
AMORTIGUAMIENTO DE SENSORES, C1-C6     : /0.7/0.7/0.7      
AMORTIGUAMIENTO DE SENSORES, C7-C12    : 
INTERVALO DE MUESTREO, C1-C6 (s)       : /0.005/0.005/0.005
INTERVALO DE MUESTREO, C7-C12 (s)      : 
UMBRAL DE DISPARO, C1-C6 (Gal)         : /2/2/2
UMBRAL DE DISPARO, C7-C12 (Gal)        : 
MEMORIA DE PREEVENTO (s)               : 60
TIEMPO DE POSEVENTO (s)                : 80


================================================================================
DATOS DEL SISMO:
FECHA DEL SISMO [GMT]                  : 2023/10/07
HORA EPICENTRO (GMT)                   : 05:06:56
MAGNITUD(ES)                           : /M=6.0
COORDENADAS DEL EPICENTRO              : 16.9600 LAT. N
                                       : -95.1100 LONG. W
PROFUNDIDAD FOCAL (Km)                 : 110.3
FUENTE DE LOS DATOS EPICENTRALES       : SSN
                                       : INSTITUTO DE GEOFISICA, UNAM

================================================================================
DATOS DE ESTE REGISTRO:
HORA DE LA PRIMERA MUESTRA (GMT)       : 05:07:51.000
EXACTITUD DEL TIEMPO (s)               : 
DURACION DEL REGISTRO (s), C1-C6       : /305/305/305
DURACION DEL REGISTRO (s), C7-C12      : 
NUM. TOTAL DE MUESTRAS, C1-C6          : /61000/61000/61000
NUM. TOTAL DE MUESTRAS, C7-C12         : 
ACEL. MAX.(Gal), C1-C6                 : /1.190/-2.090/2.511
ACEL. MAX., C1-C6, EN LA MUESTRA       : /18420/16752/17040
ACEL. MAX.(Gal), C7-C12                : 
ACEL. MAX., C7-C12,EN LA MUESTRA       : 
UNIDADES DE LOS DATOS                  : Gal (cm/s/s)
FACTOR DE DECIMACION                   : 1
FORMATO DATOS (FORTRAN,16 campos/dato) : 3E16.7


================================================================================
CALIDAD DEL ACELEROGRAMA:
REGISTRO DIGITAL COMPLETO CON TIEMPO ABSOLUTO CORRECTO


================================================================================
COMENTARIOS:














================================================================================
DATOS DE ACELERACION:
---------+---------+---------+---------+---------+---------+---------+---------+
   CANAL-1   	      CANAL-2          CANAL-3
      V                 N00E             N90E
---------+---------+---------+---------+---------+---------+---------+---------+
[...]
   4.6094200e-01   7.7013600e-02  -1.7025700e+00
   4.7655900e-01   1.2071800e-01  -1.7386100e+00
   4.8588200e-01   1.6418900e-01  -1.7702000e+00
   5.0173200e-01   2.0135000e-01  -1.8071800e+00
   5.0895700e-01   2.4295100e-01  -1.8345600e+00
   5.2154300e-01   2.7193200e-01  -1.8647400e+00
   5.2900200e-01   3.1072900e-01  -1.8921200e+00
   5.3319800e-01   3.4648700e-01  -1.9085000e+00
   5.4042300e-01   3.6448300e-01  -1.9351800e+00
   5.4135500e-01   3.8458300e-01  -1.9564800e+00
   5.4391900e-01   3.9813800e-01  -1.9749600e+00
   5.4088900e-01   4.0421500e-01  -1.9941500e+00
   5.3785900e-01   4.0000800e-01  -2.0098300e+00
   5.2807000e-01   4.0164400e-01  -2.0199000e+00
   5.1851300e-01   3.9673600e-01  -2.0231700e+00
   5.0849100e-01   3.8294700e-01  -2.0280900e+00
   4.9147600e-01   3.7196200e-01  -2.0278500e+00
   4.8611500e-01   3.5233000e-01  -2.0308900e+00
   4.6560400e-01   3.3363300e-01  -2.0229400e+00
   4.4089700e-01   3.0465200e-01  -2.0126400e+00
   4.1805500e-01   2.7964500e-01  -2.0058500e+00
   3.8565700e-01   2.5346900e-01  -1.9838600e+00
   3.7004000e-01   2.1537300e-01  -1.9672400e+00
   3.3997300e-01   1.8428900e-01  -1.9415000e+00
   3.0104800e-01   1.4923200e-01  -1.9141200e+00
   2.6818400e-01   1.0599400e-01  -1.8916600e+00
   2.1504100e-01   6.2289600e-02  -1.8565500e+00
   1.6609400e-01   2.0454500e-02  -1.8228500e+00
   1.1924500e-01  -3.2131400e-02  -1.7826000e+00
   6.7966800e-02  -8.4249900e-02  -1.7372100e+00
   1.7388100e-02  -1.3169400e-01  -1.6962500e+00
  -3.4822200e-02  -1.8731800e-01  -1.6508500e+00
  -8.7498600e-02  -2.3826800e-01  -1.5996000e+00
  -1.3924300e-01  -2.9155500e-01  -1.5446100e+00
  -1.8096400e-01  -3.4460900e-01  -1.4917200e+00
  -2.3527200e-01  -3.9298800e-01  -1.4376700e+00
  -2.8748300e-01  -4.4557400e-01  -1.3866500e+00
  -3.3083600e-01  -4.9371900e-01  -1.3349300e+00
  -3.7931700e-01  -5.4700600e-01  -1.2797100e+00
  -4.1847400e-01  -6.0356500e-01  -1.2317300e+00
  -4.6345900e-01  -6.4984100e-01  -1.1722900e+00
  -5.0028600e-01  -7.0125800e-01  -1.1168300e+00
  -5.3338400e-01  -7.5033800e-01  -1.0658200e+00
  -5.7533800e-01  -7.9123900e-01  -1.0054400e+00
  -6.0517300e-01  -8.3330700e-01  -9.5466000e-01
  -6.3011200e-01  -8.7818100e-01  -9.1019800e-01
  -6.5901400e-01  -9.1767900e-01  -8.6643700e-01
  -6.8931500e-01  -9.4899600e-01  -8.1682600e-01
  -7.1215700e-01  -9.8615700e-01  -7.7119300e-01
  -7.3476600e-01  -1.0149000e+00  -7.2532600e-01
  -7.5108200e-01  -1.0410800e+00  -6.8226700e-01
  -7.6203700e-01  -1.0637500e+00  -6.4435700e-01
  -7.6856300e-01  -1.0782400e+00  -5.9919200e-01
  -7.5760800e-01  -1.1002100e+00  -5.6689800e-01
  -7.5411200e-01  -1.1109600e+00  -5.2383900e-01
  -7.3989400e-01  -1.1224100e+00  -4.7890900e-01
  -7.1635300e-01  -1.1345700e+00  -4.3889200e-01
  -6.9817200e-01  -1.1352700e+00  -3.9723700e-01
  -6.6041300e-01  -1.1408800e+00  -3.6751800e-01
  -6.3360900e-01  -1.1348000e+00  -3.2469300e-01
  -6.0447300e-01  -1.1259200e+00  -2.9052700e-01
  -5.5692500e-01  -1.1247500e+00  -2.6338100e-01
  -5.2662400e-01  -1.1055900e+00  -2.2640700e-01
  -4.8676700e-01  -1.0878200e+00  -1.9832500e-01
  -4.4108300e-01  -1.0731000e+00  -1.6720100e-01
  -4.1451200e-01  -1.0452900e+00  -1.3163100e-01
  -3.7418900e-01  -1.0221500e+00  -1.0682500e-01
  -3.3200100e-01  -9.9947900e-01  -8.1785700e-02
  -3.0076800e-01  -9.7797700e-01  -5.4406000e-02
  -2.5951300e-01  -9.5974700e-01  -3.2174600e-02
  -2.2641500e-01  -9.4011500e-01  -5.9649300e-03
  -1.9961100e-01  -9.2095100e-01   1.9074600e-02
  -1.6371600e-01  -9.0085100e-01   3.6859800e-02
  -1.2922000e-01  -8.8495800e-01   5.2772700e-02
  -9.1927100e-02  -8.6906600e-01   7.1259900e-02
  -5.5566400e-02  -8.5504300e-01   8.1322500e-02
  -2.8995100e-02  -8.4405800e-01   9.1619200e-02
   6.8994400e-03  -8.3961800e-01   9.7937600e-02
   3.9530900e-02  -8.3611200e-01   9.8405600e-02
   6.2139800e-02  -8.2723100e-01   1.0729800e-01
   9.8733600e-02  -8.2232300e-01   1.0332000e-01
   1.2623700e-01  -8.1274000e-01   1.0308600e-01
   1.4441800e-01  -8.0432700e-01   1.0846800e-01
   1.6819200e-01  -8.0199000e-01   1.0542600e-01
   1.8613900e-01  -7.9661400e-01   1.0285200e-01
   2.0315400e-01  -7.8773300e-01   1.0215000e-01
   2.1877100e-01  -7.7838400e-01   9.6533500e-02
   2.3159000e-01  -7.7043800e-01   8.5066800e-02
   2.4184600e-01  -7.5267600e-01   8.3428700e-02
   2.5443200e-01  -7.3982100e-01   7.4536100e-02
   2.6701800e-01  -7.3818500e-01   6.2601400e-02
   2.7750700e-01  -7.2907000e-01   5.3708800e-02
   2.9056000e-01  -7.2042300e-01   4.4114200e-02
   3.0011600e-01  -7.0663400e-01   3.9433900e-02
   3.1177000e-01  -6.9588300e-01   3.0775400e-02
   3.2365700e-01  -6.8396300e-01   2.7967200e-02
   3.3997300e-01  -6.6292900e-01   2.8903300e-02
   3.6537900e-01  -6.5334700e-01   2.8201200e-02
   3.7703300e-01  -6.3441600e-01   3.1477400e-02
   3.9591300e-01  -6.1197900e-01   3.3817600e-02
   4.1595800e-01  -5.8486800e-01   4.2242100e-02
   4.2225100e-01  -5.4537000e-01   5.9325200e-02
   4.4043100e-01  -5.1311700e-01   7.3366000e-02
   4.5744600e-01  -4.7198400e-01   9.4193300e-02
   4.7632600e-01  -4.3201800e-01   1.1759500e-01
   4.9077700e-01  -3.9111800e-01   1.3865600e-01
   5.0359600e-01  -3.3783100e-01   1.6276000e-01
   5.2760400e-01  -2.8571200e-01   1.8499100e-01
   5.3949100e-01  -2.2728400e-01   2.1424300e-01
   5.6046800e-01  -1.6511500e-01   2.3530400e-01
   5.7958100e-01  -1.0411600e-01   2.5589700e-01
   5.9053600e-01  -3.9376600e-02   2.7110800e-01
   6.1873800e-01   2.3025400e-02   2.6970400e-01
   6.3738500e-01   9.5243400e-02   2.8117100e-01
   6.5812900e-01   1.6465700e-01   2.7859700e-01
   6.8283600e-01   2.2215100e-01   2.7040600e-01
   7.0031700e-01   2.9974400e-01   2.6549200e-01
   7.2642200e-01   3.6939100e-01   2.4396300e-01
   7.4530200e-01   4.3319600e-01   2.2992200e-01
   7.7000800e-01   5.0260900e-01   2.0581800e-01
   7.9821100e-01   5.6571200e-01   1.7586400e-01
   8.0963200e-01   6.3512600e-01   1.5597300e-01
   8.2571500e-01   6.9519100e-01   1.3046600e-01
   8.3806800e-01   7.5993000e-01   1.0612800e-01
   8.4715800e-01   8.2490300e-01   8.9513100e-02
   8.5788000e-01   8.8029300e-01   8.0152500e-02
   8.5997800e-01   9.3474900e-01   7.1025900e-02
   8.6370700e-01   9.8032300e-01   6.3771400e-02
   8.6417300e-01   1.0256600e+00   6.6345600e-02
   8.6347400e-01   1.0696000e+00   7.1493900e-02
   8.6277500e-01   1.1149400e+00   8.1556600e-02
   8.5811300e-01   1.1551400e+00   9.5831500e-02
   8.5904600e-01   1.1944100e+00   1.0706400e-01
   8.5065500e-01   1.2320300e+00   1.2414700e-01
   8.3946700e-01   1.2596100e+00   1.3959200e-01
   8.3573700e-01   1.2914000e+00   1.4708100e-01
   8.3200800e-01   1.3143000e+00   1.5737700e-01
   8.2758000e-01   1.3369700e+00   1.6697200e-01
   8.1452700e-01   1.3629200e+00   1.7212000e-01
   8.0450400e-01   1.3771700e+00   1.7563000e-01
   7.9541400e-01   1.3928300e+00   1.7890700e-01
   7.8189600e-01   1.3972700e+00   1.7422600e-01
   7.6697800e-01   1.3984400e+00   1.6369600e-01
   7.4530200e-01   1.3996100e+00   1.5597300e-01
   7.3085100e-01   1.3933000e+00   1.4403800e-01
   7.0591100e-01   1.3991400e+00   1.3842200e-01
   6.7700900e-01   1.3935300e+00   1.3070000e-01
   6.5300100e-01   1.3853500e+00   1.2110500e-01
   6.1687400e-01   1.3816100e+00   1.2040300e-01
   5.8890400e-01   1.3661900e+00   1.1665900e-01
   5.5627300e-01   1.3575400e+00   1.1829700e-01
   5.2853600e-01   1.3472600e+00   1.2040300e-01
   5.0173200e-01   1.3486600e+00   1.3304000e-01
   4.6560400e-01   1.3491300e+00   1.4708100e-01
   4.3810000e-01   1.3477200e+00   1.6018500e-01
   4.0243900e-01   1.3654900e+00   1.8756500e-01
   3.7726600e-01   1.3668900e+00   2.0722200e-01
   3.4673200e-01   1.3804400e+00   2.4045300e-01
   3.1340200e-01   1.4012400e+00   2.7204500e-01
   2.9102600e-01   1.4199400e+00   3.0574300e-01
   2.5513100e-01   1.4578000e+00   3.4903500e-01
   2.2273300e-01   1.4884200e+00   3.8086100e-01
   1.8334200e-01   1.5288500e+00   4.2626000e-01
   1.4395100e-01   1.5636800e+00   4.6066000e-01
   1.0735800e-01   1.5947600e+00   4.9857100e-01
   6.2372800e-02   1.6375300e+00   5.4209700e-01
   1.6222700e-02   1.6749200e+00   5.7837000e-01
  -2.9694400e-02   1.7167600e+00   6.2259800e-01
  -7.4912200e-02   1.7593000e+00   6.6495500e-01
  -1.3015200e-01   1.8027700e+00   7.1737400e-01
  -1.7746800e-01   1.8338500e+00   7.5973100e-01
  -2.2664800e-01   1.8658700e+00   8.1051200e-01
  -2.7443000e-01   1.8990600e+00   8.6620800e-01
  -3.1382100e-01   1.9207900e+00   9.1605300e-01
  -3.6673000e-01   1.9502400e+00   9.8087500e-01
  -4.0985000e-01   1.9724400e+00   1.0428900e+00
  -4.4737600e-01   1.9941800e+00   1.1121600e+00
  -4.9748900e-01   2.0124100e+00   1.1788500e+00
  -5.4550400e-01   2.0191900e+00   1.2490600e+00
  -5.7860100e-01   2.0229300e+00   1.3251100e+00
  -6.1962400e-01   2.0236300e+00   1.4025700e+00
  -6.6577400e-01   2.0248000e+00   1.4870500e+00
  -6.9630800e-01   2.0184900e+00   1.5659100e+00
  -7.4129200e-01   2.0196500e+00   1.6522600e+00
  -7.7788600e-01   2.0117100e+00   1.7330000e+00
  -8.0935200e-01   1.9920800e+00   1.8106900e+00
  -8.5247200e-01   1.9780500e+00   1.8963400e+00
  -8.7834400e-01   1.9469700e+00   1.9677100e+00
  -9.1027600e-01   1.9175200e+00   2.0400300e+00
  -9.3987800e-01   1.8894800e+00   2.1188900e+00
  -9.6132100e-01   1.8499800e+00   2.1788000e+00
  -9.8742600e-01   1.8118800e+00   2.2377700e+00
  -1.0044400e+00   1.7688800e+00   2.2967400e+00
  -1.0174900e+00   1.7111500e+00   2.3337100e+00
  -1.0291500e+00   1.6482800e+00   2.3746700e+00
  -1.0345100e+00   1.5851800e+00   2.4064900e+00
  -1.0333400e+00   1.5199700e+00   2.4298900e+00
  -1.0387000e+00   1.4578000e+00   2.4593800e+00
  -1.0363700e+00   1.3816100e+00   2.4652300e+00
  -1.0219200e+00   1.3103300e+00   2.4710800e+00
  -1.0133000e+00   1.2383400e+00   2.4799700e+00
  -9.9558400e-01   1.1502300e+00   2.4741200e+00
  -9.7577200e-01   1.0787200e+00   2.4727200e+00
  -9.5619300e-01   1.0039300e+00   2.4713100e+00
  -9.1960000e-01   9.2797100e-01   2.4633600e+00
  -8.8510400e-01   8.6229700e-01   2.4642900e+00
  -8.5130700e-01   8.0083000e-01   2.4624200e+00
  -7.9630000e-01   7.4450400e-01   2.4558700e+00
  -7.4175800e-01   6.8911400e-01   2.4556400e+00
  -6.9397700e-01   6.4704500e-01   2.4547000e+00
  -6.3034500e-01   6.0521000e-01   2.4575100e+00
  -5.6251900e-01   5.7599600e-01   2.4610200e+00
  -4.9888700e-01   5.5776600e-01   2.4694400e+00
  -4.2616600e-01   5.3836800e-01   2.4731900e+00
  -3.5484300e-01   5.3392700e-01   2.4830200e+00
  -2.8212200e-01   5.2972000e-01   2.4919100e+00
  -2.0846800e-01   5.3509600e-01   2.4898000e+00
  -1.3714500e-01   5.5098800e-01   2.4984600e+00
  -6.1393400e-02   5.7225600e-01   2.5019700e+00
   7.5986900e-03   6.0404200e-01   2.5085200e+00
   7.2395400e-02   6.4003400e-01   2.5108600e+00
   1.3183100e-01   6.8233600e-01   2.5087600e+00
   1.8963500e-01   7.2253500e-01   2.5054800e+00
   2.4604100e-01   7.6670700e-01   2.4942500e+00
   2.9219100e-01   8.1555400e-01   2.4858200e+00
   3.3507800e-01   8.5949200e-01   2.4748200e+00
   3.7913100e-01   9.0202900e-01   2.4652300e+00
   4.1316100e-01   9.5251100e-01   2.4521300e+00
   4.4299500e-01   9.9434600e-01   2.4415900e+00
   4.8028800e-01   1.0268300e+00   2.4254500e+00
   5.0942300e-01   1.0663300e+00   2.4100000e+00
   5.3785900e-01   1.1034900e+00   2.3964300e+00
   5.6000200e-01   1.1427600e+00   2.3772400e+00
   5.7678400e-01   1.1757100e+00   2.3625000e+00
   5.9776100e-01   1.2166100e+00   2.3426100e+00
   6.0242300e-01   1.2579800e+00   2.3266900e+00
   6.0848300e-01   1.2843900e+00   2.3009500e+00
   6.1431000e-01   1.3145400e+00   2.2756800e+00
   6.0778400e-01   1.3355700e+00   2.2529800e+00
   6.0335500e-01   1.3500600e+00   2.2199800e+00
   5.9426500e-01   1.3617500e+00   2.1895600e+00
   5.7538500e-01   1.3743700e+00   2.1539900e+00
   5.6000200e-01   1.3832500e+00   2.1130400e+00
   5.3716000e-01   1.3834800e+00   2.0589800e+00
   5.0546100e-01   1.3816100e+00   2.0014100e+00
   4.8005500e-01   1.3689900e+00   1.9384600e+00
   4.4672400e-01   1.3545000e+00   1.8673200e+00
   4.1595800e-01   1.3332300e+00   1.7940800e+00
   3.8589000e-01   1.3054200e+00   1.7098300e+00
   3.5186000e-01   1.2850900e+00   1.6258200e+00
   3.3298100e-01   1.2507300e+00   1.5277700e+00
   3.0454500e-01   1.2067900e+00   1.4271400e+00
   2.7237900e-01   1.1684600e+00   1.3255800e+00
   2.5699600e-01   1.1184500e+00   1.2139500e+00
   2.4557500e-01   1.0672700e+00   1.1102900e+00
   2.3462000e-01   1.0184200e+00   9.9772400e-01
   2.2436500e-01   9.6583300e-01   8.9101300e-01
   2.2156800e-01   9.1605100e-01   7.8430300e-01
   2.1574000e-01   8.6346600e-01   6.7150800e-01
   2.0501900e-01   8.0760800e-01   5.7064700e-01
   2.1177800e-01   7.5151600e-01   4.6370300e-01
   2.0828200e-01   7.0337100e-01   3.6939500e-01
   1.9919200e-01   6.5429000e-01   2.8093700e-01
   2.0198900e-01   6.1222200e-01   1.9341600e-01
   1.9919200e-01   5.7319100e-01   1.1689300e-01
   1.9779300e-01   5.3018800e-01   3.6625700e-02
   1.8916900e-01   4.9723400e-01  -3.7322900e-02
   1.8707100e-01   4.5680100e-01  -1.1595200e-01
   1.8544000e-01   4.2501600e-01  -1.9177300e-01
   1.7984600e-01   3.9393200e-01  -2.6150900e-01
   1.8870300e-01   3.6144500e-01  -3.3569200e-01
   1.9359800e-01   3.4017700e-01  -4.0262000e-01
   2.0362000e-01   3.1096300e-01  -4.7235600e-01
   2.0525200e-01   2.9086300e-01  -5.4045400e-01
   2.1201100e-01   2.6608900e-01  -6.1370100e-01
   2.3322200e-01   2.4178300e-01  -6.8390500e-01
   2.4441000e-01   2.1864500e-01  -7.4357900e-01
   2.5653000e-01   1.8943100e-01  -8.0863500e-01
   2.6468800e-01   1.7423900e-01  -8.5731000e-01
   2.8403300e-01   1.4876400e-01  -9.0856000e-01
   2.9638700e-01   1.2071800e-01  -9.5793700e-01
   2.9801800e-01   9.4776000e-02  -9.9046500e-01
   3.1596600e-01   6.7665000e-02  -1.0220600e+00
   3.2598800e-01   4.0554000e-02  -1.0412500e+00
   3.2785300e-01   1.3910500e-02  -1.0550500e+00
   3.2622100e-01  -1.1242100e-04  -1.0578600e+00
   3.2855200e-01  -2.4185100e-02  -1.0517800e+00
   3.3088300e-01  -4.3116000e-02  -1.0431200e+00
   3.1666500e-01  -5.6671500e-02  -1.0330600e+00
   3.0104800e-01  -7.8874500e-02  -1.0218200e+00
   2.8380000e-01  -8.7288200e-02  -1.0000600e+00
   2.5769500e-01  -9.8974000e-02  -9.8391200e-01
   2.2576300e-01  -1.1182800e-01  -9.6238300e-01
   1.8916900e-01  -1.1977500e-01  -9.3734300e-01
   1.6073300e-01  -1.3543400e-01  -9.2330200e-01
   1.1924500e-01  -1.5132600e-01  -9.0738900e-01
   6.7733700e-02  -1.7563300e-01  -8.9498700e-01
   3.0906800e-02  -1.9900400e-01  -8.8492400e-01
  -1.0814800e-02  -2.2003800e-01  -8.7790400e-01
  -5.8363400e-02  -2.4855200e-01  -8.7603200e-01
  -1.1360400e-01  -2.7052100e-01  -8.6620300e-01
  -1.6394900e-01  -3.0347500e-01  -8.6573500e-01
  -2.1243000e-01  -3.4110300e-01  -8.6830900e-01
  -2.8049000e-01  -3.7545900e-01  -8.6269300e-01
  -3.3223400e-01  -4.2477300e-01  -8.7650000e-01
  -3.8444400e-01  -4.6240100e-01  -8.7626600e-01
  -4.5087300e-01  -5.0260000e-01  -8.6971300e-01
  -5.1170700e-01  -5.5097900e-01  -8.8211600e-01
  -5.7347400e-01  -5.9211300e-01  -8.7907400e-01
  -6.2684900e-01  -6.4212800e-01  -8.7673400e-01
  -6.8069100e-01  -6.8910500e-01  -8.8001000e-01
  -7.4036000e-01  -7.3958800e-01  -8.8679600e-01
  -7.9630000e-01  -7.8679800e-01  -8.9124200e-01
  -8.4548000e-01  -8.2419200e-01  -8.9475300e-01
  -8.9232900e-01  -8.6322300e-01  -9.0177300e-01
