**************************************************************************************
  	RED ACELEROGRÁFICA DE LA UNIVERSIDAD AUTONOMA METROPOLITANA (RA-UAM)
	   UNIDAD AZCAPOTZALCO. DIVISIÓN CBI-DEPARTAMENTO DE MATERIALES
     Av. San Pablo 420, Col. Nueva el Rosario, Azcapotzalco, C.P. 02128, Ciudad de México
		Área de Estructuras. e-mail: agb@azc.uam.mx
**************************************************************************************
ARCHIVO ESTANDAR DE ACELERACION:
VERSION DEL FORMATO                    : 2.0
NOMBRE DEL ARCHIVO                     : RIDX202304.191
FECHA Y HORA DE CREACION               : 11:30 a. m. 26/04/2023
REF. CATALOGO ACELEROGRAMAS, SMIS 1999 : REGISTRO NO.      /PAG.    


================================================================================
DATOS DE LA ESTACION:
NOMBRE DE LA ESTACION                  : UAM-XOCHIMILCO.
CLAVE DE LA ESTACION                   : RIDX
LOCALIZACION DE LA ESTACION            : CALZADA DEL HUESO 1100, COL. VILLA
                                       : QUIETUD, DEL. COYOACAN, C.P.04960,  
                                       : CIUDAD DE MEXICO.
                                       : 
                                       : 
COORDENADAS DE LA ESTACION             : 19.301345 LAT. N
                                       : 99.10268 LONG. W
ALTITUD (msnm)                         : 2232
TIPO DE SUELO                          : LAGO
                                       : 
                                       : 
INSTITUCION RESPONSABLE                : UNIVERSIDAD AUTONOMA METROPOLITANA
                                       : 

================================================================================
DATOS DEL ACELEROGRAFO: 
MODELO DEL ACELEROGRAFO                : BASALT KINEMETRICS
NUMERO DE SERIE DEL ACELEROGRAFO       : 1729
NUMERO DE CANALES                      : 3
ORIENTACION C1-C6 (rumbo;orientacion)  : /V/N00E/N90E
ORIENTACION C7-C12 (rumbo;orientacion) : 
VEL. DE MUESTREO, C1-C6 (muestras/s)   : /200/200/200
VEL. DE MUESTREO, C7-C12 (muestras/s)  : 
ESC. COMPLETA DE SENSORES, C1-C6, (g)  : /2/2/2
ESC. COMPLETA DE SENSORES, C7-C12 (g)  : 
FREC. NAT. DE SENSORES, C1-C6, (Hz)    : /208/210/200   
FREC. NAT. DE SENSORES, C7-C12 (Hz)    : 
AMORTIGUAMIENTO DE SENSORES, C1-C6     : /0.7/0.7/0.7      
AMORTIGUAMIENTO DE SENSORES, C7-C12    : 
INTERVALO DE MUESTREO, C1-C6 (s)       : /0.005/0.005/0.005
INTERVALO DE MUESTREO, C7-C12 (s)      : 
UMBRAL DE DISPARO, C1-C6 (Gal)         : /2/2/2
UMBRAL DE DISPARO, C7-C12 (Gal)        : 
MEMORIA DE PREEVENTO (s)               : 60
TIEMPO DE POSEVENTO (s)                : 80


================================================================================
DATOS DEL SISMO:
FECHA DEL SISMO [GMT]                  : 2023/04/19
HORA EPICENTRO (GMT)                   : 04:55:31
MAGNITUD(ES)                           : /M=5.1
COORDENADAS DEL EPICENTRO              : 17.2200 LAT. N
                                       : -101.1200 LONG. W
PROFUNDIDAD FOCAL (Km)                 : 16.3
FUENTE DE LOS DATOS EPICENTRALES       : SSN
                                       : INSTITUTO DE GEOFISICA, UNAM

================================================================================
DATOS DE ESTE REGISTRO:
HORA DE LA PRIMERA MUESTRA (GMT)       : 04:55:26.000
EXACTITUD DEL TIEMPO (s)               : 
DURACION DEL REGISTRO (s), C1-C6       : /279/279/279
DURACION DEL REGISTRO (s), C7-C12      : 
NUM. TOTAL DE MUESTRAS, C1-C6          : /55800/55800/55800
NUM. TOTAL DE MUESTRAS, C7-C12         : 
ACEL. MAX.(Gal), C1-C6                 : /-2.176/-4.196/-3.804
ACEL. MAX., C1-C6, EN LA MUESTRA       : /21636/22888/21396
ACEL. MAX.(Gal), C7-C12                : 
ACEL. MAX., C7-C12,EN LA MUESTRA       : 
UNIDADES DE LOS DATOS                  : Gal (cm/s/s)
FACTOR DE DECIMACION                   : 1
FORMATO DATOS (FORTRAN,16 campos/dato) : 3E16.7


================================================================================
CALIDAD DEL ACELEROGRAMA:
REGISTRO DIGITAL COMPLETO CON TIEMPO ABSOLUTO CORRECTO


================================================================================
COMENTARIOS:














================================================================================
DATOS DE ACELERACION:
---------+---------+---------+---------+---------+---------+---------+---------+
   CANAL-1   	      CANAL-2          CANAL-3
      V                 N00E             N90E
---------+---------+---------+---------+---------+---------+---------+---------+
[...]
   4.9707100e-02  -4.8303800e-01   1.3772300e+00
   4.9474000e-02  -3.7693100e-01   1.3168600e+00
   5.4601800e-02  -2.6498100e-01   1.2599900e+00
   6.4624300e-02  -1.6051100e-01   1.1879200e+00
   7.8609200e-02  -5.2066700e-02   1.1193500e+00
   9.3060200e-02   5.7779400e-02   1.0454000e+00
   1.0774400e-01   1.6084800e-01   9.7192000e-01
   1.2452600e-01   2.6274800e-01   8.9422700e-01
   1.4550400e-01   3.6231000e-01   8.1302400e-01
   1.6834600e-01   4.6374300e-01   7.3790500e-01
   1.8722500e-01   5.7055100e-01   6.4336300e-01
   2.0727000e-01   6.7619000e-01   5.4858700e-01
   2.3290900e-01   7.8743900e-01   4.8306300e-01
   2.5971400e-01   8.9564900e-01   4.3626000e-01
   2.8115700e-01   9.9264100e-01   3.7611900e-01
   3.0166800e-01   1.0788800e+00   3.0919000e-01
   3.1984900e-01   1.1712000e+00   2.4483600e-01
   3.3593100e-01   1.2516000e+00   1.6690900e-01
   3.5784100e-01   1.3151700e+00   9.5301000e-02
   3.8231400e-01   1.3894900e+00   2.1118300e-02
   4.1378000e-01   1.4453500e+00  -7.4359600e-02
   4.3685500e-01   1.5091500e+00  -1.6164700e-01
   4.4897600e-01   1.5755300e+00  -2.4097800e-01
   4.6529100e-01   1.6323200e+00  -3.3903000e-01
   4.7088500e-01   1.6909800e+00  -4.2163700e-01
   4.7904300e-01   1.7197300e+00  -4.9441600e-01
   4.9955400e-01   1.7512800e+00  -5.8404400e-01
   5.1074200e-01   1.7685800e+00  -6.6548100e-01
   5.1307300e-01   1.7725500e+00  -7.4949200e-01
   5.2099800e-01   1.7837700e+00  -8.3163100e-01
   5.3055400e-01   1.7861000e+00  -9.1072800e-01
   5.3684700e-01   1.7896100e+00  -9.9450500e-01
   5.4150900e-01   1.7884400e+00  -1.0677500e+00
   5.4174200e-01   1.7954500e+00  -1.1438100e+00
   5.3614800e-01   1.7970900e+00  -1.2149500e+00
   5.2496000e-01   1.7996600e+00  -1.2795400e+00
   5.1074200e-01   1.8078400e+00  -1.3450600e+00
   4.9232900e-01   1.8125100e+00  -1.4117500e+00
   4.6972000e-01   1.8213900e+00  -1.4726000e+00
   4.4268300e-01   1.8244300e+00  -1.5194000e+00
   4.0865300e-01   1.8321500e+00  -1.5655000e+00
   3.7555500e-01   1.8256000e+00  -1.5914800e+00
   3.4502100e-01   1.8235000e+00  -1.6097300e+00
   3.0936000e-01   1.8365900e+00  -1.6235400e+00
   2.6950300e-01   1.8478000e+00  -1.6310300e+00
   2.3034500e-01   1.8693100e+00  -1.6530200e+00
   1.8396200e-01   1.8924400e+00  -1.6595800e+00
   1.2545900e-01   1.9190900e+00  -1.6696400e+00
   7.2316000e-02   1.9380200e+00  -1.6595800e+00
   2.4767300e-02   1.9571800e+00  -1.6265800e+00
  -3.0939100e-02   1.9793900e+00  -1.6069200e+00
  -9.1540300e-02   2.0004200e+00  -1.5727600e+00
  -1.5936700e-01   2.0282300e+00  -1.5514600e+00
  -2.2835900e-01   2.0523100e+00  -1.5282900e+00
  -2.9012600e-01   2.0833900e+00  -1.4789200e+00
  -3.5562200e-01   2.1175100e+00  -1.4279000e+00
  -4.1902000e-01   2.1453200e+00  -1.3843700e+00
  -4.8148600e-01   2.1808500e+00  -1.3324200e+00
  -5.4954600e-01   2.2187100e+00  -1.2760300e+00
  -6.1527500e-01   2.2434800e+00  -1.2308600e+00
  -6.7797300e-01   2.2745700e+00  -1.1688500e+00
  -7.3717600e-01   2.3086900e+00  -1.1089400e+00
  -7.9451400e-01   2.3430500e+00  -1.0558200e+00
  -8.4905500e-01   2.3890900e+00  -9.9567500e-01
  -8.9800200e-01   2.4290500e+00  -9.3810800e-01
  -9.4368600e-01   2.4751000e+00  -8.7749800e-01
  -9.8750600e-01   2.5134300e+00  -8.1220800e-01
  -1.0289900e+00   2.5503500e+00  -7.4177000e-01
  -1.0618600e+00   2.5907900e+00  -6.6922500e-01
  -1.0851700e+00   2.6216400e+00  -5.9340400e-01
  -1.1077800e+00   2.6637000e+00  -5.1805100e-01
  -1.1310800e+00   2.6917500e+00  -4.4691100e-01
  -1.1485700e+00   2.7216700e+00  -3.8676900e-01
  -1.1630200e+00   2.7576600e+00  -3.2147900e-01
  -1.1793300e+00   2.7831300e+00  -2.5689100e-01
  -1.1891200e+00   2.8123500e+00  -2.0283400e-01
  -1.1956500e+00   2.8319800e+00  -1.4339400e-01
  -1.2017100e+00   2.8520800e+00  -9.5421000e-02
  -1.1958800e+00   2.8626000e+00  -3.9725500e-02
  -1.1891200e+00   2.8693700e+00   1.1757800e-02
  -1.1809600e+00   2.8770900e+00   4.8264000e-02
  -1.1676800e+00   2.8735800e+00   8.8748600e-02
  -1.1513600e+00   2.8766200e+00   1.2151100e-01
  -1.1341100e+00   2.8672700e+00   1.4982600e-01
  -1.1238600e+00   2.8506800e+00   1.6316500e-01
  -1.1024100e+00   2.8268400e+00   1.7884400e-01
  -1.0723500e+00   2.7962200e+00   1.9101300e-01
  -1.0455400e+00   2.7590600e+00   1.9007700e-01
  -1.0157100e+00   2.7034400e+00   1.8726900e-01
  -9.8401000e-01   2.6501500e+00   1.7884400e-01
  -9.4974700e-01   2.5823700e+00   1.7299400e-01
  -9.1618300e-01   2.5127200e+00   1.5801700e-01
  -8.8005500e-01   2.4414400e+00   1.5380500e-01
  -8.3763400e-01   2.3552000e+00   1.3999800e-01
  -7.9101800e-01   2.2769100e+00   1.1940500e-01
  -7.4370200e-01   2.1941700e+00   1.1566000e-01
  -7.0874000e-01   2.1210200e+00   9.8811200e-02
  -6.7634200e-01   2.0415500e+00   8.3132200e-02
  -6.3625200e-01   1.9585900e+00   6.8155300e-02
  -5.9243300e-01   1.8896400e+00   5.6220500e-02
  -5.4931200e-01   1.8141500e+00   4.5455900e-02
  -5.1015500e-01   1.7410000e+00   3.1883000e-02
  -4.6563600e-01   1.6596600e+00   1.8310200e-02
  -4.2205000e-01   1.5837100e+00   2.8652000e-03
  -3.7659900e-01   1.5084500e+00  -1.7494100e-02
  -3.2229100e-01   1.4378700e+00  -3.6683300e-02
  -2.7194500e-01   1.3864500e+00  -4.4873800e-02
  -2.1763700e-01   1.3235800e+00  -7.3657600e-02
  -1.6006600e-01   1.2761400e+00  -9.1442700e-02
  -1.0226200e-01   1.2422500e+00  -1.0665400e-01
  -4.0961600e-02   1.2111600e+00  -1.3590600e-01
   1.5211000e-02   1.1943400e+00  -1.5111600e-01
   7.2782100e-02   1.1791500e+00  -1.7896400e-01
   1.2825600e-01   1.1707300e+00  -2.0540800e-01
   1.8163100e-01   1.1646500e+00  -2.3021300e-01
   2.4083400e-01   1.1515700e+00  -2.6274100e-01
   2.9817200e-01   1.1454900e+00  -2.8848300e-01
   3.5481100e-01   1.1450200e+00  -3.1703300e-01
   4.1261500e-01   1.1513300e+00  -3.4534900e-01
   4.6575800e-01   1.1747000e+00  -3.7904700e-01
   5.1400500e-01   1.2046200e+00  -4.2046700e-01
   5.6108800e-01   1.2413100e+00  -4.4784700e-01
   6.1213300e-01   1.2712300e+00  -4.7031200e-01
   6.5665100e-01   1.3018500e+00  -5.0003200e-01
   6.9231300e-01   1.3418100e+00  -5.2226400e-01
   7.2774100e-01   1.3908900e+00  -5.4309100e-01
   7.6317000e-01   1.4532900e+00  -5.5175000e-01
   8.0862100e-01   1.5033100e+00  -5.5128200e-01
   8.5733500e-01   1.5544900e+00  -5.5549400e-01
   8.9672500e-01   1.5909500e+00  -5.5409000e-01
   9.3075500e-01   1.6171300e+00  -5.7000300e-01
   9.5732700e-01   1.6657400e+00  -5.7819300e-01
   9.8040200e-01   1.7024300e+00  -5.8427800e-01
   1.0016100e+00   1.7398300e+00  -6.1189100e-01
   1.0183900e+00   1.7870400e+00  -6.1821000e-01
   1.0314500e+00   1.8281700e+00  -6.3154900e-01
   1.0323800e+00   1.8707100e+00  -6.4956800e-01
   1.0260900e+00   1.8999200e+00  -6.5682200e-01
   1.0202600e+00   1.9139500e+00  -6.7039500e-01
   1.0165300e+00   1.9237600e+00  -6.7741500e-01
   1.0181600e+00   1.9324100e+00  -6.8350000e-01
   1.0135000e+00   1.9448000e+00  -6.7741500e-01
   1.0081400e+00   1.9504100e+00  -6.7694700e-01
   1.0041800e+00   1.9487700e+00  -6.9730700e-01
   9.9228900e-01   1.9417600e+00  -7.1439000e-01
   9.7643900e-01   1.9289000e+00  -7.3287700e-01
   9.5919100e-01   1.9034300e+00  -7.5885300e-01
   9.3891300e-01   1.8756200e+00  -7.7921200e-01
   9.1234200e-01   1.8559800e+00  -7.8904000e-01
   8.8390600e-01   1.8199900e+00  -7.8880600e-01
   8.5989800e-01   1.7840000e+00  -7.8178600e-01
   8.3682300e-01   1.7395900e+00  -7.8693400e-01
   8.0349300e-01   1.6776600e+00  -8.0027300e-01
   7.6969600e-01   1.6145600e+00  -8.1127200e-01
   7.4079400e-01   1.5444400e+00  -8.0963400e-01
   7.0816200e-01   1.4745600e+00  -7.9114700e-01
   6.7389900e-01   1.3932300e+00  -7.6540500e-01
   6.2891500e-01   1.3191400e+00  -7.3311100e-01
   5.8812500e-01   1.2399100e+00  -7.0175300e-01
   5.5549400e-01   1.1457200e+00  -6.7413900e-01
   5.1167500e-01   1.0569100e+00  -6.4652600e-01
   4.6366000e-01   9.5501200e-01  -6.2406000e-01
   4.1890800e-01   8.5545000e-01  -6.0393500e-01
   3.7415700e-01   7.4490200e-01  -5.8474600e-01
   3.2963800e-01   6.2080000e-01  -5.6485400e-01
   2.8115700e-01   5.0534400e-01  -5.3887900e-01
   2.2498400e-01   3.8591600e-01  -5.2249800e-01
   1.7021000e-01   2.7396600e-01  -5.1571100e-01
   1.1240600e-01   1.7346900e-01  -4.9371400e-01
   4.8774700e-02   7.2737200e-02  -4.7031200e-01
  -7.3979100e-03  -3.3369500e-02  -4.5861200e-01
  -6.2871300e-02  -1.3784000e-01  -4.3263600e-01
  -1.1391600e-01  -2.4908900e-01  -4.0502200e-01
  -1.5517200e-01  -3.5940200e-01  -3.8185500e-01
  -1.9782600e-01  -4.6270400e-01  -3.5470900e-01
  -2.4257700e-01  -5.7442000e-01  -3.4722100e-01
  -3.0154700e-01  -6.7281500e-01  -3.4371100e-01
  -3.6797500e-01  -7.8710100e-01  -3.5424100e-01
  -4.2857600e-01  -9.1424200e-01  -3.5307100e-01
  -4.8381700e-01  -1.0402100e+00  -3.1445900e-01
  -5.2553800e-01  -1.1776400e+00  -2.8076100e-01
  -5.6353000e-01  -1.2842100e+00  -2.2857500e-01
  -5.9989100e-01  -1.3669500e+00  -1.9979200e-01
  -6.3438700e-01  -1.4312200e+00  -1.9323900e-01
  -6.7144700e-01  -1.4891800e+00  -1.6492300e-01
  -6.9801800e-01  -1.5567300e+00  -1.3614000e-01
  -7.2132700e-01  -1.6497400e+00  -9.0038600e-02
  -7.4953000e-01  -1.7846000e+00  -5.7510600e-02
  -7.7470200e-01  -1.9194500e+00  -2.7790700e-02
  -7.9568000e-01  -2.0512700e+00   9.1835900e-03
  -8.1945400e-01  -2.1641500e+00   3.6563300e-02
  -8.4276200e-01  -2.2623100e+00   8.6408400e-02
  -8.5674700e-01  -2.3581400e+00   1.3274300e-01
  -8.6653600e-01  -2.4427400e+00   1.8235400e-01
  -8.7982200e-01  -2.5497800e+00   2.3266800e-01
  -8.8821300e-01  -2.6722500e+00   2.7736400e-01
  -8.8518300e-01  -2.8019600e+00   3.5154700e-01
  -8.7958900e-01  -2.9347100e+00   4.2128300e-01
  -8.7632600e-01  -3.0571800e+00   4.7323500e-01
  -8.8355100e-01  -3.1478600e+00   5.0272100e-01
  -9.0079900e-01  -3.2088600e+00   5.0529500e-01
  -9.1175400e-01  -3.2577100e+00   5.2144200e-01
  -9.1175400e-01  -3.2967400e+00   5.6052200e-01
  -9.0709300e-01  -3.3584400e+00   6.1551600e-01
  -9.0033300e-01  -3.4259800e+00   6.8338000e-01
  -8.8984500e-01  -3.5031100e+00   7.5405200e-01
  -8.7725800e-01  -3.5926200e+00   8.1138600e-01
  -8.6234100e-01  -3.6741900e+00   8.5959300e-01
  -8.5278500e-01  -3.7639300e+00   8.9563100e-01
  -8.4928800e-01  -3.8396600e+00   9.1458600e-01
  -8.4369400e-01  -3.9032300e+00   9.4500800e-01
  -8.3856700e-01  -3.9555800e+00   9.7847200e-01
  -8.3460400e-01  -3.9983500e+00   1.0112300e+00
  -8.3297300e-01  -4.0413500e+00   1.0599100e+00
  -8.3110800e-01  -4.0775800e+00   1.1032000e+00
  -8.2225100e-01  -4.1187100e+00   1.1502400e+00
  -8.1712300e-01  -4.1455900e+00   1.1975100e+00
  -8.1619100e-01  -4.1682600e+00   1.2319100e+00
  -8.0756700e-01  -4.1892900e+00   1.2738000e+00
  -7.9055200e-01  -4.1921000e+00   1.3166200e+00
  -7.7423600e-01  -4.1958400e+00   1.3526600e+00
  -7.6025100e-01  -4.1937400e+00   1.3720900e+00
  -7.4580000e-01  -4.1813500e+00   1.3798100e+00
  -7.3181500e-01  -4.1680300e+00   1.3835500e+00
  -7.1759700e-01  -4.1533000e+00   1.3821500e+00
  -7.0710900e-01  -4.1383400e+00   1.3877600e+00
  -6.9335700e-01  -4.1245600e+00   1.3931500e+00
  -6.6865000e-01  -4.1014200e+00   1.3931500e+00
  -6.3881600e-01  -4.0651900e+00   1.3929100e+00
  -6.0968100e-01  -4.0184500e+00   1.3912700e+00
  -5.7938000e-01  -3.9651600e+00   1.3716200e+00
  -5.4768100e-01  -3.9100000e+00   1.3519600e+00
  -5.2320700e-01  -3.8504100e+00   1.3369800e+00
  -4.9733500e-01  -3.7961900e+00   1.3063300e+00
  -4.6214000e-01  -3.7337800e+00   1.2805900e+00
  -4.2554600e-01  -3.6561900e+00   1.2560100e+00
  -3.8871900e-01  -3.5835000e+00   1.2288700e+00
  -3.5329100e-01  -3.5012400e+00   1.2057000e+00
  -3.1553200e-01  -3.4210700e+00   1.1759800e+00
  -2.7753900e-01  -3.3481500e+00   1.1399400e+00
  -2.4257700e-01  -3.2682200e+00   1.1046100e+00
  -2.0621600e-01  -3.1964700e+00   1.0652900e+00
  -1.6029900e-01  -3.1130400e+00   1.0243400e+00
  -1.0948800e-01  -3.0095000e+00   9.8221700e-01
  -6.5435200e-02  -2.8966200e+00   9.3518000e-01
  -2.4412900e-02  -2.7813900e+00   8.8954700e-01
   1.6842600e-02  -2.6652400e+00   8.4719000e-01
   6.1827300e-02  -2.5537600e+00   7.9968500e-01
   1.0378200e-01  -2.4504500e+00   7.5218000e-01
   1.4224000e-01  -2.3354600e+00   7.0537700e-01
   1.8442800e-01  -2.2214100e+00   6.4219300e-01
   2.2405200e-01  -2.0961400e+00   5.9024200e-01
   2.6507400e-01  -1.9729700e+00   5.3782300e-01
   3.0120200e-01  -1.8668700e+00   4.7206500e-01
   3.3546500e-01  -1.7689400e+00   4.1683700e-01
   3.7136000e-01  -1.6946200e+00   3.5809900e-01
   3.9932900e-01  -1.6212300e+00   2.9936200e-01
   4.2706600e-01  -1.5434000e+00   2.4109200e-01
   4.5084000e-01  -1.4510900e+00   1.9124700e-01
   4.7461500e-01  -1.3414700e+00   1.4374200e-01
   5.0398300e-01  -1.2084900e+00   9.6471100e-02
   5.3591500e-01  -1.0535400e+00   5.5752500e-02
   5.6458400e-01  -8.9390900e-01   1.1523700e-02
   5.8882500e-01  -7.3358000e-01  -3.4577200e-02
   6.2099000e-01  -5.8961200e-01  -7.7869900e-02
   6.5315500e-01  -4.5195400e-01  -1.0759000e-01
   6.8415500e-01  -3.4000400e-01  -1.3848000e-01
   7.1748600e-01  -2.3833800e-01  -1.6539100e-01
   7.5221500e-01  -1.3550300e-01  -1.8177200e-01
   7.9090600e-01  -3.6641500e-02  -1.9979200e-01
   8.2773300e-01   7.7645200e-02  -2.1781100e-01
   8.6525900e-01   1.8585500e-01  -2.3489400e-01
   9.0092100e-01   3.1229500e-01  -2.4823300e-01
   9.3285300e-01   4.4083900e-01  -2.6367800e-01
   9.6968000e-01   5.5582700e-01  -2.8684500e-01
   1.0060400e+00   6.7735900e-01  -3.1516100e-01
   1.0363400e+00   7.9164500e-01  -3.3271200e-01
   1.0622100e+00   9.0429600e-01  -3.5962400e-01
   1.0866900e+00   1.0019900e+00  -3.9168400e-01
   1.1113900e+00   1.1069300e+00  -4.0689500e-01
   1.1312100e+00   1.2083600e+00  -4.4035900e-01
   1.1505500e+00   1.2946000e+00  -4.7218500e-01
   1.1738600e+00   1.3894900e+00  -4.9675600e-01
   1.1897100e+00   1.4670800e+00  -5.3607100e-01
   1.1964700e+00   1.5444400e+00  -5.7936300e-01
   1.1995000e+00   1.6239100e+00  -6.2335800e-01
   1.2050900e+00   1.6926200e+00  -6.7484100e-01
   1.2078900e+00   1.7636700e+00  -7.3404700e-01
   1.2004300e+00   1.8305100e+00  -7.8506200e-01
   1.1838800e+00   1.8957200e+00  -8.3771600e-01
   1.1664000e+00   1.9532100e+00  -8.8592300e-01
   1.1491500e+00   2.0081300e+00  -9.3108700e-01
   1.1228100e+00   2.0644600e+00  -9.7742200e-01
   1.0939100e+00   2.1149400e+00  -1.0162700e+00
   1.0573200e+00   2.1602800e+00  -1.0670500e+00
   1.0151300e+00   2.1927700e+00  -1.1075300e+00
   9.6898100e-01   2.2280600e+00  -1.1367900e+00
   9.2166500e-01   2.2490900e+00  -1.1702500e+00
   8.7691300e-01   2.2577400e+00  -1.1952900e+00
   8.1841000e-01   2.2722300e+00  -1.2158800e+00
   7.5874100e-01   2.2610100e+00  -1.2322600e+00
   7.0210200e-01   2.2460600e+00  -1.2498200e+00
   6.4523000e-01   2.2297000e+00  -1.2587100e+00
   5.8206500e-01   2.2049200e+00  -1.2652600e+00
   5.1214100e-01   2.1787500e+00  -1.2753200e+00
   4.5340400e-01   2.1439200e+00  -1.2732200e+00
   3.9303600e-01   2.1081600e+00  -1.2697100e+00
   3.2637500e-01   2.0623600e+00  -1.2633900e+00
   2.5761600e-01   2.0170100e+00  -1.2582400e+00
   1.8955600e-01   1.9616200e+00  -1.2486500e+00
   1.2429300e-01   1.9050600e+00  -1.2280500e+00
   5.9030300e-02   1.8496700e+00  -1.2142500e+00
  -1.1047100e-03   1.7856400e+00  -1.1943500e+00
  -5.8442800e-02   1.7311800e+00  -1.1679100e+00
  -1.1857800e-01   1.6708800e+00  -1.1505900e+00
