**************************************************************************************
  	RED ACELEROGRÁFICA DE LA UNIVERSIDAD AUTONOMA METROPOLITANA (RA-UAM)
	   UNIDAD AZCAPOTZALCO. DIVISIÓN CBI-DEPARTAMENTO DE MATERIALES
     Av. San Pablo 420, Col. Nueva el Rosario, Azcapotzalco, C.P. 02128, Ciudad de México
		Área de Estructuras. e-mail: agb@azc.uam.mx
**************************************************************************************
ARCHIVO ESTANDAR DE ACELERACION:
VERSION DEL FORMATO                    : 2.0
NOMBRE DEL ARCHIVO                     : RIDX202308.091
FECHA Y HORA DE CREACION               : 11:30 a. m. 16/08/2023
REF. CATALOGO ACELEROGRAMAS, SMIS 1999 : REGISTRO NO.      /PAG.    


================================================================================
DATOS DE LA ESTACION:
NOMBRE DE LA ESTACION                  : UAM-XOCHIMILCO.
CLAVE DE LA ESTACION                   : RIDX
LOCALIZACION DE LA ESTACION            : CALZADA DEL HUESO 1100, COL. VILLA
                                       : QUIETUD, DEL. COYOACAN, C.P.04960,  
                                       : CIUDAD DE MEXICO.
                                       : 
                                       : 
COORDENADAS DE LA ESTACION             : 19.301345 LAT. N
                                       : 99.10268 LONG. W
ALTITUD (msnm)                         : 2232
TIPO DE SUELO                          : LAGO
                                       : 
                                       : 
INSTITUCION RESPONSABLE                : UNIVERSIDAD AUTONOMA METROPOLITANA
                                       : 

================================================================================
DATOS DEL ACELEROGRAFO: 
MODELO DEL ACELEROGRAFO                : BASALT KINEMETRICS
NUMERO DE SERIE DEL ACELEROGRAFO       : 1729
NUMERO DE CANALES                      : 3
ORIENTACION C1-C6 (rumbo;orientacion)  : /V/N00E/N90E
ORIENTACION C7-C12 (rumbo;orientacion) : 
VEL. DE MUESTREO, C1-C6 (muestras/s)   : /200/200/200
VEL. DE MUESTREO, C7-C12 (muestras/s)  : 
ESC. COMPLETA DE SENSORES, C1-C6, (g)  : /2/2/2
ESC. COMPLETA DE SENSORES, C7-C12 (g)  : 
FREC. NAT. DE SENSORES, C1-C6, (Hz)    : /208/210/200   
FREC. NAT. DE SENSORES, C7-C12 (Hz)    : 
AMORTIGUAMIENTO DE SENSORES, C1-C6     : /0.7/0.7/0.7      
AMORTIGUAMIENTO DE SENSORES, C7-C12    : 
INTERVALO DE MUESTREO, C1-C6 (s)       : /0.005/0.005/0.005
INTERVALO DE MUESTREO, C7-C12 (s)      : 
UMBRAL DE DISPARO, C1-C6 (Gal)         : /2/2/2
UMBRAL DE DISPARO, C7-C12 (Gal)        : 
MEMORIA DE PREEVENTO (s)               : 60
TIEMPO DE POSEVENTO (s)                : 80


================================================================================
DATOS DEL SISMO:
FECHA DEL SISMO [GMT]                  : 2023/08/09
HORA EPICENTRO (GMT)                   : 09:33:27
MAGNITUD(ES)                           : /M=5.8
COORDENADAS DEL EPICENTRO              : 16.0800 LAT. N
                                       : -93.7800 LONG. W
PROFUNDIDAD FOCAL (Km)                 : 104.2
FUENTE DE LOS DATOS EPICENTRALES       : SSN
                                       : INSTITUTO DE GEOFISICA, UNAM

================================================================================
DATOS DE ESTE REGISTRO:
HORA DE LA PRIMERA MUESTRA (GMT)       : 09:35:17.000
EXACTITUD DEL TIEMPO (s)               : 
DURACION DEL REGISTRO (s), C1-C6       : /226/226/226
DURACION DEL REGISTRO (s), C7-C12      : 
NUM. TOTAL DE MUESTRAS, C1-C6          : /45200/45200/45200
NUM. TOTAL DE MUESTRAS, C7-C12         : 
ACEL. MAX.(Gal), C1-C6                 : /-0.226/0.935/-0.657
ACEL. MAX., C1-C6, EN LA MUESTRA       : /14183/16070/28889
ACEL. MAX.(Gal), C7-C12                : 
ACEL. MAX., C7-C12,EN LA MUESTRA       : 
UNIDADES DE LOS DATOS                  : Gal (cm/s/s)
FACTOR DE DECIMACION                   : 1
FORMATO DATOS (FORTRAN,16 campos/dato) : 3E16.7


================================================================================
CALIDAD DEL ACELEROGRAMA:
REGISTRO DIGITAL COMPLETO CON TIEMPO ABSOLUTO CORRECTO


================================================================================
COMENTARIOS:














================================================================================
DATOS DE ACELERACION:
---------+---------+---------+---------+---------+---------+---------+---------+
   CANAL-1   	      CANAL-2          CANAL-3
      V                 N00E             N90E
---------+---------+---------+---------+---------+---------+---------+---------+
[...]
  -5.4507200e-02  -8.9657100e-01   2.2974000e-01
  -5.1244100e-02  -8.8909300e-01   2.3020800e-01
  -5.0078700e-02  -8.8511900e-01   2.2903700e-01
  -4.7048600e-02  -8.8091200e-01   2.2201700e-01
  -4.7514800e-02  -8.6922700e-01   2.2622900e-01
  -5.4973400e-02  -8.7857500e-01   2.1640100e-01
  -5.5439500e-02  -8.7553700e-01   2.1546500e-01
  -5.3574900e-02  -8.6595500e-01   2.1499700e-01
  -5.9168800e-02  -8.7016200e-01   2.0774200e-01
  -6.6627400e-02  -8.6151400e-01   2.0914600e-01
  -7.0822900e-02  -8.5707400e-01   2.0002000e-01
  -6.6860500e-02  -8.5123100e-01   2.0119000e-01
  -6.0567300e-02  -8.4024600e-01   2.0376400e-01
  -6.0101200e-02  -8.4141500e-01   1.9510500e-01
  -6.2665100e-02  -8.3370200e-01   1.9370100e-01
  -5.9168800e-02  -8.3159900e-01   1.8691500e-01
  -5.3808000e-02  -8.3276700e-01   1.8176700e-01
  -5.5439500e-02  -8.2318500e-01   1.7966000e-01
  -5.2875600e-02  -8.1430400e-01   1.7708600e-01
  -5.0311700e-02  -8.0612400e-01   1.7498000e-01
  -5.4041000e-02  -8.0705800e-01   1.6585400e-01
  -5.6138800e-02  -8.0098200e-01   1.6398100e-01
  -5.2176400e-02  -7.9350300e-01   1.5930100e-01
  -4.4717800e-02  -7.9140000e-01   1.5321700e-01
  -4.7747800e-02  -7.8251800e-01   1.4923800e-01
  -5.1011000e-02  -7.7457200e-01   1.3870800e-01
  -4.7980900e-02  -7.6335400e-01   1.3660200e-01
  -4.1454600e-02  -7.6008200e-01   1.2817700e-01
  -3.3996000e-02  -7.4933100e-01   1.2747500e-01
  -4.0289200e-02  -7.4185200e-01   1.2560300e-01
  -4.1221600e-02  -7.4559100e-01   1.1179600e-01
  -3.2131400e-02  -7.2806300e-01   1.1858300e-01
  -3.3762900e-02  -7.2455700e-01   1.1039200e-01
  -3.7492200e-02  -7.2338800e-01   1.0079700e-01
  -3.6559900e-02  -7.0913200e-01   1.0220200e-01
  -3.3529900e-02  -7.0679500e-01   9.2840900e-02
  -3.1432100e-02  -7.0118500e-01   9.3543000e-02
  -3.2830600e-02  -6.9487500e-01   9.2606900e-02
  -3.5161400e-02  -6.9020100e-01   8.6054500e-02
  -3.5394500e-02  -6.8178700e-01   8.1374200e-02
  -3.8657700e-02  -6.7010100e-01   7.7630000e-02
  -4.2153900e-02  -6.6075300e-01   7.1311600e-02
  -4.1920800e-02  -6.5257300e-01   6.4993200e-02
  -4.1454600e-02  -6.4439300e-01   6.1483000e-02
  -4.3552400e-02  -6.3481000e-01   6.1014900e-02
  -4.9845600e-02  -6.2219000e-01   5.8206800e-02
  -4.9146300e-02  -6.1424300e-01   4.5101900e-02
  -4.6815500e-02  -5.9858400e-01   4.6506000e-02
  -5.0078700e-02  -5.9133900e-01   4.0421600e-02
  -5.1710200e-02  -5.8526300e-01   2.8720900e-02
  -5.0311700e-02  -5.7287600e-01   2.9891000e-02
  -4.8214000e-02  -5.6890300e-01   2.5210700e-02
  -5.0544800e-02  -5.5394500e-01   2.4040600e-02
  -5.1710200e-02  -5.4366100e-01   1.6552100e-02
  -5.2409500e-02  -5.3337800e-01   1.0233700e-02
  -5.2176400e-02  -5.1748500e-01   3.4473200e-03
  -5.4274100e-02  -5.0673400e-01  -3.8071400e-03
  -6.0567300e-02  -4.9481500e-01  -6.6153200e-03
  -5.8935700e-02  -4.8780300e-01  -1.8082000e-02
  -5.2642500e-02  -4.7448200e-01  -2.2762300e-02
  -5.2176400e-02  -4.6022500e-01  -3.0016800e-02
  -5.8935700e-02  -4.5064300e-01  -3.8441300e-02
  -5.8702700e-02  -4.4246300e-01  -4.7333900e-02
  -5.7071100e-02  -4.2563500e-01  -4.9440000e-02
  -6.2665100e-02  -4.1137800e-01  -5.2482200e-02
  -6.5928200e-02  -4.1114500e-01  -6.8161200e-02
  -6.0800400e-02  -3.9782300e-01  -7.4947600e-02
  -5.2176400e-02  -3.8754000e-01  -8.6180300e-02
  -5.2176400e-02  -3.7842500e-01  -9.3902800e-02
  -5.1011000e-02  -3.6837500e-01  -1.0279500e-01
  -4.6116300e-02  -3.6089600e-01  -1.1215600e-01
  -4.7980900e-02  -3.4219900e-01  -1.1215600e-01
  -5.0777900e-02  -3.4196500e-01  -1.3111100e-01
  -4.9612500e-02  -3.3635600e-01  -1.4023800e-01
  -4.4484700e-02  -3.2443600e-01  -1.4562000e-01
  -4.1454600e-02  -3.2630600e-01  -1.6223500e-01
  -3.7958400e-02  -3.1368600e-01  -1.6270300e-01
  -3.4695300e-02  -3.0667400e-01  -1.7089400e-01
  -3.2830600e-02  -3.0083100e-01  -1.8095600e-01
  -3.0033600e-02  -2.9148300e-01  -1.8423200e-01
  -2.7935900e-02  -2.8961300e-01  -1.9757100e-01
  -2.6537400e-02  -2.7909600e-01  -2.0272000e-01
  -2.6071300e-02  -2.7418800e-01  -2.1044200e-01
  -2.1875800e-02  -2.7068200e-01  -2.2097300e-01
  -1.6514900e-02  -2.5782800e-01  -2.2284500e-01
  -1.5582600e-02  -2.4824500e-01  -2.3103500e-01
  -1.2552500e-02  -2.4614200e-01  -2.3992800e-01
  -3.4623400e-03  -2.4029900e-01  -2.4414000e-01
   1.1992900e-03  -2.2931400e-01  -2.5069300e-01
   2.3646900e-03  -2.2487400e-01  -2.5794700e-01
   1.0056400e-02  -2.1973200e-01  -2.6449900e-01
   2.0078900e-02  -2.0687800e-01  -2.7128600e-01
   2.5439800e-02  -1.9636000e-01  -2.7783800e-01
   2.2642800e-02  -1.8981600e-01  -2.8368900e-01
   2.3575100e-02  -1.8467500e-01  -2.9047500e-01
   2.8936000e-02  -1.8046800e-01  -2.9819800e-01
   3.0334500e-02  -1.7252100e-01  -2.9796400e-01
   3.4063800e-02  -1.6738000e-01  -3.0124000e-01
   4.4086300e-02  -1.5920000e-01  -3.0872800e-01
   5.0612600e-02  -1.4915000e-01  -3.0545200e-01
   4.9447200e-02  -1.4844900e-01  -3.0919600e-01
   5.3409600e-02  -1.4073600e-01  -3.1504700e-01
   6.5063600e-02  -1.3466000e-01  -3.1785500e-01
   7.3687600e-02  -1.3302400e-01  -3.1902500e-01
   7.0191400e-02  -1.2227300e-01  -3.1738700e-01
   6.6928300e-02  -1.1549500e-01  -3.2534300e-01
   7.3687600e-02  -1.0778200e-01  -3.2206700e-01
   8.0447000e-02  -9.9368600e-02  -3.1925900e-01
   8.3010900e-02  -9.2824600e-02  -3.2276900e-01
   8.2777800e-02  -8.6748000e-02  -3.2230100e-01
   8.6041000e-02  -8.7916500e-02  -3.2581100e-01
   8.8837900e-02  -8.0905100e-02  -3.2066300e-01
   8.5807900e-02  -7.4127300e-02  -3.2323700e-01
   8.2311700e-02  -6.8985600e-02  -3.2183300e-01
   8.4409400e-02  -6.3376400e-02  -3.1785500e-01
   8.9537200e-02  -5.6365000e-02  -3.1972700e-01
   8.6041000e-02  -4.3978100e-02  -3.1153600e-01
   8.2544700e-02  -4.7483800e-02  -3.1691900e-01
   8.6740200e-02  -4.0706100e-02  -3.1481300e-01
   8.6507100e-02  -2.5982000e-02  -3.1083400e-01
   8.1146300e-02  -2.4346000e-02  -3.1598300e-01
   7.8582400e-02  -1.5464800e-02  -3.1364300e-01
   7.9980800e-02  -7.2847800e-03  -3.1387700e-01
   8.0680100e-02  -9.7446300e-04  -3.1013200e-01
   7.7183900e-02   4.6347000e-03  -3.0498400e-01
   7.3687600e-02   8.3741500e-03  -3.0615400e-01
   7.2988400e-02   1.8657600e-02  -3.0709000e-01
   7.1123700e-02   2.7538800e-02  -3.0217600e-01
   6.7394400e-02   3.5251400e-02  -3.0334600e-01
   6.4830500e-02   4.8105700e-02  -3.0287800e-01
   5.9469700e-02   5.8856600e-02  -2.9843200e-01
   5.0146400e-02   6.4465800e-02  -3.0147400e-01
   4.6650200e-02   7.2879600e-02  -2.9866600e-01
   4.5717900e-02   8.4799000e-02  -2.9258100e-01
   4.0823100e-02   9.3212800e-02  -2.9047500e-01
   3.7793100e-02   1.0373000e-01  -2.8977300e-01
   3.7793100e-02   1.1658400e-01  -2.8719900e-01
   3.7793100e-02   1.2663400e-01  -2.8439100e-01
   3.4763000e-02   1.3668400e-01  -2.7830600e-01
   2.4740500e-02   1.4276000e-01  -2.7503000e-01
   1.5184200e-02   1.5351100e-01  -2.7526400e-01
   1.3785700e-02   1.6659900e-01  -2.6918000e-01
   1.2387200e-02   1.7945400e-01  -2.6098900e-01
   1.2387200e-02   1.9534600e-01  -2.5654300e-01
   9.8233000e-03   2.0679800e-01  -2.5233100e-01
   4.6955100e-03   2.1661400e-01  -2.4577800e-01
   6.3270800e-03   2.2502800e-01  -2.4648000e-01
   2.1316100e-03   2.4022000e-01  -2.4414000e-01
  -4.8608300e-03   2.5237300e-01  -2.4016200e-01
  -7.1916500e-03   2.6546100e-01  -2.3899200e-01
  -9.7555500e-03   2.8743000e-01  -2.3361000e-01
  -1.1154000e-02   2.9981700e-01  -2.2822700e-01
  -1.2086400e-02   3.1126900e-01  -2.1676000e-01
  -8.5901400e-03   3.2131900e-01  -2.1208000e-01
  -5.7931600e-03   3.3160200e-01  -2.0248600e-01
  -9.2893800e-03   3.3814600e-01  -1.9710300e-01
  -1.1154000e-02   3.5146800e-01  -1.9850700e-01
  -1.2319400e-02   3.7507300e-01  -1.8493500e-01
  -1.0921000e-02   3.8418800e-01  -1.8025400e-01
  -1.0921000e-02   3.9844500e-01  -1.6363900e-01
  -1.3717900e-02   4.0943000e-01  -1.5053400e-01
  -1.4184100e-02   4.1503900e-01  -1.4702400e-01
  -1.2785600e-02   4.2508800e-01  -1.2830300e-01
  -8.5901400e-03   4.3210000e-01  -1.2292100e-01
  -9.5224600e-03   4.4846000e-01  -1.1285800e-01
  -1.2785600e-02   4.6108100e-01  -1.0724200e-01
  -1.0687900e-02   4.7463600e-01  -1.0373100e-01
  -1.3484800e-02   4.9660500e-01  -8.6882400e-02
  -2.0477300e-02   5.0805700e-01  -8.3138100e-02
  -1.9778100e-02   5.1483500e-01  -7.3309500e-02
  -1.1154000e-02   5.2067800e-01  -5.5758400e-02
  -6.2593200e-03   5.2932500e-01  -4.1483500e-02
  -5.7931600e-03   5.4311500e-01  -3.0952800e-02
  -4.1615900e-03   5.5877400e-01  -1.8784100e-02
  -3.9285100e-03   5.7232900e-01  -7.0833400e-03
  -3.4623400e-03   5.7770500e-01  -3.1051000e-03
   3.3879300e-05   5.8775400e-01   6.7235200e-03
   4.9285900e-03   6.0224500e-01   1.9594300e-02
   5.6278400e-03   6.1229400e-01   2.7316800e-02
   3.9962700e-03   6.2585000e-01   3.8783500e-02
   2.1316100e-03   6.3706800e-01   5.5164600e-02
   2.1316100e-03   6.4104100e-01   6.1951000e-02
   7.9586500e-03   6.5109100e-01   7.2949700e-02
   1.1688000e-02   6.5997200e-01   8.5118400e-02
   1.4018800e-02   6.6394500e-01   9.3309000e-02
   1.7981200e-02   6.8030600e-01   1.0477600e-01
   2.3342000e-02   6.9386100e-01   1.0828600e-01
   2.7770600e-02   7.0554700e-01   1.2045500e-01
   2.2176600e-02   7.1676500e-01   1.2653900e-01
   1.8913500e-02   7.1933600e-01   1.3238900e-01
   2.0078900e-02   7.2821700e-01   1.4877000e-01
   2.1943500e-02   7.3406000e-01   1.4970600e-01
   2.8702900e-02   7.4925200e-01   1.6023700e-01
   3.2199100e-02   7.6537800e-01   1.6959800e-01
   3.1499900e-02   7.6818300e-01   1.7030000e-01
   2.8236700e-02   7.8103700e-01   1.8200100e-01
   2.7537500e-02   7.8711300e-01   1.8551100e-01
   3.0800600e-02   7.9015200e-01   1.8785100e-01
   3.2199100e-02   8.0277200e-01   1.9323300e-01
   3.0101400e-02   8.1048500e-01   1.9650900e-01
   2.7770600e-02   8.1843100e-01   2.0446600e-01
   2.4274400e-02   8.3432400e-01   2.1452900e-01
   1.8447300e-02   8.3993300e-01   2.2061300e-01
   1.6582700e-02   8.4203700e-01   2.2435700e-01
   1.9379600e-02   8.5115100e-01   2.3137800e-01
   2.2875900e-02   8.5021700e-01   2.3208000e-01
   2.5439800e-02   8.6143500e-01   2.3769600e-01
   2.3342000e-02   8.7428900e-01   2.4495000e-01
   1.9845800e-02   8.7849600e-01   2.4565300e-01
   1.7515000e-02   8.9509000e-01   2.5735300e-01
   1.1688000e-02   9.0420500e-01   2.6367200e-01
   8.1917300e-03   9.0420500e-01   2.6624600e-01
   1.1454900e-02   9.0771100e-01   2.7677600e-01
   1.2620300e-02   9.1051500e-01   2.8379700e-01
   1.0056400e-02   9.1121600e-01   2.8543500e-01
   1.1921000e-02   9.1729300e-01   2.9432800e-01
   1.4951100e-02   9.2710900e-01   3.0462400e-01
   1.0522500e-02   9.3038100e-01   3.0602800e-01
   5.1616700e-03   9.3061500e-01   3.1445300e-01
   8.4248100e-03   9.3295200e-01   3.1936700e-01
   1.5650300e-02   9.3528900e-01   3.1889900e-01
   2.0312000e-02   9.3084800e-01   3.2287700e-01
   2.1011200e-02   9.2991300e-01   3.2638800e-01
   1.8214200e-02   9.3458800e-01   3.3364200e-01
   1.3552600e-02   9.3295200e-01   3.3551400e-01
   1.4251900e-02   9.3131600e-01   3.3785400e-01
   2.1244300e-02   9.3482200e-01   3.4744900e-01
   2.7304400e-02   9.3178300e-01   3.4627900e-01
   2.7770600e-02   9.2851100e-01   3.4791700e-01
   2.3808200e-02   9.2781000e-01   3.5306500e-01
   2.4507400e-02   9.2173300e-01   3.4534300e-01
   3.1033700e-02   9.2430400e-01   3.5095900e-01
   3.5928400e-02   9.1729300e-01   3.5236300e-01
   3.8958500e-02   9.0607500e-01   3.4651300e-01
   3.7326900e-02   9.0490600e-01   3.5212900e-01
   3.4296900e-02   8.9509000e-01   3.4674700e-01
   3.6860800e-02   8.9205200e-01   3.4955500e-01
   4.3387000e-02   8.8807800e-01   3.4838500e-01
   4.8747900e-02   8.8504000e-01   3.4300300e-01
   4.9214100e-02   8.7966500e-01   3.4393900e-01
   5.5973400e-02   8.7242000e-01   3.3715200e-01
   6.2965900e-02   8.7335400e-01   3.3949200e-01
   6.3199000e-02   8.5699400e-01   3.3387600e-01
   6.8093700e-02   8.5395600e-01   3.3504600e-01
   7.3687600e-02   8.5348900e-01   3.3668400e-01
   7.4620000e-02   8.4414000e-01   3.3294000e-01
   7.6018500e-02   8.4016700e-01   3.3668400e-01
   7.9281600e-02   8.2965000e-01   3.2802600e-01
   8.1379300e-02   8.2567600e-01   3.3247200e-01
   8.3943200e-02   8.1095200e-01   3.2709000e-01
   8.9071000e-02   8.0324000e-01   3.2334500e-01
   9.3965700e-02   8.0207100e-01   3.3060000e-01
   9.4198800e-02   7.9132000e-01   3.2521700e-01
   9.7462000e-02   7.8477600e-01   3.2662200e-01
   1.0165700e-01   7.7823200e-01   3.2311100e-01
   1.0189100e-01   7.7028600e-01   3.2170700e-01
   1.0562000e-01   7.5696400e-01   3.1468700e-01
   1.0818400e-01   7.4831700e-01   3.0930500e-01
   1.0981500e-01   7.4107200e-01   3.1351700e-01
   1.0631900e-01   7.3546200e-01   3.1047500e-01
   1.0212400e-01   7.2471100e-01   3.0532600e-01
   1.0748400e-01   7.1606400e-01   3.0602800e-01
   1.0725100e-01   7.0928600e-01   3.0883600e-01
   9.8627400e-02   6.8918700e-01   2.9783800e-01
   9.2800300e-02   6.7913700e-01   2.9386000e-01
   9.2800300e-02   6.7095700e-01   2.9573200e-01
   9.6063500e-02   6.6044000e-01   2.9151900e-01
   9.1868000e-02   6.5039000e-01   2.8894500e-01
   7.9747800e-02   6.3660100e-01   2.8707300e-01
   7.3454600e-02   6.2070800e-01   2.8192500e-01
   7.4620000e-02   6.0995700e-01   2.8122300e-01
   7.3454600e-02   5.9873900e-01   2.8520100e-01
   6.6928300e-02   5.8074300e-01   2.8028700e-01
   5.5507300e-02   5.7116100e-01   2.8052100e-01
   4.6883300e-02   5.5667000e-01   2.8145700e-01
   4.0823100e-02   5.4451700e-01   2.8028700e-01
   3.2898400e-02   5.2885800e-01   2.8028700e-01
   2.9868300e-02   5.1086200e-01   2.7771300e-01
   2.5905900e-02   5.0081200e-01   2.7864900e-01
   1.8680400e-02   4.7790800e-01   2.7233000e-01
   1.5650300e-02   4.6295000e-01   2.6905400e-01
   1.1921000e-02   4.5290100e-01   2.7303200e-01
   9.6620500e-04   4.3560600e-01   2.7162800e-01
  -1.2552500e-02   4.1737600e-01   2.6671400e-01
  -2.0710400e-02   4.0054800e-01   2.6460800e-01
  -2.5138900e-02   3.8418800e-01   2.6460800e-01
  -3.1432100e-02   3.6642600e-01   2.6297000e-01
  -3.9356900e-02   3.5100100e-01   2.6250200e-01
  -4.6815500e-02   3.3136900e-01   2.5875700e-01
  -5.1477100e-02   3.1711200e-01   2.5735300e-01
  -5.9401900e-02   3.0332300e-01   2.5688500e-01
  -7.1522200e-02   2.8392400e-01   2.5243900e-01
  -7.6649900e-02   2.6803200e-01   2.5337500e-01
  -7.8514600e-02   2.5097100e-01   2.5220500e-01
  -8.4807800e-02   2.3367600e-01   2.4986500e-01
  -8.9003300e-02   2.1754900e-01   2.4892900e-01
  -9.2499500e-02   2.0165700e-01   2.4612100e-01
  -1.0345400e-01   1.8716600e-01   2.4378000e-01
  -1.1440900e-01   1.7127400e-01   2.4190800e-01
  -1.1977000e-01   1.5468000e-01   2.4214200e-01
  -1.2233400e-01   1.4065700e-01   2.3910000e-01
  -1.2233400e-01   1.2055700e-01   2.3582400e-01
  -1.2186800e-01   1.0349600e-01   2.3605800e-01
  -1.2606300e-01   9.1576800e-02   2.3254800e-01
  -1.3818300e-01   7.8255000e-02   2.3020800e-01
  -1.4517600e-01   6.3297200e-02   2.2646300e-01
  -1.4191300e-01   4.7872000e-02   2.2271900e-01
  -1.4121400e-01   3.6653700e-02   2.2201700e-01
  -1.4191300e-01   2.0761100e-02   2.2037900e-01
  -1.4214600e-01   7.2055700e-03   2.1593300e-01
  -1.4401100e-01  -4.7139100e-03   2.1172000e-01
  -1.4377700e-01  -1.6399700e-02   2.1055000e-01
  -1.4214600e-01  -2.9955200e-02   2.0329600e-01
  -1.3795000e-01  -4.3744400e-02   2.0142400e-01
  -1.3259000e-01  -5.3560400e-02   1.9510500e-01
