**************************************************************************************
  	RED ACELEROGRÁFICA DE LA UNIVERSIDAD AUTONOMA METROPOLITANA (RA-UAM)
	   UNIDAD AZCAPOTZALCO. DIVISIÓN CBI-DEPARTAMENTO DE MATERIALES
     Av. San Pablo 420, Col. Nueva el Rosario, Azcapotzalco, C.P. 02128, Ciudad de México
		Área de Estructuras. e-mail: agb@azc.uam.mx
**************************************************************************************
ARCHIVO ESTANDAR DE ACELERACION:
VERSION DEL FORMATO                    : 2.0
NOMBRE DEL ARCHIVO                     : RIDX202312.142
FECHA Y HORA DE CREACION               : 11:30 a. m. 21/12/2023
REF. CATALOGO ACELEROGRAMAS, SMIS 1999 : REGISTRO NO.      /PAG.    


================================================================================
DATOS DE LA ESTACION:
NOMBRE DE LA ESTACION                  : UAM-XOCHIMILCO.
CLAVE DE LA ESTACION                   : RIDX
LOCALIZACION DE LA ESTACION            : CALZADA DEL HUESO 1100, COL. VILLA
                                       : QUIETUD, DEL. COYOACAN, C.P.04960,  
                                       : CIUDAD DE MEXICO.
                                       : 
                                       : 
COORDENADAS DE LA ESTACION             : 19.301345 LAT. N
                                       : 99.10268 LONG. W
ALTITUD (msnm)                         : 2232
TIPO DE SUELO                          : LAGO
                                       : 
                                       : 
INSTITUCION RESPONSABLE                : UNIVERSIDAD AUTONOMA METROPOLITANA
                                       : 

================================================================================
DATOS DEL ACELEROGRAFO: 
MODELO DEL ACELEROGRAFO                : BASALT KINEMETRICS
NUMERO DE SERIE DEL ACELEROGRAFO       : 1729
NUMERO DE CANALES                      : 3
ORIENTACION C1-C6 (rumbo;orientacion)  : /V/N00E/N90E
ORIENTACION C7-C12 (rumbo;orientacion) : 
VEL. DE MUESTREO, C1-C6 (muestras/s)   : /200/200/200
VEL. DE MUESTREO, C7-C12 (muestras/s)  : 
ESC. COMPLETA DE SENSORES, C1-C6, (g)  : /2/2/2
ESC. COMPLETA DE SENSORES, C7-C12 (g)  : 
FREC. NAT. DE SENSORES, C1-C6, (Hz)    : /208/210/200   
FREC. NAT. DE SENSORES, C7-C12 (Hz)    : 
AMORTIGUAMIENTO DE SENSORES, C1-C6     : /0.7/0.7/0.7      
AMORTIGUAMIENTO DE SENSORES, C7-C12    : 
INTERVALO DE MUESTREO, C1-C6 (s)       : /0.005/0.005/0.005
INTERVALO DE MUESTREO, C7-C12 (s)      : 
UMBRAL DE DISPARO, C1-C6 (Gal)         : /2/2/2
UMBRAL DE DISPARO, C7-C12 (Gal)        : 
MEMORIA DE PREEVENTO (s)               : 60
TIEMPO DE POSEVENTO (s)                : 80


================================================================================
DATOS DEL SISMO:
FECHA DEL SISMO [GMT]                  : 2023/12/14
HORA EPICENTRO (GMT)                   : 20:15:20
MAGNITUD(ES)                           : /M=2.4
COORDENADAS DEL EPICENTRO              : 19.3700 LAT. N
                                       : -99.2000 LONG. W
PROFUNDIDAD FOCAL (Km)                 : 1.3
FUENTE DE LOS DATOS EPICENTRALES       : SSN
                                       : INSTITUTO DE GEOFISICA, UNAM

================================================================================
DATOS DE ESTE REGISTRO:
HORA DE LA PRIMERA MUESTRA (GMT)       : 20:09:39.000
EXACTITUD DEL TIEMPO (s)               : 
DURACION DEL REGISTRO (s), C1-C6       : /346/346/346
DURACION DEL REGISTRO (s), C7-C12      : 
NUM. TOTAL DE MUESTRAS, C1-C6          : /69200/69200/69200
NUM. TOTAL DE MUESTRAS, C7-C12         : 
ACEL. MAX.(Gal), C1-C6                 : /-1.822/-1.955/1.939
ACEL. MAX., C1-C6, EN LA MUESTRA       : /52593/52593/12006
ACEL. MAX.(Gal), C7-C12                : 
ACEL. MAX., C7-C12,EN LA MUESTRA       : 
UNIDADES DE LOS DATOS                  : Gal (cm/s/s)
FACTOR DE DECIMACION                   : 1
FORMATO DATOS (FORTRAN,16 campos/dato) : 3E16.7


================================================================================
CALIDAD DEL ACELEROGRAMA:
REGISTRO DIGITAL COMPLETO CON TIEMPO ABSOLUTO CORRECTO


================================================================================
COMENTARIOS:














================================================================================
DATOS DE ACELERACION:
---------+---------+---------+---------+---------+---------+---------+---------+
   CANAL-1   	      CANAL-2          CANAL-3
      V                 N00E             N90E
---------+---------+---------+---------+---------+---------+---------+---------+
[...]
   1.1229600e-01   1.8469500e-02  -2.1323300e-01
   1.4609200e-01   5.4929000e-02  -2.0153200e-01
   1.8618200e-01   7.4794800e-02  -2.0176600e-01
   2.0273100e-01   9.2323500e-02  -2.0738200e-01
   2.1065600e-01   9.7698900e-02  -2.2212500e-01
   2.0343000e-01   8.3442300e-02  -2.2891200e-01
   1.9434000e-01   4.4411900e-02  -2.3991100e-01
   1.8082200e-01   1.5664900e-02  -2.4412300e-01
   1.5634800e-01   1.3795200e-02  -2.4646300e-01
   1.3746800e-01   2.3377500e-02  -2.5090900e-01
   1.2092000e-01   4.6047900e-02  -2.3125200e-01
   1.2278400e-01   5.6565000e-02  -2.1697700e-01
   1.0670200e-01   5.8902200e-02  -2.1604100e-01
   8.5491200e-02   3.9270100e-02  -2.3148600e-01
   8.8987500e-02   7.7185600e-03  -2.3359200e-01
   8.0130400e-02  -1.6821500e-02  -2.1206300e-01
   7.6401000e-02  -3.7622200e-02  -1.9006500e-01
   8.7822000e-02  -3.7154800e-02  -1.5121900e-01
   1.0040800e-01  -4.3698800e-02  -1.2454100e-01
   1.0576900e-01  -5.3748600e-02  -1.2500900e-01
   1.0763400e-01  -5.0476500e-02  -1.3624200e-01
   1.1555900e-01  -3.8089600e-02  -1.4887900e-01
   1.2814500e-01  -1.6587800e-02  -1.5964300e-01
   1.3863400e-01   9.4081200e-04  -1.6385600e-01
   1.3350600e-01   9.8219900e-03  -1.5940900e-01
   1.1416000e-01  -1.1626300e-03  -1.5215500e-01
   9.6446100e-02  -2.7806200e-02  -1.2828600e-01
   7.0574000e-02  -5.5852000e-02  -9.5757500e-02
   3.9807200e-02  -9.3012700e-02  -7.6802300e-02
   1.6499100e-02  -1.2012400e-01  -7.8674400e-02
  -7.7413900e-03  -1.1802000e-01  -8.6162900e-02
  -1.4034600e-02  -1.1825400e-01  -8.9907100e-02
  -2.0327800e-02  -1.2316200e-01  -9.8331600e-02
  -3.5478100e-02  -1.3110800e-01  -1.1260700e-01
  -3.3147300e-02  -1.3157600e-01  -1.1986100e-01
  -2.4290200e-02  -1.2292800e-01  -1.2383900e-01
  -2.1959400e-02  -1.2666800e-01  -1.3273200e-01
  -2.3124800e-02  -1.1685200e-01  -1.1986100e-01
  -8.2075500e-03  -8.6001300e-02  -9.5523500e-02
   7.8750800e-03  -3.8790800e-02  -7.0951900e-02
   2.8153200e-02  -4.6148000e-04  -5.1294700e-02
   5.7754500e-02   2.0339200e-02  -3.3041500e-02
   8.4092700e-02   3.1557500e-02  -9.1720400e-03
   1.0670200e-01   1.4262600e-02   1.8854800e-04
   9.0852100e-02  -2.4300400e-02   3.9327800e-03
   6.0784600e-02  -9.2077900e-02  -1.4554400e-02
   2.2326100e-02  -1.5377900e-01  -3.4211600e-02
  -3.9906600e-02  -2.0215800e-01  -4.3338200e-02
  -8.4658300e-02  -2.3020400e-01  -3.6317700e-02
  -1.2055300e-01  -1.9818500e-01   1.2591300e-02
  -1.4432700e-01  -1.8346100e-01   3.1546500e-02
  -1.4456000e-01  -1.6499700e-01   4.6055400e-02
  -1.2055300e-01  -1.2199300e-01   6.6648700e-02
  -7.8831300e-02  -1.1194400e-01   4.1375100e-02
  -4.5733700e-02  -8.9507000e-02   3.0142400e-02
   8.8074000e-03  -6.7070300e-02   4.1141100e-02
   6.1716900e-02  -7.0576100e-02   4.1609100e-02
   6.0085300e-02  -1.0656800e-01   1.7271600e-02
   4.1438800e-02  -1.6943800e-01  -7.5339400e-03
   3.3281000e-02  -1.9631500e-01  -8.9380200e-03
   2.6521600e-02  -1.8673300e-01   8.6130800e-03
   3.0484000e-02  -1.7247600e-01   4.7927500e-02
   4.2138100e-02  -1.5424600e-01   8.5603900e-02
   3.0250900e-02  -1.6008900e-01   9.5198500e-02
   2.5142000e-03  -1.9584700e-01   6.2436500e-02
  -3.2914200e-02  -2.1174000e-01   3.5056700e-02
  -6.2049400e-02  -2.2295800e-01   2.4760100e-02
  -8.1861300e-02  -2.3557900e-01   1.7505600e-02
  -1.0680100e-01  -2.3978600e-01   3.7396900e-02
  -1.0796600e-01  -2.2880100e-01   6.9222900e-02
  -8.3959000e-02  -1.8182500e-01   1.0455900e-01
  -4.7365200e-02  -1.3858700e-01   1.2023800e-01
  -9.1398700e-03  -9.0675600e-02   1.2421600e-01
   3.1649400e-02  -5.1645100e-02   1.1649400e-01
   6.5912400e-02  -4.5568500e-02   9.2624300e-02
   8.7355900e-02  -5.5852000e-02   8.1157600e-02
   1.1182900e-01  -9.0441900e-02   6.8286800e-02
   1.2698000e-01  -1.2900500e-01   6.9456900e-02
   1.3094200e-01  -1.7364400e-01   7.2967100e-02
   1.2511500e-01  -1.9818500e-01   8.0689600e-02
   1.2744600e-01  -2.0052200e-01   9.7772700e-02
   1.2767900e-01  -1.9818500e-01   1.0151700e-01
   1.0926600e-01  -1.8860200e-01   1.1040900e-01
   8.5957400e-02  -2.0519600e-01   1.0175100e-01
   6.9408600e-02  -2.0472900e-01   9.6602600e-02
   7.7799500e-02  -1.8065600e-01   1.2211000e-01
   9.5280700e-02  -1.6686700e-01   1.4808600e-01
   1.3630300e-01  -1.2456400e-01   1.9067600e-01
   1.9737000e-01  -8.4832700e-02   2.3279900e-01
   2.5400900e-01  -6.0760000e-02   2.5339200e-01
   3.0435500e-01  -2.1262100e-02   2.6205100e-01
   3.2160300e-01  -1.1212400e-02   2.2999100e-01
   3.0552000e-01  -3.6219900e-02   1.7780600e-01
   2.6496400e-01  -8.5767600e-02   1.3030100e-01
   2.1182100e-01  -1.5798600e-01   9.1220300e-02
   1.6963400e-01  -1.9117300e-01   9.5432500e-02
   1.2301700e-01  -1.8346100e-01   1.0338900e-01
   6.3115400e-02  -1.6523100e-01   9.0050200e-02
   3.1649400e-02  -1.2292800e-01   9.0752200e-02
   2.3491500e-02  -6.4733200e-02   1.0268700e-01
   3.4446400e-02   8.1859900e-03   1.3076900e-01
   6.4980100e-02   6.9886800e-02   1.7359300e-01
   8.8055100e-02   9.6530400e-02   2.1758800e-01
   1.3070900e-01   1.3579500e-01   2.5807300e-01
   1.6753600e-01   1.2644600e-01   2.6275300e-01
   1.7662600e-01   3.8569000e-02   2.3396900e-01
   1.6543800e-01  -7.5016700e-02   1.8155000e-01
   1.3350600e-01  -2.0052200e-01   1.4738400e-01
   1.4819000e-01  -2.3090500e-01   1.6750900e-01
   1.4492700e-01  -2.1010400e-01   1.2257800e-01
   4.3788500e-03  -2.5287400e-01  -9.6400700e-03
  -2.0586100e-01  -3.0405800e-01  -1.2969000e-01
  -3.7064900e-01  -2.9728000e-01  -1.1752100e-01
  -4.3264900e-01  -1.7855300e-01   3.5524800e-02
  -4.3008500e-01   1.6419600e-03   1.6446700e-01
  -3.5666400e-01   1.9399000e-01   2.8498400e-01
  -1.2218400e-01   4.1601900e-01   4.1930900e-01
   1.6730300e-01   5.7260800e-01   4.7617400e-01
   3.7148200e-01   5.7728300e-01   4.3194600e-01
   4.6238400e-01   4.6065900e-01   3.1400200e-01
   4.4024100e-01   2.9799300e-01   1.9020800e-01
   3.7358000e-01   1.8884800e-01   1.1321800e-01
   2.5051300e-01   1.4935000e-01   1.3053500e-01
   3.3281000e-02   6.7783400e-02   1.7476300e-01
  -2.7601800e-01  -1.4022300e-01   1.2421600e-01
  -6.2703900e-01  -4.3166600e-01   2.1483900e-02
  -8.6548100e-01  -6.2798700e-01  -3.6785800e-02
  -9.1466200e-01  -5.6558500e-01   2.4058000e-02
  -7.3798600e-01  -2.3534500e-01   2.2671500e-01
  -3.7624300e-01   2.4447200e-01   4.8319500e-01
   2.8619300e-02   6.8899900e-01   6.8374500e-01
   3.7591100e-01   9.6548400e-01   7.3710100e-01
   6.0223300e-01   9.8090900e-01   6.1798700e-01
   6.8334500e-01   7.2008300e-01   3.8210100e-01
   5.6657200e-01   3.2697400e-01   1.0900500e-01
   2.9479800e-01  -8.6235000e-02  -1.4373000e-01
  -1.5200000e-02  -3.8235200e-01  -2.9116000e-01
  -2.8697300e-01  -4.1063200e-01  -2.5816400e-01
  -4.3334800e-01  -2.2179000e-01  -9.6927500e-02
  -4.8672400e-01   7.7599400e-02   1.3708700e-01
  -4.8555900e-01   3.4941000e-01   3.6127300e-01
  -4.2822000e-01   5.0155900e-01   4.9372600e-01
  -3.5386700e-01   5.4783500e-01   5.4029400e-01
  -2.5993600e-01   4.8426400e-01   4.9466200e-01
  -1.6833500e-01   3.6203100e-01   3.8069600e-01
  -8.8387600e-02   2.4260200e-01   2.5409400e-01
  -1.5433100e-02   1.6407400e-01   1.5417000e-01
   3.8874900e-02   1.3930000e-01   8.0455600e-02
   8.2228100e-02   1.4935000e-01   3.9035000e-02
   9.8310700e-02   1.8767900e-01   5.4714000e-02
   9.3882200e-02   2.1268700e-01   1.0221900e-01
   7.1972500e-02   2.0193600e-01   1.7593400e-01
   3.3747100e-02   1.8838000e-01   2.6251900e-01
  -9.8202100e-04   1.9048400e-01   3.2593700e-01
  -2.8951800e-02   2.1035000e-01   3.5752900e-01
  -4.4568300e-02   2.2928100e-01   3.2921300e-01
  -6.8342600e-02   2.0497400e-01   2.4777600e-01
  -1.1472600e-01   1.6781400e-01   1.5440400e-01
  -1.6856800e-01   1.4724700e-01   7.1563000e-02
  -1.9793600e-01   1.5262200e-01   3.3418600e-02
  -1.8604900e-01   2.1993200e-01   6.0330300e-02
  -1.4269600e-01   3.1458700e-01   1.2959900e-01
  -8.3492900e-02   3.9895800e-01   1.9956900e-01
  -2.3357800e-02   4.4640200e-01   2.5666900e-01
   3.3514000e-02   4.3635200e-01   2.7749600e-01
   6.8010100e-02   3.7956000e-01   2.5549900e-01
   7.3604100e-02   2.9308500e-01   2.2133200e-01
   7.4070200e-02   2.1268700e-01   1.7921000e-01
   6.0318400e-02   1.6173700e-01   1.4808600e-01
   3.5145600e-02   1.3719700e-01   1.3334300e-01
   1.3002900e-02   1.2153800e-01   1.3942700e-01
  -1.2636100e-02   1.1663000e-01   1.6867900e-01
  -2.8718700e-02   1.1032000e-01   1.9395300e-01
  -4.3869000e-02   1.1078700e-01   2.1665200e-01
  -5.1094600e-02   1.3509300e-01   2.2437500e-01
  -5.4590800e-02   1.5472500e-01   2.0729200e-01
  -7.6733500e-02   1.7529200e-01   1.7757200e-01
  -1.0260600e-01   1.8487500e-01   1.3942700e-01
  -1.3057500e-01   1.7435800e-01   1.2351400e-01
  -1.4432700e-01   1.6360700e-01   1.2959900e-01
  -1.5271800e-01   1.4631200e-01   1.4715000e-01
  -1.5015400e-01   1.3252300e-01   1.6072300e-01
  -1.3337200e-01   1.2574500e-01   1.6587100e-01
  -1.1775600e-01   1.2854900e-01   1.7593400e-01
  -9.3981600e-02   1.3532700e-01   1.6821100e-01
  -8.4891400e-02   1.2410900e-01   1.7172100e-01
  -7.3936500e-02   1.0050400e-01   1.7265700e-01
  -6.9741100e-02   6.3810200e-02   1.5814800e-01
  -8.7455300e-02   1.8002000e-02   1.5697800e-01
  -1.0750000e-01  -2.1495900e-02   1.3872500e-01
  -1.3477100e-01  -5.3047400e-02   1.2772700e-01
  -1.5341700e-01  -5.9825200e-02   1.2959900e-01
  -1.6810100e-01  -5.2346300e-02   1.3030100e-01
  -1.7183100e-01  -4.5802200e-02   1.4785200e-01
  -1.6297400e-01  -3.1311900e-02   1.8061400e-01
  -1.5038700e-01  -2.4767900e-02   2.0167500e-01
  -1.3290600e-01  -4.9020700e-03   2.1782200e-01
  -1.1892100e-01   2.4078600e-02   2.4450000e-01
  -1.0283900e-01   3.2726100e-02   2.5058400e-01
  -9.8177000e-02   3.0622700e-02   2.5245600e-01
  -9.4913900e-02   3.9791100e-03   2.3677700e-01
  -8.4891400e-02  -3.0610800e-02   1.9910100e-01
  -8.3026700e-02  -5.4216000e-02   1.6025500e-01
  -8.7921400e-02  -5.7721700e-02   1.1602600e-01
  -8.3726000e-02  -5.0710300e-02   8.3029700e-02
  -7.3936500e-02  -4.8840500e-02   6.4542600e-02
  -6.5312500e-02  -3.9725600e-02   7.7647400e-02
  -3.4545800e-02  -4.2296500e-02   1.0128300e-01
  -4.7113300e-03  -4.3465100e-02   1.2749300e-01
   2.4890000e-02  -2.8273600e-02   1.6306300e-01
   7.7566500e-02  -1.9626100e-02   1.6774300e-01
   1.0670200e-01  -3.3181600e-02   1.5066000e-01
   1.3234100e-01  -4.4867400e-02   1.8529400e-01
   1.6357400e-01   4.7338200e-04   2.1173800e-01
   1.0507000e-01   7.9936600e-02   1.0666500e-01
   1.8338700e-04   1.1148800e-01  -2.7948200e-04
  -1.2151000e-03   1.1756500e-01   1.7148700e-01
   1.9063000e-02   1.5898600e-02   5.8288500e-01
  -4.0887500e-01  -5.9737000e-01   4.3966800e-01
  -1.3276800e+00  -1.5785100e+00  -5.8180600e-01
  -1.8215800e+00  -1.9554900e+00  -1.3383800e+00
  -1.4670600e+00  -1.2043300e+00  -1.0793200e+00
  -7.2027200e-01   1.2644600e-01  -2.5886600e-01
   1.2837800e-01   1.2274800e+00   7.2259200e-01
   9.1922400e-01   1.7206200e+00   1.5884500e+00
   1.4096300e+00   1.4583900e+00   1.8145000e+00
   1.4930700e+00   6.8572700e-01   1.2954600e+00
   1.3355100e+00  -3.6921100e-02   4.4013600e-01
   1.0912400e+00  -5.3052800e-01  -3.8827600e-01
   7.1551100e-01  -8.4557600e-01  -9.3540200e-01
   1.8501700e-01  -9.9328400e-01  -1.1223800e+00
  -3.7228100e-01  -1.0052000e+00  -9.9484200e-01
  -7.6479000e-01  -8.5819700e-01  -6.5247800e-01
  -9.5172200e-01  -5.6418300e-01  -1.9638400e-01
  -9.5824800e-01  -2.0729900e-01   3.2546900e-01
  -8.0534600e-01   9.9334900e-02   6.8749000e-01
  -5.8788100e-01   2.7205100e-01   7.4201500e-01
  -3.4431100e-01   3.5735700e-01   6.2571000e-01
  -3.9207400e-02   3.3164800e-01   4.4294400e-01
   2.8990400e-01   1.9188600e-01   2.1782200e-01
   5.0620300e-01   2.0806600e-02  -1.8532600e-02
   5.5188700e-01  -1.8112300e-01  -2.1908300e-01
   5.0294000e-01  -3.2766300e-01  -3.3983500e-01
   4.1157200e-01  -3.8118400e-01  -3.5972600e-01
   3.1764000e-01  -3.6716100e-01  -2.6214200e-01
   2.7079100e-01  -2.9073600e-01  -8.4992800e-02
   2.5913700e-01  -1.8392800e-01   8.6774000e-02
   2.4748300e-01  -6.3798300e-02   2.0658900e-01
   2.1694900e-01   1.9638000e-02   2.1407800e-01
   1.5611500e-01   2.8752900e-02   8.6305900e-02
   5.8686900e-02  -3.9959400e-02  -8.8035000e-02
  -5.3192300e-02  -1.3157600e-01  -2.4295300e-01
  -1.4479300e-01  -1.9374400e-01  -3.2953800e-01
  -1.8465000e-01  -1.9467900e-01  -2.9701000e-01
  -1.5341700e-01  -1.2129200e-01  -1.6900400e-01
  -7.0673400e-02  -2.3365600e-02  -2.0872800e-02
   2.7453900e-02   8.5078300e-02   6.5946700e-02
   1.2022000e-01   1.7529200e-01   6.7584800e-02
   2.0389700e-01   1.9445700e-01   1.3059400e-02
   2.5587400e-01   1.3486000e-01  -6.3697500e-02
   2.7731700e-01   2.0806600e-02  -1.1705300e-01
   3.0179100e-01  -1.0586700e-01  -1.3390200e-01
   3.0761800e-01  -2.0987000e-01  -1.3554000e-01
   2.9130200e-01  -2.5591200e-01  -1.3764600e-01
   2.7102400e-01  -2.5357500e-01  -1.3951800e-01
   2.2464100e-01  -2.3417700e-01  -1.4724100e-01
   1.6404000e-01  -2.1548000e-01  -1.8421500e-01
   9.9709200e-02  -1.9818500e-01  -2.3593200e-01
   2.5822400e-02  -1.4630000e-01  -2.7945900e-01
  -3.4545800e-02  -6.9641200e-02  -2.9373400e-01
  -6.2515500e-02   1.2392900e-02  -2.7922500e-01
  -5.6921600e-02   1.0400900e-01  -2.5254700e-01
  -1.4733800e-02   1.7879800e-01  -2.1323300e-01
   5.4258300e-02   2.1011600e-01  -1.8889500e-01
   1.1672400e-01   1.9375600e-01  -1.7930100e-01
   1.6147600e-01   1.2504400e-01  -2.0293600e-01
   1.7942300e-01   1.7300900e-02  -2.5558900e-01
   1.7243100e-01  -6.5901800e-02  -2.9607400e-01
   1.6940100e-01  -1.0072500e-01  -3.1807100e-01
   1.7289700e-01  -9.9556800e-02  -3.1058300e-01
   1.6916700e-01  -6.5434300e-02  -2.9818000e-01
   1.4213000e-01  -2.3365600e-02  -2.8858600e-01
   1.0670200e-01  -3.9672100e-03  -2.9560600e-01
   7.9664200e-02  -1.8691300e-02  -3.2532600e-01
   5.5889900e-02  -5.3982300e-02  -3.4451500e-01
   1.7431400e-02  -9.5349900e-02  -3.5411000e-01
  -3.7109700e-02  -1.2923900e-01  -3.5832200e-01
  -6.6244800e-02  -1.4185900e-01  -3.6089600e-01
  -7.2538100e-02  -1.2456400e-01  -3.5153600e-01
  -5.5523100e-02  -8.5533800e-02  -3.3164400e-01
  -1.7997000e-02  -3.6921100e-02  -3.0332800e-01
   5.7773400e-03   1.3561400e-02  -2.7009800e-01
   2.3025400e-02   4.5580400e-02  -2.4763300e-01
   3.7476400e-02   5.3994200e-02  -2.4131500e-01
   7.1506300e-02   5.0722200e-02  -2.6424800e-01
   1.1322800e-01   5.2358200e-02  -2.9841400e-01
   1.1089700e-01   4.4178100e-02  -3.4498300e-01
   7.1273300e-02   1.8002000e-02  -3.9389200e-01
   1.7664500e-02  -1.8223800e-02  -4.1752800e-01
  -1.6831600e-02  -6.8940100e-02  -4.3016400e-01
  -2.2658600e-02  -1.0072500e-01  -4.2010200e-01
  -1.7530800e-02  -9.0208100e-02  -3.8336200e-01
  -5.1774900e-03  -5.2346300e-02  -3.3889900e-01
  -5.6436500e-03  -1.5886700e-02  -2.9794600e-01
  -3.2448000e-02   8.6534200e-03  -2.6822600e-01
  -5.5523100e-02   2.5948300e-02  -2.6424800e-01
  -5.2026900e-02   3.5063200e-02  -2.7688500e-01
  -4.6199800e-02   4.7450200e-02  -2.9490400e-01
  -6.0884000e-02   5.5162800e-02  -3.1385900e-01
  -7.9064300e-02   5.9837100e-02  -3.3024000e-01
  -8.0929000e-02   5.5396500e-02  -3.6557600e-01
  -7.6034300e-02   3.7166700e-02  -4.0067900e-01
  -6.9508000e-02   2.6182100e-02  -4.2969600e-01
  -5.6455400e-02   1.1691700e-02  -4.5192800e-01
  -4.3169800e-02   4.7338200e-04  -4.4818400e-01
