**************************************************************************************
  	RED ACELEROGRÁFICA DE LA UNIVERSIDAD AUTONOMA METROPOLITANA (RA-UAM)
	   UNIDAD AZCAPOTZALCO. DIVISIÓN CBI-DEPARTAMENTO DE MATERIALES
     Av. San Pablo 420, Col. Nueva el Rosario, Azcapotzalco, C.P. 02128, Ciudad de México
		Área de Estructuras. e-mail: agb@azc.uam.mx
**************************************************************************************
ARCHIVO ESTANDAR DE ACELERACION:
VERSION DEL FORMATO                    : 2.0
NOMBRE DEL ARCHIVO                     : RIDX202304.041
FECHA Y HORA DE CREACION               : 11:30 a. m. 11/04/2023
REF. CATALOGO ACELEROGRAMAS, SMIS 1999 : REGISTRO NO.      /PAG.    


================================================================================
DATOS DE LA ESTACION:
NOMBRE DE LA ESTACION                  : UAM-XOCHIMILCO.
CLAVE DE LA ESTACION                   : RIDX
LOCALIZACION DE LA ESTACION            : CALZADA DEL HUESO 1100, COL. VILLA
                                       : QUIETUD, DEL. COYOACAN, C.P.04960,  
                                       : CIUDAD DE MEXICO.
                                       : 
                                       : 
COORDENADAS DE LA ESTACION             : 19.301345 LAT. N
                                       : 99.10268 LONG. W
ALTITUD (msnm)                         : 2232
TIPO DE SUELO                          : LAGO
                                       : 
                                       : 
INSTITUCION RESPONSABLE                : UNIVERSIDAD AUTONOMA METROPOLITANA
                                       : 

================================================================================
DATOS DEL ACELEROGRAFO: 
MODELO DEL ACELEROGRAFO                : BASALT KINEMETRICS
NUMERO DE SERIE DEL ACELEROGRAFO       : 1729
NUMERO DE CANALES                      : 3
ORIENTACION C1-C6 (rumbo;orientacion)  : /V/N00E/N90E
ORIENTACION C7-C12 (rumbo;orientacion) : 
VEL. DE MUESTREO, C1-C6 (muestras/s)   : /200/200/200
VEL. DE MUESTREO, C7-C12 (muestras/s)  : 
ESC. COMPLETA DE SENSORES, C1-C6, (g)  : /2/2/2
ESC. COMPLETA DE SENSORES, C7-C12 (g)  : 
FREC. NAT. DE SENSORES, C1-C6, (Hz)    : /208/210/200   
FREC. NAT. DE SENSORES, C7-C12 (Hz)    : 
AMORTIGUAMIENTO DE SENSORES, C1-C6     : /0.7/0.7/0.7      
AMORTIGUAMIENTO DE SENSORES, C7-C12    : 
INTERVALO DE MUESTREO, C1-C6 (s)       : /0.005/0.005/0.005
INTERVALO DE MUESTREO, C7-C12 (s)      : 
UMBRAL DE DISPARO, C1-C6 (Gal)         : /2/2/2
UMBRAL DE DISPARO, C7-C12 (Gal)        : 
MEMORIA DE PREEVENTO (s)               : 60
TIEMPO DE POSEVENTO (s)                : 80


================================================================================
DATOS DEL SISMO:
FECHA DEL SISMO [GMT]                  : 2023/04/04
HORA EPICENTRO (GMT)                   : 02:11:59
MAGNITUD(ES)                           : /M=5.5
COORDENADAS DEL EPICENTRO              : 16.0100 LAT. N
                                       : -99.0600 LONG. W
PROFUNDIDAD FOCAL (Km)                 : 26.7
FUENTE DE LOS DATOS EPICENTRALES       : SSN
                                       : INSTITUTO DE GEOFISICA, UNAM

================================================================================
DATOS DE ESTE REGISTRO:
HORA DE LA PRIMERA MUESTRA (GMT)       : 02:13:36.000
EXACTITUD DEL TIEMPO (s)               : 
DURACION DEL REGISTRO (s), C1-C6       : /141/141/141
DURACION DEL REGISTRO (s), C7-C12      : 
NUM. TOTAL DE MUESTRAS, C1-C6          : /28200/28200/28200
NUM. TOTAL DE MUESTRAS, C7-C12         : 
ACEL. MAX.(Gal), C1-C6                 : /-0.297/-0.515/0.485
ACEL. MAX., C1-C6, EN LA MUESTRA       : /8004/12142/7653
ACEL. MAX.(Gal), C7-C12                : 
ACEL. MAX., C7-C12,EN LA MUESTRA       : 
UNIDADES DE LOS DATOS                  : Gal (cm/s/s)
FACTOR DE DECIMACION                   : 1
FORMATO DATOS (FORTRAN,16 campos/dato) : 3E16.7


================================================================================
CALIDAD DEL ACELEROGRAMA:
REGISTRO DIGITAL COMPLETO CON TIEMPO ABSOLUTO CORRECTO


================================================================================
COMENTARIOS:














================================================================================
DATOS DE ACELERACION:
---------+---------+---------+---------+---------+---------+---------+---------+
   CANAL-1   	      CANAL-2          CANAL-3
      V                 N00E             N90E
---------+---------+---------+---------+---------+---------+---------+---------+
[...]
  -6.0143900e-02  -1.2952800e-01  -4.3254200e-02
  -6.1309300e-02  -1.2882600e-01  -4.2552200e-02
  -5.9677700e-02  -1.2345100e-01  -3.5297700e-02
  -5.1519900e-02  -1.1457000e-01  -3.0383400e-02
  -5.4549900e-02  -1.0849300e-01  -3.0149400e-02
  -5.1519900e-02  -1.0755800e-01  -2.2192900e-02
  -3.7768100e-02  -1.0031300e-01  -2.5001100e-02
  -4.0332000e-02  -9.0497100e-02  -1.7746600e-02
  -3.7535000e-02  -9.1198300e-02  -1.0726200e-02
  -3.3572600e-02  -8.3485600e-02  -9.0880800e-03
  -2.9144100e-02  -8.2550800e-02  -4.4077800e-03
  -2.6813200e-02  -7.7876500e-02  -5.1098300e-03
  -3.0775600e-02  -7.2033600e-02  -2.7696800e-03
  -2.1685400e-02  -7.2968500e-02  -1.8336200e-03
  -1.3527600e-02  -5.9880400e-02   3.8496200e-05
  -1.7723100e-02  -5.1232900e-02   2.8466700e-03
  -2.2151600e-02  -5.0531800e-02   2.8466700e-03
  -1.4693000e-02  -4.7960900e-02   3.3147000e-03
  -1.3527600e-02  -4.3987800e-02   6.5909100e-03
  -1.6324600e-02  -4.2351800e-02   3.3147000e-03
  -1.0730600e-02  -4.0014600e-02   2.8466700e-03
  -4.6704900e-03  -3.4405400e-02   5.1868200e-03
  -3.5050800e-03  -3.0432300e-02   1.9106100e-03
  -1.0963700e-02  -3.0666000e-02   8.6970400e-03
  -3.5050800e-03  -2.3888300e-02   9.8671100e-03
   3.2542800e-03  -1.8512800e-02   5.8888600e-03
   3.7204400e-03  -1.8045400e-02   4.4847800e-03
   3.9535300e-03  -5.8921800e-03   4.4847800e-03
   1.1565500e-03  -5.1672600e-04   3.3147000e-03
   1.4442200e-02   5.3261600e-03  -6.6354800e-04
   1.0246700e-02   1.4908500e-02   4.9528000e-03
   1.2344500e-02   1.8881600e-02   2.7251100e-04
   2.7261700e-02   2.6126800e-02  -4.8758100e-03
   2.4930900e-02   3.7111400e-02  -1.3655900e-03
   3.1457100e-02   4.5291500e-02  -9.5561100e-03
   3.1923300e-02   5.0666900e-02  -1.1428200e-02
   3.9381900e-02   6.4222400e-02  -1.3534400e-02
   4.2878100e-02   7.6843000e-02  -1.5874500e-02
   4.1479700e-02   8.4555600e-02  -1.8916700e-02
   5.6163800e-02   9.2735700e-02  -2.6405200e-02
   6.2223900e-02   1.0348700e-01  -2.7809300e-02
   6.4787800e-02   1.1610700e-01  -3.0617400e-02
   6.0126200e-02   1.2709200e-01  -3.2255500e-02
   6.3389300e-02   1.3597300e-01  -4.4892300e-02
   7.1547200e-02   1.4742500e-01  -4.3722200e-02
   8.4832800e-02   1.5677400e-01  -4.4658300e-02
   9.3689900e-02   1.6705700e-01  -5.7295100e-02
   8.4832800e-02   1.8037900e-01  -5.1444700e-02
   9.6953100e-02   1.8108000e-01  -6.7357700e-02
   1.0021600e-01   1.9486900e-01  -7.2740100e-02
   9.9517000e-02   2.0795700e-01  -7.5314200e-02
   1.0627600e-01   2.1403400e-01  -8.8185000e-02
   1.0441200e-01   2.3296500e-01  -8.7951000e-02
   1.0487800e-01   2.3810700e-01  -1.0058800e-01
   1.0044900e-01   2.4488400e-01  -9.5907500e-02
   1.0860700e-01   2.5189600e-01  -1.0152400e-01
   1.1443400e-01   2.5703800e-01  -1.1205500e-01
   1.1047200e-01   2.6638600e-01  -1.1065000e-01
   1.1070500e-01   2.6662000e-01  -1.2328700e-01
   1.0394600e-01   2.7293000e-01  -1.2071300e-01
   1.0371200e-01   2.7737100e-01  -1.2281900e-01
   1.0837400e-01   2.7783800e-01  -1.3194600e-01
   1.1093800e-01   2.8344700e-01  -1.4130600e-01
   1.0790800e-01   2.8929000e-01  -1.4083800e-01
   9.9283900e-02   2.9723700e-01  -1.3732800e-01
   9.9283900e-02   2.9396500e-01  -1.5230500e-01
   9.5787600e-02   2.9560100e-01  -1.5511300e-01
   9.3223800e-02   3.0752000e-01  -1.5534700e-01
   9.5787600e-02   3.0261200e-01  -1.6002800e-01
   8.6930600e-02   3.0611800e-01  -1.5956000e-01
   8.7862900e-02   3.0635100e-01  -1.6096400e-01
   8.6697500e-02   3.0307900e-01  -1.6400600e-01
   7.5742600e-02   3.0915600e-01  -1.7219600e-01
   7.5043400e-02   3.0565000e-01  -1.7968500e-01
   6.8983300e-02   3.1266200e-01  -1.7360000e-01
   6.0592300e-02   3.0658500e-01  -1.7009000e-01
   5.9660000e-02   3.0050900e-01  -1.7781300e-01
   5.6863000e-02   3.0378100e-01  -1.7781300e-01
   4.4509700e-02   3.0494900e-01  -1.7898300e-01
   4.0314200e-02   3.0424800e-01  -1.8225900e-01
   3.4487200e-02   2.9653500e-01  -1.7898300e-01
   2.8660200e-02   2.9817100e-01  -1.7968500e-01
   2.3532400e-02   2.9209500e-01  -1.8038700e-01
   5.8181800e-03   2.9606800e-01  -1.7781300e-01
   5.8181800e-03   2.9326300e-01  -1.7781300e-01
  -1.4073500e-03   2.8695300e-01  -1.7430200e-01
  -3.9712500e-03   2.9092600e-01  -1.7196200e-01
  -7.2343900e-03   2.8648600e-01  -1.7313200e-01
  -2.1685400e-02   2.8812200e-01  -1.7102600e-01
  -2.0753100e-02   2.8040900e-01  -1.6634600e-01
  -2.9610200e-02   2.8485000e-01  -1.6213400e-01
  -3.2873400e-02   2.8274600e-01  -1.6658000e-01
  -4.4760500e-02   2.7900700e-01  -1.6049600e-01
  -4.1497400e-02   2.8461600e-01  -1.5979400e-01
  -3.7301900e-02   2.7830600e-01  -1.5979400e-01
  -5.3850700e-02   2.7900700e-01  -1.5207100e-01
  -4.7557500e-02   2.6965800e-01  -1.5792100e-01
  -5.7346900e-02   2.6989200e-01  -1.5417700e-01
  -6.2707800e-02   2.7246300e-01  -1.5511300e-01
  -6.0610100e-02   2.6708700e-01  -1.5979400e-01
  -6.0377000e-02   2.7222900e-01  -1.6002800e-01
  -5.5016100e-02   2.7363100e-01  -1.5651700e-01
  -6.0843100e-02   2.7106000e-01  -1.5792100e-01
  -6.2008500e-02   2.6545100e-01  -1.6260200e-01
  -6.1775500e-02   2.6638600e-01  -1.5956000e-01
  -6.2008500e-02   2.7339800e-01  -1.6494200e-01
  -6.5737900e-02   2.6498400e-01  -1.6166600e-01
  -6.1542400e-02   2.5797200e-01  -1.6704800e-01
  -5.7113800e-02   2.6545100e-01  -1.7055800e-01
  -5.4316900e-02   2.6031000e-01  -1.6775000e-01
  -5.1286800e-02   2.5680400e-01  -1.7664300e-01
  -5.3384500e-02   2.5727100e-01  -1.6985600e-01
  -4.6159000e-02   2.5890700e-01  -1.7594100e-01
  -4.6625200e-02   2.5937500e-01  -1.7991900e-01
  -4.1963500e-02   2.5540200e-01  -1.7921700e-01
  -3.2407200e-02   2.5960800e-01  -1.9208800e-01
  -3.3339500e-02   2.6264700e-01  -1.8459900e-01
  -3.4738000e-02   2.6708700e-01  -1.9044900e-01
  -3.0775600e-02   2.5797200e-01  -1.9840600e-01
  -1.4693000e-02   2.5703800e-01  -1.9419400e-01
  -7.4674700e-03   2.5890700e-01  -2.0098000e-01
  -1.0497500e-02   2.5002600e-01  -1.9981000e-01
  -1.1429900e-02   2.5470000e-01  -2.0378800e-01
  -4.4374100e-03   2.4955900e-01  -2.0519200e-01
   6.9835900e-03   2.4324800e-01  -2.1174500e-01
   3.9535300e-03   2.3787300e-01  -2.1314900e-01
   1.1878300e-02   2.3693800e-01  -2.0870300e-01
   2.0735400e-02   2.3623700e-01  -2.1548900e-01
   2.0502300e-02   2.2992700e-01  -2.0987300e-01
   2.9825600e-02   2.2735600e-01  -2.1572300e-01
   2.3532400e-02   2.2314900e-01  -2.1291500e-01
   3.4254100e-02   2.1894200e-01  -2.0753300e-01
   4.6141300e-02   2.1263200e-01  -2.0963900e-01
   3.9148800e-02   2.0959300e-01  -2.0332000e-01
   5.5231500e-02   1.9860900e-01  -2.0940500e-01
   5.8261500e-02   1.9673900e-01  -2.0495800e-01
   5.1968300e-02   1.9393400e-01  -1.9653400e-01
   5.5231500e-02   1.7780800e-01  -2.0004400e-01
   5.5697600e-02   1.7874300e-01  -1.9279000e-01
   6.4321600e-02   1.7290000e-01  -1.8319500e-01
   7.4577200e-02   1.6285000e-01  -1.8225900e-01
   7.1547200e-02   1.5747500e-01  -1.7570700e-01
   6.6419400e-02   1.5303400e-01  -1.6704800e-01
   7.0381800e-02   1.4906100e-01  -1.5651700e-01
   7.0148700e-02   1.3807600e-01  -1.5441100e-01
   6.9449400e-02   1.3129900e-01  -1.4528500e-01
   7.7607300e-02   1.2241800e-01  -1.3241400e-01
   8.1336600e-02   1.1190000e-01  -1.3381800e-01
   7.7840400e-02   1.0605700e-01  -1.1860700e-01
   8.5065900e-02   9.8578600e-02  -1.1135200e-01
   8.8096000e-02   8.7360200e-02  -1.0316200e-01
   8.0637300e-02   8.1049900e-02  -9.3333400e-02
   7.9238900e-02   7.5440700e-02  -9.1461200e-02
   8.2268900e-02   6.7494400e-02  -8.3972800e-02
   8.6697500e-02   6.1885300e-02  -7.5314200e-02
   8.1802800e-02   4.9965800e-02  -6.2677400e-02
   7.6675000e-02   4.2486900e-02  -5.9635200e-02
   7.5742600e-02   3.3605700e-02  -4.9806600e-02
   7.5043400e-02   2.5425700e-02  -4.5594400e-02
   7.4344100e-02   1.8180500e-02  -3.7871900e-02
   7.4810300e-02   4.8587300e-03  -2.7575200e-02
   6.9682500e-02   2.0541400e-03  -2.9213300e-02
   6.3156200e-02  -6.8270400e-03  -1.5640500e-02
   6.9449400e-02  -1.7577900e-02  -1.9384700e-02
   6.6419400e-02  -2.4122000e-02  -1.5172500e-02
   6.5720100e-02  -3.3470600e-02  -5.1098300e-03
   6.4321600e-02  -4.4221500e-02  -1.2364300e-02
   5.1968300e-02  -5.0531800e-02   2.1446300e-03
   6.0359300e-02  -5.9880400e-02  -1.8336200e-03
   5.8727700e-02  -7.3202200e-02  -8.9756200e-04
   4.9870600e-02  -7.6474200e-02   7.5269700e-03
   5.3366800e-02  -9.4704000e-02  -9.0880800e-03
   4.1712700e-02  -1.0265000e-01   2.8466700e-03
   4.5675100e-02  -1.1223300e-01  -8.9756200e-04
   4.8938300e-02  -1.2742400e-01  -8.3860300e-03
   3.5885700e-02  -1.2999500e-01   3.5487200e-03
   3.8216500e-02  -1.4799100e-01  -1.0258100e-02
   3.0991000e-02  -1.5126300e-01  -8.3860300e-03
   3.0757900e-02  -1.6552000e-01  -1.0024100e-02
   3.5419500e-02  -1.8047700e-01  -1.8916700e-02
   3.6584900e-02  -1.8421700e-01  -1.6576500e-02
   3.4953400e-02  -1.9870700e-01  -3.1319500e-02
   1.8870700e-02  -2.0314800e-01  -2.9915400e-02
   2.5863200e-02  -2.2114400e-01  -3.4127600e-02
   3.0991000e-02  -2.2909000e-01  -4.1616100e-02
   2.3998500e-02  -2.3610200e-01  -3.9042000e-02
   2.3066200e-02  -2.5433200e-01  -5.4720900e-02
   2.0269200e-02  -2.6087600e-01  -5.3784900e-02
   2.3765500e-02  -2.7513200e-01  -6.0337300e-02
   2.3066200e-02  -2.8845400e-01  -6.7591700e-02
   1.9336900e-02  -2.9523200e-01  -6.5953600e-02
   1.8637700e-02  -3.0598300e-01  -7.3208100e-02
   2.1201600e-02  -3.2281000e-01  -7.6718300e-02
   1.4209100e-02  -3.2982200e-01  -8.7483000e-02
   8.3820700e-03  -3.4361100e-01  -8.8419100e-02
   1.1412100e-02  -3.5529700e-01  -9.6843600e-02
   6.2843400e-03  -3.5903600e-01  -1.0035400e-01
   2.3219500e-03  -3.7703200e-01  -9.6141500e-02
   1.6227100e-03  -3.8287500e-01  -1.0269400e-01
   6.9835900e-03  -3.9572900e-01  -1.0129000e-01
  -1.4073500e-03  -4.0577900e-01  -1.0339600e-01
  -8.8659600e-03  -4.1582900e-01  -1.1111800e-01
  -3.5050800e-03  -4.2891700e-01  -1.1416100e-01
  -9.7982800e-03  -4.3429200e-01  -1.0690600e-01
  -7.9336300e-03  -4.4948400e-01  -1.0690600e-01
  -1.4226800e-02  -4.5205500e-01  -1.0948000e-01
  -2.0986200e-02  -4.6514300e-01  -1.0924600e-01
  -1.4926100e-02  -4.7332300e-01  -1.1299100e-01
  -2.5647800e-02  -4.7449100e-01  -1.0550200e-01
  -3.1474900e-02  -4.8454100e-01  -1.0409800e-01
  -2.6114000e-02  -4.9038400e-01  -1.0339600e-01
  -3.3339500e-02  -4.9575900e-01  -9.4035400e-02
  -3.8700400e-02  -4.9739500e-01  -9.4503400e-02
  -4.1730500e-02  -5.0557500e-01  -8.9823100e-02
  -4.0332000e-02  -5.0604300e-01  -8.1632600e-02
  -3.4738000e-02  -5.1048300e-01  -7.9994500e-02
  -4.7790600e-02  -5.1188600e-01  -7.3442100e-02
  -5.1519900e-02  -5.1095100e-01  -7.0399900e-02
  -5.0354500e-02  -5.1469000e-01  -6.1741400e-02
  -5.4783000e-02  -5.1025000e-01  -5.3784900e-02
  -5.2685300e-02  -5.1492400e-01  -4.9806600e-02
  -5.8512300e-02  -5.1141800e-01  -3.8573900e-02
  -5.2918400e-02  -5.1048300e-01  -3.6935800e-02
  -5.2452200e-02  -5.1235300e-01  -2.8979300e-02
  -6.8068700e-02  -5.0767900e-01  -1.8448700e-02
  -6.7835600e-02  -5.0651000e-01  -1.7746600e-02
  -7.1331800e-02  -5.0136900e-01  -1.0024100e-02
  -7.6226500e-02  -4.9903100e-01  -6.5139100e-03
  -7.0399500e-02  -4.9318900e-01  -4.4077800e-03
  -7.2031100e-02  -4.8197000e-01   4.7187900e-03
  -7.3895700e-02  -4.8010000e-01   1.1973200e-02
  -8.6249000e-02  -4.7589400e-01   1.5951500e-02
  -9.2542200e-02  -4.6724600e-01   2.0631800e-02
  -8.7880600e-02  -4.5766400e-01   2.7418200e-02
  -8.9512200e-02  -4.4925000e-01   2.7418200e-02
  -8.5083600e-02  -4.5018500e-01   2.9056300e-02
  -9.3940700e-02  -4.3289000e-01   4.0991100e-02
  -9.2542200e-02  -4.2798200e-01   4.3565200e-02
  -9.5339200e-02  -4.3242300e-01   4.6607400e-02
  -1.0373000e-01  -4.1559500e-01   5.5266000e-02
  -9.4873000e-02  -4.1372500e-01   5.3393800e-02
  -1.0582800e-01  -4.0133800e-01   5.3861900e-02
  -1.0676000e-01  -3.9456100e-01   6.2520400e-02
  -1.0139900e-01  -3.8801700e-01   6.8370800e-02
  -1.0489600e-01  -3.7469500e-01   7.0008900e-02
  -1.0885800e-01  -3.7259100e-01   7.7263300e-02
  -1.1235400e-01  -3.5693300e-01   7.7029300e-02
  -1.0909100e-01  -3.5436200e-01   7.4923200e-02
  -1.1282000e-01  -3.4571400e-01   8.4283800e-02
  -1.1305300e-01  -3.3519700e-01   8.4751800e-02
  -1.1188800e-01  -3.2795200e-01   8.6623900e-02
  -1.0559500e-01  -3.1603200e-01   8.9900100e-02
  -1.0139900e-01  -3.1205900e-01   8.8964100e-02
  -1.0909100e-01  -2.9756900e-01   9.6920600e-02
  -1.0442900e-01  -2.9009000e-01   1.0160100e-01
  -9.8369300e-02  -2.7840400e-01   9.6452500e-02
  -1.0303100e-01  -2.6718600e-01   9.8324700e-02
  -1.0442900e-01  -2.5643500e-01   1.0277100e-01
  -9.1143700e-02  -2.4194500e-01   1.0206900e-01
  -8.0422000e-02  -2.3703700e-01   1.0604700e-01
  -8.5549800e-02  -2.2137800e-01   1.0932300e-01
  -8.5083600e-02  -2.0735500e-01   1.1611000e-01
  -7.5993400e-02  -1.9707100e-01   1.1096100e-01
  -6.6670200e-02  -1.9146200e-01   1.1072700e-01
  -6.2008500e-02  -1.7767300e-01   1.2032200e-01
  -6.0843100e-02  -1.5804100e-01   1.1657800e-01
  -4.7091300e-02  -1.4916000e-01   1.2313000e-01
  -3.8700400e-02  -1.3560400e-01   1.2336400e-01
  -4.2895900e-02  -1.2835900e-01   1.2570400e-01
  -3.2174100e-02  -1.1363500e-01   1.2827900e-01
  -1.9820800e-02  -1.0335100e-01   1.2523600e-01
  -1.5392200e-02  -9.0730800e-02   1.3319300e-01
  -7.9336300e-03  -7.2501000e-02   1.2944900e-01
  -2.5727600e-03  -7.0163900e-02   1.3108700e-01
   5.5851000e-03  -5.3336400e-02   1.3951100e-01
   1.4908400e-02  -4.5390100e-02   1.3787300e-01
   1.7705300e-02  -3.7443700e-02   1.3787300e-01
   3.5652600e-02  -2.5056800e-02   1.4114900e-01
   4.8239000e-02  -1.5474500e-02   1.3880900e-01
   4.1013500e-02   3.4564300e-03   1.4068100e-01
   5.1269100e-02   5.7935900e-03   1.4021300e-01
   6.1291600e-02   2.6828000e-02   1.3529900e-01
   6.5254000e-02   4.1084600e-02   1.4255300e-01
   7.8073500e-02   4.0850900e-02   1.3834100e-01
   7.7374200e-02   5.8145800e-02   1.3483100e-01
   8.3201200e-02   6.5858400e-02   1.3857500e-01
   9.0426800e-02   7.9180200e-02   1.2991700e-01
   8.9727500e-02   8.8996200e-02   1.3272500e-01
   1.0091500e-01   9.9980800e-02   1.3436300e-01
   1.0371200e-01   1.0979700e-01   1.2593800e-01
   1.0487800e-01   1.1096500e-01   1.2804500e-01
   1.0138200e-01   1.2896200e-01   1.2476800e-01
   1.0534400e-01   1.3316800e-01   1.2125800e-01
   1.2072700e-01   1.3807600e-01   1.2266200e-01
   1.1560000e-01   1.5490400e-01   1.1657800e-01
   1.1490000e-01   1.5794200e-01   1.1494000e-01
   1.1187000e-01   1.7056300e-01   1.1306800e-01
   1.0790800e-01   1.7663900e-01   1.1166300e-01
   1.0860700e-01   1.7757400e-01   1.1447200e-01
   1.0627600e-01   1.8855900e-01   1.1072700e-01
   1.1280300e-01   1.9323300e-01   1.0581300e-01
   1.1280300e-01   1.9860900e-01   1.0019700e-01
   1.0977300e-01   1.9650500e-01   9.5750500e-02
   9.9750000e-02   2.0351700e-01   9.6452500e-02
   9.3689900e-02   2.0982700e-01   9.0602200e-02
   9.6020700e-02   2.0912600e-01   8.3815800e-02
   9.1126000e-02   2.1824100e-01   8.3113700e-02
   9.4622200e-02   2.1520200e-01   7.4455200e-02
   9.0659900e-02   2.1707200e-01   7.0008900e-02
   7.7141100e-02   2.1964300e-01   7.2817100e-02
   7.5043400e-02   2.2244800e-01   6.2286400e-02
   7.6908000e-02   2.2712200e-01   5.6670000e-02
   6.9449400e-02   2.2501900e-01   5.7840100e-02
   6.1291600e-02   2.2314900e-01   4.8479500e-02
   5.7329200e-02   2.1380000e-01   4.5905400e-02
