**************************************************************************************
  	RED ACELEROGRÁFICA DE LA UNIVERSIDAD AUTONOMA METROPOLITANA (RA-UAM)
	   UNIDAD AZCAPOTZALCO. DIVISIÓN CBI-DEPARTAMENTO DE MATERIALES
     Av. San Pablo 420, Col. Nueva el Rosario, Azcapotzalco, C.P. 02128, Ciudad de México
		Área de Estructuras. e-mail: agb@azc.uam.mx
**************************************************************************************
ARCHIVO ESTANDAR DE ACELERACION:
VERSION DEL FORMATO                    : 2.0
NOMBRE DEL ARCHIVO                     : RIDX202305.111
FECHA Y HORA DE CREACION               : 11:30 a. m. 18/05/2023
REF. CATALOGO ACELEROGRAMAS, SMIS 1999 : REGISTRO NO.      /PAG.    


================================================================================
DATOS DE LA ESTACION:
NOMBRE DE LA ESTACION                  : UAM-XOCHIMILCO.
CLAVE DE LA ESTACION                   : RIDX
LOCALIZACION DE LA ESTACION            : CALZADA DEL HUESO 1100, COL. VILLA
                                       : QUIETUD, DEL. COYOACAN, C.P.04960,  
                                       : CIUDAD DE MEXICO.
                                       : 
                                       : 
COORDENADAS DE LA ESTACION             : 19.301345 LAT. N
                                       : 99.10268 LONG. W
ALTITUD (msnm)                         : 2232
TIPO DE SUELO                          : LAGO
                                       : 
                                       : 
INSTITUCION RESPONSABLE                : UNIVERSIDAD AUTONOMA METROPOLITANA
                                       : 

================================================================================
DATOS DEL ACELEROGRAFO: 
MODELO DEL ACELEROGRAFO                : BASALT KINEMETRICS
NUMERO DE SERIE DEL ACELEROGRAFO       : 1729
NUMERO DE CANALES                      : 3
ORIENTACION C1-C6 (rumbo;orientacion)  : /V/N00E/N90E
ORIENTACION C7-C12 (rumbo;orientacion) : 
VEL. DE MUESTREO, C1-C6 (muestras/s)   : /200/200/200
VEL. DE MUESTREO, C7-C12 (muestras/s)  : 
ESC. COMPLETA DE SENSORES, C1-C6, (g)  : /2/2/2
ESC. COMPLETA DE SENSORES, C7-C12 (g)  : 
FREC. NAT. DE SENSORES, C1-C6, (Hz)    : /208/210/200   
FREC. NAT. DE SENSORES, C7-C12 (Hz)    : 
AMORTIGUAMIENTO DE SENSORES, C1-C6     : /0.7/0.7/0.7      
AMORTIGUAMIENTO DE SENSORES, C7-C12    : 
INTERVALO DE MUESTREO, C1-C6 (s)       : /0.005/0.005/0.005
INTERVALO DE MUESTREO, C7-C12 (s)      : 
UMBRAL DE DISPARO, C1-C6 (Gal)         : /2/2/2
UMBRAL DE DISPARO, C7-C12 (Gal)        : 
MEMORIA DE PREEVENTO (s)               : 60
TIEMPO DE POSEVENTO (s)                : 80


================================================================================
DATOS DEL SISMO:
FECHA DEL SISMO [GMT]                  : 2023/05/11
HORA EPICENTRO (GMT)                   : 04:20:17
MAGNITUD(ES)                           : /M=3.0
COORDENADAS DEL EPICENTRO              : 19.3600 LAT. N
                                       : -99.2200 LONG. W
PROFUNDIDAD FOCAL (Km)                 : 1.1
FUENTE DE LOS DATOS EPICENTRALES       : SSN
                                       : INSTITUTO DE GEOFISICA, UNAM

================================================================================
DATOS DE ESTE REGISTRO:
HORA DE LA PRIMERA MUESTRA (GMT)       : 04:19:27.000
EXACTITUD DEL TIEMPO (s)               : 
DURACION DEL REGISTRO (s), C1-C6       : /169/169/169
DURACION DEL REGISTRO (s), C7-C12      : 
NUM. TOTAL DE MUESTRAS, C1-C6          : /33800/33800/33800
NUM. TOTAL DE MUESTRAS, C7-C12         : 
ACEL. MAX.(Gal), C1-C6                 : /1.165/1.679/-1.087
ACEL. MAX., C1-C6, EN LA MUESTRA       : /13829/13846/14042
ACEL. MAX.(Gal), C7-C12                : 
ACEL. MAX., C7-C12,EN LA MUESTRA       : 
UNIDADES DE LOS DATOS                  : Gal (cm/s/s)
FACTOR DE DECIMACION                   : 1
FORMATO DATOS (FORTRAN,16 campos/dato) : 3E16.7


================================================================================
CALIDAD DEL ACELEROGRAMA:
REGISTRO DIGITAL COMPLETO CON TIEMPO ABSOLUTO CORRECTO


================================================================================
COMENTARIOS:














================================================================================
DATOS DE ACELERACION:
---------+---------+---------+---------+---------+---------+---------+---------+
   CANAL-1   	      CANAL-2          CANAL-3
      V                 N00E             N90E
---------+---------+---------+---------+---------+---------+---------+---------+
[...]
  -2.6325700e-01   3.7850900e-01   2.8525500e-01
  -2.5160300e-01   3.5326800e-01   2.4219600e-01
  -2.3924900e-01   3.4088100e-01   2.0756200e-01
  -2.1990400e-01   3.1914500e-01   1.6403500e-01
  -1.9659500e-01   2.9413800e-01   1.1840200e-01
  -1.7958100e-01   2.7941400e-01   7.3939300e-02
  -1.6909200e-01   2.4482400e-01   2.9944600e-02
  -1.5976900e-01   2.2425700e-01  -2.4814900e-02
  -1.4135500e-01   1.9551000e-01  -8.3084500e-02
  -1.1688200e-01   1.5975100e-01  -1.3316400e-01
  -9.4738800e-02   1.3591300e-01  -1.9751800e-01
  -7.2129900e-02   1.0272500e-01  -2.5812800e-01
  -5.3483400e-02   7.4211700e-02  -3.1195100e-01
  -4.0430800e-02   3.5414900e-02  -3.7794300e-01
  -3.1107600e-02   7.6028300e-03  -4.3831900e-01
  -1.7821900e-02  -1.5067600e-02  -4.9378000e-01
   2.6892400e-03  -4.9423700e-02  -5.5532600e-01
   1.3877200e-02  -7.1159200e-02  -6.1055400e-01
   1.8538800e-02  -9.8036500e-02  -6.5876100e-01
   2.5065100e-02  -1.2351100e-01  -7.1094600e-01
   2.8794400e-02  -1.5693300e-01  -7.6172700e-01
   2.9959800e-02  -1.9175600e-01  -8.0759400e-01
   2.8794400e-02  -2.2143800e-01  -8.4105800e-01
   3.2057500e-02  -2.6654500e-01  -8.6680000e-01
   3.5553700e-02  -3.0487400e-01  -8.8832900e-01
   3.8350700e-02  -3.4834600e-01  -8.9066900e-01
   4.7207800e-02  -3.9018100e-01  -8.9534900e-01
   4.8373200e-02  -4.2220000e-01  -8.9815800e-01
   4.6042400e-02  -4.5865900e-01  -8.8903100e-01
   4.7907100e-02  -4.8623800e-01  -8.7873400e-01
   5.4899500e-02  -5.2269700e-01  -8.4995100e-01
   7.0982100e-02  -5.5121000e-01  -8.2116700e-01
   8.5666300e-02  -5.7224500e-01  -7.8793700e-01
   1.0268100e-01  -6.0029100e-01  -7.3785800e-01
   1.2319200e-01  -6.1267800e-01  -6.9316100e-01
   1.4463600e-01  -6.1852000e-01  -6.3652900e-01
   1.6631200e-01  -6.1641700e-01  -5.7311100e-01
   1.8985400e-01  -6.1758600e-01  -5.1882000e-01
   2.1898900e-01  -6.0683500e-01  -4.5891200e-01
   2.4556000e-01  -5.8416400e-01  -4.0134400e-01
   2.7119900e-01  -5.6944000e-01  -3.4892500e-01
   2.9287600e-01  -5.3181200e-01  -2.8550700e-01
   3.0872500e-01  -4.9979300e-01  -2.2957800e-01
   3.2387600e-01  -4.6473600e-01  -1.8698700e-01
   3.3669500e-01  -4.1729200e-01  -1.2965300e-01
   3.4928100e-01  -3.8129900e-01  -8.6126700e-02
   3.5650700e-01  -3.3034900e-01  -5.6874900e-02
   3.5510900e-01  -2.8267200e-01  -1.9900600e-02
   3.4998100e-01  -2.3218900e-01   8.4152000e-03
   3.4042400e-01  -1.8007100e-01   3.9305100e-02
   3.2410900e-01  -1.2771800e-01   5.8026300e-02
   3.0406400e-01  -7.0224400e-02   7.5811400e-02
   2.8262000e-01  -2.4883600e-02   9.9914900e-02
   2.5255300e-01   3.4480100e-02   1.0927600e-01
   2.1759000e-01   7.8886000e-02   1.2167800e-01
   1.8402700e-01   1.2679800e-01   1.2916700e-01
   1.5372600e-01   1.7050200e-01   1.3150700e-01
   1.2179400e-01   2.0298900e-01   1.3759100e-01
   7.7275300e-02   2.7146700e-01   1.4250600e-01
   3.4388300e-02   3.1003000e-01   1.4180400e-01
  -4.3032100e-03   3.6004500e-01   1.4133600e-01
  -4.9987200e-02   3.9253200e-01   1.3759100e-01
  -9.5904300e-02   3.9884200e-01   1.2238000e-01
  -1.3925700e-01   4.3927500e-01   1.1091400e-01
  -1.7725000e-01   4.4885700e-01   8.6342100e-02
  -2.1710700e-01   4.8975700e-01   6.0366500e-02
  -2.6349000e-01   5.1196000e-01   4.6091600e-02
  -3.0917400e-01   5.1406400e-01   1.2861500e-02
  -3.4856500e-01   5.4234300e-01  -1.3582200e-02
  -3.8655700e-01   5.3883800e-01  -4.0961900e-02
  -4.2921100e-01   5.5893700e-01  -8.3318600e-02
  -4.6021100e-01   5.6174200e-01  -1.0859200e-01
  -4.8445100e-01   5.6267700e-01  -1.4416200e-01
  -5.1451900e-01   5.6220900e-01  -1.8979500e-01
  -5.4015800e-01   5.3766900e-01  -2.3121600e-01
  -5.5857100e-01   5.2902200e-01  -2.7684900e-01
  -5.7372100e-01   4.8298000e-01  -3.2014100e-01
  -5.8770600e-01   4.4862400e-01  -3.7045500e-01
  -5.9679600e-01   4.1052800e-01  -4.1398100e-01
  -5.9819500e-01   3.5256700e-01  -4.5446600e-01
  -5.9493200e-01   3.1493800e-01  -4.9612000e-01
  -5.8933800e-01   2.5370500e-01  -5.2630800e-01
  -5.8490900e-01   2.0135300e-01  -5.5509200e-01
  -5.8164600e-01   1.4082100e-01  -5.8153600e-01
  -5.7395400e-01   6.9771100e-02  -5.9768300e-01
  -5.5694000e-01   5.2656700e-03  -6.0915000e-01
  -5.3479700e-01  -7.0224400e-02  -6.1476600e-01
  -5.1684900e-01  -1.3519700e-01  -6.1640400e-01
  -4.9936800e-01  -2.1232300e-01  -6.1406400e-01
  -4.7675900e-01  -2.8243800e-01  -6.0259700e-01
  -4.4832400e-01  -3.5839500e-01  -5.8808800e-01
  -4.1033100e-01  -4.3552100e-01  -5.6304900e-01
  -3.7723400e-01  -4.9698800e-01  -5.3239300e-01
  -3.4460200e-01  -5.7107600e-01  -4.8956800e-01
  -3.0474500e-01  -6.1454700e-01  -4.3831900e-01
  -2.7118200e-01  -6.5801800e-01  -3.9128200e-01
  -2.4321200e-01  -7.0102200e-01  -3.3956500e-01
  -2.1244500e-01  -7.3140500e-01  -2.9252800e-01
  -1.7049000e-01  -7.7137000e-01  -2.3262000e-01
  -1.2830300e-01  -8.0946600e-01  -1.7154200e-01
  -9.4971900e-02  -8.5761100e-01  -1.0999600e-01
  -6.3739000e-02  -8.9126600e-01  -3.7451700e-02
  -2.6679000e-02  -9.3543800e-01   2.1520000e-02
   1.1546300e-02  -9.7423500e-01   8.5874100e-02
   4.6042400e-02  -9.9526900e-01   1.4367600e-01
   7.8673800e-02  -1.0333700e+00   2.0358300e-01
   1.1200400e-01  -1.0597700e+00   2.6536300e-01
   1.5162800e-01  -1.0913300e+00   3.2363300e-01
   1.8868800e-01  -1.1179700e+00   3.9664600e-01
   2.2108700e-01  -1.1401700e+00   4.5538300e-01
   2.5884600e-01  -1.1607400e+00   5.1482300e-01
   3.0429700e-01  -1.1649500e+00   5.6981600e-01
   3.4951500e-01  -1.1764000e+00   6.1778900e-01
   3.8960500e-01  -1.1677500e+00   6.6435800e-01
   4.3086000e-01  -1.1474200e+00   6.9805600e-01
   4.6675500e-01  -1.1256800e+00   7.3245700e-01
   4.9775400e-01  -1.0854800e+00   7.5071000e-01
   5.2642300e-01  -1.0441200e+00   7.7130300e-01
   5.5229500e-01  -9.8264900e-01   7.8862000e-01
   5.7863400e-01  -9.1907800e-01   7.8838600e-01
   6.0357300e-01  -8.5317100e-01   7.8862000e-01
   6.2268600e-01  -7.6716300e-01   7.7902600e-01
   6.2944500e-01  -6.8396100e-01   7.5796400e-01
   6.2781400e-01  -5.9047500e-01   7.3058400e-01
   6.2478400e-01  -5.0540200e-01   7.0320500e-01
   6.2338500e-01  -4.2079700e-01   6.7278300e-01
   6.2455100e-01  -3.3245300e-01   6.4563700e-01
   6.1289700e-01  -2.4574500e-01   6.2270400e-01
   5.8492700e-01  -1.5693300e-01   5.8807000e-01
   5.6325000e-01  -7.7002100e-02   5.5554200e-01
   5.4320500e-01   1.9989700e-02   5.2371600e-01
   5.1407000e-01   9.6180900e-02   4.8837900e-01
   4.8889700e-01   1.7821500e-01   4.5959600e-01
   4.6162700e-01   2.6492300e-01   4.2753500e-01
   4.2083800e-01   3.3457000e-01   3.9617800e-01
   3.7375500e-01   4.2478500e-01   3.6879800e-01
   3.2970300e-01   4.9466500e-01   3.4375800e-01
   2.8168800e-01   5.6688300e-01   3.1614500e-01
   2.3041000e-01   6.3325900e-01   2.8853100e-01
   1.7843300e-01   6.8935000e-01   2.6817100e-01
   1.2505700e-01   7.5151900e-01   2.4360000e-01
   6.7952100e-02   7.9428800e-01   2.2136900e-01
   2.6892400e-03   8.4383600e-01   1.9398900e-01
  -5.8844300e-02   8.7819200e-01   1.6590700e-01
  -1.1618200e-01   9.0974400e-01   1.4320800e-01
  -1.7818200e-01   9.3311500e-01   1.2261400e-01
  -2.4181300e-01   9.2470200e-01   9.8978900e-02
  -2.9472300e-01   9.2540300e-01   7.2067200e-02
  -3.4600100e-01   9.1441800e-01   5.6154200e-02
  -4.0916600e-01   8.9548700e-01   2.4328200e-02
  -4.6673700e-01   8.7281700e-01  -2.8175000e-03
  -5.1918000e-01   8.3659100e-01  -2.7389000e-02
  -5.6999200e-01   7.9732700e-01  -5.1960600e-02
  -6.1521000e-01   7.3399000e-01  -5.9449100e-02
  -6.5623200e-01   6.6691400e-01  -7.7234200e-02
  -6.9049500e-01   5.9843500e-01  -7.7936200e-02
  -7.2708900e-01   5.1640100e-01  -8.3786600e-02
  -7.5948700e-01   4.3413300e-01  -9.1275100e-02
  -7.8489300e-01   3.4438700e-01  -8.6360700e-02
  -8.0517100e-01   2.5230300e-01  -8.8934900e-02
  -8.0960000e-01   1.5788200e-01  -7.3489900e-02
  -8.1402800e-01   6.0656200e-02  -5.8981000e-02
  -8.1985500e-01  -4.2412200e-02  -4.0025800e-02
  -8.2148700e-01  -1.4033900e-01  -1.8730500e-02
  -8.2311900e-01  -2.3218900e-01   2.2468900e-04
  -8.1682500e-01  -3.3151800e-01   2.9008500e-02
  -8.0307400e-01  -4.2453700e-01   5.1941900e-02
  -7.8559300e-01  -5.1662100e-01   8.2363800e-02
  -7.6648000e-01  -6.0169300e-01   1.0974400e-01
  -7.4783300e-01  -6.8232500e-01   1.3712300e-01
  -7.2359300e-01  -7.6459200e-01   1.5958900e-01
  -6.8956300e-01  -8.2629300e-01   1.7690600e-01
  -6.5250300e-01  -8.8495600e-01   2.0569000e-01
  -6.1567600e-01  -9.4268300e-01   2.1528400e-01
  -5.7139100e-01  -9.9106300e-01   2.3072900e-01
  -5.2127800e-01  -1.0375700e+00   2.4289800e-01
  -4.6720300e-01  -1.0651500e+00   2.4594000e-01
  -4.0706800e-01  -1.0948300e+00   2.6044900e-01
  -3.4926400e-01  -1.1277900e+00   2.6325700e-01
  -2.8796300e-01  -1.1474200e+00   2.6793700e-01
  -2.2200100e-01  -1.1677500e+00   2.7238400e-01
  -1.4788100e-01  -1.1852800e+00   2.8268000e-01
  -6.3972100e-02  -1.1939300e+00   2.9461500e-01
   1.1313300e-02  -1.1976700e+00   3.0701800e-01
   9.1493300e-02  -1.2105200e+00   3.3018500e-01
   1.7493600e-01  -1.2037400e+00   3.5288500e-01
   2.5115400e-01  -1.1929900e+00   3.7769000e-01
   3.3273300e-01  -1.1901900e+00   4.0156000e-01
   4.1198000e-01  -1.1665800e+00   4.3057800e-01
   4.9076200e-01  -1.1534900e+00   4.5842500e-01
   5.6558100e-01  -1.1240500e+00   4.8440100e-01
   6.3364100e-01  -1.0943600e+00   5.0827100e-01
   7.0496400e-01  -1.0583700e+00   5.3448000e-01
   7.7092600e-01  -9.9877500e-01   5.5858400e-01
   8.3455700e-01  -9.5226600e-01   5.7496500e-01
   8.9399300e-01  -8.7093300e-01   5.9906800e-01
   9.4736900e-01  -7.9053500e-01   6.1708700e-01
   9.9771400e-01  -7.0686500e-01   6.2668200e-01
   1.0399000e+00  -6.0145900e-01   6.3276600e-01
   1.0809200e+00  -5.0002700e-01   6.2925600e-01
   1.1186800e+00  -3.7685900e-01   6.2340600e-01
   1.1454900e+00  -2.5976700e-01   6.1708700e-01
   1.1613400e+00  -1.2047300e-01   5.9555800e-01
   1.1646000e+00   2.4897800e-02   5.7847500e-01
   1.1559800e+00   1.6606200e-01   5.6045600e-01
   1.1354700e+00   3.2919500e-01   5.2605600e-01
   1.1098300e+00   4.6942400e-01   4.9937800e-01
   1.0827900e+00   6.1806700e-01   4.6123400e-01
   1.0415300e+00   7.6530800e-01   4.2613100e-01
   9.7603800e-01   8.9315000e-01   3.9688000e-01
   9.0564700e-01   1.0270700e+00   3.5826700e-01
   8.3618900e-01   1.1544400e+00   3.3088700e-01
   7.5507600e-01   1.2661600e+00   2.9204100e-01
   6.7326500e-01   1.3622200e+00   2.5740700e-01
   5.8795700e-01   1.4536000e+00   2.2558100e-01
   4.9658900e-01   1.5192700e+00   1.7877800e-01
   4.0685300e-01   1.5720900e+00   1.4742000e-01
   3.1781500e-01   1.6239800e+00   1.1419000e-01
   2.2015400e-01   1.6541300e+00   7.8853600e-02
   1.1456800e-01   1.6716600e+00   4.5623500e-02
   1.4809500e-02   1.6789000e+00   1.1223400e-02
  -8.8212600e-02   1.6779700e+00  -2.2474700e-02
  -1.8843800e-01   1.6648800e+00  -5.4534700e-02
  -2.8330200e-01   1.6454800e+00  -7.9340300e-02
  -3.7839900e-01   1.6211700e+00  -1.1023000e-01
  -4.6463900e-01   1.5858800e+00  -1.3199400e-01
  -5.5274400e-01   1.5461500e+00  -1.6288400e-01
  -6.3991700e-01   1.4970700e+00  -1.9471000e-01
  -7.1753300e-01   1.4405100e+00  -2.1951500e-01
  -7.8885600e-01   1.3811500e+00  -2.4619300e-01
  -8.5644900e-01   1.3133700e+00  -2.6444600e-01
  -9.1635100e-01   1.2430200e+00  -2.8948500e-01
  -9.6320100e-01   1.1673000e+00  -2.9908000e-01
  -1.0063200e+00   1.0871300e+00  -3.1241900e-01
  -1.0473400e+00   1.0086100e+00  -3.2295000e-01
  -1.0795100e+00   9.2937600e-01  -3.2646000e-01
  -1.1032800e+00   8.6206600e-01  -3.3090600e-01
  -1.1219300e+00   7.9031500e-01  -3.1429100e-01
  -1.1284600e+00   7.2370600e-01  -3.0235600e-01
  -1.1221600e+00   6.6410900e-01  -2.7755100e-01
  -1.1095800e+00   5.9422800e-01  -2.4619300e-01
  -1.0960600e+00   5.3416300e-01  -2.1483500e-01
  -1.0741500e+00   4.5820600e-01  -1.7575400e-01
  -1.0352200e+00   3.9159700e-01  -1.3597200e-01
  -9.8860700e-01   3.2615700e-01  -8.4956700e-02
  -9.3942600e-01   2.4435600e-01  -4.2132000e-02
  -8.9211100e-01   1.9784700e-01   1.2159400e-02
  -8.4176500e-01   1.3661400e-01   6.5046800e-02
  -7.7953200e-01   8.2625400e-02   1.0225500e-01
  -7.0797600e-01   4.5231000e-02   1.5490800e-01
  -6.3082600e-01  -8.2898100e-03   1.9890300e-01
  -5.5833800e-01  -3.1661300e-02   2.3447300e-01
  -4.9097700e-01  -6.5082600e-02   2.6840600e-01
  -4.1918800e-01  -8.1209000e-02   3.0116800e-01
  -3.4320400e-01  -8.5415900e-02   3.2971700e-01
  -2.7001600e-01  -9.8737600e-02   3.5054500e-01
  -2.0125700e-01  -8.6350700e-02   3.7558400e-01
  -1.3156600e-01  -9.9205100e-02   3.8307300e-01
  -6.0009700e-02  -9.4764500e-02   3.9992200e-01
   3.6215600e-03  -9.2427300e-02   4.1162200e-01
   6.1658900e-02  -1.1112500e-01   4.0881400e-01
   1.2645600e-01  -1.0621700e-01   4.1957900e-01
   1.9125200e-01  -1.1579900e-01   4.1349500e-01
   2.5045500e-01  -1.1837000e-01   4.0694200e-01
   3.0895800e-01  -1.2584900e-01   3.9922000e-01
   3.6000300e-01  -1.3286000e-01   3.8728500e-01
   4.0195800e-01  -1.3028900e-01   3.7464800e-01
   4.3995000e-01  -1.3496300e-01   3.6247900e-01
   4.7491200e-01  -1.3332700e-01   3.5382100e-01
   5.1150600e-01  -1.3496300e-01   3.4095000e-01
   5.3831100e-01  -1.2023900e-01   3.3931200e-01
   5.4856600e-01  -1.0668400e-01   3.2690900e-01
   5.6791200e-01  -9.8270200e-02   3.1684700e-01
   5.9052100e-01  -6.8822100e-02   3.2012300e-01
   5.9588200e-01  -4.4515700e-02   3.0608200e-01
   6.0054300e-01  -1.6937300e-02   2.9227500e-01
   6.0590400e-01   2.1625700e-02   2.9110500e-01
   6.0380700e-01   5.6916800e-02   2.7472400e-01
   5.9541600e-01   1.0973600e-01   2.4945000e-01
   5.8306200e-01   1.5975100e-01   2.3517500e-01
   5.7280700e-01   2.0766300e-01   2.0756200e-01
   5.5835600e-01   2.7427200e-01   1.7807600e-01
   5.3621300e-01   3.3270100e-01   1.5116400e-01
   5.0637800e-01   3.9486900e-01   1.1185000e-01
   4.7048400e-01   4.4301400e-01   7.7215500e-02
   4.3412300e-01   4.9396400e-01   3.4390800e-02
   3.8704100e-01   5.5122500e-01  -1.4752300e-02
   3.3180000e-01   5.7716700e-01  -5.8045000e-02
   2.8075600e-01   6.1479500e-01  -1.0344400e-01
   2.2598100e-01   6.3746500e-01  -1.5071500e-01
   1.6514700e-01   6.4330800e-01  -1.9728400e-01
   1.1014000e-01   6.4821600e-01  -2.4151200e-01
   5.4666400e-02   6.3396000e-01  -2.9229400e-01
  -1.0596400e-02   6.1760000e-01  -3.3699000e-01
  -7.2829200e-02   5.8254200e-01  -3.7607100e-01
  -1.2830300e-01   5.4608300e-01  -4.0930100e-01
  -1.8657300e-01   4.9910600e-01  -4.3527700e-01
  -2.4577600e-01   4.3600300e-01  -4.6359200e-01
  -3.0544500e-01   3.7406800e-01  -4.7435700e-01
  -3.6208300e-01   2.9483900e-01  -4.8582400e-01
  -4.1662400e-01   2.2238700e-01  -4.9541800e-01
  -4.7163200e-01   1.4035300e-01  -4.8886600e-01
  -5.2221000e-01   5.4112200e-02  -4.8676000e-01
  -5.6766100e-01  -1.6469800e-02  -4.7529300e-01
  -6.0612000e-01  -9.6166800e-02  -4.5727400e-01
  -6.4621000e-01  -1.6908600e-01  -4.4838100e-01
  -6.9049500e-01  -2.4434200e-01  -4.3457500e-01
  -7.2522400e-01  -3.1866400e-01  -4.1749200e-01
  -7.5785600e-01  -3.8316900e-01  -4.0836500e-01
  -7.8699100e-01  -4.5538700e-01  -4.0017400e-01
  -8.0097600e-01  -5.1405000e-01  -3.8613400e-01
  -8.0843400e-01  -5.6686900e-01  -3.7068900e-01
  -8.1402800e-01  -6.2085800e-01  -3.6203000e-01
  -8.1332900e-01  -6.6175800e-01  -3.5009500e-01
  -8.0423900e-01  -7.0569600e-01  -3.3675600e-01
