**************************************************************************************
  	RED ACELEROGRÁFICA DE LA UNIVERSIDAD AUTONOMA METROPOLITANA (RA-UAM)
	   UNIDAD AZCAPOTZALCO. DIVISIÓN CBI-DEPARTAMENTO DE MATERIALES
     Av. San Pablo 420, Col. Nueva el Rosario, Azcapotzalco, C.P. 02128, Ciudad de México
		Área de Estructuras. e-mail: agb@azc.uam.mx
**************************************************************************************
ARCHIVO ESTANDAR DE ACELERACION:
VERSION DEL FORMATO                    : 2.0
NOMBRE DEL ARCHIVO                     : RIDX202303.021
FECHA Y HORA DE CREACION               : 11:30 a. m. 09/03/2023
REF. CATALOGO ACELEROGRAMAS, SMIS 1999 : REGISTRO NO.      /PAG.    


================================================================================
DATOS DE LA ESTACION:
NOMBRE DE LA ESTACION                  : UAM-XOCHIMILCO.
CLAVE DE LA ESTACION                   : RIDX
LOCALIZACION DE LA ESTACION            : CALZADA DEL HUESO 1100, COL. VILLA
                                       : QUIETUD, DEL. COYOACAN, C.P.04960,  
                                       : CIUDAD DE MEXICO.
                                       : 
                                       : 
COORDENADAS DE LA ESTACION             : 19.301345 LAT. N
                                       : 99.10268 LONG. W
ALTITUD (msnm)                         : 2232
TIPO DE SUELO                          : LAGO
                                       : 
                                       : 
INSTITUCION RESPONSABLE                : UNIVERSIDAD AUTONOMA METROPOLITANA
                                       : 

================================================================================
DATOS DEL ACELEROGRAFO: 
MODELO DEL ACELEROGRAFO                : BASALT KINEMETRICS
NUMERO DE SERIE DEL ACELEROGRAFO       : 1729
NUMERO DE CANALES                      : 3
ORIENTACION C1-C6 (rumbo;orientacion)  : /V/N00E/N90E
ORIENTACION C7-C12 (rumbo;orientacion) : 
VEL. DE MUESTREO, C1-C6 (muestras/s)   : /200/200/200
VEL. DE MUESTREO, C7-C12 (muestras/s)  : 
ESC. COMPLETA DE SENSORES, C1-C6, (g)  : /2/2/2
ESC. COMPLETA DE SENSORES, C7-C12 (g)  : 
FREC. NAT. DE SENSORES, C1-C6, (Hz)    : /208/210/200   
FREC. NAT. DE SENSORES, C7-C12 (Hz)    : 
AMORTIGUAMIENTO DE SENSORES, C1-C6     : /0.7/0.7/0.7      
AMORTIGUAMIENTO DE SENSORES, C7-C12    : 
INTERVALO DE MUESTREO, C1-C6 (s)       : /0.005/0.005/0.005
INTERVALO DE MUESTREO, C7-C12 (s)      : 
UMBRAL DE DISPARO, C1-C6 (Gal)         : /2/2/2
UMBRAL DE DISPARO, C7-C12 (Gal)        : 
MEMORIA DE PREEVENTO (s)               : 60
TIEMPO DE POSEVENTO (s)                : 80


================================================================================
DATOS DEL SISMO:
FECHA DEL SISMO [GMT]                  : 2023/03/02
HORA EPICENTRO (GMT)                   : 04:40:43
MAGNITUD(ES)                           : /M=5.8
COORDENADAS DEL EPICENTRO              : 16.1700 LAT. N
                                       : -94.5300 LONG. W
PROFUNDIDAD FOCAL (Km)                 : 98.4
FUENTE DE LOS DATOS EPICENTRALES       : SSN
                                       : INSTITUTO DE GEOFISICA, UNAM

================================================================================
DATOS DE ESTE REGISTRO:
HORA DE LA PRIMERA MUESTRA (GMT)       : 04:43:06.000
EXACTITUD DEL TIEMPO (s)               : 
DURACION DEL REGISTRO (s), C1-C6       : /142/142/142
DURACION DEL REGISTRO (s), C7-C12      : 
NUM. TOTAL DE MUESTRAS, C1-C6          : /28400/28400/28400
NUM. TOTAL DE MUESTRAS, C7-C12         : 
ACEL. MAX.(Gal), C1-C6                 : /0.189/-0.440/0.578
ACEL. MAX., C1-C6, EN LA MUESTRA       : /5116/13942/12203
ACEL. MAX.(Gal), C7-C12                : 
ACEL. MAX., C7-C12,EN LA MUESTRA       : 
UNIDADES DE LOS DATOS                  : Gal (cm/s/s)
FACTOR DE DECIMACION                   : 1
FORMATO DATOS (FORTRAN,16 campos/dato) : 3E16.7


================================================================================
CALIDAD DEL ACELEROGRAMA:
REGISTRO DIGITAL COMPLETO CON TIEMPO ABSOLUTO CORRECTO


================================================================================
COMENTARIOS:














================================================================================
DATOS DE ACELERACION:
---------+---------+---------+---------+---------+---------+---------+---------+
   CANAL-1   	      CANAL-2          CANAL-3
      V                 N00E             N90E
---------+---------+---------+---------+---------+---------+---------+---------+
[...]
   8.6958700e-03   2.9267200e-02  -1.8034500e-01
   9.6282000e-03   2.1320900e-02  -1.8502500e-01
   9.1620300e-03   1.7815200e-02  -1.9298200e-01
   7.5304600e-03   1.3140900e-02  -2.0210800e-01
  -1.0935500e-03   8.9339800e-03  -2.0842700e-01
   1.2372600e-03   4.7271100e-03  -2.1708500e-01
   5.8988900e-03  -1.8169200e-03  -2.2714800e-01
   1.9365100e-03  -1.3494900e-03  -2.2808400e-01
   9.3951100e-03  -1.0464400e-02  -2.3370000e-01
   5.8988900e-03  -1.7242100e-02  -2.3955100e-01
  -8.6047300e-04  -2.4954700e-02  -2.4703900e-01
  -8.0860000e-03  -2.7525600e-02  -2.5335800e-01
  -1.1349100e-02  -2.5655900e-02  -2.6201600e-01
  -3.9431000e-04  -3.4537100e-02  -2.7137700e-01
  -6.2213500e-03  -3.3602200e-02  -2.6903700e-01
  -3.4243700e-03  -4.2717100e-02  -2.7535500e-01
  -8.7852500e-03  -4.7157700e-02  -2.7699300e-01
  -2.1837800e-02  -4.8793700e-02  -2.8190700e-01
  -1.6476900e-02  -5.7207400e-02  -2.9431000e-01
  -1.8807800e-02  -5.2065700e-02  -2.9758600e-01
  -1.5078400e-02  -5.9778300e-02  -3.0367100e-01
  -1.8108500e-02  -6.4686300e-02  -3.0156500e-01
  -2.1604700e-02  -6.7257200e-02  -3.0647900e-01
  -1.7409300e-02  -7.4034900e-02  -3.1490300e-01
  -2.2770100e-02  -7.2398900e-02  -3.1583900e-01
  -2.5567100e-02  -7.7073200e-02  -3.2637000e-01
  -2.6965600e-02  -7.7774400e-02  -3.2941200e-01
  -3.4424200e-02  -7.5904700e-02  -3.2917800e-01
  -3.3725000e-02  -7.8943000e-02  -3.3034800e-01
  -2.6033300e-02  -7.9176700e-02  -3.3596500e-01
  -3.3958100e-02  -8.1513800e-02  -3.3760300e-01
  -3.6521900e-02  -8.4785800e-02  -3.3409300e-01
  -3.7221200e-02  -8.2682400e-02  -3.4509100e-01
  -4.7243700e-02  -8.1280100e-02  -3.4532500e-01
  -3.9552000e-02  -8.2916100e-02  -3.4649500e-01
  -3.6988100e-02  -8.1046400e-02  -3.4907000e-01
  -4.3980600e-02  -7.7307000e-02  -3.4672900e-01
  -4.3514400e-02  -8.2448700e-02  -3.5258000e-01
  -4.6777500e-02  -8.2448700e-02  -3.4907000e-01
  -4.4213600e-02  -8.3149800e-02  -3.5772800e-01
  -4.4213600e-02  -8.7824100e-02  -3.5819600e-01
  -4.7476800e-02  -7.7540700e-02  -3.4953800e-01
  -3.6755000e-02  -8.1747500e-02  -3.6100400e-01
  -4.0950500e-02  -7.8241800e-02  -3.5445200e-01
  -4.2115900e-02  -7.4268700e-02  -3.5445200e-01
  -3.5589600e-02  -8.6188100e-02  -3.5679200e-01
  -4.5146000e-02  -7.7307000e-02  -3.4813400e-01
  -3.4191100e-02  -7.9410400e-02  -3.5913200e-01
  -2.9995700e-02  -7.5904700e-02  -3.4977200e-01
  -3.8619700e-02  -6.7958300e-02  -3.4509100e-01
  -2.6266400e-02  -7.2632700e-02  -3.5187800e-01
  -3.2559600e-02  -6.9126900e-02  -3.4017700e-01
  -3.5356500e-02  -6.9126900e-02  -3.4251700e-01
  -2.4168600e-02  -6.5387500e-02  -3.4368700e-01
  -2.8597200e-02  -6.1648000e-02  -3.3573100e-01
  -2.1837800e-02  -5.9778300e-02  -3.3292300e-01
  -1.8341600e-02  -5.3000600e-02  -3.3175200e-01
  -2.1138600e-02  -4.9962300e-02  -3.2590200e-01
  -1.3446900e-02  -4.7157700e-02  -3.2052000e-01
  -1.2048400e-02  -4.6924000e-02  -3.2309400e-01
  -9.2514100e-03  -4.6924000e-02  -3.2122200e-01
  -9.4844900e-03  -3.9678800e-02  -3.1818000e-01
  -5.7551900e-03  -3.7341600e-02  -3.1630800e-01
   3.3349900e-03  -2.9629000e-02  -3.0788300e-01
   4.9665700e-03  -2.3786200e-02  -3.0413900e-01
   4.7334800e-03  -2.1449000e-02  -3.0203300e-01
   2.6357500e-03  -9.9969600e-03  -2.9945800e-01
   9.6282000e-03  -1.3970100e-02  -2.9945800e-01
   1.4056700e-02  -1.0931800e-02  -2.9454400e-01
   1.2658300e-02  -6.4834600e-04  -2.8963000e-01
   1.9883800e-02   2.8573800e-03  -2.8565200e-01
   2.0583000e-02   9.1677000e-03  -2.8495000e-01
   1.8252200e-02   7.9991200e-03  -2.8143900e-01
   2.2447700e-02   1.3608300e-02  -2.7652500e-01
   2.5011600e-02   2.0152300e-02  -2.7371700e-01
   3.0139400e-02   1.6412900e-02  -2.6903700e-01
   3.4101800e-02   2.1320900e-02  -2.6833500e-01
   3.7598000e-02   2.8332300e-02  -2.6459000e-01
   4.2259600e-02   3.5110100e-02  -2.5944200e-01
   4.0161900e-02   4.3757600e-02  -2.5850600e-01
   3.7598000e-02   4.2589000e-02  -2.5710200e-01
   4.2259600e-02   4.2121500e-02  -2.5078300e-01
   5.0417500e-02   4.5159800e-02  -2.4376300e-01
   4.8552800e-02   5.3106200e-02  -2.3861500e-01
   4.9718200e-02   5.5677000e-02  -2.3440200e-01
   5.5079100e-02   5.8481600e-02  -2.3370000e-01
   5.4846000e-02   6.2688500e-02  -2.2902000e-01
   5.7876100e-02   6.2922200e-02  -2.2410600e-01
   5.8342200e-02   6.9232500e-02  -2.2223400e-01
   5.9973800e-02   6.6895400e-02  -2.1474500e-01
   6.2071500e-02   7.2037100e-02  -2.0936300e-01
   6.1605400e-02   7.4841700e-02  -2.0678900e-01
   6.1838500e-02   7.8581100e-02  -2.0117200e-01
   6.6033900e-02   8.5826300e-02  -2.0023600e-01
   6.8364700e-02   8.3489200e-02  -1.9696000e-01
   6.8364700e-02   8.8630900e-02  -1.9462000e-01
   7.3725600e-02   8.5592600e-02  -1.9087600e-01
   7.3259500e-02   8.9565800e-02  -1.8315300e-01
   7.4891000e-02   8.7696000e-02  -1.8315300e-01
   7.6755700e-02   8.9799500e-02  -1.8081300e-01
   7.2094000e-02   1.0148500e-01  -1.7566500e-01
   7.7454900e-02   1.0008300e-01  -1.7215400e-01
   8.2815800e-02   1.0195300e-01  -1.7028200e-01
   8.4447400e-02   1.0008300e-01  -1.6653800e-01
   8.3981200e-02   1.0919800e-01  -1.5741200e-01
   8.6078900e-02   1.0802900e-01  -1.5717800e-01
   8.8176700e-02   1.0686100e-01  -1.5975200e-01
   7.9785700e-02   1.1644300e-01  -1.5132700e-01
   8.5146600e-02   1.1574200e-01  -1.4945500e-01
   9.2372100e-02   1.1901400e-01  -1.4711500e-01
   9.7033800e-02   1.1620900e-01  -1.3869000e-01
   9.9364600e-02   1.2088400e-01  -1.3494600e-01
   8.9808200e-02   1.2181800e-01  -1.2792600e-01
   8.9342100e-02   1.2462300e-01  -1.2933000e-01
   8.9109000e-02   1.3303700e-01  -1.2511800e-01
   9.2838300e-02   1.3350400e-01  -1.2020300e-01
   9.6101400e-02   1.3630900e-01  -1.1926700e-01
   9.4469900e-02   1.3373800e-01  -1.0592800e-01
   9.9364600e-02   1.3864600e-01  -1.0663000e-01
   9.2372100e-02   1.3677600e-01  -1.0218400e-01
   8.9342100e-02   1.4191800e-01  -9.7269800e-02
   9.3071400e-02   1.4846200e-01  -1.0148200e-01
   8.8642800e-02   1.4869600e-01  -9.5163600e-02
   8.7710500e-02   1.5266900e-01  -9.3993600e-02
   8.4680400e-02   1.4892900e-01  -9.1419400e-02
   8.6545100e-02   1.5500600e-01  -8.7207100e-02
   8.9575200e-02   1.5173400e-01  -8.2760900e-02
   7.8853400e-02   1.5266900e-01  -7.9250600e-02
   7.8620300e-02   1.5547300e-01  -7.5740400e-02
   8.0718100e-02   1.5944700e-01  -7.4102300e-02
   7.3958700e-02   1.6248500e-01  -7.4336300e-02
   7.1161700e-02   1.5757700e-01  -6.7081900e-02
   7.3259500e-02   1.6342000e-01  -6.2401600e-02
   7.0928600e-02   1.5524000e-01  -5.4913100e-02
   6.4169300e-02   1.5757700e-01  -5.0700900e-02
   6.1605400e-02   1.5921300e-01  -4.4616500e-02
   6.1139200e-02   1.6038100e-01  -4.1574300e-02
   6.1605400e-02   1.6412100e-01  -4.1808300e-02
   5.7876100e-02   1.5640800e-01  -3.1043600e-02
   5.4612900e-02   1.5477200e-01  -2.7299400e-02
   4.9951300e-02   1.4565700e-01  -2.0278900e-02
   4.5988900e-02   1.5150000e-01  -1.3492500e-02
   4.3891200e-02   1.5126700e-01  -9.5142700e-03
   4.1560400e-02   1.4542400e-01  -5.0679900e-03
   4.1560400e-02   1.5079900e-01   4.9946400e-03
   3.5733300e-02   1.4612500e-01   1.4589200e-02
   3.3868700e-02   1.3817900e-01   1.1079000e-02
   2.1748400e-02   1.3817900e-01   2.6290000e-02
   1.3823700e-02   1.3934700e-01   3.4948500e-02
   1.9883800e-02   1.2836200e-01   3.4246500e-02
   1.4989100e-02   1.2999800e-01   4.4543100e-02
   1.0094400e-02   1.2625900e-01   5.1329500e-02
   5.1996500e-03   1.2322100e-01   6.3264300e-02
   6.8312200e-03   1.2181800e-01   6.7710600e-02
  -1.6122800e-04   1.1130100e-01   7.1454800e-02
  -1.2747600e-02   1.1574200e-01   8.5495700e-02
  -1.2514500e-02   1.0756200e-01   9.1814100e-02
  -1.1815300e-02   1.0008300e-01   9.7898500e-02
  -1.5311500e-02   9.9849200e-02   1.1334300e-01
  -2.2537100e-02   9.8680600e-02   1.1989600e-01
  -2.2537100e-02   9.3071500e-02   1.2527800e-01
  -2.6732500e-02   8.4190300e-02   1.3814900e-01
  -2.9762600e-02   8.4891400e-02   1.4727600e-01
  -2.5334000e-02   7.7178800e-02   1.5850800e-01
  -3.2326500e-02   7.7646300e-02   1.6482700e-01
  -3.4657300e-02   7.5776500e-02   1.7371900e-01
  -3.3725000e-02   7.5542800e-02   1.8776000e-01
  -3.6288900e-02   7.7412600e-02   1.9267400e-01
  -3.3491900e-02   6.3623400e-02   2.0460900e-01
  -3.8153500e-02   6.5259400e-02   2.1911800e-01
  -4.0717400e-02   5.8949000e-02   2.2496800e-01
  -3.8852800e-02   5.4041000e-02   2.3503100e-01
  -4.2582100e-02   5.5677000e-02   2.4392400e-01
  -4.1649700e-02   5.0535300e-02   2.5445400e-01
  -4.1649700e-02   5.2872500e-02   2.6498500e-01
  -4.6544500e-02   4.6328400e-02   2.7130300e-01
  -5.2837700e-02   4.6562100e-02   2.8932200e-01
  -5.1206100e-02   3.9784400e-02   2.9727900e-01
  -4.5379000e-02   3.3941500e-02   3.0336300e-01
  -4.9108400e-02   4.2822700e-02   3.1717000e-01
  -4.9108400e-02   3.7914700e-02   3.2231900e-01
  -4.8176000e-02   3.6979800e-02   3.3261500e-01
  -5.3070700e-02   3.3474100e-02   3.4595400e-01
  -5.2138400e-02   2.4826600e-02   3.5461300e-01
  -5.4702300e-02   2.4826600e-02   3.6467500e-01
  -4.8642200e-02   2.1320900e-02   3.7286600e-01
  -4.0251300e-02   1.7581400e-02   3.8269400e-01
  -4.9807600e-02   1.9684900e-02   3.9860700e-01
  -4.3048200e-02   1.1738600e-02   4.0235200e-01
  -4.0950500e-02   8.7002700e-03   4.1335000e-01
  -4.7476800e-02   9.4014100e-03   4.2902900e-01
  -4.1649700e-02  -5.3226500e-03   4.2856100e-01
  -4.6078300e-02  -6.0238000e-03   4.4377200e-01
  -3.6755000e-02  -9.5295300e-03   4.5219700e-01
  -3.0461800e-02  -1.1633000e-02   4.5687700e-01
  -3.7454300e-02  -8.1272300e-03   4.7068400e-01
  -3.2093400e-02  -1.9813000e-02   4.7302400e-01
  -2.8131000e-02  -2.2383900e-02   4.8378900e-01
  -2.7664800e-02  -3.2901100e-02   4.8800100e-01
  -2.9995700e-02  -3.4537100e-02   4.9689300e-01
  -2.3003200e-02  -3.5238200e-02   5.0859400e-01
  -1.0416800e-02  -4.6924000e-02   5.0929600e-01
  -1.4845400e-02  -4.3184500e-02   5.2403900e-01
  -1.3913000e-02  -5.2766900e-02   5.2637900e-01
  -7.6198400e-03  -5.8142300e-02   5.3012400e-01
  -4.8228600e-03  -6.2816600e-02   5.3878200e-01
   7.7109800e-04  -7.2632700e-02   5.3761200e-01
   4.5004000e-03  -6.8192100e-02   5.4790900e-01
   9.3951100e-03  -7.4736100e-02   5.5141900e-01
   1.2192100e-02  -7.5437200e-02   5.5539700e-01
   1.4056700e-02  -7.8709200e-02   5.5750300e-01
   1.1259800e-02  -9.0161300e-02   5.5656700e-01
   1.7786000e-02  -8.9693900e-02   5.6546000e-01
   3.5733300e-02  -9.8107600e-02   5.6850200e-01
   2.9906300e-02  -1.0067800e-01   5.7271400e-01
   3.1770900e-02  -1.0091200e-01   5.7224600e-01
   4.2958900e-02  -1.0862500e-01   5.7131000e-01
   4.0395000e-02  -1.0395000e-01   5.7692700e-01
   4.6688200e-02  -1.0979300e-01   5.7341600e-01
   4.9019000e-02  -1.1914200e-01   5.7458600e-01
   5.8575300e-02  -1.2171300e-01   5.7786300e-01
   6.3936200e-02  -1.2965900e-01   5.7435200e-01
   6.1139200e-02  -1.2942500e-01   5.7599000e-01
   6.7898600e-02  -1.3082800e-01   5.7271400e-01
   6.7432400e-02  -1.3106100e-01   5.6967200e-01
   7.3026400e-02  -1.3129500e-01   5.6780000e-01
   7.4424900e-02  -1.4111100e-01   5.6265200e-01
   7.5124100e-02  -1.4625300e-01   5.6429000e-01
   8.4214300e-02  -1.5279700e-01   5.6078000e-01
   8.6312000e-02  -1.5723800e-01   5.5141900e-01
   8.1883500e-02  -1.4975900e-01   5.5001500e-01
   8.4447400e-02  -1.5209600e-01   5.4861100e-01
   9.3071400e-02  -1.5864000e-01   5.3854800e-01
   8.7477400e-02  -1.5840600e-01   5.3808000e-01
   8.9808200e-02  -1.6939100e-01   5.3082600e-01
   9.2372100e-02  -1.7406500e-01   5.2474100e-01
   9.6101400e-02  -1.7126000e-01   5.2450700e-01
   1.0659000e-01  -1.7546700e-01   5.1257200e-01
   9.5169100e-02  -1.7500000e-01   5.1163600e-01
   8.9109000e-02  -1.7967400e-01   5.0461600e-01
   9.2605200e-02  -1.8528300e-01   4.9759600e-01
   9.5402200e-02  -1.9112600e-01   4.9104300e-01
   9.6800700e-02  -1.9416500e-01   4.8238500e-01
   9.1672900e-02  -1.9323000e-01   4.7747000e-01
   9.4469900e-02  -1.9907300e-01   4.6459900e-01
   9.0507500e-02  -1.9673500e-01   4.5781300e-01
   8.6312000e-02  -1.9860500e-01   4.4494200e-01
   8.8642800e-02  -2.0421400e-01   4.3371000e-01
   8.1650400e-02  -2.0257800e-01   4.2996500e-01
   7.7221800e-02  -2.1122600e-01   4.1826500e-01
   7.3725600e-02  -2.0912200e-01   4.0750000e-01
   7.3492500e-02  -2.1005700e-01   3.9556500e-01
   7.3026400e-02  -2.1636800e-01   3.8058800e-01
   6.9763200e-02  -2.1309600e-01   3.7263200e-01
   6.7898600e-02  -2.2431400e-01   3.6280300e-01
   5.1816000e-02  -2.1964000e-01   3.5812300e-01
   5.0184400e-02  -2.2034100e-01   3.4455000e-01
   5.6011400e-02  -2.3296100e-01   3.2536100e-01
   3.9928800e-02  -2.2244400e-01   3.2325500e-01
   3.9229600e-02  -2.2758600e-01   3.0242700e-01
   4.2958900e-02  -2.3015700e-01   2.9447100e-01
   2.9906300e-02  -2.2314500e-01   2.8932200e-01
   2.3380000e-02  -2.3109200e-01   2.6943100e-01
   1.9184500e-02  -2.3202600e-01   2.6264500e-01
   1.6154500e-02  -2.3015700e-01   2.4673200e-01
   1.3590600e-02  -2.3226000e-01   2.2824500e-01
   5.1996500e-03  -2.2524900e-01   2.1818200e-01
   4.2673200e-03  -2.2595000e-01   2.1303400e-01
   1.4703400e-03  -2.2828700e-01   1.9805700e-01
  -1.2281500e-02  -2.2010700e-01   1.8635600e-01
  -1.9273900e-02  -2.2197700e-01   1.7488900e-01
  -1.8807800e-02  -2.2127600e-01   1.5663600e-01
  -1.7875400e-02  -2.1683500e-01   1.4774400e-01
  -2.1837800e-02  -2.1519900e-01   1.3674500e-01
  -2.9762600e-02  -2.0935600e-01   1.2364000e-01
  -3.6988100e-02  -2.0491500e-01   1.1662000e-01
  -3.7920400e-02  -2.0421400e-01   9.9770600e-02
  -3.8619700e-02  -2.0117600e-01   8.2687500e-02
  -4.7709900e-02  -1.9626800e-01   8.1985500e-02
  -4.5845200e-02  -2.0094200e-01   6.0924100e-02
  -5.2604600e-02  -1.9439800e-01   4.9223400e-02
  -5.8198500e-02  -1.8294600e-01   4.5479200e-02
  -5.6100800e-02  -1.8388100e-01   2.5353900e-02
  -6.9386400e-02  -1.7967400e-01   1.7631400e-02
  -6.6356400e-02  -1.7757100e-01   6.1647100e-03
  -7.2649600e-02  -1.7687000e-01  -3.1958700e-03
  -7.4514200e-02  -1.7523400e-01  -1.3726500e-02
  -6.4025600e-02  -1.7967400e-01  -2.6831400e-02
  -7.7311200e-02  -1.7079300e-01  -3.5723900e-02
  -7.9642000e-02  -1.6448300e-01  -4.9296800e-02
  -8.3837500e-02  -1.6565100e-01  -5.8423300e-02
  -8.8965300e-02  -1.5583500e-01  -6.4273700e-02
  -8.0574400e-02  -1.6167800e-01  -7.8548600e-02
  -8.3604400e-02  -1.6237900e-01  -9.1653400e-02
  -8.7333700e-02  -1.5817200e-01  -9.7971800e-02
  -8.8499100e-02  -1.5910700e-01  -1.0826800e-01
  -9.2694600e-02  -1.5326400e-01  -1.1645900e-01
  -9.2461500e-02  -1.6121100e-01  -1.2535200e-01
  -9.6657000e-02  -1.5139500e-01  -1.3377600e-01
  -1.0038600e-01  -1.4695400e-01  -1.4430700e-01
  -9.6890100e-02  -1.5887400e-01  -1.5390100e-01
  -9.2927700e-02  -1.5536800e-01  -1.6045400e-01
  -9.6890100e-02  -1.5513400e-01  -1.6653800e-01
  -9.9687000e-02  -1.5560200e-01  -1.7519700e-01
  -9.9454000e-02  -1.5373200e-01  -1.8783300e-01
  -1.0971000e-01  -1.5186200e-01  -1.8947200e-01
  -1.0248400e-01  -1.5490000e-01  -2.0070400e-01
  -1.0295000e-01  -1.5536800e-01  -2.1123500e-01
  -1.0411600e-01  -1.5677000e-01  -2.1334100e-01
  -9.7589300e-02  -1.5864000e-01  -2.2551000e-01
  -1.1017600e-01  -1.5747100e-01  -2.3229600e-01
  -1.0318300e-01  -1.6004200e-01  -2.4072100e-01
  -1.0155200e-01  -1.5326400e-01  -2.4657100e-01
  -1.0178500e-01  -1.5233000e-01  -2.5429400e-01
  -9.8288600e-02  -1.5466700e-01  -2.6786600e-01
