**************************************************************************************
  	RED ACELEROGRÁFICA DE LA UNIVERSIDAD AUTONOMA METROPOLITANA (RA-UAM)
	   UNIDAD AZCAPOTZALCO. DIVISIÓN CBI-DEPARTAMENTO DE MATERIALES
     Av. San Pablo 420, Col. Nueva el Rosario, Azcapotzalco, C.P. 02128, Ciudad de México
		Área de Estructuras. e-mail: agb@azc.uam.mx
**************************************************************************************
ARCHIVO ESTANDAR DE ACELERACION:
VERSION DEL FORMATO                    : 2.0
NOMBRE DEL ARCHIVO                     : RUMC202312.121
FECHA Y HORA DE CREACION               : 11:30 a. m. 19/12/2023
REF. CATALOGO ACELEROGRAMAS, SMIS 1999 : REGISTRO NO.      /PAG.    


================================================================================
DATOS DE LA ESTACION:
NOMBRE DE LA ESTACION                  : UAM-CUAJIMALPA.
CLAVE DE LA ESTACION                   : RUMC
LOCALIZACION DE LA ESTACION            : AV. VASCO DE QUIROGA 4871, COL. SANTA FE,
                                       : CUAJIMALPA DE MORELOS, C.P 05348, CIUDAD DE MEXICO.   
                                       : 
                                       : 
                                       : 
COORDENADAS DE LA ESTACION             : 19.35303 LAT. N
                                       : -99.28219 LONG. W
ALTITUD (msnm)                         : 2671
TIPO DE SUELO                          : DEPOSITOS LACUSTRES
                                       : 
                                       : 
INSTITUCION RESPONSABLE                : UNIVERSIDAD AUTONOMA METROPOLITANA
                                       : 

================================================================================
DATOS DEL ACELEROGRAFO: 
MODELO DEL ACELEROGRAFO                : ETNA2 KINEMETRICS
NUMERO DE SERIE DEL ACELEROGRAFO       : 104252
NUMERO DE CANALES                      : 3
ORIENTACION C1-C6 (rumbo;orientacion)  : /N90E/N00E/V 
ORIENTACION C7-C12 (rumbo;orientacion) : 
VEL. DE MUESTREO, C1-C6 (muestras/s)   : /200/200/200
VEL. DE MUESTREO, C7-C12 (muestras/s)  : 
ESC. COMPLETA DE SENSORES, C1-C6, (g)  : /2/2/2
ESC. COMPLETA DE SENSORES, C7-C12 (g)  : 
FREC. NAT. DE SENSORES, C1-C6, (Hz)    : /204/216/208   
FREC. NAT. DE SENSORES, C7-C12 (Hz)    : 
AMORTIGUAMIENTO DE SENSORES, C1-C6     : /0.7/0.7/0.7      
AMORTIGUAMIENTO DE SENSORES, C7-C12    : 
INTERVALO DE MUESTREO, C1-C6 (s)       : /0.005/0.005/0.005
INTERVALO DE MUESTREO, C7-C12 (s)      : 
UMBRAL DE DISPARO, C1-C6 (Gal)         : /2/2/2
UMBRAL DE DISPARO, C7-C12 (Gal)        : 
MEMORIA DE PREEVENTO (s)               : 50
TIEMPO DE POSEVENTO (s)                : 60


================================================================================
DATOS DEL SISMO:
FECHA DEL SISMO [GMT]                  : 2023/12/12
HORA EPICENTRO (GMT)                   : 17:06:27
MAGNITUD(ES)                           : /M=2.8
COORDENADAS DEL EPICENTRO              : 19.3630 LAT. N
                                       : -99.2000 LONG. W
PROFUNDIDAD FOCAL (Km)                 : 1.0
FUENTE DE LOS DATOS EPICENTRALES       : SSN
                                       : INSTITUTO DE GEOFISICA, UNAM

================================================================================
DATOS DE ESTE REGISTRO:
HORA DE LA PRIMERA MUESTRA (GMT)       : 17:05:43.000
EXACTITUD DEL TIEMPO (s)               : 
DURACION DEL REGISTRO (s), C1-C6       : /125/125/125
DURACION DEL REGISTRO (s), C7-C12      : 
NUM. TOTAL DE MUESTRAS, C1-C6          : /25000/25000/25000
NUM. TOTAL DE MUESTRAS, C7-C12         : 
ACEL. MAX.(Gal), C1-C6                 : /-0.670/0.643/-0.457
ACEL. MAX., C1-C6, EN LA MUESTRA       : /11573/11084/10400
ACEL. MAX.(Gal), C7-C12                : 
ACEL. MAX., C7-C12,EN LA MUESTRA       : 
UNIDADES DE LOS DATOS                  : Gal (cm/s/s)
FACTOR DE DECIMACION                   : 1
FORMATO DATOS (FORTRAN,16 campos/dato) : 3E16.7


================================================================================
CALIDAD DEL ACELEROGRAMA:
REGISTRO DIGITAL COMPLETO CON TIEMPO ABSOLUTO CORRECTO


================================================================================
COMENTARIOS:














================================================================================
DATOS DE ACELERACION:
---------+---------+---------+---------+---------+---------+---------+---------+
   CANAL-1   	     CANAL-2          CANAL-3
     N90E              N00E              V
---------+---------+---------+---------+---------+---------+---------+---------+ 
[...]
   2.7841500e-01   1.7346100e-01  -2.1626700e-01
   3.0129300e-01   2.3797700e-01  -1.9617600e-01
   2.3732700e-01   3.3895800e-01  -1.1791200e-01
   2.7631400e-01   3.5485400e-01  -9.9923400e-02
   2.6277300e-01   3.8991600e-01  -4.2686100e-02
   2.2402000e-01   4.2077200e-01   1.5953000e-02
   2.3522600e-01   4.3830300e-01   4.1885000e-02
   1.7639500e-01   4.4110800e-01   9.1646500e-02
   1.7359400e-01   4.4742000e-01   7.0386900e-02
   1.1359600e-01   5.2619400e-01   1.2996000e-01
   8.0212400e-02   5.2946700e-01   1.9280500e-01
   9.8188400e-02   4.9487100e-01   1.9046900e-01
   1.2744200e-02   5.4863400e-01   2.6335900e-01
  -3.7915300e-02   5.5938700e-01   3.3531400e-01
  -1.1768400e-02   4.7453500e-01   3.1288600e-01
  -7.7835900e-02   5.0375400e-01   3.1569000e-01
  -1.0631700e-01   5.0702700e-01   3.2970700e-01
  -5.2622900e-02   4.5864000e-01   3.0377500e-01
  -1.1075300e-01   5.0772800e-01   3.5049900e-01
  -1.0748500e-01   4.9674100e-01   3.5306900e-01
  -1.1122000e-01   5.0772800e-01   3.9512100e-01
  -1.4343600e-01   4.7617100e-01   3.8998200e-01
  -1.5347500e-01   4.2614800e-01   3.3998700e-01
  -1.5954500e-01   4.1773300e-01   3.4442500e-01
  -1.4857200e-01   3.4807500e-01   2.9816800e-01
  -1.3293100e-01   3.2329700e-01   2.5378000e-01
  -1.4670500e-01   3.6350200e-01   2.5915300e-01
  -1.5977800e-01   3.1324600e-01   2.5985400e-01
  -1.2919600e-01   2.4849600e-01   1.8860000e-01
  -1.9853200e-01   2.5854700e-01   1.9747700e-01
  -1.4343600e-01   1.5826800e-01   1.4935100e-01
  -1.0351600e-01   1.0777700e-01   7.5293000e-02
  -1.6608100e-01   1.0193300e-01   4.8660100e-02
  -9.4878000e-02   2.8768600e-02  -1.5352300e-02
  -8.1804600e-02   4.8871300e-02  -4.8393400e-03
  -9.8379800e-02   5.6351400e-02  -3.8013600e-02
  -7.9236600e-02   1.9652200e-02  -8.1700900e-02
  -8.6006800e-02  -3.3409600e-02  -7.3056900e-02
  -3.7448400e-02  -1.5659700e-01  -1.7538300e-01
  -3.2779300e-02  -1.6337600e-01  -2.3285400e-01
  -1.8305100e-02  -1.6571400e-01  -2.2818200e-01
   3.2354400e-02  -2.3911200e-01  -2.8869000e-01
  -4.5313600e-03  -2.0615300e-01  -2.7303700e-01
   1.3678000e-02  -2.0778900e-01  -2.3355500e-01
   3.3755100e-02  -2.6552600e-01  -2.3051800e-01
   1.2977700e-02  -2.7300600e-01  -2.4570300e-01
   2.0681700e-02  -2.9240800e-01  -2.5084300e-01
   4.3093200e-02  -3.6487100e-01  -2.5948700e-01
   5.1731000e-02  -3.9338900e-01  -2.9055900e-01
   4.9629900e-02  -3.6604000e-01  -2.9850200e-01
   2.9319500e-02  -3.3635300e-01  -2.5902000e-01
   3.9824900e-02  -3.7749300e-01  -2.4990900e-01
   5.4999400e-02  -4.0928400e-01  -2.3425600e-01
   2.9552900e-02  -3.7632500e-01  -1.4431200e-01
   4.2392900e-02  -4.2050400e-01  -1.2538800e-01
   1.6479500e-02  -4.9296700e-01  -1.4898400e-01
  -1.1068100e-02  -4.9834400e-01  -1.2118300e-01
   2.0053500e-03  -4.5767100e-01  -7.1187900e-02
  -4.2979100e-03  -4.3616500e-01  -5.6236100e-02
  -4.4452000e-02  -4.1769900e-01  -6.4746900e-03
  -5.4724000e-02  -4.2985400e-01   6.6415300e-02
  -6.9665000e-02  -4.4387900e-01   9.2113700e-02
  -9.4878000e-02  -4.6117700e-01   6.8050700e-02
  -9.1843100e-02  -4.7216300e-01   6.6648900e-02
  -9.3944200e-02  -4.7239700e-01   1.1898000e-01
  -6.4762500e-02  -4.7380000e-01   8.8375800e-02
  -1.0655100e-01  -3.8731100e-01   1.2832500e-01
  -9.3477300e-02  -3.5224800e-01   1.7715200e-01
  -7.0598800e-02  -3.3308000e-01   1.5379000e-01
  -1.1145300e-01  -3.4102800e-01   1.6734000e-01
  -3.9082500e-02  -3.5645600e-01   1.6874200e-01
  -1.2935700e-02  -3.2536700e-01   1.6290100e-01
  -2.1806900e-02  -3.0736800e-01   1.0589700e-01
   4.7295400e-02  -2.5991600e-01   7.0854100e-02
   7.4142600e-02  -1.9914000e-01   8.6506800e-02
   8.5348400e-02  -1.2504100e-01   6.9686000e-02
   1.4931500e-01  -9.0912800e-02   3.7446200e-02
   1.4978200e-01  -5.2109800e-02   7.7395600e-02
   2.1795000e-01  -9.3016500e-02   1.2448700e-02
   2.2822200e-01  -7.2913800e-02  -4.1985200e-02
   2.1538200e-01   3.5233200e-03  -3.6144700e-02
   3.1156500e-01   1.2172200e-02  -1.0903500e-01
   2.7701400e-01   7.5986600e-02  -1.0599800e-01
   3.0526200e-01   1.0941300e-01  -1.0132500e-01
   3.6455900e-01   1.3629500e-01  -1.0786700e-01
   3.1856900e-01   1.4774900e-01  -8.5438900e-02
   3.4938500e-01   9.7491900e-02  -1.3473300e-01
   3.2487200e-01   1.3138600e-01  -1.2538800e-01
   3.1086500e-01   1.2273700e-01  -1.4314300e-01
   2.7888200e-01   1.6270900e-01  -2.1650100e-01
   2.1001300e-01   2.4709400e-01  -1.3473300e-01
   3.1273300e-01   1.6177400e-01  -2.4219900e-01
   1.0215700e-01   3.3054300e-01  -1.1183800e-01
   1.9460500e-01   2.1553700e-01  -1.8916700e-01
   1.3344000e-01   2.7304000e-01  -1.6276800e-01
  -1.7299100e-03   3.0997300e-01  -7.7262100e-02
   1.1779800e-01   1.4985200e-01  -2.6345900e-01
  -8.8341300e-02   3.5111400e-01  -5.2264600e-02
   4.1926000e-02   2.6930000e-01  -1.9757700e-01
  -1.2662800e-01   4.3245900e-01  -6.6982700e-02
  -8.3672200e-02   3.4877600e-01  -7.0253500e-02
  -9.0442400e-02   3.7028100e-01  -1.4885100e-02
  -2.0857000e-01   4.5887300e-01   6.9452400e-02
  -1.2872900e-01   3.3825700e-01  -3.2640300e-02
  -2.3074800e-01   4.2708300e-01   1.0683200e-01
  -1.6911600e-01   3.7448900e-01   2.0158200e-02
  -2.1417300e-01   4.5910700e-01   8.5572300e-02
  -2.2257700e-01   5.3764800e-01   1.2552200e-01
  -2.2117700e-01   5.1029900e-01   1.6477000e-01
  -2.0226700e-01   4.8879400e-01   1.6663900e-01
  -2.3798500e-01   5.0048100e-01   2.0285000e-01
  -1.6654800e-01   4.0885000e-01   1.7177900e-01
  -1.6538100e-01   4.1679800e-01   1.6056500e-01
  -1.9199500e-01   4.0674700e-01   1.9233800e-01
  -8.3438800e-02   3.6280100e-01   1.5893000e-01
  -1.4437000e-01   4.4695200e-01   2.5284600e-01
  -1.2779500e-01   4.1118800e-01   2.3462300e-01
  -9.8846700e-02   3.4410100e-01   2.2738100e-01
  -1.3106300e-01   2.9524700e-01   2.6242400e-01
  -1.0538300e-01   2.0735600e-01   2.1733500e-01
  -9.5578400e-02   1.5967000e-01   1.8556200e-01
  -1.1729000e-01   1.6528000e-01   1.7131200e-01
  -1.0748500e-01   1.2671100e-01   1.1968100e-01
  -1.1495500e-01   1.1385500e-01   1.2225100e-01
  -1.0748500e-01   1.0053100e-01   1.5308900e-01
  -9.2076600e-02   5.8688900e-02   1.0215900e-01
  -1.3129700e-01   7.9646200e-03   7.6227400e-02
  -9.0442400e-02  -1.0353500e-01   3.9782400e-02
  -7.2933400e-02  -1.1919700e-01   2.1793600e-02
  -8.2971900e-02  -9.3717800e-02   1.8289200e-02
  -3.1378600e-02  -1.2527400e-01  -3.8714500e-02
  -3.4413500e-02  -9.5587800e-02  -3.2173100e-02
  -2.7876800e-02  -1.0400300e-01  -4.4321400e-02
   1.4145000e-02  -1.4163700e-01  -6.0207700e-02
   3.8424200e-02  -1.4654600e-01  -9.1279400e-02
   2.2315800e-02  -1.9306300e-01  -1.2889300e-01
   7.7644400e-02  -2.7183700e-01  -1.8870000e-01
   9.8188400e-02  -2.4822800e-01  -1.9897900e-01
   1.3834200e-01  -2.1924300e-01  -2.1486500e-01
   1.7219300e-01  -1.9703600e-01  -2.4453500e-01
   1.1639800e-01  -1.4093600e-01  -1.8215800e-01
   1.8129800e-01  -2.0147800e-01  -2.4430200e-01
   1.3810900e-01  -1.7903800e-01  -2.4944100e-01
   1.3670800e-01  -1.5613000e-01  -2.8378400e-01
   2.2635500e-01  -2.2461900e-01  -3.6204700e-01
   2.0324300e-01  -2.1573700e-01  -3.0481000e-01
   2.1211400e-01  -2.1573700e-01  -2.7794300e-01
   2.3102400e-01  -1.9656900e-01  -2.7747600e-01
   1.4254500e-01  -1.0447000e-01  -2.0855800e-01
   1.3600800e-01  -1.5168800e-01  -2.0738900e-01
   1.4954800e-01  -2.1737300e-01  -1.9430700e-01
   7.6010200e-02  -1.9423100e-01  -1.1090400e-01
   9.0717800e-02  -2.3093100e-01  -1.3590100e-01
   2.9319500e-02  -2.4612500e-01  -9.0111300e-02
   6.4409700e-03  -2.2999600e-01  -6.2543900e-02
  -5.6264300e-04  -1.4350700e-01  -4.3386900e-02
  -5.9859900e-02  -1.0470400e-01   3.2072900e-02
  -2.0639700e-02  -1.6150600e-01   6.0574800e-02
  -5.0521800e-02  -1.5052000e-01   9.6786200e-02
  -1.0911900e-01  -1.3696200e-01   1.2552200e-01
  -4.9821400e-02  -1.8558300e-01   1.0729900e-01
  -6.9898500e-02  -1.5426000e-01   1.3953900e-01
  -8.8808200e-02  -8.9042700e-02   1.8182500e-01
  -5.0288300e-02  -6.8005000e-02   1.9841200e-01
  -7.2699900e-02  -4.2526000e-02   2.6849800e-01
  -4.2817800e-02  -1.6579400e-02   2.8345000e-01
  -4.0016400e-02   1.8249700e-02   3.1358700e-01
   9.0089700e-03  -3.6682100e-02   2.8742200e-01
   4.3326700e-02  -5.7252400e-02   2.7831000e-01
   6.4337500e-02  -4.4242700e-03   2.9700000e-01
   1.0706000e-01   5.1676400e-02   2.8835600e-01
   1.5445100e-01   6.3597700e-02   2.7737600e-01
   1.8456600e-01   1.2764600e-01   2.9116000e-01
   1.8129800e-01   1.8024000e-01   3.5563900e-01
   2.8658600e-01   8.8609300e-02   2.6709600e-01
   2.4596500e-01   1.2811300e-01   2.5237800e-01
   2.8168300e-01   7.3181600e-02   2.1406400e-01
   3.7039600e-01   3.5079900e-02   1.4865000e-01
   3.3140900e-01   1.0240100e-01   1.5752800e-01
   3.9257400e-01   6.1727700e-02   1.0566400e-01
   3.8020100e-01   8.2531700e-02   1.4070700e-01
   3.8580400e-01   6.8272800e-02   1.2949300e-01
   4.1685300e-01   3.4378700e-02   8.4404200e-02
   3.8346900e-01   4.8453200e-04   8.8375800e-02
   4.2875900e-01  -6.3797400e-02   2.2494400e-02
   4.1241700e-01  -5.6317400e-02  -3.9882600e-02
   3.6222500e-01  -4.5564700e-02  -4.7124900e-02
   4.2152200e-01  -5.9823700e-02  -8.2635400e-02
   3.7436400e-01  -8.3980700e-03  -7.8897500e-02
   3.3187600e-01  -2.4059500e-02  -7.5393100e-02
   3.6712700e-01  -1.0376900e-01  -1.1417400e-01
   3.0176000e-01  -1.2831300e-01  -1.2024900e-01
   2.7981600e-01  -1.3626100e-01  -1.6089900e-01
   2.7001000e-01  -1.3626100e-01  -1.8169100e-01
   2.2472000e-01  -1.3813100e-01  -1.6837500e-01
   2.1701600e-01  -1.1241800e-01  -1.7117800e-01
   1.5118200e-01  -5.4681100e-02  -1.1370700e-01
   1.2643600e-01  -5.9122400e-02  -8.7541500e-02
   1.0262400e-01  -7.7355100e-02  -1.2141700e-01
  -7.7997100e-03  -4.1824700e-02  -1.0015700e-01
   2.1615500e-02  -1.1732700e-01  -1.3029400e-01
  -2.3908000e-02  -1.3228700e-01  -1.6183300e-01
  -1.3013000e-01  -4.6733500e-02  -1.3333100e-01
  -1.2335900e-01  -5.8421100e-02  -1.2772400e-01
  -1.9526300e-01  -6.2161200e-02  -9.8521700e-02
  -2.5035800e-01  -3.6915900e-02  -8.9877700e-02
  -3.0918900e-01  -3.1773300e-02  -6.3011200e-02
  -3.5284500e-01  -7.3848800e-02  -3.4275700e-02
  -3.7175400e-01  -1.1709300e-01  -5.8806000e-02
  -4.4529200e-01  -9.4185300e-02  -5.0162000e-02
  -4.7307300e-01  -5.3278600e-02  -2.0959200e-02
  -4.7704200e-01  -7.7822600e-02  -4.6424000e-02
  -5.3914100e-01  -5.4681100e-02  -4.1985200e-02
  -5.8443100e-01  -8.8655700e-03   1.3383200e-02
  -5.5384800e-01  -7.1277500e-02  -1.9557500e-02
  -6.0497500e-01  -9.3717800e-02  -3.4509300e-02
  -6.5656800e-01  -8.5068900e-02  -3.6144700e-02
  -6.0590900e-01  -1.5566200e-01  -8.7775100e-02
  -6.2972100e-01  -1.6501200e-01  -8.5906100e-02
  -6.6964200e-01  -1.0376900e-01  -6.2777600e-02
  -6.2248400e-01  -1.2013200e-01  -6.6048300e-02
  -6.4606300e-01  -1.3789700e-01  -6.4646500e-02
  -6.5096500e-01  -1.6103900e-01  -8.0065600e-02
  -5.9096800e-01  -1.9914000e-01  -7.5159500e-02
  -5.9376900e-01  -1.9212800e-01  -4.4788700e-02
  -5.3844000e-01  -2.2438600e-01  -1.3449900e-01
  -5.3937400e-01  -2.0381500e-01  -1.3520000e-01
  -5.0575700e-01  -1.8114100e-01  -1.0482900e-01
  -4.3548700e-01  -1.9656900e-01  -1.4314300e-01
  -4.8568000e-01  -1.4093600e-01  -7.6794900e-02
  -4.0257000e-01  -1.8301100e-01  -7.0253500e-02
  -3.3300100e-01  -2.4916300e-01  -7.3524200e-02
  -3.4700800e-01  -2.0895800e-01  -5.2498200e-02
  -2.7136900e-01  -2.0685400e-01  -6.3011200e-02
  -2.2654600e-01  -2.1737300e-01  -4.0349900e-02
  -1.8755900e-01  -1.8932300e-01  -3.7780000e-02
  -1.4950600e-01  -1.2901400e-01  -7.6428000e-03
  -1.2125800e-01  -1.0610700e-01   5.0295400e-02
  -2.7876800e-02  -1.6781700e-01   2.1559900e-02
  -4.0483300e-02  -1.2106700e-01   4.6090200e-02
   9.4758800e-03  -9.1380300e-02   5.9406700e-02
   8.9784000e-02  -1.3252100e-01   3.0203900e-02
   5.8968100e-02  -9.5354100e-02   5.7304100e-02
   1.3670800e-01  -6.4498700e-02   7.8330000e-02
   1.8036400e-01  -4.3227200e-02   1.3463300e-01
   1.6775800e-01  -4.5564700e-02   1.6313500e-01
   1.8713400e-01  -5.0239800e-02   1.7551700e-01
   1.9623900e-01  -4.2993500e-02   2.1102700e-01
   2.0674400e-01  -5.9122400e-02   1.7691800e-01
   2.1491500e-01  -5.7719900e-02   1.4140800e-01
   2.3522600e-01  -1.7046900e-02   1.9140300e-01
   2.4900000e-01   1.2873400e-02   2.1523200e-01
   2.4433100e-01   2.5883100e-03   1.9490700e-01
   2.2238600e-01   3.5781200e-02   2.3695900e-01
   2.3499200e-01   4.9338800e-02   2.5097700e-01
   2.3989500e-01   7.9646200e-03   2.0845700e-01
   1.8106500e-01   1.9184700e-02   2.2037200e-01
   2.2752200e-01  -2.3205000e-03   2.1827000e-01
   2.4829900e-01   6.7958500e-03   2.3742700e-01
   1.8013100e-01   7.3882900e-02   2.6943300e-01
   1.9157000e-01   8.4168000e-02   2.6219000e-01
   1.5188300e-01   1.0076400e-01   2.7947800e-01
   1.1990000e-01   1.0964700e-01   2.3695900e-01
   1.4698000e-01   1.2156800e-01   1.9163700e-01
   1.4978200e-01   1.3816500e-01   2.0168200e-01
   1.6168800e-01   1.1923100e-01   1.5939700e-01
   1.3880900e-01   1.2764600e-01   1.3182900e-01
   1.2900400e-01   1.7182500e-01   1.3720300e-01
   1.1943300e-01   2.0665400e-01   1.1617700e-01
   8.3947700e-02   2.3470500e-01   1.1150400e-01
   9.3052400e-02   2.3657500e-01   1.1150400e-01
   8.4181100e-02   2.1460200e-01   9.5618100e-02
   6.0602300e-02   2.2418600e-01   4.4922100e-02
   5.8267700e-02   2.5761200e-01   6.3745100e-03
   5.1731000e-02   2.7654600e-01  -3.6712300e-03
   3.3988500e-02   2.7631300e-01  -6.3011200e-02
   7.6082400e-03   2.9664900e-01  -8.7074200e-02
  -1.0295500e-03   3.0342800e-01  -9.5484600e-02
  -2.6476000e-02   2.9150700e-01  -1.0576400e-01
  -1.7137900e-02   2.0431700e-01  -1.4010600e-01
  -4.4918900e-02   2.0221300e-01  -1.3543400e-01
  -3.8849100e-02   2.0945900e-01  -1.3870500e-01
  -1.5970600e-02   1.2741200e-01  -2.0131500e-01
  -1.0211500e-01   1.9636900e-01  -8.1467300e-02
   8.0751500e-03   1.3138600e-01  -1.4244300e-01
  -8.5073000e-02   1.5850100e-01  -1.1253900e-01
  -1.3853400e-01   1.3910000e-01  -8.4504400e-02
  -5.2389400e-02   4.9806300e-02  -1.5646000e-01
  -1.7962200e-01   9.9361900e-02  -3.6845500e-02
  -1.2406000e-01   2.1989800e-02  -9.8988900e-02
  -1.1285400e-01   2.7366100e-02  -9.1746700e-02
  -1.5160700e-01   2.4794800e-02  -7.8430200e-02
  -1.6117900e-01   4.3728800e-02  -6.8150900e-02
  -1.5137400e-01  -4.5047900e-04  -6.1609400e-02
  -1.6328000e-01  -1.3540600e-02  -2.5631700e-02
  -1.7261800e-01  -4.1905200e-03  -3.1472200e-02
  -1.7938800e-01  -5.7018600e-02  -7.7262100e-02
  -1.5487600e-01  -5.6317400e-02  -4.3854200e-02
  -1.3293100e-01  -5.3746100e-02  -5.5301700e-02
  -1.7775400e-01  -3.7230200e-03  -4.5489500e-02
  -1.3223100e-01   1.6379700e-02  -4.5255900e-02
  -1.6258000e-01   5.6585200e-02   1.0579700e-02
  -1.6187900e-01   1.4509700e-02  -2.1893700e-02
  -1.5534300e-01  -2.5462000e-02  -6.3478400e-02
  -1.6584800e-01   2.9002400e-02  -8.0299200e-02
  -1.3083000e-01   2.5963600e-02  -1.3263000e-01
  -1.2476000e-01   5.6270900e-03  -1.5575900e-01
  -1.0491700e-01   3.6716200e-02  -1.6977600e-01
  -7.5968300e-02   5.4715100e-02  -1.7935500e-01
  -8.2505000e-02   6.2662700e-02  -1.7001000e-01
  -7.3867200e-02   6.3597700e-02  -1.5973100e-01
  -2.7176400e-02   2.6664800e-02  -1.9664300e-01
  -3.3012700e-02   3.4846200e-02  -1.9827800e-01
  -1.7299100e-03   2.3859800e-02  -2.2350900e-01
