**************************************************************************************
  	RED ACELEROGRÁFICA DE LA UNIVERSIDAD AUTONOMA METROPOLITANA (RA-UAM)
	   UNIDAD AZCAPOTZALCO. DIVISIÓN CBI-DEPARTAMENTO DE MATERIALES
     Av. San Pablo 420, Col. Nueva el Rosario, Azcapotzalco, C.P. 02128, Ciudad de México
		Área de Estructuras. e-mail: agb@azc.uam.mx
**************************************************************************************
ARCHIVO ESTANDAR DE ACELERACION:
VERSION DEL FORMATO                    : 2.0
NOMBRE DEL ARCHIVO                     : RUMC202312.122
FECHA Y HORA DE CREACION               : 11:30 a. m. 19/12/2023
REF. CATALOGO ACELEROGRAMAS, SMIS 1999 : REGISTRO NO.      /PAG.    


================================================================================
DATOS DE LA ESTACION:
NOMBRE DE LA ESTACION                  : UAM-CUAJIMALPA.
CLAVE DE LA ESTACION                   : RUMC
LOCALIZACION DE LA ESTACION            : AV. VASCO DE QUIROGA 4871, COL. SANTA FE,
                                       : CUAJIMALPA DE MORELOS, C.P. 05348, CIUDAD DE MEXICO.   
                                       : 
                                       : 
                                       : 
COORDENADAS DE LA ESTACION             : 19.35303 LAT. N
                                       : -99.28219 LONG. W
ALTITUD (msnm)                         : 2671
TIPO DE SUELO                          : DEPOSITOS LACUSTRES
                                       : 
                                       : 
INSTITUCION RESPONSABLE                : UNIVERSIDAD AUTONOMA METROPOLITANA
                                       : 

================================================================================
DATOS DEL ACELEROGRAFO: 
MODELO DEL ACELEROGRAFO                : ETNA2 KINEMETRICS
NUMERO DE SERIE DEL ACELEROGRAFO       : 104252
NUMERO DE CANALES                      : 3
ORIENTACION C1-C6 (rumbo;orientacion)  : /N90E/N00E/V 
ORIENTACION C7-C12 (rumbo;orientacion) : 
VEL. DE MUESTREO, C1-C6 (muestras/s)   : /200/200/200
VEL. DE MUESTREO, C7-C12 (muestras/s)  : 
ESC. COMPLETA DE SENSORES, C1-C6, (g)  : /2/2/2
ESC. COMPLETA DE SENSORES, C7-C12 (g)  : 
FREC. NAT. DE SENSORES, C1-C6, (Hz)    : /204/216/208   
FREC. NAT. DE SENSORES, C7-C12 (Hz)    : 
AMORTIGUAMIENTO DE SENSORES, C1-C6     : /0.7/0.7/0.7      
AMORTIGUAMIENTO DE SENSORES, C7-C12    : 
INTERVALO DE MUESTREO, C1-C6 (s)       : /0.005/0.005/0.005
INTERVALO DE MUESTREO, C7-C12 (s)      : 
UMBRAL DE DISPARO, C1-C6 (Gal)         : /2/2/2
UMBRAL DE DISPARO, C7-C12 (Gal)        : 
MEMORIA DE PREEVENTO (s)               : 50
TIEMPO DE POSEVENTO (s)                : 60


================================================================================
DATOS DEL SISMO:
FECHA DEL SISMO [GMT]                  : 2023/12/12
HORA EPICENTRO (GMT)                   : 17:07:52
MAGNITUD(ES)                           : /M=2.8
COORDENADAS DEL EPICENTRO              : 19.3630 LAT. N
                                       : -99.2000 LONG. W
PROFUNDIDAD FOCAL (Km)                 : 1.0
FUENTE DE LOS DATOS EPICENTRALES       : SSN
                                       : INSTITUTO DE GEOFISICA, UNAM

================================================================================
DATOS DE ESTE REGISTRO:
HORA DE LA PRIMERA MUESTRA (GMT)       : 17:07:07.000
EXACTITUD DEL TIEMPO (s)               : 
DURACION DEL REGISTRO (s), C1-C6       : /214/214/214
DURACION DEL REGISTRO (s), C7-C12      : 
NUM. TOTAL DE MUESTRAS, C1-C6          : /42800/42800/42800
NUM. TOTAL DE MUESTRAS, C7-C12         : 
ACEL. MAX.(Gal), C1-C6                 : /-0.874/-0.578/-0.569
ACEL. MAX., C1-C6, EN LA MUESTRA       : /11575/11997/30773
ACEL. MAX.(Gal), C7-C12                : 
ACEL. MAX., C7-C12,EN LA MUESTRA       : 
UNIDADES DE LOS DATOS                  : Gal (cm/s/s)
FACTOR DE DECIMACION                   : 1
FORMATO DATOS (FORTRAN,16 campos/dato) : 3E16.7


================================================================================
CALIDAD DEL ACELEROGRAMA:
REGISTRO DIGITAL COMPLETO CON TIEMPO ABSOLUTO CORRECTO


================================================================================
COMENTARIOS:














================================================================================
DATOS DE ACELERACION:
---------+---------+---------+---------+---------+---------+---------+---------+
   CANAL-1   	     CANAL-2          CANAL-3
     N90E              N00E              V
---------+---------+---------+---------+---------+---------+---------+---------+ 
[...]
   3.1709100e-02  -4.2530800e-02  -1.9562100e-01
  -5.8770300e-03  -1.5649300e-02  -1.8067000e-01
  -6.5174300e-02   8.8947500e-03  -2.8486500e-01
   2.1100200e-01  -1.1102000e-01  -3.8976100e-01
   1.7481600e-01   8.9773200e-02  -1.6057800e-01
   1.0548000e-01   9.4448200e-02  -2.4491600e-01
   1.4493400e-01   8.0423100e-02  -3.5518500e-01
   2.7706900e-01   1.6714500e-01  -2.6781100e-01
   2.2874400e-01   1.2904400e-01  -1.9912600e-01
   1.3966600e-02   2.2231100e-01  -1.8347300e-01
   3.7652000e-01   5.8684100e-02  -4.4699900e-01
   2.9481200e-01   1.9963700e-01  -2.1571300e-01
   6.4159100e-02   1.8678100e-01  -2.6383900e-01
   1.9022400e-01   1.5195100e-01  -4.4302700e-01
   3.6017900e-01   2.1249300e-01  -3.8065000e-01
   2.0983400e-01   3.0318900e-01  -1.9141600e-01
   1.2252300e-01   3.5484900e-01  -2.3370200e-01
   1.6921300e-01   3.1417600e-01  -4.1896400e-01
   2.2034000e-01   2.9757900e-01  -4.0868500e-01
   2.2547600e-01   3.0622800e-01  -3.6172700e-01
   1.4843600e-01   4.2193600e-01  -3.4794300e-01
   2.7847000e-01   3.6419900e-01  -5.1358100e-01
   1.9489300e-01   3.9598900e-01  -3.9116300e-01
   2.3037800e-01   4.1632600e-01  -3.1523600e-01
   2.4998800e-01   4.3409100e-01  -3.0869400e-01
   1.5964200e-01   4.2707800e-01  -3.3976600e-01
   1.8882400e-01   4.0323500e-01  -3.0612500e-01
   1.9232500e-01   3.3988800e-01  -2.8930400e-01
   2.0269800e-02   3.6887400e-01  -3.0308800e-01
   1.3232800e-01   3.3147300e-01  -3.7808000e-01
   1.1738700e-01   3.7565300e-01  -3.0098500e-01
  -6.0038300e-02   4.3923300e-01  -2.4187900e-01
   5.2953400e-02   3.0389100e-01  -3.9233100e-01
  -1.6849400e-02   3.3451200e-01  -2.8790200e-01
   3.0308300e-02   3.0272200e-01  -2.9514400e-01
   1.4666900e-02   2.7139900e-01  -2.7925800e-01
   9.5309300e-03   2.1155800e-01  -2.5706400e-01
   5.8089300e-02   2.2488200e-01  -1.7716500e-01
  -1.6748600e-03   2.3586900e-01  -1.2086200e-01
   7.6633000e-03   1.7719700e-01  -1.3745000e-01
  -1.4748300e-02   2.1483100e-01  -2.4143000e-02
  -3.8327100e-02   1.1899200e-01  -3.9562100e-02
  -6.0738700e-02   5.6346500e-02  -3.9795700e-02
  -6.7508900e-02   7.7851800e-02  -1.0144800e-03
  -1.0439500e-01   3.4140000e-02  -2.6245600e-02
  -1.3894600e-01   2.4556200e-02  -4.5402600e-02
  -7.6847000e-02  -1.3779300e-02  -3.2086200e-02
  -1.0509500e-01   2.0348600e-02   8.7761800e-02
  -1.6392500e-01   3.4140000e-02   1.2374000e-01
  -1.2167000e-01  -4.7907100e-02   8.7294600e-02
  -1.5738900e-01  -1.3311700e-02   1.6182000e-01
  -2.1248400e-01  -1.0330700e-01   1.5504500e-01
  -2.0571400e-01  -1.1499400e-01   1.3355200e-01
  -1.8470300e-01  -6.4737300e-02   1.7420200e-01
  -2.4983600e-01  -5.0712200e-02   2.6040800e-01
  -2.5310500e-01  -1.1675500e-02   2.6601500e-01
  -2.5170400e-01  -4.2297100e-02   2.4942800e-01
  -2.6431100e-01  -2.8038200e-02   2.6718300e-01
  -2.0384600e-01  -2.8505700e-02   2.4031700e-01
  -2.3629600e-01  -1.0039200e-02   2.6928600e-01
  -1.8563700e-01  -9.0216400e-02   1.8681700e-01
  -1.9730900e-01   1.2167300e-02   2.3587800e-01
  -1.6485900e-01   6.3359100e-02   2.8844300e-01
  -1.5388700e-01  -2.1025600e-02   2.7886500e-01
  -1.9404100e-01   7.6916800e-02   3.3306500e-01
  -1.1069800e-01   8.0189300e-02   3.0666600e-01
  -1.3871200e-01   6.7099200e-02   3.0993600e-01
  -1.2260400e-01   3.2270000e-02   2.7489300e-01
  -6.1672500e-02   5.0736500e-02   2.4031700e-01
  -7.6613600e-02   1.0263000e-01   2.4662500e-01
  -6.8209200e-02   5.2840200e-02   2.2746800e-01
  -2.0351200e-02   8.8838200e-02   2.2022500e-01
  -6.7042000e-02   1.2997900e-01   2.7022000e-01
  -1.0019200e-01   7.6916800e-02   2.3073800e-01
  -2.1751900e-02   5.8917800e-02   1.5107300e-01
  -6.5641200e-02   6.6164200e-02   1.7233300e-01
  -8.9920400e-02   4.4892700e-02   1.5714800e-01
   4.6183200e-02   6.7909800e-03   7.3043700e-02
  -1.3581000e-02   9.3279500e-02   1.5738100e-01
   1.8869100e-02   8.1825600e-02   1.3588800e-01
   5.5521400e-02   8.5098100e-02   1.1089000e-01
   2.4238500e-02   1.0239600e-01   1.1743200e-01
   1.1295100e-01   5.0035200e-02   6.4633300e-02
   1.1015000e-01   1.0730500e-01   1.1603000e-01
   2.2104000e-01   5.5177800e-02   2.4898500e-03
   1.7738400e-01   1.8841700e-01   2.0011500e-02
   1.4937000e-01   2.1272700e-01  -1.5499000e-02
   3.2492700e-01   1.1408300e-01  -1.0380800e-01
   3.2632800e-01   2.4381600e-01   8.3304000e-03
   2.6166100e-01   2.3680400e-01  -1.7134400e-02
   3.4243600e-01   1.9262400e-01  -1.2787100e-01
   4.2811400e-01   1.7766400e-01  -1.5473800e-01
   3.3519900e-01   2.4755600e-01  -8.3950200e-02
   3.6181300e-01   2.8378800e-01  -1.6034500e-01
   3.8725900e-01   3.1978600e-01  -1.8978100e-01
   3.4944000e-01   3.2960300e-01  -1.5824200e-01
   2.6399600e-01   2.8238500e-01  -1.8464100e-01
   2.5092200e-01   2.9220300e-01  -2.2926300e-01
   3.5597700e-01   2.3727100e-01  -2.7505300e-01
   1.6314400e-01   2.8308700e-01  -1.6151300e-01
   1.8182000e-01   1.7439200e-01  -2.8977100e-01
   2.4065000e-01   2.2885600e-01  -2.6968000e-01
   1.3279500e-01   2.5877600e-01  -1.5987700e-01
   7.5598400e-02   1.1268100e-01  -2.1711500e-01
   5.0852300e-02   2.0875300e-01  -1.9608900e-01
   1.0151200e-01   1.2951100e-01  -1.7482900e-01
  -1.0312700e-02   6.1956600e-02  -8.9323500e-02
  -2.8989000e-02   3.5776300e-02  -1.7880100e-01
  -1.1946800e-02   1.2167300e-02  -2.2949700e-01
  -8.1282600e-02   5.1547100e-03  -1.5473800e-01
  -2.3853000e-02  -1.4210900e-01  -1.6174600e-01
  -2.3619500e-02  -6.0997300e-02  -8.2081300e-02
  -8.2683400e-02  -2.3129400e-02  -2.0638700e-02
  -1.0089300e-01  -1.5520000e-01  -4.3300000e-02
  -5.4202000e-02  -2.3607800e-01  -6.3157900e-02
  -5.7236900e-02  -1.7693900e-01   2.1646800e-02
  -7.0076900e-02  -1.8558700e-01   4.5009000e-02
   2.4705400e-02  -3.7259000e-01  -8.5819200e-02
  -1.8950400e-02  -1.9891100e-01   5.4587500e-02
   4.0113400e-02  -2.1761200e-01   9.0798900e-02
   4.0813800e-02  -3.1578800e-01   7.9585100e-02
   7.2096600e-02  -2.8656900e-01   5.4587500e-02
   1.3349500e-01  -2.8259500e-01   8.1220400e-02
   1.3629600e-01  -3.1228100e-01   1.4570000e-01
   2.0073000e-01  -3.6581100e-01   3.6832300e-02
   2.1333600e-01  -2.6412800e-01   4.5009000e-02
   2.5302300e-01  -2.7792000e-01   6.8838500e-02
   2.3901600e-01  -2.5618100e-01   1.3168300e-01
   3.0228200e-01  -3.2209900e-01   4.6177100e-02
   2.4485200e-01  -2.6693300e-01   1.1766500e-01
   4.0593600e-01  -3.3121500e-01   1.0201300e-01
   3.8119000e-01  -3.6534300e-01   9.2434300e-02
   2.7590200e-01  -3.1882600e-01   7.9351400e-02
   4.7807300e-01  -3.7983600e-01  -1.6667100e-02
   4.1714100e-01  -2.8259500e-01   1.0505000e-01
   3.8095600e-01  -3.5108400e-01   5.6456500e-02
   3.6344700e-01  -2.9942500e-01   8.5192000e-02
   4.4468900e-01  -3.5318800e-01   2.1413200e-02
   4.3675200e-01  -3.9900400e-01   4.3373700e-02
   3.7045100e-01  -3.7890100e-01   7.4211800e-02
   3.8422400e-01  -4.1583400e-01  -1.8302500e-02
   3.9449600e-01  -3.6230400e-01  -2.4843900e-02
   3.9403000e-01  -3.9760100e-01   1.3217400e-03
   2.9037600e-01  -3.0363300e-01   1.1462800e-01
   2.9107600e-01  -3.6651200e-01  -3.5843200e-03
   2.5512400e-01  -4.4715700e-01  -3.7926700e-02
   2.4602000e-01  -4.1209400e-01   8.7995400e-02
   2.2127400e-01  -4.2962500e-01   1.1836600e-01
   1.0851500e-01  -3.9736700e-01   5.9260000e-02
   1.4166600e-01  -4.3570300e-01   1.5363400e-04
   1.5520600e-01  -3.7960200e-01   1.0808700e-01
   2.8674200e-02  -2.9217900e-01   1.8237900e-01
   2.2837800e-02  -3.1952800e-01   1.1486200e-01
   5.4354100e-02  -3.1555400e-01   1.5831600e-01
  -1.5215200e-02  -3.7866700e-01   2.3985000e-01
  -1.3497700e-01  -3.3425400e-01   2.5573600e-01
  -1.5645500e-01  -3.2396900e-01   2.0480600e-01
  -6.4240500e-02  -4.3009300e-01   1.8378000e-01
  -2.2158800e-01  -1.9563900e-01   3.4871700e-01
  -2.9652700e-01  -1.8395100e-01   2.6788400e-01
  -2.3489500e-01  -2.7838700e-01   1.9149000e-01
  -2.5170400e-01  -1.7787400e-01   2.7325800e-01
  -2.6547800e-01  -2.1083300e-01   2.5970800e-01
  -3.3574700e-01  -2.0124900e-01   2.2676700e-01
  -2.2835900e-01  -2.1901400e-01   1.0224600e-01
  -2.0734800e-01  -1.0751400e-01   1.6415600e-01
  -3.4555200e-01  -7.5022400e-02   1.7864100e-01
  -2.6617800e-01  -9.3255200e-02   5.5288400e-02
  -1.9334100e-01   1.3803600e-02   9.4069600e-02
  -2.7691700e-01  -3.5050700e-02   1.5224100e-01
  -2.7341500e-01  -1.4714300e-02   1.2070300e-01
  -1.8190100e-01  -9.0450100e-02  -4.9607800e-02
  -2.1388400e-01  -5.0244700e-02  -1.0144800e-03
  -1.7606500e-01   4.7463900e-02   4.3840900e-02
  -1.7513100e-01  -2.8038200e-02  -8.8389000e-02
  -1.9520800e-01   4.7931400e-02  -8.6987300e-02
  -7.5212800e-02   5.8684100e-02  -2.7881000e-02
  -1.0602900e-01   1.8478600e-02   9.7321300e-03
  -1.7233000e-01   9.4716200e-04  -1.0614400e-01
  -8.5484800e-02   1.0764800e-02  -1.6595200e-01
  -2.4786800e-02   1.1933500e-02  -1.0637800e-01
  -1.2307100e-01  -3.6453300e-02  -1.4235600e-01
  -6.9609900e-02   1.6141100e-02  -2.2575900e-01
   5.9023200e-02   5.2606500e-02  -1.6945600e-01
  -4.2762700e-02   3.5776300e-02  -6.6895800e-02
  -9.1321200e-02   5.4009000e-02  -1.2740400e-01
   4.6416600e-02  -5.0478400e-02  -2.2318900e-01
   1.3600400e-03  -3.2603900e-03  -6.9932900e-02
   5.7956700e-03  -7.1048700e-02  -1.3581400e-01
  -1.1246500e-02  -8.0398800e-02  -1.9235100e-01
   4.7583900e-02  -6.2991700e-03  -1.1642400e-01
   1.1411800e-01  -9.1618900e-02  -1.2693700e-01
  -1.0089300e-01   2.1751100e-02  -1.8302500e-02
   6.6960600e-02  -1.4421300e-01  -1.6525100e-01
   2.1203600e-02  -7.9697500e-02  -8.9576200e-03
  -1.1209900e-01  -1.2761700e-01  -6.6214000e-03
  -8.1516100e-02  -2.6389500e-01  -1.4469200e-01
  -9.9025100e-02  -1.6431600e-01  -4.6570700e-02
  -6.1205600e-02  -2.8166000e-01  -5.0075100e-02
  -2.0127800e-01  -2.1059900e-01   5.2952200e-02
  -1.6065700e-01  -2.2439000e-01   2.9122700e-02
  -1.2750700e-01  -2.5103800e-01   1.1019000e-01
  -2.9512600e-01  -2.7979000e-01   1.9592900e-01
  -3.3294600e-01  -3.4243500e-01   1.3588800e-01
  -3.0866700e-01  -3.2770900e-01   1.1346000e-01
  -4.3916700e-01  -3.5716200e-01   1.4172800e-01
  -5.1620700e-01  -3.6066800e-01   1.4453200e-01
  -5.5005800e-01  -3.2350200e-01   1.4897100e-01
  -5.8741100e-01  -3.4453900e-01   1.6579200e-01
  -6.8196000e-01  -3.7469300e-01   2.2092600e-01
  -7.2795000e-01  -4.0812000e-01   2.0807700e-01
  -6.6491700e-01  -4.6001300e-01   1.4429800e-01
  -7.4522600e-01  -4.2378100e-01   1.9873200e-01
  -7.6857100e-01  -4.2705400e-01   1.7303400e-01
  -7.9215000e-01  -3.2700800e-01   1.7723900e-01
  -8.1082600e-01  -2.8656900e-01   1.6088500e-01
  -8.4210900e-01  -3.1017800e-01   1.8004200e-01
  -8.6055200e-01  -2.3841600e-01   1.9242400e-01
  -7.8397900e-01  -2.3888300e-01   1.0434900e-01
  -8.7432600e-01  -1.8699000e-01   1.3472000e-01
  -8.5985100e-01  -1.9657400e-01   4.3373700e-02
  -7.4966100e-01  -2.0428800e-01  -4.0029300e-02
  -7.8678000e-01  -6.6139800e-02   3.4729700e-02
  -7.6530300e-01   9.5960100e-03   3.4243400e-03
  -6.8919700e-01   5.8559700e-03  -7.3904500e-02
  -6.2756500e-01   3.2737500e-02  -5.5214700e-02
  -5.6710000e-01   6.2424100e-02  -2.7881000e-02
  -5.7083500e-01   1.3208200e-01  -5.8251800e-02
  -4.7208400e-01   1.7906700e-01  -1.3581400e-01
  -3.4508600e-01   2.0968800e-01  -1.4796300e-01
  -3.6189400e-01   3.2376000e-01  -8.3015700e-02
  -2.4750200e-01   3.6723800e-01  -1.7716500e-01
  -1.4945100e-01   4.5022000e-01  -1.6595200e-01
  -1.1443300e-01   4.7032200e-01  -1.0193900e-01
  -7.6146700e-02   4.6331000e-01  -1.1268600e-01
   1.5935000e-03   4.7710100e-01  -1.4702800e-01
   1.2485700e-01   4.2310400e-01  -1.7693200e-01
   1.5077100e-01   4.4390800e-01  -9.4930500e-02
   2.3294600e-01   4.5910200e-01  -1.1572300e-01
   2.8617400e-01   5.1941100e-01  -5.8952700e-02
   3.2819600e-01   5.0281400e-01   1.5553600e-03
   3.5714400e-01   4.9369800e-01   2.2581300e-02
   3.7605400e-01   5.0678800e-01   5.7157400e-02
   4.1387300e-01   4.0136500e-01   2.9122700e-02
   4.7270300e-01   3.3240800e-01   1.7889900e-03
   5.2476400e-01   3.5368000e-01   1.5806300e-02
   4.8647700e-01   3.9575500e-01   6.8838500e-02
   5.4320700e-01   3.4573200e-01   2.7954600e-02
   5.9433300e-01   3.1557800e-01   6.9539300e-02
   5.8522800e-01   3.5087500e-01   1.5971700e-01
   5.6842000e-01   3.3755100e-01   1.5294200e-01
   5.8919700e-01   2.3844000e-01   8.5192000e-02
   5.9550000e-01   2.0384400e-01   7.2342800e-02
   5.5441200e-01   1.7369000e-01   5.8792700e-02
   5.6982000e-01   1.5382100e-01  -1.5499000e-02
   5.3503600e-01   2.0174100e-01   2.5384800e-02
   5.3246800e-01   1.4961400e-01   4.2439200e-02
   5.0281900e-01   1.2927700e-01   6.1596200e-02
   4.8974600e-01   1.1011000e-01   7.7716100e-02
   4.7130300e-01   4.7463900e-02   5.4821100e-02
   3.6671500e-01   1.2151900e-05   5.8325500e-02
   4.1013800e-01  -9.1042000e-03  -1.7601600e-02
   3.3940100e-01   2.2919900e-02   9.7321300e-03
   2.5769200e-01  -3.3648200e-02   1.1367500e-02
   2.3364700e-01   7.1341000e-04  -9.1912400e-03
   1.5800800e-01   3.9750100e-02   2.8655500e-02
   1.3653000e-01  -6.1932300e-02  -2.2274100e-02
   4.1981000e-02  -9.2320100e-02  -3.8627600e-02
   1.9102500e-02  -7.0581100e-02  -8.8389000e-02
  -1.4414000e-03  -8.9748900e-02  -9.5631300e-02
  -1.3581000e-02  -1.5005700e-01  -1.1735800e-01
  -2.3853000e-02  -7.0347400e-02  -1.2156300e-01
  -8.9220100e-02   2.8530000e-02  -5.5682000e-02
  -1.1653400e-01  -1.7986800e-02  -4.0963800e-02
  -1.3567700e-01  -3.9725800e-02  -3.5590500e-02
  -1.6019000e-01  -2.7804400e-02  -3.2787000e-02
  -1.5622100e-01  -7.7593700e-02  -5.7083700e-02
  -1.5668800e-01  -7.5723700e-02  -9.2594200e-02
  -1.8353500e-01  -1.7986800e-02  -9.2827900e-02
  -1.2960800e-01  -3.9959600e-02  -1.2670300e-01
  -1.3567700e-01  -1.6584300e-02  -9.0258000e-02
  -1.1116500e-01   5.6222200e-03  -8.0679500e-02
  -1.1163200e-01   7.2584800e-03  -6.7596700e-02
  -9.8324800e-02  -7.5022400e-02  -5.5448400e-02
  -4.9432100e-03  -1.2434400e-01  -8.3483000e-02
  -2.7354800e-02  -4.4167100e-02  -2.2974900e-02
   1.9336000e-02  -4.6972100e-02  -3.7225900e-02
   6.6026800e-02  -1.1566100e-03  -4.8439700e-02
   5.5988300e-02   7.6916800e-02  -2.3442200e-02
   6.6493700e-02   8.3929400e-02  -6.6214000e-03
   1.2252300e-01   1.0764800e-02  -4.5636200e-02
   1.4166600e-01  -1.0506700e-02  -5.8952700e-02
   1.1902100e-01   3.3672500e-02  -2.4143000e-02
   1.3816400e-01  -2.9908200e-02  -8.5819200e-02
   1.5263800e-01  -2.9206900e-02  -1.2646900e-01
   1.7575000e-01   5.2372700e-02  -1.1969400e-01
   1.8368800e-01   5.6580300e-02  -5.9887200e-02
   2.6539600e-01  -1.5883000e-02  -7.1801900e-02
   2.6469600e-01   4.1152600e-02  -4.9607800e-02
   2.5232300e-01   7.3644200e-02  -1.3863700e-02
   3.3846700e-01  -6.4036100e-02  -1.0404200e-01
   3.3076400e-01  -2.4531900e-02  -7.9277800e-02
   3.4477100e-01   2.7595000e-02  -5.5682000e-02
   3.8212300e-01  -6.0654200e-03  -5.2644900e-02
   4.3698500e-01   1.8821700e-03  -5.2644900e-02
   4.0733600e-01   2.4556200e-02  -1.6433500e-02
   4.2181100e-01  -1.4246800e-02   8.0967800e-03
   4.9931700e-01  -8.3671300e-02  -2.3208600e-02
   4.6033000e-01  -7.3386200e-02  -2.0872300e-02
   4.8134100e-01  -6.0296000e-02  -3.3020700e-02
   5.6421700e-01  -6.7074900e-02  -4.2365500e-02
   6.0273700e-01  -4.7439600e-02  -5.2177700e-02
   5.7355600e-01   4.1386400e-02   1.3002800e-02
   6.2444900e-01   5.4009000e-02   4.6410800e-02
