**************************************************************************************
  	RED ACELEROGRÁFICA DE LA UNIVERSIDAD AUTONOMA METROPOLITANA (RA-UAM)
	   UNIDAD AZCAPOTZALCO. DIVISIÓN CBI-DEPARTAMENTO DE MATERIALES
     Av. San Pablo 420, Col. Nueva el Rosario, Azcapotzalco, C.P. 02128, Ciudad de México
		Área de Estructuras. e-mail: agb@azc.uam.mx
**************************************************************************************
ARCHIVO ESTANDAR DE ACELERACION:
VERSION DEL FORMATO                    : 2.0
NOMBRE DEL ARCHIVO                     : RUMC202310.221
FECHA Y HORA DE CREACION               : 11:30 a. m. 27/10/2023
REF. CATALOGO ACELEROGRAMAS, SMIS 1999 : REGISTRO NO.      /PAG.    


================================================================================
DATOS DE LA ESTACION:
NOMBRE DE LA ESTACION                  : UAM-CUAJIMALPA.
CLAVE DE LA ESTACION                   : RUMC
LOCALIZACION DE LA ESTACION            : AV. VASCO DE QUIROGA 4871, COL. SANTA FE,
                                       : CUAJIMALPA DE MORELOS, C.P. 05348, CIUDAD DE MEXICO.   
                                       : 
                                       : 
                                       : 
COORDENADAS DE LA ESTACION             : 19.35303 LAT. N
                                       : -99.28219 LONG. W
ALTITUD (msnm)                         : 2671
TIPO DE SUELO                          : DEPOSITOS LACUSTRES
                                       : 
                                       : 
INSTITUCION RESPONSABLE                : UNIVERSIDAD AUTONOMA METROPOLITANA
                                       : 

================================================================================
DATOS DEL ACELEROGRAFO: 
MODELO DEL ACELEROGRAFO                : ETNA2 KINEMETRICS
NUMERO DE SERIE DEL ACELEROGRAFO       : 104252
NUMERO DE CANALES                      : 3
ORIENTACION C1-C6 (rumbo;orientacion)  : /N90E/N00E/V 
ORIENTACION C7-C12 (rumbo;orientacion) : 
VEL. DE MUESTREO, C1-C6 (muestras/s)   : /200/200/200
VEL. DE MUESTREO, C7-C12 (muestras/s)  : 
ESC. COMPLETA DE SENSORES, C1-C6, (g)  : /2/2/2
ESC. COMPLETA DE SENSORES, C7-C12 (g)  : 
FREC. NAT. DE SENSORES, C1-C6, (Hz)    : /204/216/208   
FREC. NAT. DE SENSORES, C7-C12 (Hz)    : 
AMORTIGUAMIENTO DE SENSORES, C1-C6     : /0.7/0.7/0.7      
AMORTIGUAMIENTO DE SENSORES, C7-C12    : 
INTERVALO DE MUESTREO, C1-C6 (s)       : /0.005/0.005/0.005
INTERVALO DE MUESTREO, C7-C12 (s)      : 
UMBRAL DE DISPARO, C1-C6 (Gal)         : /2/2/2
UMBRAL DE DISPARO, C7-C12 (Gal)        : 
MEMORIA DE PREEVENTO (s)               : 50
TIEMPO DE POSEVENTO (s)                : 60


================================================================================
DATOS DEL SISMO:
FECHA DEL SISMO [GMT]                  : 2023/10/22
HORA EPICENTRO (GMT)                   : 02:05:16
MAGNITUD(ES)                           : /M=4.9
COORDENADAS DEL EPICENTRO              : 16.1700 LAT. N
                                       : -99.1300 LONG. W
PROFUNDIDAD FOCAL (Km)                 : 17.1
FUENTE DE LOS DATOS EPICENTRALES       : SSN
                                       : INSTITUTO DE GEOFISICA, UNAM

================================================================================
DATOS DE ESTE REGISTRO:
HORA DE LA PRIMERA MUESTRA (GMT)       : 02:06:06.000
EXACTITUD DEL TIEMPO (s)               : 
DURACION DEL REGISTRO (s), C1-C6       : /135/135/135
DURACION DEL REGISTRO (s), C7-C12      : 
NUM. TOTAL DE MUESTRAS, C1-C6          : /27000/27000/27000
NUM. TOTAL DE MUESTRAS, C7-C12         : 
ACEL. MAX.(Gal), C1-C6                 : /0.433/0.450/0.198
ACEL. MAX., C1-C6, EN LA MUESTRA       : /12592/12372/11663
ACEL. MAX.(Gal), C7-C12                : 
ACEL. MAX., C7-C12,EN LA MUESTRA       : 
UNIDADES DE LOS DATOS                  : Gal (cm/s/s)
FACTOR DE DECIMACION                   : 1
FORMATO DATOS (FORTRAN,16 campos/dato) : 3E16.7


================================================================================
CALIDAD DEL ACELEROGRAMA:
REGISTRO DIGITAL COMPLETO CON TIEMPO ABSOLUTO CORRECTO


================================================================================
COMENTARIOS:














================================================================================
DATOS DE ACELERACION:
---------+---------+---------+---------+---------+---------+---------+---------+
   CANAL-1   	     CANAL-2          CANAL-3
     N90E              N00E              V
---------+---------+---------+---------+---------+---------+---------+---------+
[...]
  -2.6247200e-02   5.2534800e-02   1.1076000e-01
  -2.2511900e-02   3.6873400e-02   1.0398500e-01
  -3.2783900e-02   3.6873400e-02   7.7819700e-02
  -5.2394000e-02   8.1987600e-02   1.0421900e-01
  -3.2550400e-02   6.3287400e-02   9.9546500e-02
  -5.2627500e-02   7.4741300e-02   8.4594700e-02
  -7.0836900e-02   1.1424600e-01   1.1800300e-01
  -4.7024600e-02   7.0300000e-02   1.1706800e-01
  -6.4767100e-02   9.5779100e-02   1.1449800e-01
  -8.3676900e-02   8.8766500e-02   1.1519900e-01
  -7.5039100e-02   9.4376500e-02   1.3552400e-01
  -7.3638300e-02   9.9285300e-02   1.2244100e-01
  -6.6868200e-02   6.2118700e-02   1.0188300e-01
  -7.4805600e-02   1.1144000e-01   1.3856100e-01
  -6.4767100e-02   9.4376500e-02   1.2945000e-01
  -6.1732200e-02   6.5858700e-02   1.0982600e-01
  -7.4805600e-02   7.4507600e-02   1.2290900e-01
  -6.6401300e-02   8.7364000e-02   1.3085200e-01
  -5.3561300e-02   6.8663700e-02   9.6976700e-02
  -5.1226800e-02   5.0664800e-02   1.0632200e-01
  -2.3912600e-02   4.3418500e-02   1.1262900e-01
  -9.6719600e-03   5.2301100e-02   1.0118200e-01
  -1.0605800e-02   5.8144900e-02   1.0048100e-01
   2.2341900e-03   3.7107100e-02   1.0819100e-01
   1.1805800e-02   2.7990800e-02   1.0188300e-01
   1.7642100e-02   1.8640700e-02   6.4970500e-02
   1.3440000e-02   1.1861900e-02   8.3660300e-02
   6.3165700e-02  -2.5772300e-02   5.2354900e-02
   4.9158400e-02   2.0043200e-02   5.5392000e-02
   6.5500200e-02   5.0830300e-03   4.3944500e-02
   9.9584500e-02  -1.8526000e-02   3.4599700e-02
   7.5071800e-02   4.1480200e-03   5.7261000e-02
   1.0168600e-01  -2.6006100e-02   1.4508200e-02
   8.7911800e-02  -1.1747200e-02   2.7357400e-02
   1.0495400e-01  -2.2499800e-02   2.8525500e-02
   1.1639300e-01  -2.0629800e-02   4.4624500e-03
   1.0775500e-01  -2.6239800e-02   8.2004000e-03
   1.4113900e-01  -3.9563700e-02   3.9952000e-03
   1.2689900e-01  -2.9512400e-02  -1.7965300e-02
   1.0145200e-01  -1.0110900e-02  -1.4928200e-02
   1.3647000e-01  -3.3953700e-02  -4.2261900e-02
   1.0962300e-01  -5.9033500e-03  -3.4786000e-02
   9.9351000e-02  -2.0162300e-02  -5.3475800e-02
   1.3810400e-01  -5.4056400e-02  -8.0108700e-02
   1.0425400e-01   2.0277000e-02  -3.4552400e-02
   1.0939000e-01  -4.0333200e-03  -7.7772400e-02
   1.0051800e-01   1.3731900e-02  -6.2353400e-02
   7.9974300e-02   1.0926800e-02  -4.3897300e-02
   7.7172900e-02  -1.0578400e-02  -7.5669800e-02
   5.4761300e-02   1.9108200e-02  -8.0809500e-02
   4.4022400e-02   3.3367100e-02  -5.4410300e-02
   5.7796200e-02   1.8874400e-02  -7.3100000e-02
   3.2116300e-02   2.4017000e-02  -9.1088900e-02
   1.4607200e-02   4.5522200e-02  -5.8849100e-02
   1.7175200e-02   4.3652200e-02  -7.8006100e-02
  -3.9320600e-02   7.5676300e-02  -5.9549900e-02
  -2.2278500e-02   2.2380700e-02  -8.8986300e-02
  -5.7530000e-02   6.8663700e-02  -6.4456000e-02
  -9.3481900e-02   9.9285300e-02  -5.6746500e-02
  -8.1108900e-02   5.9313600e-02  -8.7350900e-02
  -1.1752800e-01   8.2455200e-02  -4.1794700e-02
  -1.1542700e-01   1.0933700e-01  -5.2774900e-02
  -1.5348000e-01   1.4697100e-01  -3.7122200e-02
  -1.6375200e-01   1.1728400e-01  -2.3805800e-02
  -1.5441300e-01   1.1541400e-01  -3.7823100e-02
  -2.1441100e-01   1.5515200e-01  -2.1002300e-02
  -2.0507300e-01   1.5071100e-01  -2.4506700e-02
  -1.8733000e-01   1.1494700e-01  -3.4552400e-02
  -2.3962400e-01   1.7151500e-01  -1.2358300e-02
  -2.4312600e-01   1.8390400e-01  -1.7731600e-02
  -2.3518800e-01   1.3528300e-01  -1.9367000e-02
  -2.4966300e-01   1.6426900e-01  -2.0768700e-02
  -2.7721000e-01   1.8226800e-01  -1.1423800e-02
  -2.5900100e-01   1.6123000e-01  -1.9834200e-02
  -2.4476000e-01   1.5865900e-01  -2.3805800e-02
  -2.6810500e-01   1.8694300e-01  -2.5462100e-03
  -2.4102500e-01   1.7876100e-01  -2.0768700e-02
  -2.2701800e-01   1.7034600e-01  -1.8432500e-02
  -2.2795100e-01   1.8694300e-01  -2.6609300e-02
  -2.4242600e-01   2.0400700e-01  -6.2841600e-03
  -2.0110400e-01   1.5258100e-01  -2.5908400e-02
  -1.8663000e-01   1.5047700e-01  -3.5253300e-02
  -2.0227100e-01   1.7735900e-01  -1.7498000e-02
  -1.4997800e-01   1.5632100e-01  -3.5253300e-02
  -1.2803300e-01   1.7011200e-01  -2.2637700e-02
  -1.2056300e-01   1.7876100e-01  -3.2449800e-02
  -1.0772300e-01   1.6450200e-01  -2.1703200e-02
  -6.8035400e-02   1.3481600e-01  -3.1048100e-02
  -6.9202700e-02   1.5141200e-01  -3.1982600e-02
  -6.8035400e-02   1.5304800e-01  -1.6329900e-02
  -1.3173800e-02   1.3411400e-01  -2.8478200e-02
   1.0405100e-02   1.2873800e-01  -2.4973900e-02
   1.9976700e-02   1.5234700e-01  -1.8198900e-02
   5.3594000e-02   1.4089300e-01  -7.9195100e-03
   1.0448700e-01   1.1144000e-01  -1.3993700e-02
   8.9546000e-02   1.5211300e-01   3.2943400e-03
   1.0028500e-01   1.3014100e-01   1.5909900e-02
   1.5584700e-01   8.6195200e-02  -4.4361300e-04
   1.3647000e-01   9.8350300e-02   1.3106500e-02
   1.4020500e-01   1.1167400e-01   2.3853100e-02
   1.8409500e-01   6.8196200e-02   2.2918600e-02
   1.7592400e-01   6.8663700e-02   3.4366000e-02
   1.6238400e-01   8.9467700e-02   5.2822200e-02
   1.7499000e-01   4.8794800e-02   5.9597200e-02
   1.9670100e-01   2.3315700e-02   4.1141100e-02
   1.7872500e-01   4.6223500e-02   4.5813500e-02
   1.6845300e-01   3.9678400e-02   6.4036000e-02
   2.2658300e-01  -2.4369800e-02   3.7636700e-02
   1.9179900e-01  -9.9454000e-04   5.3055800e-02
   1.6611900e-01   9.0568200e-03   6.9876600e-02
   2.0860700e-01  -3.8395000e-02   5.2121300e-02
   1.7825800e-01  -5.4757600e-02   6.2167000e-02
   1.6448500e-01  -5.3822600e-02   6.0298100e-02
   1.7218900e-01  -6.0367700e-02   6.3568800e-02
   1.6541800e-01  -9.6833100e-02   6.1466200e-02
   1.6541800e-01  -1.1366300e-01   3.5300500e-02
   1.3226800e-01  -7.7899200e-02   6.3568800e-02
   1.3366900e-01  -1.0478100e-01   6.5204100e-02
   1.4464100e-01  -1.5153100e-01   1.7078000e-02
   8.0908200e-02  -1.2955800e-01   4.6981600e-02
   9.5615800e-02  -1.6368600e-01   4.3477300e-02
   1.0191900e-01  -1.7654300e-01   2.3619400e-02
   6.0364200e-02  -1.7186800e-01   3.2029800e-02
   9.7950300e-02  -1.7934800e-01   1.8479800e-02
   9.5615800e-02  -1.7023100e-01   1.9881500e-02
   6.8535100e-02  -1.7373800e-01   1.5909900e-02
   8.6744500e-02  -2.0996900e-01   2.3630400e-05
   6.9002000e-02  -2.2259200e-01   4.9296900e-03
   5.1726400e-02  -1.8636000e-01  -8.1531300e-03
   6.3165700e-02  -2.1651400e-01  -3.6655000e-02
   4.5189700e-02  -1.7747800e-01   1.5442700e-02
   8.4643400e-02  -2.1277400e-01  -1.1657500e-02
   7.2270400e-02  -2.0482700e-01  -1.8899700e-02
   6.5500200e-02  -1.3236400e-01   2.1984100e-02
   1.2316300e-01  -1.6064800e-01  -2.2871300e-02
   8.2775800e-02  -1.1179300e-01  -1.7965300e-02
   1.0542100e-01  -1.4498600e-01  -4.4598100e-02
   1.1896100e-01  -1.4989500e-01  -5.7681000e-02
   8.0674700e-02  -1.2839000e-01  -8.0108700e-02
   8.8845600e-02  -1.2418200e-01  -1.0417200e-01
   8.4410000e-02  -1.2932500e-01  -7.8473300e-02
   9.9117600e-02  -1.5246600e-01  -1.0020000e-01
   1.1289100e-01  -1.3540200e-01  -1.1375000e-01
   9.5849200e-02  -1.3119500e-01  -7.8239700e-02
   1.2946700e-01  -1.4077900e-01  -8.1043200e-02
   1.4230700e-01  -1.3423400e-01  -8.4080200e-02
   1.2596500e-01  -5.8030200e-02  -1.2591900e-02
   1.8806400e-01  -7.3224100e-02  -3.0580800e-02
   1.8012600e-01  -6.8549100e-02  -6.2119800e-02
   1.5374600e-01  -1.5019700e-02  -6.5390500e-02
   1.6658600e-01  -3.3486200e-02  -8.9453500e-02
   1.2643200e-01  -4.4238800e-02  -9.3658700e-02
   9.8650700e-02  -6.7614000e-02  -1.1258200e-01
   9.9351000e-02  -8.9119300e-02  -1.1234800e-01
   1.2036200e-01  -8.3743000e-02  -1.5089600e-01
   1.1545900e-01  -6.8081500e-02  -1.7636100e-01
   1.2036200e-01  -9.2859300e-02  -1.6211000e-01
   1.4043900e-01  -1.1015700e-01  -1.3173900e-01
   1.0798900e-01  -1.2862300e-01  -9.5060500e-02
   9.0246300e-02  -1.4031100e-01  -8.4313900e-02
   9.7249900e-02  -1.1506600e-01  -6.0250800e-02
   8.6511100e-02  -9.1456800e-02  -6.0484400e-02
   8.4876900e-02  -1.0150800e-01  -8.4313900e-02
   8.9312500e-02  -1.2979200e-01  -9.8331200e-02
   5.1959900e-02  -1.1600100e-01  -7.4501700e-02
   4.1454400e-02  -1.2745500e-01  -9.0388000e-02
   1.6708300e-02  -1.5036200e-01  -8.1977600e-02
   1.6241400e-02  -1.6953000e-01  -6.2353400e-02
   1.2973100e-02  -1.2441600e-01  -7.4268100e-02
  -3.2317000e-02  -1.2535100e-01  -4.5766300e-02
   3.0015200e-02  -2.0482700e-01  -6.8894800e-02
   8.0705400e-03  -1.6906300e-01  -4.6467100e-02
  -3.5118400e-02  -1.5386900e-01  -1.9133400e-02
   1.5074200e-02  -2.2867000e-01  -4.6700700e-02
  -2.2278500e-02  -2.1885200e-01  -5.8169200e-03
  -5.4728600e-02  -1.8565900e-01   6.3314200e-03
  -3.4184600e-02  -2.0880100e-01  -6.0505400e-03
  -4.2589000e-02  -2.2259200e-01   1.9180600e-02
  -3.4418100e-02  -2.2913700e-01  -4.1815600e-03
  -7.7840500e-02  -1.7443900e-01   4.0440200e-02
  -7.0603400e-02  -2.0529400e-01   8.0155900e-02
  -3.7919900e-02  -2.4035700e-01   8.1791300e-02
  -1.0141900e-01  -1.7233500e-01   1.3809400e-01
  -4.7724900e-02  -1.5831000e-01   1.1473200e-01
  -2.9982500e-02  -1.5199900e-01   8.5762800e-02
  -8.4377200e-02  -1.4522000e-01   9.9780200e-02
  -4.0721300e-02  -1.8051700e-01   6.7540300e-02
  -7.3871800e-02  -1.8332200e-01   7.5016200e-02
  -1.1636000e-01  -1.6205000e-01   7.7118800e-02
  -1.2289700e-01  -1.6298500e-01   4.9084200e-02
  -1.6515200e-01  -1.6345300e-01   8.8099100e-02
  -1.0492100e-01  -2.1394300e-01   4.1608300e-02
  -1.3363600e-01  -1.5503800e-01   7.8053300e-02
  -1.1939500e-01  -1.1717000e-01   1.2454400e-01
  -2.9282100e-02  -1.3329900e-01   8.9500800e-02
  -1.1099100e-01  -4.0732500e-02   1.7827700e-01
  -7.6673200e-02  -4.7043800e-02   1.7734300e-01
  -4.7724900e-02  -9.9454000e-04   1.8248200e-01
  -6.0098000e-02   6.8663700e-02   1.8224900e-01
  -5.2363400e-03   8.0818900e-02   1.2150700e-01
  -1.6208700e-02   1.3294600e-01   1.2127300e-01
  -5.2363400e-03   1.3458200e-01   7.8754200e-02
  -4.6557700e-02   1.5351600e-01   6.9175700e-02
  -8.8345900e-02   1.8133300e-01   6.5905000e-02
  -4.2355500e-02   1.6777500e-01  -1.0255700e-02
  -8.7178700e-02   2.0914900e-01  -2.7543700e-02
  -5.8230400e-02   2.0003300e-01  -4.2729200e-02
   1.4840700e-02   1.6380100e-01  -4.9037000e-02
  -4.0954800e-02   2.3766700e-01   4.5579900e-02
   3.6349100e-03   2.2481100e-01   7.5016200e-02
   9.9381700e-03   2.3135600e-01   1.2057300e-01
  -1.6909000e-02   3.2298700e-01   1.4346700e-01
  -2.2014400e-03   3.8703500e-01   1.0281700e-01
  -4.0487900e-02   4.1648800e-01   1.1146100e-01
   1.1805800e-02   3.6927000e-01   3.7636700e-02
  -9.4385100e-03   3.8352900e-01   2.0115100e-02
  -4.4456600e-02   4.1952600e-01   5.7261000e-02
   3.5384600e-02   3.6903600e-01   1.9180600e-02
  -2.2511900e-02   4.0877400e-01   4.7448900e-02
  -5.0292900e-02   4.4991400e-01   5.5158400e-02
   3.6349100e-03   4.1555300e-01   1.7545300e-02
  -4.2122100e-02   4.2163000e-01   2.2918600e-02
  -2.5079900e-02   3.8610000e-01  -1.8666100e-02
  -3.2783900e-02   4.0456600e-01   2.8270900e-03
  -4.8892200e-02   4.0199500e-01   5.3289400e-02
  -2.4348900e-03   3.5407600e-01   2.9927200e-02
  -4.5623900e-02   4.2303300e-01   8.5062000e-02
  -2.6683400e-03   4.3261700e-01   6.8474800e-02
   3.6655700e-04   4.1765600e-01   1.5676300e-02
  -8.0642000e-02   4.1859100e-01   5.5158400e-02
  -2.4146100e-02   3.3981700e-01   3.5279600e-03
  -7.1303800e-02   3.3327200e-01   1.1237500e-02
  -9.3481900e-02   3.3724600e-01   2.8525500e-02
  -3.3484300e-02   2.9330000e-01   4.9296900e-03
  -6.9903100e-02   3.1457200e-01   2.6422900e-02
  -4.8892200e-02   2.9096300e-01  -3.4318800e-02
  -8.2509600e-02   2.8114500e-01  -3.0580800e-02
  -1.1612700e-01   2.8114500e-01  -1.4460900e-02
  -7.8307400e-02   2.0120100e-01  -7.3567300e-02
  -1.2639900e-01   2.2036900e-01  -4.1327400e-02
  -1.0258700e-01   1.9816300e-01  -2.5674800e-02
  -8.3910300e-02   1.6847600e-01  -3.2216200e-02
  -1.3620400e-01   1.9302000e-01   1.2172000e-02
  -9.5816500e-02   1.4276300e-01   4.6960700e-03
  -1.0748900e-01   1.6239900e-01   8.9012600e-03
  -1.3246900e-01   1.3692000e-01  -1.2591900e-02
  -1.1402600e-01   9.9986600e-02  -5.4176600e-02
  -1.3480300e-01   9.2506500e-02  -4.8102500e-02
  -1.1822800e-01   3.4068400e-02  -8.6416500e-02
  -1.1706100e-01   3.3600900e-02  -9.8564800e-02
  -1.3667100e-01   4.8093500e-02  -6.1185300e-02
  -1.0889000e-01   2.5887000e-02  -9.1556100e-02
  -1.4811000e-01   1.6303200e-02  -8.5949200e-02
  -1.4624300e-01  -1.7123500e-02  -7.5903500e-02
  -1.2149600e-01  -4.3070000e-02  -1.0627400e-01
  -1.7752500e-01  -1.6422200e-02  -8.2678500e-02
  -1.3433600e-01  -5.1251400e-02  -9.6695800e-02
  -1.3457000e-01  -8.3041700e-02  -6.9595700e-02
  -1.4250700e-01  -7.6964100e-02  -7.4735400e-02
  -1.2289700e-01  -5.8263900e-02  -8.5482000e-02
  -1.4110700e-01  -5.8731400e-02  -5.2774900e-02
  -1.0258700e-01  -1.1319600e-01  -1.1304900e-01
  -1.3386900e-01  -1.0127400e-01  -1.2216100e-01
  -1.3970600e-01  -9.4261800e-02  -1.0393800e-01
  -8.2976500e-02  -1.3820700e-01  -1.3080500e-01
  -1.1239200e-01  -1.0735200e-01  -1.1375000e-01
  -9.2314600e-02  -9.2391800e-02  -9.5761300e-02
  -5.7530000e-02  -1.0688400e-01  -9.5294100e-02
  -9.8617900e-02  -9.6365600e-02  -7.3100000e-02
  -7.7373600e-02  -1.1413100e-01  -9.2023400e-02
  -8.9513200e-02  -1.1272800e-01  -7.2866400e-02
  -8.7879000e-02  -1.1506600e-01  -8.2678500e-02
  -7.1537200e-02  -1.1927300e-01  -1.0300400e-01
  -9.5583000e-02  -9.0521800e-02  -4.5065400e-02
  -4.1188200e-02  -1.0478100e-01  -7.1231000e-02
  -6.5234000e-02  -8.7015500e-02  -5.3242200e-02
  -6.6634700e-02  -7.4392900e-02  -2.6842900e-02
  -2.4146100e-02  -9.3326800e-02  -3.6421400e-02
  -5.8463800e-02  -5.8497700e-02  -2.0535100e-02
  -1.9943900e-02  -8.7950500e-02  -3.6655000e-02
  -3.3380500e-04  -8.2340500e-02  -1.1657500e-02
   7.3701700e-03  -4.3771300e-02  -1.3760100e-02
   2.7680700e-02  -4.5875000e-02  -2.0999100e-04
   3.1649400e-02  -3.6992400e-02   3.4132400e-02
   5.5928600e-02  -4.2836300e-02   2.5722000e-02
   3.7952600e-02  -1.9928500e-02   2.1516800e-02
   4.3322100e-02  -1.9295500e-03   2.6656500e-02
   8.2542300e-02  -3.9563700e-02   1.8947000e-02
   7.5538700e-02  -2.9328200e-04   2.2217700e-02
   6.6667500e-02   2.7289500e-02   5.4691100e-02
   1.0705500e-01  -1.4318400e-02   6.5671400e-02
   1.0145200e-01   3.6805100e-03   1.0094800e-01
   9.0479800e-02   1.1861900e-02   1.1216200e-01
   1.1662700e-01   2.6588300e-02   1.2711400e-01
   1.4160600e-01   4.1480200e-03   1.2057300e-01
   1.4464100e-01   2.0978200e-02   1.0001400e-01
   1.5631400e-01   3.9678400e-02   1.1590000e-01
   2.0744000e-01   2.4718300e-02   9.4640500e-02
   1.9530100e-01   3.9444700e-02   8.6230100e-02
   1.8036000e-01   5.3937300e-02   9.6976700e-02
   2.1514400e-01   3.0795800e-02   9.4640500e-02
   2.1584500e-01   5.7842900e-03   7.1745500e-02
   1.7895900e-01   6.0482400e-02   9.3939600e-02
   1.9646800e-01   3.6405900e-02   1.0024700e-01
   2.1444400e-01   8.1218100e-03   9.3472400e-02
   2.0067000e-01   1.2563100e-02   9.4640500e-02
   1.9600100e-01   3.8275900e-02   1.1683500e-01
   2.1444400e-01   3.3367100e-02   1.2361000e-01
   2.0744000e-01   1.5835700e-02   9.4640500e-02
   1.7008800e-01   1.5368100e-02   1.1052700e-01
   2.1070900e-01  -3.0914900e-02   7.2913600e-02
   1.9950300e-01  -2.0863500e-02   5.1420400e-02
   1.6401800e-01   3.6805100e-03   5.9830800e-02
   1.8969800e-01  -3.3486200e-02   3.9505700e-02
