**************************************************************************************
  	RED ACELEROGRÁFICA DE LA UNIVERSIDAD AUTONOMA METROPOLITANA (RA-UAM)
	   UNIDAD AZCAPOTZALCO. DIVISIÓN CBI-DEPARTAMENTO DE MATERIALES
     Av. San Pablo 420, Col. Nueva el Rosario, Azcapotzalco, C.P. 02128, Ciudad de México
		Área de Estructuras. e-mail: agb@azc.uam.mx
**************************************************************************************
ARCHIVO ESTANDAR DE ACELERACION:
VERSION DEL FORMATO                    : 2.0
NOMBRE DEL ARCHIVO                     : RUMC202310.071
FECHA Y HORA DE CREACION               : 11:30 a. m. 13/10/2023
REF. CATALOGO ACELEROGRAMAS, SMIS 1999 : REGISTRO NO.      /PAG.    


================================================================================
DATOS DE LA ESTACION:
NOMBRE DE LA ESTACION                  : UAM-CUAJIMALPA.
CLAVE DE LA ESTACION                   : RUMC
LOCALIZACION DE LA ESTACION            : AV. VASCO DE QUIROGA 4871, COL. SANTA FE,
                                       : CUAJIMALPA DE MORELOS, C.P. 05348, CIUDAD DE MEXICO.   
                                       : 
                                       : 
                                       : 
COORDENADAS DE LA ESTACION             : 19.35303 LAT. N
                                       : -99.28219 LONG. W
ALTITUD (msnm)                         : 2671
TIPO DE SUELO                          : DEPOSITOS LACUSTRES
                                       : 
                                       : 
INSTITUCION RESPONSABLE                : UNIVERSIDAD AUTONOMA METROPOLITANA
                                       : 

================================================================================
DATOS DEL ACELEROGRAFO: 
MODELO DEL ACELEROGRAFO                : ETNA2 KINEMETRICS
NUMERO DE SERIE DEL ACELEROGRAFO       : 104252
NUMERO DE CANALES                      : 3
ORIENTACION C1-C6 (rumbo;orientacion)  : /N90E/N00E/V 
ORIENTACION C7-C12 (rumbo;orientacion) : 
VEL. DE MUESTREO, C1-C6 (muestras/s)   : /200/200/200
VEL. DE MUESTREO, C7-C12 (muestras/s)  : 
ESC. COMPLETA DE SENSORES, C1-C6, (g)  : /2/2/2
ESC. COMPLETA DE SENSORES, C7-C12 (g)  : 
FREC. NAT. DE SENSORES, C1-C6, (Hz)    : /204/216/208   
FREC. NAT. DE SENSORES, C7-C12 (Hz)    : 
AMORTIGUAMIENTO DE SENSORES, C1-C6     : /0.7/0.7/0.7      
AMORTIGUAMIENTO DE SENSORES, C7-C12    : 
INTERVALO DE MUESTREO, C1-C6 (s)       : /0.005/0.005/0.005
INTERVALO DE MUESTREO, C7-C12 (s)      : 
UMBRAL DE DISPARO, C1-C6 (Gal)         : /2/2/2
UMBRAL DE DISPARO, C7-C12 (Gal)        : 
MEMORIA DE PREEVENTO (s)               : 50
TIEMPO DE POSEVENTO (s)                : 60


================================================================================
DATOS DEL SISMO:
FECHA DEL SISMO [GMT]                  : 2023/10/07
HORA EPICENTRO (GMT)                   : 05:06:56
MAGNITUD(ES)                           : /M=6.0
COORDENADAS DEL EPICENTRO              : 16.9600 LAT. N
                                       : -95.1100 LONG. W
PROFUNDIDAD FOCAL (Km)                 : 110.3
FUENTE DE LOS DATOS EPICENTRALES       : SSN
                                       : INSTITUTO DE GEOFISICA, UNAM

================================================================================
DATOS DE ESTE REGISTRO:
HORA DE LA PRIMERA MUESTRA (GMT)       : 05:07:53.000
EXACTITUD DEL TIEMPO (s)               : 
DURACION DEL REGISTRO (s), C1-C6       : /233/233/233
DURACION DEL REGISTRO (s), C7-C12      : 
NUM. TOTAL DE MUESTRAS, C1-C6          : /46600/46600/46600
NUM. TOTAL DE MUESTRAS, C7-C12         : 
ACEL. MAX.(Gal), C1-C6                 : /-1.373/1.112/-0.770
ACEL. MAX., C1-C6, EN LA MUESTRA       : /17460/17424/17039
ACEL. MAX.(Gal), C7-C12                : 
ACEL. MAX., C7-C12,EN LA MUESTRA       : 
UNIDADES DE LOS DATOS                  : Gal (cm/s/s)
FACTOR DE DECIMACION                   : 1
FORMATO DATOS (FORTRAN,16 campos/dato) : 3E16.7


================================================================================
CALIDAD DEL ACELEROGRAMA:
REGISTRO DIGITAL COMPLETO CON TIEMPO ABSOLUTO CORRECTO


================================================================================
COMENTARIOS:














================================================================================
DATOS DE ACELERACION:
---------+---------+---------+---------+---------+---------+---------+---------+
   CANAL-1   	     CANAL-2          CANAL-3
     N90E              N00E              V
---------+---------+---------+---------+---------+---------+---------+---------+ 
[...]
   3.3949100e-01   1.0273000e-01  -5.9321100e-02
   3.4299300e-01   1.3685800e-01  -1.1095200e-01
   3.0307300e-01   1.7753000e-01  -1.4225700e-01
   2.6268500e-01   2.1843700e-01  -1.3501500e-01
   2.4914500e-01   2.5420100e-01  -1.2380100e-01
   2.3653800e-01   2.8809500e-01  -1.7309500e-01
   1.5062700e-01   3.7271400e-01  -1.2310000e-01
   1.9241500e-01   3.2012000e-01  -1.6702100e-01
   9.8333500e-02   4.8374600e-01  -9.7167900e-02
   8.3859400e-02   4.5008600e-01  -1.1258700e-01
   3.3199900e-02   5.1319900e-01  -9.8803200e-02
  -3.3334500e-02   6.0810300e-01  -2.5212400e-02
   1.2189000e-02   5.0642000e-01  -1.1959600e-01
  -1.7854300e-01   7.0885000e-01   6.4264800e-02
  -7.9558300e-02   5.8332500e-01  -4.5070200e-02
  -1.8461300e-01   7.1305800e-01   5.4919900e-02
  -2.2780200e-01   7.2755000e-01   1.1028800e-01
  -2.0982600e-01   7.3362800e-01   1.4322900e-01
  -2.4064200e-01   8.0375400e-01   1.9018700e-01
  -2.3900700e-01   7.3105700e-01   1.9836400e-01
  -2.6492100e-01   8.2362300e-01   3.1120300e-01
  -1.7270600e-01   7.4578300e-01   2.1425000e-01
  -2.4250900e-01   8.0585800e-01   3.5021800e-01
  -1.2765000e-01   7.3409600e-01   2.7242200e-01
  -1.4492500e-01   7.9791000e-01   3.6236600e-01
  -7.8157600e-02   7.7196300e-01   3.3456500e-01
  -5.5279100e-02   7.3222500e-01   3.5442300e-01
  -3.9192800e-03   7.4601700e-01   3.9764300e-01
   4.9074800e-02   6.9692900e-01   3.4204100e-01
   5.1876200e-02   7.0534400e-01   4.1773500e-01
   1.7280500e-01   5.8075400e-01   3.2732300e-01
   1.1864400e-01   6.6654100e-01   4.3782600e-01
   2.4097400e-01   5.7794900e-01   3.6470300e-01
   2.4120700e-01   5.2932800e-01   3.8970000e-01
   2.5077900e-01   5.9174000e-01   4.2964900e-01
   3.0237200e-01   5.0010900e-01   3.8339200e-01
   3.0027100e-01   4.8164300e-01   4.1469800e-01
   3.3342200e-01   4.2110100e-01   3.8923300e-01
   3.3785700e-01   4.0286800e-01   3.6937500e-01
   3.3272100e-01   4.4868400e-01   3.8783100e-01
   3.5956800e-01   3.4817000e-01   3.6563700e-01
   3.8104600e-01   3.6500000e-01   3.5559100e-01
   3.5349900e-01   3.9842700e-01   3.8829800e-01
   3.7567700e-01   3.5728600e-01   3.8105600e-01
   4.0205700e-01   3.3017100e-01   3.7287900e-01
   4.0135700e-01   3.0866600e-01   3.6213300e-01
   4.1279600e-01   3.4443000e-01   3.8946600e-01
   4.5154900e-01   2.7664200e-01   3.4507800e-01
   4.3544100e-01   2.8482300e-01   3.4274200e-01
   4.7256000e-01   2.8038200e-01   3.1634300e-01
   4.3707500e-01   3.0866600e-01   3.4858300e-01
   4.8096500e-01   2.6986300e-01   2.7335600e-01
   4.6112100e-01   2.5279900e-01   2.5466700e-01
   4.2586900e-01   2.6214900e-01   2.7218800e-01
   4.7115900e-01   1.7823200e-01   1.6121800e-01
   3.7684400e-01   2.2848900e-01   1.9649500e-01
   4.1162900e-01   1.4083100e-01   1.2103500e-01
   3.7497600e-01   1.2820900e-01   1.0655000e-01
   3.1824700e-01   1.6654400e-01   8.4589900e-02
   3.0097200e-01   9.7820800e-02   4.6509600e-02
   3.0190500e-01   2.0448700e-02   6.5602200e-03
   2.4681000e-01   1.1566100e-02  -3.8295200e-02
   1.9638400e-01   9.4623200e-03  -8.8523900e-02
   2.1062500e-01  -7.8662400e-02  -1.6772200e-01
   1.4759200e-01  -1.0881700e-01  -2.1304400e-01
   7.2420200e-02  -9.5025100e-02  -2.6257200e-01
   5.2576600e-02  -1.3032200e-01  -3.1046500e-01
   2.5495900e-02  -1.9320100e-01  -3.5929200e-01
  -6.2983100e-02  -2.0442100e-01  -3.6816900e-01
  -5.3411500e-02  -2.3597800e-01  -4.7049600e-01
  -1.1667800e-01  -2.4369200e-01  -4.3662000e-01
  -1.2765000e-01  -3.4163400e-01  -5.2189200e-01
  -1.7901000e-01  -3.1381800e-01  -5.5179600e-01
  -2.4017500e-01  -2.8904000e-01  -5.2679800e-01
  -2.5044700e-01  -3.5472400e-01  -6.1113600e-01
  -3.3705800e-01  -3.2083000e-01  -5.8146600e-01
  -3.5129900e-01  -3.4841300e-01  -6.1744400e-01
  -3.7861300e-01  -3.5425700e-01  -5.9618400e-01
  -4.1666600e-01  -3.7903500e-01  -6.4360900e-01
  -4.5892100e-01  -3.3976400e-01  -6.1931300e-01
  -4.3020600e-01  -3.7319100e-01  -6.1604200e-01
  -4.8763600e-01  -3.3789400e-01  -6.0389400e-01
  -4.7643000e-01  -3.0306500e-01  -6.0412700e-01
  -4.9230500e-01  -2.8646900e-01  -5.3053600e-01
  -4.6662500e-01  -2.8600100e-01  -5.0086600e-01
  -4.6218900e-01  -2.7478100e-01  -5.3006900e-01
  -5.0327700e-01  -2.0185000e-01  -3.8826100e-01
  -3.3005400e-01  -3.2597300e-01  -4.8147600e-01
  -4.7876500e-01  -1.5252800e-01  -3.4574200e-01
  -3.8398200e-01  -1.7847500e-01  -3.6139400e-01
  -3.0297400e-01  -2.1236900e-01  -3.4574200e-01
  -4.0546000e-01  -9.7596400e-02  -2.2519300e-01
  -2.7682700e-01  -1.6959200e-01  -3.1443600e-01
  -3.0250700e-01  -1.1606300e-01  -1.9599000e-01
  -2.4857900e-01  -1.6258000e-01  -2.0626900e-01
  -2.2663400e-01  -1.4761900e-01  -1.9318600e-01
  -2.3293800e-01  -1.5206100e-01  -1.4552800e-01
  -1.2508200e-01  -1.8361700e-01  -1.5300400e-01
  -1.6710400e-01  -1.3686700e-01  -9.5298900e-02
  -1.5356300e-01  -1.4574900e-01  -6.7030700e-02
  -3.2867600e-02  -1.8782500e-01  -8.1982500e-02
  -1.0383800e-01  -1.5299600e-01   1.5437800e-02
  -1.8393400e-02  -1.7754000e-01  -4.9041800e-02
   3.3178000e-03  -1.6795600e-01  -1.1428700e-02
   3.2733000e-02  -1.6982600e-01   1.7540400e-02
   8.3392500e-02  -1.6538500e-01  -4.8107300e-02
   4.5573000e-02  -7.6792400e-02   5.4219100e-02
   1.6953700e-01  -1.2354300e-01  -7.6907200e-03
   1.2774900e-01  -6.9546100e-02   5.5620800e-02
   1.9731800e-01  -7.0481100e-02   7.7283300e-03
   2.2346500e-01  -3.3781900e-02   3.4594800e-02
   2.6128400e-01   2.0916200e-02   7.8749400e-02
   3.4532800e-01  -2.5133100e-02  -6.2889800e-03
   3.3178700e-01   6.3459200e-02   8.3421800e-02
   4.1162900e-01   1.2493600e-01   7.8282100e-02
   4.6812500e-01   1.0787200e-01   3.0623300e-02
   4.3964300e-01   1.6888200e-01   8.6692500e-02
   5.1154700e-01   1.9973700e-01   9.8140000e-02
   5.9208900e-01   2.0043800e-01   2.7819800e-02
   5.1715000e-01   2.4929300e-01   7.7114000e-02
   6.3784600e-01   2.0628200e-01   2.5717200e-02
   6.0679600e-01   2.8505700e-01   3.5295700e-02
   6.1987000e-01   2.4461700e-01   6.5602200e-03
   6.3364300e-01   2.4228000e-01   2.0577500e-02
   6.1029800e-01   2.6565500e-01   4.0902600e-02
   6.5255300e-01   1.8337400e-01  -3.7127100e-02
   5.4166300e-01   2.0628200e-01   2.7819800e-02
   6.2197100e-01   7.7718100e-02  -6.5395300e-02
   5.3349200e-01   1.1231300e-01  -1.3998500e-02
   4.9473800e-01   7.6783100e-02  -5.4181500e-02
   4.7606200e-01   2.4188700e-02  -3.4790900e-02
   4.1583100e-01   2.2159900e-03   1.8007700e-02
   3.9038400e-01  -5.4819700e-02  -3.8762400e-02
   2.7692600e-01  -3.8690700e-02   8.3889000e-02
   2.7972700e-01  -1.1723200e-01   5.0247500e-02
   1.9895200e-01  -1.2611400e-01   7.8282100e-02
   1.2378000e-01  -1.5042400e-01   1.2383800e-01
   8.4559800e-02  -1.7683900e-01   1.3785600e-01
   5.6778700e-02  -1.8992900e-01   1.6075100e-01
  -4.3839900e-02  -1.4948900e-01   2.2756600e-01
  -3.4268300e-02  -2.2919900e-01   2.4578900e-01
  -6.6018000e-02  -1.8992900e-01   2.7172100e-01
  -1.2438100e-01  -1.8689000e-01   3.1587600e-01
  -3.7536600e-02  -2.8389700e-01   3.1003500e-01
  -1.3792200e-01  -1.7543600e-01   4.0325000e-01
  -6.5784600e-02  -2.6145700e-01   3.1774500e-01
  -5.8314000e-02  -2.2990000e-01   3.7731800e-01
  -8.6562000e-02  -1.9296700e-01   4.4997400e-01
  -5.7869100e-03  -2.3691300e-01   3.8666300e-01
  -4.7808600e-02  -2.2732900e-01   4.2871500e-01
   2.6896600e-02  -2.9114400e-01   3.9390500e-01
   6.1192400e-03  -2.3083500e-01   4.2077200e-01
   2.6896600e-02  -2.9020900e-01   3.5675900e-01
   5.9580200e-02  -3.2924500e-01   3.3199500e-01
   1.5223900e-02  -2.6683300e-01   3.8175700e-01
   6.4716200e-02  -3.1101300e-01   2.6915100e-01
  -7.1876300e-03  -2.7875500e-01   3.2895800e-01
   3.3900300e-02  -3.4747800e-01   2.8386900e-01
   3.7168600e-02  -3.3018000e-01   2.3340700e-01
  -2.8198500e-02  -2.9722100e-01   2.7639300e-01
   4.0203500e-02  -3.8861800e-01   1.8364600e-01
   4.9519700e-03  -2.9231200e-01   1.8995300e-01
  -1.7459600e-02  -2.4976900e-01   1.6191900e-01
   6.3527000e-03  -2.3597800e-01   1.4206100e-01
   4.0670400e-02  -1.8478600e-01   9.8140000e-02
   8.9206900e-03  -1.1325800e-01   1.1005500e-01
   6.0047100e-02  -3.5184400e-02   8.3655400e-02
   1.0977300e-01   8.9948100e-03   4.2070700e-02
   1.1771000e-01   5.6446600e-02   4.3939700e-02
   1.7584000e-01   1.9576300e-01   1.8805100e-05
   1.8541200e-01   2.9744600e-01   1.4269700e-02
   2.5147900e-01   3.3321000e-01  -3.7594300e-02
   2.4681000e-01   5.1857600e-01   4.9248600e-03
   3.0587400e-01   5.8309100e-01  -3.0352000e-02
   3.4299300e-01   6.1768700e-01  -4.3902100e-02
   3.6307000e-01   7.3152400e-01  -2.5446000e-02
   4.1956600e-01   7.7640500e-01  -6.9133300e-02
   4.1326300e-01   8.4910200e-01  -4.2266700e-02
   4.3100500e-01   9.6060200e-01  -3.0819300e-02
   4.8306600e-01   9.6714700e-01  -4.6705600e-02
   4.7559500e-01   1.0227800e+00  -1.2596800e-02
   4.6415600e-01   1.0884600e+00   3.0389600e-02
   5.1224700e-01   1.0772400e+00  -6.0553600e-03
   4.6602300e-01   1.1116100e+00   8.2720900e-02
   5.3139100e-01   1.0354000e+00   4.3005200e-02
   4.6649000e-01   1.1022600e+00   8.4122700e-02
   4.4267800e-01   1.0732700e+00   1.2594100e-01
   4.7839700e-01   9.7205600e-01   7.0806200e-02
   3.4369400e-01   1.0267500e+00   1.8878500e-01
   3.8781600e-01   9.2413600e-01   1.3692100e-01
   3.1988100e-01   8.5564700e-01   1.6846000e-01
   2.5334700e-01   7.5443200e-01   1.7663700e-01
   2.4097400e-01   6.5017800e-01   1.0771800e-01
   1.3031700e-01   6.2446600e-01   1.7173100e-01
   1.1024000e-01   4.7626600e-01   8.7393400e-02
  -5.0865400e-03   4.2226900e-01   1.0608300e-01
  -7.4655800e-02   3.5167600e-01   1.1005500e-01
  -1.2298100e-01   2.3106000e-01   3.7398300e-02
  -2.6608800e-01   1.7916700e-01   8.2720900e-02
  -2.7939500e-01   5.2706600e-02   3.0558900e-03
  -3.9845600e-01   3.7278900e-02   2.6651700e-02
  -4.7666300e-01  -6.6039800e-02  -3.8762400e-02
  -5.4973500e-01  -1.0741400e-01  -7.8244500e-02
  -6.4451700e-01  -1.1793300e-01  -5.5583200e-02
  -6.9634400e-01  -1.8011100e-01  -1.2683800e-01
  -8.2217500e-01  -1.4832100e-01  -9.7401500e-02
  -8.3805000e-01  -2.2966700e-01  -1.5650800e-01
  -9.4497200e-01  -2.1120000e-01  -1.3291200e-01
  -1.0187400e+00  -2.4649700e-01  -1.5463900e-01
  -1.0364900e+00  -2.7898800e-01  -2.0369900e-01
  -1.1315000e+00  -2.2499200e-01  -1.5136800e-01
  -1.1667500e+00  -2.6332700e-01  -1.8407500e-01
  -1.2071400e+00  -2.4626300e-01  -1.8991600e-01
  -1.2643400e+00  -2.3177000e-01  -1.4319100e-01
  -1.2687700e+00  -2.4976900e-01  -1.7122600e-01
  -1.3252700e+00  -2.0979800e-01  -1.6561900e-01
  -1.3458100e+00  -2.1540800e-01  -1.4202300e-01
  -1.2993600e+00  -2.9628600e-01  -1.8617800e-01
  -1.3553800e+00  -2.5047100e-01  -1.8150500e-01
  -1.3731300e+00  -1.7450100e-01  -1.1165200e-01
  -1.2818500e+00  -2.8156000e-01  -1.7052500e-01
  -1.3304000e+00  -2.3925000e-01  -1.4108900e-01
  -1.2977200e+00  -2.1681000e-01  -1.1492300e-01
  -1.1999000e+00  -2.5771700e-01  -1.4249100e-01
  -1.2010700e+00  -2.5234100e-01  -8.3384200e-02
  -1.0941500e+00  -2.9231200e-01  -1.6141400e-01
  -1.0696400e+00  -1.9927900e-01  -8.4552300e-02
  -9.4427200e-01  -2.6332700e-01  -9.8803200e-02
  -8.9151100e-01  -2.2849800e-01  -9.0860100e-02
  -8.3011300e-01  -1.9740900e-01  -4.4603000e-02
  -6.7766700e-01  -2.1096600e-01  -3.0585700e-02
  -6.3331100e-01  -1.8385100e-01   1.7073200e-02
  -5.0257700e-01  -2.4860100e-01  -4.3434900e-02
  -4.3697600e-01  -1.4948900e-01   6.7301900e-02
  -3.0180600e-01  -1.8548700e-01   3.5996600e-02
  -2.5091400e-01  -1.8408500e-01   3.1791400e-02
  -1.7574100e-01  -1.6491700e-01   8.6926100e-02
  -4.1271900e-02  -1.8642200e-01   7.2675200e-02
  -6.2282800e-02  -1.3499700e-01   1.3388400e-01
   7.1719800e-02  -2.3270500e-01   8.9262400e-02
   1.2774900e-01  -2.2803000e-01   1.3341700e-01
   1.5529600e-01  -2.3457500e-01   1.5374200e-01
   2.4937800e-01  -3.0049400e-01   8.5290800e-02
   2.3700500e-01  -2.7828700e-01   1.6659100e-01
   3.4906300e-01  -3.4397200e-01   1.3598700e-01
   3.4509400e-01  -3.1662300e-01   1.3224900e-01
   3.6073600e-01  -3.4420500e-01   1.4907000e-01
   4.5995400e-01  -4.0895500e-01   1.0024300e-01
   4.2236800e-01  -3.7459300e-01   1.0398100e-01
   4.7279400e-01  -4.2461600e-01   3.5762900e-02
   4.9123600e-01  -4.1666900e-01   5.3518200e-02
   5.3279100e-01  -4.2835600e-01  -1.8437300e-02
   5.0384300e-01  -3.8745000e-01  -2.6380500e-02
   5.3092400e-01  -3.6407400e-01  -3.1286500e-02
   5.7621400e-01  -3.7412600e-01  -9.1327300e-02
   5.2578800e-01  -3.4350400e-01  -8.3851400e-02
   5.5170100e-01  -3.3602400e-01  -1.3057600e-01
   5.6103900e-01  -3.1311600e-01  -1.3758400e-01
   5.6080600e-01  -3.2106400e-01  -2.0580200e-01
   5.0384300e-01  -2.7291100e-01  -1.9248600e-01
   5.3606000e-01  -2.5117200e-01  -2.3336900e-01
   4.7139300e-01  -2.0231800e-01  -2.4224700e-01
   4.6065400e-01  -2.3831500e-01  -2.8032700e-01
   4.2073300e-01  -1.7754000e-01  -2.7845800e-01
   3.7287500e-01  -1.6772200e-01  -2.8196300e-01
   3.7871200e-01  -1.8361700e-01  -3.3616300e-01
   2.8229500e-01  -1.0577800e-01  -2.8897100e-01
   3.0307300e-01  -1.7286500e-01  -3.4247100e-01
   2.1506000e-01  -7.3987400e-02  -2.8757000e-01
   1.9825200e-01  -1.3008800e-01  -3.2635100e-01
   1.3802100e-01  -7.7961200e-02  -2.4668600e-01
   1.3568600e-01  -9.6895100e-02  -2.6233900e-01
   8.0357600e-02  -1.4434700e-01  -2.5509600e-01
   1.5223900e-02  -9.8297700e-02  -2.0697000e-01
   7.1486300e-02  -2.0348600e-01  -2.4925600e-01
  -3.1466800e-02  -1.4271100e-01  -1.4716300e-01
  -4.5474100e-02  -1.8525400e-01  -2.1024100e-01
  -6.5784600e-02  -2.2358900e-01  -1.4412600e-01
  -7.1620900e-02  -2.5397700e-01  -1.3641600e-01
  -1.5869900e-01  -2.3106900e-01  -1.0511100e-01
  -1.4726000e-01  -3.3275200e-01  -1.0230800e-01
  -9.7067400e-02  -4.1737000e-01  -1.5323700e-01
  -2.0982600e-01  -3.4280300e-01  -5.2312500e-02
  -1.6290100e-01  -4.7183400e-01  -1.1632500e-01
  -1.3255200e-01  -5.0409200e-01  -1.1352100e-01
  -2.0679100e-01  -4.6739300e-01  -4.1565900e-02
  -1.5356300e-01  -5.3868800e-01  -1.1071800e-01
  -1.3442000e-01  -5.7445200e-01  -7.4973800e-02
  -1.3815500e-01  -6.0671000e-01  -6.5161700e-02
  -9.7300800e-02  -6.3078600e-01  -1.2707100e-01
  -1.1177500e-01  -6.2751400e-01  -7.9412600e-02
  -5.0843500e-02  -6.6397900e-01  -1.2333400e-01
  -6.3216600e-02  -6.4925300e-01  -1.2006300e-01
  -5.2244200e-02  -6.5907000e-01  -1.0534500e-01
  -1.6525800e-02  -6.2844900e-01  -9.4598000e-02
  -2.5163600e-02  -6.1769600e-01  -6.5862600e-02
   1.0788300e-02  -6.4644800e-01  -7.7543600e-02
   2.7830500e-02  -6.0530700e-01  -3.8996000e-02
   3.5534400e-02  -5.7468600e-01  -3.4090000e-02
   7.0085600e-02  -5.6089400e-01  -2.6146800e-02
   8.7127800e-02  -5.6814000e-01  -1.7736500e-02
   6.1447800e-02  -4.5290000e-01   2.6651700e-02
   1.1420800e-01  -4.3326500e-01   3.9903800e-03
   7.8490000e-02  -4.1479900e-01   3.5762900e-02
   8.9462300e-02  -3.5776300e-01   4.6042300e-02
   1.0907200e-01  -3.0984400e-01   2.4081900e-02
   8.5026700e-02  -2.6519700e-01   4.7677700e-02
   1.1280800e-01  -2.7314500e-01   1.2400800e-02
   9.7866600e-02  -1.5323000e-01   5.3051000e-02
   1.1257400e-01  -1.1232300e-01   3.8332800e-02
   8.7127800e-02  -6.6741000e-02   7.1507100e-02
   1.3685300e-01  -2.5366800e-02   4.4640600e-02
   1.1560900e-01   5.4810300e-02   7.7347600e-02
   1.3521900e-01   8.8704500e-02   8.6692500e-02
