**************************************************************************************
  	RED ACELEROGRÁFICA DE LA UNIVERSIDAD AUTONOMA METROPOLITANA (RA-UAM)
	   UNIDAD AZCAPOTZALCO. DIVISIÓN CBI-DEPARTAMENTO DE MATERIALES
     Av. San Pablo 420, Col. Nueva el Rosario, Azcapotzalco, C.P. 02128, Ciudad de México
		Área de Estructuras. e-mail: agb@azc.uam.mx
**************************************************************************************
ARCHIVO ESTANDAR DE ACELERACION:
VERSION DEL FORMATO                    : 2.0
NOMBRE DEL ARCHIVO                     : RUMC202312.142
FECHA Y HORA DE CREACION               : 11:30 a. m. 21/12/2023
REF. CATALOGO ACELEROGRAMAS, SMIS 1999 : REGISTRO NO.      /PAG.    


================================================================================
DATOS DE LA ESTACION:
NOMBRE DE LA ESTACION                  : UAM-CUAJIMALPA.
CLAVE DE LA ESTACION                   : RUMC
LOCALIZACION DE LA ESTACION            : AV. VASCO DE QUIROGA 4871, COL. SANTA FE,
                                       : CUAJIMALPA DE MORELOS, C.P 05348, CIUDAD DE MEXICO.   
                                       : 
                                       : 
                                       : 
COORDENADAS DE LA ESTACION             : 19.35303 LAT. N
                                       : -99.28219 LONG. W
ALTITUD (msnm)                         : 2671
TIPO DE SUELO                          : DEPOSITOS LACUSTRES
                                       : 
                                       : 
INSTITUCION RESPONSABLE                : UNIVERSIDAD AUTONOMA METROPOLITANA
                                       : 

================================================================================
DATOS DEL ACELEROGRAFO: 
MODELO DEL ACELEROGRAFO                : ETNA2 KINEMETRICS
NUMERO DE SERIE DEL ACELEROGRAFO       : 104252
NUMERO DE CANALES                      : 3
ORIENTACION C1-C6 (rumbo;orientacion)  : /N90E/N00E/V 
ORIENTACION C7-C12 (rumbo;orientacion) : 
VEL. DE MUESTREO, C1-C6 (muestras/s)   : /200/200/200
VEL. DE MUESTREO, C7-C12 (muestras/s)  : 
ESC. COMPLETA DE SENSORES, C1-C6, (g)  : /2/2/2
ESC. COMPLETA DE SENSORES, C7-C12 (g)  : 
FREC. NAT. DE SENSORES, C1-C6, (Hz)    : /204/216/208   
FREC. NAT. DE SENSORES, C7-C12 (Hz)    : 
AMORTIGUAMIENTO DE SENSORES, C1-C6     : /0.7/0.7/0.7      
AMORTIGUAMIENTO DE SENSORES, C7-C12    : 
INTERVALO DE MUESTREO, C1-C6 (s)       : /0.005/0.005/0.005
INTERVALO DE MUESTREO, C7-C12 (s)      : 
UMBRAL DE DISPARO, C1-C6 (Gal)         : /2/2/2
UMBRAL DE DISPARO, C7-C12 (Gal)        : 
MEMORIA DE PREEVENTO (s)               : 50
TIEMPO DE POSEVENTO (s)                : 60


================================================================================
DATOS DEL SISMO:
FECHA DEL SISMO [GMT]                  : 2023/12/14
HORA EPICENTRO (GMT)                   : 20:15:20
MAGNITUD(ES)                           : /M=2.4
COORDENADAS DEL EPICENTRO              : 19.3700 LAT. N
                                       : -99.2000 LONG. W
PROFUNDIDAD FOCAL (Km)                 : 1.3
FUENTE DE LOS DATOS EPICENTRALES       : SSN
                                       : INSTITUTO DE GEOFISICA, UNAM

================================================================================
DATOS DE ESTE REGISTRO:
HORA DE LA PRIMERA MUESTRA (GMT)       : 20:12:30.000
EXACTITUD DEL TIEMPO (s)               : 
DURACION DEL REGISTRO (s), C1-C6       : /137/137/137
DURACION DEL REGISTRO (s), C7-C12      : 
NUM. TOTAL DE MUESTRAS, C1-C6          : /27400/27400/27400
NUM. TOTAL DE MUESTRAS, C7-C12         : 
ACEL. MAX.(Gal), C1-C6                 : /3.188/-2.511/1.543
ACEL. MAX., C1-C6, EN LA MUESTRA       : /11333/11988/11701
ACEL. MAX.(Gal), C7-C12                : 
ACEL. MAX., C7-C12,EN LA MUESTRA       : 
UNIDADES DE LOS DATOS                  : Gal (cm/s/s)
FACTOR DE DECIMACION                   : 1
FORMATO DATOS (FORTRAN,16 campos/dato) : 3E16.7


================================================================================
CALIDAD DEL ACELEROGRAMA:
REGISTRO DIGITAL COMPLETO CON TIEMPO ABSOLUTO CORRECTO


================================================================================
COMENTARIOS:














================================================================================
DATOS DE ACELERACION:
---------+---------+---------+---------+---------+---------+---------+---------+
   CANAL-1   	     CANAL-2          CANAL-3
     N90E              N00E              V
---------+---------+---------+---------+---------+---------+---------+---------+
[...]
  -5.2678400e-01   4.3543700e-01  -2.1281400e-01
  -5.2374900e-01   3.0664000e-01  -1.8361100e-01
  -3.7153700e-01   6.5012900e-03  -2.9785200e-01
  -4.0655500e-01  -1.3421800e-01  -2.8149900e-01
  -2.9263000e-01  -3.3945300e-01  -3.9176800e-01
  -1.6493100e-01  -4.8624900e-01  -5.5390200e-01
  -1.9201100e-01  -4.6918500e-01  -5.6418100e-01
   8.5256000e-03  -6.3515000e-01  -7.0599000e-01
   7.0157400e-02  -6.5946000e-01  -7.1626900e-01
   1.4509600e-01  -6.9569200e-01  -7.8425300e-01
   2.0579400e-01  -7.5132500e-01  -8.2233300e-01
   2.7022700e-01  -7.9059500e-01  -8.1625900e-01
   3.6244200e-01  -8.8596600e-01  -8.1462400e-01
   3.9605900e-01  -8.9274500e-01  -7.7724400e-01
   4.0446300e-01  -7.4594800e-01  -6.5015400e-01
   5.2959500e-01  -8.3664500e-01  -6.6300300e-01
   5.1535400e-01  -8.0017900e-01  -5.6021000e-01
   5.1021800e-01  -7.3262500e-01  -3.9387100e-01
   6.6056200e-01  -8.9321300e-01  -4.1653200e-01
   5.7908700e-01  -8.3828100e-01  -2.8313400e-01
   6.5425900e-01  -8.4716300e-01  -2.9575000e-01
   6.7386900e-01  -7.6231100e-01  -1.7263100e-01
   6.6266300e-01  -6.8493900e-01  -7.5444200e-02
   6.5285800e-01  -5.9190500e-01   1.8004600e-02
   6.2017500e-01  -4.7315900e-01   1.3084400e-01
   5.6204500e-01  -3.5090700e-01   2.1354600e-01
   5.3613100e-01  -2.6301600e-01   2.3200200e-01
   4.7193200e-01  -5.8715700e-02   2.7662400e-01
   3.9675900e-01   1.7924400e-01   4.0394800e-01
   4.5395600e-01   2.0472400e-01   3.3526300e-01
   3.6360900e-01   4.4642400e-01   4.6585800e-01
   4.4625200e-01   5.9041500e-01   4.9085500e-01
   4.5372200e-01   7.6409400e-01   5.3010400e-01
   4.0843200e-01   1.0354800e+00   6.0603100e-01
   4.8827300e-01   1.1172900e+00   6.1280600e-01
   5.4290200e-01   1.3003200e+00   7.0835700e-01
   6.1013600e-01   1.4863900e+00   6.8920000e-01
   7.2616300e-01   1.6042000e+00   6.5672700e-01
   8.5829800e-01   1.7643200e+00   6.7565000e-01
   9.3277000e-01   1.9001300e+00   6.5789500e-01
   9.8646400e-01   2.0170100e+00   6.1677700e-01
   9.7689200e-01   2.0008800e+00   5.7355700e-01
   1.0431900e+00   1.9828800e+00   4.7426800e-01
   1.1036600e+00   1.9863900e+00   3.6259700e-01
   1.0912800e+00   1.9733000e+00   3.3409500e-01
   1.2033400e+00   1.9506200e+00   1.9719300e-01
   1.1470800e+00   1.9690900e+00   6.3794400e-02
   1.1092600e+00   2.0001800e+00  -1.6104200e-02
   1.1809300e+00   1.9029400e+00  -1.6071600e-01
   1.1183700e+00   1.8947600e+00  -1.9879700e-01
   1.1568900e+00   1.7834900e+00  -2.9434800e-01
   1.1573500e+00   1.5721800e+00  -3.7004100e-01
   1.1433500e+00   1.4508600e+00  -4.7096600e-01
   1.1340100e+00   1.3758200e+00  -5.8357200e-01
   1.1321400e+00   1.2512300e+00  -6.2725900e-01
   1.1662200e+00   1.0464700e+00  -7.2421200e-01
   1.1585200e+00   9.7026300e-01  -7.4150000e-01
   1.1638900e+00   8.6928200e-01  -7.2397800e-01
   1.1722900e+00   6.8742300e-01  -6.8916900e-01
   1.1842000e+00   5.2823700e-01  -6.6627400e-01
   1.1426400e+00   3.7489500e-01  -6.2048400e-01
   1.1617900e+00   2.0963200e-01  -5.3918400e-01
   1.1739300e+00   4.8810500e-02  -5.1348500e-01
   1.0854500e+00   1.3046400e-02  -4.0882300e-01
   1.1265400e+00  -1.1808900e-01  -3.4224000e-01
   1.0798500e+00  -2.4828900e-01  -2.4575500e-01
   9.6592000e-01  -3.5254300e-01  -1.7403300e-01
   9.3510400e-01  -5.3603900e-01  -1.8384500e-01
   8.1137400e-01  -6.6647300e-01  -8.9928700e-02
   7.0281800e-01  -8.1584100e-01  -6.4697600e-02
   6.4071900e-01  -8.9578400e-01  -1.6337900e-02
   5.5947700e-01  -9.7315600e-01   1.0748200e-01
   4.5488900e-01  -1.0325300e+00   2.0957400e-01
   3.5146900e-01  -1.0493600e+00   2.5466300e-01
   2.2540400e-01  -1.0930700e+00   3.2615200e-01
   1.5840300e-01  -1.1954500e+00   3.4040300e-01
  -2.4858300e-02  -1.1608600e+00   3.4133700e-01
  -2.4313800e-01  -1.0126600e+00   3.4367300e-01
  -3.2998300e-01  -1.0381400e+00   2.6097100e-01
  -5.9238500e-01  -9.8788200e-01   2.8410000e-01
  -8.2840700e-01  -8.7030500e-01   2.6611100e-01
  -9.8155200e-01  -8.3945000e-01   2.3714200e-01
  -1.2231800e+00  -8.2916400e-01   2.5583200e-01
  -1.4241800e+00  -8.1958100e-01   1.6822300e-01
  -1.6109400e+00  -7.4805200e-01   9.8370500e-02
  -1.7540500e+00  -7.3730000e-01   2.6414900e-02
  -1.8441600e+00  -7.7727100e-01  -8.4555400e-02
  -1.9247100e+00  -7.2491100e-01  -1.4179300e-01
  -1.9849400e+00  -6.4426600e-01  -1.3992400e-01
  -1.9721000e+00  -6.3561700e-01  -1.9062000e-01
  -1.9728000e+00  -6.1715100e-01  -2.1585100e-01
  -1.9536500e+00  -5.8746400e-01  -1.7777100e-01
  -1.7909400e+00  -5.5731000e-01  -2.3010200e-01
  -1.7059600e+00  -4.6474400e-01  -2.4318500e-01
  -1.5532800e+00  -3.9742300e-01  -2.6070600e-01
  -1.3704900e+00  -2.8498800e-01  -2.7472400e-01
  -1.2834100e+00  -1.3515300e-01  -2.8523700e-01
  -1.1557100e+00  -2.4120300e-02  -3.0322500e-01
  -1.0910400e+00   1.0942600e-02  -2.5650100e-01
  -1.0506500e+00   2.0760200e-02  -2.7262100e-01
  -1.0226400e+00   5.5121800e-02  -3.1607500e-01
  -1.0305800e+00   1.0911900e-01  -2.7776100e-01
  -9.5283800e-01   1.0117100e-01  -3.0369300e-01
  -9.4630100e-01   1.6358300e-01  -3.0579500e-01
  -9.3696300e-01   3.0944500e-01  -2.3010200e-01
  -8.0155900e-01   3.5455900e-01  -1.8968500e-01
  -7.4973300e-01   4.2538600e-01  -1.0464700e-01
  -7.0491000e-01   4.7798000e-01  -7.2266100e-03
  -5.9051700e-01   5.5231400e-01   9.6034300e-02
  -4.8826400e-01   6.2664700e-01   1.7686700e-01
  -3.7947500e-01   5.8924700e-01   1.9906100e-01
  -2.8819400e-01   6.7807300e-01   2.6844700e-01
  -2.2492800e-01   8.1084400e-01   3.4437400e-01
  -1.1147000e-01   7.7250900e-01   3.2545100e-01
  -3.4196500e-02   7.3394000e-01   3.6119500e-01
   2.4400500e-02   7.6386000e-01   4.1609600e-01
   1.0961100e-01   7.8349500e-01   4.0021000e-01
   1.9132000e-01   6.8251400e-01   3.4951400e-01
   2.2470400e-01   5.9812900e-01   3.6843700e-01
   2.6415800e-01   5.6844300e-01   3.5558800e-01
   2.7302900e-01   5.1421200e-01   3.2755400e-01
   3.2088700e-01   3.8027200e-01   3.4764500e-01
   3.7644900e-01   2.4656500e-01   3.9109900e-01
   3.4189800e-01   1.6101200e-01   4.5931600e-01
   4.3364500e-01  -5.6144400e-02   3.9273400e-01
   4.5208800e-01  -2.2795300e-01   4.3712200e-01
   4.7590000e-01  -3.9321600e-01   4.3595400e-01
   5.2492600e-01  -5.0869000e-01   3.7778200e-01
   5.0438200e-01  -4.9676800e-01   4.5137300e-01
   5.3426400e-01  -6.5291500e-01   4.6445600e-01
   5.0508200e-01  -8.3851500e-01   5.0323700e-01
   4.7169800e-01  -8.8105800e-01   5.8547200e-01
   4.9364300e-01  -1.0128900e+00   6.3196300e-01
   4.5232100e-01  -1.1554800e+00   6.4270900e-01
   3.3396000e-01  -1.2583300e+00   6.3219600e-01
   2.6065600e-01  -1.3242500e+00   5.7939800e-01
   1.5210000e-01  -1.3462300e+00   5.3033700e-01
   6.8289800e-02  -1.4967600e+00   4.9202300e-01
   3.6773500e-02  -1.5673600e+00   4.9272400e-01
  -1.1170300e-01  -1.5755400e+00   5.3430900e-01
  -1.4298600e-01  -1.7538900e+00   4.0021000e-01
  -1.8780900e-01  -1.8789500e+00   2.7755800e-01
  -2.9613200e-01  -1.8852600e+00   2.1985400e-01
  -2.1092100e-01  -1.9546800e+00  -5.3576300e-03
  -2.7208600e-01  -1.9027900e+00  -2.9420700e-02
  -2.2959700e-01  -1.8843200e+00  -4.2269900e-02
  -1.6679800e-01  -1.9264000e+00  -1.3198100e-01
  -2.2562900e-01  -1.8291600e+00  -1.4646500e-01
  -1.4648800e-01  -1.7978400e+00  -2.2075700e-01
  -1.1754000e-01  -1.8487900e+00  -2.9528200e-01
  -1.2874500e-01  -1.7775000e+00  -3.5719200e-01
  -1.0843500e-01  -1.6211200e+00  -3.7120900e-01
  -1.2251800e-02  -1.4621700e+00  -4.3382000e-01
   6.6579700e-03  -1.3513700e+00  -4.5671500e-01
   5.7317500e-02  -1.2887200e+00  -5.1885800e-01
   3.0236800e-02  -1.0367400e+00  -5.1138300e-01
   6.6579700e-03  -9.6193600e-01  -5.6558300e-01
   3.7940800e-02  -1.0215400e+00  -6.7445100e-01
  -4.7970200e-02  -8.4038500e-01  -6.7118000e-01
  -7.5984700e-02  -6.1621600e-01  -7.4897600e-01
  -3.6997900e-02  -5.6221900e-01  -8.8284100e-01
  -8.5089400e-02  -4.6100400e-01  -9.5292800e-01
  -1.4275300e-01  -2.3286100e-01  -1.0181100e+00
  -1.9247800e-01  -4.4850800e-03  -1.1178600e+00
  -2.7862300e-01   1.5610300e-01  -1.1295500e+00
  -2.3800200e-01   2.3674800e-01  -1.1930900e+00
  -3.7130400e-01   4.4385200e-01  -1.1531400e+00
  -3.9488300e-01   5.9345400e-01  -1.1377200e+00
  -3.3558500e-01   6.9046200e-01  -1.1386600e+00
  -4.9129900e-01   8.4216700e-01  -1.0132000e+00
  -4.9736900e-01   1.0008900e+00  -9.5760000e-01
  -5.5386500e-01   1.1745600e+00  -8.6485200e-01
  -6.6872400e-01   1.2489000e+00  -7.5224700e-01
  -6.4748000e-01   1.1871900e+00  -7.3285600e-01
  -7.4973300e-01   1.3323500e+00  -5.6231200e-01
  -6.9160300e-01   1.3709200e+00  -4.9806600e-01
  -6.8623300e-01   1.3367900e+00  -4.2284000e-01
  -7.9035400e-01   1.4553000e+00  -2.3664300e-01
  -7.1611500e-01   1.4782100e+00  -2.0837500e-01
  -7.9665700e-01   1.5812900e+00  -6.5865700e-02
  -7.9992500e-01   1.5518400e+00   2.7115800e-02
  -7.8872000e-01   1.5387500e+00   1.9065100e-01
  -7.7051000e-01   1.5452900e+00   3.2591800e-01
  -8.0716200e-01   1.5174800e+00   4.4179500e-01
  -8.3447600e-01   1.4805500e+00   5.4575600e-01
  -8.5875600e-01   1.4749400e+00   5.8523800e-01
  -9.4793500e-01   1.5191100e+00   6.2051500e-01
  -9.4513400e-01   1.4847500e+00   6.0533000e-01
  -9.8598800e-01   1.3571200e+00   6.1888000e-01
  -9.5540600e-01   1.1787700e+00   5.6327800e-01
  -9.6124200e-01   1.1575000e+00   5.6281100e-01
  -9.0778100e-01   1.0270700e+00   4.9646200e-01
  -7.9922500e-01   9.0644900e-01   4.0394800e-01
  -7.2825500e-01   8.6250300e-01   3.1844200e-01
  -6.5191600e-01   8.7512600e-01   2.9087500e-01
  -4.6118400e-01   8.3118100e-01   1.6214900e-01
  -3.1107300e-01   7.2669300e-01   5.5150400e-02
  -1.8687500e-01   7.2529100e-01   5.3982300e-02
   1.9264500e-02   7.1827800e-01  -3.8999200e-02
   1.4299500e-01   7.5988600e-01  -7.4509700e-02
   3.1855200e-01   7.5264000e-01  -1.5651100e-01
   4.3317800e-01   8.1014300e-01  -1.4459600e-01
   5.8142200e-01   8.4099800e-01  -1.9669400e-01
   6.7597000e-01   8.8400900e-01  -2.3033500e-01
   8.2328000e-01   8.4333600e-01  -2.0931000e-01
   1.0004700e+00   7.1220100e-01  -2.1117800e-01
   1.0747100e+00   7.2739400e-01  -1.6562200e-01
   1.2523700e+00   7.0074700e-01  -1.5160500e-01
   1.4038800e+00   6.2173800e-01  -9.3900300e-02
   1.5862100e+00   5.7826000e-01  -8.4789100e-02
   1.7204400e+00   6.7924100e-01  -2.3346500e-02
   1.9233100e+00   6.5797000e-01   7.4915700e-03
   2.2076600e+00   4.7026700e-01  -3.2691400e-02
   2.3351300e+00   5.0042100e-01   4.3936600e-02
   2.5312300e+00   5.5278100e-01   1.1192100e-01
   2.7490400e+00   5.0509600e-01   1.1612600e-01
   2.8531600e+00   4.9340800e-01   1.7850300e-01
   2.9995400e+00   5.1444600e-01   2.4718800e-01
   3.0779800e+00   5.6400100e-01   3.6002700e-01
   3.1884000e+00   4.4361900e-01   3.8969700e-01
   3.1713600e+00   4.2655500e-01   5.3851400e-01
   3.1195300e+00   3.6764900e-01   7.1279600e-01
   3.1603900e+00   1.7620600e-01   6.8943400e-01
   2.9705900e+00   1.4698700e-01   7.9386300e-01
   2.8333200e+00   1.9357700e-02   8.2937300e-01
   2.6743400e+00   1.5924900e-03   8.6441700e-01
   2.4796400e+00  -7.1104600e-02   8.8544200e-01
   2.3047800e+00  -1.3936000e-01   9.6837800e-01
   2.0837000e+00  -1.0453100e-01   1.0863600e+00
   1.8759200e+00  -1.7372200e-01   1.0548200e+00
   1.6693200e+00  -7.5545900e-02   1.0424400e+00
   1.4375000e+00   2.5435300e-02   1.0936000e+00
   1.2876200e+00   3.8759200e-02   1.0959400e+00
   1.0877800e+00   1.1379400e-01   1.0756100e+00
   7.6398200e-01   2.5848700e-01   1.2052700e+00
   6.3184800e-01   3.1645700e-01   1.2108800e+00
   3.4633300e-01   3.1318500e-01   1.2008300e+00
   8.2763900e-02   3.5011800e-01   1.1688300e+00
  -1.3084600e-01   3.9663400e-01   1.1256100e+00
  -3.9861800e-01   4.0668600e-01   1.0702400e+00
  -5.2585000e-01   3.6250700e-01   9.2936300e-01
  -7.8918600e-01   3.9149200e-01   9.9267500e-01
  -9.1431800e-01   3.5081900e-01   9.1978500e-01
  -1.0599900e+00   2.6947300e-01   7.9970300e-01
  -1.2971800e+00   2.0823000e-01   7.4550300e-01
  -1.3795900e+00   9.9067300e-02   5.7986500e-01
  -1.5777900e+00   1.3046400e-02   4.2100200e-01
  -1.7391100e+00  -6.1988200e-02   2.4695400e-01
  -1.8313200e+00  -1.4356800e-01   1.0117400e-01
  -2.0010500e+00  -2.0995400e-01  -2.0543100e-02
  -2.0834500e+00  -2.9223500e-01  -1.5791300e-01
  -2.2225900e+00  -3.2683000e-01  -1.8828400e-01
  -2.3059400e+00  -4.2617500e-01  -2.4949200e-01
  -2.3486600e+00  -6.2486500e-01  -3.7868500e-01
  -2.5102100e+00  -7.3870200e-01  -3.9480500e-01
  -2.5043700e+00  -9.1752300e-01  -5.1161600e-01
  -2.5818800e+00  -1.0624500e+00  -5.9361700e-01
  -2.6309000e+00  -1.2174300e+00  -6.2655800e-01
  -2.5664700e+00  -1.3871300e+00  -6.7632000e-01
  -2.5809500e+00  -1.4684800e+00  -6.6300300e-01
  -2.4593200e+00  -1.6040500e+00  -7.4523800e-01
  -2.3934800e+00  -1.6699700e+00  -7.3168800e-01
  -2.2454700e+00  -1.8055500e+00  -7.6299300e-01
  -2.0262600e+00  -1.9004500e+00  -8.7139400e-01
  -1.9370800e+00  -1.8485600e+00  -8.1135300e-01
  -1.6646400e+00  -1.9032600e+00  -8.3027600e-01
  -1.5061200e+00  -1.9051300e+00  -8.4102300e-01
  -1.4034000e+00  -1.8417800e+00  -8.0247500e-01
  -1.1804600e+00  -1.7281800e+00  -7.7140400e-01
  -1.0525200e+00  -1.7080700e+00  -7.4944300e-01
  -8.8770400e-01  -1.7609000e+00  -8.1041900e-01
  -7.9338900e-01  -1.6241600e+00  -7.3939700e-01
  -6.4958100e-01  -1.5432800e+00  -7.0949400e-01
  -5.1814600e-01  -1.5178000e+00  -7.2795000e-01
  -5.1884700e-01  -1.4189200e+00  -6.2702500e-01
  -4.2546500e-01  -1.2648800e+00  -5.3451100e-01
  -3.8414400e-01  -1.1828300e+00  -4.7937600e-01
  -3.7877400e-01  -1.1720800e+00  -4.3031600e-01
  -3.0780400e-01  -1.1143400e+00  -4.0578500e-01
  -3.4188900e-01  -9.8344100e-01  -3.3429700e-01
  -2.2025900e-01  -9.5609200e-01  -3.5929500e-01
  -1.6960000e-01  -8.5277300e-01  -2.8126500e-01
  -1.6539800e-01  -6.3000700e-01  -1.4483000e-01
   1.4361900e-02  -5.5684300e-01  -2.4038100e-01
   1.6929900e-02  -3.3477800e-01  -1.5160500e-01
   2.0859600e-01  -1.9078600e-01  -1.4669900e-01
   2.6625900e-01  -1.3133900e-02  -1.1469300e-01
   3.4493300e-01   1.5516800e-01  -1.2987800e-01
   5.2352500e-01   2.2272200e-01  -1.9996500e-01
   5.1068500e-01   3.8027200e-01  -1.6562200e-01
   6.1317100e-01   4.9013600e-01  -2.6771500e-01
   5.8609100e-01   6.5189200e-01  -2.3944700e-01
   5.7068300e-01   7.0238300e-01  -2.6467800e-01
   5.3659800e-01   6.5376200e-01  -3.4738000e-01
   4.5582300e-01   6.4558100e-01  -4.0625300e-01
   4.3317800e-01   6.9607200e-01  -4.3755800e-01
   3.5497100e-01   6.5890500e-01  -4.7657300e-01
   3.1388300e-01   5.3057500e-01  -5.5460300e-01
   2.8400100e-01   5.2917200e-01  -5.7586200e-01
   1.7404400e-01   6.3599700e-01  -5.2189600e-01
   1.7731300e-01   5.5418400e-01  -5.5834100e-01
   1.2361800e-01   4.8148700e-01  -5.3731500e-01
   4.3543700e-02   4.9597900e-01  -4.6512500e-01
  -9.2169000e-03   4.7003300e-01  -4.7961000e-01
  -9.1859600e-02   4.2702200e-01  -4.4550100e-01
  -8.3455200e-02   3.1645700e-01  -4.5297700e-01
  -2.5971300e-01   4.0037500e-01  -3.6747100e-01
  -3.2998300e-01   4.1440000e-01  -3.4597800e-01
  -3.6336600e-01   3.0710700e-01  -3.2471900e-01
  -4.7916000e-01   2.3651400e-01  -2.3897900e-01
  -5.2374900e-01   2.0191900e-01  -2.2402800e-01
  -5.8258000e-01   2.1711200e-01  -1.8688200e-01
  -5.2234900e-01   1.0234000e-01  -1.8524600e-01
  -5.0694100e-01   4.4836700e-02  -1.3385000e-01
