**************************************************************************************
  	RED ACELEROGRÁFICA DE LA UNIVERSIDAD AUTONOMA METROPOLITANA (RA-UAM)
	   UNIDAD AZCAPOTZALCO. DIVISIÓN CBI-DEPARTAMENTO DE MATERIALES
     Av. San Pablo 420, Col. Nueva el Rosario, Azcapotzalco, C.P. 02128, Ciudad de México
		Área de Estructuras. e-mail: agb@azc.uam.mx
**************************************************************************************
ARCHIVO ESTANDAR DE ACELERACION:
VERSION DEL FORMATO                    : 2.0
NOMBRE DEL ARCHIVO                     : RUMC202312.071
FECHA Y HORA DE CREACION               : 11:30 a. m. 14/12/2023
REF. CATALOGO ACELEROGRAMAS, SMIS 1999 : REGISTRO NO.      /PAG.    


================================================================================
DATOS DE LA ESTACION:
NOMBRE DE LA ESTACION                  : UAM-CUAJIMALPA.
CLAVE DE LA ESTACION                   : RUMC
LOCALIZACION DE LA ESTACION            : AV. VASCO DE QUIROGA 4871, COL. SANTA FE,
                                       : CUAJIMALPA DE MORELOS, C.P. 05348, CIUDAD DE MEXICO.   
                                       : 
                                       : 
                                       : 
COORDENADAS DE LA ESTACION             : 19.35303 LAT. N
                                       : -99.28219 LONG. W
ALTITUD (msnm)                         : 2671
TIPO DE SUELO                          : DEPOSITOS LACUSTRES
                                       : 
                                       : 
INSTITUCION RESPONSABLE                : UNIVERSIDAD AUTONOMA METROPOLITANA
                                       : 

================================================================================
DATOS DEL ACELEROGRAFO: 
MODELO DEL ACELEROGRAFO                : ETNA2 KINEMETRICS
NUMERO DE SERIE DEL ACELEROGRAFO       : 104252
NUMERO DE CANALES                      : 3
ORIENTACION C1-C6 (rumbo;orientacion)  : /N90E/N00E/V 
ORIENTACION C7-C12 (rumbo;orientacion) : 
VEL. DE MUESTREO, C1-C6 (muestras/s)   : /200/200/200
VEL. DE MUESTREO, C7-C12 (muestras/s)  : 
ESC. COMPLETA DE SENSORES, C1-C6, (g)  : /2/2/2
ESC. COMPLETA DE SENSORES, C7-C12 (g)  : 
FREC. NAT. DE SENSORES, C1-C6, (Hz)    : /204/216/208   
FREC. NAT. DE SENSORES, C7-C12 (Hz)    : 
AMORTIGUAMIENTO DE SENSORES, C1-C6     : /0.7/0.7/0.7      
AMORTIGUAMIENTO DE SENSORES, C7-C12    : 
INTERVALO DE MUESTREO, C1-C6 (s)       : /0.005/0.005/0.005
INTERVALO DE MUESTREO, C7-C12 (s)      : 
UMBRAL DE DISPARO, C1-C6 (Gal)         : /2/2/2
UMBRAL DE DISPARO, C7-C12 (Gal)        : 
MEMORIA DE PREEVENTO (s)               : 50
TIEMPO DE POSEVENTO (s)                : 60


================================================================================
DATOS DEL SISMO:
FECHA DEL SISMO [GMT]                  : 2023/12/07
HORA EPICENTRO (GMT)                   : 20:03:40
MAGNITUD(ES)                           : /M=5.7
COORDENADAS DEL EPICENTRO              : 18.2900 LAT. N
                                       : -98.7600 LONG. W
PROFUNDIDAD FOCAL (Km)                 : 48.0
FUENTE DE LOS DATOS EPICENTRALES       : SSN
                                       : INSTITUTO DE GEOFISICA, UNAM

================================================================================
DATOS DE ESTE REGISTRO:
HORA DE LA PRIMERA MUESTRA (GMT)       : 20:03:10.000
EXACTITUD DEL TIEMPO (s)               : 
DURACION DEL REGISTRO (s), C1-C6       : /241/241/241
DURACION DEL REGISTRO (s), C7-C12      : 
NUM. TOTAL DE MUESTRAS, C1-C6          : /48200/48200/48200
NUM. TOTAL DE MUESTRAS, C7-C12         : 
ACEL. MAX.(Gal), C1-C6                 : /-20.86/15.93/-11.26
ACEL. MAX., C1-C6, EN LA MUESTRA       : /14264/13737/14122
ACEL. MAX.(Gal), C7-C12                : 
ACEL. MAX., C7-C12,EN LA MUESTRA       : 
UNIDADES DE LOS DATOS                  : Gal (cm/s/s)
FACTOR DE DECIMACION                   : 1
FORMATO DATOS (FORTRAN,16 campos/dato) : 3E16.7


================================================================================
CALIDAD DEL ACELEROGRAMA:
REGISTRO DIGITAL COMPLETO CON TIEMPO ABSOLUTO CORRECTO


================================================================================
COMENTARIOS:














================================================================================
DATOS DE ACELERACION:
---------+---------+---------+---------+---------+---------+---------+---------+
   CANAL-1   	     CANAL-2          CANAL-3
     N90E              N00E              V
---------+---------+---------+---------+---------+---------+---------+---------+ 
[...]
  -1.3745700e+01  -5.4807700e+00  -7.8404700e+00
  -1.3042100e+01  -5.0625900e+00  -7.1120300e+00
  -1.2320000e+01  -4.5060200e+00  -6.2081500e+00
  -1.1401800e+01  -3.8952300e+00  -5.1575500e+00
  -1.0285500e+01  -3.5006500e+00  -4.1994700e+00
  -9.1950000e+00  -3.0289400e+00  -3.0750500e+00
  -7.8869600e+00  -2.5768600e+00  -1.9499300e+00
  -6.5095800e+00  -2.2888800e+00  -8.3858700e-01
  -5.1406100e+00  -2.1053800e+00   1.7159400e-01
  -3.9117100e+00  -1.8108500e+00   1.2859700e+00
  -2.6242100e+00  -1.5731300e+00   2.2449900e+00
  -1.5944400e+00  -1.2204000e+00   3.1000400e+00
  -8.5276000e-01  -8.1086100e-01   3.8843100e+00
  -6.9522200e-02  -5.9323700e-01   4.4160400e+00
   3.8407900e-01  -2.4027100e-01   4.9956500e+00
   7.3052400e-01  -4.4853500e-02   5.2902500e+00
   1.0174400e+00  -3.9468100e-03   5.4682700e+00
   1.2448200e+00  -1.4231900e-02   5.5500400e+00
   1.4024000e+00  -9.1136500e-02   5.5427900e+00
   1.6708800e+00  -1.9094900e-01   5.4458400e+00
   2.0647100e+00  -2.4518000e-01   5.2439900e+00
   2.3670400e+00  -1.5144500e-01   5.0804600e+00
   2.8089600e+00  -8.6461500e-02   4.7311900e+00
   3.2747100e+00   2.7609800e-02   4.4417300e+00
   3.7794300e+00   1.2929200e-01   4.1485400e+00
   4.2220600e+00   3.4598100e-01   3.8885200e+00
   4.6759000e+00   5.7085100e-01   3.6609700e+00
   5.0804700e+00   7.9548700e-01   3.5042100e+00
   5.3272300e+00   1.1846900e+00   3.4537500e+00
   5.5732900e+00   1.5708400e+00   3.3738500e+00
   5.7411500e+00   2.1292800e+00   3.4514100e+00
   6.0420700e+00   2.6026300e+00   3.4983700e+00
   6.3644700e+00   3.0081900e+00   3.5728900e+00
   6.7020400e+00   3.5612500e+00   3.7224100e+00
   7.2595300e+00   4.0455800e+00   3.8805700e+00
   7.8767800e+00   4.6234200e+00   4.1546100e+00
   8.5731800e+00   5.3468900e+00   4.5013100e+00
   9.4726700e+00   6.0958300e+00   4.8914600e+00
   1.0515500e+01   6.8155500e+00   5.2465600e+00
   1.1597100e+01   7.5135400e+00   5.6126500e+00
   1.2754100e+01   8.1809000e+00   5.9602800e+00
   1.3953400e+01   8.7839800e+00   6.1509100e+00
   1.5038200e+01   9.2947300e+00   6.3165500e+00
   1.6107000e+01   9.6977200e+00   6.4810200e+00
   1.7017900e+01   1.0154500e+01   6.6221300e+00
   1.7675100e+01   1.0529400e+01   6.6903400e+00
   1.8206700e+01   1.0766400e+01   6.6480600e+00
   1.8515700e+01   1.0876100e+01   6.6188600e+00
   1.8717200e+01   1.0685800e+01   6.4172400e+00
   1.8710000e+01   1.0359900e+01   6.1560500e+00
   1.8599800e+01   9.8269900e+00   5.8778100e+00
   1.8419600e+01   9.0838900e+00   5.5269100e+00
   1.7987200e+01   8.2187700e+00   5.1608200e+00
   1.7457500e+01   7.1615100e+00   4.8204300e+00
   1.6867100e+01   5.9717100e+00   4.5653200e+00
   1.6046300e+01   4.7452100e+00   4.3590300e+00
   1.5121800e+01   3.3204800e+00   4.1868500e+00
   1.4332200e+01   1.7225500e+00   3.8861800e+00
   1.3299400e+01   3.5065600e-01   3.6137800e+00
   1.2261700e+01  -1.0883300e+00   3.1762000e+00
   1.1359700e+01  -2.5481100e+00   2.5288400e+00
   1.0212000e+01  -3.7255200e+00   1.8971200e+00
   9.1972000e+00  -5.0256500e+00   8.8250500e-01
   8.1954500e+00  -6.2166200e+00  -2.8864100e-01
   7.0449900e+00  -7.0917900e+00  -1.5025400e+00
   5.9526500e+00  -7.8730000e+00  -2.9206300e+00
   4.7627400e+00  -8.4087600e+00  -4.2412900e+00
   3.5817000e+00  -8.7208200e+00  -5.5175700e+00
   2.4620500e+00  -8.8774300e+00  -6.7293600e+00
   1.3323700e+00  -8.8933300e+00  -7.7549600e+00
   2.4750800e-01  -8.7907100e+00  -8.6132900e+00
  -7.8529200e-01  -8.6016000e+00  -9.3924200e+00
  -1.9250100e+00  -8.3269400e+00  -9.9736700e+00
  -3.0315900e+00  -8.0948300e+00  -1.0467100e+01
  -4.1381600e+00  -7.8077800e+00  -1.0879000e+01
  -5.3362400e+00  -7.5067100e+00  -1.1085500e+01
  -6.4446800e+00  -7.3260100e+00  -1.1238700e+01
  -7.5582600e+00  -7.1471900e+00  -1.1261900e+01
  -8.5333900e+00  -7.1902000e+00  -1.1236900e+01
  -9.3766300e+00  -7.3713600e+00  -1.1117500e+01
  -1.0064900e+01  -7.6163400e+00  -1.0970100e+01
  -1.0402000e+01  -8.0057700e+00  -1.0851200e+01
  -1.0529900e+01  -8.4080600e+00  -1.0707700e+01
  -1.0482300e+01  -8.6333900e+00  -1.0528100e+01
  -1.0091500e+01  -8.7138000e+00  -1.0312700e+01
  -9.4384900e+00  -8.6544300e+00  -1.0009400e+01
  -8.5366600e+00  -8.4896400e+00  -9.5559500e+00
  -7.3397400e+00  -8.1824800e+00  -9.0263300e+00
  -6.0734900e+00  -7.5593000e+00  -8.3046700e+00
  -4.8740000e+00  -6.7949300e+00  -7.4141100e+00
  -3.6504700e+00  -5.9104100e+00  -6.4569600e+00
  -2.5000100e+00  -4.7951700e+00  -5.3080100e+00
  -1.5416800e+00  -3.5469400e+00  -4.0209800e+00
  -7.3673300e-01  -2.1710700e+00  -2.6870000e+00
  -1.3162100e-01  -7.0053000e-01  -1.3289600e+00
   2.4820900e-01   7.6252800e-01  -6.0159200e-02
   3.6843700e-01   2.2816900e+00   1.1187000e+00
   3.7567400e-01   3.6809300e+00   2.0204800e+00
   1.7537100e-01   5.0343600e+00   2.7334900e+00
  -2.0866100e-01   6.3225700e+00   3.2173200e+00
  -6.2117400e-01   7.4560400e+00   3.4441700e+00
  -1.0308900e+00   8.4684200e+00   3.4859900e+00
  -1.4240200e+00   9.1958600e+00   3.3937100e+00
  -1.7440900e+00   9.6498000e+00   3.2264300e+00
  -2.0169900e+00   9.9887500e+00   2.9643100e+00
  -2.3870200e+00   1.0235800e+01   2.8549700e+00
  -2.6377500e+00   1.0164800e+01   2.7346600e+00
  -3.0159400e+00   1.0047900e+01   2.8173600e+00
  -3.4564700e+00   9.8690600e+00   3.0528500e+00
  -3.9112400e+00   9.5815500e+00   3.3899700e+00
  -4.5242900e+00   9.2447100e+00   3.8593100e+00
  -5.1557800e+00   8.7846900e+00   4.2592800e+00
  -5.8344300e+00   8.3164800e+00   4.6195200e+00
  -6.4666300e+00   7.6925900e+00   4.8199700e+00
  -7.0269200e+00   6.9642200e+00   4.9260300e+00
  -7.4158500e+00   6.2494000e+00   4.8281400e+00
  -7.7200400e+00   5.5446400e+00   4.6505900e+00
  -7.8260300e+00   4.7353900e+00   4.3003900e+00
  -7.7938100e+00   3.9665800e+00   3.8808100e+00
  -7.6693800e+00   3.2204400e+00   3.4946300e+00
  -7.3544500e+00   2.4032400e+00   3.0058900e+00
  -7.0161800e+00   1.6984700e+00   2.5772000e+00
  -6.5483400e+00   1.0252700e+00   2.1433600e+00
  -5.9971500e+00   4.3550800e-01   1.7597500e+00
  -5.3360100e+00  -7.6643900e-02   1.2796600e+00
  -4.6473200e+00  -4.4223300e-01   8.1989400e-01
  -3.9093700e+00  -7.2390500e-01   4.0685100e-01
  -3.1161000e+00  -1.0637800e+00  -1.4005800e-01
  -2.3858500e+00  -1.2846800e+00  -7.2995300e-01
  -1.5318800e+00  -1.4459700e+00  -1.4079200e+00
  -7.0264900e-01  -1.5245100e+00  -2.0391700e+00
   1.6509900e-01  -1.5041700e+00  -2.7232100e+00
   1.0438200e+00  -1.3503600e+00  -3.3388100e+00
   1.9526600e+00  -1.1465300e+00  -3.7707800e+00
   2.9455400e+00  -9.4456700e-01  -4.0857000e+00
   3.7402100e+00  -5.0978800e-01  -4.1137300e+00
   4.5050100e+00  -5.8168300e-03  -3.9775300e+00
   5.1696500e+00   4.3994900e-01  -3.6742900e+00
   5.5104900e+00   9.5373800e-01  -3.1439700e+00
   5.6557000e+00   1.3903900e+00  -2.4881900e+00
   5.5322000e+00   1.7354100e+00  -1.6948100e+00
   5.0484900e+00   1.9883300e+00  -8.6031400e-01
   4.2951300e+00   2.0713100e+00  -5.7355800e-02
   3.3027200e+00   2.0766900e+00   8.1872600e-01
   2.1896100e+00   1.9095500e+00   1.5882800e+00
   9.4717000e-01   1.6089500e+00   2.2947500e+00
  -3.0461000e-01   1.2043200e+00   3.0063600e+00
  -1.4039400e+00   7.7164400e-01   3.5908800e+00
  -2.4792300e+00   4.5397500e-01   4.1648900e+00
  -3.3892400e+00   1.3186300e-01   4.6452200e+00
  -4.0356700e+00  -3.5013400e-01   4.9685500e+00
  -4.5677100e+00  -9.2586700e-01   5.1996000e+00
  -5.0227100e+00  -1.4008500e+00   5.3217900e+00
  -5.3460500e+00  -1.8328300e+00   5.3213200e+00
  -5.5017600e+00  -2.3447500e+00   5.0785900e+00
  -5.6917900e+00  -2.7182800e+00   4.7989400e+00
  -5.8178600e+00  -2.9361400e+00   4.4840200e+00
  -5.8584800e+00  -3.1201000e+00   4.0635000e+00
  -5.9927100e+00  -3.2881700e+00   3.6205500e+00
  -6.1489000e+00  -3.2912100e+00   3.1589200e+00
  -6.3109100e+00  -3.2570800e+00   2.8056800e+00
  -6.4874000e+00  -3.2970500e+00   2.3858600e+00
  -6.8093400e+00  -3.1745700e+00   2.0924300e+00
  -6.9589800e+00  -3.2332400e+00   1.7303200e+00
  -7.1156300e+00  -3.1764400e+00   1.4287100e+00
  -7.1137600e+00  -3.1119200e+00   1.1810700e+00
  -6.7897300e+00  -3.0658700e+00   9.4885400e-01
  -6.2854700e+00  -2.8905600e+00   8.9628900e-01
  -5.4429300e+00  -2.6773800e+00   8.1592300e-01
  -4.4185400e+00  -2.2587200e+00   9.2876200e-01
  -2.9750900e+00  -1.8760700e+00   1.0338900e+00
  -1.4963900e+00  -1.2814100e+00   1.2390100e+00
  -1.3026300e-02  -5.3433200e-01   1.5055700e+00
   1.6466000e+00   2.3494800e-01   1.8144200e+00
   3.2245100e+00   1.0215300e+00   2.1118200e+00
   4.5864800e+00   1.9443800e+00   2.3274600e+00
   5.8072100e+00   2.8506400e+00   2.4898200e+00
   6.9747200e+00   3.6818600e+00   2.5407500e+00
   7.9311800e+00   4.6341700e+00   2.4856200e+00
   8.8299700e+00   5.4801200e+00   2.2646100e+00
   9.8142200e+00   6.2346800e+00   1.9120800e+00
   1.0650000e+01   7.0666000e+00   1.4509100e+00
   1.1441400e+01   7.7386400e+00   8.6054400e-01
   1.2329200e+01   8.2398100e+00   1.7650000e-01
   1.3124400e+01   8.7003000e+00  -5.0006900e-01
   1.3918300e+01   8.8580800e+00  -1.2446200e+00
   1.4718600e+01   8.9008600e+00  -1.9419800e+00
   1.5482700e+01   8.9929600e+00  -2.6117800e+00
   1.6177200e+01   8.9719200e+00  -3.3280600e+00
   1.6793800e+01   8.7881900e+00  -4.0831300e+00
   1.7192800e+01   8.5990900e+00  -4.6538700e+00
   1.7534300e+01   8.1208300e+00  -5.3418800e+00
   1.7541500e+01   7.6388300e+00  -5.9955600e+00
   1.7237100e+01   6.8679100e+00  -6.4420100e+00
   1.6884600e+01   5.6266900e+00  -6.9457000e+00
   1.5982500e+01   4.6189800e+00  -7.1814200e+00
   1.4966300e+01   3.2512900e+00  -7.5040500e+00
   1.3751200e+01   1.7506000e+00  -7.6526400e+00
   1.2218800e+01   2.6393400e-01  -7.6956200e+00
   1.0518500e+01  -1.1865000e+00  -7.7605700e+00
   8.7358900e+00  -2.7124400e+00  -7.8785500e+00
   6.8199400e+00  -4.1490800e+00  -7.9762000e+00
   4.8311400e+00  -5.2905000e+00  -7.9058800e+00
   3.0634300e+00  -6.4445300e+00  -7.9016800e+00
   1.0468500e+00  -7.1317700e+00  -7.5428300e+00
  -8.2918100e-01  -7.9082900e+00  -7.2246400e+00
  -2.7463000e+00  -8.5233000e+00  -6.6501600e+00
  -4.8030300e+00  -8.8982300e+00  -5.7867000e+00
  -6.5926900e+00  -9.5997300e+00  -5.0521900e+00
  -8.6181400e+00  -9.9742000e+00  -4.0343000e+00
  -1.0527300e+01  -1.0547100e+01  -2.9925800e+00
  -1.2220800e+01  -1.1347300e+01  -2.0123000e+00
  -1.4021000e+01  -1.1906900e+01  -9.0540300e-01
  -1.5544000e+01  -1.2784400e+01   9.4498400e-02
  -1.6976300e+01  -1.3456400e+01   1.1053800e+00
  -1.8234300e+01  -1.4235300e+01   1.9877700e+00
  -1.9213400e+01  -1.5088900e+01   2.8250700e+00
  -1.9991500e+01  -1.5552500e+01   3.7121300e+00
  -2.0539000e+01  -1.5912200e+01   4.4555200e+00
  -2.0862300e+01  -1.5927400e+01   5.2526400e+00
  -2.0754500e+01  -1.5704600e+01   6.0313000e+00
  -2.0436500e+01  -1.4969000e+01   6.9337800e+00
  -1.9847700e+01  -1.3984000e+01   7.7582300e+00
  -1.8943600e+01  -1.2885400e+01   8.4700800e+00
  -1.7770700e+01  -1.1371600e+01   9.1760800e+00
  -1.6411500e+01  -9.7007100e+00   9.6921500e+00
  -1.4821000e+01  -8.0445700e+00   9.9404900e+00
  -1.3065000e+01  -6.2657100e+00   9.9617500e+00
  -1.1380400e+01  -4.3365500e+00   9.8554500e+00
  -9.5685300e+00  -2.5270700e+00   9.4566600e+00
  -7.7847100e+00  -7.4073500e-01   8.9022800e+00
  -6.0151300e+00   9.4555600e-01   8.2025800e+00
  -4.1031400e+00   2.4142200e+00   7.2134200e+00
  -2.3723100e+00   3.8391800e+00   6.3153800e+00
  -5.5253800e-01   4.9025200e+00   5.2713200e+00
   1.3277000e+00   5.7129400e+00   4.1233100e+00
   2.9436700e+00   6.5095700e+00   3.1734000e+00
   4.4741900e+00   7.0572500e+00   2.1954600e+00
   5.9542900e+00   7.3880100e+00   1.2228900e+00
   7.2095700e+00   7.5916100e+00   3.0779500e-01
   8.2187900e+00   7.7250800e+00  -4.9352800e-01
   9.1446700e+00   7.8101700e+00  -1.2887800e+00
   9.8702500e+00   7.8891800e+00  -1.9751600e+00
   1.0425900e+01   8.0385500e+00  -2.6089700e+00
   1.0843300e+01   8.2617800e+00  -3.0652400e+00
   1.1224000e+01   8.3737500e+00  -3.4385600e+00
   1.1374600e+01   8.5997900e+00  -3.7392400e+00
   1.1456100e+01   8.8099300e+00  -3.9301100e+00
   1.1377900e+01   9.0567700e+00  -4.0317300e+00
   1.1097000e+01   9.3073600e+00  -3.9803300e+00
   1.0979600e+01   9.2412000e+00  -4.0688800e+00
   1.0575000e+01   9.3641600e+00  -3.8698300e+00
   1.0195400e+01   9.2545300e+00  -3.7350300e+00
   9.7705600e+00   8.9202600e+00  -3.6457900e+00
   9.1731500e+00   8.5385400e+00  -3.4815500e+00
   8.5057100e+00   8.0231200e+00  -3.3673100e+00
   7.8688400e+00   7.3976000e+00  -3.2764300e+00
   7.1927600e+00   6.5689400e+00  -3.2514300e+00
   6.4041500e+00   5.6839600e+00  -3.1054200e+00
   5.7593600e+00   4.8298200e+00  -3.0708400e+00
   4.9768200e+00   4.2204300e+00  -2.8568500e+00
   4.4489800e+00   3.4838800e+00  -2.6975200e+00
   3.9477500e+00   2.9820100e+00  -2.4096900e+00
   3.3989000e+00   2.7491900e+00  -2.0064600e+00
   3.0741700e+00   2.5519000e+00  -1.7611600e+00
   2.7323900e+00   2.5460600e+00  -1.3595600e+00
   2.4877300e+00   2.6026300e+00  -1.0198800e+00
   2.1674300e+00   3.0100600e+00  -6.1431000e-01
   1.9563900e+00   3.3896700e+00  -2.6574600e-01
   1.7523500e+00   3.7290800e+00   1.5991300e-01
   1.5366400e+00   4.0203400e+00   6.7691800e-01
   1.3849000e+00   4.2302500e+00   1.0962700e+00
   1.1726900e+00   4.4614300e+00   1.5861700e+00
   1.0933100e+00   4.3186100e+00   1.9039000e+00
   7.8188400e-01   4.1234200e+00   2.2349400e+00
   3.9855300e-01   3.8380100e+00   2.3730100e+00
  -1.3979200e-01   3.3408200e+00   2.3963700e+00
  -7.9159500e-01   2.6264700e+00   2.2982500e+00
  -1.5267400e+00   1.8906200e+00   1.9947800e+00
  -2.4120000e+00   1.0355500e+00   1.6964400e+00
  -3.1069900e+00  -1.5448400e-01   1.2056000e+00
  -3.8381700e+00  -1.2517200e+00   7.3252000e-01
  -4.4430500e+00  -2.3295500e+00   1.8444300e-01
  -4.8842800e+00  -3.4338000e+00  -4.6128800e-01
  -5.1490100e+00  -4.4616100e+00  -1.2100500e+00
  -5.2851200e+00  -5.3468300e+00  -1.8578800e+00
  -5.0904200e+00  -6.3304600e+00  -2.5379500e+00
  -4.7766500e+00  -7.1817900e+00  -3.1836800e+00
  -4.4680300e+00  -7.8236700e+00  -3.6749900e+00
  -3.8979300e+00  -8.4837900e+00  -4.1333600e+00
  -3.4212200e+00  -8.9550400e+00  -4.3167500e+00
  -3.0292500e+00  -9.2170700e+00  -4.4027200e+00
  -2.6515200e+00  -9.3185200e+00  -4.3653400e+00
  -2.3650700e+00  -9.2462900e+00  -4.1581200e+00
  -2.2504500e+00  -8.9594800e+00  -3.8553500e+00
  -2.2695900e+00  -8.4968800e+00  -3.4600600e+00
  -2.3786100e+00  -7.8173600e+00  -2.9185200e+00
  -2.4853000e+00  -7.0321900e+00  -2.3889000e+00
  -2.7262300e+00  -6.0646900e+00  -1.7964400e+00
  -2.9454400e+00  -5.0275200e+00  -1.1406600e+00
  -3.0598300e+00  -3.9728300e+00  -4.3932700e-01
  -3.1992100e+00  -2.8706900e+00   3.0405700e-01
  -3.2512700e+00  -1.8199700e+00   1.0979000e+00
  -3.1959400e+00  -8.7140300e-01   1.8828700e+00
  -3.1394400e+00   2.5739800e-02   2.6419100e+00
  -3.0077700e+00   8.2283600e-01   3.3638000e+00
  -2.7801600e+00   1.4376100e+00   4.0004200e+00
  -2.5149500e+00   2.0240900e+00   4.6828300e+00
  -2.0083600e+00   2.4983800e+00   5.0860600e+00
  -1.6065800e+00   3.0832200e+00   5.5498000e+00
  -9.3633700e-01   3.4263700e+00   5.7448800e+00
  -1.8835000e-01   3.6907500e+00   5.7100700e+00
   3.8244500e-01   4.1047200e+00   5.6705800e+00
   1.1600800e+00   4.3473600e+00   5.2841700e+00
