**************************************************************************************
  	RED ACELEROGRÁFICA DE LA UNIVERSIDAD AUTONOMA METROPOLITANA (RA-UAM)
	   UNIDAD AZCAPOTZALCO. DIVISIÓN CBI-DEPARTAMENTO DE MATERIALES
     Av. San Pablo 420, Col. Nueva el Rosario, Azcapotzalco, C.P. 02128, Ciudad de México
		Área de Estructuras. e-mail: agb@azc.uam.mx
**************************************************************************************
ARCHIVO ESTANDAR DE ACELERACION:
VERSION DEL FORMATO                    : 2.0
NOMBRE DEL ARCHIVO                     : RUML202303.021
FECHA Y HORA DE CREACION               : 11:30 a. m. 09/03/2023
REF. CATALOGO ACELEROGRAMAS, SMIS 1999 : REGISTRO NO.      /PAG.    


================================================================================
DATOS DE LA ESTACION:
NOMBRE DE LA ESTACION                  : UAM-LERMA.
CLAVE DE LA ESTACION                   : RUML
LOCALIZACION DE LA ESTACION            : AV. DE LAS GARZAS 10, EL PANTEON, C.P.52005,
                                       : LERMA DE VILLADA, ESTADO DE MEXICO.   
                                       : 
                                       : 
                                       : 
COORDENADAS DE LA ESTACION             : 19.291278 LAT. N
                                       : 99.500578 LONG. W
ALTITUD (msnm)                         : 2570
TIPO DE SUELO                          : DEPOSITOS LACUSTRES
                                       : 
                                       : 
INSTITUCION RESPONSABLE                : UNIVERSIDAD AUTONOMA METROPOLITANA
                                       : 

================================================================================
DATOS DEL ACELEROGRAFO: 
MODELO DEL ACELEROGRAFO                : ETNA2 KINEMETRICS
NUMERO DE SERIE DEL ACELEROGRAFO       : 103733
NUMERO DE CANALES                      : 3
ORIENTACION C1-C6 (rumbo;orientacion)  : /N90E/N00E/V 
ORIENTACION C7-C12 (rumbo;orientacion) : 
VEL. DE MUESTREO, C1-C6 (muestras/s)   : /200/200/200
VEL. DE MUESTREO, C7-C12 (muestras/s)  : 
ESC. COMPLETA DE SENSORES, C1-C6, (g)  : /2/2/2
ESC. COMPLETA DE SENSORES, C7-C12 (g)  : 
FREC. NAT. DE SENSORES, C1-C6, (Hz)    : /212/206/208   
FREC. NAT. DE SENSORES, C7-C12 (Hz)    : 
AMORTIGUAMIENTO DE SENSORES, C1-C6     : /0.7/0.7/0.7      
AMORTIGUAMIENTO DE SENSORES, C7-C12    : 
INTERVALO DE MUESTREO, C1-C6 (s)       : /0.005/0.005/0.005
INTERVALO DE MUESTREO, C7-C12 (s)      : 
UMBRAL DE DISPARO, C1-C6 (Gal)         : /2/2/2
UMBRAL DE DISPARO, C7-C12 (Gal)        : 
MEMORIA DE PREEVENTO (s)               : 50
TIEMPO DE POSEVENTO (s)                : 60


================================================================================
DATOS DEL SISMO:
FECHA DEL SISMO [GMT]                  : 2023/03/02
HORA EPICENTRO (GMT)                   : 04:40:43
MAGNITUD(ES)                           : /M=5.8
COORDENADAS DEL EPICENTRO              : 16.1700 LAT. N
                                       : -94.5300 LONG. W
PROFUNDIDAD FOCAL (Km)                 : 98.0
FUENTE DE LOS DATOS EPICENTRALES       : SSN
                                       : INSTITUTO DE GEOFISICA, UNAM

================================================================================
DATOS DE ESTE REGISTRO:
HORA DE LA PRIMERA MUESTRA (GMT)       : 04:42:29.000
EXACTITUD DEL TIEMPO (s)               : 
DURACION DEL REGISTRO (s), C1-C6       : /186/186/186
DURACION DEL REGISTRO (s), C7-C12      : 
NUM. TOTAL DE MUESTRAS, C1-C6          : /37200/37200/37200
NUM. TOTAL DE MUESTRAS, C7-C12         : 
ACEL. MAX.(Gal), C1-C6                 : /-0.632/-0.735/0.235
ACEL. MAX., C1-C6, EN LA MUESTRA       : /18345/19294/17946
ACEL. MAX.(Gal), C7-C12                : 
ACEL. MAX., C7-C12,EN LA MUESTRA       : 
UNIDADES DE LOS DATOS                  : Gal (cm/s/s)
FACTOR DE DECIMACION                   : 1
FORMATO DATOS (FORTRAN,16 campos/dato) : 3E16.7


================================================================================
CALIDAD DEL ACELEROGRAMA:
REGISTRO DIGITAL COMPLETO CON TIEMPO ABSOLUTO CORRECTO


================================================================================
COMENTARIOS:














================================================================================
DATOS DE ACELERACION:
---------+---------+---------+---------+---------+---------+---------+---------+
   CANAL-1   	     CANAL-2          CANAL-3
     N90E              N00E              V
---------+---------+---------+---------+---------+---------+---------+---------+
[...]
   1.2068700e-02  -3.4758700e-01   5.0701900e-02
  -1.1804600e-02  -3.2047600e-01   2.1908900e-02
   4.0389000e-02  -3.0575200e-01   1.9568000e-02
   7.5028800e-02  -3.0551800e-01   4.1572400e-02
   3.1495100e-02  -2.8261400e-01   5.4681500e-02
   9.7282100e-03  -2.5246500e-01   4.4147400e-02
   6.9177500e-02  -2.4101300e-01   2.4249800e-02
   8.0412000e-02  -2.1203200e-01   2.7995200e-02
   6.4262400e-02  -2.0502100e-01   4.6722400e-02
   9.7029700e-02  -1.9450400e-01   6.6151900e-02
   7.6901200e-02  -1.5220100e-01   5.9597300e-02
   5.3730000e-02  -1.3373800e-01   3.0804300e-02
   1.0217900e-01  -1.2322100e-01   3.1974800e-02
   1.3845700e-01  -1.0358800e-01   4.8361000e-02
   9.2816700e-02  -9.0500400e-02   5.3276900e-02
   7.4560700e-02  -6.7830000e-02   3.8295200e-02
   1.3190300e-01  -3.9316700e-02   2.3313400e-02
   1.4032900e-01  -2.8799500e-02   2.3313400e-02
   1.3213700e-01  -1.8048600e-02   3.8763400e-02
   1.4828700e-01   1.8171700e-03   6.1704200e-02
   1.3284000e-01   2.3319000e-02   4.3679300e-02
   1.1832800e-01   4.5989400e-02   1.5354400e-02
   1.7099000e-01   6.2816900e-02   2.4952100e-02
   2.0048100e-01   7.1464300e-02   4.9063300e-02
   1.4196800e-01   8.6655800e-02   5.2574700e-02
   1.3564800e-01   1.1727300e-01   3.1038400e-02
   1.9392700e-01   1.3456700e-01   1.4418000e-02
   1.9697000e-01   1.3947500e-01   1.4886200e-02
   1.8526700e-01   1.4812300e-01   3.8061100e-02
   2.0820400e-01   1.6378200e-01   5.4447400e-02
   1.9884200e-01   1.7850600e-01   3.4549800e-02
   1.8152200e-01   2.0678500e-01   9.9703400e-03
   2.2529000e-01   2.1730300e-01   2.2377100e-02
   2.5197200e-01   2.2010700e-01   5.1872400e-02
   2.0797000e-01   2.5025700e-01   5.3511000e-02
   1.9486300e-01   2.6100700e-01   3.9231500e-02
   2.5103600e-01   2.7222600e-01   2.5654300e-02
   2.6905800e-01   2.8180800e-01   3.4549800e-02
   2.3956700e-01   2.9092300e-01   6.3342800e-02
   2.4869500e-01   3.0915300e-01   6.9897300e-02
   2.4565300e-01   3.3813300e-01   4.3211100e-02
   2.3043900e-01   3.5426000e-01   1.6524800e-02
   2.7233500e-01   3.5262400e-01   2.4249800e-02
   2.9574000e-01   3.6267400e-01   4.7892900e-02
   2.4331200e-01   3.6617900e-01   4.6722400e-02
   2.3558900e-01   3.9212200e-01   2.4483900e-02
   2.9410200e-01   4.0334000e-01   1.3013500e-02
   2.8754800e-01   3.9773100e-01   2.7995200e-02
   2.6367500e-01   4.1759700e-01   5.1404200e-02
   2.7631400e-01   4.2788000e-01   5.0233800e-02
   2.7233500e-01   4.3606000e-01   2.4718000e-02
   2.6624900e-01   4.3980000e-01   3.6499200e-03
   2.9808000e-01   4.4447400e-01   1.5120300e-02
   3.0791100e-01   4.5312100e-01   2.9633900e-02
   2.5805800e-01   4.5709500e-01   2.2143000e-02
   2.5103600e-01   4.7041600e-01   9.0339800e-03
   2.9714400e-01   4.7976500e-01   3.4158300e-03
   2.9691000e-01   4.7345500e-01   1.6524800e-02
   2.6531300e-01   4.6761200e-01   4.0636100e-02
   2.7210100e-01   4.8397200e-01   4.9297400e-02
   2.6929200e-01   5.0009800e-01   2.4015700e-02
   2.5501500e-01   5.0897900e-01   8.0976200e-03
   2.8122900e-01   5.0477200e-01   2.3313400e-02
   2.7842000e-01   5.0033200e-01   3.3847500e-02
   2.2529000e-01   5.1669200e-01   1.9333900e-02
   2.3137600e-01   5.1225100e-01  -4.7773100e-03
   2.7654800e-01   5.2089900e-01  -4.3091300e-03
   2.6039800e-01   5.1435500e-01   1.6524800e-02
   2.2482200e-01   5.1529000e-01   3.1272500e-02
   2.2856700e-01   5.4193300e-01   2.7761200e-02
   2.2880100e-01   5.2510600e-01   1.6290800e-02
   2.1943900e-01   5.3796000e-01   1.6758900e-02
   2.3582300e-01   5.4006300e-01   3.3847500e-02
   2.2341800e-01   5.3422100e-01   4.4147400e-02
   1.8245900e-01   5.3936200e-01   3.0804300e-02
   1.8924600e-01   5.4941200e-01   1.5354400e-02
   2.1920500e-01   5.6857700e-01   1.8163500e-02
   1.9814000e-01   5.4847700e-01   3.1038400e-02
   1.6162800e-01   5.4941200e-01   4.1104300e-02
   1.7005400e-01   5.6016300e-01   3.4549800e-02
   1.7122400e-01   5.6764200e-01   1.1140800e-02
   1.6911800e-01   5.6109800e-01   1.2545300e-02
   1.7590500e-01   5.6904400e-01   3.7358800e-02
   1.5671300e-01   5.7184900e-01   4.5552000e-02
   1.2277500e-01   5.6366900e-01   3.0336100e-02
   1.2137100e-01   5.8727400e-01   1.5354400e-02
   1.5881900e-01   5.7815900e-01   2.3313400e-02
   1.3635000e-01   5.7792500e-01   3.7358800e-02
   9.3518900e-02   5.7675700e-01   4.2274700e-02
   9.7965900e-02   5.7512100e-01   3.0804300e-02
   1.0826400e-01   5.8727400e-01   1.2545300e-02
   1.0639200e-01   5.7932800e-01   2.0972600e-02
   9.5391300e-02   5.7932800e-01   4.5317900e-02
   8.3922700e-02   5.8517000e-01   4.9531500e-02
   5.9347300e-02   5.8844300e-01   3.1038400e-02
   6.2858100e-02   5.8937700e-01   1.1609000e-02
   9.2348600e-02   5.9078000e-01   2.1440700e-02
   7.3858500e-02   5.8189800e-01   4.2274700e-02
   2.5643800e-02   5.8260000e-01   4.2040600e-02
   1.8856200e-02   6.0059600e-01   2.7761200e-02
   4.7878700e-02   6.0059600e-01   8.5658000e-03
   3.6644200e-02   5.9054600e-01   1.5120300e-02
   1.4175200e-02   5.9755700e-01   3.4081600e-02
   2.0260600e-02   5.9896000e-01   3.4315700e-02
  -1.0634300e-02   5.9194800e-01   1.3247600e-02
  -7.8257000e-03   5.9779100e-01   2.2453800e-03
   2.3303200e-02   5.9358400e-01   1.6290800e-02
  -8.7619100e-03   5.8423600e-01   2.2377100e-02
  -4.7146500e-02   5.9101300e-01   2.3313400e-02
  -5.2061600e-02   6.0176400e-01   5.0544600e-03
  -2.6549900e-02   5.8423600e-01  -1.6715900e-02
  -3.6380100e-02   5.8306700e-01  -1.1800000e-02
  -6.1423700e-02   5.7699000e-01   7.6294400e-03
  -7.4296500e-02   5.6647300e-01   7.8635300e-03
  -9.8872000e-02   5.7675700e-01  -2.0461300e-02
  -9.0212100e-02   5.5712500e-01  -2.1163600e-02
  -7.0785700e-02   5.5245000e-01  -7.9778600e-04
  -8.4126700e-02   5.4053100e-01   5.0544600e-03
  -1.3959700e-01   5.2627400e-01   5.2885400e-03
  -1.3795900e-01   5.3398700e-01  -1.2736400e-02
  -8.8105600e-02   5.1879500e-01  -2.5143100e-02
  -1.2836300e-01   5.0524000e-01  -1.2736400e-02
  -1.5761900e-01   4.9098300e-01  -1.7341500e-03
  -1.4591600e-01   4.7672700e-01  -4.7773100e-03
  -1.7470500e-01   4.7789500e-01  -2.9590800e-02
  -1.7447100e-01   4.6270400e-01  -3.8252100e-02
  -1.4474600e-01   4.4283800e-01  -1.2736400e-02
  -1.6744900e-01   4.2928200e-01   4.8203700e-03
  -2.4164400e-01   4.2647800e-01  -5.7136700e-03
  -2.1917500e-01   4.1596100e-01  -2.6547600e-02
  -1.6768300e-01   4.0006800e-01  -2.7952200e-02
  -2.1472800e-01   3.8814900e-01  -1.4843200e-02
  -2.2923900e-01   3.6968500e-01  -2.6705000e-03
  -2.2455800e-01   3.6220600e-01  -1.1331800e-02
  -2.4936800e-01   3.4467700e-01  -3.8720300e-02
  -2.5217600e-01   3.3719900e-01  -3.8720300e-02
  -2.1566400e-01   3.1242500e-01  -1.6247700e-02
  -2.4328200e-01   2.9536400e-01  -8.0545700e-03
  -3.1490200e-01   3.0144000e-01  -2.0929500e-02
  -2.7090000e-01   2.7619900e-01  -3.4974900e-02
  -2.3906900e-01   2.6287700e-01  -3.4974900e-02
  -2.7932600e-01   2.4488100e-01  -2.3504500e-02
  -2.8868800e-01   2.2758600e-01  -8.7568400e-03
  -2.9547600e-01   2.2524900e-01  -1.9290900e-02
  -3.1443400e-01   2.0561700e-01  -4.6913500e-02
  -3.0156100e-01   1.8855600e-01  -4.0124900e-02
  -2.7090000e-01   1.7593500e-01  -1.7886300e-02
  -3.1022100e-01   1.5793900e-01  -1.9056800e-02
  -3.5773400e-01   1.5022600e-01  -3.4506700e-02
  -3.1349800e-01   1.3830700e-01  -4.2699800e-02
  -2.9173100e-01   1.1493500e-01  -4.1061200e-02
  -3.2917900e-01   1.0044500e-01  -3.3570300e-02
  -3.3456300e-01   7.3801500e-02  -1.5545400e-02
  -3.2871100e-01   6.3751700e-02  -2.8420400e-02
  -3.4439300e-01   5.1832200e-02  -5.1829300e-02
  -3.3386000e-01   2.8928100e-02  -4.4338500e-02
  -2.9664600e-01   1.1165800e-02  -2.7015800e-02
  -3.3315800e-01  -2.4358900e-02  -1.6013600e-02
  -3.7528800e-01  -1.6412600e-02  -3.1229400e-02
  -3.3105200e-01  -3.2071500e-02  -4.7381600e-02
  -2.9875300e-01  -7.2270600e-02  -4.1529400e-02
  -3.2496600e-01  -7.8347200e-02  -2.0227200e-02
  -3.4907400e-01  -9.1201500e-02  -1.2736400e-02
  -3.3175400e-01  -1.0639300e-01  -3.3804400e-02
  -3.2917900e-01  -1.2649300e-01  -4.4806600e-02
  -3.2379600e-01  -1.4752700e-01  -3.7549900e-02
  -2.9617800e-01  -1.6645800e-01  -1.7184100e-02
  -3.2051900e-01  -1.8375300e-01  -8.5227500e-03
  -3.5211600e-01  -2.0151500e-01  -2.3972700e-02
  -3.0577400e-01  -2.1436900e-01  -3.3102200e-02
  -2.7487900e-01  -2.3517000e-01  -2.6781700e-02
  -3.1022100e-01  -2.5760700e-01  -1.1565900e-02
  -3.1068900e-01  -2.6718900e-01  -7.5863900e-03
  -2.9383700e-01  -2.8121200e-01  -2.1397700e-02
  -2.9734800e-01  -2.9219700e-01  -3.3102200e-02
  -2.7207100e-01  -3.1042600e-01  -1.9056800e-02
  -2.5381500e-01  -3.3146100e-01   3.6499200e-03
  -2.8868800e-01  -3.4197800e-01  -2.6705000e-03
  -3.0156100e-01  -3.5249500e-01  -2.3504500e-02
  -2.5966600e-01  -3.6020800e-01  -2.4206800e-02
  -2.3602700e-01  -3.8404700e-01  -1.7886300e-02
  -2.5545300e-01  -4.0741800e-01  -1.2970400e-02
  -2.6504900e-01  -4.1232600e-01  -1.2502300e-02
  -2.4094200e-01  -4.3172500e-01  -2.5845400e-02
  -2.2338800e-01  -4.5042200e-01  -3.3102200e-02
  -2.2151500e-01  -4.5579700e-01  -1.5311300e-02
  -2.0864200e-01  -4.7542900e-01   7.6294400e-03
  -2.2057900e-01  -4.8945200e-01  -5.4795800e-03
  -2.4726100e-01  -4.9926800e-01  -2.3036300e-02
  -2.0934500e-01  -5.0324200e-01  -2.0695400e-02
  -1.7142800e-01  -5.1936800e-01  -1.0629600e-02
  -2.0466400e-01  -5.4577800e-01   3.6499200e-03
  -2.2362200e-01  -5.4390800e-01  -1.0318800e-03
  -1.8476900e-01  -5.5839800e-01  -1.6950000e-02
  -1.7119400e-01  -5.7522600e-01  -2.6079500e-02
  -1.7657700e-01  -5.7919900e-01  -9.6931900e-03
  -1.5574700e-01  -5.9649400e-01   7.6294400e-03
  -1.7259800e-01  -6.0654400e-01  -5.2454900e-03
  -1.8500300e-01  -6.0373900e-01  -2.7249900e-02
  -1.4076700e-01  -6.1098400e-01  -3.6145300e-02
  -1.1946900e-01  -6.3248600e-01  -2.1163600e-02
  -1.4989500e-01  -6.3762800e-01  -8.7568400e-03
  -1.6159800e-01  -6.3318700e-01  -2.2334000e-02
  -1.2672400e-01  -6.5071600e-01  -4.3636200e-02
  -1.1408500e-01  -6.6193400e-01  -4.5274800e-02
  -1.1689400e-01  -6.7432100e-01  -2.4909000e-02
  -1.0472300e-01  -6.8390300e-01  -6.8841200e-03
  -1.1712800e-01  -6.8811000e-01  -2.0227200e-02
  -1.3234100e-01  -6.9185000e-01  -4.2699800e-02
  -9.4659100e-02  -6.8998000e-01  -3.8954400e-02
  -6.3296100e-02  -7.0587300e-01  -2.9356700e-02
  -1.0846800e-01  -7.0727500e-01  -2.7952200e-02
  -1.2063900e-01  -7.0984600e-01  -4.2465700e-02
  -6.3296100e-02  -7.2153200e-01  -5.5574800e-02
  -5.8381000e-02  -7.2176500e-01  -5.0424800e-02
  -7.5232700e-02  -7.2971200e-01  -3.0059000e-02
  -5.6742600e-02  -7.3041300e-01  -1.1331800e-02
  -6.9615500e-02  -7.2667300e-01  -2.4440800e-02
  -8.3190500e-02  -7.1779200e-01  -4.0358900e-02
  -3.3337400e-02  -7.2363500e-01  -3.4038500e-02
  -1.2038600e-02  -7.3508700e-01  -1.4609100e-02
  -6.1891800e-02  -7.1779200e-01  -1.2736400e-02
  -5.4168000e-02  -7.2433600e-01  -3.2634000e-02
  -4.7830300e-03  -7.1498800e-01  -3.9656700e-02
  -2.9106100e-03  -7.0844400e-01  -3.0995400e-02
  -1.6017500e-02  -7.0517200e-01  -1.8822700e-02
  -7.3576000e-03  -6.8974600e-01  -1.2736400e-02
  -2.6765600e-03  -6.9208300e-01  -2.8654500e-02
  -1.3911100e-02  -6.6777700e-01  -4.7147500e-02
   2.9154500e-02  -6.6240200e-01  -3.7081700e-02
   4.6240300e-02  -6.5632500e-01  -2.3738600e-02
  -5.0170800e-03  -6.4370400e-01  -2.6547600e-02
  -4.5489700e-03  -6.3342100e-01  -4.2699800e-02
   5.5368400e-02  -6.1449000e-01  -5.5808900e-02
   6.2155900e-02  -6.1051700e-01  -4.9020300e-02
   3.1729100e-02  -5.9555900e-01  -3.0995400e-02
   5.4666200e-02  -5.7475800e-01  -3.1463500e-02
   4.6006300e-02  -5.5325700e-01  -5.9086100e-02
   4.4602000e-02  -5.3783100e-01  -7.4301900e-02
   9.4923200e-02  -5.3222200e-01  -6.1661100e-02
   8.7433500e-02  -5.0651400e-01  -5.1595200e-02
   4.9751100e-02  -4.8945200e-01  -6.2129300e-02
   6.4028300e-02  -4.7356000e-01  -7.5940600e-02
   1.0966800e-01  -4.5930300e-01  -8.5070100e-02
   1.0826400e-01  -4.5182400e-01  -7.2897400e-02
   8.9071900e-02  -4.2588200e-01  -4.8786200e-02
   9.6561600e-02  -4.1372900e-01  -4.8318000e-02
   8.9774000e-02  -3.9222700e-01  -6.8215600e-02
   9.7497800e-02  -3.6979000e-01  -7.9217800e-02
   1.3424400e-01  -3.4945700e-01  -6.2363400e-02
   1.3869100e-01  -3.4314700e-01  -5.3702100e-02
   9.8199900e-02  -3.3169500e-01  -6.4938400e-02
   1.0709400e-01  -2.9897400e-01  -7.5940600e-02
   1.7684100e-01  -3.0061000e-01  -7.6174700e-02
   1.6841600e-01  -2.8471800e-01  -5.0424800e-02
   1.4196800e-01  -2.5293200e-01  -2.9590800e-02
   1.6560700e-01  -2.3563800e-01  -3.1229400e-02
   1.6022400e-01  -2.1016300e-01  -4.9488400e-02
   1.7731000e-01  -1.9240000e-01  -5.6745200e-02
   2.0984300e-01  -1.8001300e-01  -3.3102200e-02
   2.0235300e-01  -1.6809400e-01  -2.7952200e-02
   1.7333100e-01  -1.5056500e-01  -4.1529400e-02
   1.9509800e-01  -1.2579100e-01  -5.0658900e-02
   2.4752500e-01  -1.1270300e-01  -4.5508900e-02
   2.3792900e-01  -1.0195200e-01  -2.9590800e-02
   2.3207800e-01  -8.0450600e-02  -1.6247700e-02
   2.3184400e-01  -6.2220800e-02  -1.6013600e-02
   2.3535400e-01  -4.9833900e-02  -3.6379400e-02
   2.6039800e-01  -2.9734400e-02  -3.4974900e-02
   2.7912200e-01  -1.9217200e-02  -1.1331800e-02
   2.8310100e-01  -8.7000200e-03  -1.0318800e-03
   2.4612100e-01   1.5840100e-02  -1.2970400e-02
   2.6648300e-01   2.4721300e-02  -2.5377200e-02
   3.2312400e-01   3.1732700e-02  -1.7886300e-02
   3.1329400e-01   4.3652200e-02  -5.6369700e-04
   2.9199500e-01   5.8376300e-02   1.7227100e-02
   2.8801600e-01   7.7774600e-02   8.3317100e-03
   3.0791100e-01   8.4552400e-02  -1.1097700e-02
   3.2265600e-01   1.0044500e-01   8.4084100e-04
   3.3365600e-01   1.1610400e-01   2.2143000e-02
   3.3646500e-01   1.1914200e-01   2.6122500e-02
   2.9761200e-01   1.3339900e-01   1.3247600e-02
   3.1680500e-01   1.4905800e-01   8.4084100e-04
   3.7274300e-01   1.5116100e-01   1.0204400e-02
   3.5284900e-01   1.6261300e-01   2.8931600e-02
   3.2944300e-01   1.7523400e-01   3.9699700e-02
   3.4114600e-01   1.8505000e-01   3.1740700e-02
   3.4629500e-01   1.9720300e-01   1.0672600e-02
   3.5191200e-01   1.9860500e-01   1.6290800e-02
   3.7508400e-01   2.1239500e-01   3.8061100e-02
   3.6431700e-01   2.0842100e-01   4.2977000e-02
   3.2031500e-01   2.2408000e-01   2.3313400e-02
   3.5401900e-01   2.4184300e-01   1.4184000e-02
   3.9591400e-01   2.3062400e-01   3.1974800e-02
   3.7555200e-01   2.3973900e-01   4.8595100e-02
   3.4887000e-01   2.5516500e-01   5.6320100e-02
   3.4582700e-01   2.6778500e-01   4.2508800e-02
   3.6267900e-01   2.7012200e-01   2.3079400e-02
   3.6455100e-01   2.7830200e-01   3.2677000e-02
   3.7742400e-01   2.7923700e-01   5.6554200e-02
   3.5706200e-01   2.9115700e-01   5.7022400e-02
   3.2054900e-01   2.9162400e-01   3.7592900e-02
   3.5355100e-01   2.9700000e-01   3.5017900e-02
   3.8163700e-01   3.0798400e-01   5.5851900e-02
   3.5144400e-01   2.9793400e-01   7.5983600e-02
   3.1633700e-01   3.3135600e-01   7.8090400e-02
   3.2710300e-01   3.2738300e-01   5.9831400e-02
   3.3740100e-01   3.2855100e-01   4.7892900e-02
   3.2920900e-01   3.4981900e-01   5.5383700e-02
   3.3950800e-01   3.3813300e-01   7.5047300e-02
   3.2125200e-01   3.5309100e-01   8.1367700e-02
   2.8076100e-01   3.5940200e-01   5.8426900e-02
   2.9246300e-01   3.6057000e-01   5.3276900e-02
   3.2640100e-01   3.5870000e-01   7.1301800e-02
   2.9831500e-01   3.6080400e-01   8.8156300e-02
