**************************************************************************************
  	RED ACELEROGRÁFICA DE LA UNIVERSIDAD AUTONOMA METROPOLITANA (RA-UAM)
	   UNIDAD AZCAPOTZALCO. DIVISIÓN CBI-DEPARTAMENTO DE MATERIALES
     Av. San Pablo 420, Col. Nueva el Rosario, Azcapotzalco, C.P. 02128, Ciudad de México
		Área de Estructuras. e-mail: agb@azc.uam.mx
**************************************************************************************
ARCHIVO ESTANDAR DE ACELERACION:
VERSION DEL FORMATO                    : 2.0
NOMBRE DEL ARCHIVO                     : RUML202307.011
FECHA Y HORA DE CREACION               : 11:30 a. m. 07/07/2023
REF. CATALOGO ACELEROGRAMAS, SMIS 1999 : REGISTRO NO.      /PAG.    


================================================================================
DATOS DE LA ESTACION:
NOMBRE DE LA ESTACION                  : UAM-LERMA.
CLAVE DE LA ESTACION                   : RUML
LOCALIZACION DE LA ESTACION            : AV. DE LAS GARZAS 10, EL PANTEON, C.P.52005,
                                       : LERMA DE VILLADA, ESTADO DE MEXICO.   
                                       : 
                                       : 
                                       : 
COORDENADAS DE LA ESTACION             : 19.291278 LAT. N
                                       : 99.500578 LONG. W
ALTITUD (msnm)                         : 2570
TIPO DE SUELO                          : DEPOSITOS LACUSTRES
                                       : 
                                       : 
INSTITUCION RESPONSABLE                : UNIVERSIDAD AUTONOMA METROPOLITANA
                                       : 

================================================================================
DATOS DEL ACELEROGRAFO: 
MODELO DEL ACELEROGRAFO                : ETNA2 KINEMETRICS
NUMERO DE SERIE DEL ACELEROGRAFO       : 103733
NUMERO DE CANALES                      : 3
ORIENTACION C1-C6 (rumbo;orientacion)  : /N90E/N00E/V 
ORIENTACION C7-C12 (rumbo;orientacion) : 
VEL. DE MUESTREO, C1-C6 (muestras/s)   : /200/200/200
VEL. DE MUESTREO, C7-C12 (muestras/s)  : 
ESC. COMPLETA DE SENSORES, C1-C6, (g)  : /2/2/2
ESC. COMPLETA DE SENSORES, C7-C12 (g)  : 
FREC. NAT. DE SENSORES, C1-C6, (Hz)    : /212/206/208   
FREC. NAT. DE SENSORES, C7-C12 (Hz)    : 
AMORTIGUAMIENTO DE SENSORES, C1-C6     : /0.7/0.7/0.7      
AMORTIGUAMIENTO DE SENSORES, C7-C12    : 
INTERVALO DE MUESTREO, C1-C6 (s)       : /0.005/0.005/0.005
INTERVALO DE MUESTREO, C7-C12 (s)      : 
UMBRAL DE DISPARO, C1-C6 (Gal)         : /2/2/2
UMBRAL DE DISPARO, C7-C12 (Gal)        : 
MEMORIA DE PREEVENTO (s)               : 50
TIEMPO DE POSEVENTO (s)                : 60


================================================================================
DATOS DEL SISMO:
FECHA DEL SISMO [GMT]                  : 2023/07/01
HORA EPICENTRO (GMT)                   : 03:22:27
MAGNITUD(ES)                           : /M=4.7
COORDENADAS DEL EPICENTRO              : 17.7600 LAT. N
                                       : -102.8600 LONG. W
PROFUNDIDAD FOCAL (Km)                 : 9.3
FUENTE DE LOS DATOS EPICENTRALES       : SSN
                                       : INSTITUTO DE GEOFISICA, UNAM

================================================================================
DATOS DE ESTE REGISTRO:
HORA DE LA PRIMERA MUESTRA (GMT)       : 03:23:37.000
EXACTITUD DEL TIEMPO (s)               : 
DURACION DEL REGISTRO (s), C1-C6       : /111/111/111
DURACION DEL REGISTRO (s), C7-C12      : 
NUM. TOTAL DE MUESTRAS, C1-C6          : /22200/22200/22200
NUM. TOTAL DE MUESTRAS, C7-C12         : 
ACEL. MAX.(Gal), C1-C6                 : /0.465/0.356/0.144
ACEL. MAX., C1-C6, EN LA MUESTRA       : /10101/9868/10126
ACEL. MAX.(Gal), C7-C12                : 
ACEL. MAX., C7-C12,EN LA MUESTRA       : 
UNIDADES DE LOS DATOS                  : Gal (cm/s/s)
FACTOR DE DECIMACION                   : 1
FORMATO DATOS (FORTRAN,16 campos/dato) : 3E16.7


================================================================================
CALIDAD DEL ACELEROGRAMA:
REGISTRO DIGITAL COMPLETO CON TIEMPO ABSOLUTO CORRECTO


================================================================================
COMENTARIOS:














================================================================================
DATOS DE ACELERACION:
---------+---------+---------+---------+---------+---------+---------+---------+
   CANAL-1   	     CANAL-2          CANAL-3
     N90E              N00E              V
---------+---------+---------+---------+---------+---------+---------+---------+
[...]
   8.3003500e-02   3.2192300e-01  -2.5240500e-02
   7.6450000e-02   2.9714900e-01  -4.0456300e-02
   4.5555100e-02   2.9340900e-01  -3.2965500e-02
   4.4618900e-02   3.0182300e-01  -2.7347300e-02
   7.7386200e-02   2.7962000e-01  -4.8181300e-02
   3.2916300e-02   2.5250900e-01  -4.7947200e-02
   3.0341700e-02   2.7891900e-01  -3.8817700e-02
   6.8492200e-02   2.4947100e-01  -4.9117700e-02
   2.4256400e-02   2.1698400e-01  -5.2394900e-02
   2.8937400e-02   2.3825300e-01  -4.4904000e-02
   4.6257300e-02   2.1464700e-01  -4.3265400e-02
   3.4554700e-02   2.0202700e-01  -5.0522200e-02
   2.3788300e-02   2.0716800e-01  -4.9117700e-02
   2.3320200e-02   1.9291200e-01  -5.0288100e-02
   4.4384900e-02   1.6603500e-01  -5.6842600e-02
   2.3320200e-02   1.6323000e-01  -5.0288100e-02
   9.7451300e-03   1.7514900e-01  -5.0990400e-02
   5.2576700e-02   1.3822200e-01  -6.1758500e-02
   3.2214100e-02   1.2069400e-01  -5.5204000e-02
   6.0003000e-03   1.4687000e-01  -5.1692600e-02
   5.1874500e-02   1.1905800e-01  -5.8013100e-02
   3.7831400e-02   9.4517700e-02  -5.2160800e-02
   1.6064500e-02   1.1041000e-01  -4.9585800e-02
   4.6959400e-02   8.4000500e-02  -5.0990400e-02
   5.1406400e-02   7.8157600e-02  -4.8649500e-02
   3.2916300e-02   8.0494700e-02  -5.1926700e-02
   4.1810300e-02   5.5253500e-02  -5.0522200e-02
   6.0768500e-02   6.3433500e-02  -4.9117700e-02
   5.4683100e-02   5.2215200e-02  -5.7544900e-02
   4.7427500e-02   3.0012200e-02  -5.6374400e-02
   6.2640900e-02   3.2115700e-02  -4.4904000e-02
   7.5513800e-02   2.2533400e-02  -5.0054000e-02
   4.6491300e-02   7.3418600e-03  -5.9417600e-02
   6.2875000e-02   9.4453000e-03  -3.9285900e-02
   8.2301300e-02   1.1315000e-02  -4.0222200e-02
   4.2278400e-02  -5.9799100e-03  -5.4735800e-02
   6.1938800e-02  -5.5124800e-03  -4.4904000e-02
   9.3301800e-02  -2.0470300e-02  -4.6074500e-02
   5.9832300e-02  -3.6362900e-02  -4.2797200e-02
   4.0171900e-02  -1.1355400e-02  -3.8115400e-02
   9.0025000e-02  -3.7998900e-02  -4.1860900e-02
   7.3875400e-02  -5.2021800e-02  -4.0222200e-02
   3.5022800e-02  -2.9818900e-02  -4.1626800e-02
   7.7386200e-02  -4.4309200e-02  -3.6476800e-02
   6.3577100e-02  -4.3608100e-02  -3.1092700e-02
   5.4683100e-02  -5.7864700e-02  -3.7647300e-02
   6.5917700e-02  -6.7914500e-02  -3.3901800e-02
   6.4279300e-02  -4.2673200e-02  -2.1729200e-02
   7.2003000e-02  -5.4826400e-02  -3.1560900e-02
   4.4853000e-02  -7.8899100e-02  -2.5708700e-02
   5.9598200e-02  -6.0435600e-02  -1.2599700e-02
   6.9428400e-02  -5.5293800e-02  -2.8985900e-02
   3.5256800e-02  -8.1703700e-02  -2.3601900e-02
   4.5087000e-02  -8.0535100e-02  -5.5769800e-03
   6.2875000e-02  -7.6561900e-02  -1.6111000e-02
   3.4788700e-02  -9.1753400e-02  -2.3836000e-02
   2.9639600e-02  -9.0117400e-02  -1.0024700e-02
   6.0066300e-02  -9.1519700e-02  -1.2599700e-02
   2.5426600e-02  -1.0484100e-01  -1.3067800e-02
   1.1383500e-02  -1.0250400e-01  -2.2997200e-03
   4.6959400e-02  -1.1372300e-01  -1.3301900e-02
   1.4426200e-02  -1.2447400e-01  -1.1663300e-02
  -3.8298900e-03  -1.1909800e-01   3.3184300e-03
   2.2852100e-02  -1.3592600e-01   5.6593300e-03
   1.5830500e-02  -1.4620900e-01   2.1479800e-03
  -6.6385200e-03  -1.5462300e-01   6.5956900e-03
  -2.6596300e-03  -1.5672600e-01   1.4320600e-02
   3.8938300e-03  -1.5532400e-01   1.4320600e-02
  -1.7234300e-03  -1.8734300e-01   1.7363800e-02
  -2.2086000e-02  -1.8617400e-01   2.6259200e-02
  -1.9511400e-02  -1.7892900e-01   3.0941000e-02
  -4.5320500e-03  -2.1048100e-01   2.2513800e-02
  -4.6427400e-02  -2.0650800e-01   2.9068300e-02
  -3.4256700e-02  -2.1866100e-01   4.1709100e-02
  -1.6702800e-02  -2.3642300e-01   3.5154600e-02
  -5.5555400e-02  -2.2473700e-01   3.4452400e-02
  -4.5725200e-02  -2.4179900e-01   4.6625000e-02
  -3.9639900e-02  -2.5395200e-01   5.2711400e-02
  -6.2811000e-02  -2.6376800e-01   4.9668200e-02
  -6.8428300e-02  -2.6096300e-01   5.2009100e-02
  -6.0470500e-02  -2.5395200e-01   5.4818200e-02
  -6.9598600e-02  -2.8994400e-01   5.7393100e-02
  -9.2301600e-02  -2.7872600e-01   6.1138600e-02
  -8.3875700e-02  -2.7288300e-01   5.6925000e-02
  -6.9364500e-02  -3.0817400e-01   5.3413600e-02
  -1.0611100e-01  -2.8784100e-01   6.4884000e-02
  -1.1102600e-01  -2.9204700e-01   6.7693100e-02
  -9.0663200e-02  -3.0864100e-01   6.1138600e-02
  -1.1945200e-01  -3.0794000e-01   6.6522600e-02
  -1.2623900e-01  -3.0957600e-01   6.5820400e-02
  -1.1945200e-01  -3.0186300e-01   6.2543100e-02
  -1.2132400e-01  -3.0957600e-01   5.6690900e-02
  -1.4309100e-01  -3.1939200e-01   5.4115900e-02
  -1.5198500e-01  -3.0934200e-01   5.8329500e-02
  -1.2460100e-01  -3.0910900e-01   4.5688700e-02
  -1.6579400e-01  -3.1612000e-01   3.6091000e-02
  -1.7726300e-01  -3.0163000e-01   4.1709100e-02
  -1.3724000e-01  -3.1986000e-01   3.8431900e-02
  -1.8381600e-01  -3.1425000e-01   3.2345600e-02
  -1.9528500e-01  -2.9929300e-01   2.9770600e-02
  -1.5362300e-01  -3.1635400e-01   2.5791000e-02
  -1.9013500e-01  -3.1682100e-01   2.6493300e-02
  -2.0886000e-01  -3.0209700e-01   2.6259200e-02
  -1.8802900e-01  -2.9274900e-01   2.0641100e-02
  -1.9271000e-01  -3.1495200e-01   1.1511600e-02
  -2.1283800e-01  -2.9742300e-01   7.0638700e-03
  -2.2079600e-01  -2.8316600e-01   3.5525200e-03
  -1.9083800e-01  -3.0256500e-01  -2.2997200e-03
  -2.2079600e-01  -2.8012800e-01  -3.9383500e-03
  -2.3156300e-01  -2.7148000e-01  -9.7905900e-03
  -2.0277400e-01  -2.7755700e-01  -1.0961000e-02
  -2.3203100e-01  -2.5465300e-01  -1.0492900e-02
  -2.2898800e-01  -2.6143100e-01  -1.5174700e-02
  -2.2875400e-01  -2.5325100e-01  -6.2792400e-03
  -2.2711600e-01  -2.2894400e-01  -1.3770100e-02
  -2.3015800e-01  -2.4927800e-01  -2.8049600e-02
  -2.5075500e-01  -2.2754200e-01  -1.6345100e-02
  -2.2079600e-01  -2.2006300e-01  -2.1495100e-02
  -2.3694600e-01  -2.2520500e-01  -2.9220000e-02
  -2.6760700e-01  -1.9879500e-01  -2.5474600e-02
  -2.1541300e-01  -2.1001300e-01  -3.3901800e-02
  -2.2805200e-01  -2.0533900e-01  -3.0858700e-02
  -2.6667000e-01  -1.8290200e-01  -2.8517800e-02
  -2.1494500e-01  -1.7565700e-01  -3.1560900e-02
  -2.2337100e-01  -1.8524000e-01  -2.8283700e-02
  -2.5239300e-01  -1.7215100e-01  -2.8751900e-02
  -2.2430700e-01  -1.4831300e-01  -2.5708700e-02
  -2.1728500e-01  -1.6490600e-01  -2.3133700e-02
  -2.2641400e-01  -1.6420500e-01  -2.2899600e-02
  -2.2922200e-01  -1.3662700e-01  -2.1729200e-02
  -2.1307300e-01  -1.3358800e-01  -1.7281500e-02
  -2.0347600e-01  -1.4223600e-01  -1.9154200e-02
  -2.2524300e-01  -1.2307100e-01  -1.4472400e-02
  -2.1775400e-01  -1.1793000e-01  -4.6406200e-03
  -1.8990100e-01  -1.0694500e-01  -8.1519600e-03
  -2.0043400e-01  -1.1255400e-01  -8.1519600e-03
  -2.0628500e-01  -1.0063500e-01   3.0843400e-03
  -1.8522000e-01  -7.6561900e-02   7.7661400e-03
  -1.7983700e-01  -1.0811300e-01   2.8502500e-03
  -1.9668900e-01  -7.3056200e-02   2.2045600e-02
  -1.6883700e-01  -7.1420200e-02   3.0706900e-02
  -1.6087900e-01  -9.2220800e-02   2.1577400e-02
  -2.0183800e-01  -4.3374400e-02   3.6325100e-02
  -1.5058100e-01  -5.6462400e-02   3.7495500e-02
  -1.4847400e-01  -6.4642400e-02   3.8197800e-02
  -1.8662500e-01  -3.5428000e-02   4.8965900e-02
  -1.2904800e-01  -4.7347500e-02   4.5688700e-02
  -1.4941000e-01  -3.8700000e-02   5.3179500e-02
  -1.5643200e-01  -3.1221200e-02   5.9031800e-02
  -1.3606900e-01  -3.7064000e-02   6.3011300e-02
  -1.5877200e-01  -6.9147700e-03   6.9331700e-02
  -1.1875000e-01  -7.6159200e-03   5.6925000e-02
  -1.3887800e-01  -5.5124800e-03   6.0202200e-02
  -1.4332500e-01   1.2016200e-02   7.6822600e-02
  -9.3940000e-02  -1.0718900e-03   6.9565800e-02
  -1.3255900e-01   1.2951000e-02   6.4884000e-02
  -1.3185600e-01   2.0663600e-02   7.1672600e-02
  -9.0897300e-02   1.7391600e-02   6.7693100e-02
  -1.2249400e-01   3.1648200e-02   6.3947700e-02
  -1.2530300e-01   4.2866600e-02   6.4415800e-02
  -8.0130900e-02   4.6138600e-02   5.8095400e-02
  -1.0072700e-01   3.8659700e-02   5.5286300e-02
  -1.0798300e-01   6.4134700e-02   5.6222700e-02
  -8.1301200e-02   7.0445000e-02   5.1540900e-02
  -8.1769300e-02   5.2682600e-02   4.8497700e-02
  -8.0365000e-02   7.9326200e-02   4.2411400e-02
  -8.1301200e-02   1.0036100e-01   3.2345600e-02
  -5.2746800e-02   8.2598200e-02   3.5388700e-02
  -5.8130000e-02   9.3582800e-02   3.0004700e-02
  -6.9364500e-02   1.0667100e-01   1.8066100e-02
  -3.2618300e-02   1.0480100e-01   1.8534300e-02
  -3.1448100e-02   1.2887400e-01   6.3616000e-03
  -3.9639900e-02   1.2069400e-01  -3.0019900e-03
  -2.1383800e-02   1.2817300e-01   2.3820700e-03
   6.0003000e-03   1.5551700e-01  -1.4238300e-02
  -6.4044700e-03   1.3915700e-01  -2.9922300e-02
   2.7235700e-03   1.4944100e-01  -1.9388300e-02
   3.5959000e-02   1.6580100e-01  -2.7113200e-02
   2.5192600e-02   1.5902300e-01  -4.1158600e-02
   3.2682200e-02   1.7211100e-01  -4.1392700e-02
   6.8726300e-02   1.8706900e-01  -5.1692600e-02
   6.6619800e-02   1.8940600e-01  -6.2460800e-02
   5.7257700e-02   1.8823700e-01  -6.7376600e-02
   9.8919000e-02   2.0529900e-01  -7.3697100e-02
   1.0032300e-01   1.9454800e-01  -7.9315200e-02
   9.4940100e-02   2.0155900e-01  -8.7508400e-02
   1.2045200e-01   2.3100700e-01  -9.4765100e-02
   1.4432500e-01   2.1721800e-01  -9.9446900e-02
   1.4924000e-01   2.1558200e-01  -1.0389500e-01
   1.3683500e-01   2.3731800e-01  -9.8042400e-02
   1.9371000e-01   2.5063900e-01  -1.0881100e-01
   1.9534800e-01   2.2609900e-01  -1.1677000e-01
   1.6796400e-01   2.3685000e-01  -1.0178800e-01
   2.2320100e-01   2.6349400e-01  -1.0927900e-01
   2.4660600e-01   2.4900300e-01  -1.2285600e-01
   2.2718000e-01   2.5741700e-01  -1.2332400e-01
   2.4520200e-01   2.8055500e-01  -1.1911000e-01
   2.8522500e-01   2.5297700e-01  -1.1981300e-01
   2.7422400e-01   2.5227500e-01  -1.2145100e-01
   2.8007500e-01   2.8359300e-01  -1.2145100e-01
   3.1494900e-01   2.5531400e-01  -1.2332400e-01
   3.2477900e-01   2.7471200e-01  -1.2074900e-01
   3.1611900e-01   2.7915300e-01  -1.1677000e-01
   3.4490800e-01   2.5741700e-01  -1.1185400e-01
   3.7182400e-01   2.7564700e-01  -1.1489700e-01
   3.4209900e-01   2.6349400e-01  -1.1489700e-01
   3.6924900e-01   2.7003800e-01  -1.0904500e-01
   3.9874000e-01   2.5905300e-01  -9.6637900e-02
   3.7954800e-01   2.5040600e-01  -9.1253800e-02
   3.9125000e-01   2.7307600e-01  -9.4297000e-02
   4.1559200e-01   2.6326000e-01  -8.5635600e-02
   4.2331500e-01   2.4666600e-01  -8.6806100e-02
   4.1208100e-01   2.4760100e-01  -8.1187900e-02
   4.1535800e-01   2.6185800e-01  -6.6440300e-02
   4.4625200e-01   2.3825300e-01  -6.6674400e-02
   4.2963500e-01   2.2820300e-01  -6.4099400e-02
   4.1442100e-01   2.4316100e-01  -5.0054000e-02
   4.6450800e-01   2.3451300e-01  -3.9754100e-02
   4.3548600e-01   2.2680100e-01  -3.2263200e-02
   4.1325100e-01   2.3194200e-01  -2.5006400e-02
   4.6474300e-01   2.2983900e-01  -1.5642800e-02
   4.2706000e-01   2.2002300e-01  -6.0451500e-03
   4.2074100e-01   2.2095800e-01  -4.1724400e-03
   4.4438000e-01   2.1044000e-01   1.3618400e-02
   4.2261300e-01   2.0927200e-01   2.3918300e-02
   4.2589000e-01   2.1698400e-01   2.0407000e-02
   4.1161300e-01   2.1488100e-01   3.0004700e-02
   4.2144300e-01   2.0670100e-01   4.3113700e-02
   4.0880400e-01   2.1207600e-01   6.0202200e-02
   3.8188800e-01   2.1721800e-01   6.5820400e-02
   4.0225100e-01   2.0973900e-01   6.7693100e-02
   3.8656900e-01   2.0085800e-01   7.7758900e-02
   3.6129100e-01   2.1838700e-01   8.6420300e-02
   3.6152600e-01   2.2165900e-01   9.8358800e-02
   3.7135600e-01   1.9828700e-01   1.0070000e-01
   3.3390700e-01   2.1371200e-01   1.0772200e-01
   3.2477900e-01   2.1418000e-01   1.1755400e-01
   3.3905700e-01   2.0810300e-01   1.1638400e-01
   2.9177800e-01   2.0927200e-01   1.2574700e-01
   2.8569300e-01   2.0529900e-01   1.3721800e-01
   2.8171400e-01   2.1581600e-01   1.3417500e-01
   2.6064900e-01   2.0132600e-01   1.2785400e-01
   2.4356300e-01   2.0179300e-01   1.3230200e-01
   2.3326500e-01   2.0459800e-01   1.3604700e-01
   2.1852000e-01   1.8239500e-01   1.3885600e-01
   1.8458200e-01   2.0763600e-01   1.4353800e-01
   1.8107100e-01   2.0506500e-01   1.3815400e-01
   1.5883600e-01   1.8239500e-01   1.3581300e-01
   1.3847400e-01   2.0132600e-01   1.2902500e-01
   1.1109000e-01   1.8940600e-01   1.2153400e-01
   1.0055700e-01   1.7514900e-01   1.2902500e-01
   1.0243000e-01   1.7117600e-01   1.1802200e-01
   2.9171500e-02   1.7304600e-01   1.1100000e-01
   4.1342200e-02   1.8309600e-01   1.0889300e-01
   6.2640900e-02   1.4500000e-01   9.2038400e-02
  -3.1682100e-02   1.5154400e-01   9.7188400e-02
  -1.8107100e-02   1.7141000e-01   9.4847500e-02
   6.9365000e-03   1.2630300e-01   8.3845300e-02
  -7.8492500e-02   1.2887400e-01   8.1738500e-02
  -6.4917500e-02   1.3121100e-01   7.7290800e-02
  -5.9534300e-02   1.1601900e-01   7.4481700e-02
  -1.1523900e-01   1.2303100e-01   6.5586300e-02
  -1.1781300e-01   1.0667100e-01   5.6456800e-02
  -1.3560100e-01   9.6854800e-02   5.2945400e-02
  -1.4145300e-01   1.0176300e-01   4.8731800e-02
  -1.6509200e-01   8.2130700e-02   3.4686400e-02
  -1.8568800e-01   6.5069500e-02   3.0004700e-02
  -1.8030500e-01   7.3015900e-02   2.8600100e-02
  -2.0745500e-01   5.6655800e-02   1.1979700e-02
  -2.3062600e-01   4.7073500e-02   1.1511600e-02
  -2.3015800e-01   4.4970000e-02   1.8066100e-02
  -2.2571100e-01   2.2299600e-02  -3.2360800e-03
  -2.8071400e-01   2.0196200e-02  -8.8542300e-03
  -2.7088300e-01   1.5288200e-02  -3.2360800e-03
  -2.4958500e-01  -2.4741800e-03  -1.3770100e-02
  -3.2541800e-01  -1.0420500e-02  -1.4238300e-02
  -2.9967200e-01  -1.6029700e-02  -2.6879100e-02
  -2.8890500e-01  -3.1454900e-02  -3.2029100e-02
  -3.4367400e-01  -4.2439500e-02  -2.8049600e-02
  -3.3501400e-01  -5.4125300e-02  -2.9220000e-02
  -3.2963100e-01  -5.5761300e-02  -2.6879100e-02
  -3.4601400e-01  -6.2071600e-02  -4.2329100e-02
  -3.6380200e-01  -9.5726600e-02  -5.2160800e-02
  -3.6169600e-01  -8.6144300e-02  -4.3031300e-02
  -3.5771700e-01  -9.1987100e-02  -4.6308600e-02
  -3.7339800e-01  -1.3265400e-01  -5.8481200e-02
  -3.8673900e-01  -1.1769600e-01  -5.3331300e-02
  -3.5490800e-01  -1.2961500e-01  -5.9651700e-02
  -3.7293000e-01  -1.6607500e-01  -6.6440300e-02
  -4.0780400e-01  -1.4153500e-01  -5.4267600e-02
  -3.5256800e-01  -1.6677600e-01  -6.1524400e-02
  -3.7620700e-01  -2.0230100e-01  -6.9015300e-02
  -4.0452700e-01  -1.7472200e-01  -6.3631200e-02
  -3.5490800e-01  -2.0861100e-01  -6.7376600e-02
  -3.6427000e-01  -2.2169900e-01  -6.4801700e-02
  -3.9259100e-01  -2.0697500e-01  -6.3163000e-02
  -3.6005700e-01  -2.3852700e-01  -6.9483500e-02
  -3.5210000e-01  -2.3712400e-01  -6.3163000e-02
  -3.6661100e-01  -2.4460300e-01  -6.6440300e-02
  -3.5982300e-01  -2.7779100e-01  -6.5972100e-02
  -3.5490800e-01  -2.7054600e-01  -5.3799400e-02
  -3.2775800e-01  -2.7522000e-01  -5.7544900e-02
  -3.5373800e-01  -2.9017800e-01  -5.6608500e-02
  -3.3922700e-01  -2.8293300e-01  -4.8883600e-02
  -3.0482100e-01  -3.1448400e-01  -5.5438100e-02
  -3.3946100e-01  -3.0443400e-01  -5.9417600e-02
  -3.1324700e-01  -2.9485200e-01  -5.0288100e-02
  -2.9101200e-01  -3.2733800e-01  -5.0288100e-02
  -3.0716200e-01  -3.2453400e-01  -5.1224500e-02
  -2.9920400e-01  -3.3107800e-01  -4.5606300e-02
  -2.7111700e-01  -3.3388200e-01  -3.5306400e-02
  -2.7626700e-01  -3.2920800e-01  -2.1729200e-02
  -2.7954300e-01  -3.3154500e-01  -2.2899600e-02
  -2.4958500e-01  -3.3341500e-01  -2.6176900e-02
  -2.3998900e-01  -3.3084400e-01  -1.4472400e-02
