**************************************************************************************
  	RED ACELEROGRÁFICA DE LA UNIVERSIDAD AUTONOMA METROPOLITANA (RA-UAM)
	   UNIDAD AZCAPOTZALCO. DIVISIÓN CBI-DEPARTAMENTO DE MATERIALES
     Av. San Pablo 420, Col. Nueva el Rosario, Azcapotzalco, C.P. 02128, Ciudad de México
		Área de Estructuras. e-mail: agb@azc.uam.mx
**************************************************************************************
ARCHIVO ESTANDAR DE ACELERACION:
VERSION DEL FORMATO                    : 2.0
NOMBRE DEL ARCHIVO                     : RUML202307.161
FECHA Y HORA DE CREACION               : 11:30 a. m. 21/07/2023
REF. CATALOGO ACELEROGRAMAS, SMIS 1999 : REGISTRO NO.      /PAG.    


================================================================================
DATOS DE LA ESTACION:
NOMBRE DE LA ESTACION                  : UAM-LERMA.
CLAVE DE LA ESTACION                   : RUML
LOCALIZACION DE LA ESTACION            : AV. DE LAS GARZAS 10, EL PANTEON, C.P.52005,
                                       : LERMA DE VILLADA, ESTADO DE MEXICO.   
                                       : 
                                       : 
                                       : 
COORDENADAS DE LA ESTACION             : 19.291278 LAT. N
                                       : 99.500578 LONG. W
ALTITUD (msnm)                         : 2570
TIPO DE SUELO                          : DEPOSITOS LACUSTRES
                                       : 
                                       : 
INSTITUCION RESPONSABLE                : UNIVERSIDAD AUTONOMA METROPOLITANA
                                       : 

================================================================================
DATOS DEL ACELEROGRAFO: 
MODELO DEL ACELEROGRAFO                : ETNA2 KINEMETRICS
NUMERO DE SERIE DEL ACELEROGRAFO       : 103733
NUMERO DE CANALES                      : 3
ORIENTACION C1-C6 (rumbo;orientacion)  : /N90E/N00E/V 
ORIENTACION C7-C12 (rumbo;orientacion) : 
VEL. DE MUESTREO, C1-C6 (muestras/s)   : /200/200/200
VEL. DE MUESTREO, C7-C12 (muestras/s)  : 
ESC. COMPLETA DE SENSORES, C1-C6, (g)  : /2/2/2
ESC. COMPLETA DE SENSORES, C7-C12 (g)  : 
FREC. NAT. DE SENSORES, C1-C6, (Hz)    : /212/206/208   
FREC. NAT. DE SENSORES, C7-C12 (Hz)    : 
AMORTIGUAMIENTO DE SENSORES, C1-C6     : /0.7/0.7/0.7      
AMORTIGUAMIENTO DE SENSORES, C7-C12    : 
INTERVALO DE MUESTREO, C1-C6 (s)       : /0.005/0.005/0.005
INTERVALO DE MUESTREO, C7-C12 (s)      : 
UMBRAL DE DISPARO, C1-C6 (Gal)         : /2/2/2
UMBRAL DE DISPARO, C7-C12 (Gal)        : 
MEMORIA DE PREEVENTO (s)               : 50
TIEMPO DE POSEVENTO (s)                : 60


================================================================================
DATOS DEL SISMO:
FECHA DEL SISMO [GMT]                  : 2023/07/16
HORA EPICENTRO (GMT)                   : 13:44:36
MAGNITUD(ES)                           : /M=5.2
COORDENADAS DEL EPICENTRO              : 18.3000 LAT. N
                                       : -100.9100 LONG. W
PROFUNDIDAD FOCAL (Km)                 : 44.6
FUENTE DE LOS DATOS EPICENTRALES       : SSN
                                       : INSTITUTO DE GEOFISICA, UNAM

================================================================================
DATOS DE ESTE REGISTRO:
HORA DE LA PRIMERA MUESTRA (GMT)       : 13:44:12.000
EXACTITUD DEL TIEMPO (s)               : 
DURACION DEL REGISTRO (s), C1-C6       : /215/215/215
DURACION DEL REGISTRO (s), C7-C12      : 
NUM. TOTAL DE MUESTRAS, C1-C6          : /43000/43000/43000
NUM. TOTAL DE MUESTRAS, C7-C12         : 
ACEL. MAX.(Gal), C1-C6                 : /-2.369/2.209/1.198
ACEL. MAX., C1-C6, EN LA MUESTRA       : /17014/17889/16783
ACEL. MAX.(Gal), C7-C12                : 
ACEL. MAX., C7-C12,EN LA MUESTRA       : 
UNIDADES DE LOS DATOS                  : Gal (cm/s/s)
FACTOR DE DECIMACION                   : 1
FORMATO DATOS (FORTRAN,16 campos/dato) : 3E16.7


================================================================================
CALIDAD DEL ACELEROGRAMA:
REGISTRO DIGITAL COMPLETO CON TIEMPO ABSOLUTO CORRECTO


================================================================================
COMENTARIOS:














================================================================================
DATOS DE ACELERACION:
---------+---------+---------+---------+---------+---------+---------+---------+
   CANAL-1   	     CANAL-2          CANAL-3
     N90E              N00E              V
---------+---------+---------+---------+---------+---------+---------+---------+
[...]
   7.9317100e-01  -5.0966900e-01   6.8582200e-01
   8.2827900e-01  -5.6295600e-01   6.3759900e-01
   8.1821400e-01  -6.1624300e-01   5.8165200e-01
   7.9972400e-01  -6.6438900e-01   5.2547000e-01
   8.0534200e-01  -7.0225100e-01   4.7537500e-01
   7.9363900e-01  -7.3473700e-01   4.2106600e-01
   7.6297800e-01  -7.4852600e-01   3.5716000e-01
   7.2201900e-01  -7.5296700e-01   3.0636200e-01
   7.2014700e-01  -7.4174800e-01   2.4479700e-01
   6.7731500e-01  -7.3006300e-01   1.6988800e-01
   6.0897200e-01  -6.8004800e-01   1.1300400e-01
   6.1248300e-01  -6.3470700e-01   6.2207000e-02
   5.8229000e-01  -6.0712800e-01   2.0539000e-02
   5.1933000e-01  -5.4309000e-01  -7.5517400e-03
   5.1722300e-01  -4.8863500e-01  -3.2131200e-02
   5.2284100e-01  -4.2903700e-01  -5.9753700e-02
   4.6620000e-01  -3.7762000e-01  -7.9183200e-02
   4.5356100e-01  -3.1007600e-01  -9.4164900e-02
   4.7017900e-01  -2.4907700e-01  -1.2951200e-01
   4.2945400e-01  -1.9882800e-01  -1.7750100e-01
   3.9668700e-01  -1.3315400e-01  -2.2736200e-01
   3.9785700e-01  -9.5525700e-02  -2.8939600e-01
   3.7585600e-01  -4.4342000e-02  -3.5657900e-01
   3.0681100e-01  -9.7521700e-03  -4.1135600e-01
   2.9464000e-01   2.8577100e-02  -4.5794000e-01
   2.6819200e-01   6.5971600e-02  -4.9539500e-01
   1.9704000e-01   9.4952300e-02  -5.2325100e-01
   1.6263400e-01   1.3258000e-01  -5.4197800e-01
   1.4648500e-01   1.4987500e-01  -5.5719400e-01
   1.0599400e-01   1.8353000e-01  -5.7194200e-01
   5.1693700e-02   2.0456500e-01  -5.8247600e-01
   8.0716100e-02   2.1648400e-01  -5.9816000e-01
   5.5672500e-02   2.2957200e-01  -6.1384400e-01
   1.5883700e-02   2.3424700e-01  -6.2461200e-01
   5.8247100e-02   2.3471400e-01  -6.2812300e-01
   6.2460100e-02   2.4149200e-01  -6.2765500e-01
   5.2863900e-02   2.4733500e-01  -6.2484600e-01
   7.8609700e-02   2.5107400e-01  -6.1080100e-01
   1.1652600e-01   2.7748400e-01  -5.9160500e-01
   1.1699400e-01   2.9080600e-01  -5.6866500e-01
   1.5186800e-01   3.0903500e-01  -5.4221300e-01
   2.0640200e-01   3.4456000e-01  -5.1482400e-01
   2.3121200e-01   3.7260600e-01  -4.8954200e-01
   2.4712700e-01   4.0205400e-01  -4.6215400e-01
   3.0540600e-01   4.4412300e-01  -4.2867900e-01
   3.5315300e-01   4.8665900e-01  -3.9707700e-01
   3.5479100e-01   5.2755900e-01  -3.6430400e-01
   4.1190000e-01   5.7523700e-01  -3.2521100e-01
   4.5730600e-01   6.1590400e-01  -2.8682100e-01
   4.7439200e-01   6.6031000e-01  -2.5756000e-01
   5.0130800e-01   6.8695300e-01  -2.3298000e-01
   5.5397000e-01   7.1266200e-01  -2.0957100e-01
   5.7292800e-01   7.2948900e-01  -1.9341900e-01
   5.8860900e-01   7.2645100e-01  -1.8826900e-01
   6.3378100e-01   7.2948900e-01  -1.8522600e-01
   6.5765500e-01   7.1102600e-01  -1.9318500e-01
   6.8082600e-01   6.8765400e-01  -2.0840100e-01
   6.9089000e-01   6.6241300e-01  -2.0348500e-01
   7.4495600e-01   6.3997600e-01  -2.0465500e-01
   7.5665900e-01   6.0164700e-01  -2.0933700e-01
   7.5876500e-01   5.6892700e-01  -1.9201400e-01
   8.0370300e-01   5.4321800e-01  -1.6251900e-01
   8.1119300e-01   4.9694300e-01  -1.3044900e-01
   8.1727800e-01   4.7006500e-01  -8.7610400e-02
   8.2804500e-01   4.2706200e-01  -3.4706100e-02
   8.6081200e-01   3.8686300e-01  -4.7426700e-03
   8.4466200e-01   3.4479400e-01   2.7795800e-02
   8.3108700e-01   3.0295900e-01   7.2272800e-02
   8.4583300e-01   2.6416200e-01   9.7320400e-02
   8.1704400e-01   2.0339600e-01   1.1370700e-01
   7.8334100e-01   1.6880600e-01   1.3454100e-01
   7.7304200e-01   1.1154600e-01   1.6731300e-01
   7.5689300e-01   5.4753200e-02   1.9657400e-01
   6.8784700e-01   2.4604000e-02   2.4011500e-01
   6.6959100e-01  -1.9801900e-02   2.9653100e-01
   6.5671900e-01  -5.3456900e-02   3.3702800e-01
   5.9399300e-01  -7.3556400e-02   3.8478300e-01
   5.6988500e-01  -9.7629100e-02   4.2785500e-01
   5.7082100e-01  -1.2707700e-01   4.5079600e-01
   5.2869200e-01  -1.3923000e-01   4.5992500e-01
   4.8117900e-01  -1.5792800e-01   4.5454100e-01
   4.9615900e-01  -1.9018000e-01   4.2926000e-01
   4.4677400e-01  -2.1144800e-01   3.9203900e-01
   3.8030300e-01  -2.4860900e-01   3.5505300e-01
   3.6649400e-01  -2.9067800e-01   3.2438700e-01
   3.1570400e-01  -3.2176200e-01   2.9723300e-01
   2.2910500e-01  -3.6640200e-01   2.7920800e-01
   1.6895400e-01  -4.0917200e-01   2.7382400e-01
   1.2565400e-01  -4.3932100e-01   2.6937600e-01
   2.2671200e-02  -4.6643200e-01   2.7241900e-01
  -5.9949200e-02  -4.9471100e-01   2.7616500e-01
  -9.4823000e-02  -5.1481100e-01   2.8178300e-01
  -1.8048600e-01  -5.2906800e-01   2.8318800e-01
  -2.6591500e-01  -5.4870000e-01   2.8037900e-01
  -2.9142700e-01  -5.5430900e-01   2.9348800e-01
  -3.5321700e-01  -5.5033600e-01   3.0378800e-01
  -4.2624100e-01  -5.4893300e-01   3.1876900e-01
  -4.5315700e-01  -5.5197200e-01   3.4709400e-01
  -4.8171100e-01  -5.3724800e-01   3.6980100e-01
  -5.3156400e-01  -5.2509400e-01   3.9601900e-01
  -5.6409800e-01  -5.2486100e-01   4.2364100e-01
  -5.5520400e-01  -5.0265800e-01   4.4073000e-01
  -5.8118300e-01  -5.0125500e-01   4.4798700e-01
  -5.9756700e-01  -4.9167300e-01   4.5430700e-01
  -5.7931100e-01  -4.7087200e-01   4.6413900e-01
  -5.6480000e-01  -4.6339400e-01   4.6928900e-01
  -5.6480000e-01  -4.5311000e-01   4.7186400e-01
  -5.5192700e-01  -4.4048900e-01   4.8263200e-01
  -5.0301000e-01  -4.0987300e-01   4.8099300e-01
  -4.9364800e-01  -3.9351300e-01   4.5711600e-01
  -4.6954100e-01  -3.7738600e-01   4.3206900e-01
  -4.1992100e-01  -3.5144400e-01   3.9414600e-01
  -3.8575000e-01  -3.4022600e-01   3.3234600e-01
  -3.6445100e-01  -3.3041000e-01   2.6563100e-01
  -3.2653500e-01  -3.1872400e-01   2.0219300e-01
  -2.7293700e-01  -3.1358200e-01   1.1955900e-01
  -2.7176600e-01  -3.0633700e-01   3.8095700e-02
  -2.5748900e-01  -2.8974300e-01  -2.7215300e-02
  -2.1887100e-01  -2.8273200e-01  -1.0212400e-01
  -2.2027500e-01  -2.6987700e-01  -1.7492600e-01
  -2.4344600e-01  -2.5071300e-01  -2.3672600e-01
  -2.2027500e-01  -2.3715700e-01  -2.9852500e-01
  -2.1348700e-01  -2.3154800e-01  -3.7109300e-01
  -2.4742500e-01  -2.2033000e-01  -4.3617000e-01
  -2.2519000e-01  -1.9882800e-01  -4.9890600e-01
  -2.1231700e-01  -2.0210000e-01  -5.7428300e-01
  -2.3033900e-01  -2.0817600e-01  -6.3912600e-01
  -2.2027500e-01  -2.0513800e-01  -6.8711400e-01
  -1.8423100e-01  -2.1822600e-01  -7.3252700e-01
  -1.7861400e-01  -2.4159800e-01  -7.7372700e-01
  -1.7206000e-01  -2.5118000e-01  -7.9409300e-01
  -1.1729200e-01  -2.7244800e-01  -7.9760400e-01
  -9.7865700e-02  -2.9184700e-01  -7.9690200e-01
  -9.5057100e-02  -3.0797300e-01  -7.8332500e-01
  -4.8012600e-02  -3.3648600e-01  -7.6342700e-01
  -1.7585800e-02  -3.6055900e-01  -7.4423200e-01
  -3.0692700e-02  -3.7037500e-01  -7.2058900e-01
  -3.5426600e-03  -3.9140900e-01  -6.9694600e-01
   3.2501400e-02  -4.2716800e-01  -6.7611200e-01
   6.9896900e-03  -4.2857000e-01  -6.6440700e-01
   1.1904800e-02  -4.4680000e-01  -6.5504400e-01
   4.8416900e-02  -4.5053900e-01  -6.4544600e-01
   3.2033300e-02  -4.5988800e-01  -6.3491200e-01
   2.7352200e-02  -4.6362700e-01  -6.3069800e-01
   6.3864400e-02  -4.4072300e-01  -6.3491200e-01
   7.4864800e-02  -4.4048900e-01  -6.3889200e-01
   6.2226000e-02  -4.2342800e-01  -6.4006200e-01
   9.3589000e-02  -4.0239400e-01  -6.3748700e-01
   1.2822900e-01  -3.7878900e-01  -6.3701900e-01
   1.2542000e-01  -3.7504900e-01  -6.2929400e-01
   1.5654900e-01  -3.6219500e-01  -6.1641900e-01
   2.0078500e-01  -3.4957400e-01  -5.9371200e-01
   2.1880700e-01  -3.4863900e-01  -5.6468500e-01
   2.4268000e-01  -3.4770400e-01  -5.3167900e-01
   2.9534200e-01  -3.6616800e-01  -4.7947700e-01
   3.2413000e-01  -3.6242900e-01  -4.3476500e-01
   3.4847200e-01  -3.7598400e-01  -3.8841600e-01
   3.9177100e-01  -3.9421400e-01  -3.3176600e-01
   4.2945400e-01  -3.9982300e-01  -2.7979800e-01
   4.5894400e-01  -4.0706800e-01  -2.3485300e-01
   4.7111500e-01  -3.9281200e-01  -1.9131200e-01
   5.1675500e-01  -3.8439800e-01  -1.4168500e-01
   5.4226700e-01  -3.7715300e-01  -1.0423100e-01
   5.4086300e-01  -3.4863900e-01  -5.5306000e-02
   5.7550200e-01  -3.1662000e-01   3.9186500e-03
   6.1458900e-01  -2.9885800e-01   5.9866100e-02
   6.2746200e-01  -2.5234900e-01   1.2658200e-01
   6.4922900e-01  -2.0326800e-01   2.0242700e-01
   7.1780600e-01  -1.6283600e-01   2.7007900e-01
   7.4261600e-01  -9.7161700e-02   3.2883500e-01
   7.7280800e-01  -4.6211800e-02   3.9344400e-01
   8.6057800e-01   1.6190200e-02   4.4330500e-01
   9.0130300e-01   7.2749300e-02   4.8356800e-01
   9.3617700e-01   1.2369900e-01   5.3413200e-01
   9.9703000e-01   1.7067600e-01   5.8469500e-01
   1.0555400e+00   1.9287900e-01   6.2566100e-01
   1.0639700e+00   2.3611600e-01   6.7271300e-01
   1.0892500e+00   2.3985600e-01   7.3498100e-01
   1.1325500e+00   2.4476400e-01   7.8765100e-01
   1.1030600e+00   2.5878700e-01   8.3048900e-01
   1.1011800e+00   2.3892100e-01   8.7098700e-01
   1.0887800e+00   2.3354500e-01   9.0235500e-01
   1.0447800e+00   2.1017400e-01   9.2248600e-01
   9.8088100e-01   2.0152600e-01   9.3536100e-01
   9.3219800e-01   1.7745400e-01   9.4051100e-01
   8.7228100e-01   1.5010900e-01   9.2810500e-01
   7.2599800e-01   1.4730400e-01   9.1757100e-01
   6.4993100e-01   1.1551900e-01   9.1054800e-01
   5.4858600e-01   1.0219700e-01   9.0516400e-01
   3.7796200e-01   9.3316300e-02   9.0563200e-01
   2.4689300e-01   7.0645900e-02   9.0914300e-01
   1.2869700e-01   5.9427500e-02   9.1920900e-01
  -2.8352200e-02   5.3351000e-02   9.2670000e-01
  -1.9944400e-01   4.6105800e-02   9.4261800e-01
  -3.0266100e-01   3.8393200e-02   9.5525900e-01
  -4.5854000e-01   4.4236100e-02   9.5830200e-01
  -6.1231200e-01   5.2649800e-02   9.5081100e-01
  -7.1810400e-01   5.6856700e-02   9.3676600e-01
  -8.4636500e-01   7.3450500e-02   9.2038000e-01
  -9.6619900e-01   9.6354600e-02   8.8175500e-01
  -1.0825200e+00   1.2790600e-01   8.4172600e-01
  -1.1543800e+00   1.6600200e-01   7.9935500e-01
  -1.2655500e+00   2.0947300e-01   7.4785600e-01
  -1.3774300e+00   2.6182500e-01   6.9003500e-01
  -1.4310300e+00   3.1651400e-01   6.3221500e-01
  -1.5202000e+00   3.8733000e-01   5.7345900e-01
  -1.6217800e+00   4.5160200e-01   4.9972100e-01
  -1.6908200e+00   5.1937900e-01   4.3347300e-01
  -1.7470000e+00   5.9183100e-01   3.6535300e-01
  -1.8492800e+00   6.5516800e-01   2.9301900e-01
  -1.9253400e+00   7.2060800e-01   2.2934700e-01
  -1.9768400e+00   7.7366100e-01   1.6380200e-01
  -2.0587500e+00   8.2951900e-01   1.0293900e-01
  -2.1357600e+00   8.5616300e-01   5.3077500e-02
  -2.1877200e+00   8.8093700e-01   8.1322600e-03
  -2.2272700e+00   9.1248800e-01  -4.1962900e-02
  -2.2967900e+00   9.0454200e-01  -8.6440000e-02
  -2.3295500e+00   8.9332400e-01  -1.1616900e-01
  -2.3304900e+00   8.5896800e-01  -1.5783700e-01
  -2.3517900e+00   8.1853500e-01  -2.1448700e-01
  -2.3688700e+00   7.7179200e-01  -2.6668900e-01
  -2.3307200e+00   6.7550100e-01  -3.2450900e-01
  -2.3040400e+00   5.9673900e-01  -3.9731100e-01
  -2.3082500e+00   5.0769300e-01  -4.6683600e-01
  -2.2380400e+00   3.9200400e-01  -5.2910400e-01
  -2.1830400e+00   2.8426200e-01  -5.9441500e-01
  -2.1434800e+00   1.6763800e-01  -6.4825500e-01
  -2.0742000e+00   6.5270400e-02  -6.8734800e-01
  -1.9723900e+00  -4.9717500e-02  -7.2878200e-01
  -1.9028800e+00  -1.4857900e-01  -7.6038400e-01
  -1.8450700e+00  -2.2967800e-01  -7.7981400e-01
  -1.6992500e+00  -3.0820700e-01  -8.1165000e-01
  -1.6103100e+00  -3.7785400e-01  -8.4465600e-01
  -1.5209000e+00  -4.3581500e-01  -8.6525600e-01
  -1.3762600e+00  -4.7601400e-01  -8.8023800e-01
  -1.2351300e+00  -5.1247400e-01  -8.9756100e-01
  -1.1150600e+00  -5.3234000e-01  -9.0154000e-01
  -9.5566700e-01  -5.5641200e-01  -8.8749500e-01
  -7.5578600e-01  -5.5851600e-01  -8.7181100e-01
  -6.2799400e-01  -5.6178800e-01  -8.4184700e-01
  -4.3443300e-01  -5.7020100e-01  -7.9854100e-01
  -2.1582800e-01  -5.7814800e-01  -7.4821100e-01
  -4.8012600e-02  -5.8305600e-01  -7.0115900e-01
   1.3408000e-01  -5.8399100e-01  -6.6089600e-01
   3.4753600e-01  -6.0946600e-01  -6.1267400e-01
   5.3173500e-01  -6.2863000e-01  -5.6983500e-01
   6.7029400e-01  -6.4101700e-01  -5.3870100e-01
   8.6385500e-01  -6.6064900e-01  -5.1224900e-01
   1.0265200e+00  -6.8448800e-01  -4.8743600e-01
   1.1386300e+00  -6.8004800e-01  -4.6402700e-01
   1.2591700e+00  -6.7537300e-01  -4.4038400e-01
   1.3872000e+00  -6.6041600e-01  -4.1322900e-01
   1.4719200e+00  -6.3727800e-01  -3.9590600e-01
   1.5288000e+00  -6.0315500e-01  -3.7530700e-01
   1.6104800e+00  -5.4706400e-01  -3.4651400e-01
   1.6661900e+00  -5.1738200e-01  -3.3176600e-01
   1.6910000e+00  -4.5404500e-01  -3.2123200e-01
   1.7188500e+00  -3.9935600e-01  -2.9805700e-01
   1.7703400e+00  -3.3742100e-01  -2.8260700e-01
   1.7677600e+00  -2.6286600e-01  -2.8167100e-01
   1.7783000e+00  -2.0467100e-01  -2.7511600e-01
   1.8148100e+00  -1.2193600e-01  -2.7043400e-01
   1.7946800e+00  -6.9583300e-02  -2.7277500e-01
   1.7907000e+00  -1.0219600e-02  -2.7722300e-01
   1.7963200e+00   4.1898900e-02  -2.7652100e-01
   1.7843800e+00   7.9527100e-02  -2.7933000e-01
   1.7342900e+00   1.1668800e-01  -2.9173700e-01
   1.7160400e+00   1.3304800e-01  -2.9478000e-01
   1.6851400e+00   1.5875700e-01  -2.9993000e-01
   1.6036900e+00   1.7348100e-01  -3.1186800e-01
   1.5311400e+00   1.7698600e-01  -3.1233600e-01
   1.4553000e+00   1.8773700e-01  -3.0484600e-01
   1.3684700e+00   1.8937300e-01  -2.9688700e-01
   1.2238300e+00   1.7254600e-01  -2.7277500e-01
   1.1269300e+00   1.7535000e-01  -2.3485300e-01
   1.0141200e+00   1.7979100e-01  -1.9271700e-01
   8.4302400e-01   1.6717000e-01  -1.3325800e-01
   7.1382700e-01   1.6296300e-01  -5.4603800e-02
   5.8767300e-01   1.6740400e-01   9.5368000e-03
   4.2383700e-01   1.7909000e-01   6.1738800e-02
   2.6210700e-01   1.6343100e-01   1.2494300e-01
   1.6006000e-01   1.5758800e-01   1.7082500e-01
  -1.6883600e-02   1.6296300e-01   2.0289500e-01
  -1.8399700e-01   1.3445000e-01   2.2209000e-01
  -2.8370300e-01   1.0266500e-01   2.3964700e-01
  -4.3349600e-01   9.2848800e-02   2.5111700e-01
  -5.9195000e-01   8.2331600e-02   2.4386100e-01
  -7.0429500e-01   5.1948700e-02   2.4994700e-01
  -7.8995800e-01   3.0213100e-02   2.5416100e-01
  -9.2945300e-01   2.5538800e-02   2.5064900e-01
  -1.0169900e+00   2.2968000e-02   2.4596700e-01
  -1.0677800e+00   1.2217100e-02   2.4620100e-01
  -1.1454800e+00   1.8994800e-02   2.4526500e-01
  -1.2154600e+00   3.6523500e-02   2.3051700e-01
  -1.2437900e+00   5.1013800e-02   2.1459900e-01
  -1.2517400e+00   6.8075000e-02   1.9423400e-01
  -1.3224300e+00   8.0695600e-02   1.7737900e-01
  -1.3236000e+00   9.9860300e-02   1.6473800e-01
  -1.3151700e+00   1.1481800e-01   1.4296800e-01
  -1.3451300e+00   1.3772200e-01   1.2072900e-01
  -1.3346000e+00   1.5595200e-01   1.1487700e-01
  -1.3135300e+00   1.8025800e-01   1.2307000e-01
  -1.2997200e+00   2.1344600e-01   1.1721800e-01
  -1.2901300e+00   2.1999000e-01   1.1955900e-01
  -1.2344200e+00   2.3845300e-01   1.4109500e-01
  -1.1941700e+00   2.6112400e-01   1.5795000e-01
  -1.1581200e+00   2.7000500e-01   1.7761300e-01
  -1.0991400e+00   2.6603200e-01   2.0851300e-01
  -1.0205000e+00   2.7210800e-01   2.4339200e-01
  -9.5964600e-01   2.6392800e-01   2.6422600e-01
  -9.0581400e-01   2.3868700e-01   2.8482600e-01
  -7.8714900e-01   2.1297800e-01   3.1034200e-01
  -7.1552900e-01   1.6670300e-01   3.2345100e-01
  -6.5608000e-01   1.3842300e-01   3.2672800e-01
  -5.3039400e-01   9.4251100e-02   3.2462100e-01
