**************************************************************************************
  	RED ACELEROGRÁFICA DE LA UNIVERSIDAD AUTONOMA METROPOLITANA (RA-UAM)
	   UNIDAD AZCAPOTZALCO. DIVISIÓN CBI-DEPARTAMENTO DE MATERIALES
     Av. San Pablo 420, Col. Nueva el Rosario, Azcapotzalco, C.P. 02128, Ciudad de México
		Área de Estructuras. e-mail: agb@azc.uam.mx
**************************************************************************************
ARCHIVO ESTANDAR DE ACELERACION:
VERSION DEL FORMATO                    : 2.0
NOMBRE DEL ARCHIVO                     : RUML202309.081
FECHA Y HORA DE CREACION               : 11:30 a. m. 15/09/2023
REF. CATALOGO ACELEROGRAMAS, SMIS 1999 : REGISTRO NO.      /PAG.    


================================================================================
DATOS DE LA ESTACION:
NOMBRE DE LA ESTACION                  : UAM-LERMA.
CLAVE DE LA ESTACION                   : RUML
LOCALIZACION DE LA ESTACION            : AV. DE LAS GARZAS 10, EL PANTEON, C.P.52005,
                                       : LERMA DE VILLADA, ESTADO DE MEXICO.   
                                       : 
                                       : 
                                       : 
COORDENADAS DE LA ESTACION             : 19.291278 LAT. N
                                       : 99.500578 LONG. W
ALTITUD (msnm)                         : 2570
TIPO DE SUELO                          : DEPOSITOS LACUSTRES
                                       : 
                                       : 
INSTITUCION RESPONSABLE                : UNIVERSIDAD AUTONOMA METROPOLITANA
                                       : 

================================================================================
DATOS DEL ACELEROGRAFO: 
MODELO DEL ACELEROGRAFO                : ETNA2 KINEMETRICS
NUMERO DE SERIE DEL ACELEROGRAFO       : 103733
NUMERO DE CANALES                      : 3
ORIENTACION C1-C6 (rumbo;orientacion)  : /N90E/N00E/V 
ORIENTACION C7-C12 (rumbo;orientacion) : 
VEL. DE MUESTREO, C1-C6 (muestras/s)   : /200/200/200
VEL. DE MUESTREO, C7-C12 (muestras/s)  : 
ESC. COMPLETA DE SENSORES, C1-C6, (g)  : /2/2/2
ESC. COMPLETA DE SENSORES, C7-C12 (g)  : 
FREC. NAT. DE SENSORES, C1-C6, (Hz)    : /212/206/208   
FREC. NAT. DE SENSORES, C7-C12 (Hz)    : 
AMORTIGUAMIENTO DE SENSORES, C1-C6     : /0.7/0.7/0.7      
AMORTIGUAMIENTO DE SENSORES, C7-C12    : 
INTERVALO DE MUESTREO, C1-C6 (s)       : /0.005/0.005/0.005
INTERVALO DE MUESTREO, C7-C12 (s)      : 
UMBRAL DE DISPARO, C1-C6 (Gal)         : /2/2/2
UMBRAL DE DISPARO, C7-C12 (Gal)        : 
MEMORIA DE PREEVENTO (s)               : 50
TIEMPO DE POSEVENTO (s)                : 60


================================================================================
DATOS DEL SISMO:
FECHA DEL SISMO [GMT]                  : 2023/09/08
HORA EPICENTRO (GMT)                   : 16:37:13
MAGNITUD(ES)                           : /M=5.8
COORDENADAS DEL EPICENTRO              : 19.2600 LAT. N
                                       : -105.1700 LONG. W
PROFUNDIDAD FOCAL (Km)                 : 4.1
FUENTE DE LOS DATOS EPICENTRALES       : SSN
                                       : INSTITUTO DE GEOFISICA, UNAM

================================================================================
DATOS DE ESTE REGISTRO:
HORA DE LA PRIMERA MUESTRA (GMT)       : 16:39:16.000
EXACTITUD DEL TIEMPO (s)               : 
DURACION DEL REGISTRO (s), C1-C6       : /162/162/162
DURACION DEL REGISTRO (s), C7-C12      : 
NUM. TOTAL DE MUESTRAS, C1-C6          : /32400/32400/32400
NUM. TOTAL DE MUESTRAS, C7-C12         : 
ACEL. MAX.(Gal), C1-C6                 : /0.992/-0.779/-0.256
ACEL. MAX., C1-C6, EN LA MUESTRA       : /11115/14493/17866
ACEL. MAX.(Gal), C7-C12                : 
ACEL. MAX., C7-C12,EN LA MUESTRA       : 
UNIDADES DE LOS DATOS                  : Gal (cm/s/s)
FACTOR DE DECIMACION                   : 1
FORMATO DATOS (FORTRAN,16 campos/dato) : 3E16.7


================================================================================
CALIDAD DEL ACELEROGRAMA:
REGISTRO DIGITAL COMPLETO CON TIEMPO ABSOLUTO CORRECTO


================================================================================
COMENTARIOS:














================================================================================
DATOS DE ACELERACION:
---------+---------+---------+---------+---------+---------+---------+---------+
   CANAL-1   	     CANAL-2          CANAL-3
     N90E              N00E              V
---------+---------+---------+---------+---------+---------+---------+---------+
[...]
   8.8255600e-02   2.8027300e-01   5.3746500e-02
   3.6998200e-02   2.7583200e-01   5.8896400e-02
   1.1252500e-02   2.7232600e-01   6.5216900e-02
   3.9338700e-02   2.5596600e-01   6.7557800e-02
   2.8338300e-02   2.3329600e-01   6.8025900e-02
  -2.5727800e-02   2.2301200e-01   7.0835000e-02
  -4.8898900e-02   2.2885500e-01   7.0366800e-02
  -5.9197200e-02   2.2862100e-01   6.3812300e-02
  -8.3538600e-02   1.9683600e-01   6.4514600e-02
  -8.7517500e-02   1.7369800e-01   7.2707700e-02
  -8.6581300e-02   1.6762200e-01   6.8728200e-02
  -1.4790300e-01   1.6832300e-01   5.7726000e-02
  -1.7692500e-01   1.5640300e-01   5.7023700e-02
  -1.4135000e-01   1.4074500e-01   5.7960100e-02
  -1.5562700e-01   1.3092800e-01   5.3746500e-02
  -2.1179900e-01   1.1410100e-01   4.7660100e-02
  -2.2631000e-01   1.0919300e-01   3.8296500e-02
  -2.3239600e-01   8.9093400e-02   2.8933000e-02
  -2.6165200e-01   8.3951700e-02   3.1507900e-02
  -2.5884400e-01   6.6189300e-02   3.5487500e-02
  -2.6539700e-01   5.4036200e-02   3.1273900e-02
  -3.1197400e-01   5.0296700e-02   2.1208000e-02
  -3.3701700e-01   4.5856100e-02   2.0739800e-02
  -3.1267600e-01   5.1231600e-02   2.4251200e-02
  -3.2742100e-01   1.4502200e-03   1.7696700e-02
  -3.8733800e-01   5.1535700e-04   2.6358000e-02
  -3.8967900e-01   4.9559500e-03   2.4017100e-02
  -4.0465800e-01  -1.0703000e-02   5.2899000e-03
  -4.3789400e-01  -4.1589500e-03  -1.9668800e-03
  -4.1589300e-01  -2.8932800e-02  -3.1373300e-03
  -4.3157400e-01  -4.1553400e-02  -5.9464000e-03
  -4.9430000e-01  -4.5760300e-02  -2.6780400e-02
  -5.0085400e-01  -5.8380900e-02  -3.9421200e-02
  -4.8095900e-01  -7.2637500e-02  -4.1762100e-02
  -4.9804500e-01  -7.6610700e-02  -4.4805300e-02
  -5.2964200e-01  -8.3388400e-02  -4.5507600e-02
  -5.4626000e-01  -1.1330400e-01  -5.3934800e-02
  -5.6334600e-01  -1.1681000e-01  -6.3766600e-02
  -5.8581500e-01  -1.1213500e-01  -7.1959700e-02
  -5.8253800e-01  -1.4345300e-01  -6.5873400e-02
  -5.7598400e-01  -1.6261800e-01  -6.2596100e-02
  -6.3379500e-01  -1.5467200e-01  -6.9852900e-02
  -6.6305200e-01  -1.4438800e-01  -7.1257400e-02
  -6.1624100e-01  -1.8178300e-01  -6.6809700e-02
  -6.4573200e-01  -2.1567100e-01  -5.6743900e-02
  -6.8739300e-01  -2.0188200e-01  -4.8082500e-02
  -6.7639300e-01  -2.0468700e-01  -4.0825800e-02
  -7.0073400e-01  -2.1099700e-01  -4.0123500e-02
  -7.1618200e-01  -2.1356800e-01  -4.4337100e-02
  -6.9558500e-01  -2.1543800e-01  -4.8316600e-02
  -7.0167000e-01  -2.2735700e-01  -6.4000600e-02
  -7.4473600e-01  -2.3390100e-01  -8.9516400e-02
  -7.5901300e-01  -2.4278200e-01  -1.0005000e-01
  -7.3092700e-01  -2.5633800e-01  -9.3027800e-02
  -7.3935300e-01  -2.6685500e-01  -9.8177700e-02
  -7.8101400e-01  -2.8508500e-01  -1.0379600e-01
  -7.6720500e-01  -2.7620400e-01  -9.7007300e-02
  -7.5901300e-01  -2.7784000e-01  -9.3730000e-02
  -8.0582400e-01  -2.8672100e-01  -9.2091400e-02
  -7.8592900e-01  -2.9116100e-01  -9.0686900e-02
  -7.6065200e-01  -3.1383200e-01  -8.6941400e-02
  -8.2525000e-01  -3.2341400e-01  -8.6473200e-02
  -8.3554800e-01  -3.0331500e-01  -8.6707300e-02
  -7.9014200e-01  -3.0284700e-01  -9.0686900e-02
  -8.0535600e-01  -3.3486600e-01  -9.9816400e-02
  -8.3180300e-01  -3.4211100e-01  -9.8645900e-02
  -8.3227200e-01  -3.2271300e-01  -9.6070900e-02
  -8.3671900e-01  -3.2785500e-01  -1.0426400e-01
  -8.4280400e-01  -3.5590000e-01  -1.0122100e-01
  -8.3110100e-01  -3.5052500e-01  -8.7643700e-02
  -8.1565400e-01  -3.4444800e-01  -9.0686900e-02
  -8.5333600e-01  -3.6291200e-01  -9.5368700e-02
  -8.8072000e-01  -3.6454800e-01  -9.0218700e-02
  -8.3086700e-01  -3.5029100e-01  -7.9216500e-02
  -8.2127100e-01  -3.6010700e-01  -8.0386900e-02
  -8.5637900e-01  -3.8114200e-01  -8.7877800e-02
  -8.4420800e-01  -3.8838700e-01  -9.1389100e-02
  -8.5286800e-01  -3.8675100e-01  -9.5836800e-02
  -8.7627300e-01  -3.7693500e-01  -8.2727800e-02
  -8.3437800e-01  -3.8464700e-01  -7.5471000e-02
  -8.2829300e-01  -3.9843700e-01  -7.2896000e-02
  -8.6737900e-01  -3.9867000e-01  -8.1557400e-02
  -8.7252800e-01  -3.8324500e-01  -8.6941400e-02
  -8.4842100e-01  -3.9609900e-01  -7.5705100e-02
  -8.3812300e-01  -4.1292700e-01  -8.0621000e-02
  -8.6761300e-01  -4.0194200e-01  -7.5002900e-02
  -8.6176200e-01  -4.0264300e-01  -7.6641500e-02
  -8.4140000e-01  -4.0498100e-01  -8.2493700e-02
  -8.5591100e-01  -4.0685000e-01  -7.6407400e-02
  -8.4701700e-01  -4.0544800e-01  -7.5705100e-02
  -8.2267500e-01  -4.0334500e-01  -7.7577800e-02
  -8.3788900e-01  -4.0264300e-01  -8.5536900e-02
  -8.4912300e-01  -4.0685000e-01  -8.2493700e-02
  -8.1588800e-01  -3.8791900e-01  -7.3832400e-02
  -7.9856800e-01  -3.8488100e-01  -7.3130100e-02
  -8.0535600e-01  -4.0498100e-01  -7.0789200e-02
  -8.0301500e-01  -3.9025700e-01  -7.2896000e-02
  -8.0793000e-01  -3.9072400e-01  -7.2662000e-02
  -7.9880200e-01  -3.8862100e-01  -5.3700700e-02
  -7.6158800e-01  -3.8441400e-01  -3.7080300e-02
  -7.5831100e-01  -3.7997300e-01  -3.3334900e-02
  -7.7212000e-01  -3.6104200e-01  -3.7782600e-02
  -7.6486400e-01  -3.5169400e-01  -3.7080300e-02
  -7.3560800e-01  -3.7179300e-01  -2.1396300e-02
  -7.2203300e-01  -3.8791900e-01  -1.8119100e-02
  -7.3303300e-01  -3.4748700e-01  -2.9355400e-02
  -6.9488300e-01  -3.1990800e-01  -5.0657500e-02
  -6.8762700e-01  -3.1289700e-01  -8.1323300e-02
  -6.9886200e-01  -3.2598500e-01  -9.0686900e-02
  -6.4175300e-01  -3.3533300e-01  -9.6773200e-02
  -6.2817800e-01  -3.1593500e-01  -1.0239100e-01
  -6.6820100e-01  -3.2832200e-01  -1.0262500e-01
  -6.6024300e-01  -3.1733700e-01  -1.0262500e-01
  -6.0875200e-01  -3.0191200e-01  -7.9684600e-02
  -5.9892200e-01  -3.1056000e-01  -5.1359800e-02
  -6.0734700e-01  -2.9793900e-01  -3.4271300e-02
  -5.8675100e-01  -2.9186200e-01  -2.7716700e-02
  -5.8370800e-01  -2.7246400e-01  -2.3035000e-02
  -5.7341000e-01  -2.5937600e-01  -1.7885000e-02
  -5.2753600e-01  -2.7012700e-01  -6.8827600e-03
  -5.0530100e-01  -2.7293200e-01   3.7401600e-04
  -5.2894000e-01  -2.5680500e-01  -9.2236600e-03
  -5.2379100e-01  -2.3483600e-01  -1.8119100e-02
  -4.7136300e-01  -2.3530300e-01  -2.4350600e-03
  -4.4397900e-01  -2.3390100e-01   1.0674000e-02
  -4.4983000e-01  -2.1380200e-01   8.8012400e-03
  -4.3789400e-01  -2.0071300e-01   4.5876300e-03
  -4.2361600e-01  -2.0094700e-01  -7.5850300e-03
  -4.3134000e-01  -1.8832700e-01  -1.0305200e-03
  -3.8593400e-01  -1.6892800e-01  -3.8396000e-03
  -3.4754900e-01  -1.7173300e-01  -1.9055400e-02
  -3.8125300e-01  -1.7687500e-01  -2.9121300e-02
  -3.5948600e-01  -1.5771000e-01  -4.0825800e-02
  -3.1993100e-01  -1.2849500e-01  -3.8484900e-02
  -3.0799500e-01  -1.3340300e-01  -3.6378100e-02
  -2.8880200e-01  -1.5140000e-01  -3.2164400e-02
  -2.8224900e-01  -1.2685900e-01  -3.2866700e-02
  -2.7031200e-01  -1.0956500e-01  -3.6612200e-02
  -2.6258900e-01  -1.0418900e-01  -2.6780400e-02
  -2.1273500e-01  -1.1073300e-01  -1.1564600e-02
  -1.7411700e-01  -1.0418900e-01  -1.0305200e-03
  -2.1226700e-01  -6.7729500e-02  -3.1373300e-03
  -2.0899100e-01  -8.4089600e-02  -6.4145800e-03
  -1.4883900e-01  -7.5909500e-02   2.9490000e-03
  -1.2917900e-01  -5.6978600e-02   1.5121700e-02
  -1.3151900e-01  -5.3940300e-02   2.2846600e-02
  -9.7581800e-02  -3.5476800e-02   1.4419400e-02
  -9.9922300e-02  -4.0852200e-02   1.5444600e-03
  -1.0858200e-01  -1.3975000e-02   1.2546700e-02
  -5.0537300e-02  -1.8181900e-02   2.5421600e-02
  -2.8536400e-02  -2.4725900e-02   2.1910300e-02
  -4.6324300e-02   7.7605300e-03   1.3248900e-02
  -3.1579100e-02   1.6641700e-02   1.5589800e-02
   2.3585000e-03   1.5940600e-02   2.6826100e-02
   2.6934000e-02   1.2668600e-02   2.8698900e-02
   3.2551200e-02   3.0430900e-02   2.5421600e-02
   6.3914200e-02   3.9078400e-02   2.5421600e-02
   8.5213000e-02   5.0530400e-02   1.7696700e-02
   7.1403900e-02   6.6656800e-02   1.4653500e-02
   1.2336300e-01   6.7825400e-02   3.2210200e-02
   1.6736500e-01   6.9695100e-02   3.3614700e-02
   1.4442800e-01   7.4135700e-02   1.3483000e-02
   1.7134400e-01   9.6572300e-02   1.6760300e-02
   2.1464400e-01   1.0148000e-01   3.7126100e-02
   2.1628200e-01   1.0031200e-01   5.1171500e-02
   2.3781500e-01   1.1269900e-01   5.6321400e-02
   2.7409300e-01   1.1830800e-01   6.3578200e-02
   2.6894400e-01   1.4074500e-01   6.3812300e-02
   2.7620000e-01   1.4354900e-01   6.4046400e-02
   3.2418000e-01   1.3560300e-01   8.3241800e-02
   3.5203200e-01   1.5289800e-01   8.5114500e-02
   3.4243600e-01   1.6879000e-01   6.9898600e-02
   3.4454300e-01   1.8304700e-01   5.7726000e-02
   4.0258800e-01   1.9262900e-01   5.4214600e-02
   4.1546100e-01   1.9076000e-01   5.3044200e-02
   4.1616300e-01   1.9286300e-01   4.8128300e-02
   4.6203700e-01   2.0852200e-01   3.8530600e-02
   4.5595200e-01   2.2301200e-01   1.8633000e-02
   4.5712200e-01   2.3352900e-01   1.8164800e-02
   5.1118800e-01   2.3843800e-01   3.5487500e-02
   5.4512500e-01   2.2464800e-01   3.7594300e-02
   5.2031600e-01   2.3212700e-01   2.5655700e-02
   5.2218800e-01   2.6414600e-01   2.2144400e-02
   5.8210600e-01   2.6367900e-01   3.5955600e-02
   5.9076600e-01   2.5316200e-01   4.5553300e-02
   5.9334000e-01   2.6438000e-01   5.4214600e-02
   6.2798000e-01   2.8097400e-01   5.6087400e-02
   6.3359700e-01   2.7443000e-01   4.8362400e-02
   6.2376700e-01   2.9312700e-01   4.8830600e-02
   6.6098100e-01   3.0972100e-01   5.8428300e-02
   7.1153700e-01   2.9780100e-01   6.3344100e-02
   6.8742900e-01   3.0037200e-01   5.5853300e-02
   6.8368400e-01   3.1462900e-01   4.8128300e-02
   7.2792000e-01   3.3472800e-01   4.6489700e-02
   7.4477200e-01   3.2982000e-01   4.7191900e-02
   7.4921900e-01   3.2467800e-01   4.6957900e-02
   7.7426300e-01   3.4360900e-01   4.4851100e-02
   7.8339100e-01   3.4407700e-01   3.0571600e-02
   7.6466600e-01   3.4781600e-01   3.1039800e-02
   8.1100900e-01   3.6955200e-01   4.3914700e-02
   8.5150000e-01   3.5973600e-01   4.1807900e-02
   8.2083900e-01   3.7212300e-01   3.8296500e-02
   8.2715800e-01   3.6417600e-01   4.3212400e-02
   8.6437300e-01   3.6394300e-01   5.2107800e-02
   8.6835200e-01   3.8895000e-01   6.0535100e-02
   8.6437300e-01   3.6744800e-01   7.9964500e-02
   8.8918200e-01   3.8427600e-01   7.7623600e-02
   8.9877800e-01   3.9198800e-01   5.9364600e-02
   8.7701100e-01   3.8684700e-01   6.5216900e-02
   9.0556600e-01   3.9105400e-01   8.2773600e-02
   9.4254600e-01   3.8077000e-01   9.1434900e-02
   9.0673600e-01   4.0227200e-01   7.3878200e-02
   8.9901200e-01   4.0951700e-01   5.9364600e-02
   9.3926900e-01   3.9269000e-01   6.0769100e-02
   9.4558900e-01   3.8217200e-01   6.6855500e-02
   9.4090800e-01   3.9198800e-01   7.9730400e-02
   9.5424900e-01   4.1816500e-01   7.4112300e-02
   9.5541900e-01   4.1582700e-01   5.5385100e-02
   9.4465300e-01   4.2167000e-01   3.1742000e-02
   9.7578100e-01   4.2961700e-01   1.6526200e-02
   9.9193100e-01   3.9993500e-01   1.9335300e-02
   9.6524900e-01   3.8053600e-01   9.7376000e-03
   9.4956800e-01   4.0133700e-01   3.6512700e-03
   9.6361100e-01   3.9549400e-01   1.4653500e-02
   9.7976000e-01   3.8684700e-01   2.3080700e-02
   9.6197200e-01   3.9689600e-01   3.9467000e-02
   9.6899400e-01   3.9339100e-01   5.1639700e-02
   9.6946200e-01   4.0741400e-01   4.2510200e-02
   9.4605700e-01   3.9806500e-01   3.3848800e-02
   9.6618500e-01   3.7446000e-01   4.1807900e-02
   9.8046300e-01   3.7352500e-01   5.0001000e-02
   9.4254600e-01   3.7843300e-01   4.1807900e-02
   9.2475800e-01   3.7352500e-01   3.5955600e-02
   9.5963200e-01   3.8030300e-01   3.8998800e-02
   9.5307800e-01   3.7516100e-01   3.8764700e-02
   9.2873700e-01   3.5389300e-01   4.8596500e-02
   9.3412000e-01   3.4734900e-01   5.6789600e-02
   9.1633200e-01   3.5739900e-01   3.9467000e-02
   8.9784200e-01   3.4781600e-01   2.7762500e-02
   9.0837400e-01   3.4080500e-01   3.7126100e-02
   9.1937500e-01   3.4688100e-01   3.7360200e-02
   8.8684200e-01   3.0761700e-01   2.9167000e-02
   8.5875500e-01   3.2397700e-01   2.3314800e-02
   8.6343600e-01   3.3239100e-01   1.6526200e-02
   8.5805300e-01   3.0154100e-01   8.5671500e-03
   8.4892500e-01   3.0013800e-01   8.3330600e-03
   8.4330800e-01   2.9312700e-01   1.0439900e-02
   8.2013700e-01   2.9008900e-01  -4.0736900e-03
   7.9439100e-01   2.8821900e-01  -1.9055400e-02
   8.2481800e-01   2.8518100e-01  -1.6480400e-02
   8.3488200e-01   2.5082400e-01  -4.7759600e-03
   7.8526300e-01   2.5783600e-01  -5.9464000e-03
   7.5764500e-01   2.5970600e-01  -1.7182700e-02
   7.6326200e-01   2.3726900e-01  -2.0225900e-02
   7.6302800e-01   2.3236100e-01  -1.9991800e-02
   7.5038900e-01   2.1343000e-01  -8.7554800e-03
   7.4524000e-01   2.1202800e-01   1.7785500e-03
   7.0545100e-01   1.9613500e-01  -2.9032400e-03
   6.7947100e-01   1.9800500e-01  -5.7123200e-03
   6.9374900e-01   1.9122700e-01   1.3103700e-03
   6.9468500e-01   1.7440000e-01   1.1142100e-02
   6.5630000e-01   1.7112800e-01   1.3014900e-02
   6.2072400e-01   1.5990900e-01   1.0908100e-02
   6.3242700e-01   1.5733800e-01   1.1142100e-02
   6.0878800e-01   1.4892500e-01   1.2312600e-02
   5.9263800e-01   1.3443400e-01   1.2546700e-02
   5.9661700e-01   1.2602000e-01   9.2694200e-03
   5.6478600e-01   1.3303200e-01   3.6512700e-03
   5.3038000e-01   1.2461800e-01  -1.1330500e-02
   5.3552900e-01   1.0335000e-01  -1.2500900e-02
   5.4512500e-01   9.1430600e-02  -6.1804900e-03
   4.9597500e-01   8.5120300e-02  -6.4145800e-03
   4.6905900e-01   9.5637500e-02  -5.6234300e-04
   4.7139900e-01   8.5354000e-02  -7.3509400e-03
   4.6203700e-01   6.9695100e-02  -8.2873000e-03
   4.3395100e-01   6.1748800e-02   1.0762900e-03
   4.2739700e-01   4.0013200e-02   5.9921700e-03
   4.0867300e-01   4.3285300e-02   6.6944400e-03
   3.5133000e-01   4.1649200e-02   8.8012400e-03
   3.7801200e-01   3.1599500e-02   1.5121700e-02
   3.8409800e-01   2.2484600e-02   9.7376000e-03
   3.2347800e-01   1.5005700e-02   4.8217200e-03
   3.0452000e-01   2.2718300e-02   2.0126400e-03
   3.1294600e-01   1.6641700e-02  -4.3077800e-03
   2.9820000e-01   1.1500000e-02  -7.1168500e-03
   2.8298700e-01  -1.0001800e-02  -4.3077800e-03
   2.7034800e-01  -2.0519000e-02  -5.2441400e-03
   2.3032500e-01  -2.9903700e-03  -1.9757700e-02
   2.0200500e-01  -1.4676100e-02  -2.4439500e-02
   2.1300500e-01  -2.2388700e-02  -1.6012300e-02
   2.2751700e-01  -2.7764200e-02  -2.5609900e-02
   1.6877000e-01  -4.0618500e-02  -4.3634800e-02
   1.2710800e-01  -4.1553400e-02  -4.7614400e-02
   1.4676900e-01  -5.2304300e-02  -5.1593900e-02
   1.2430000e-01  -6.0016900e-02  -5.7914300e-02
   1.0042600e-01  -6.4457500e-02  -5.9787000e-02
   1.0674600e-01  -7.3105000e-02  -6.4702900e-02
   7.1169800e-02  -7.4741000e-02  -8.2961900e-02
   3.1849100e-02  -8.3154700e-02  -8.9750500e-02
   5.2445700e-02  -8.6426700e-02  -7.7811900e-02
   4.7764600e-02  -1.0302100e-01  -7.4768800e-02
   1.0316300e-02  -1.1938100e-01  -7.9450600e-02
  -9.5781600e-03  -1.1190200e-01  -7.8280100e-02
  -1.2854900e-02  -1.1517400e-01  -7.6641500e-02
  -1.8238100e-02  -1.1774500e-01  -7.7577800e-02
  -4.2345500e-02  -1.2545700e-01  -5.8382500e-02
  -4.2813600e-02  -1.2592500e-01  -5.4871100e-02
  -6.9729600e-02  -1.4929600e-01  -7.1491500e-02
  -1.1817800e-01  -1.5700900e-01  -7.2193800e-02
  -9.8752000e-02  -1.4368700e-01  -6.7512000e-02
  -8.9389900e-02  -1.7383600e-01  -6.4000600e-02
  -1.3760500e-01  -1.5724200e-01  -7.1725600e-02
  -1.5749900e-01  -1.4251800e-01  -7.9216500e-02
  -1.5305200e-01  -1.6659100e-01  -9.7943600e-02
  -1.8371300e-01  -1.7827700e-01  -1.1081900e-01
