**************************************************************************************
  	RED ACELEROGRÁFICA DE LA UNIVERSIDAD AUTONOMA METROPOLITANA (RA-UAM)
	   UNIDAD AZCAPOTZALCO. DIVISIÓN CBI-DEPARTAMENTO DE MATERIALES
     Av. San Pablo 420, Col. Nueva el Rosario, Azcapotzalco, C.P. 02128, Ciudad de México
		Área de Estructuras. e-mail: agb@azc.uam.mx
**************************************************************************************
ARCHIVO ESTANDAR DE ACELERACION:
VERSION DEL FORMATO                    : 2.0
NOMBRE DEL ARCHIVO                     : RUML202310.071
FECHA Y HORA DE CREACION               : 11:30 a. m. 13/10/2023
REF. CATALOGO ACELEROGRAMAS, SMIS 1999 : REGISTRO NO.      /PAG.    


================================================================================
DATOS DE LA ESTACION:
NOMBRE DE LA ESTACION                  : UAM-LERMA.
CLAVE DE LA ESTACION                   : RUML
LOCALIZACION DE LA ESTACION            : AV. DE LAS GARZAS 10, EL PANTEON, C.P.52005,
                                       : LERMA DE VILLADA, ESTADO DE MEXICO.   
                                       : 
                                       : 
                                       : 
COORDENADAS DE LA ESTACION             : 19.291278 LAT. N
                                       : 99.500578 LONG. W
ALTITUD (msnm)                         : 2570
TIPO DE SUELO                          : DEPOSITOS LACUSTRES
                                       : 
                                       : 
INSTITUCION RESPONSABLE                : UNIVERSIDAD AUTONOMA METROPOLITANA
                                       : 

================================================================================
DATOS DEL ACELEROGRAFO: 
MODELO DEL ACELEROGRAFO                : ETNA2 KINEMETRICS
NUMERO DE SERIE DEL ACELEROGRAFO       : 103733
NUMERO DE CANALES                      : 3
ORIENTACION C1-C6 (rumbo;orientacion)  : /N90E/N00E/V 
ORIENTACION C7-C12 (rumbo;orientacion) : 
VEL. DE MUESTREO, C1-C6 (muestras/s)   : /200/200/200
VEL. DE MUESTREO, C7-C12 (muestras/s)  : 
ESC. COMPLETA DE SENSORES, C1-C6, (g)  : /2/2/2
ESC. COMPLETA DE SENSORES, C7-C12 (g)  : 
FREC. NAT. DE SENSORES, C1-C6, (Hz)    : /212/206/208   
FREC. NAT. DE SENSORES, C7-C12 (Hz)    : 
AMORTIGUAMIENTO DE SENSORES, C1-C6     : /0.7/0.7/0.7      
AMORTIGUAMIENTO DE SENSORES, C7-C12    : 
INTERVALO DE MUESTREO, C1-C6 (s)       : /0.005/0.005/0.005
INTERVALO DE MUESTREO, C7-C12 (s)      : 
UMBRAL DE DISPARO, C1-C6 (Gal)         : /2/2/2
UMBRAL DE DISPARO, C7-C12 (Gal)        : 
MEMORIA DE PREEVENTO (s)               : 50
TIEMPO DE POSEVENTO (s)                : 60


================================================================================
DATOS DEL SISMO:
FECHA DEL SISMO [GMT]                  : 2023/10/07
HORA EPICENTRO (GMT)                   : 05:06:56
MAGNITUD(ES)                           : /M=6.0
COORDENADAS DEL EPICENTRO              : 16.9600 LAT. N
                                       : -95.1100 LONG. W
PROFUNDIDAD FOCAL (Km)                 : 110.3
FUENTE DE LOS DATOS EPICENTRALES       : SSN
                                       : INSTITUTO DE GEOFISICA, UNAM

================================================================================
DATOS DE ESTE REGISTRO:
HORA DE LA PRIMERA MUESTRA (GMT)       : 05:08:06.000
EXACTITUD DEL TIEMPO (s)               : 
DURACION DEL REGISTRO (s), C1-C6       : /251/251/251
DURACION DEL REGISTRO (s), C7-C12      : 
NUM. TOTAL DE MUESTRAS, C1-C6          : /50200/50200/50200
NUM. TOTAL DE MUESTRAS, C7-C12         : 
ACEL. MAX.(Gal), C1-C6                 : /-2.975/-3.240/0.850
ACEL. MAX., C1-C6, EN LA MUESTRA       : /20895/24577/19407
ACEL. MAX.(Gal), C7-C12                : 
ACEL. MAX., C7-C12,EN LA MUESTRA       : 
UNIDADES DE LOS DATOS                  : Gal (cm/s/s)
FACTOR DE DECIMACION                   : 1
FORMATO DATOS (FORTRAN,16 campos/dato) : 3E16.7


================================================================================
CALIDAD DEL ACELEROGRAMA:
REGISTRO DIGITAL COMPLETO CON TIEMPO ABSOLUTO CORRECTO


================================================================================
COMENTARIOS:














================================================================================
DATOS DE ACELERACION:
---------+---------+---------+---------+---------+---------+---------+---------+
   CANAL-1   	     CANAL-2          CANAL-3
     N90E              N00E              V
---------+---------+---------+---------+---------+---------+---------+---------+
[...]
  -7.3453400e-01  -1.3871000e+00  -1.3225600e-01
  -7.1206500e-01  -1.3597600e+00  -1.5309000e-01
  -7.7432300e-01  -1.3060100e+00  -1.7696700e-01
  -8.0826000e-01  -1.2791300e+00  -1.8258500e-01
  -7.7900400e-01  -1.2405700e+00  -1.9124600e-01
  -8.2441000e-01  -1.1863400e+00  -2.0693000e-01
  -8.8526300e-01  -1.1377300e+00  -2.2144400e-01
  -8.5998600e-01  -1.1094500e+00  -2.3057300e-01
  -8.7005000e-01  -1.0610700e+00  -2.3759600e-01
  -9.4260600e-01  -9.9563200e-01  -2.5023700e-01
  -9.3652100e-01  -9.6244400e-01  -2.5491900e-01
  -9.2224400e-01  -9.1032600e-01  -2.7060300e-01
  -9.8660800e-01  -8.5984300e-01  -2.8066900e-01
  -1.0011200e+00  -8.0515400e-01  -2.8300900e-01
  -9.6671400e-01  -7.5420400e-01  -2.8839400e-01
  -1.0191400e+00  -7.0722700e-01  -2.9260700e-01
  -1.0491000e+00  -6.4155300e-01  -3.0337500e-01
  -1.0123500e+00  -5.8850000e-01  -3.0407800e-01
  -1.0341200e+00  -5.4222400e-01  -3.0852500e-01
  -1.0645500e+00  -4.8613200e-01  -3.1016400e-01
  -1.0491000e+00  -4.3261200e-01  -3.0501400e-01
  -1.0350600e+00  -3.8540100e-01  -3.0384300e-01
  -1.0582300e+00  -3.2697200e-01  -3.0407800e-01
  -1.0643100e+00  -2.7111400e-01  -2.9916200e-01
  -1.0343500e+00  -2.1946300e-01  -2.9026600e-01
  -1.0430100e+00  -1.6150200e-01  -2.8371200e-01
  -1.0591600e+00  -1.0470900e-01  -2.7692300e-01
  -1.0231200e+00  -5.6330000e-02  -2.7528400e-01
  -1.0172700e+00  -5.3800700e-03  -2.6826200e-01
  -1.0420800e+00   5.5853300e-02  -2.5562100e-01
  -1.0072000e+00   1.0610200e-01  -2.3993700e-01
  -9.8450200e-01   1.6079100e-01  -2.2776400e-01
  -1.0029900e+00   2.1220900e-01  -2.1886900e-01
  -9.8450200e-01   2.6199000e-01  -1.9920500e-01
  -9.5196800e-01   3.3000100e-01  -1.7837100e-01
  -9.5103200e-01   3.6435700e-01  -1.6315600e-01
  -9.5313900e-01   4.2278600e-01  -1.4583300e-01
  -9.2037100e-01   4.8939500e-01  -1.2921300e-01
  -8.9556200e-01   5.1533800e-01  -1.2008300e-01
  -9.0679600e-01   5.8264800e-01  -9.8780900e-02
  -8.7847600e-01   6.2378100e-01  -7.1158300e-02
  -8.4477200e-01   6.7099200e-01  -5.6644800e-02
  -8.6396500e-01   7.3479600e-01  -3.6513000e-02
  -8.3704900e-01   7.5746700e-01  -1.4976800e-02
  -7.9445100e-01   8.1612900e-01   9.3685300e-03
  -8.0826000e-01   8.7338900e-01   3.1138900e-02
  -7.9796200e-01   9.0400600e-01   4.5886500e-02
  -7.5349200e-01   9.4560700e-01   7.4913600e-02
  -7.4249200e-01   9.9071400e-01   9.9961200e-02
  -7.5091700e-01   1.0297400e+00   1.2407200e-01
  -7.2493800e-01   1.0806900e+00   1.5473800e-01
  -6.9076600e-01   1.1239300e+00   1.7557200e-01
  -6.9521300e-01   1.1564200e+00   1.9898100e-01
  -6.9474500e-01   1.1991900e+00   2.2988100e-01
  -6.4699800e-01   1.2363500e+00   2.5633300e-01
  -6.4208300e-01   1.2714100e+00   2.7318800e-01
  -6.6244600e-01   1.3123100e+00   2.9846900e-01
  -6.0767800e-01   1.3433900e+00   3.3171000e-01
  -5.8684700e-01   1.3798500e+00   3.5324600e-01
  -6.1329500e-01   1.4198200e+00   3.7525100e-01
  -5.6671800e-01   1.4441200e+00   4.0146900e-01
  -5.3348300e-01   1.4817500e+00   4.1200300e-01
  -5.5852700e-01   1.5137700e+00   4.2230300e-01
  -5.3207900e-01   1.5364400e+00   4.4220000e-01
  -4.9275800e-01   1.5698600e+00   4.6163000e-01
  -5.0703500e-01   1.6028100e+00   4.6748200e-01
  -5.0048200e-01   1.6383400e+00   4.7029100e-01
  -4.5718200e-01   1.6575000e+00   4.8644300e-01
  -4.5109700e-01   1.6799400e+00   4.9487100e-01
  -4.6514000e-01   1.7164000e+00   4.9861600e-01
  -4.3307500e-01   1.7381400e+00   5.0470200e-01
  -3.9890300e-01   1.7559000e+00   5.1266100e-01
  -4.1622300e-01   1.7865100e+00   5.1617300e-01
  -4.0873300e-01   1.8232100e+00   5.1851400e-01
  -3.5536900e-01   1.8348900e+00   5.1476800e-01
  -3.6215700e-01   1.8549900e+00   5.0283000e-01
  -3.7666800e-01   1.8893500e+00   5.0072300e-01
  -3.1955900e-01   1.9040700e+00   4.9557300e-01
  -3.0879300e-01   1.9325900e+00   4.8691100e-01
  -3.3149600e-01   1.9620400e+00   4.7988900e-01
  -2.7415300e-01   1.9835400e+00   4.6982300e-01
  -2.3810900e-01   2.0197600e+00   4.6397100e-01
  -2.5519500e-01   2.0293500e+00   4.5671400e-01
  -2.1400200e-01   2.0480400e+00   4.4805300e-01
  -1.6859600e-01   2.0961900e+00   4.3798700e-01
  -1.6836200e-01   2.1155900e+00   4.1949400e-01
  -1.4823300e-01   2.1338200e+00   4.0825700e-01
  -1.0118900e-01   2.1618600e+00   3.9655300e-01
  -6.8421400e-02   2.1969200e+00   3.6986700e-01
  -6.9357600e-02   2.2242600e+00   3.4528700e-01
  -3.2845400e-02   2.2385200e+00   3.3358300e-01
   2.4263300e-02   2.2593200e+00   3.1906900e-01
   2.3561100e-02   2.2915700e+00   2.9495800e-01
   5.4456000e-02   2.3137800e+00   2.7880600e-01
   1.1062900e-01   2.3350400e+00   2.5961000e-01
   1.1531000e-01   2.3663600e+00   2.3503100e-01
   1.3754500e-01   2.3808500e+00   2.2496500e-01
   1.9910000e-01   2.4035200e+00   2.0951500e-01
   2.1431400e-01   2.4250300e+00   1.8002000e-01
   2.1899500e-01   2.4432500e+00   1.5731300e-01
   2.7540100e-01   2.4591500e+00   1.4467200e-01
   3.0746600e-01   2.4670900e+00   1.2805200e-01
   3.1214700e-01   2.4878900e+00   9.6684000e-02
   3.4748900e-01   2.5077600e+00   7.0465900e-02
   3.9172500e-01   2.5150100e+00   5.2675100e-02
   4.0576800e-01   2.5264600e+00   2.5754800e-02
   4.2168400e-01   2.5430500e+00   3.5162900e-03
   4.7481400e-01   2.5402500e+00  -1.7317700e-02
   4.9658100e-01   2.5524000e+00  -4.6813000e-02
   4.9049500e-01   2.5645500e+00  -7.2328800e-02
   5.4456100e-01   2.5521700e+00  -8.7076400e-02
   5.8598800e-01   2.5598800e+00  -1.0299500e-01
   5.7077500e-01   2.5626800e+00  -1.3483100e-01
   6.0307400e-01   2.5638500e+00  -1.5543100e-01
   6.5526800e-01   2.5598800e+00  -1.6643300e-01
   6.5409800e-01   2.5472600e+00  -1.8633000e-01
   6.6743900e-01   2.5481900e+00  -2.0295100e-01
   7.1050400e-01   2.5514700e+00  -2.2753000e-01
   7.2220700e-01   2.5360400e+00  -2.5000300e-01
   7.2688800e-01   2.5112700e+00  -2.5866400e-01
   7.6667700e-01   2.5159400e+00  -2.6756000e-01
   7.9148600e-01   2.5040200e+00  -2.8815900e-01
   7.8563500e-01   2.4794800e+00  -3.0290700e-01
   8.1442300e-01   2.4692000e+00  -3.0243900e-01
   8.5491400e-01   2.4488600e+00  -3.0571600e-01
   8.5561700e-01   2.4290000e+00  -3.1367500e-01
   8.5912700e-01   2.4159100e+00  -3.2046400e-01
   8.9400100e-01   2.3932400e+00  -3.2795500e-01
   9.1132100e-01   2.3633200e+00  -3.3006100e-01
   9.1085300e-01   2.3439300e+00  -3.2655000e-01
   9.3964100e-01   2.3112100e+00  -3.3474300e-01
   9.5602500e-01   2.2873700e+00  -3.4434100e-01
   9.5228000e-01   2.2565200e+00  -3.4808600e-01
   9.7264300e-01   2.2109400e+00  -3.3708400e-01
   9.9862200e-01   2.1850000e+00  -3.2912500e-01
   9.9932500e-01   2.1520500e+00  -3.4598000e-01
   9.9230300e-01   2.1212000e+00  -3.4949100e-01
   1.0227300e+00   2.0751500e+00  -3.3731800e-01
   1.0374800e+00   2.0274800e+00  -3.3170000e-01
   1.0199200e+00   1.9921800e+00  -3.2959300e-01
   1.0346700e+00   1.9533900e+00  -3.2678400e-01
   1.0533900e+00   1.8916900e+00  -3.2865700e-01
   1.0440300e+00   1.8381700e+00  -3.1859100e-01
   1.0522200e+00   1.8059100e+00  -3.0454600e-01
   1.0777300e+00   1.7367300e+00  -3.0009800e-01
   1.0653300e+00   1.6892900e+00  -3.0056600e-01
   1.0519900e+00   1.6350700e+00  -2.9448000e-01
   1.0833500e+00   1.5598100e+00  -2.7809400e-01
   1.0861600e+00   1.5081600e+00  -2.7060300e-01
   1.0597100e+00   1.4431900e+00  -2.6966600e-01
   1.0779700e+00   1.3791500e+00  -2.6662300e-01
   1.0903700e+00   1.3083300e+00  -2.6311200e-01
   1.0629900e+00   1.2319100e+00  -2.5679100e-01
   1.0599400e+00   1.1755800e+00  -2.5164100e-01
   1.0791400e+00   1.0984600e+00  -2.5304600e-01
   1.0597100e+00   1.0131500e+00  -2.5047100e-01
   1.0342000e+00   9.5215100e-01  -2.4813000e-01
   1.0533900e+00   8.6427400e-01  -2.3806400e-01
   1.0522200e+00   7.8107200e-01  -2.3900100e-01
   1.0030700e+00   7.1633300e-01  -2.4649100e-01
   1.0002600e+00   6.2004200e-01  -2.4157600e-01
   1.0283500e+00   5.2702300e-01  -2.3853200e-01
   9.7591900e-01   4.5340300e-01  -2.3853200e-01
   9.4315200e-01   3.6646100e-01  -2.4508700e-01
   9.7989800e-01   2.7531200e-01  -2.4602300e-01
   9.3964100e-01   1.9024000e-01  -2.5047100e-01
   8.8627700e-01   9.3247800e-02  -2.5281200e-01
   9.1576800e-01   3.9685400e-03  -2.5187600e-01
   8.9236300e-01  -8.0402700e-02  -2.6053700e-01
   8.1723200e-01  -1.8323700e-01  -2.6802800e-01
   8.2893500e-01  -2.7859300e-01  -2.6943200e-01
   8.3548800e-01  -3.6460000e-01  -2.6568700e-01
   7.6176200e-01  -4.5878800e-01  -2.7153900e-01
   7.3648400e-01  -5.4830100e-01  -2.7622100e-01
   7.5801700e-01  -6.5557600e-01  -2.8277500e-01
   7.0465300e-01  -7.4625800e-01  -2.9354300e-01
   6.4192700e-01  -8.3693900e-01  -2.8979800e-01
   6.7141800e-01  -9.5029100e-01  -2.8956400e-01
   6.4005500e-01  -1.0112900e+00  -2.9845900e-01
   5.4994400e-01  -1.1171600e+00  -3.0033200e-01
   5.7147700e-01  -1.2288800e+00  -2.9658700e-01
   5.6866900e-01  -1.2926800e+00  -2.9658700e-01
   4.7177100e-01  -1.3899100e+00  -2.9424600e-01
   4.5702600e-01  -1.4941500e+00  -2.8956400e-01
   4.8019700e-01  -1.5806200e+00  -2.8371200e-01
   4.0249200e-01  -1.6463000e+00  -2.8090300e-01
   3.5685100e-01  -1.7514700e+00  -2.7294400e-01
   3.8821400e-01  -1.8384100e+00  -2.6077100e-01
   3.3836100e-01  -1.8984700e+00  -2.5983500e-01
   2.6369900e-01  -1.9875200e+00  -2.5796200e-01
   2.7938000e-01  -2.0772700e+00  -2.4485300e-01
   2.7329500e-01  -2.1520500e+00  -2.3221200e-01
   1.8716400e-01  -2.2041700e+00  -2.3010500e-01
   1.7733300e-01  -2.2993000e+00  -2.2027300e-01
   2.0729200e-01  -2.3752500e+00  -2.0224900e-01
   1.2326700e-01  -2.4208300e+00  -1.9358700e-01
   8.3712500e-02  -2.4918800e+00  -1.8656500e-01
   1.3356600e-01  -2.5615200e+00  -1.7158300e-01
   7.8797400e-02  -2.6234600e+00  -1.6339000e-01
   5.5391100e-03  -2.6659900e+00  -1.5917600e-01
   5.2115500e-02  -2.7351700e+00  -1.4700300e-01
   4.2051300e-02  -2.7891600e+00  -1.3529900e-01
  -4.9931200e-02  -2.8274900e+00  -1.2780800e-01
  -2.5589800e-02  -2.8873200e+00  -1.1633800e-01
  -3.1218900e-04  -2.9279900e+00  -9.8078600e-02
  -8.6677400e-02  -2.9632800e+00  -8.2628700e-02
  -9.4869300e-02  -3.0016100e+00  -6.7412900e-02
  -4.4548000e-02  -3.0436800e+00  -5.1963000e-02
  -1.0352900e-01  -3.0635400e+00  -4.0258500e-02
  -1.4355200e-01  -3.0972000e+00  -2.8554000e-02
  -9.5571400e-02  -3.1331900e+00  -1.3806300e-02
  -1.1616800e-01  -3.1343600e+00  -3.2723100e-03
  -1.7234100e-01  -3.1654400e+00   6.5594600e-03
  -1.5104200e-01  -3.1998000e+00   2.5520700e-02
  -1.2997700e-01  -3.1944300e+00   3.7459300e-02
  -1.8755400e-01  -3.1984000e+00   4.3545600e-02
  -2.0089500e-01  -3.2332200e+00   5.8293300e-02
  -1.5525500e-01  -3.2297200e+00   7.2338700e-02
  -1.9855400e-01  -3.2156900e+00   8.4043100e-02
  -2.3927900e-01  -3.2341600e+00   9.6684000e-02
  -1.9106500e-01  -3.2402300e+00   1.1072900e-01
  -2.0978900e-01  -3.2348600e+00   1.1985900e-01
  -2.7462100e-01  -3.2241100e+00   1.2641300e-01
  -2.4208800e-01  -3.2287800e+00   1.4256600e-01
  -2.3483200e-01  -3.2203700e+00   1.6035600e-01
  -3.0481400e-01  -3.2005000e+00   1.7112400e-01
  -3.0504800e-01  -3.1941900e+00   1.8353100e-01
  -2.8585600e-01  -3.1738600e+00   1.9593800e-01
  -3.3009200e-01  -3.1666100e+00   2.0553600e-01
  -3.5724200e-01  -3.1476800e+00   2.2192200e-01
  -3.4390100e-01  -3.1259500e+00   2.3526500e-01
  -3.6122100e-01  -3.1126200e+00   2.3971300e-01
  -4.0428600e-01  -3.0780300e+00   2.4603300e-01
  -4.0873300e-01  -3.0663500e+00   2.6124900e-01
  -4.0405200e-01  -3.0471800e+00   2.7997600e-01
  -4.4594800e-01  -3.0027800e+00   2.9308500e-01
  -4.7239500e-01  -2.9866500e+00   3.0338500e-01
  -4.6514000e-01  -2.9621100e+00   3.1930300e-01
  -4.9112000e-01  -2.9207400e+00   3.3217800e-01
  -5.2763200e-01  -2.8847500e+00   3.4458500e-01
  -5.3137700e-01  -2.8473600e+00   3.6190800e-01
  -5.3816400e-01  -2.8209500e+00   3.7173900e-01
  -5.8403800e-01  -2.7716300e+00   3.7337800e-01
  -6.0065600e-01  -2.7314400e+00   3.8414600e-01
  -5.8005900e-01  -2.7111000e+00   4.0544800e-01
  -6.2312500e-01  -2.6423900e+00   4.1317300e-01
  -6.6689300e-01  -2.5940100e+00   4.1434400e-01
  -6.2897600e-01  -2.5713400e+00   4.2183500e-01
  -6.4255100e-01  -2.4946800e+00   4.2581400e-01
  -7.1674600e-01  -2.4449000e+00   4.2698400e-01
  -6.8514900e-01  -2.4220000e+00   4.2909100e-01
  -6.5916900e-01  -2.3481400e+00   4.2792100e-01
  -7.3640600e-01  -2.2815300e+00   4.2511200e-01
  -7.3570400e-01  -2.2483500e+00   4.2885700e-01
  -6.7976600e-01  -2.1887500e+00   4.3283700e-01
  -7.3242700e-01  -2.0985300e+00   4.2253700e-01
  -7.6894000e-01  -2.0564700e+00   4.1293900e-01
  -6.9263800e-01  -2.0172000e+00   4.1691900e-01
  -7.0949000e-01  -1.9241800e+00   4.1083200e-01
  -7.8274900e-01  -1.8606100e+00   3.9772300e-01
  -7.0949000e-01  -1.8091900e+00   3.9819100e-01
  -6.7344600e-01  -1.7332400e+00   3.8953000e-01
  -7.6894000e-01  -1.6570500e+00   3.6986700e-01
  -7.2610800e-01  -1.5939400e+00   3.5886400e-01
  -6.3365700e-01  -1.5252300e+00   3.4856400e-01
  -7.2868300e-01  -1.4350200e+00   3.3569000e-01
  -7.2821400e-01  -1.3791600e+00   3.1906900e-01
  -6.0369900e-01  -1.3151200e+00   3.0244900e-01
  -6.6478600e-01  -1.2062100e+00   2.8793500e-01
  -7.0738400e-01  -1.1393700e+00   2.7459200e-01
  -5.8614500e-01  -1.0837400e+00   2.6312200e-01
  -5.9457100e-01  -9.7950500e-01   2.4954500e-01
  -6.6595700e-01  -8.9910700e-01   2.3152000e-01
  -5.7350600e-01  -8.4348300e-01   2.1536700e-01
  -5.3441900e-01  -7.4462100e-01   2.0272700e-01
  -6.0276200e-01  -6.6165300e-01   1.8329700e-01
  -5.5852700e-01  -5.9995200e-01   1.6597500e-01
  -4.8807700e-01  -5.0880300e-01   1.4701300e-01
  -5.3418500e-01  -4.2793700e-01   1.3179700e-01
  -5.4331300e-01  -3.6016000e-01   1.2337000e-01
  -4.5765000e-01  -2.8864300e-01   1.0979300e-01
  -4.7122500e-01  -1.9352100e-01   9.8790800e-02
  -5.1616300e-01  -1.1686200e-01   8.3575000e-02
  -4.3728800e-01  -6.3341500e-02   6.9997800e-02
  -4.1528700e-01   2.8274900e-02   6.3911400e-02
  -4.7262900e-01   1.0540100e-01   5.2909200e-02
  -4.1950000e-01   1.5144300e-01   3.9332000e-02
  -3.7503000e-01   2.2786800e-01   3.5820700e-02
  -4.2043600e-01   3.0826600e-01   3.1373000e-02
  -4.0007300e-01   3.6365600e-01   2.1775300e-02
  -3.4928400e-01   4.2185100e-01   1.7327600e-02
  -3.5724200e-01   4.9430300e-01   1.0304900e-02
  -3.6449700e-01   5.5319900e-01  -2.1018600e-03
  -3.2985800e-01   5.9947500e-01  -3.9745800e-03
  -2.9943100e-01   6.5650200e-01  -2.5700400e-03
  -3.1043100e-01   7.0745200e-01  -1.0295000e-02
  -2.9872900e-01   7.5629800e-01  -1.6615400e-02
  -2.4840700e-01   7.8995300e-01  -1.7785900e-02
  -2.5238600e-01   8.4370800e-01  -1.6849500e-02
  -2.6198300e-01   8.9395600e-01  -2.1999500e-02
  -2.0791600e-01   9.1288700e-01  -2.5276700e-02
  -1.8568200e-01   9.5916300e-01  -2.5510800e-02
  -2.0534200e-01   9.9258400e-01  -3.2533500e-02
  -1.7280900e-01   1.0068400e+00  -3.0426700e-02
  -1.2389200e-01   1.0507800e+00  -2.4574500e-02
  -1.3653100e-01   1.0781200e+00  -3.4874400e-02
  -1.2833900e-01   1.0870100e+00  -3.8853900e-02
  -6.5378700e-02   1.1145800e+00  -2.9958500e-02
  -6.0697600e-02   1.1335100e+00  -3.1363100e-02
  -7.8251600e-02   1.1678700e+00  -3.5810800e-02
  -9.4402200e-03   1.1781500e+00  -2.8554000e-02
   2.0752500e-02   1.1823600e+00  -2.6915400e-02
  -1.5291500e-02   1.2230300e+00  -3.5810800e-02
   4.6966300e-02   1.2284000e+00  -3.6981200e-02
   1.0618200e-01   1.2403200e+00  -2.9256300e-02
