**************************************************************************************
  	RED ACELEROGRÁFICA DE LA UNIVERSIDAD AUTONOMA METROPOLITANA (RA-UAM)
	   UNIDAD AZCAPOTZALCO. DIVISIÓN CBI-DEPARTAMENTO DE MATERIALES
     Av. San Pablo 420, Col. Nueva el Rosario, Azcapotzalco, C.P. 02128, Ciudad de México
		Área de Estructuras. e-mail: agb@azc.uam.mx
**************************************************************************************
ARCHIVO ESTANDAR DE ACELERACION:
VERSION DEL FORMATO                    : 2.0
NOMBRE DEL ARCHIVO                     : RUML202308.091
FECHA Y HORA DE CREACION               : 11:30 a. m. 16/08/2023
REF. CATALOGO ACELEROGRAMAS, SMIS 1999 : REGISTRO NO.      /PAG.    


================================================================================
DATOS DE LA ESTACION:
NOMBRE DE LA ESTACION                  : UAM-LERMA.
CLAVE DE LA ESTACION                   : RUML
LOCALIZACION DE LA ESTACION            : AV. DE LAS GARZAS 10, EL PANTEON, C.P.52005,
                                       : LERMA DE VILLADA, ESTADO DE MEXICO.   
                                       : 
                                       : 
                                       : 
COORDENADAS DE LA ESTACION             : 19.291278 LAT. N
                                       : 99.500578 LONG. W
ALTITUD (msnm)                         : 2570
TIPO DE SUELO                          : DEPOSITOS LACUSTRES
                                       : 
                                       : 
INSTITUCION RESPONSABLE                : UNIVERSIDAD AUTONOMA METROPOLITANA
                                       : 

================================================================================
DATOS DEL ACELEROGRAFO: 
MODELO DEL ACELEROGRAFO                : ETNA2 KINEMETRICS
NUMERO DE SERIE DEL ACELEROGRAFO       : 103733
NUMERO DE CANALES                      : 3
ORIENTACION C1-C6 (rumbo;orientacion)  : /N90E/N00E/V 
ORIENTACION C7-C12 (rumbo;orientacion) : 
VEL. DE MUESTREO, C1-C6 (muestras/s)   : /200/200/200
VEL. DE MUESTREO, C7-C12 (muestras/s)  : 
ESC. COMPLETA DE SENSORES, C1-C6, (g)  : /2/2/2
ESC. COMPLETA DE SENSORES, C7-C12 (g)  : 
FREC. NAT. DE SENSORES, C1-C6, (Hz)    : /212/206/208   
FREC. NAT. DE SENSORES, C7-C12 (Hz)    : 
AMORTIGUAMIENTO DE SENSORES, C1-C6     : /0.7/0.7/0.7      
AMORTIGUAMIENTO DE SENSORES, C7-C12    : 
INTERVALO DE MUESTREO, C1-C6 (s)       : /0.005/0.005/0.005
INTERVALO DE MUESTREO, C7-C12 (s)      : 
UMBRAL DE DISPARO, C1-C6 (Gal)         : /2/2/2
UMBRAL DE DISPARO, C7-C12 (Gal)        : 
MEMORIA DE PREEVENTO (s)               : 50
TIEMPO DE POSEVENTO (s)                : 60


================================================================================
DATOS DEL SISMO:
FECHA DEL SISMO [GMT]                  : 2023/08/09
HORA EPICENTRO (GMT)                   : 09:33:27
MAGNITUD(ES)                           : /M=5.8
COORDENADAS DEL EPICENTRO              : 16.0800 LAT. N
                                       : -93.7800 LONG. W
PROFUNDIDAD FOCAL (Km)                 : 104.2
FUENTE DE LOS DATOS EPICENTRALES       : SSN
                                       : INSTITUTO DE GEOFISICA, UNAM

================================================================================
DATOS DE ESTE REGISTRO:
HORA DE LA PRIMERA MUESTRA (GMT)       : 09:35:31.000
EXACTITUD DEL TIEMPO (s)               : 
DURACION DEL REGISTRO (s), C1-C6       : /186/186/186
DURACION DEL REGISTRO (s), C7-C12      : 
NUM. TOTAL DE MUESTRAS, C1-C6          : /37200/37200/37200
NUM. TOTAL DE MUESTRAS, C7-C12         : 
ACEL. MAX.(Gal), C1-C6                 : /0.763/0.877/0.195
ACEL. MAX., C1-C6, EN LA MUESTRA       : /15193/14868/14357
ACEL. MAX.(Gal), C7-C12                : 
ACEL. MAX., C7-C12,EN LA MUESTRA       : 
UNIDADES DE LOS DATOS                  : Gal (cm/s/s)
FACTOR DE DECIMACION                   : 1
FORMATO DATOS (FORTRAN,16 campos/dato) : 3E16.7


================================================================================
CALIDAD DEL ACELEROGRAMA:
REGISTRO DIGITAL COMPLETO CON TIEMPO ABSOLUTO CORRECTO


================================================================================
COMENTARIOS:














================================================================================
DATOS DE ACELERACION:
---------+---------+---------+---------+---------+---------+---------+---------+
   CANAL-1   	     CANAL-2          CANAL-3
     N90E              N00E              V
---------+---------+---------+---------+---------+---------+---------+---------+
[...]
   2.6978300e-01   3.4200500e-01  -1.1169100e-01
   2.7820900e-01   3.2424200e-01  -1.0935000e-01
   2.6931500e-01   3.2330700e-01  -1.1192500e-01
   2.3327100e-01   3.2985100e-01  -1.2245900e-01
   2.2929200e-01   3.2564500e-01  -1.2339500e-01
   2.3514300e-01   3.1162200e-01  -1.2245900e-01
   1.9886500e-01   3.1138800e-01  -1.2105400e-01
   1.8365200e-01   3.1208900e-01  -1.2128900e-01
   1.9441800e-01   3.0998600e-01  -1.3182300e-01
   1.6165100e-01   3.0203900e-01  -1.3603600e-01
   1.3450100e-01   2.9035400e-01  -1.2831100e-01
   1.4971400e-01   2.9385900e-01  -1.2409800e-01
   1.2490500e-01   2.8404300e-01  -1.3299300e-01
   9.0733100e-02   2.7072100e-01  -1.3346100e-01
   9.4009800e-02   2.6908500e-01  -1.2339500e-01
   7.7158100e-02   2.6628100e-01  -1.2199100e-01
   3.9943800e-02   2.4992100e-01  -1.2339500e-01
   4.2284300e-02   2.4384400e-01  -1.1965000e-01
   4.0880000e-02   2.4080600e-01  -1.1824500e-01
  -1.1079600e-02   2.2841900e-01  -1.1988400e-01
  -3.2144300e-02   2.2982100e-01  -1.1894800e-01
  -8.5050100e-03   2.0715100e-01  -1.1613900e-01
  -3.7059400e-02   1.9569900e-01  -1.1286100e-01
  -8.4806000e-02   1.9593300e-01  -1.1730900e-01
  -7.3571500e-02   1.7746900e-01  -1.1403200e-01
  -8.6912500e-02   1.6812000e-01  -1.0654100e-01
  -1.2436100e-01   1.5503200e-01  -9.9986300e-02
  -1.2997800e-01   1.5713600e-01  -9.5538600e-02
  -1.3676600e-01   1.4732000e-01  -9.8815900e-02
  -1.7023500e-01   1.2768800e-01  -1.0139100e-01
  -1.8919300e-01   1.2628500e-01  -9.2729600e-02
  -1.7538400e-01   1.1530100e-01  -8.1493300e-02
  -2.0534300e-01   1.0408200e-01  -9.1325000e-02
  -2.3787600e-01   9.7772200e-02  -9.1793200e-02
  -2.3249300e-01   8.9358400e-02  -8.0322800e-02
  -2.3998300e-01   8.1645800e-02  -7.3534200e-02
  -2.7860100e-01   7.8607500e-02  -7.6577400e-02
  -2.8445300e-01   5.9676600e-02  -7.7279600e-02
  -2.7087700e-01   5.0328000e-02  -6.8384200e-02
  -3.1370900e-01   5.2665100e-02  -6.5107000e-02
  -3.3477400e-01   4.1446800e-02  -5.6445700e-02
  -3.1511300e-01   2.7657600e-02  -5.2232100e-02
  -3.3219900e-01   2.8592500e-02  -5.1295700e-02
  -3.7175400e-01   2.2749600e-02  -4.8018400e-02
  -3.5934900e-01   3.1290200e-04  -4.0761700e-02
  -3.6566900e-01  -6.2195900e-04  -3.3973100e-02
  -4.0452100e-01  -1.7683200e-02  -2.9993500e-02
  -3.9539300e-01  -1.9085500e-02  -2.3673100e-02
  -4.0358500e-01  -1.7683200e-02  -2.3907200e-02
  -4.3448000e-01  -4.7598700e-02  -1.9927700e-02
  -4.4056500e-01  -4.3859300e-02  -9.6277400e-03
  -4.2511800e-01  -4.8767300e-02  -3.0732300e-03
  -4.4454400e-01  -7.1437700e-02  -4.2436700e-03
  -4.7731100e-01  -6.8165700e-02  -7.3232900e-04
  -4.6186400e-01  -8.0786300e-02   1.1674400e-02
  -4.5928900e-01  -1.0135300e-01   1.6824400e-02
  -4.9252500e-01  -9.7146400e-02   2.3378900e-02
  -4.9439700e-01  -1.1397400e-01   2.6890300e-02
  -4.6958800e-01  -1.2776300e-01   3.0167500e-02
  -5.0446200e-01  -1.3290500e-01   3.6253800e-02
  -5.1827100e-01  -1.4996600e-01   4.3042400e-02
  -4.8550300e-01  -1.5393900e-01   4.8426500e-02
  -5.0750400e-01  -1.6024900e-01   4.2340200e-02
  -5.3090900e-01  -1.7474000e-01   4.5617400e-02
  -5.1007900e-01  -1.8969800e-01   5.9662800e-02
  -5.0493000e-01  -1.9624200e-01   6.3408200e-02
  -5.3582500e-01  -2.1190100e-01   6.1301400e-02
  -5.2459000e-01  -2.1610700e-01   6.7153700e-02
  -5.0727000e-01  -2.2265100e-01   7.3708200e-02
  -5.3067500e-01  -2.4602300e-01   7.4410500e-02
  -5.3863300e-01  -2.3971300e-01   8.0028600e-02
  -5.1359000e-01  -2.5163200e-01   8.1901300e-02
  -5.1171700e-01  -2.7383500e-01   7.7687700e-02
  -5.4752700e-01  -2.7079700e-01   8.7051300e-02
  -5.2622800e-01  -2.8201500e-01   9.0796700e-02
  -5.0656800e-01  -3.0071200e-01   8.7051300e-02
  -5.3605900e-01  -2.9440200e-01   8.6817200e-02
  -5.3535600e-01  -3.0562000e-01   8.3305900e-02
  -5.1452600e-01  -3.1917600e-01   8.7285400e-02
  -5.2552600e-01  -3.1754000e-01   9.2435400e-02
  -5.3956900e-01  -3.3647100e-01   9.6414900e-02
  -5.1663200e-01  -3.3834100e-01   9.8755800e-02
  -5.2459000e-01  -3.3203000e-01   8.9392200e-02
  -5.4705900e-01  -3.4511800e-01   9.0328600e-02
  -5.2576000e-01  -3.5283100e-01   1.0273500e-01
  -5.1546200e-01  -3.5563500e-01   9.6180800e-02
  -5.5057000e-01  -3.5844000e-01   8.7051300e-02
  -5.4354800e-01  -3.6358200e-01   8.7987700e-02
  -5.1171700e-01  -3.7947400e-01   9.1967200e-02
  -5.4471900e-01  -3.7573500e-01   9.2201300e-02
  -5.5244200e-01  -3.7970800e-01   9.1030800e-02
  -5.2412200e-01  -3.9419800e-01   8.8924000e-02
  -5.3839900e-01  -3.8672000e-01   8.0965000e-02
  -5.5665500e-01  -3.9910700e-01   8.4242200e-02
  -5.3699500e-01  -4.0541700e-01   8.7987700e-02
  -5.3418600e-01  -4.1032500e-01   8.3774000e-02
  -5.5688900e-01  -4.2201100e-01   8.0965000e-02
  -5.4986800e-01  -4.1102600e-01   7.8624100e-02
  -5.3722900e-01  -4.2504900e-01   8.0028600e-02
  -5.6297500e-01  -4.3696800e-01   7.9560400e-02
  -5.6554900e-01  -4.3346300e-01   7.8624100e-02
  -5.3886700e-01  -4.4327900e-01   7.8858200e-02
  -5.5501700e-01  -4.4818700e-01   7.4878600e-02
  -5.7655000e-01  -4.4982300e-01   7.7453600e-02
  -5.6086800e-01  -4.5683400e-01   8.0496800e-02
  -5.4776100e-01  -4.6478000e-01   7.6049100e-02
  -5.7444300e-01  -4.5987200e-01   7.2537700e-02
  -5.7140000e-01  -4.7272700e-01   7.1835500e-02
  -5.4776100e-01  -4.8675000e-01   7.2303600e-02
  -5.7186900e-01  -4.7506400e-01   7.0899100e-02
  -5.6952800e-01  -4.8628200e-01   7.1601400e-02
  -5.4237800e-01  -4.9165800e-01   7.2537700e-02
  -5.5525100e-01  -4.8301000e-01   6.7855900e-02
  -5.7584700e-01  -4.9633200e-01   6.8792300e-02
  -5.4495300e-01  -5.0077300e-01   7.4176400e-02
  -5.2669700e-01  -5.0124000e-01   6.7621900e-02
  -5.5876200e-01  -5.0404500e-01   6.2940100e-02
  -5.4612300e-01  -5.0661600e-01   6.5281000e-02
  -5.1897300e-01  -5.1129000e-01   6.6919600e-02
  -5.3699500e-01  -5.0544700e-01   6.9728700e-02
  -5.2786700e-01  -5.0848500e-01   6.8090000e-02
  -5.0258900e-01  -5.1129000e-01   6.6919600e-02
  -5.1546200e-01  -5.0661600e-01   6.4812800e-02
  -5.1593000e-01  -5.1245800e-01   6.6451400e-02
  -4.8480100e-01  -5.1035500e-01   7.2537700e-02
  -4.7333300e-01  -5.0287600e-01   6.8792300e-02
  -4.9533400e-01  -5.0801800e-01   6.2237800e-02
  -4.7871600e-01  -5.0170800e-01   6.2471900e-02
  -4.3705500e-01  -4.9539700e-01   6.5983200e-02
  -4.5460800e-01  -5.0334400e-01   6.8324100e-02
  -4.5554500e-01  -4.9516300e-01   6.1769600e-02
  -4.1247900e-01  -4.8675000e-01   5.5917400e-02
  -4.1201100e-01  -4.8908700e-01   5.7556000e-02
  -4.1575600e-01  -4.9306000e-01   6.2706000e-02
  -3.8579700e-01  -4.7997200e-01   6.3642300e-02
  -3.7011600e-01  -4.7202600e-01   5.2874200e-02
  -3.6777500e-01  -4.7740100e-01   5.3108300e-02
  -3.5209400e-01  -4.6735100e-01   6.0131000e-02
  -3.2751800e-01  -4.6548200e-01   6.2471900e-02
  -3.1698600e-01  -4.5403000e-01   5.7556000e-02
  -3.1277300e-01  -4.5613300e-01   5.1001500e-02
  -2.8141000e-01  -4.5029000e-01   5.4981000e-02
  -2.6549400e-01  -4.2948900e-01   5.1001500e-02
  -2.8234600e-01  -4.3369600e-01   4.9831000e-02
  -2.3811000e-01  -4.2995700e-01   5.2406000e-02
  -2.0136400e-01  -4.0962400e-01   4.2340200e-02
  -2.3459900e-01  -3.9583400e-01   3.6487900e-02
  -1.9925800e-01  -4.0494900e-01   4.0233400e-02
  -1.5385100e-01  -3.8087700e-01   4.1637900e-02
  -1.7117100e-01  -3.6872400e-01   3.3678900e-02
  -1.5010700e-01  -3.6615300e-01   2.9933400e-02
  -1.1289200e-01  -3.4021000e-01   2.6890300e-02
  -1.0750900e-01  -3.3950900e-01   2.5017500e-02
  -9.5572400e-02  -3.2104600e-01   2.9231100e-02
  -6.2103000e-02  -3.0234800e-01   2.3613000e-02
  -4.0570200e-02  -2.9557100e-01   1.3079000e-02
  -3.8931800e-02  -2.7921100e-01   8.1630800e-03
  -1.6228700e-02  -2.5747500e-01   1.4015300e-02
   2.8007100e-02  -2.4859400e-01   1.2610800e-02
   3.0347700e-02  -2.2872800e-01   9.0629800e-04
   3.5730900e-02  -2.0488900e-01  -4.4777600e-03
   9.5180100e-02  -1.9647500e-01  -1.9027800e-03
   1.0009500e-01  -1.7240300e-01  -1.9027800e-03
   9.0031000e-02  -1.5464000e-01  -9.8618300e-03
   1.4690600e-01  -1.4061700e-01  -1.3841400e-02
   1.6820400e-01  -1.1818100e-01  -1.6650400e-02
   1.5790600e-01  -9.8081200e-02  -2.1566300e-02
   1.8529000e-01  -7.7280600e-02  -1.8991300e-02
   2.2250400e-01  -4.6897600e-02  -2.2034500e-02
   2.3303700e-01  -3.9418700e-02  -3.6314000e-02
   2.4029200e-01  -9.9705700e-03  -3.2802600e-02
   2.7516600e-01   2.4619300e-02  -2.9993500e-02
   2.8780500e-01   2.9293600e-02  -3.8420800e-02
   2.9318800e-01   6.2948600e-02  -3.6548000e-02
   3.3812600e-01   8.5619000e-02  -3.5611700e-02
   3.4702000e-01   1.0969200e-01  -4.3570700e-02
   3.3016800e-01   1.3446500e-01  -4.8252500e-02
   3.7580900e-01   1.5479900e-01  -4.2868500e-02
   4.1442700e-01   1.8751900e-01  -4.1229800e-02
   3.9827800e-01   2.0902100e-01  -4.7784400e-02
   4.0155400e-01   2.3800100e-01  -5.6913800e-02
   4.4345000e-01   2.6300900e-01  -5.8318400e-02
   4.6311000e-01   2.8194000e-01  -5.5041100e-02
   4.5070500e-01   3.1138800e-01  -5.6679800e-02
   4.7551500e-01   3.3382500e-01  -6.1127500e-02
   4.9962200e-01   3.6280500e-01  -7.2363800e-02
   4.8862200e-01   3.8641100e-01  -7.1193300e-02
   5.0875000e-01   4.0580900e-01  -5.7616100e-02
   5.3847500e-01   4.4039900e-01  -6.1595600e-02
   5.2302700e-01   4.5886200e-01  -7.7045600e-02
   5.2466600e-01   4.8550600e-01  -8.4302300e-02
   5.7124200e-01   5.1028000e-01  -7.5875100e-02
   5.6047600e-01   5.2617200e-01  -7.4704700e-02
   5.4385800e-01   5.5585400e-01  -8.3834200e-02
   5.8200900e-01   5.7548600e-01  -8.5706900e-02
   5.8177500e-01   5.9722200e-01  -8.8281900e-02
   5.6866800e-01   6.1428300e-01  -8.0322800e-02
   5.8200900e-01   6.4303000e-01  -7.6343300e-02
   5.9956300e-01   6.5822100e-01  -8.7813700e-02
   5.9324300e-01   6.7130900e-01  -9.1325000e-02
   5.8107200e-01   7.0963900e-01  -8.9920500e-02
   6.0518000e-01   7.1197600e-01  -8.4770500e-02
   5.9675400e-01   7.2950500e-01  -8.4068300e-02
   5.7639100e-01   7.5381100e-01  -8.9920500e-02
   6.0658400e-01   7.5614800e-01  -8.9686400e-02
   6.0564800e-01   7.8489500e-01  -8.9452300e-02
   5.7428500e-01   7.8583000e-01  -8.5472800e-02
   5.8645600e-01   7.9237400e-01  -7.9854600e-02
   6.0330700e-01   8.2205600e-01  -8.3366000e-02
   5.8271100e-01   8.2299100e-01  -9.2963700e-02
   5.6843400e-01   8.3257300e-01  -9.0388700e-02
   5.8364700e-01   8.3397500e-01  -7.7981900e-02
   5.7077400e-01   8.4612800e-01  -8.4770500e-02
   5.5415600e-01   8.4963400e-01  -8.5941000e-02
   5.7147600e-01   8.5360700e-01  -7.6577400e-02
   5.5860300e-01   8.6973400e-01  -7.3534200e-02
   5.2864500e-01   8.5804800e-01  -7.2597900e-02
   5.3753900e-01   8.6973400e-01  -6.9788800e-02
   5.5439000e-01   8.6973400e-01  -6.4404700e-02
   5.1553800e-01   8.7066900e-01  -6.7447900e-02
   4.9260100e-01   8.7697900e-01  -6.4638800e-02
   5.2209100e-01   8.6505900e-01  -6.0191100e-02
   5.0055800e-01   8.6646200e-01  -6.0191100e-02
   4.7294000e-01   8.6599400e-01  -6.1127500e-02
   4.8698300e-01   8.6552700e-01  -6.2766100e-02
   4.7387700e-01   8.5945000e-01  -5.7616100e-02
   4.4930100e-01   8.5080300e-01  -5.1295700e-02
   4.5421600e-01   8.4986800e-01  -4.5677500e-02
   4.5351400e-01   8.4729700e-01  -5.0359300e-02
   4.2215100e-01   8.3374200e-01  -5.9020700e-02
   4.1536300e-01   8.2275700e-01  -4.6848000e-02
   4.3385400e-01   8.2696400e-01  -3.3739000e-02
   4.0272500e-01   8.1224000e-01  -4.4038900e-02
   3.7768100e-01   7.9751600e-01  -5.1295700e-02
   3.9734100e-01   8.0756500e-01  -4.3570700e-02
   3.9312900e-01   7.8255800e-01  -4.1229800e-02
   3.5357400e-01   7.7554600e-01  -3.7952600e-02
   3.5825500e-01   7.7624800e-01  -3.7718500e-02
   3.7229800e-01   7.4656600e-01  -4.6613900e-02
   3.3461500e-01   7.5661600e-01  -4.5911600e-02
   3.3227500e-01   7.4493000e-01  -3.8420800e-02
   3.3625400e-01   7.2296100e-01  -3.4441200e-02
   3.1893400e-01   7.2155800e-01  -3.7718500e-02
   3.1144400e-01   7.1478100e-01  -4.2634400e-02
   3.0980600e-01   6.9958900e-01  -3.6314000e-02
   3.1144400e-01   6.8580000e-01  -3.3504900e-02
   2.8148600e-01   6.7411400e-01  -3.6079900e-02
   2.7633600e-01   6.5892300e-01  -3.3504900e-02
   3.0184800e-01   6.5775400e-01  -3.8186700e-02
   2.6627200e-01   6.3648600e-01  -4.0293500e-02
   2.4146300e-01   6.1989200e-01  -3.2802600e-02
   2.7352800e-01   6.1872400e-01  -2.8589000e-02
   2.6229300e-01   5.9511800e-01  -3.8888900e-02
   2.2976000e-01   5.8039400e-01  -4.1698000e-02
   2.4146300e-01   5.7034400e-01  -2.6248100e-02
   2.3725000e-01   5.4183100e-01  -2.4609500e-02
   2.1056800e-01   5.3458600e-01  -2.8589000e-02
   2.2859000e-01   5.2593900e-01  -2.9057200e-02
   2.2227000e-01   4.9649000e-01  -2.4843600e-02
   1.8833300e-01   4.8176600e-01  -1.6650400e-02
   1.8739700e-01   4.6821100e-01  -1.4777700e-02
   2.0144000e-01   4.4273600e-01  -1.1968600e-02
   1.9371600e-01   4.2333800e-01  -1.9225400e-02
   1.5065000e-01   4.1258700e-01  -2.2268600e-02
   1.6305500e-01   3.8687800e-01  -1.1734500e-02
   1.7686400e-01   3.6794700e-01  -1.1734500e-02
   1.3941600e-01   3.4293900e-01  -1.1500500e-02
   1.4386300e-01   3.2260600e-01  -9.8618300e-03
   1.5626800e-01   3.0577900e-01  -9.6277400e-03
   1.1928700e-01   2.7936900e-01  -7.2868400e-03
   1.0852100e-01   2.6464500e-01  -3.0732300e-03
   1.3777800e-01   2.3753400e-01   2.3108400e-03
   1.1250000e-01   2.1766800e-01  -8.6913800e-03
   8.3945600e-02   1.9733500e-01  -9.1595600e-03
   1.0079700e-01   1.7022400e-01   1.6085700e-03
   9.9627100e-02   1.4521600e-01  -1.4346000e-03
   7.7158100e-02   1.1997500e-01  -3.5414100e-03
   7.5753800e-02   1.0291400e-01  -7.9891100e-03
   8.2307200e-02   7.4868100e-02  -1.0564100e-02
   6.5923600e-02   5.2665100e-02  -7.9891100e-03
   5.5625300e-02   3.2331900e-02  -4.9459400e-03
   7.0370600e-02  -4.3614000e-03  -7.0527500e-03
   6.1710600e-02  -1.6748300e-02  -1.9693600e-02
   3.3156300e-02  -3.9418700e-02  -2.1800400e-02
   5.3518800e-02  -7.4008600e-02  -1.2905000e-02
   6.0072300e-02  -9.3640600e-02  -1.6650400e-02
   2.5900700e-02  -1.2121900e-01  -2.1098100e-02
   3.6199000e-02  -1.3734500e-01  -2.2970800e-02
   5.7263600e-02  -1.6398900e-01  -2.7184500e-02
   2.2623900e-02  -1.9507300e-01  -2.6482200e-02
   1.0687300e-02  -2.1517300e-01  -2.7886700e-02
   4.5327000e-02  -2.4088100e-01  -2.9525400e-02
   2.6134700e-02  -2.6308400e-01  -3.7016200e-02
   8.1126900e-03  -2.8785800e-01  -3.5845800e-02
   2.4496300e-02  -3.0328300e-01  -2.8354900e-02
   1.7474800e-02  -3.2782300e-01  -3.7952600e-02
   3.8997600e-03  -3.6101100e-01  -4.6145700e-02
   1.4900200e-02  -3.6942500e-01  -4.0995800e-02
   2.4964500e-02  -3.9770400e-01  -3.8654900e-02
  -6.6325900e-03  -4.2434800e-01  -4.2634400e-02
  -7.1007000e-03  -4.3112500e-01  -4.5677500e-02
   2.1687700e-02  -4.6291100e-01  -4.7316200e-02
   6.0062300e-03  -4.7927100e-01  -4.7784400e-02
  -1.9271400e-02  -4.8604900e-01  -5.0359300e-02
  -6.1644900e-03  -5.1876900e-01  -4.8018400e-02
   9.2829600e-03  -5.3816700e-01  -5.0827500e-02
  -2.4888700e-02  -5.4237400e-01  -5.6211600e-02
  -2.1611900e-02  -5.6527800e-01  -5.6445700e-02
   6.7083800e-03  -5.7789900e-01  -5.7850200e-02
  -3.1910200e-02  -5.9612800e-01  -5.9020700e-02
  -3.6357200e-02  -6.1412500e-01  -6.1361600e-02
  -3.8239700e-03  -6.1225500e-01  -5.9957000e-02
  -2.3016200e-02  -6.4053400e-01  -6.5575200e-02
  -4.7357700e-02  -6.5081800e-01  -6.2063800e-02
  -3.1208100e-02  -6.5782900e-01  -5.4104800e-02
