**************************************************************************************
  	RED ACELEROGRÁFICA DE LA UNIVERSIDAD AUTONOMA METROPOLITANA (RA-UAM)
	   UNIDAD AZCAPOTZALCO. DIVISIÓN CBI-DEPARTAMENTO DE MATERIALES
     Av. San Pablo 420, Col. Nueva el Rosario, Azcapotzalco, C.P. 02128, Ciudad de México
		Área de Estructuras. e-mail: agb@azc.uam.mx
**************************************************************************************
ARCHIVO ESTANDAR DE ACELERACION:
VERSION DEL FORMATO                    : 2.0
NOMBRE DEL ARCHIVO                     : RUML202310.221
FECHA Y HORA DE CREACION               : 11:30 a. m. 27/10/2023
REF. CATALOGO ACELEROGRAMAS, SMIS 1999 : REGISTRO NO.      /PAG.    


================================================================================
DATOS DE LA ESTACION:
NOMBRE DE LA ESTACION                  : UAM-LERMA.
CLAVE DE LA ESTACION                   : RUML
LOCALIZACION DE LA ESTACION            : AV. DE LAS GARZAS 10, EL PANTEON, C.P.52005,
                                       : LERMA DE VILLADA, ESTADO DE MEXICO.   
                                       : 
                                       : 
                                       : 
COORDENADAS DE LA ESTACION             : 19.291278 LAT. N
                                       : 99.500578 LONG. W
ALTITUD (msnm)                         : 2570
TIPO DE SUELO                          : DEPOSITOS LACUSTRES
                                       : 
                                       : 
INSTITUCION RESPONSABLE                : UNIVERSIDAD AUTONOMA METROPOLITANA
                                       : 

================================================================================
DATOS DEL ACELEROGRAFO: 
MODELO DEL ACELEROGRAFO                : ETNA2 KINEMETRICS
NUMERO DE SERIE DEL ACELEROGRAFO       : 103733
NUMERO DE CANALES                      : 3
ORIENTACION C1-C6 (rumbo;orientacion)  : /N90E/N00E/V 
ORIENTACION C7-C12 (rumbo;orientacion) : 
VEL. DE MUESTREO, C1-C6 (muestras/s)   : /200/200/200
VEL. DE MUESTREO, C7-C12 (muestras/s)  : 
ESC. COMPLETA DE SENSORES, C1-C6, (g)  : /2/2/2
ESC. COMPLETA DE SENSORES, C7-C12 (g)  : 
FREC. NAT. DE SENSORES, C1-C6, (Hz)    : /212/206/208   
FREC. NAT. DE SENSORES, C7-C12 (Hz)    : 
AMORTIGUAMIENTO DE SENSORES, C1-C6     : /0.7/0.7/0.7      
AMORTIGUAMIENTO DE SENSORES, C7-C12    : 
INTERVALO DE MUESTREO, C1-C6 (s)       : /0.005/0.005/0.005
INTERVALO DE MUESTREO, C7-C12 (s)      : 
UMBRAL DE DISPARO, C1-C6 (Gal)         : /2/2/2
UMBRAL DE DISPARO, C7-C12 (Gal)        : 
MEMORIA DE PREEVENTO (s)               : 50
TIEMPO DE POSEVENTO (s)                : 60


================================================================================
DATOS DEL SISMO:
FECHA DEL SISMO [GMT]                  : 2023/10/22
HORA EPICENTRO (GMT)                   : 02:05:16
MAGNITUD(ES)                           : /M=4.9
COORDENADAS DEL EPICENTRO              : 16.1700 LAT. N
                                       : -99.1300 LONG. W
PROFUNDIDAD FOCAL (Km)                 : 17.1
FUENTE DE LOS DATOS EPICENTRALES       : SSN
                                       : INSTITUTO DE GEOFISICA, UNAM

================================================================================
DATOS DE ESTE REGISTRO:
HORA DE LA PRIMERA MUESTRA (GMT)       : 02:06:07.000
EXACTITUD DEL TIEMPO (s)               : 
DURACION DEL REGISTRO (s), C1-C6       : /148/148/148
DURACION DEL REGISTRO (s), C7-C12      : 
NUM. TOTAL DE MUESTRAS, C1-C6          : /29600/29600/29600
NUM. TOTAL DE MUESTRAS, C7-C12         : 
ACEL. MAX.(Gal), C1-C6                 : /-0.868/-0.929/0.379
ACEL. MAX., C1-C6, EN LA MUESTRA       : /12294/12132/11919
ACEL. MAX.(Gal), C7-C12                : 
ACEL. MAX., C7-C12,EN LA MUESTRA       : 
UNIDADES DE LOS DATOS                  : Gal (cm/s/s)
FACTOR DE DECIMACION                   : 1
FORMATO DATOS (FORTRAN,16 campos/dato) : 3E16.7


================================================================================
CALIDAD DEL ACELEROGRAMA:
REGISTRO DIGITAL COMPLETO CON TIEMPO ABSOLUTO CORRECTO


================================================================================
COMENTARIOS:














================================================================================
DATOS DE ACELERACION:
---------+---------+---------+---------+---------+---------+---------+---------+
   CANAL-1   	     CANAL-2          CANAL-3
     N90E              N00E              V
---------+---------+---------+---------+---------+---------+---------+---------+
[...]
   4.6634700e-01   3.2644800e-03   3.4329900e-01
   4.7875200e-01   8.1725000e-03   3.5500300e-01
   4.4106900e-01  -3.9806900e-03   3.5945100e-01
   4.3615400e-01  -6.7852800e-03   3.5898300e-01
   4.4434600e-01  -7.0867800e-04   3.5991900e-01
   4.2679200e-01  -3.2026500e-02   3.7021900e-01
   3.9917400e-01  -1.4731600e-02   3.7700700e-01
   4.0947200e-01  -2.5015100e-02   3.7864600e-01
   4.0666400e-01  -4.9087700e-02   3.7021900e-01
   3.6289600e-01  -3.2727700e-02   3.6530300e-01
   3.7015200e-01  -6.0773500e-02   3.7443200e-01
   3.7272600e-01  -4.9788900e-02   3.7256000e-01
   3.3644800e-01  -6.6616400e-02   3.6108900e-01
   3.2170300e-01  -8.4378700e-02   3.5266200e-01
   3.3340500e-01  -7.6432400e-02   3.4493700e-01
   3.1585100e-01  -1.0377700e-01   3.4072400e-01
   2.7512600e-01  -9.2558800e-02   3.3721200e-01
   2.8636100e-01  -1.0985400e-01   3.2784900e-01
   2.8519100e-01  -1.1780000e-01   3.0935600e-01
   2.3744400e-01  -1.1990300e-01   2.9624700e-01
   2.3135900e-01  -1.3860100e-01   2.9741700e-01
   2.4493400e-01  -1.2831700e-01   2.8828700e-01
   2.0654900e-01  -1.3813300e-01   2.6534700e-01
   1.7659000e-01  -1.4911800e-01   2.4732200e-01
   1.9297400e-01  -1.4631300e-01   2.3842600e-01
   1.7471800e-01  -1.4794900e-01   2.2297600e-01
   1.2978000e-01  -1.5355800e-01   2.1220800e-01
   1.4007800e-01  -1.5706400e-01   2.0542000e-01
   1.3937600e-01  -1.4958500e-01   1.7124300e-01
   9.0459300e-02  -1.4794900e-01   1.4619500e-01
   9.1161400e-02  -1.5753200e-01   1.4689700e-01
   9.6310600e-02  -1.4608000e-01   1.3542700e-01
   5.1606600e-02  -1.4070400e-01   1.1108200e-01
   3.8967800e-02  -1.3860100e-01   9.0481700e-02
   4.9032000e-02  -1.3906800e-01   7.3393200e-02
   1.1817700e-02  -1.3439400e-01   6.1688700e-02
  -1.0183200e-02  -1.1078900e-01   5.0452400e-02
  -1.1893200e-04  -1.1850100e-01   3.1022900e-02
  -2.8205200e-02  -1.1873500e-01   1.2763900e-02
  -5.5589300e-02  -1.0331000e-01  -1.2751800e-02
  -6.2844900e-02  -8.9286800e-02  -2.9372200e-02
  -6.8462200e-02  -8.9286800e-02  -3.6629000e-02
  -8.7186300e-02  -8.9754200e-02  -5.9803900e-02
  -1.2042200e-01  -6.0072400e-02  -8.1808300e-02
  -1.0895300e-01  -6.9888400e-02  -9.7726400e-02
  -1.1854900e-01  -6.4980400e-02  -1.0849500e-01
  -1.6816800e-01  -4.6984300e-02  -1.1411300e-01
  -1.5389100e-01  -4.3712300e-02  -1.2207200e-01
  -1.5201900e-01  -3.5766000e-02  -1.4079900e-01
  -1.9157400e-01  -3.9271700e-02  -1.5695100e-01
  -1.9555200e-01  -1.0992200e-02  -1.5578100e-01
  -1.8431800e-01  -1.5432700e-02  -1.5976000e-01
  -2.0959600e-01  -5.3829800e-03  -1.7263500e-01
  -2.3300100e-01   3.2644800e-03  -1.7848700e-01
  -2.1427700e-01  -7.5325800e-06  -1.8738300e-01
  -2.3159700e-01   2.8973200e-02  -1.9370300e-01
  -2.5640600e-01   1.6820000e-02  -1.9323500e-01
  -2.4751200e-01   3.1076600e-02  -1.8972400e-01
  -2.5125700e-01   4.8839000e-02  -1.9721400e-01
  -2.7349200e-01   4.9540100e-02  -2.0306700e-01
  -2.7700300e-01   5.5149300e-02  -1.8995800e-01
  -2.6413000e-01   6.7302500e-02  -1.8902100e-01
  -2.9081200e-01   7.8988200e-02  -1.8316900e-01
  -2.9432300e-01   7.4781400e-02  -1.7755100e-01
  -2.7793900e-01   9.6283200e-02  -1.7193300e-01
  -2.9783300e-01   1.0352800e-01  -1.6374000e-01
  -3.0555700e-01   1.0025600e-01  -1.5812200e-01
  -2.9572700e-01   1.1731800e-01  -1.4314000e-01
  -2.9525900e-01   1.2456300e-01  -1.4103300e-01
  -3.2217500e-01   1.2152400e-01  -1.3166900e-01
  -3.0883400e-01   1.3391100e-01  -1.1036700e-01
  -2.9174800e-01   1.4536300e-01  -9.7492300e-02
  -3.3270700e-01   1.4255900e-01  -9.3512800e-02
  -3.2006800e-01   1.4793400e-01  -8.3915100e-02
  -2.9876900e-01   1.5681500e-01  -6.4719700e-02
  -3.2989800e-01   1.5541300e-01  -5.3951600e-02
  -3.3434500e-01   1.6616400e-01  -3.7799400e-02
  -3.0766300e-01   1.7013700e-01  -2.3285900e-02
  -3.2123900e-01   1.6359300e-01  -1.6965500e-02
  -3.4721800e-01   1.7551300e-01  -6.1973300e-03
  -3.1866400e-01   1.8579600e-01   7.6139600e-03
  -3.1187600e-01   1.7878500e-01   2.4468400e-02
  -3.3809000e-01   1.7785000e-01   2.6809300e-02
  -3.3785600e-01   1.9444400e-01   3.1257000e-02
  -3.0766300e-01   1.8042100e-01   4.8813700e-02
  -3.1608900e-01   1.8790000e-01   5.5836400e-02
  -3.5307000e-01   2.0192200e-01   6.3327300e-02
  -3.1187600e-01   1.8345900e-01   7.0584100e-02
  -2.8659900e-01   1.9724800e-01   7.1052300e-02
  -3.3551600e-01   1.9187300e-01   7.3393200e-02
  -3.2381300e-01   1.9210600e-01   8.0884000e-02
  -2.7325800e-01   1.9654700e-01   9.2354400e-02
  -3.0485500e-01   1.8345900e-01   9.3524900e-02
  -3.1936600e-01   1.9047000e-01   8.8374900e-02
  -2.6927900e-01   1.8790000e-01   9.1418100e-02
  -2.6974700e-01   1.8743200e-01   8.9077200e-02
  -2.9011000e-01   1.7761600e-01   9.1886200e-02
  -2.6951300e-01   1.8673100e-01   9.2588500e-02
  -2.4540600e-01   1.8626400e-01   7.7606800e-02
  -2.5149100e-01   1.6850100e-01   7.1988600e-02
  -2.4610800e-01   1.8252400e-01   6.8243200e-02
  -2.2293700e-01   1.8229000e-01   6.3561400e-02
  -2.1778700e-01   1.6709900e-01   5.9347800e-02
  -2.1123400e-01   1.6499500e-01   5.4666000e-02
  -1.9859500e-01   1.7224100e-01   4.2493300e-02
  -1.9157400e-01   1.5447800e-01   3.2661600e-02
  -1.7870100e-01   1.5237500e-01   4.1791100e-02
  -1.5553000e-01   1.6873500e-01   3.3832000e-02
  -1.6138100e-01   1.4629800e-01   1.8616200e-02
  -1.5763600e-01   1.4232500e-01   9.2525900e-03
  -1.1901700e-01   1.5377700e-01   3.6344400e-03
  -1.1363400e-01   1.4139000e-01  -5.9632400e-03
  -1.2510300e-01   1.3835200e-01  -2.4222200e-02
  -9.7250600e-02   1.3671600e-01  -2.1647200e-02
  -6.1674700e-02   1.3344400e-01  -2.4924500e-02
  -8.3675600e-02   1.4022200e-01  -3.9204000e-02
  -7.6185900e-02   1.3601500e-01  -4.2247100e-02
  -1.8140900e-02   1.2900300e-01  -3.9204000e-02
  -2.0247400e-02   1.3531400e-01  -5.1844800e-02
  -4.5291000e-02   1.4115600e-01  -6.6826500e-02
   4.0940100e-03   1.3321000e-01  -5.7931100e-02
   3.7797500e-02   1.4022200e-01  -7.1040200e-02
  -8.2108800e-04   1.4863500e-01  -8.4851500e-02
   2.5158700e-02   1.4840200e-01  -8.5319600e-02
   7.5479900e-02   1.4910300e-01  -8.7426400e-02
   6.1670800e-02   1.5564700e-01  -9.0001400e-02
   4.8329900e-02   1.8182300e-01  -1.0194000e-01
   9.1863600e-02   1.6616400e-01  -9.8662700e-02
   1.1363000e-01   1.7013700e-01  -9.7726400e-02
   7.9692900e-02   2.0659700e-01  -1.0662200e-01
   1.0028900e-01   1.9257400e-01  -1.0194000e-01
   1.3890800e-01   1.9327500e-01  -9.3512800e-02
   1.1971600e-01   2.2786500e-01  -1.0030100e-01
   1.0309800e-01   2.2856600e-01  -1.0545100e-01
   1.4546200e-01   2.2552800e-01  -1.0451500e-01
   1.4920600e-01   2.4258900e-01  -1.0381300e-01
   1.0637500e-01   2.4983400e-01  -1.0170600e-01
   1.3727000e-01   2.6339000e-01  -1.0123800e-01
   1.5365300e-01   2.6035100e-01  -1.0123800e-01
   1.1012000e-01   2.7063500e-01  -1.0545100e-01
   1.1690700e-01   2.8489100e-01  -9.8662700e-02
   1.4054600e-01   2.7788000e-01  -9.6087800e-02
   1.0543900e-01   2.9330500e-01  -9.1874100e-02
   9.6076500e-02   2.9914800e-01  -8.9065100e-02
   1.0801300e-01   2.9797900e-01  -9.5385500e-02
   8.6480400e-02   2.9984900e-01  -9.1640100e-02
   7.2203200e-02   3.1153500e-01  -8.8362800e-02
   6.6351900e-02   3.1106800e-01  -8.4851500e-02
   6.1436800e-02   3.0569200e-01  -9.1406000e-02
   3.6861300e-02   3.1714400e-01  -9.2810500e-02
   2.1647900e-02   3.0125100e-01  -7.8999200e-02
   2.4924700e-02   3.0802900e-01  -7.6424200e-02
  -4.5659200e-03   3.1620900e-01  -7.7594700e-02
  -3.4056500e-02   3.0335500e-01  -7.2912900e-02
  -2.2587900e-02   3.0569200e-01  -7.1274300e-02
  -3.9439700e-02   3.0405600e-01  -7.5722000e-02
  -8.6484200e-02   3.0662700e-01  -6.9401500e-02
  -7.7356100e-02   2.9681100e-01  -6.4953800e-02
  -8.6952300e-02   2.8699500e-01  -7.1508300e-02
  -1.3352900e-01   2.9353900e-01  -7.2678800e-02
  -1.3844400e-01   2.9307100e-01  -6.6592500e-02
  -1.4476300e-01   2.7554300e-01  -6.0740200e-02
  -1.7144500e-01   2.7858100e-01  -6.9635600e-02
  -1.9672300e-01   2.9237000e-01  -7.0572000e-02
  -2.0421200e-01   2.6292200e-01  -6.0974300e-02
  -2.1053200e-01   2.6619400e-01  -6.4953800e-02
  -2.4868200e-01   2.7928200e-01  -6.7060600e-02
  -2.6693800e-01   2.5591100e-01  -6.1676600e-02
  -2.6249100e-01   2.4889900e-01  -6.4485700e-02
  -2.9689700e-01   2.5170400e-01  -7.0337900e-02
  -3.2240900e-01   2.5474200e-01  -6.1676600e-02
  -3.1164200e-01   2.3464300e-01  -5.6292500e-02
  -3.4745200e-01   2.2786500e-01  -6.5890200e-02
  -3.7202800e-01   2.2786500e-01  -6.9635600e-02
  -3.5728300e-01   2.1641300e-01  -5.9335700e-02
  -3.9051800e-01   2.0239000e-01  -5.8165200e-02
  -4.1743400e-01   1.8953600e-01  -6.1442500e-02
  -4.0619900e-01   1.8836700e-01  -6.1442500e-02
  -4.1977400e-01   1.5868500e-01  -6.8933400e-02
  -4.5769100e-01   1.3788400e-01  -6.2612900e-02
  -4.4598800e-01   1.3601500e-01  -5.4888000e-02
  -4.4411600e-01   1.1521400e-01  -5.4888000e-02
  -4.8835200e-01   7.2911600e-02  -5.4653900e-02
  -4.7828800e-01   6.3563000e-02  -6.0506100e-02
  -4.7501100e-01   4.6969200e-02  -5.0908500e-02
  -4.9631000e-01  -1.2394400e-02  -4.3651700e-02
  -5.0309700e-01  -1.4030400e-02  -4.1310800e-02
  -5.0356500e-01  -4.9321500e-02  -4.0140300e-02
  -4.9701200e-01  -9.8635400e-02  -4.5056200e-02
  -5.2088500e-01  -1.1172300e-01  -3.8735800e-02
  -5.1714000e-01  -1.5706400e-01  -2.7733600e-02
  -4.9654400e-01  -1.8791500e-01  -1.9774500e-02
  -5.1901300e-01  -2.3372300e-01  -1.9072300e-02
  -5.1924700e-01  -2.6340500e-01  -1.2517700e-02
  -4.9748000e-01  -2.9378800e-01  -6.4314200e-03
  -5.0473500e-01  -3.4777600e-01   1.5276300e-03
  -5.0590600e-01  -3.6740800e-01   1.2061700e-02
  -4.8203200e-01  -4.1672200e-01   1.2061700e-02
  -4.8718100e-01  -4.6697100e-01   1.6041200e-02
  -4.7828800e-01  -4.8309700e-01   2.2595700e-02
  -4.5792500e-01  -5.3054100e-01   4.2727400e-02
  -4.5535000e-01  -5.7518100e-01   5.5134200e-02
  -4.4200900e-01  -5.8897000e-01   4.8111500e-02
  -4.3241300e-01  -6.3524600e-01   6.2859100e-02
  -3.9730500e-01  -6.7264000e-01   8.2054500e-02
  -3.9168800e-01  -6.8596200e-01   8.1118100e-02
  -3.9636900e-01  -7.2709600e-01   9.0715800e-02
  -3.3270700e-01  -7.5467400e-01   1.0476100e-01
  -3.1819600e-01  -7.7921400e-01   1.0007900e-01
  -3.4487800e-01  -8.0562400e-01   1.1061300e-01
  -2.6787500e-01  -8.2011400e-01   1.3215000e-01
  -2.2855400e-01  -8.3811100e-01   1.3823600e-01
  -2.6764100e-01  -8.6358500e-01   1.3753400e-01
  -2.0187200e-01  -8.7340200e-01   1.3823600e-01
  -1.4242300e-01  -8.8017900e-01   1.5134500e-01
  -1.4897600e-01  -9.0682300e-01   1.5860200e-01
  -1.3001800e-01  -8.9700700e-01   1.6211300e-01
  -6.4483300e-02  -9.1710600e-01   1.6702900e-01
  -1.6970700e-02  -9.2061200e-01   1.6843400e-01
  -3.0779800e-02  -9.0775800e-01   1.7545600e-01
   1.1817700e-02  -9.2949300e-01   1.7873400e-01
   8.9054900e-02  -9.1173100e-01   1.8318100e-01
   1.0333200e-01  -9.2037800e-01   1.7686100e-01
   1.0426800e-01  -9.0845900e-01   1.7920200e-01
   1.7565400e-01  -9.0121400e-01   1.8364900e-01
   2.2808200e-01  -9.1079600e-01   1.7779700e-01
   2.0865600e-01  -8.7083100e-01   1.8154300e-01
   2.5780700e-01  -8.7340200e-01   1.7615900e-01
   3.2193700e-01  -8.7457000e-01   1.7498800e-01
   3.2872400e-01  -8.4629100e-01   1.7428600e-01
   3.4885300e-01  -8.3764300e-01   1.7334900e-01
   3.9308900e-01  -8.2362000e-01   1.7054000e-01
   4.2538800e-01  -8.0983100e-01   1.6702900e-01
   4.3498400e-01  -7.7594200e-01   1.6609300e-01
   4.5745300e-01  -7.5888100e-01   1.5977200e-01
   4.8788000e-01  -7.6262000e-01   1.5766500e-01
   5.0824200e-01  -7.2031800e-01   1.5438800e-01
   5.1807300e-01  -7.0115300e-01   1.5368600e-01
   5.3703100e-01  -6.9951700e-01   1.4596100e-01
   5.5247800e-01  -6.6843300e-01   1.4455600e-01
   5.6769200e-01  -6.4202300e-01   1.4666300e-01
   5.8103300e-01  -6.2800000e-01   1.3051100e-01
   5.6839400e-01  -6.0346000e-01   1.2746800e-01
   5.9437400e-01  -5.8195900e-01   1.2793600e-01
   6.0256500e-01  -5.5788600e-01   1.1740200e-01
   5.8454300e-01  -5.4316200e-01   1.0218600e-01
   5.9741600e-01  -5.3124200e-01   9.7036200e-02
   6.0069300e-01  -4.9945700e-01   1.0476100e-01
   5.9741600e-01  -4.8707000e-01   9.0481700e-02
   5.7962800e-01  -4.5668700e-01   7.8075000e-02
   5.8665000e-01  -4.5224700e-01   8.0649900e-02
   6.0022500e-01  -4.2723900e-01   7.6436300e-02
   5.6722400e-01  -3.9522000e-01   5.9816000e-02
   5.5622300e-01  -4.0877600e-01   5.4666000e-02
   5.8548000e-01  -3.6927800e-01   5.4197800e-02
   5.5622300e-01  -3.6296700e-01   3.1491100e-02
   5.1830700e-01  -3.5034700e-01   2.5873000e-02
   5.5622300e-01  -3.1739300e-01   3.4066100e-02
   5.3983900e-01  -3.2346900e-01   3.0320700e-02
   4.9443300e-01  -2.8817800e-01   1.5807100e-02
   5.2064700e-01  -2.7275300e-01   1.9958100e-03
   5.2111500e-01  -2.7836200e-01   6.6776100e-03
   4.8343300e-01  -2.4844700e-01   1.3232100e-02
   4.9068800e-01  -2.3278800e-01   6.6776100e-03
   4.9443300e-01  -2.2390700e-01  -8.1326400e-04
   4.7360300e-01  -2.1596000e-01  -1.2985900e-02
   4.7032600e-01  -1.8814800e-01  -1.6731400e-02
   4.6728300e-01  -1.6220600e-01  -6.8996000e-03
   4.7734700e-01  -1.7646300e-01  -7.1336800e-03
   4.5651700e-01  -1.4187300e-01  -1.6497300e-02
   4.5043100e-01  -1.2387700e-01  -3.1010800e-02
   4.8062400e-01  -1.2551300e-01  -2.7499500e-02
   4.5651700e-01  -9.9570200e-02  -1.9540400e-02
   4.5768700e-01  -8.3911300e-02  -2.1179100e-02
   4.8109200e-01  -5.5164300e-02  -2.3285900e-02
   4.7126200e-01  -6.5915200e-02  -3.1713100e-02
   4.7407100e-01  -3.0857900e-02  -2.8904000e-02
   4.9654000e-01  -4.2144100e-03  -2.0008600e-02
   5.0309300e-01  -9.1224300e-03  -1.7901800e-02
   4.9232700e-01   3.4348600e-02  -2.2583600e-02
   5.2766900e-01   2.7804600e-02  -2.7031300e-02
   5.4896700e-01   6.0992200e-02  -2.6797200e-02
   5.2134900e-01   8.9271700e-02  -2.3988100e-02
   5.4873300e-01   8.4363700e-02  -1.4624600e-02
   5.8969300e-01   1.3297600e-01  -1.1815500e-02
   5.7682000e-01   1.3835200e-01  -2.2115400e-02
   5.6722400e-01   1.5214100e-01  -1.6497300e-02
   6.1309800e-01   2.0005300e-01  -7.6018600e-03
   6.3041800e-01   2.0075400e-01  -1.7901800e-02
   5.9086300e-01   2.2482700e-01  -1.9306300e-02
   6.2760900e-01   2.5357400e-01  -8.7723100e-03
   6.6271700e-01   2.7554300e-01  -1.3454100e-02
   6.1567200e-01   2.9914800e-01  -2.0945000e-02
   6.3416200e-01   3.0779500e-01  -1.6029100e-02
   6.7184500e-01   3.5524000e-01  -1.7667700e-02
   6.4422700e-01   3.5851200e-01  -2.6797200e-02
   6.3603500e-01   3.7650800e-01  -2.9138100e-02
   6.6084400e-01   4.0969500e-01  -2.4456300e-02
   6.6224900e-01   4.1133100e-01  -3.3117600e-02
   6.2643900e-01   4.4568700e-01  -4.5992600e-02
   6.4095000e-01   4.5830800e-01  -4.3183500e-02
   6.5803600e-01   4.7747300e-01  -3.8501700e-02
   6.1894900e-01   4.9663700e-01  -4.1076700e-02
   6.1754500e-01   5.0902400e-01  -5.1142500e-02
   6.3603500e-01   5.2258000e-01  -4.9035700e-02
   6.1543800e-01   5.1930800e-01  -5.2781200e-02
   5.7869200e-01   5.5506600e-01  -5.3951600e-02
   5.9928900e-01   5.6348000e-01  -4.7163000e-02
   6.0045900e-01   5.4712000e-01  -5.7228900e-02
   5.4335000e-01   5.8077500e-01  -6.0506100e-02
   5.5575500e-01   5.8451400e-01  -7.2678800e-02
   5.6488300e-01   5.8077500e-01  -7.2912900e-02
   5.1549800e-01   5.8311200e-01  -7.1508300e-02
   5.0683800e-01   5.8802000e-01  -8.4149200e-02
   5.0917900e-01   6.0157600e-01  -7.6190100e-02
