**************************************************************************************
  	RED ACELEROGRÁFICA DE LA UNIVERSIDAD AUTONOMA METROPOLITANA (RA-UAM)
	   UNIDAD AZCAPOTZALCO. DIVISIÓN CBI-DEPARTAMENTO DE MATERIALES
     Av. San Pablo 420, Col. Nueva el Rosario, Azcapotzalco, C.P. 02128, Ciudad de México
		Área de Estructuras. e-mail: agb@azc.uam.mx
**************************************************************************************
ARCHIVO ESTANDAR DE ACELERACION:
VERSION DEL FORMATO                    : 2.0
NOMBRE DEL ARCHIVO                     : RUML202311.211
FECHA Y HORA DE CREACION               : 11:30 a. m. 28/11/2023
REF. CATALOGO ACELEROGRAMAS, SMIS 1999 : REGISTRO NO.      /PAG.    


================================================================================
DATOS DE LA ESTACION:
NOMBRE DE LA ESTACION                  : UAM-LERMA.
CLAVE DE LA ESTACION                   : RUML
LOCALIZACION DE LA ESTACION            : AV. DE LAS GARZAS 10, EL PANTEON, C.P.52005,
                                       : LERMA DE VILLADA, ESTADO DE MEXICO.   
                                       : 
                                       : 
                                       : 
COORDENADAS DE LA ESTACION             : 19.291278 LAT. N
                                       : 99.500578 LONG. W
ALTITUD (msnm)                         : 2570
TIPO DE SUELO                          : DEPOSITOS LACUSTRES
                                       : 
                                       : 
INSTITUCION RESPONSABLE                : UNIVERSIDAD AUTONOMA METROPOLITANA
                                       : 

================================================================================
DATOS DEL ACELEROGRAFO: 
MODELO DEL ACELEROGRAFO                : ETNA2 KINEMETRICS
NUMERO DE SERIE DEL ACELEROGRAFO       : 103733
NUMERO DE CANALES                      : 3
ORIENTACION C1-C6 (rumbo;orientacion)  : /N90E/N00E/V 
ORIENTACION C7-C12 (rumbo;orientacion) : 
VEL. DE MUESTREO, C1-C6 (muestras/s)   : /200/200/200
VEL. DE MUESTREO, C7-C12 (muestras/s)  : 
ESC. COMPLETA DE SENSORES, C1-C6, (g)  : /2/2/2
ESC. COMPLETA DE SENSORES, C7-C12 (g)  : 
FREC. NAT. DE SENSORES, C1-C6, (Hz)    : /212/206/208   
FREC. NAT. DE SENSORES, C7-C12 (Hz)    : 
AMORTIGUAMIENTO DE SENSORES, C1-C6     : /0.7/0.7/0.7      
AMORTIGUAMIENTO DE SENSORES, C7-C12    : 
INTERVALO DE MUESTREO, C1-C6 (s)       : /0.005/0.005/0.005
INTERVALO DE MUESTREO, C7-C12 (s)      : 
UMBRAL DE DISPARO, C1-C6 (Gal)         : /2/2/2
UMBRAL DE DISPARO, C7-C12 (Gal)        : 
MEMORIA DE PREEVENTO (s)               : 50
TIEMPO DE POSEVENTO (s)                : 60


================================================================================
DATOS DEL SISMO:
FECHA DEL SISMO [GMT]                  : 2023/11/21
HORA EPICENTRO (GMT)                   : 20:24:31
MAGNITUD(ES)                           : /M=4.9
COORDENADAS DEL EPICENTRO              : 16.8000 LAT. N
                                       : -99.5300 LONG. W
PROFUNDIDAD FOCAL (Km)                 : 15.9
FUENTE DE LOS DATOS EPICENTRALES       : SSN
                                       : INSTITUTO DE GEOFISICA, UNAM

================================================================================
DATOS DE ESTE REGISTRO:
HORA DE LA PRIMERA MUESTRA (GMT)       : 20:25:02.000
EXACTITUD DEL TIEMPO (s)               : 
DURACION DEL REGISTRO (s), C1-C6       : /134/134/134
DURACION DEL REGISTRO (s), C7-C12      : 
NUM. TOTAL DE MUESTRAS, C1-C6          : /26800/26800/26800
NUM. TOTAL DE MUESTRAS, C7-C12         : 
ACEL. MAX.(Gal), C1-C6                 : /0.738/-1.065/-0.335
ACEL. MAX., C1-C6, EN LA MUESTRA       : /12370/11371/11313
ACEL. MAX.(Gal), C7-C12                : 
ACEL. MAX., C7-C12,EN LA MUESTRA       : 
UNIDADES DE LOS DATOS                  : Gal (cm/s/s)
FACTOR DE DECIMACION                   : 1
FORMATO DATOS (FORTRAN,16 campos/dato) : 3E16.7


================================================================================
CALIDAD DEL ACELEROGRAMA:
REGISTRO DIGITAL COMPLETO CON TIEMPO ABSOLUTO CORRECTO


================================================================================
COMENTARIOS:














================================================================================
DATOS DE ACELERACION:
---------+---------+---------+---------+---------+---------+---------+---------+
   CANAL-1   	     CANAL-2          CANAL-3
     N90E              N00E              V
---------+---------+---------+---------+---------+---------+---------+---------+
[...]
   8.4950500e-02   7.6744500e-02   8.6609800e-02
   1.4627200e-01   1.0899700e-01   8.9418900e-02
   1.7810300e-01   1.2512400e-01   8.6843900e-02
   1.5797500e-01   1.4335300e-01   9.3164400e-02
   9.9461800e-02   1.6321900e-01   5.9455400e-02
   3.9778500e-02   1.3494000e-01   3.5344200e-02
   3.2756900e-02   4.7763800e-02   3.3003300e-02
   1.0086600e-01  -2.3051900e-02   1.6617000e-02
   1.5071900e-01  -1.0431300e-02   1.0530700e-02
   1.6920900e-01   3.1170000e-02   3.2739200e-03
   1.4299500e-01   1.5277400e-02   1.1701100e-02
   7.8631100e-02   3.3507200e-02   3.2739200e-03
   9.8525600e-02  -6.9255900e-03   9.5943400e-03
   1.1701600e-01  -1.1794000e-01   1.1935200e-02
   1.5376200e-01  -1.5533500e-01   6.5511700e-03
   2.1344500e-01  -1.1256500e-01  -1.1737800e-03
   2.2304100e-01  -8.8024800e-02   6.5511700e-03
   1.5680500e-01  -8.8959600e-02   1.4276100e-02
   1.0133400e-01  -5.0864100e-02  -1.4048700e-02
   1.0086600e-01  -1.4528500e-01  -1.5219200e-02
   9.7589400e-02  -2.2708500e-01  -4.6851300e-03
   1.1210100e-01  -2.1563300e-01  -3.5146800e-03
   1.3597400e-01  -2.1119300e-01  -1.7560100e-02
   1.2778200e-01  -2.0067600e-01  -1.1005600e-02
   3.4161200e-02  -2.0044200e-01  -2.4582800e-02
  -5.3935900e-03  -2.2989000e-01  -1.4048700e-02
  -1.0074600e-02  -3.2758300e-01   2.7619200e-02
  -2.3415600e-02  -3.6965200e-01   4.5644100e-02
   7.7133300e-03  -3.5446000e-01   6.2264500e-02
   4.7502200e-02  -3.2664800e-01   5.6412300e-02
   3.9684900e-03  -3.0608100e-01   4.8687300e-02
  -9.9950700e-02  -2.7336100e-01   2.4810200e-02
  -1.2967500e-01  -3.0865200e-01   3.3471500e-02
  -1.4793100e-01  -4.4397300e-01   3.9557800e-02
  -1.4816500e-01  -4.3742900e-01   3.6748700e-02
  -1.0978100e-01  -3.8460900e-01   4.9155500e-02
  -8.2396800e-02  -3.7152100e-01   7.7012200e-02
  -1.7789000e-01  -3.1449500e-01   1.0884800e-01
  -2.5489300e-01  -2.9392800e-01   9.7378000e-02
  -2.3733900e-01  -3.4698100e-01   1.0323000e-01
  -2.2727500e-01  -4.1382400e-01   1.1118900e-01
  -2.0995500e-01  -4.0470900e-01   1.1259400e-01
  -1.8374100e-01  -3.3856800e-01   1.0299600e-01
  -1.5167600e-01  -3.0280900e-01   8.7546200e-02
  -2.3804100e-01  -2.6868700e-01   6.6712200e-02
  -3.0778900e-01  -2.3549900e-01   5.0325900e-02
  -2.8134100e-01  -2.9486300e-01   4.7048700e-02
  -2.5302100e-01  -3.5586200e-01   4.7516900e-02
  -2.3757300e-01  -3.1870200e-01   4.0728300e-02
  -1.9989100e-01  -2.7336100e-01   9.8284300e-03
  -2.2821100e-01  -2.8387800e-01   8.4238900e-03
  -3.0591700e-01  -2.6331100e-01   9.5943400e-03
  -3.0240600e-01  -2.6284400e-01   2.3873800e-02
  -2.9959700e-01  -3.5983600e-01   3.8621500e-02
  -2.4131800e-01  -3.9536000e-01   3.4407800e-02
  -1.9216700e-01  -3.7479300e-01   2.5512400e-02
  -1.7484700e-01  -3.8063600e-01   3.0896500e-02
  -2.1253000e-01  -3.4721500e-01   4.6814600e-02
  -2.5278700e-01  -3.3529600e-01   3.6748700e-02
  -2.4365900e-01  -3.8227200e-01   4.5410100e-02
  -2.3289200e-01  -4.5262100e-01   4.8453200e-02
  -1.8491200e-01  -4.8954800e-01   4.4473700e-02
  -1.3927100e-01  -4.3789700e-01   4.3069200e-02
  -9.9248500e-02  -4.3555900e-01   4.3303300e-02
  -1.7742200e-01  -4.0494300e-01   3.3471500e-02
  -2.0691300e-01  -3.8414200e-01   3.0662400e-02
  -1.7040000e-01  -4.7505700e-01   4.9857800e-02
  -1.4535700e-01  -5.3301900e-01   7.4437200e-02
  -7.9354100e-02  -5.0801100e-01   8.4971200e-02
  -1.5925900e-02  -4.5332200e-01   9.0121200e-02
   5.3728100e-03  -4.2714600e-01   1.0533700e-01
  -6.0864000e-02  -3.6030300e-01   8.6843900e-02
  -5.0565700e-02  -3.4931800e-01   8.2396200e-02
  -9.4660100e-04  -4.1803100e-01   7.4671300e-02
   4.3055200e-02  -4.2340600e-01   5.8050900e-02
   9.1035900e-02  -3.6053700e-01   3.7216900e-02
   1.3714400e-01  -3.1145700e-01   1.7787500e-02
   1.0180200e-01  -2.8341100e-01   6.5511700e-03
   3.7906100e-02  -2.2521600e-01  -1.2410100e-02
   6.9035000e-02  -2.3129200e-01  -1.0069200e-02
   7.7929000e-02  -2.7639900e-01  -6.7919400e-03
   1.1701600e-01  -2.5840300e-01  -3.0465000e-03
   1.6710300e-01  -2.0090900e-01  -2.0603200e-02
   1.7014600e-01  -1.6935800e-01  -2.6689600e-02
   1.1537700e-01  -1.0648800e-01  -3.4648600e-02
   6.9035000e-02  -4.8994300e-02  -3.6755400e-02
   8.1205700e-02  -8.8959600e-02  -1.9432800e-02
   1.2193100e-01  -8.7323600e-02  -2.7157700e-02
   1.4369800e-01  -2.8894800e-02  -4.5182600e-02
   1.6078300e-01   2.9300300e-02  -5.6418900e-02
   1.4837900e-01   1.0923100e-01  -5.5716700e-02
   3.2054800e-02   1.8775900e-01  -8.0998400e-02
   9.5857500e-03   2.1744100e-01  -8.6148300e-02
   3.5565500e-02   1.8472100e-01  -9.5980100e-02
   1.8713800e-02   1.4405400e-01  -1.0300300e-01
   4.2587100e-02   2.2234900e-01  -8.8489200e-02
   6.2247500e-02   3.1209600e-01  -6.9293900e-02
  -1.1806500e-03   3.3500000e-01  -4.8225800e-02
  -7.4439000e-02   4.3245900e-01  -5.5950800e-02
  -7.7481700e-02   4.0698400e-01  -4.9864400e-02
  -6.7885500e-02   3.2214600e-01  -2.9732700e-02
  -4.1905700e-02   3.8150900e-01  -1.2644200e-02
  -8.6703200e-03   4.3806800e-01  -1.3814600e-02
  -4.4573800e-03   4.8901800e-01   2.8057400e-03
  -6.4140700e-02   5.4347400e-01  -1.1737800e-03
  -1.1563200e-01   5.5913300e-01   2.3075300e-04
  -1.1937700e-01   5.2220600e-01   2.5512400e-02
  -8.9184300e-02   4.8691500e-01   1.7553400e-02
  -7.3502800e-02   4.9579600e-01   2.2703400e-02
  -3.3011700e-02   5.1846600e-01   1.8723800e-02
  -1.3819500e-02   5.3576100e-01   2.1298800e-02
  -1.1797300e-01   5.5866500e-01   4.1196400e-02
  -1.3927100e-01   5.4137000e-01   6.7882700e-02
  -9.0354500e-02   4.6003800e-01   8.1459900e-02
  -6.8587700e-02   3.9553200e-01   1.0346400e-01
  -2.3415600e-02   4.2474700e-01   1.1891400e-01
   3.1118500e-02   4.4414500e-01   1.2663900e-01
  -2.0138900e-02   4.2848600e-01   1.4560000e-01
  -8.9652400e-02   4.9042100e-01   1.3530000e-01
  -8.4737300e-02   4.0020600e-01   1.4887800e-01
  -7.8651900e-02   2.8358300e-01   1.6994600e-01
  -4.1905700e-02   3.0344800e-01   1.7415900e-01
  -2.7628500e-02   2.8381600e-01   1.7626600e-01
  -3.9097100e-02   2.8334900e-01   2.0412300e-01
  -9.0822600e-02   2.9760500e-01   2.0061200e-01
  -1.5729300e-01   2.8545200e-01   1.9078000e-01
  -1.6291100e-01   1.9009600e-01   2.1699800e-01
  -1.2920700e-01   8.5859400e-02   2.1653000e-01
  -1.3108000e-01   8.8664000e-02   2.2659500e-01
  -8.2396800e-02   1.1039900e-01   2.2238200e-01
  -7.8183800e-02   8.5859400e-02   2.2097700e-01
  -2.0972100e-01   1.0128500e-01   2.1653000e-01
  -1.9778400e-01   1.1367100e-01   2.0716600e-01
  -1.9216700e-01   7.0973300e-03   2.0810200e-01
  -1.9474200e-01  -4.7592000e-02   1.9733400e-01
  -1.1376000e-01   2.3223700e-02   1.6432800e-01
  -1.0767400e-01   1.7147100e-02   1.4864400e-01
  -1.5542100e-01   4.2927500e-03   1.4419600e-01
  -2.0738100e-01   6.7863300e-02   1.1493500e-01
  -2.2587100e-01  -6.2244400e-03   1.1727600e-01
  -1.9216700e-01  -6.4887000e-02   1.0299600e-01
  -1.3271800e-01  -4.9461800e-02   8.3800800e-02
  -9.6439900e-02  -5.2500100e-02   5.8519100e-02
  -4.6352700e-02   3.8253200e-03   4.6814600e-02
  -8.0992400e-02   2.0185400e-02   2.7385200e-02
  -1.3365400e-01   3.3039700e-02  -2.8124100e-03
  -1.0299300e-01   3.1637400e-02  -1.1239600e-02
  -4.6820800e-02  -3.4737700e-02  -5.2439400e-02
   1.3939200e-03   1.3641400e-02  -8.7552900e-02
   6.0609100e-02   6.7863300e-02  -1.3530700e-01
   7.7460900e-02   5.6411300e-02  -1.6129100e-01
  -1.1478900e-02   1.4078200e-01  -1.8961600e-01
  -1.5691900e-02   1.2676000e-01  -2.1068400e-01
   9.5857500e-03   6.6694700e-02  -1.9734100e-01
   6.6226400e-02   6.9265600e-02  -2.1208900e-01
   1.2825000e-01   1.1881300e-01  -2.3362500e-01
   1.5282600e-01   1.8846000e-01  -2.4486100e-01
   1.4323000e-01   2.0669000e-01  -2.6756800e-01
   1.1069600e-01   3.0134500e-01  -2.8629500e-01
   1.3410100e-01   2.9760500e-01  -2.7997500e-01
   1.5212400e-01   2.6628800e-01  -3.0759700e-01
   2.0712600e-01   3.0788900e-01  -3.3358100e-01
   2.6376600e-01   3.4060900e-01  -3.3475200e-01
   2.9232100e-01   4.0114100e-01  -3.1344900e-01
   2.3076500e-01   4.5629800e-01  -3.0268100e-01
   1.8325200e-01   5.1239000e-01  -2.8418800e-01
   2.0876400e-01   4.9439400e-01  -2.4439300e-01
   2.2350900e-01   4.8598000e-01  -2.4743600e-01
   2.6283000e-01   5.0000300e-01  -2.2730400e-01
   3.3819500e-01   5.4534400e-01  -2.0647000e-01
   3.1993900e-01   5.6474200e-01  -1.9804300e-01
   2.1157300e-01   5.7058500e-01  -1.8774300e-01
   2.1976500e-01   5.9325500e-01  -1.6129100e-01
   2.2678600e-01   5.0234000e-01  -1.3881900e-01
   2.4387200e-01   4.8855100e-01  -1.1938900e-01
   2.8834200e-01   5.3926700e-01  -9.6916500e-02
   3.1385400e-01   5.4440900e-01  -9.1766500e-02
   2.5651100e-01   5.1168900e-01  -7.7721100e-02
   1.5095300e-01   5.0981900e-01  -9.2234700e-02
   1.2848400e-01   4.6284200e-01  -7.0698400e-02
   1.0952600e-01   3.5486600e-01  -5.1269000e-02
   1.3597400e-01   3.5369700e-01  -5.1971200e-02
   1.6289000e-01   3.4621800e-01  -4.2373600e-02
   1.5142100e-01   3.0788900e-01  -2.2007800e-02
   4.5161700e-02   2.9503500e-01  -1.1941900e-02
  -4.0033300e-02   2.4875900e-01  -1.3112400e-02
  -2.5288000e-02   1.5176700e-01   2.0128400e-02
  -4.0033300e-02   6.3189000e-02   4.1430500e-02
  -3.5118200e-02   3.4909400e-02   5.2198700e-02
  -1.1806500e-03   4.1453500e-02   4.2132800e-02
  -9.3724800e-03   9.2007700e-03   3.3939700e-02
  -1.0580200e-01  -2.6557700e-02   3.6280600e-02
  -1.6689000e-01  -5.5538400e-02   4.3771400e-02
  -1.8491200e-01  -1.4177900e-01   3.5344200e-02
  -1.8093300e-01  -2.3549900e-01   2.3405600e-02
  -1.4910200e-01  -2.3549900e-01   2.0596600e-02
  -1.4559100e-01  -2.5933800e-01   2.4576100e-02
  -2.1440200e-01  -3.0654900e-01   3.3003300e-02
  -3.0381000e-01  -2.9416200e-01   3.6748700e-02
  -3.0661900e-01  -3.7876700e-01   5.4071400e-02
  -2.7244700e-01  -4.7038300e-01   4.4239600e-02
  -2.5021200e-01  -5.3208400e-01   4.2366900e-02
  -2.1276400e-01  -5.2974700e-01   2.9023800e-02
  -1.9029500e-01  -5.2927900e-01   1.4744300e-02
  -2.5817000e-01  -5.9168100e-01  -1.3112400e-02
  -2.8274500e-01  -6.0173100e-01  -3.5819100e-02
  -2.7759600e-01  -6.8984200e-01  -3.2307700e-02
  -2.8087300e-01  -7.7094100e-01  -5.5248500e-02
  -2.4365900e-01  -7.7070700e-01  -6.5080300e-02
  -1.7344300e-01  -8.0085600e-01  -8.5914200e-02
  -2.0059300e-01  -8.2796700e-01  -7.6082500e-02
  -3.1036400e-01  -8.4058800e-01  -7.0932500e-02
  -2.9187300e-01  -8.7564500e-01  -6.8357500e-02
  -2.7712800e-01  -9.7544200e-01  -5.5716700e-02
  -2.3359400e-01  -1.0399500e+00  -6.3675700e-02
  -1.6454900e-01  -9.7053400e-01  -6.4143900e-02
  -1.1352600e-01  -1.0041900e+00  -7.1166600e-02
  -1.3388800e-01  -1.0252200e+00  -6.3441600e-02
  -1.9450800e-01  -9.4996700e-01  -6.4846200e-02
  -1.5448500e-01  -1.0240500e+00  -5.5248500e-02
  -1.5542100e-01  -1.0651900e+00  -5.0566700e-02
  -9.9014500e-02  -1.0544400e+00  -6.0632600e-02
   7.9473800e-03  -1.0055900e+00  -6.2505300e-02
   2.2224600e-02  -9.5674400e-01  -4.7055400e-02
  -4.3778100e-02  -9.5160300e-01  -4.9630300e-02
  -7.9822200e-02  -8.8639600e-01  -5.5014400e-02
  -4.7288900e-02  -9.2589400e-01  -2.7391800e-02
  -1.1947100e-02  -9.6258700e-01  -1.8262300e-02
   1.3096500e-02  -9.1117000e-01  -1.9432800e-02
   7.9801400e-02  -8.6068700e-01  -3.5116800e-02
   1.1116400e-01  -8.0950400e-01  -3.4180400e-02
   1.8947800e-02  -7.6392900e-01  -4.1203100e-02
   3.0884500e-02  -7.4009000e-01  -3.6755400e-02
   7.0673400e-02  -7.6673400e-01  -3.3010000e-02
   6.1311300e-02  -8.0179100e-01  -4.8928100e-02
   1.1584500e-01  -7.0620200e-01  -5.6887100e-02
   1.8231600e-01  -6.3094500e-01  -6.6718900e-02
   1.3012300e-01  -6.2276500e-01  -6.3675700e-02
   4.8438400e-02  -5.0684300e-01  -8.0764300e-02
   7.6992800e-02  -5.5311800e-01  -7.8423400e-02
   8.9631600e-02  -5.9098000e-01  -5.9930300e-02
   1.1514300e-01  -5.4003000e-01  -3.6053100e-02
   1.5891100e-01  -5.1502300e-01  -1.8730500e-02
   1.7506100e-01  -4.2083500e-01  -1.2644200e-02
   1.3293100e-01  -3.8344100e-01  -7.7283000e-03
   9.6185000e-02  -3.3038800e-01   6.7852600e-03
   1.2310100e-01  -3.2664800e-01   3.8855500e-02
   1.6218800e-01  -3.5329200e-01   4.3537300e-02
   1.9425300e-01  -3.0421100e-01   3.5344200e-02
   2.4527600e-01  -2.6868700e-01   4.4005500e-02
   2.4972300e-01  -2.2334600e-01   7.6075800e-02
   1.6078300e-01  -1.5440000e-01   9.0823500e-02
   1.4837900e-01  -1.2915900e-01   1.0697600e-01
   1.6850700e-01  -1.5697100e-01   1.1423200e-01
   1.8887000e-01  -1.8081000e-01   1.2148900e-01
   2.2023300e-01  -1.1864100e-01   1.3296000e-01
   2.5346800e-01  -9.5737400e-02   1.2874600e-01
   2.1789200e-01  -9.1063100e-02   1.3623700e-01
   1.3878300e-01  -3.1232000e-02   1.4115300e-01
   1.5282600e-01  -7.3534400e-02   1.6526400e-01
   1.6265600e-01  -9.0829400e-02   1.9171600e-01
   1.9682700e-01  -7.2599600e-02   2.0693200e-01
   2.6283000e-01  -1.6274200e-02   2.0154800e-01
   2.6797900e-01   2.6028300e-02   1.9733400e-01
   1.9706200e-01   4.5894100e-02   1.7135000e-01
   1.3901700e-01   9.0767400e-02   1.5941200e-01
   1.4205900e-01   1.8549400e-02   1.8539600e-01
   1.5820900e-01   3.1241700e-03   1.9007700e-01
   1.4931500e-01   5.5009000e-02   1.9335500e-01
   1.6452800e-01   9.2637100e-02   1.9312100e-01
   1.6265600e-01   1.2582500e-01   2.0623000e-01
   5.2651300e-02   1.3961400e-01   2.0154800e-01
   1.8620200e-03   1.5550700e-01   2.1091100e-01
   3.8374200e-02   7.2771300e-02   2.2636100e-01
   4.0012500e-02   2.5093400e-02   2.0833600e-01
   4.8438400e-02   1.1484000e-01   1.8118200e-01
   1.1022800e-01   1.2605800e-01   1.6128400e-01
   5.1013000e-02   1.4358700e-01   1.4279100e-01
  -4.7523000e-02   2.0201600e-01   1.0440100e-01
  -4.8459200e-02   1.5083200e-01   7.8650800e-02
  -3.9799300e-02   1.0245300e-01   5.5710000e-02
  -1.1947100e-02   8.1652500e-02   2.6917000e-02
  -2.1777200e-02   1.4522300e-01   7.2534400e-03
  -1.4521600e-02   1.7794300e-01   1.4510200e-02
  -5.6651000e-02   1.9149900e-01  -2.1101400e-03
  -1.6548500e-01   2.6862500e-01  -1.4751000e-02
  -1.4722900e-01   1.9874400e-01  -3.2805900e-03
  -1.1469600e-01   1.5293600e-01   4.2102800e-03
  -1.2593000e-01   1.9734200e-01  -7.0260300e-03
  -6.1098000e-02   2.7072800e-01  -4.5182600e-02
  -7.7247600e-02   3.0765500e-01  -5.2205300e-02
  -1.6665600e-01   3.3990800e-01  -8.0764300e-02
  -1.7320900e-01   4.1750100e-01  -8.6850600e-02
  -1.6595300e-01   3.5790400e-01  -7.8891600e-02
  -1.4044200e-01   3.4855500e-01  -9.9491400e-02
  -1.1095100e-01   4.4180800e-01  -1.1611200e-01
  -1.0580200e-01   4.6354300e-01  -1.2594400e-01
  -1.7461300e-01   5.3739700e-01  -1.3858400e-01
  -2.4716900e-01   5.9348900e-01  -1.6644100e-01
  -2.4857400e-01   5.3856600e-01  -1.6222700e-01
  -2.2985000e-01   5.1215600e-01  -1.6035500e-01
  -1.9427400e-01   5.0514500e-01  -1.6690900e-01
  -1.5448500e-01   5.6684500e-01  -1.6152500e-01
  -1.2499400e-01   5.9933200e-01  -1.4092500e-01
  -1.9333700e-01   6.1826300e-01  -1.5099100e-01
  -2.2493500e-01   6.7201700e-01  -1.7463400e-01
  -1.5448500e-01   5.8975000e-01  -1.5333200e-01
  -1.2288800e-01   5.4674600e-01  -1.3039100e-01
  -7.4439000e-02   6.0727800e-01  -1.4256400e-01
   4.5771200e-04   6.2667700e-01  -1.4841600e-01
  -3.1841500e-02   6.5098300e-01  -1.1517500e-01
  -9.7376100e-02   7.1174900e-01  -1.2758200e-01
  -8.2864900e-02   6.9141600e-01  -1.1915500e-01
  -6.4842800e-02   6.1405600e-01  -6.8825700e-02
  -2.8330700e-02   5.8460800e-01  -5.3375800e-02
