**************************************************************************************
  	RED ACELEROGRÁFICA DE LA UNIVERSIDAD AUTONOMA METROPOLITANA (RA-UAM)
	   UNIDAD AZCAPOTZALCO. DIVISIÓN CBI-DEPARTAMENTO DE MATERIALES
     Av. San Pablo 420, Col. Nueva el Rosario, Azcapotzalco, C.P. 02128, Ciudad de México
		Área de Estructuras. e-mail: agb@azc.uam.mx
**************************************************************************************
ARCHIVO ESTANDAR DE ACELERACION:
VERSION DEL FORMATO                    : 2.0
NOMBRE DEL ARCHIVO                     : RUML202303.301
FECHA Y HORA DE CREACION               : 11:30 a. m. 06/04/2023
REF. CATALOGO ACELEROGRAMAS, SMIS 1999 : REGISTRO NO.      /PAG.    


================================================================================
DATOS DE LA ESTACION:
NOMBRE DE LA ESTACION                  : UAM-LERMA.
CLAVE DE LA ESTACION                   : RUML
LOCALIZACION DE LA ESTACION            : AV. DE LAS GARZAS 10, EL PANTEON, C.P.52005,
                                       : LERMA DE VILLADA, ESTADO DE MEXICO.   
                                       : 
                                       : 
                                       : 
COORDENADAS DE LA ESTACION             : 19.291278 LAT. N
                                       : 99.500578 LONG. W
ALTITUD (msnm)                         : 2570
TIPO DE SUELO                          : DEPOSITOS LACUSTRES
                                       : 
                                       : 
INSTITUCION RESPONSABLE                : UNIVERSIDAD AUTONOMA METROPOLITANA
                                       : 

================================================================================
DATOS DEL ACELEROGRAFO: 
MODELO DEL ACELEROGRAFO                : ETNA2 KINEMETRICS
NUMERO DE SERIE DEL ACELEROGRAFO       : 103733
NUMERO DE CANALES                      : 3
ORIENTACION C1-C6 (rumbo;orientacion)  : /N90E/N00E/V 
ORIENTACION C7-C12 (rumbo;orientacion) : 
VEL. DE MUESTREO, C1-C6 (muestras/s)   : /200/200/200
VEL. DE MUESTREO, C7-C12 (muestras/s)  : 
ESC. COMPLETA DE SENSORES, C1-C6, (g)  : /2/2/2
ESC. COMPLETA DE SENSORES, C7-C12 (g)  : 
FREC. NAT. DE SENSORES, C1-C6, (Hz)    : /212/206/208   
FREC. NAT. DE SENSORES, C7-C12 (Hz)    : 
AMORTIGUAMIENTO DE SENSORES, C1-C6     : /0.7/0.7/0.7      
AMORTIGUAMIENTO DE SENSORES, C7-C12    : 
INTERVALO DE MUESTREO, C1-C6 (s)       : /0.005/0.005/0.005
INTERVALO DE MUESTREO, C7-C12 (s)      : 
UMBRAL DE DISPARO, C1-C6 (Gal)         : /2/2/2
UMBRAL DE DISPARO, C7-C12 (Gal)        : 
MEMORIA DE PREEVENTO (s)               : 50
TIEMPO DE POSEVENTO (s)                : 60


================================================================================
DATOS DEL SISMO:
FECHA DEL SISMO [GMT]                  : 2023/03/30
HORA EPICENTRO (GMT)                   : 15:46:16
MAGNITUD(ES)                           : /M=4.5
COORDENADAS DEL EPICENTRO              : 16.8400 LAT. N
                                       : -100.1400 LONG. W
PROFUNDIDAD FOCAL (Km)                 : 14.0
FUENTE DE LOS DATOS EPICENTRALES       : SSN
                                       : INSTITUTO DE GEOFISICA, UNAM

================================================================================
DATOS DE ESTE REGISTRO:
HORA DE LA PRIMERA MUESTRA (GMT)       : 15:46:48.000
EXACTITUD DEL TIEMPO (s)               : 
DURACION DEL REGISTRO (s), C1-C6       : /132/132/132
DURACION DEL REGISTRO (s), C7-C12      : 
NUM. TOTAL DE MUESTRAS, C1-C6          : /26400/326400/26400
NUM. TOTAL DE MUESTRAS, C7-C12         : 
ACEL. MAX.(Gal), C1-C6                 : /0.398/0.561/0.209
ACEL. MAX., C1-C6, EN LA MUESTRA       : /10358/10038/11166
ACEL. MAX.(Gal), C7-C12                : 
ACEL. MAX., C7-C12,EN LA MUESTRA       : 
UNIDADES DE LOS DATOS                  : Gal (cm/s/s)
FACTOR DE DECIMACION                   : 1
FORMATO DATOS (FORTRAN,16 campos/dato) : 3E16.7


================================================================================
CALIDAD DEL ACELEROGRAMA:
REGISTRO DIGITAL COMPLETO CON TIEMPO ABSOLUTO CORRECTO


================================================================================
COMENTARIOS:














================================================================================
DATOS DE ACELERACION:
---------+---------+---------+---------+---------+---------+---------+---------+
   CANAL-1   	     CANAL-2          CANAL-3
     N90E              N00E              V
---------+---------+---------+---------+---------+---------+---------+---------+
[...]
   2.3042900e-01   5.1459700e-02   2.4542300e-02
   2.3674900e-01   6.0574600e-02   4.6312600e-02
   2.1474800e-01   6.7586000e-02   5.8017100e-02
   1.5295800e-01   6.6417500e-02   4.7014900e-02
   1.3563800e-01   2.8789300e-02   3.6012700e-02
   1.6723500e-01   1.8505800e-02   4.1630900e-02
   1.7144800e-01   3.3463600e-02   4.8653500e-02
   1.1410500e-01   4.6785400e-02   4.7717200e-02
   7.9699700e-02   3.7904200e-02   4.7483100e-02
   8.2040200e-02   2.5517300e-02   4.1864900e-02
   7.9465600e-02   2.6452200e-02   3.6715000e-02
   7.4550500e-02   1.6168700e-02   4.2099000e-02
   6.0273400e-02   2.5517300e-02   6.3869400e-02
   8.0797300e-03   3.6034500e-02   5.2164900e-02
  -3.2411300e-02   6.1189200e-03   2.6649100e-02
   1.7909900e-02  -1.7953800e-02   3.7417200e-02
   3.7336200e-02  -1.0942300e-02   4.0694500e-02
  -4.7390600e-02   4.2325500e-05   3.7183100e-02
  -7.5710900e-02   1.2109000e-03   2.4542300e-02
  -4.8092800e-02  -2.7302400e-02   1.5178700e-02
  -6.0263500e-02  -5.2777300e-02   1.6349200e-02
  -6.7753200e-02  -4.0156700e-02   2.6180900e-02
  -9.0222200e-02  -2.9172100e-02   4.0694500e-02
  -1.4218200e-01  -3.0808100e-02   2.5010500e-02
  -1.5552300e-01  -5.2076200e-02   1.9392300e-02
  -1.2416000e-01  -5.8152800e-02   3.0628600e-02
  -1.2322400e-01  -3.2911500e-02   3.2033200e-02
  -1.8899200e-01  -2.8704700e-02   2.8755900e-02
  -2.1941900e-01  -2.0992000e-02   1.6583300e-02
  -2.0444000e-01  -2.6133800e-02   1.0496900e-02
  -2.0678000e-01  -5.0440200e-02   1.1433300e-02
  -2.1310000e-01  -3.4781300e-02   1.5412800e-02
  -2.3159000e-01  -1.4448000e-02   2.3371900e-02
  -2.6903800e-01  -1.7720000e-02   2.0697000e-03
  -2.8706000e-01  -2.7769800e-02  -1.5487000e-02
  -2.4516500e-01  -3.7819500e-02  -4.9529900e-03
  -2.3322800e-01  -1.6785200e-02  -1.2443900e-02
  -2.9946500e-01   8.6897900e-03  -2.5787000e-02
  -3.1748700e-01   2.1457600e-03  -4.3109600e-02
  -2.8378300e-01  -1.3513200e-02  -5.4580000e-02
  -2.7231500e-01  -2.9873200e-02  -5.7857300e-02
  -2.6693200e-01  -1.1643400e-02  -6.0900400e-02
  -2.8799600e-01   1.2663000e-02  -5.5516400e-02
  -3.2240200e-01   1.3364100e-02  -7.8691200e-02
  -3.1304000e-01  -2.9959700e-03  -9.2970700e-02
  -2.5710100e-01  -1.4214300e-02  -8.0798000e-02
  -2.3486600e-01   1.5233800e-02  -8.3138900e-02
  -3.1023100e-01   3.2061300e-02  -9.3204800e-02
  -3.2755100e-01   3.4398500e-02  -1.0959100e-01
  -2.7114500e-01   3.2061300e-02  -1.1731600e-01
  -2.7582600e-01   1.5233800e-02  -1.0771800e-01
  -2.9501800e-01   4.6318000e-02  -9.4843400e-02
  -3.0297600e-01   8.1609000e-02  -8.6650300e-02
  -3.2989200e-01   6.7819800e-02  -8.6650300e-02
  -3.4838200e-01   7.2494100e-02  -8.1968500e-02
  -3.0508200e-01   6.5950000e-02  -6.1602700e-02
  -2.9478400e-01   7.0624300e-02  -4.6621000e-02
  -3.6219100e-01   1.0381200e-01  -3.9832400e-02
  -3.7576600e-01   9.3762200e-02  -2.8596000e-02
  -3.4299900e-01   6.4314000e-02  -2.1807400e-02
  -3.2731700e-01   5.4731700e-02  -1.2443900e-02
  -3.4112600e-01   6.3379200e-02   5.8151300e-03
  -3.5306300e-01   7.6467200e-02   1.7753700e-02
  -3.6617000e-01   5.9406000e-02   1.1433300e-02
  -3.6897800e-01   1.9674400e-02   7.9219400e-03
  -3.0929500e-01   1.5935000e-02   2.1265100e-02
  -2.9642200e-01   1.2896700e-02   3.8353600e-02
  -3.5446700e-01   1.8739500e-02   3.9055900e-02
  -3.5587100e-01   4.2325500e-05   3.2267300e-02
  -3.0016700e-01  -3.7352100e-02   2.5946800e-02
  -2.7137900e-01  -3.8520700e-02   1.8221900e-02
  -2.8050700e-01  -4.1792700e-02   2.6883200e-02
  -2.8706000e-01  -2.9873200e-02   2.7351400e-02
  -2.8425100e-01  -4.2961300e-02   3.0060600e-03
  -2.6295300e-01  -6.8202500e-02  -8.2302500e-03
  -2.1239700e-01  -6.9137400e-02  -2.8461800e-03
  -2.0888700e-01  -6.6332800e-02  -8.6984300e-03
  -2.5944200e-01  -6.1892200e-02  -2.8596000e-02
  -2.4305800e-01  -7.6850000e-02  -4.6855000e-02
  -1.8688600e-01  -9.6715800e-02  -5.4111800e-02
  -1.7284300e-01  -9.8585500e-02  -4.9898200e-02
  -1.8103400e-01  -1.0255900e-01  -3.7491500e-02
  -1.8782200e-01  -8.5497500e-02  -4.6152800e-02
  -1.8782200e-01  -1.0068900e-01  -6.8157200e-02
  -1.6628900e-01  -1.4252400e-01  -6.5114000e-02
  -1.0918000e-01  -1.3714900e-01  -4.3109600e-02
  -1.1339300e-01  -1.2078800e-01  -2.9064200e-02
  -1.7331100e-01  -1.1891900e-01  -3.3980100e-02
  -1.5786300e-01  -1.4556200e-01  -3.3980100e-02
  -9.6307500e-02  -1.6589600e-01  -2.1573400e-02
  -8.1328200e-02  -1.7314100e-01  -3.0802700e-03
  -1.1456400e-01  -1.5280700e-01   1.8456000e-02
  -1.1573400e-01  -1.4392600e-01   2.0562800e-02
  -9.8882100e-02  -1.7501000e-01   9.5605700e-03
  -8.2732500e-02  -1.8342400e-01   1.2369600e-02
  -3.0304800e-02  -1.7734800e-01   2.5244600e-02
  -2.7262100e-02  -1.7968500e-01   3.2735400e-02
  -6.2838100e-02  -1.7898400e-01   2.8755900e-02
  -3.0772900e-02  -1.9370800e-01   2.5712800e-02
   3.2655200e-02  -2.1918300e-01   3.7183100e-02
   5.5124200e-02  -2.2175300e-01   4.6312600e-02
   3.3825500e-02  -2.0632800e-01   5.3101200e-02
   5.7230700e-02  -2.0001800e-01   5.5442100e-02
   8.4848800e-02  -2.3694500e-01   5.8485300e-02
   9.3976900e-02  -2.5073400e-01   7.0892100e-02
   1.4617100e-01  -2.3227100e-01   7.6276100e-02
   1.4476600e-01  -2.3086800e-01   7.6744300e-02
   1.0427500e-01  -2.3507500e-01   6.2230700e-02
   1.1808400e-01  -2.4652700e-01   4.4674000e-02
   1.8127800e-01  -2.5447400e-01   4.0226300e-02
   1.9204500e-01  -2.5237000e-01   3.4374100e-02
   1.3774500e-01  -2.4582600e-01   3.1565000e-02
   1.4570200e-01  -2.2549300e-01   1.6349200e-02
   1.6208600e-01  -2.4652700e-01   1.1333400e-03
   1.6372400e-01  -2.7293700e-01   8.8583000e-03
   2.0398100e-01  -2.3320600e-01   2.3840000e-02
   1.8432100e-01  -2.1450800e-01   1.9158200e-02
   1.3283000e-01  -2.3040100e-01  -4.2507200e-03
   1.5272400e-01  -2.2946600e-01  -7.9961600e-03
   1.9953400e-01  -2.2502500e-01  -2.8461800e-03
   1.9930000e-01  -2.3133600e-01   1.1901500e-02
   1.5014900e-01  -2.0071900e-01   2.4542300e-02
   1.5272400e-01  -1.9090300e-01   2.3840000e-02
   1.6746900e-01  -2.1661200e-01   3.5544500e-02
   1.6091600e-01  -2.0960000e-01   5.4271700e-02
   1.8759800e-01  -2.0819800e-01   7.8148800e-02
   1.5904300e-01  -1.8973400e-01   8.7512400e-02
   1.1668000e-01  -1.7875000e-01   8.6107900e-02
   1.3610600e-01  -2.0375700e-01   9.6876000e-02
   1.8081000e-01  -2.1123600e-01   1.0413300e-01
   1.7402300e-01  -2.0235500e-01   1.0834600e-01
   1.2604200e-01  -1.8482600e-01   1.1396500e-01
   1.3587200e-01  -1.8225600e-01   1.0109000e-01
   1.5810700e-01  -2.1053500e-01   9.5003300e-02
   1.6793700e-01  -2.0819800e-01   1.0483500e-01
   1.8057600e-01  -1.8763100e-01   1.1302800e-01
   1.6232000e-01  -1.8178800e-01   1.1654000e-01
   1.3446800e-01  -1.7991800e-01   1.0577100e-01
   1.6185200e-01  -1.9137000e-01   1.0296200e-01
   2.1287500e-01  -1.9627900e-01   1.0694200e-01
   1.9227900e-01  -1.8225600e-01   1.0460100e-01
   1.5787300e-01  -1.4860100e-01   9.9919200e-02
   1.7215000e-01  -1.5818300e-01   9.0789700e-02
   1.8268300e-01  -1.8809800e-01   8.2362500e-02
   1.8806600e-01  -1.7617900e-01   7.5339800e-02
   1.9461900e-01  -1.6729800e-01   7.2296600e-02
   1.7074600e-01  -1.6098800e-01   5.7080800e-02
   1.3517000e-01  -1.7875000e-01   3.8119500e-02
   1.6583100e-01  -1.8669600e-01   3.2267300e-02
   2.1474800e-01  -1.8132100e-01   3.3203600e-02
   1.7261800e-01  -1.9160400e-01   3.1096800e-02
   1.3072300e-01  -1.6215600e-01   2.2435500e-02
   1.5366000e-01  -1.6005300e-01   9.5605700e-03
   1.6325600e-01  -2.0142000e-01  -9.4007000e-03
   1.6466100e-01  -1.8506000e-01  -2.6120900e-03
   1.7566100e-01  -1.5397600e-01   1.6583300e-02
   1.4991500e-01  -1.5958500e-01   1.8456000e-02
   1.1316900e-01  -1.6753200e-01   2.2903700e-02
   1.2744600e-01  -1.7477700e-01   3.6012700e-02
   1.5857500e-01  -1.5537800e-01   4.5142200e-02
   1.2136100e-01  -1.4509500e-01   5.4505800e-02
   6.8465200e-02  -1.2219100e-01   6.2464800e-02
   7.4550500e-02  -9.9520400e-02   5.1930800e-02
   8.9763900e-02  -1.2149000e-01   5.2867200e-02
   8.4848800e-02  -1.0699900e-01   6.9487500e-02
   6.4018200e-02  -8.1524300e-02   7.1828400e-02
   2.7038000e-02  -4.8804200e-02   5.9889800e-02
  -4.0909800e-03  -4.8103000e-02   3.9992200e-02
   1.4399100e-02  -7.0306000e-02   3.5076300e-02
   4.2953500e-02  -4.7168200e-02   3.8119500e-02
   3.5600800e-04  -9.3062900e-03   3.3671800e-02
  -5.5114400e-02   7.4347100e-04   2.4308200e-02
  -3.8964800e-02  -1.7252600e-02   9.5605700e-03
  -1.9304400e-02  -2.7622600e-03   4.3107100e-04
  -3.3815600e-02   4.2492000e-03   3.9424200e-03
  -4.3411700e-02   2.6452200e-02   5.3469500e-03
  -6.4710500e-02   5.5666600e-02  -1.0805200e-02
  -8.8817900e-02   4.8888800e-02  -2.5552900e-02
  -6.7051000e-02   5.2862000e-02  -1.8296100e-02
  -3.3815600e-02   6.8520900e-02  -8.4643400e-03
  -7.6413100e-02   1.0942100e-01  -2.2743800e-02
  -1.2158500e-01   1.2811800e-01  -4.0768700e-02
  -9.5839400e-02   1.1900300e-01  -5.8559500e-02
  -6.4944500e-02   1.3092300e-01  -6.5348100e-02
  -6.4242400e-02   1.6200700e-01  -5.2941400e-02
  -6.8923400e-02   1.9799900e-01  -4.2641400e-02
  -8.4136800e-02   2.1903400e-01  -5.0132300e-02
  -9.7243700e-02   2.1599500e-01  -6.7923100e-02
  -4.6922500e-02   2.3095300e-01  -6.2070900e-02
  -1.3453100e-02   2.5549300e-01  -5.1536800e-02
  -5.2539800e-02   2.6998300e-01  -4.6621000e-02
  -6.3540200e-02   3.0597600e-01  -4.1236900e-02
  -1.4155200e-02   2.8891400e-01  -3.3043800e-02
   5.5051600e-03   2.7185300e-01  -1.3146100e-02
  -2.9207200e-03   3.1625900e-01   8.8583000e-03
   1.3228900e-02   3.3472300e-01   2.3840000e-02
   1.9943700e-03   3.3168400e-01   2.1967300e-02
  -6.4315100e-03   3.3215200e-01   1.4242400e-02
   4.4357800e-02   3.3378800e-01   1.9158200e-02
   8.7189400e-02   3.5084900e-01   2.3137800e-02
   5.4188000e-02   3.7445400e-01   2.2201400e-02
   2.3761200e-02   3.8450400e-01   7.9219400e-03
   6.8465200e-02   3.8497100e-01  -1.6189300e-02
   1.1223300e-01   3.8567300e-01  -1.0571100e-02
   1.0708400e-01   4.0857700e-01   4.3107100e-04
   9.6551400e-02   4.4527000e-01   1.1333400e-03
   1.0614800e-01   4.5882500e-01  -7.9961600e-03
   1.1082900e-01   4.3638900e-01  -9.4007000e-03
   1.3774500e-01   4.4643900e-01   6.9855800e-03
   1.7308700e-01   4.9177900e-01   9.7946600e-03
   1.3072300e-01   5.0440000e-01   5.5810400e-03
   1.0380700e-01   5.0627000e-01  -6.5916200e-03
   1.6208600e-01   5.0042700e-01  -1.3146100e-02
   1.8502300e-01   5.0440000e-01  -7.0598000e-03
   1.6302200e-01   5.2122700e-01   5.3469500e-03
   1.4780900e-01   5.3805500e-01   1.8221900e-02
   1.4102100e-01   5.4483300e-01   1.4242400e-02
   1.3376600e-01   5.2707000e-01   1.3071900e-02
   1.5506400e-01   5.3081000e-01   3.6246800e-02
   1.8010800e-01   5.5745300e-01   4.9121700e-02
   1.2814800e-01   5.6119300e-01   4.8653500e-02
   9.3274700e-02   5.4810500e-01   4.4674000e-02
   1.3072300e-01   5.3501700e-01   3.7417200e-02
   1.4804300e-01   5.2192900e-01   4.0460400e-02
   1.2393600e-01   5.2730400e-01   5.0292200e-02
   1.0076400e-01   5.2823900e-01   5.5910300e-02
   8.8359600e-02   5.1398200e-01   2.9926400e-02
   9.3274700e-02   4.8102800e-01   1.9158200e-02
   1.1785000e-01   4.5695600e-01   3.6480900e-02
   1.1808400e-01   4.6840800e-01   3.7885400e-02
   6.5656600e-02   4.7097900e-01   1.9860500e-02
   4.7400500e-02   4.3451900e-01   3.4742400e-03
   8.9529900e-02   3.9432000e-01   5.3469500e-03
   9.5615200e-02   3.9361900e-01  -2.1439200e-03
   6.8933300e-02   3.8169900e-01  -8.4643400e-03
   4.9741000e-02   3.7819400e-01  -1.3380200e-02
   4.4123800e-02   3.5295200e-01  -3.7023300e-02
   4.7634500e-02   3.1181900e-01  -5.0600500e-02
   7.2678100e-02   3.1181900e-01  -4.2875500e-02
   7.9933700e-02   2.8540900e-01  -4.1471000e-02
   1.5803500e-02   2.9616000e-01  -6.0900400e-02
  -1.1209700e-04   2.7582600e-01  -8.1734400e-02
   6.1677700e-02   2.1155500e-01  -8.1032100e-02
   6.1443600e-02   2.1365800e-01  -8.3373000e-02
   2.1186700e-02   2.1062000e-01  -9.0629800e-02
   1.9314200e-02   2.1225600e-01  -9.4375200e-02
   3.8740600e-02   1.7416000e-01  -1.0982500e-01
   3.2889300e-02   1.3699900e-01  -1.1731600e-01
   4.8570800e-02   1.4307600e-01  -1.0818700e-01
   8.4380700e-02   1.2484600e-01  -9.9993400e-02
   2.0718500e-02   1.2741700e-01  -1.0795200e-01
   9.4840400e-03   1.0241000e-01  -1.1497500e-01
   8.4146700e-02   5.7302600e-02  -9.0863900e-02
   8.1572100e-02   4.7019100e-02  -7.1902600e-02
   4.2017300e-02   5.3095700e-02  -6.5114000e-02
   2.1420700e-02   5.0992300e-02  -5.9964100e-02
   4.7868600e-02   1.4766400e-02  -6.1368600e-02
   4.7634500e-02  -9.0725700e-03  -5.4345900e-02
   5.8635000e-02   7.5212100e-03  -5.3409600e-02
   7.6657000e-02  -7.2028500e-03  -4.1939200e-02
   2.1888800e-02  -2.7536100e-02  -4.2875500e-02
   1.6973700e-02  -3.3379000e-02  -6.1134500e-02
   7.0805700e-02  -5.5815600e-02  -6.1836800e-02
   9.7253600e-02  -8.2459200e-02  -5.8793600e-02
   4.9507000e-02  -9.0639200e-02  -5.5048200e-02
   3.5697900e-02  -5.5581900e-02  -7.6584400e-02
   8.6487200e-02  -9.8585500e-02  -9.2268400e-02
   9.0700100e-02  -1.3808300e-01  -8.1968500e-02
   1.0404100e-01  -1.0396100e-01  -9.0629800e-02
   1.1012600e-01  -1.0255900e-01  -1.0654800e-01
   7.5486800e-02  -1.1424400e-01  -1.2293400e-01
   7.5252700e-02  -1.3738200e-01  -1.3229800e-01
   1.2885100e-01  -1.3574600e-01  -1.3885200e-01
   1.4874500e-01  -1.3855100e-01  -1.4657700e-01
   8.9529900e-02  -1.3107200e-01  -1.4072500e-01
   8.0167800e-02  -1.2008700e-01  -1.5055700e-01
   1.1480800e-01  -1.2873500e-01  -1.6155900e-01
   1.1270100e-01  -1.2896900e-01  -1.4868400e-01
   1.1925500e-01  -1.2663100e-01  -1.3229800e-01
   1.0521100e-01  -9.3677500e-02  -1.2995700e-01
   6.3316000e-02  -9.3210100e-02  -1.3206400e-01
   5.9103100e-02  -1.1938600e-01  -1.1520900e-01
   9.5849300e-02  -1.1424400e-01  -9.4609300e-02
   1.0053000e-01  -9.9053000e-02  -8.6416200e-02
   3.9676800e-02  -8.4796300e-02  -7.7052600e-02
   1.9080200e-02  -8.5030000e-02  -7.3541300e-02
   5.3485800e-02  -1.0396100e-01  -8.0798000e-02
   4.9975100e-02  -1.1167400e-01  -6.5582200e-02
   4.9272900e-02  -1.1541300e-01  -3.3277800e-02
   3.3825500e-02  -8.7834600e-02  -3.0936900e-02
  -1.1112500e-02  -8.2225500e-02  -4.4514100e-02
   1.5262700e-03  -1.1985400e-01  -2.6957400e-02
   3.9676800e-02  -1.2593000e-01   6.6516000e-04
   2.7974200e-02  -1.2382700e-01   1.1333400e-03
  -3.2879400e-02  -1.1073900e-01   2.0697000e-03
  -3.5688000e-02  -1.3504500e-01   1.1901500e-02
  -1.0410400e-02  -1.6379200e-01   1.4476500e-02
  -1.9304400e-02  -1.5374200e-01   2.1733200e-02
  -1.1580700e-02  -1.5070400e-01   3.7183100e-02
  -3.5688000e-02  -1.4392600e-01   4.9355800e-02
  -7.4306600e-02  -1.6075400e-01   3.3437700e-02
  -6.2838100e-02  -1.7033600e-01   2.3840000e-02
  -1.8134100e-02  -1.8435900e-01   3.3905900e-02
  -2.6560000e-02  -2.0305600e-01   3.2969500e-02
  -8.9754100e-02  -1.8248900e-01   2.5712800e-02
  -8.3434700e-02  -1.9581100e-01   5.5810400e-03
  -5.3476000e-02  -2.3975000e-01  -3.7108500e-05
  -5.6050600e-02  -2.4442400e-01   2.3037900e-03
  -5.0667400e-02  -2.2666100e-01  -1.6757400e-03
  -6.9157500e-02  -2.3788000e-01  -9.7346700e-04
  -1.0660600e-01  -2.6265400e-01  -1.4316600e-02
  -1.1035100e-01  -2.8625900e-01  -1.6657500e-02
  -6.2838100e-02  -3.0098300e-01  -5.0528800e-04
  -6.6582900e-02  -2.8906300e-01   9.7946600e-03
  -1.5201200e-01  -3.0191800e-01   1.4008300e-02
