**************************************************************************************
  	RED ACELEROGRÁFICA DE LA UNIVERSIDAD AUTONOMA METROPOLITANA (RA-UAM)
	   UNIDAD AZCAPOTZALCO. DIVISIÓN CBI-DEPARTAMENTO DE MATERIALES
     Av. San Pablo 420, Col. Nueva el Rosario, Azcapotzalco, C.P. 02128, Ciudad de México
		Área de Estructuras. e-mail: agb@azc.uam.mx
**************************************************************************************
ARCHIVO ESTANDAR DE ACELERACION:
VERSION DEL FORMATO                    : 2.0
NOMBRE DEL ARCHIVO                     : RUML202304.191
FECHA Y HORA DE CREACION               : 11:30 a. m. 26/04/2023
REF. CATALOGO ACELEROGRAMAS, SMIS 1999 : REGISTRO NO.      /PAG.    


================================================================================
DATOS DE LA ESTACION:
NOMBRE DE LA ESTACION                  : UAM-LERMA.
CLAVE DE LA ESTACION                   : RUML
LOCALIZACION DE LA ESTACION            : AV. DE LAS GARZAS 10, EL PANTEON, C.P.52005,
                                       : LERMA DE VILLADA, ESTADO DE MEXICO.   
                                       : 
                                       : 
                                       : 
COORDENADAS DE LA ESTACION             : 19.291278 LAT. N
                                       : 99.500578 LONG. W
ALTITUD (msnm)                         : 2570
TIPO DE SUELO                          : DEPOSITOS LACUSTRES
                                       : 
                                       : 
INSTITUCION RESPONSABLE                : UNIVERSIDAD AUTONOMA METROPOLITANA
                                       : 

================================================================================
DATOS DEL ACELEROGRAFO: 
MODELO DEL ACELEROGRAFO                : ETNA2 KINEMETRICS
NUMERO DE SERIE DEL ACELEROGRAFO       : 103733
NUMERO DE CANALES                      : 3
ORIENTACION C1-C6 (rumbo;orientacion)  : /N90E/N00E/V 
ORIENTACION C7-C12 (rumbo;orientacion) : 
VEL. DE MUESTREO, C1-C6 (muestras/s)   : /200/200/200
VEL. DE MUESTREO, C7-C12 (muestras/s)  : 
ESC. COMPLETA DE SENSORES, C1-C6, (g)  : /2/2/2
ESC. COMPLETA DE SENSORES, C7-C12 (g)  : 
FREC. NAT. DE SENSORES, C1-C6, (Hz)    : /212/206/208   
FREC. NAT. DE SENSORES, C7-C12 (Hz)    : 
AMORTIGUAMIENTO DE SENSORES, C1-C6     : /0.7/0.7/0.7      
AMORTIGUAMIENTO DE SENSORES, C7-C12    : 
INTERVALO DE MUESTREO, C1-C6 (s)       : /0.005/0.005/0.005
INTERVALO DE MUESTREO, C7-C12 (s)      : 
UMBRAL DE DISPARO, C1-C6 (Gal)         : /2/2/2
UMBRAL DE DISPARO, C7-C12 (Gal)        : 
MEMORIA DE PREEVENTO (s)               : 50
TIEMPO DE POSEVENTO (s)                : 60


================================================================================
DATOS DEL SISMO:
FECHA DEL SISMO [GMT]                  : 2023/04/19
HORA EPICENTRO (GMT)                   : 04:55:31
MAGNITUD(ES)                           : /M=5.1
COORDENADAS DEL EPICENTRO              : 17.2200 LAT. N
                                       : -101.1200 LONG. W
PROFUNDIDAD FOCAL (Km)                 : 16.3
FUENTE DE LOS DATOS EPICENTRALES       : SSN
                                       : INSTITUTO DE GEOFISICA, UNAM

================================================================================
DATOS DE ESTE REGISTRO:
HORA DE LA PRIMERA MUESTRA (GMT)       : 04:55:29.000
EXACTITUD DEL TIEMPO (s)               : 
DURACION DEL REGISTRO (s), C1-C6       : /234/234/234
DURACION DEL REGISTRO (s), C7-C12      : 
NUM. TOTAL DE MUESTRAS, C1-C6          : /46800/46800/46800
NUM. TOTAL DE MUESTRAS, C7-C12         : 
ACEL. MAX.(Gal), C1-C6                 : /3.985/4.088/1.660
ACEL. MAX., C1-C6, EN LA MUESTRA       : /18518/18092/18181
ACEL. MAX.(Gal), C7-C12                : 
ACEL. MAX., C7-C12,EN LA MUESTRA       : 
UNIDADES DE LOS DATOS                  : Gal (cm/s/s)
FACTOR DE DECIMACION                   : 1
FORMATO DATOS (FORTRAN,16 campos/dato) : 3E16.7


================================================================================
CALIDAD DEL ACELEROGRAMA:
REGISTRO DIGITAL COMPLETO CON TIEMPO ABSOLUTO CORRECTO


================================================================================
COMENTARIOS:














================================================================================
DATOS DE ACELERACION:
---------+---------+---------+---------+---------+---------+---------+---------+
   CANAL-1   	     CANAL-2          CANAL-3
     N90E              N00E              V
---------+---------+---------+---------+---------+---------+---------+---------+
[...]
   9.1683000e-01  -8.1444400e-01   5.3024900e-01
   8.2672000e-01  -7.3381200e-01   4.7196100e-01
   7.5931300e-01  -6.4570100e-01   4.1437400e-01
   7.0384300e-01  -5.4146400e-01   3.4602000e-01
   6.0179600e-01  -4.3068300e-01   2.8047500e-01
   5.0536700e-01  -2.9185600e-01   2.1750500e-01
   4.6300300e-01  -1.4812100e-01   1.6272800e-01
   3.8014900e-01  -6.2561000e-03   1.0631200e-01
   3.0127300e-01   1.5804600e-01   5.5515000e-02
   2.7435700e-01   3.3520200e-01   5.0392300e-04
   2.2239800e-01   5.2544600e-01  -6.9254800e-02
   1.7394900e-01   7.0564100e-01  -1.3573600e-01
   1.6060800e-01   8.9752100e-01  -1.9800400e-01
   1.5545900e-01   1.1130100e+00  -2.7478600e-01
   1.4188400e-01   1.3081600e+00  -3.6303700e-01
   1.5077800e-01   1.4944300e+00  -4.4145700e-01
   1.8424700e-01   1.6994000e+00  -5.2081400e-01
   2.0343900e-01   1.8800600e+00  -6.1234300e-01
   2.2263200e-01   2.0312700e+00  -7.0293600e-01
   2.7623000e-01   2.1874000e+00  -7.9282600e-01
   3.3170000e-01   2.3283300e+00  -8.9769800e-01
   3.4082800e-01   2.4246200e+00  -9.9133400e-01
   3.8810700e-01   2.5085200e+00  -1.0599200e+00
   4.6440800e-01   2.5849500e+00  -1.1343600e+00
   4.7189700e-01   2.6228100e+00  -1.1966300e+00
   5.0326000e-01   2.6770300e+00  -1.2338500e+00
   5.8143400e-01   2.6940900e+00  -1.2610100e+00
   6.0577500e-01   2.6994700e+00  -1.2736500e+00
   6.3128700e-01   2.7254100e+00  -1.2743500e+00
   6.9822600e-01   2.7272800e+00  -1.2759900e+00
   7.3099300e-01   2.7403700e+00  -1.2755200e+00
   7.3707800e-01   2.7235400e+00  -1.2640500e+00
   7.6703700e-01   2.7174600e+00  -1.2448500e+00
   8.0635800e-01   2.6940900e+00  -1.2165300e+00
   8.0331500e-01   2.6559900e+00  -1.1835200e+00
   8.1431600e-01   2.6459400e+00  -1.1331900e+00
   8.6089200e-01   2.5989700e+00  -1.0627300e+00
   8.5925400e-01   2.5685900e+00  -9.8875900e-01
   8.5153000e-01   2.5555000e+00  -9.1595700e-01
   9.0255300e-01   2.5246500e+00  -8.4175100e-01
   9.4070400e-01   2.4933300e+00  -7.5864900e-01
   9.4421500e-01   2.4734600e+00  -6.7905800e-01
   1.0142000e+00   2.4536000e+00  -6.0274500e-01
   1.0926000e+00   2.4313900e+00  -5.2526100e-01
   1.1204600e+00   2.4073200e+00  -4.5433200e-01
   1.1859900e+00   2.3823100e+00  -3.7638000e-01
   1.2655700e+00   2.3531000e+00  -2.9491700e-01
   1.3077000e+00   2.3007500e+00  -2.2422200e-01
   1.3549800e+00   2.2441900e+00  -1.4533400e-01
   1.4261300e+00   2.1976800e+00  -6.4104800e-02
   1.4832400e+00   2.1443900e+00   5.1857200e-03
   1.4935400e+00   2.0478700e+00   7.8924000e-02
   1.5092200e+00   1.9588200e+00   1.5991900e-01
   1.5389400e+00   1.8725800e+00   2.2593200e-01
   1.4944700e+00   1.7403000e+00   2.8609300e-01
   1.4397000e+00   1.5977300e+00   3.6872700e-01
   1.4008500e+00   1.4497900e+00   4.5112700e-01
   1.2941200e+00   1.2946000e+00   5.1784200e-01
   1.1639900e+00   1.1246900e+00   5.8947400e-01
   1.0567900e+00   9.3117600e-01   6.7000000e-01
   9.0793700e-01   7.5448700e-01   7.3741800e-01
   7.1414100e-01   5.9228900e-01   7.8236300e-01
   5.7464600e-01   3.9152700e-01   8.1981800e-01
   4.1432000e-01   2.0922900e-01   8.4790900e-01
   2.0695000e-01   4.2824100e-02   8.6944500e-01
   4.1007300e-02  -1.3152700e-01   8.6967900e-01
  -1.1651000e-01  -3.1335800e-01   8.6897700e-01
  -2.7847400e-01  -4.7602400e-01   8.7904200e-01
  -4.4909800e-01  -6.0339900e-01   8.6101800e-01
  -5.8367800e-01  -7.8733300e-01   8.4931300e-01
  -7.2200300e-01  -9.3317100e-01   8.4533400e-01
  -8.8677600e-01  -1.0682600e+00   8.2496800e-01
  -1.0009900e+00  -1.2056800e+00   8.0319700e-01
  -1.0953200e+00  -1.2837400e+00   7.6574300e-01
  -1.2390200e+00  -1.3945200e+00   7.2992700e-01
  -1.3733700e+00  -1.4620700e+00   7.0207100e-01
  -1.4126900e+00  -1.5254100e+00   6.5384800e-01
  -1.5152100e+00  -1.6086100e+00   5.9532600e-01
  -1.6364400e+00  -1.6714800e+00   5.3703700e-01
  -1.6816200e+00  -1.7659000e+00   4.8834700e-01
  -1.7607300e+00  -1.8269000e+00   4.4012400e-01
  -1.8201800e+00  -1.8963100e+00   3.8253800e-01
  -1.8585600e+00  -1.9764800e+00   3.4742500e-01
  -1.9020900e+00  -2.0087300e+00   3.2354800e-01
  -1.9456300e+00  -2.0704300e+00   2.9779800e-01
  -1.9542900e+00  -2.1262900e+00   2.8866800e-01
  -1.9109900e+00  -2.2003800e+00   2.8328400e-01
  -1.9355600e+00  -2.2693200e+00   2.7673000e-01
  -1.9713700e+00  -2.2852100e+00   2.6385500e-01
  -1.8976500e+00  -2.3445800e+00   2.4676600e-01
  -1.8407700e+00  -2.3787000e+00   2.3693400e-01
  -1.8403000e+00  -2.3861800e+00   2.2171900e-01
  -1.7930300e+00  -2.4041700e+00   2.0275700e-01
  -1.7305300e+00  -2.3927200e+00   1.7864600e-01
  -1.6582100e+00  -2.3896800e+00   1.4189400e-01
  -1.5982900e+00  -2.3934200e+00   1.3323300e-01
  -1.5456300e+00  -2.3560300e+00   1.2574200e-01
  -1.4478000e+00  -2.2952600e+00   8.7585300e-02
  -1.3516000e+00  -2.2478200e+00   6.7219500e-02
  -1.2048500e+00  -2.1805100e+00   5.6451400e-02
  -1.0681700e+00  -2.0797800e+00   3.6085600e-02
  -9.9443900e-01  -1.9743700e+00   1.4315200e-02
  -8.1351700e-01  -1.8542400e+00   1.9084600e-03
  -5.8789100e-01  -1.7387900e+00  -8.1573900e-03
  -4.6290700e-01  -1.6128100e+00  -1.3775500e-02
  -3.2364600e-01  -1.4774900e+00  -1.6116400e-02
  -1.2212700e-01  -1.3559600e+00  -3.3205000e-02
   2.2283100e-02  -1.2159700e+00  -4.5845800e-02
   1.5920400e-01  -1.0825100e+00  -5.4273100e-02
   3.1695500e-01  -9.4579200e-01  -6.3870700e-02
   4.1361800e-01  -8.2753200e-01  -8.7045600e-02
   5.2034600e-01  -7.4058900e-01  -1.3011800e-01
   6.5633000e-01  -6.4850600e-01  -1.6218800e-01
   7.4901500e-01  -5.8189700e-01  -2.0128100e-01
   8.2110300e-01  -5.2674000e-01  -2.3943800e-01
   8.9693600e-01  -4.5054900e-01  -2.7080600e-01
   1.0057700e+00  -3.6267200e-01  -3.0334400e-01
   1.1125000e+00  -2.7035400e-01  -3.1036700e-01
   1.1529900e+00  -1.7593300e-01  -3.0357900e-01
   1.2398200e+00  -1.0301400e-01  -2.6799700e-01
   1.3610600e+00  -2.1447600e-02  -2.3662900e-01
   1.3952300e+00   4.3057800e-02  -2.1111300e-01
   1.4567900e+00   6.9467700e-02  -1.4275900e-01
   1.5272400e+00   1.3000000e-01  -8.8918300e-02
   1.5246600e+00   1.6155100e-01  -5.5209400e-02
   1.5684300e+00   1.7393800e-01  -7.4551300e-03
   1.6086900e+00   1.9871200e-01   4.3108200e-02
   1.5768600e+00   2.2442100e-01   9.3905700e-02
   1.5431500e+00   2.3517200e-01   1.5968500e-01
   1.5555600e+00   2.2629100e-01   2.2335700e-01
   1.5508800e+00   2.4405300e-01   2.8398700e-01
   1.4825300e+00   2.4405300e-01   3.6287500e-01
   1.4380600e+00   2.6765800e-01   4.3286800e-01
   1.4357200e+00   2.8238200e-01   4.9443300e-01
   1.3989800e+00   2.6088000e-01   5.5389200e-01
   1.3282900e+00   2.6275000e-01   6.2271400e-01
   1.2936500e+00   2.5831000e-01   6.9458000e-01
   1.2510600e+00   2.4335200e-01   7.3437500e-01
   1.2049500e+00   2.2512200e-01   7.8236300e-01
   1.2086900e+00   2.1086500e-01   8.3924700e-01
   1.1866900e+00   1.9029800e-01   8.7225400e-01
   1.1457300e+00   1.9777700e-01   8.9262000e-01
   1.1827100e+00   1.7253600e-01   9.0783500e-01
   1.2215700e+00   1.3420700e-01   9.1298500e-01
   1.2075200e+00   1.3327200e-01   9.0104700e-01
   1.2267200e+00   8.2555700e-02   8.8091500e-01
   1.2798500e+00   4.1889200e-02   8.5703800e-01
   1.3226800e+00  -4.3863800e-03   8.3105400e-01
   1.3388300e+00  -6.8891800e-02   8.1607200e-01
   1.3931300e+00  -1.1376500e-01   8.0272900e-01
   1.4502400e+00  -1.9720100e-01   7.8540700e-01
   1.4589000e+00  -2.8110500e-01   7.6831800e-01
   1.4900200e+00  -3.6033500e-01   7.5567700e-01
   1.5139000e+00  -4.7392000e-01   7.4490900e-01
   1.4848800e+00  -5.6460200e-01   7.1494600e-01
   1.4823000e+00  -6.8052500e-01   6.9973000e-01
   1.4979800e+00  -7.9153900e-01   6.8030000e-01
   1.4567900e+00  -8.7310600e-01   6.3746200e-01
   1.4090400e+00  -9.9907900e-01   6.1030800e-01
   1.3947700e+00  -1.1047200e+00   5.7800300e-01
   1.3610600e+00  -1.1977400e+00   5.3001500e-01
   1.2859300e+00  -1.2952000e+00   4.7430100e-01
   1.2288200e+00  -1.3646100e+00   4.1226800e-01
   1.1871600e+00  -1.4335600e+00   3.4367900e-01
   1.0949400e+00  -1.4763300e+00   2.6151400e-01
   9.9921700e-01  -1.5200300e+00   1.7232600e-01
   9.5193800e-01  -1.5623300e+00   9.2735300e-02
   8.4474200e-01  -1.5623300e+00   7.9947900e-03
   7.2724800e-01  -1.5772900e+00  -8.5641100e-02
   6.6850100e-01  -1.5651400e+00  -1.6406100e-01
   5.5802900e-01  -1.5508800e+00  -2.4973800e-01
   4.3164000e-01  -1.5174600e+00  -3.4384200e-01
   3.3170000e-01  -1.4653400e+00  -4.3747800e-01
   2.5235600e-01  -1.4321500e+00  -5.4047700e-01
   1.4352200e-01  -1.3753600e+00  -6.4160400e-01
   1.3623200e-02  -1.3106200e+00  -7.4858300e-01
  -4.8634700e-02  -1.2183000e+00  -8.5626400e-01
  -1.4646900e-01  -1.1444500e+00  -9.6886100e-01
  -2.9532600e-01  -1.0766700e+00  -1.0664800e+00
  -3.8543600e-01  -9.8038100e-01  -1.1488800e+00
  -4.7858900e-01  -8.8666200e-01  -1.2493000e+00
  -6.2393500e-01  -8.1257400e-01  -1.3321700e+00
  -7.4189700e-01  -7.4035600e-01  -1.3909300e+00
  -8.5986000e-01  -6.5505000e-01  -1.4396200e+00
  -1.0192500e+00  -5.7184700e-01  -1.4723900e+00
  -1.1528900e+00  -4.9986300e-01  -1.4791800e+00
  -1.2593900e+00  -4.4096700e-01  -1.4562400e+00
  -1.3906900e+00  -3.5168700e-01  -1.4213600e+00
  -1.5416500e+00  -2.6451100e-01  -1.3787500e+00
  -1.6303600e+00  -1.8972300e-01  -1.3134400e+00
  -1.7050200e+00  -9.3899300e-02  -1.2373600e+00
  -1.8339800e+00   8.0005300e-03  -1.1734600e+00
  -1.9121600e+00   1.2485800e-01  -1.0959700e+00
  -1.9404800e+00   2.4148200e-01  -1.0210600e+00
  -1.9915000e+00   3.7633600e-01  -9.5294300e-01
  -2.0376100e+00   5.2194000e-01  -8.7054400e-01
  -2.0338700e+00   6.7806200e-01  -7.9071900e-01
  -2.0303500e+00   8.5077800e-01  -6.9965800e-01
  -2.0256700e+00   1.0190500e+00  -6.0344700e-01
  -1.9599000e+00   1.2149100e+00  -4.9670300e-01
  -1.9035000e+00   1.4025800e+00  -3.8714900e-01
  -1.8747100e+00   1.5916600e+00  -2.8649000e-01
  -1.7855400e+00   1.7940500e+00  -1.8278800e-01
  -1.6511900e+00   1.9929400e+00  -1.0202700e-01
  -1.5840200e+00   2.1778100e+00  -3.9057200e-02
  -1.5063100e+00   2.3575400e+00   2.4615200e-02
  -1.3558200e+00   2.5372700e+00   7.7285300e-02
  -1.2427700e+00   2.7008700e+00   1.0046000e-01
  -1.1421300e+00   2.8684400e+00   1.2386900e-01
  -1.0105900e+00   3.0112400e+00   1.6062100e-01
  -8.9426500e-01   3.1626900e+00   1.9081900e-01
  -8.0673000e-01   3.3078300e+00   2.2359100e-01
  -6.6817100e-01   3.4305300e+00   2.5402300e-01
  -5.2937800e-01   3.5522900e+00   2.8749800e-01
  -4.6899200e-01   3.6633100e+00   3.2073900e-01
  -3.7420100e-01   3.7790000e+00   3.4250900e-01
  -2.4547300e-01   3.8619700e+00   3.5912900e-01
  -1.6566100e-01   3.9416600e+00   3.5889500e-01
  -1.2423400e-01   4.0127100e+00   3.5749100e-01
  -6.7358900e-02   4.0519800e+00   3.5725700e-01
   9.6442900e-03   4.0882000e+00   3.3923200e-01
   4.1241300e-02   4.0847000e+00   3.1839800e-01
   7.0731900e-02   4.0772200e+00   3.0482000e-01
   1.1005300e-01   4.0695000e+00   2.8117700e-01
   1.0420100e-01   4.0183200e+00   2.4161600e-01
   1.2081900e-01   3.9514800e+00   2.1165300e-01
   1.6154400e-01   3.8622000e+00   1.8847800e-01
   1.5826700e-01   3.7799300e+00   1.5032100e-01
   1.2830900e-01   3.6787300e+00   1.0280100e-01
   1.6060800e-01   3.5471500e+00   6.1835400e-02
   1.9009900e-01   3.4214100e+00   7.0584300e-03
   1.5452300e-01   3.2706700e+00  -4.8654900e-02
   1.7816200e-01   3.1404900e+00  -7.7682000e-02
   2.1982300e-01   3.0283000e+00  -1.3082000e-01
   2.1256800e-01   2.8569900e+00  -1.8957700e-01
   2.4065400e-01   2.7233000e+00  -2.0268600e-01
   2.8418700e-01   2.6515500e+00  -2.3054300e-01
   3.1414600e-01   2.4795400e+00  -2.7689200e-01
   3.1625300e-01   2.3696900e+00  -2.9257600e-01
   2.9846500e-01   2.2965400e+00  -3.1739000e-01
   3.1999700e-01   2.1376100e+00  -3.5648300e-01
   3.2444400e-01   2.0478700e+00  -3.8691400e-01
   3.1789100e-01   1.9464400e+00  -4.0821700e-01
   2.6710200e-01   1.8545800e+00  -4.3373200e-01
   1.7699200e-01   1.7489500e+00  -4.6135500e-01
   1.3790500e-01   1.6108200e+00  -4.5386400e-01
   1.0490400e-01   1.5112600e+00  -4.4824600e-01
  -3.9506700e-02   1.3946300e+00  -4.6463200e-01
  -2.0802400e-01   1.2642200e+00  -4.4848000e-01
  -2.6326100e-01   1.1162800e+00  -4.4098900e-01
  -3.8145700e-01   9.7464700e-01  -4.6088700e-01
  -5.5325100e-01   8.3348300e-01  -4.6158900e-01
  -7.2855600e-01   6.5609300e-01  -4.6158900e-01
  -9.0292500e-01   4.9506300e-01  -4.8218900e-01
  -1.0040400e+00   3.1814100e-01  -5.1777100e-01
  -1.1554700e+00   9.5877500e-02  -5.3158200e-01
  -1.3249200e+00  -5.3934000e-02  -5.3720000e-01
  -1.4714400e+00  -2.0678400e-01  -5.7301600e-01
  -1.5819100e+00  -3.7061800e-01  -5.9221100e-01
  -1.6167800e+00  -5.0757500e-01  -5.8799700e-01
  -1.7129800e+00  -6.5785400e-01  -6.0906600e-01
  -1.8595000e+00  -7.6699900e-01  -6.1960000e-01
  -1.8934300e+00  -8.7427500e-01  -6.3481500e-01
  -1.8758800e+00  -1.0070200e+00  -6.6220400e-01
  -1.9381400e+00  -1.1337000e+00  -6.5447900e-01
  -1.9793300e+00  -1.2281200e+00  -6.4932900e-01
  -1.9882200e+00  -1.2811700e+00  -6.5939500e-01
  -1.9767600e+00  -1.3473100e+00  -6.7578100e-01
  -1.9346300e+00  -1.4340200e+00  -6.8069700e-01
  -1.9638800e+00  -1.4758600e+00  -6.6922700e-01
  -1.9872900e+00  -1.5293800e+00  -6.8444200e-01
  -1.9671600e+00  -1.5768200e+00  -7.0714900e-01
  -1.9402400e+00  -1.5924800e+00  -7.1464000e-01
  -1.9018600e+00  -1.6499800e+00  -7.3313300e-01
  -1.9102900e+00  -1.6981200e+00  -7.3570800e-01
  -1.9229200e+00  -1.6946200e+00  -7.4460300e-01
  -1.8398400e+00  -1.7196200e+00  -7.8065300e-01
  -1.7679800e+00  -1.7614600e+00  -7.9025100e-01
  -1.8300100e+00  -1.7871700e+00  -7.8112100e-01
  -1.7956000e+00  -1.8404500e+00  -7.7995100e-01
  -1.6797400e+00  -1.8666300e+00  -7.8135600e-01
  -1.6753000e+00  -1.8970100e+00  -7.5818100e-01
  -1.6132700e+00  -1.9425900e+00  -6.9123100e-01
  -1.5774600e+00  -1.9409500e+00  -6.1936600e-01
  -1.5748900e+00  -1.9418900e+00  -5.6505700e-01
  -1.4463900e+00  -1.9704000e+00  -4.7282500e-01
  -1.3977100e+00  -1.9400200e+00  -3.6654900e-01
  -1.4131600e+00  -1.9108000e+00  -2.6401700e-01
  -1.3766500e+00  -1.9220200e+00  -1.3550200e-01
  -1.3319400e+00  -1.8843900e+00  -1.3073300e-02
  -1.2762400e+00  -1.8897700e+00   1.1825100e-01
  -1.2842000e+00  -1.8673300e+00   2.4980900e-01
  -1.3087700e+00  -1.7684700e+00   3.7177000e-01
  -1.2196000e+00  -1.7553800e+00   4.9888100e-01
  -1.1835500e+00  -1.7394900e+00   6.0468900e-01
  -1.1910400e+00  -1.6855000e+00   7.1962700e-01
  -1.0716800e+00  -1.6672700e+00   8.4416300e-01
  -1.0325900e+00  -1.6256700e+00   9.3218100e-01
  -9.5465100e-01  -1.5880400e+00   1.0227700e+00
  -7.6670700e-01  -1.5569600e+00   1.1290500e+00
  -7.0842800e-01  -1.4898800e+00   1.2102800e+00
  -6.3165900e-01  -1.3928900e+00   1.2826100e+00
  -4.7063100e-01  -1.3496500e+00   1.3521400e+00
  -3.4915800e-01  -1.3110900e+00   1.4048100e+00
  -2.7870800e-01  -1.2295200e+00   1.4731600e+00
  -2.2042900e-01  -1.1886200e+00   1.5330900e+00
  -1.3242500e-01  -1.0993400e+00   1.5616500e+00
  -2.2889000e-02  -1.0617100e+00   1.5923100e+00
  -3.0612700e-02  -1.0540000e+00   1.6279000e+00
  -3.2017000e-02  -9.7079900e-01   1.6604300e+00
   2.5091700e-02  -9.6121700e-01   1.6576200e+00
  -4.1613100e-02  -9.7687600e-01   1.6433500e+00
  -6.6890800e-02  -9.7944700e-01   1.6543500e+00
  -8.6317100e-02  -1.0138000e+00   1.6482600e+00
  -2.1130100e-01  -1.0589100e+00   1.6183000e+00
