**************************************************************************************
  	RED ACELEROGRÁFICA DE LA UNIVERSIDAD AUTONOMA METROPOLITANA (RA-UAM)
	   UNIDAD AZCAPOTZALCO. DIVISIÓN CBI-DEPARTAMENTO DE MATERIALES
     Av. San Pablo 420, Col. Nueva el Rosario, Azcapotzalco, C.P. 02128, Ciudad de México
		Área de Estructuras. e-mail: agb@azc.uam.mx
**************************************************************************************
ARCHIVO ESTANDAR DE ACELERACION:
VERSION DEL FORMATO                    : 2.0
NOMBRE DEL ARCHIVO                     : RUML202307.141
FECHA Y HORA DE CREACION               : 11:30 a. m. 21/07/2023
REF. CATALOGO ACELEROGRAMAS, SMIS 1999 : REGISTRO NO.      /PAG.    


================================================================================
DATOS DE LA ESTACION:
NOMBRE DE LA ESTACION                  : UAM-LERMA.
CLAVE DE LA ESTACION                   : RUML
LOCALIZACION DE LA ESTACION            : AV. DE LAS GARZAS 10, EL PANTEON, C.P.52005,
                                       : LERMA DE VILLADA, ESTADO DE MEXICO.   
                                       : 
                                       : 
                                       : 
COORDENADAS DE LA ESTACION             : 19.291278 LAT. N
                                       : 99.500578 LONG. W
ALTITUD (msnm)                         : 2570
TIPO DE SUELO                          : DEPOSITOS LACUSTRES
                                       : 
                                       : 
INSTITUCION RESPONSABLE                : UNIVERSIDAD AUTONOMA METROPOLITANA
                                       : 

================================================================================
DATOS DEL ACELEROGRAFO: 
MODELO DEL ACELEROGRAFO                : ETNA2 KINEMETRICS
NUMERO DE SERIE DEL ACELEROGRAFO       : 103733
NUMERO DE CANALES                      : 3
ORIENTACION C1-C6 (rumbo;orientacion)  : /N90E/N00E/V 
ORIENTACION C7-C12 (rumbo;orientacion) : 
VEL. DE MUESTREO, C1-C6 (muestras/s)   : /200/200/200
VEL. DE MUESTREO, C7-C12 (muestras/s)  : 
ESC. COMPLETA DE SENSORES, C1-C6, (g)  : /2/2/2
ESC. COMPLETA DE SENSORES, C7-C12 (g)  : 
FREC. NAT. DE SENSORES, C1-C6, (Hz)    : /212/206/208   
FREC. NAT. DE SENSORES, C7-C12 (Hz)    : 
AMORTIGUAMIENTO DE SENSORES, C1-C6     : /0.7/0.7/0.7      
AMORTIGUAMIENTO DE SENSORES, C7-C12    : 
INTERVALO DE MUESTREO, C1-C6 (s)       : /0.005/0.005/0.005
INTERVALO DE MUESTREO, C7-C12 (s)      : 
UMBRAL DE DISPARO, C1-C6 (Gal)         : /2/2/2
UMBRAL DE DISPARO, C7-C12 (Gal)        : 
MEMORIA DE PREEVENTO (s)               : 50
TIEMPO DE POSEVENTO (s)                : 60


================================================================================
DATOS DEL SISMO:
FECHA DEL SISMO [GMT]                  : 2023/07/14
HORA EPICENTRO (GMT)                   : 09:29:00
MAGNITUD(ES)                           : /M=6.5
COORDENADAS DEL EPICENTRO              : 14.8100 LAT. N
                                       : -94.1500 LONG. W
PROFUNDIDAD FOCAL (Km)                 : 16.1
FUENTE DE LOS DATOS EPICENTRALES       : SSN
                                       : INSTITUTO DE GEOFISICA, UNAM

================================================================================
DATOS DE ESTE REGISTRO:
HORA DE LA PRIMERA MUESTRA (GMT)       : 09:31:44.000
EXACTITUD DEL TIEMPO (s)               : 
DURACION DEL REGISTRO (s), C1-C6       : /201/201/201
DURACION DEL REGISTRO (s), C7-C12      : 
NUM. TOTAL DE MUESTRAS, C1-C6          : /40200/40200/40200
NUM. TOTAL DE MUESTRAS, C7-C12         : 
ACEL. MAX.(Gal), C1-C6                 : /-0.710/0.976/0.184
ACEL. MAX., C1-C6, EN LA MUESTRA       : /15511/15413/22457
ACEL. MAX.(Gal), C7-C12                : 
ACEL. MAX., C7-C12,EN LA MUESTRA       : 
UNIDADES DE LOS DATOS                  : Gal (cm/s/s)
FACTOR DE DECIMACION                   : 1
FORMATO DATOS (FORTRAN,16 campos/dato) : 3E16.7


================================================================================
CALIDAD DEL ACELEROGRAMA:
REGISTRO DIGITAL COMPLETO CON TIEMPO ABSOLUTO CORRECTO


================================================================================
COMENTARIOS:














================================================================================
DATOS DE ACELERACION:
---------+---------+---------+---------+---------+---------+---------+---------+
   CANAL-1   	     CANAL-2          CANAL-3
     N90E              N00E              V
---------+---------+---------+---------+---------+---------+---------+---------+
[...]
   2.1062000e-01  -2.1965300e-01  -4.1969900e-02
   1.6872500e-01  -2.3671500e-01  -4.0565400e-02
   1.7059800e-01  -2.4302500e-01  -3.7054100e-02
   1.9798200e-01  -2.6078700e-01  -4.8992600e-02
   1.6100100e-01  -2.8322400e-01  -5.0865300e-02
   1.5140500e-01  -2.8602800e-01  -4.5481300e-02
   1.8417300e-01  -3.1150300e-01  -4.8992600e-02
   1.5234100e-01  -3.3066800e-01  -5.0397200e-02
   1.3338300e-01  -3.3557600e-01  -4.9929000e-02
   1.6568200e-01  -3.6595900e-01  -4.8992600e-02
   1.4438400e-01  -3.7717700e-01  -4.7354000e-02
   1.2402100e-01  -3.9470600e-01  -5.1333500e-02
   1.4297900e-01  -4.1176700e-01  -5.5313100e-02
   1.3946900e-01  -4.1807800e-01  -5.1333500e-02
   1.2214900e-01  -4.4285100e-01  -5.6015300e-02
   1.2261700e-01  -4.6154900e-01  -5.8122100e-02
   1.2683000e-01  -4.7183200e-01  -5.4610800e-02
   1.2519100e-01  -4.9052900e-01  -6.6315300e-02
   1.0623300e-01  -5.1039500e-01  -7.0528900e-02
   1.1068000e-01  -5.2371700e-01  -6.6549400e-02
   1.2846800e-01  -5.4755600e-01  -7.1699300e-02
   9.3594300e-02  -5.6157900e-01  -7.7083400e-02
   9.3360300e-02  -5.7092700e-01  -7.6381100e-02
   1.2542500e-01  -5.9429900e-01  -7.9658400e-02
   8.7977100e-02  -6.0785400e-01  -7.8253800e-02
   7.4168000e-02  -6.1556700e-01  -7.3806100e-02
   1.1606300e-01  -6.3262800e-01  -8.2233400e-02
   9.0317600e-02  -6.5179300e-01  -8.6447000e-02
   6.6444300e-02  -6.6838700e-01  -8.4340200e-02
   9.3828400e-02  -6.7633300e-01  -8.2467500e-02
   8.0955500e-02  -6.8451300e-01  -9.1597000e-02
   6.2699500e-02  -7.1022200e-01  -9.5810600e-02
   7.0189100e-02  -7.2331000e-01  -8.9490100e-02
   7.1359400e-02  -7.2237500e-01  -9.5342400e-02
   5.4741700e-02  -7.4270800e-01  -1.0517400e-01
   5.2635200e-02  -7.6163900e-01  -1.0142900e-01
   6.3401600e-02  -7.6701500e-01  -9.7917400e-02
   5.3571400e-02  -7.8244000e-01  -1.1055800e-01
   3.5549400e-02  -7.8384200e-01  -1.1453800e-01
   4.5847700e-02  -7.9950100e-01  -1.1313300e-01
   5.3337400e-02  -8.1913300e-01  -1.1383500e-01
   2.1038200e-02  -8.2030200e-01  -1.1570800e-01
   2.9230000e-02  -8.3222100e-01  -1.1945400e-01
   4.9592500e-02  -8.4273800e-01  -1.2226300e-01
   1.6825200e-02  -8.5629400e-01  -1.1992200e-01
   1.0505800e-02  -8.5816300e-01  -1.1734700e-01
   3.9528300e-02  -8.6611000e-01  -1.2085800e-01
   1.8697600e-02  -8.8060000e-01  -1.2062400e-01
  -5.8778300e-03  -8.7966500e-01  -1.1992200e-01
   2.3144600e-02  -8.9065000e-01  -1.1804900e-01
   1.8463600e-02  -9.0093300e-01  -1.1968800e-01
  -8.6864600e-03  -9.1261900e-01  -1.2413500e-01
   3.0161500e-03  -9.1495600e-01  -1.2085800e-01
   1.4484700e-02  -9.0771100e-01  -1.2694400e-01
  -2.6525900e-05  -9.3061500e-01  -1.3256300e-01
  -4.9416200e-03  -9.3482200e-01  -1.2671000e-01
   7.4631400e-03  -9.2570700e-01  -1.2554000e-01
   3.2502000e-03  -9.4417100e-01  -1.2928500e-01
  -4.9416200e-03  -9.4183400e-01  -1.2951900e-01
   6.7563100e-04  -9.4300200e-01  -1.1898500e-01
   1.1442000e-02  -9.5959600e-01  -1.1711300e-01
  -7.2821400e-03  -9.4978000e-01  -1.2156000e-01
  -6.3459300e-03  -9.4393700e-01  -1.1758100e-01
   2.4549000e-02  -9.5772600e-01  -1.1641000e-01
  -8.2183500e-03  -9.6216700e-01  -1.1172900e-01
  -1.6410200e-02  -9.5048100e-01  -1.1009000e-01
   2.2442500e-02  -9.5445400e-01  -1.1500600e-01
   7.4631400e-03  -9.6614000e-01  -1.1219700e-01
  -1.5942100e-02  -9.5211700e-01  -1.0330100e-01
   1.3314400e-02  -9.4417100e-01  -9.9321900e-02
   2.0102000e-02  -9.4954600e-01  -1.0447200e-01
  -8.6864600e-03  -9.5094800e-01  -1.0353600e-01
   1.0271800e-02  -9.4674200e-01  -9.3703800e-02
   2.5251100e-02  -9.3692600e-01  -9.5108300e-02
   3.0161500e-03  -9.3856200e-01  -9.6981000e-02
   4.4204700e-03  -9.4230100e-01  -8.7383300e-02
   2.6187300e-02  -9.2360400e-01  -8.4340200e-02
   2.1506300e-02  -9.1402100e-01  -9.3469700e-02
   4.8885700e-03  -9.2383700e-01  -8.9724200e-02
   1.8697600e-02  -9.1121700e-01  -7.8019800e-02
   3.0634300e-02  -9.0560800e-01  -7.7551600e-02
   1.0505800e-02  -9.0303700e-01  -8.1297000e-02
   1.7293300e-02  -8.9181800e-01  -7.3103900e-02
   3.7187800e-02  -8.9158500e-01  -6.3740300e-02
   1.6123100e-02  -8.6914800e-01  -6.9124300e-02
   1.8697600e-02  -8.6377300e-01  -6.6315300e-02
   3.9762300e-02  -8.6798000e-01  -5.8824400e-02
   2.7357600e-02  -8.6003300e-01  -6.3740300e-02
   1.0739900e-02  -8.4250500e-01  -5.5781200e-02
   2.9932200e-02  -8.3666200e-01  -4.6885800e-02
   4.9124400e-02  -8.5372300e-01  -5.4142600e-02
   1.9867900e-02  -8.2427500e-01  -3.8692700e-02
   2.4783000e-02  -8.1562700e-01  -3.4479100e-02
   5.2635200e-02  -8.2030200e-01  -3.9863100e-02
   3.0166200e-02  -8.0534400e-01  -3.6585900e-02
   2.5719200e-02  -7.9856600e-01  -4.1033600e-02
   5.0060600e-02  -7.8898400e-01  -2.9329100e-02
   3.7655900e-02  -7.8571200e-01  -3.3074500e-02
   3.7187800e-02  -7.7122100e-01  -3.6820000e-02
   5.5677900e-02  -7.6257400e-01  -2.9797300e-02
   4.0932600e-02  -7.6374300e-01  -2.3008700e-02
   3.2740800e-02  -7.4831700e-01  -1.6688300e-02
   4.8656300e-02  -7.2891900e-01  -1.8795100e-02
   5.4741700e-02  -7.2775000e-01  -5.4519500e-03
   3.8124000e-02  -7.0952100e-01  -2.8769700e-03
   4.2102900e-02  -7.0391100e-01  -6.3883100e-03
   5.9188700e-02  -6.8965500e-01  -5.4519500e-03
   5.4975700e-02  -6.7960500e-01  -4.9837700e-03
   4.0230400e-02  -6.7937100e-01  -3.0198100e-04
   5.8486500e-02  -6.4735200e-01  -3.3451500e-03
   7.5338300e-02  -6.6184300e-01  -1.9406100e-03
   4.3507200e-02  -6.4080800e-01   4.0028800e-04
   5.6848200e-02  -6.1346400e-01   6.9548000e-03
   8.3530100e-02  -6.1346400e-01   1.0232100e-02
   5.3805500e-02  -5.9944100e-01   7.6570700e-03
   5.6614100e-02  -5.9009200e-01   1.3509300e-02
   8.7977100e-02  -5.6415000e-01   1.1870700e-02
   7.5338300e-02  -5.6298100e-01   9.9979600e-03
   6.5742100e-02  -5.4919200e-01   1.3275200e-02
   8.3062000e-02  -5.3189700e-01   1.7957000e-02
   8.2359800e-02  -5.1740700e-01   1.5616100e-02
   7.5572300e-02  -4.9894300e-01   1.0466100e-02
   8.5636600e-02  -4.9473600e-01   2.0297900e-02
   9.4764600e-02  -4.6996200e-01   2.4979700e-02
   8.2359800e-02  -4.5266700e-01   2.5213800e-02
   8.2125800e-02  -4.3771000e-01   2.9193300e-02
   1.0951000e-01  -4.1877900e-01   2.8257000e-02
   1.0202000e-01  -4.1013100e-01   2.7086500e-02
   7.9083100e-02  -3.8559100e-01   2.9661500e-02
   1.1185000e-01  -3.6619300e-01   3.3875100e-02
   1.2425500e-01  -3.6572500e-01   2.9427400e-02
   9.3828400e-02  -3.4539200e-01   3.1066000e-02
   1.1278700e-01  -3.2155300e-01   3.6684200e-02
   1.3361700e-01  -3.0285600e-01   3.1534200e-02
   1.0787200e-01  -2.9537700e-01   3.1768300e-02
   1.1348900e-01  -2.7317400e-01   3.7854600e-02
   1.4297900e-01  -2.4279100e-01   3.9259200e-02
   1.2565900e-01  -2.3998700e-01   3.3641000e-02
   1.1980800e-01  -2.1264200e-01   3.4109200e-02
   1.4649000e-01  -1.9090600e-01   4.0195500e-02
   1.4508600e-01  -1.7454600e-01   4.0429600e-02
   1.2800000e-01  -1.4930500e-01   4.0195500e-02
   1.3993700e-01  -1.3715200e-01   4.3472800e-02
   1.5889500e-01  -1.1097600e-01   4.6750000e-02
   1.4040500e-01  -9.4381900e-02   4.5579600e-02
   1.4461800e-01  -7.9657900e-02   4.8856800e-02
   1.6685300e-01  -5.2079500e-02   5.2368200e-02
   1.5959700e-01  -3.3616000e-02   4.8622800e-02
   1.4742600e-01  -9.3095900e-03   4.8622800e-02
   1.7036300e-01   8.2190600e-03   4.7218200e-02
   1.8300200e-01   1.5931700e-02   4.5111400e-02
   1.5046900e-01   3.9770600e-02   5.0729600e-02
   1.7153400e-01   6.7816500e-02   5.1900000e-02
   1.9774800e-01   8.6046200e-02   4.8856800e-02
   1.7059800e-01   9.4927400e-02   5.0963700e-02
   1.6989500e-01   1.2157100e-01   5.7518200e-02
   1.9985400e-01   1.5616100e-01   5.2134100e-02
   1.9330100e-01   1.6130300e-01   4.7218200e-02
   1.7855500e-01   1.7462400e-01   5.7752300e-02
   2.0242900e-01   2.0103400e-01   5.9859100e-02
   2.0359900e-01   2.2347100e-01   5.6347700e-02
   1.8744900e-01   2.4146700e-01   5.5879500e-02
   2.0289700e-01   2.5642500e-01   6.2200000e-02
   2.1787600e-01   2.8750900e-01   6.6179500e-02
   2.0079000e-01   3.0340100e-01   6.2902200e-02
   2.0406700e-01   3.2163100e-01   6.6881800e-02
   2.2583400e-01   3.4874200e-01   6.9456700e-02
   2.1553600e-01   3.5762300e-01   6.8286300e-02
   2.0055600e-01   3.8333200e-01   6.6881800e-02
   2.1857800e-01   4.0296400e-01   6.8988600e-02
   2.3332300e-01   4.0880700e-01   7.2031700e-02
   2.0570500e-01   4.3615200e-01   7.3436300e-02
   2.1881200e-01   4.5929000e-01   7.6479400e-02
   2.4011100e-01   4.7822000e-01   7.2265800e-02
   2.1202500e-01   4.9598300e-01   7.0861300e-02
   2.1623800e-01   5.0463000e-01   7.5543100e-02
   2.4057900e-01   5.3594800e-01   7.6947600e-02
   2.3028100e-01   5.4646500e-01   7.2499900e-02
   2.1483300e-01   5.5628100e-01   7.6479400e-02
   2.3823900e-01   5.8830000e-01   8.4672600e-02
   2.3987700e-01   6.0863400e-01   7.7884000e-02
   2.1740800e-01   6.2569500e-01   7.6479400e-02
   2.3238700e-01   6.3574500e-01   8.2331700e-02
   2.4572800e-01   6.6425800e-01   8.3736200e-02
   2.2443000e-01   6.7874800e-01   7.7649900e-02
   2.2513200e-01   6.7828100e-01   7.7415800e-02
   2.4853700e-01   6.9464100e-01   8.3268000e-02
   2.2770600e-01   7.1684400e-01   7.7649900e-02
   2.2068500e-01   7.3530700e-01   7.4372600e-02
   2.4549400e-01   7.4044900e-01   7.9054400e-02
   2.4104700e-01   7.4956400e-01   8.2799800e-02
   2.1928000e-01   7.7457100e-01   7.9522600e-02
   2.2981300e-01   7.9093200e-01   7.7884000e-02
   2.5228200e-01   7.8882800e-01   7.8586200e-02
   2.2606800e-01   8.0051400e-01   8.2097600e-02
   2.1506700e-01   8.2435300e-01   8.6077100e-02
   2.4268600e-01   8.4141400e-01   8.2565800e-02
   2.3262100e-01   8.3767500e-01   7.8820300e-02
   2.1319500e-01   8.5263200e-01   8.0459000e-02
   2.3543000e-01   8.7904200e-01   8.4672600e-02
   2.4151500e-01   8.7109600e-01   7.9054400e-02
   2.1062000e-01   8.8722200e-01   7.7649900e-02
   2.2560000e-01   8.9563600e-01   8.1863500e-02
   2.4362200e-01   9.0171300e-01   7.7181700e-02
   2.1202500e-01   9.1480100e-01   7.1329500e-02
   2.1647200e-01   9.0685400e-01   7.1329500e-02
   2.3543000e-01   9.3092700e-01   7.4138500e-02
   2.1670600e-01   9.3840600e-01   6.8988600e-02
   2.0430100e-01   9.3466600e-01   6.7584000e-02
   2.2068500e-01   9.4705300e-01   6.6647700e-02
   2.2068500e-01   9.4845600e-01   6.0327200e-02
   1.9587500e-01   9.5172800e-01   6.0327200e-02
   2.0149200e-01   9.6154400e-01   5.9390900e-02
   2.1342900e-01   9.5663600e-01   5.7752300e-02
   1.8721500e-01   9.6107600e-01   5.4943200e-02
   1.7996000e-01   9.7439800e-01   5.1900000e-02
   2.0102400e-01   9.6598400e-01   4.5813700e-02
   1.8183200e-01   9.6691900e-01   4.2536400e-02
   1.5866100e-01   9.6598400e-01   4.4409100e-02
   1.7527900e-01   9.7509900e-01   3.7620500e-02
   1.6989500e-01   9.7556700e-01   2.9427400e-02
   1.4274500e-01   9.5616800e-01   2.2404700e-02
   1.4344700e-01   9.5757100e-01   2.8725100e-02
   1.4812800e-01   9.7112600e-01   2.4277400e-02
   1.2612800e-01   9.5757100e-01   1.7488800e-02
   1.0763700e-01   9.5126000e-01   2.1234300e-02
   1.1348900e-01   9.5897300e-01   1.8893400e-02
   1.0155200e-01   9.4541700e-01   1.0700200e-02
   7.7912800e-02   9.5172800e-01  -2.6428800e-03
   8.9849500e-02   9.1363200e-01   1.7488800e-02
   7.3934000e-02   9.2087700e-01   1.3275200e-02
   4.1166700e-02   9.4682000e-01  -7.3246700e-03
   5.6614100e-02   9.1456700e-01  -2.4087900e-03
   4.8188200e-02   9.0919100e-01   1.5707400e-03
   1.6825200e-02   9.0054400e-01  -6.1542200e-03
   1.3548500e-02   9.1223000e-01  -1.7624600e-02
   1.9867900e-02   8.8745600e-01  -1.5283700e-02
  -5.4097300e-03   8.7086200e-01  -2.7222300e-02
  -3.6538700e-02   8.6992700e-01  -2.1604100e-02
  -2.4836100e-02   8.6782400e-01  -1.4347400e-02
  -2.9283000e-02   8.4912700e-01  -2.2072300e-02
  -6.8603800e-02   8.1687400e-01  -2.3008700e-02
  -7.4923200e-02   8.4632200e-01  -2.5115500e-02
  -6.1816300e-02   8.1827600e-01  -2.8158700e-02
  -1.0090300e-01   7.8882800e-01  -2.4881400e-02
  -1.1354200e-01   7.9397000e-01  -2.4881400e-02
  -9.4817700e-02   7.7457100e-01  -3.6820000e-02
  -1.3601100e-01   7.6358700e-01  -3.6585900e-02
  -1.5239400e-01   7.4348700e-01  -3.1435900e-02
  -1.4350100e-01   7.2502400e-01  -2.8626800e-02
  -1.6784200e-01   7.2292000e-01  -2.8392700e-02
  -1.9241700e-01   7.0679400e-01  -3.4010900e-02
  -1.8960900e-01   6.9043400e-01  -3.6820000e-02
  -1.9452400e-01   6.7500900e-01  -3.0499500e-02
  -2.3244000e-01   6.4509300e-01  -2.8158700e-02
  -2.4156800e-01   6.3738100e-01  -2.8860900e-02
  -2.3290800e-01   6.3340700e-01  -2.7924600e-02
  -2.5373900e-01   6.0746500e-01  -2.7456400e-02
  -2.8814500e-01   5.8946900e-01  -1.9731400e-02
  -2.7831500e-01   5.8900200e-01  -1.9731400e-02
  -2.7644200e-01   5.6492900e-01  -2.7222300e-02
  -3.2535900e-01   5.3431200e-01  -2.2774600e-02
  -3.2208200e-01   5.2589800e-01  -1.2942800e-02
  -3.1740100e-01   5.1888700e-01  -1.6220100e-02
  -3.5485000e-01   4.8710200e-01  -2.1838200e-02
  -3.6444600e-01   4.5835500e-01  -1.0836000e-02
  -3.5789200e-01   4.6162700e-01  -4.9837700e-03
  -3.8480800e-01   4.3989100e-01  -1.2708700e-02
  -4.1032000e-01   4.1091000e-01  -5.4519500e-03
  -3.9487300e-01   3.9782200e-01   4.3798100e-03
  -4.0891600e-01   3.7772300e-01   4.1457200e-03
  -4.4519400e-01   3.6346600e-01   3.6775400e-03
  -4.4191700e-01   3.4289900e-01   8.3593400e-03
  -4.3513000e-01   3.2069600e-01   1.2807000e-02
  -4.7374800e-01   3.0901100e-01   1.0232100e-02
  -4.8428000e-01   2.8984600e-01   1.7488800e-02
  -4.6672700e-01   2.6483800e-01   2.1936500e-02
  -5.0160000e-01   2.4731000e-01   2.2872900e-02
  -5.1892000e-01   2.3024900e-01   2.8959200e-02
  -5.0464300e-01   2.1342100e-01   3.3406900e-02
  -5.2009000e-01   1.9355500e-01   3.5279600e-02
  -5.5004900e-01   1.6621100e-01   3.6450100e-02
  -5.4934700e-01   1.5405700e-01   4.2068200e-02
  -5.4045300e-01   1.3512600e-01   4.2302300e-02
  -5.7251800e-01   1.0123800e-01   4.2068200e-02
  -5.8749700e-01   8.8149700e-02   4.8154600e-02
  -5.6947500e-01   7.5762800e-02   5.0729600e-02
  -5.8890200e-01   4.5847200e-02   4.9793200e-02
  -6.2073300e-01   3.1123200e-02   5.0261400e-02
  -5.9896600e-01   1.3360800e-02   5.2134100e-02
  -6.0669000e-01  -1.3516500e-02   5.1197700e-02
  -6.4741500e-01  -2.6137100e-02   5.0261400e-02
  -6.2681800e-01  -5.0910900e-02   5.6347700e-02
  -6.2260500e-01  -7.0776700e-02   5.8220400e-02
  -6.5630900e-01  -8.6903100e-02   5.8454500e-02
  -6.5841500e-01  -1.0606800e-01   5.7050000e-02
  -6.4156400e-01  -1.1728600e-01   5.7050000e-02
  -6.5630900e-01  -1.4743500e-01   6.1497700e-02
  -6.8041600e-01  -1.6706700e-01   6.2668100e-02
  -6.6824500e-01  -1.7758500e-01   5.8454500e-02
  -6.6169200e-01  -2.0282600e-01   4.9559100e-02
  -6.9118300e-01  -2.2713200e-01   5.8220400e-02
  -6.9165100e-01  -2.3414400e-01   6.6413600e-02
  -6.6894800e-01  -2.4840000e-01   5.5411400e-02
  -6.9914000e-01  -2.7223900e-01   5.0261400e-02
  -7.0522600e-01  -2.9187100e-01   5.2836400e-02
  -6.7713900e-01  -3.0449200e-01   4.9559100e-02
  -7.0311900e-01  -3.1781400e-01   4.4877300e-02
  -7.0990700e-01  -3.5240400e-01   4.5111400e-02
  -6.8767200e-01  -3.5871400e-01   4.4175100e-02
  -6.9843800e-01  -3.6338800e-01   3.2236500e-02
  -7.0592800e-01  -3.9143400e-01   2.5682000e-02
  -6.9656600e-01  -4.0826200e-01   3.4811500e-02
  -6.8556500e-01  -4.1854500e-01   3.3172800e-02
  -6.9890600e-01  -4.3467100e-01   1.9829700e-02
