**************************************************************************************
  	RED ACELEROGRÁFICA DE LA UNIVERSIDAD AUTONOMA METROPOLITANA (RA-UAM)
	   UNIDAD AZCAPOTZALCO. DIVISIÓN CBI-DEPARTAMENTO DE MATERIALES
     Av. San Pablo 420, Col. Nueva el Rosario, Azcapotzalco, C.P. 02128, Ciudad de México
		Área de Estructuras. e-mail: agb@azc.uam.mx
**************************************************************************************
ARCHIVO ESTANDAR DE ACELERACION:
VERSION DEL FORMATO                    : 2.0
NOMBRE DEL ARCHIVO                     : RUML202304.041
FECHA Y HORA DE CREACION               : 11:30 a. m. 11/04/2023
REF. CATALOGO ACELEROGRAMAS, SMIS 1999 : REGISTRO NO.      /PAG.    


================================================================================
DATOS DE LA ESTACION:
NOMBRE DE LA ESTACION                  : UAM-LERMA.
CLAVE DE LA ESTACION                   : RUML
LOCALIZACION DE LA ESTACION            : AV. DE LAS GARZAS 10, EL PANTEON, C.P.52005,
                                       : LERMA DE VILLADA, ESTADO DE MEXICO.   
                                       : 
                                       : 
                                       : 
COORDENADAS DE LA ESTACION             : 19.291278 LAT. N
                                       : 99.500578 LONG. W
ALTITUD (msnm)                         : 2570
TIPO DE SUELO                          : DEPOSITOS LACUSTRES
                                       : 
                                       : 
INSTITUCION RESPONSABLE                : UNIVERSIDAD AUTONOMA METROPOLITANA
                                       : 

================================================================================
DATOS DEL ACELEROGRAFO: 
MODELO DEL ACELEROGRAFO                : ETNA2 KINEMETRICS
NUMERO DE SERIE DEL ACELEROGRAFO       : 103733
NUMERO DE CANALES                      : 3
ORIENTACION C1-C6 (rumbo;orientacion)  : /N90E/N00E/V 
ORIENTACION C7-C12 (rumbo;orientacion) : 
VEL. DE MUESTREO, C1-C6 (muestras/s)   : /200/200/200
VEL. DE MUESTREO, C7-C12 (muestras/s)  : 
ESC. COMPLETA DE SENSORES, C1-C6, (g)  : /2/2/2
ESC. COMPLETA DE SENSORES, C7-C12 (g)  : 
FREC. NAT. DE SENSORES, C1-C6, (Hz)    : /212/206/208   
FREC. NAT. DE SENSORES, C7-C12 (Hz)    : 
AMORTIGUAMIENTO DE SENSORES, C1-C6     : /0.7/0.7/0.7      
AMORTIGUAMIENTO DE SENSORES, C7-C12    : 
INTERVALO DE MUESTREO, C1-C6 (s)       : /0.005/0.005/0.005
INTERVALO DE MUESTREO, C7-C12 (s)      : 
UMBRAL DE DISPARO, C1-C6 (Gal)         : /2/2/2
UMBRAL DE DISPARO, C7-C12 (Gal)        : 
MEMORIA DE PREEVENTO (s)               : 50
TIEMPO DE POSEVENTO (s)                : 60


================================================================================
DATOS DEL SISMO:
FECHA DEL SISMO [GMT]                  : 2023/04/04
HORA EPICENTRO (GMT)                   : 02:11:59
MAGNITUD(ES)                           : /M=5.5
COORDENADAS DEL EPICENTRO              : 16.0100 LAT. N
                                       : -97.0600 LONG. W
PROFUNDIDAD FOCAL (Km)                 : 26.7
FUENTE DE LOS DATOS EPICENTRALES       : SSN
                                       : INSTITUTO DE GEOFISICA, UNAM

================================================================================
DATOS DE ESTE REGISTRO:
HORA DE LA PRIMERA MUESTRA (GMT)       : 02:13:16.000
EXACTITUD DEL TIEMPO (s)               : 
DURACION DEL REGISTRO (s), C1-C6       : /183/183/183
DURACION DEL REGISTRO (s), C7-C12      : 
NUM. TOTAL DE MUESTRAS, C1-C6          : /36600/36600/36600
NUM. TOTAL DE MUESTRAS, C7-C12         : 
ACEL. MAX.(Gal), C1-C6                 : /-0.675/-0.686/0.267
ACEL. MAX., C1-C6, EN LA MUESTRA       : /11127/12632/13590
ACEL. MAX.(Gal), C7-C12                : 
ACEL. MAX., C7-C12,EN LA MUESTRA       : 
UNIDADES DE LOS DATOS                  : Gal (cm/s/s)
FACTOR DE DECIMACION                   : 1
FORMATO DATOS (FORTRAN,16 campos/dato) : 3E16.7


================================================================================
CALIDAD DEL ACELEROGRAMA:
REGISTRO DIGITAL COMPLETO CON TIEMPO ABSOLUTO CORRECTO


================================================================================
COMENTARIOS:














================================================================================
DATOS DE ACELERACION:
---------+---------+---------+---------+---------+---------+---------+---------+
   CANAL-1   	     CANAL-2          CANAL-3
     N90E              N00E              V
---------+---------+---------+---------+---------+---------+---------+---------+
[...]
  -5.2207300e-03  -2.2093700e-01   1.1815200e-01
  -5.7414400e-02  -2.0784900e-01   7.6952100e-02
   1.3035300e-02  -1.9639700e-01   5.2372700e-02
   9.6592000e-02  -2.1135500e-01   6.9929500e-02
   7.2952700e-02  -1.8541300e-01   8.3038500e-02
   5.0951800e-02  -1.8985300e-01   7.4845300e-02
   5.4696600e-02  -1.5736700e-01   4.6286400e-02
   1.2069900e-01  -1.6063900e-01   2.4750200e-02
   1.4855200e-01  -1.7162400e-01   3.1304700e-02
   1.8319100e-01  -1.3586500e-01   4.0902300e-02
   1.8389300e-01  -1.4848600e-01   3.7625100e-02
   1.2397600e-01  -1.1296100e-01   8.3638800e-03
   2.2415000e-01  -1.1716800e-01  -1.5513300e-02
   3.0489800e-01  -1.3376200e-01  -7.3201300e-03
   2.5668400e-01  -9.5666000e-02   5.0866200e-03
   2.4825800e-01  -9.8470600e-02   1.8093700e-03
   2.8219500e-01  -7.3696800e-02  -2.8388200e-02
   3.3462300e-01  -8.3279100e-02  -4.0795000e-02
   3.5990100e-01  -8.6083700e-02  -2.1833700e-02
   3.8564600e-01  -5.3597300e-02  -1.4342800e-02
   3.7136900e-01  -5.2896100e-02  -2.0897300e-02
   3.2736700e-01  -3.1628100e-02  -5.0626700e-02
   4.0834900e-01  -3.5133800e-02  -6.3735700e-02
   4.7879900e-01  -4.8689300e-02  -5.1094900e-02
   4.4860600e-01  -2.7421200e-02  -5.0626700e-02
   4.1045600e-01  -4.7508000e-03  -5.3435800e-02
   4.1771200e-01   6.2465200e-04  -8.1058400e-02
   4.8441600e-01  -6.6205200e-03  -9.6508300e-02
   4.9448100e-01   1.1609300e-02  -8.8783300e-02
   4.8769300e-01   3.1708800e-02  -8.9719700e-02
   4.7271400e-01   3.0540200e-02  -1.0259500e-01
   4.3269100e-01   5.9520900e-02  -1.3747400e-01
   5.0594900e-01   6.1624300e-02  -1.4988100e-01
   5.4831300e-01   4.8302600e-02  -1.3630400e-01
   4.9963000e-01   7.4011200e-02  -1.1898100e-01
   4.5024500e-01   1.1187300e-01  -1.3372900e-01
   4.5890500e-01   1.4038600e-01  -1.7492800e-01
   5.1741800e-01   1.1771600e-01  -1.8593100e-01
   5.0501300e-01   1.3851700e-01  -1.6650100e-01
   5.0360900e-01   1.7217200e-01  -1.5737200e-01
   4.6990500e-01   1.8759700e-01  -1.8593100e-01
   4.2964800e-01   2.0582700e-01  -2.0910500e-01
   4.9728900e-01   1.9858100e-01  -2.0231700e-01
   5.1671600e-01   2.3597600e-01  -1.9342100e-01
   4.8511900e-01   2.3550900e-01  -1.9225100e-01
   4.3620200e-01   2.4999900e-01  -1.9412400e-01
   4.4298900e-01   2.7944700e-01  -2.0816900e-01
   5.0618300e-01   2.6028200e-01  -2.0653000e-01
   4.8207600e-01   2.7874600e-01  -1.7703500e-01
   4.7505400e-01   2.7500600e-01  -1.5151900e-01
   4.4041500e-01   2.9393700e-01  -1.6556500e-01
   4.0249800e-01   3.0819400e-01  -1.9646500e-01
   4.8582100e-01   2.6612500e-01  -1.7726900e-01
   4.9565100e-01   2.7874600e-01  -1.3794200e-01
   4.4392500e-01   2.8014800e-01  -1.1851300e-01
   4.0366800e-01   2.8716000e-01  -1.2272600e-01
   4.1818000e-01   2.8716000e-01  -1.3513300e-01
   4.7224600e-01   2.4368900e-01  -1.2296000e-01
   4.3667000e-01   2.7851200e-01  -9.1592400e-02
   4.2871200e-01   2.7898000e-01  -7.2865200e-02
   4.0296600e-01   2.5327100e-01  -8.7847000e-02
   3.7464600e-01   2.6542400e-01  -9.3933300e-02
   4.5118100e-01   2.3667700e-01  -7.1226600e-02
   4.4813800e-01   2.3948200e-01  -4.9924500e-02
   3.8517800e-01   2.4018300e-01  -2.7685900e-02
   3.5100700e-01   2.4345500e-01  -2.6047300e-02
   3.7394400e-01   2.4532500e-01  -3.6113200e-02
   4.1326500e-01   2.0839800e-01  -2.5813200e-02
   3.7581600e-01   2.1611000e-01  -4.0428800e-03
   3.6153900e-01   2.1657800e-01   2.0536500e-02
   3.1847300e-01   2.1353900e-01   1.0938900e-02
   2.9857900e-01   2.0793000e-01  -3.1065200e-03
   3.5194300e-01   1.8526000e-01   1.1173000e-02
   3.3532500e-01   1.9273900e-01   2.9900100e-02
   2.8523800e-01   1.9110300e-01   4.2306900e-02
   2.1853300e-01   1.9063500e-01   2.2409300e-02
   2.5762000e-01   1.6983500e-01   1.6088800e-02
   2.9764300e-01   1.4576200e-01   4.0902300e-02
   2.2742700e-01   1.6422500e-01   5.5884100e-02
   2.0332000e-01   1.5908400e-01   5.8225000e-02
   1.5885000e-01   1.5113700e-01   4.7456900e-02
   1.5346700e-01   1.3244000e-01   3.7391000e-02
   1.8810600e-01   1.2309100e-01   5.1670500e-02
   1.6563700e-01   1.3173900e-01   7.5547600e-02
   9.1910900e-02   1.1093800e-01   8.0229400e-02
   1.5141800e-02   1.2566200e-01   7.3909000e-02
   6.7101400e-02   1.1140600e-01   6.9929500e-02
   7.8335900e-02   1.0018700e-01   7.7186200e-02
   1.6246800e-04   1.1140600e-01   8.8890700e-02
  -2.5817300e-02   1.0486200e-01   8.9358900e-02
  -6.7712700e-02   1.1888500e-01   7.0397600e-02
  -5.2967400e-02   9.3409600e-02   5.8459100e-02
  -3.7285900e-02   9.6447900e-02   7.2270400e-02
  -6.1861400e-02   1.0836700e-01   7.9293000e-02
  -1.2248100e-01   1.1818300e-01   7.0163500e-02
  -1.8286600e-01   1.3968500e-01   5.1670500e-02
  -1.0469300e-01   1.0673100e-01   3.9731900e-02
  -1.0258600e-01   1.1841700e-01   5.4011400e-02
  -1.4963100e-01   1.4062000e-01   6.6886300e-02
  -1.7514300e-01   1.4482700e-01   6.0565900e-02
  -2.2406000e-01   1.5838200e-01   4.0902300e-02
  -1.8942000e-01   1.4342500e-01   2.8261500e-02
  -1.6507800e-01   1.6960100e-01   4.1136400e-02
  -1.8263200e-01   1.8152000e-01   4.3945500e-02
  -2.5682700e-01   1.7591100e-01   3.2006900e-02
  -2.9170100e-01   1.9951600e-01   1.2811600e-02
  -2.0393100e-01   1.8712900e-01   1.0002500e-02
  -2.1305900e-01   1.8899900e-01   2.6622900e-02
  -2.7344500e-01   2.1540900e-01   3.0368300e-02
  -2.9099800e-01   2.2312200e-01   1.9834300e-02
  -3.0644600e-01   2.2943200e-01  -1.1533700e-02
  -2.7087000e-01   2.1120200e-01  -1.5981400e-02
  -2.5401800e-01   2.1377300e-01   6.2570700e-03
  -2.6735900e-01   2.2616000e-01   1.3513800e-02
  -3.1744600e-01   2.0395700e-01   8.8320600e-03
  -3.3804300e-01   2.2616000e-01  -2.8724300e-03
  -2.5565700e-01   1.9951600e-01  -1.4678900e-03
  -2.4325200e-01   1.7193800e-01   1.5854700e-02
  -2.7040200e-01   2.1727900e-01   2.8963800e-02
  -2.9170100e-01   1.8712900e-01   2.8027400e-02
  -2.9989200e-01   1.6375800e-01   1.0002500e-02
  -2.3810300e-01   1.1795000e-01   1.8663800e-02
  -2.0814400e-01   1.0930200e-01   3.9497800e-02
  -2.1820800e-01   1.6773100e-01   3.3411500e-02
  -2.6548700e-01   1.3431000e-01   4.6052300e-02
  -2.4489000e-01   1.3828300e-01   3.4581900e-02
  -1.4354600e-01   1.1841700e-01   3.6688700e-02
  -1.4120500e-01   7.8218100e-02   6.2204500e-02
  -1.7490900e-01   6.3494100e-02   6.5013600e-02
  -1.8286600e-01   6.3961500e-02   5.4713600e-02
  -1.4846100e-01   8.9436500e-02   3.2475100e-02
  -1.1335300e-01   4.6432800e-02   5.6118200e-02
  -9.2756200e-02   4.3394500e-02   6.8056700e-02
  -5.3669500e-02   5.3911700e-02   6.1970400e-02
  -1.2950200e-01   3.2176200e-02   5.6586300e-02
  -1.1639600e-01   1.2777800e-02   4.6052300e-02
   3.9652000e-04  -1.0113500e-03   6.1502200e-02
  -2.1604400e-02   3.0773900e-02   7.1802200e-02
  -5.0860900e-02   4.2459700e-02   7.3440800e-02
  -7.7542900e-02   3.5214500e-02   6.0800000e-02
  -4.4307400e-02   3.5915700e-02   4.4413700e-02
  -1.0077900e-03   1.8153300e-02   5.3075000e-02
  -1.7099500e-03   2.9371600e-02   6.3609000e-02
  -1.0838000e-02   4.7134000e-02   6.3140900e-02
  -9.3692500e-02   4.0823700e-02   5.0031800e-02
  -6.5372100e-02   4.3160800e-02   3.6220500e-02
   8.5883500e-03   3.5915700e-02   3.7391000e-02
  -8.7315100e-03   4.6199100e-02   3.6454600e-02
  -6.7244600e-02   6.3260300e-02   4.1136400e-02
  -1.0375700e-01   6.5597500e-02   2.5920600e-02
  -5.9520800e-02   3.6149400e-02   2.2775500e-03
  -3.6115600e-02   3.1241400e-02   7.6616100e-03
  -4.0094500e-02   6.4662600e-02   1.6088800e-02
  -8.8543300e-02   5.6950000e-02   1.8195600e-02
  -1.4190700e-01   6.9570700e-02  -8.7246700e-03
  -8.9713600e-02   5.6482600e-02  -3.2367700e-02
  -4.8052300e-02   3.7785400e-02  -2.1365500e-02
  -7.5202300e-02   5.4612900e-02  -1.2938300e-02
  -1.3114100e-01   5.0172300e-02  -1.4576900e-02
  -1.5735500e-01   5.5547700e-02  -2.7920000e-02
  -1.1171400e-01   3.1007600e-02  -4.5710800e-02
  -9.7437300e-02   1.6049900e-02  -4.4540400e-02
  -1.0914000e-01   4.3394500e-02  -3.4942700e-02
  -1.2365100e-01   1.9789300e-02  -3.7517700e-02
  -1.8146200e-01  -7.6493900e-05  -5.8117600e-02
  -1.3324700e-01  -7.6493900e-05  -7.1694800e-02
  -6.2095400e-02  -2.5084000e-02  -6.9353900e-02
  -1.0188400e-01  -3.6068600e-02  -6.0224400e-02
  -1.5548200e-01  -3.4432600e-02  -5.5542600e-02
  -1.5478000e-01  -3.7003500e-02  -8.1994700e-02
  -8.4330400e-02  -7.2060800e-02  -9.6976500e-02
  -7.9883400e-02  -9.4731200e-02  -8.3399300e-02
  -7.6840700e-02  -9.6834600e-02  -6.8417500e-02
  -9.8607500e-02  -9.5432300e-02  -6.2565300e-02
  -1.4822700e-01  -1.0898800e-01  -8.0824300e-02
  -6.0925100e-02  -1.4895300e-01  -8.1994700e-02
  -2.4647100e-02  -1.4170800e-01  -6.8885700e-02
  -4.8520400e-02  -1.5058900e-01  -6.8885700e-02
  -9.1117900e-02  -1.7115600e-01  -6.1863000e-02
  -9.1117900e-02  -1.8120600e-01  -6.2799400e-02
  -8.7315100e-03  -2.2537800e-01  -6.2799400e-02
  -2.8802100e-03  -2.2444300e-01  -5.5074400e-02
  -1.2242300e-02  -2.2000300e-01  -5.1797200e-02
  -4.3605300e-02  -2.5856600e-01  -5.0392600e-02
  -4.8052300e-02  -2.6884900e-01  -6.7013000e-02
   1.6312100e-02  -2.9245400e-01  -6.5842500e-02
   5.6569000e-02  -3.2400600e-01  -4.8988100e-02
   4.4632400e-02  -3.3802900e-01  -4.4540400e-02
  -2.5817300e-02  -3.5345400e-01  -4.6179000e-02
   2.9710900e-03  -3.5953100e-01  -4.9456300e-02
   7.2718600e-02  -4.0954600e-01  -4.3604000e-02
   6.6399200e-02  -4.2520500e-01  -3.8220000e-02
   5.4462600e-02  -4.1375300e-01  -2.4876900e-02
   3.2695700e-02  -4.4296700e-01  -2.8154100e-02
   2.2865500e-02  -4.7451900e-01  -4.1029000e-02
   7.0612200e-02  -5.0747200e-01  -2.1599600e-02
   1.2116700e-01  -4.9859100e-01  -4.9792300e-03
   5.9611700e-02  -5.1354900e-01  -5.3153100e-04
   2.7370400e-03  -5.2920800e-01  -5.3153100e-04
   4.9781500e-02  -5.3668700e-01  -3.5747000e-03
   9.5187600e-02  -5.8039200e-01   7.4275200e-03
   9.1208800e-02  -5.8039200e-01   1.7961600e-02
   6.6165200e-02  -5.8576700e-01   3.3645600e-02
   2.3567700e-02  -5.8670200e-01   3.3645600e-02
   1.4907800e-02  -6.0726900e-01   1.0002500e-02
   7.5761300e-02  -6.4302700e-01   1.5386600e-02
   9.0038500e-02  -6.2830300e-01   3.3411500e-02
   4.4164300e-02  -6.4279400e-01   2.9900100e-02
  -5.4547800e-03  -6.3858700e-01   1.1407000e-02
   2.6376300e-02  -6.4559800e-01   2.7457200e-03
   9.2145000e-02  -6.8299300e-01   6.4911600e-03
   5.1653900e-02  -6.7457900e-01   1.2109300e-02
   2.0291000e-02  -6.5681600e-01   1.5386600e-02
   2.2397400e-02  -6.5845200e-01  -9.4269400e-03
   1.6078000e-02  -6.7504600e-01  -2.4174600e-02
   6.3824700e-02  -6.8416100e-01  -1.1533700e-02
   9.4251400e-02  -6.7855200e-01  -5.2133200e-03
   2.9887100e-02  -6.6663200e-01   2.0434600e-03
  -1.8795800e-02  -6.5775100e-01  -1.5513300e-02
   3.2695700e-02  -6.6382800e-01  -3.1665500e-02
   7.2250500e-02  -6.8556300e-01  -2.3940500e-02
   6.6165200e-02  -6.6663200e-01  -2.5110900e-02
   2.6844400e-02  -6.4583200e-01  -2.8154100e-02
  -8.9655700e-03  -6.4933800e-01  -4.9690400e-02
   3.5036200e-02  -6.5097400e-01  -6.8885700e-02
   6.5697100e-02  -6.6242600e-01  -5.9522100e-02
   6.4058700e-02  -6.5214200e-01  -5.0626700e-02
   3.0121100e-02  -6.4349500e-01  -6.1863000e-02
  -2.5817300e-02  -6.2433000e-01  -8.7612900e-02
   3.8078900e-02  -6.2713500e-01  -8.7378800e-02
   1.0735800e-01  -6.4513100e-01  -7.0056200e-02
   5.7037100e-02  -6.2503100e-01  -7.1226600e-02
   2.8950900e-02  -6.1287800e-01  -7.8249300e-02
   3.7376800e-02  -6.0423000e-01  -9.1358300e-02
   4.3462100e-02  -6.2059100e-01  -9.3231000e-02
   9.1442800e-02  -6.1217700e-01  -8.1994700e-02
   1.1367800e-01  -5.7969000e-01  -7.6142500e-02
   5.0249600e-02  -5.8600100e-01  -6.8183400e-02
   3.0355200e-02  -5.6333000e-01  -7.5674300e-02
   9.6123900e-02  -5.6473300e-01  -6.7715300e-02
   1.2842300e-01  -5.6075900e-01  -4.3135800e-02
   1.0501800e-01  -5.3318100e-01  -3.2133600e-02
   5.8909600e-02  -5.1097800e-01  -2.5345000e-02
   6.0079800e-02  -4.8036100e-01  -3.3772300e-02
   1.0220900e-01  -5.0326500e-01  -2.6515500e-02
   1.2561400e-01  -4.7592100e-01   4.3843500e-03
   1.2233800e-01  -4.4507000e-01   1.7961600e-02
   6.6165200e-02  -4.3946100e-01   1.5152500e-02
   4.0653500e-02  -4.0159900e-01   1.0470700e-02
   1.1016700e-01  -3.9949600e-01   2.2175200e-02
   1.3731700e-01  -3.8360300e-01   3.2241000e-02
   7.7165600e-02  -3.5719300e-01   3.7859200e-02
   7.0612200e-02  -3.2540800e-01   4.4881900e-02
   8.7463900e-02  -3.0554200e-01   3.6220500e-02
   8.6293700e-02  -3.1933200e-01   4.1604600e-02
   1.1110300e-01  -2.7819800e-01   5.6118200e-02
   1.2210400e-01  -2.4875000e-01   6.4311300e-02
   6.5931100e-02  -2.3215600e-01   6.4779500e-02
   3.3163800e-02  -1.8845100e-01   5.2138600e-02
   1.1648600e-01  -1.9008700e-01   6.2906800e-02
   1.3591300e-01  -1.6905300e-01   7.8824900e-02
   8.9102300e-02  -1.3376200e-01   7.6249900e-02
   5.2590200e-02  -1.0454700e-01   8.3272600e-02
   5.4696600e-02  -7.7670000e-02   7.1568100e-02
   1.0548600e-01  -7.2761900e-02   6.6886300e-02
   9.6357900e-02  -4.1444100e-02   8.7018000e-02
   1.1016700e-01  -8.7239600e-03   9.0763400e-02
   5.7505200e-02   2.0724200e-02   8.7720300e-02
   2.5206000e-02   3.8720200e-02   7.4845300e-02
   1.3099800e-01   4.7367700e-02   7.7888500e-02
   1.1742300e-01   7.3076400e-02   9.5913400e-02
   5.7037100e-02   9.4578200e-02   1.0129700e-01
   4.2994000e-02   1.3804900e-01   9.1933900e-02
   7.5527300e-02   1.5067000e-01   7.1802200e-02
   1.0876300e-01   1.3384200e-01   8.4443000e-02
   1.0361400e-01   1.8152000e-01   1.0621300e-01
   9.4953600e-02   2.0746300e-01   1.0902200e-01
   3.9015100e-02   2.1494200e-01   9.8956600e-02
   6.4526800e-02   2.3994900e-01   8.3506700e-02
   1.1999700e-01   2.4509100e-01   9.4274800e-02
   1.2046500e-01   2.6986500e-01   9.7786100e-02
   9.4485500e-02   2.9183400e-01   9.3104300e-02
   4.5568600e-02   3.0959600e-01   9.3806600e-02
   9.8932500e-02   3.1076500e-01   7.7420300e-02
   1.2491200e-01   3.1333600e-01   7.3674900e-02
   1.0455000e-01   3.4652300e-01   8.1399900e-02
   1.0852900e-01   3.5330100e-01   8.7252100e-02
   4.6972900e-02   3.7550400e-01   6.6184000e-02
   6.8973800e-02   3.7410200e-01   3.7391000e-02
   1.5416900e-01   3.6475300e-01   5.6352300e-02
   1.3287000e-01   3.8976100e-01   6.3140900e-02
   6.4760900e-02   3.8298300e-01   5.8927200e-02
   5.0249600e-02   4.1430100e-01   4.2541000e-02
   1.0852900e-01   4.0845800e-01   1.0002500e-02
   1.2023100e-01   3.7620500e-01   1.6322900e-02
   1.0127300e-01   4.1313200e-01   2.5686500e-02
   1.0735800e-01   4.1663800e-01   1.8429700e-02
   4.2994000e-02   4.0752300e-01  -5.2133200e-03
   7.7867800e-02   3.9513600e-01  -1.3172400e-02
   1.4059400e-01   3.9957700e-01  -1.2338000e-03
   8.7932000e-02   4.1360000e-01  -3.3406100e-03
   6.1484100e-02   4.0074500e-01  -1.8556400e-02
   3.3631900e-02   4.2435000e-01  -3.9624500e-02
   7.7867800e-02   4.0261500e-01  -3.8922200e-02
   9.5421700e-02   3.9233100e-01  -3.8688100e-02
   7.1314300e-02   4.1710500e-01  -4.0092700e-02
   6.3122500e-02   4.0425100e-01  -3.3538200e-02
  -3.1142600e-03   4.3486800e-01  -5.6010800e-02
   3.4568100e-02   4.1453400e-01  -7.9419700e-02
   8.1846700e-02   4.0682200e-01  -6.0926700e-02
   6.5463000e-02   4.2996000e-01  -4.3604000e-02
  -1.0077900e-03   4.2014400e-01  -5.5308500e-02
  -2.8625900e-02   4.5286400e-01  -7.4503900e-02
   5.6803100e-02   4.2528500e-01  -7.3567500e-02
   2.4972000e-02   4.1874100e-01  -5.7415300e-02
