**************************************************************************************
  	RED ACELEROGRÁFICA DE LA UNIVERSIDAD AUTONOMA METROPOLITANA (RA-UAM)
	   UNIDAD AZCAPOTZALCO. DIVISIÓN CBI-DEPARTAMENTO DE MATERIALES
     Av. San Pablo 420, Col. Nueva el Rosario, Azcapotzalco, C.P. 02128, Ciudad de México
		Área de Estructuras. e-mail: agb@azc.uam.mx
**************************************************************************************
ARCHIVO ESTANDAR DE ACELERACION:
VERSION DEL FORMATO                    : 2.0
NOMBRE DEL ARCHIVO                     : RUML202312.071
FECHA Y HORA DE CREACION               : 11:30 a. m. 07/12/2023
REF. CATALOGO ACELEROGRAMAS, SMIS 1999 : REGISTRO NO.      /PAG.    


================================================================================
DATOS DE LA ESTACION:
NOMBRE DE LA ESTACION                  : UAM-LERMA.
CLAVE DE LA ESTACION                   : RUML
LOCALIZACION DE LA ESTACION            : AV. DE LAS GARZAS 10, EL PANTEON, C.P.52005,
                                       : LERMA DE VILLADA, ESTADO DE MEXICO.   
                                       : 
                                       : 
                                       : 
COORDENADAS DE LA ESTACION             : 19.291278 LAT. N
                                       : 99.500578 LONG. W
ALTITUD (msnm)                         : 2570
TIPO DE SUELO                          : DEPOSITOS LACUSTRES
                                       : 
                                       : 
INSTITUCION RESPONSABLE                : UNIVERSIDAD AUTONOMA METROPOLITANA
                                       : 

================================================================================
DATOS DEL ACELEROGRAFO: 
MODELO DEL ACELEROGRAFO                : ETNA2 KINEMETRICS
NUMERO DE SERIE DEL ACELEROGRAFO       : 103733
NUMERO DE CANALES                      : 3
ORIENTACION C1-C6 (rumbo;orientacion)  : /N90E/N00E/V 
ORIENTACION C7-C12 (rumbo;orientacion) : 
VEL. DE MUESTREO, C1-C6 (muestras/s)   : /200/200/200
VEL. DE MUESTREO, C7-C12 (muestras/s)  : 
ESC. COMPLETA DE SENSORES, C1-C6, (g)  : /2/2/2
ESC. COMPLETA DE SENSORES, C7-C12 (g)  : 
FREC. NAT. DE SENSORES, C1-C6, (Hz)    : /212/206/208   
FREC. NAT. DE SENSORES, C7-C12 (Hz)    : 
AMORTIGUAMIENTO DE SENSORES, C1-C6     : /0.7/0.7/0.7      
AMORTIGUAMIENTO DE SENSORES, C7-C12    : 
INTERVALO DE MUESTREO, C1-C6 (s)       : /0.005/0.005/0.005
INTERVALO DE MUESTREO, C7-C12 (s)      : 
UMBRAL DE DISPARO, C1-C6 (Gal)         : /2/2/2
UMBRAL DE DISPARO, C7-C12 (Gal)        : 
MEMORIA DE PREEVENTO (s)               : 50
TIEMPO DE POSEVENTO (s)                : 60


================================================================================
DATOS DEL SISMO:
FECHA DEL SISMO [GMT]                  : 2023/12/07
HORA EPICENTRO (GMT)                   : 20:03:40
MAGNITUD(ES)                           : /M=5.7
COORDENADAS DEL EPICENTRO              : 18.2900 LAT. N
                                       : -98.7600 LONG. W
PROFUNDIDAD FOCAL (Km)                 : 48.0
FUENTE DE LOS DATOS EPICENTRALES       : SSN
                                       : INSTITUTO DE GEOFISICA, UNAM

================================================================================
DATOS DE ESTE REGISTRO:
HORA DE LA PRIMERA MUESTRA (GMT)       : 20:03:12.000
EXACTITUD DEL TIEMPO (s)               : 
DURACION DEL REGISTRO (s), C1-C6       : /248/248/248
DURACION DEL REGISTRO (s), C7-C12      : 
NUM. TOTAL DE MUESTRAS, C1-C6          : /49600/49600/49600
NUM. TOTAL DE MUESTRAS, C7-C12         : 
ACEL. MAX.(Gal), C1-C6                 : /-10.23/10.69/-8.054
ACEL. MAX., C1-C6, EN LA MUESTRA       : /13459/15165/13878
ACEL. MAX.(Gal), C7-C12                : 
ACEL. MAX., C7-C12,EN LA MUESTRA       : 
UNIDADES DE LOS DATOS                  : Gal (cm/s/s)
FACTOR DE DECIMACION                   : 1
FORMATO DATOS (FORTRAN,16 campos/dato) : 3E16.7


================================================================================
CALIDAD DEL ACELEROGRAMA:
REGISTRO DIGITAL COMPLETO CON TIEMPO ABSOLUTO CORRECTO


================================================================================
COMENTARIOS:














================================================================================
DATOS DE ACELERACION:
---------+---------+---------+---------+---------+---------+---------+---------+
   CANAL-1   	     CANAL-2          CANAL-3
     N90E              N00E              V
---------+---------+---------+---------+---------+---------+---------+---------+
[...]
   1.6694500e+00   4.3018900e+00   2.0220400e+00
   1.9154400e+00   3.8604000e+00   2.0569200e+00
   2.1820200e+00   3.4219500e+00   2.0604300e+00
   2.3077100e+00   2.9563900e+00   2.0840700e+00
   2.3678600e+00   2.6130600e+00   2.0386600e+00
   2.5302900e+00   2.2393500e+00   1.8921200e+00
   2.6957700e+00   1.8006700e+00   1.7823300e+00
   2.7294700e+00   1.4159700e+00   1.6901000e+00
   2.7180000e+00   1.1551500e+00   1.5121900e+00
   2.7147300e+00   8.9852900e-01   1.2631200e+00
   2.7374300e+00   5.3182900e-01   1.0367600e+00
   2.7383700e+00   2.7965100e-01   8.2794700e-01
   2.6527000e+00   8.8237700e-02   5.7302300e-01
   2.6400600e+00  -1.9409000e-01   3.3565700e-01
   2.7554500e+00  -4.1728800e-01   1.4206400e-01
   2.9080500e+00  -7.4145200e-01  -6.7679900e-02
   2.9714800e+00  -1.0268200e+00  -2.1585900e-01
   2.9382500e+00  -1.1796700e+00  -3.2190100e-01
   2.9658700e+00  -1.3802000e+00  -4.6188700e-01
   3.0515300e+00  -1.5739500e+00  -5.5973600e-01
   3.0157200e+00  -1.7686300e+00  -5.9719100e-01
   2.8652200e+00  -1.9516300e+00  -6.3698600e-01
   2.6882800e+00  -2.2038100e+00  -6.9480600e-01
   2.4617200e+00  -2.4978200e+00  -6.8497400e-01
   2.2351500e+00  -2.7364500e+00  -6.2200400e-01
   1.8609000e+00  -2.9928300e+00  -5.4803200e-01
   1.3495000e+00  -3.2139300e+00  -4.7640000e-01
   9.6191100e-01  -3.3765900e+00  -4.2021900e-01
   6.1036400e-01  -3.6177900e+00  -3.3103100e-01
   2.2979500e-01  -3.9064200e+00  -2.2241300e-01
  -2.3128700e-01  -4.2149300e+00  -1.5031400e-01
  -7.5626600e-01  -4.5725100e+00  -1.1707300e-01
  -1.0801900e+00  -4.9808100e+00  -1.0443200e-01
  -1.3390600e+00  -5.3122200e+00  -1.6155000e-01
  -1.6526900e+00  -5.6550800e+00  -2.6080400e-01
  -1.8478900e+00  -5.9364700e+00  -4.2279400e-01
  -2.0119600e+00  -6.0797400e+00  -7.0744700e-01
  -2.1465400e+00  -6.3716500e+00  -1.0393900e+00
  -2.1322600e+00  -6.5682100e+00  -1.4083100e+00
  -2.2127700e+00  -6.7811200e+00  -1.7763000e+00
  -2.4627400e+00  -7.0709300e+00  -2.0986400e+00
  -2.5654900e+00  -7.2410700e+00  -2.4472000e+00
  -2.6057500e+00  -7.5203600e+00  -2.7800800e+00
  -2.7094300e+00  -7.7690400e+00  -3.0361700e+00
  -2.8646100e+00  -7.8868300e+00  -3.2337400e+00
  -3.0649600e+00  -7.9216500e+00  -3.3985400e+00
  -3.1489800e+00  -7.8716400e+00  -3.5827700e+00
  -3.2540700e+00  -7.8534100e+00  -3.7501400e+00
  -3.4672900e+00  -7.7695000e+00  -3.8575900e+00
  -3.6711500e+00  -7.5974900e+00  -3.9097900e+00
  -3.8949100e+00  -7.3642400e+00  -3.9020700e+00
  -4.1081300e+00  -6.9900600e+00  -3.8053900e+00
  -4.2600300e+00  -6.6324800e+00  -3.5968200e+00
  -4.5153800e+00  -6.2533900e+00  -3.3353400e+00
  -4.7777500e+00  -5.8287300e+00  -2.9914600e+00
  -4.9399500e+00  -5.3893500e+00  -2.5731400e+00
  -5.0834200e+00  -4.9055600e+00  -2.1272000e+00
  -5.1814900e+00  -4.3743200e+00  -1.6791500e+00
  -5.2800300e+00  -3.8393500e+00  -1.2535800e+00
  -5.2961800e+00  -3.3646700e+00  -7.9827400e-01
  -5.4951200e+00  -2.7448600e+00  -4.1413300e-01
  -5.5615900e+00  -2.2629400e+00  -1.6833800e-01
  -5.0937200e+00  -1.9095600e+00   9.3139700e-02
  -4.9486100e+00  -1.5208900e+00   4.6300100e-01
  -5.2589600e+00  -1.1221700e+00   7.3571600e-01
  -5.3467300e+00  -5.0867100e-01   8.6446500e-01
  -5.1442800e+00  -1.1486100e-01   9.6863500e-01
  -4.9886300e+00   1.1978900e-01   1.0894300e+00
  -5.0448000e+00   4.5026300e-01   1.2160700e+00
  -5.2460900e+00   7.0921900e-01   1.2266000e+00
  -5.2643500e+00   9.2470500e-01   1.1591800e+00
  -4.8786300e+00   9.5672400e-01   1.0856800e+00
  -4.6827300e+00   8.8567400e-01   1.0489300e+00
  -4.8418800e+00   8.7328700e-01   1.0199000e+00
  -4.7346900e+00   8.3051700e-01   9.0379200e-01
  -4.3805600e+00   7.0103900e-01   7.7153200e-01
  -3.9148000e+00   4.3460400e-01   6.9264300e-01
  -3.6133400e+00   1.4246000e-01   6.4067500e-01
  -3.4490400e+00  -2.8386200e-02   5.5991400e-01
  -2.9865500e+00  -1.9455800e-01   4.2484500e-01
  -2.3389300e+00  -3.7171400e-01   2.8626400e-01
  -1.7804800e+00  -7.1106900e-01   1.6687800e-01
  -1.4333800e+00  -1.2140200e+00   7.4646600e-02
  -1.1785000e+00  -1.6335400e+00  -2.6714200e-02
  -8.3397200e-01  -2.1771600e+00  -1.2433000e-01
  -2.8348100e-01  -2.7614500e+00  -1.5148400e-01
   2.0318800e-02  -3.1886800e+00  -1.1754100e-01
   6.2214100e-02  -3.6308700e+00  -6.4636800e-02
   2.9299000e-01  -4.0211800e+00  -2.3202900e-02
   5.2306300e-01  -4.2829400e+00   7.2287500e-03
   5.4600000e-01  -4.6426300e+00   3.4833200e-03
   4.2359100e-01  -5.0829500e+00   1.8446900e-03
   2.0358200e-01  -5.3524200e+00  -6.3700400e-02
  -5.2471500e-02  -5.5938500e+00  -2.5752700e-01
  -9.6941400e-02  -5.8504700e+00  -4.5158700e-01
  -2.1841400e-01  -6.0416500e+00  -6.3675200e-01
  -5.2034200e-01  -6.3034100e+00  -8.6007300e-01
  -7.0196600e-01  -6.4999600e+00  -1.1009500e+00
  -8.0237500e-01  -6.6067700e+00  -1.3591500e+00
  -8.4801500e-01  -6.7769100e+00  -1.6122000e+00
  -1.0076400e+00  -6.9276600e+00  -1.8584700e+00
  -1.1319200e+00  -7.0393800e+00  -2.0789800e+00
  -1.0600700e+00  -7.1546000e+00  -2.2852100e+00
  -9.5053000e-01  -7.2064800e+00  -2.5038500e+00
  -8.4567400e-01  -7.2586000e+00  -2.6300300e+00
  -7.4081900e-01  -7.3065100e+00  -2.6429000e+00
  -6.2449500e-01  -7.1718900e+00  -2.6363500e+00
  -4.7844600e-01  -6.9917000e+00  -2.6244100e+00
  -2.9354500e-01  -6.9141100e+00  -2.5740800e+00
  -1.0911200e-01  -6.7640600e+00  -2.5392000e+00
   6.6895100e-02  -6.4695800e+00  -2.5614400e+00
   2.6232900e-01  -6.1620100e+00  -2.6166800e+00
   4.7765700e-01  -5.8441600e+00  -2.6918300e+00
   6.2487600e-01  -5.5225600e+00  -2.8517100e+00
   7.4400800e-01  -5.2551900e+00  -3.0422600e+00
   8.8467300e-01  -5.0034800e+00  -3.1775600e+00
   9.8812400e-01  -4.8384800e+00  -3.3278500e+00
   1.1032800e+00  -4.7057300e+00  -3.3983100e+00
   1.2795200e+00  -4.5028700e+00  -3.3980700e+00
   1.3998200e+00  -4.2941600e+00  -3.3842600e+00
   1.4691000e+00  -4.0328600e+00  -3.3327600e+00
   1.5414200e+00  -3.8690300e+00  -3.2704900e+00
   1.5224700e+00  -3.7535700e+00  -3.1885600e+00
   1.4978900e+00  -3.5479000e+00  -3.1445500e+00
   1.4904000e+00  -3.4153900e+00  -3.0986700e+00
   1.3792300e+00  -3.3158300e+00  -3.0048000e+00
   1.2523700e+00  -3.1555000e+00  -2.8978200e+00
   1.1596800e+00  -2.9325300e+00  -2.8224500e+00
   1.0138700e+00  -2.8184800e+00  -2.7545600e+00
   8.4886300e-01  -2.6936800e+00  -2.6405600e+00
   6.3213100e-01  -2.4840300e+00  -2.5445800e+00
   4.2429300e-01  -2.3697500e+00  -2.4549300e+00
   2.8971300e-01  -2.1804400e+00  -2.3800200e+00
   1.0410900e-01  -2.0124000e+00  -2.3142400e+00
  -1.7254000e-01  -1.8717000e+00  -2.2185000e+00
  -4.3748700e-01  -1.6438300e+00  -2.1339900e+00
  -5.7979100e-01  -1.5655300e+00  -2.0616600e+00
  -6.9400800e-01  -1.5218300e+00  -1.9773800e+00
  -8.3958900e-01  -1.4316100e+00  -1.8568300e+00
  -1.0415800e+00  -1.3054100e+00  -1.7449300e+00
  -1.2435600e+00  -1.1932200e+00  -1.6599600e+00
  -1.2854600e+00  -1.1654100e+00  -1.5571900e+00
  -1.3364800e+00  -1.0845500e+00  -1.4427200e+00
  -1.5143600e+00  -1.0653800e+00  -1.3591500e+00
  -1.5686600e+00  -9.8428200e-01  -1.2915000e+00
  -1.5499400e+00  -9.6745400e-01  -1.2030100e+00
  -1.6182800e+00  -1.0546300e+00  -1.0948700e+00
  -1.7236000e+00  -9.8872200e-01  -9.3287500e-01
  -1.9157600e+00  -1.0527600e+00  -7.0276500e-01
  -2.1039400e+00  -1.1397000e+00  -4.1272800e-01
  -2.2380500e+00  -1.2275800e+00  -1.4307500e-02
  -2.3869100e+00  -1.3383600e+00   4.6791700e-01
  -2.6188500e+00  -1.2694100e+00   9.5037600e-01
  -2.8952700e+00  -1.2530500e+00   1.3864900e+00
  -3.0811100e+00  -1.2378600e+00   1.7551800e+00
  -3.2512600e+00  -1.1754600e+00   2.0688600e+00
  -3.4780600e+00  -1.1565300e+00   2.3195700e+00
  -3.7692200e+00  -1.1635400e+00   2.5201800e+00
  -3.8904600e+00  -1.2348200e+00   2.6870900e+00
  -3.9316500e+00  -1.2184600e+00   2.8547000e+00
  -4.1167900e+00  -1.2488500e+00   3.0492200e+00
  -4.1813900e+00  -1.2287500e+00   3.2929100e+00
  -4.2228100e+00  -1.0539300e+00   3.5862300e+00
  -4.2569800e+00  -1.0102200e+00   3.8692400e+00
  -4.1792800e+00  -9.0552000e-01   4.1656000e+00
  -4.0667000e+00  -7.4916400e-01   4.4186500e+00
  -3.9173700e+00  -6.1174000e-01   4.5881300e+00
  -3.7420700e+00  -4.3995900e-01   4.7278800e+00
  -3.3914600e+00  -3.2286700e-01   4.8500800e+00
  -3.0104200e+00  -1.9432400e-01   4.9837400e+00
  -2.6897700e+00  -7.0688700e-02   5.0837000e+00
  -2.2490500e+00   1.0015700e-01   5.1590700e+00
  -1.7500500e+00   2.8619500e-01   5.2178300e+00
  -1.2335000e+00   5.2388300e-01   5.2424100e+00
  -6.9986000e-01   8.0410800e-01   5.2794000e+00
  -1.4796500e-01   1.0317500e+00   5.3023400e+00
   3.9948300e-01   1.3629200e+00   5.2824400e+00
   1.0309600e+00   1.5788700e+00   5.1965300e+00
   1.6834900e+00   1.7062500e+00   5.0778400e+00
   2.1420000e+00   1.8986000e+00   4.9313000e+00
   2.5897400e+00   1.9773600e+00   4.7491800e+00
   3.0606600e+00   2.0720100e+00   4.5883600e+00
   3.5332100e+00   2.1285700e+00   4.4188800e+00
   3.9318000e+00   2.2218200e+00   4.2484700e+00
   4.2114900e+00   2.3830900e+00   4.0792200e+00
   4.6323200e+00   2.4165100e+00   3.9174600e+00
   4.9653700e+00   2.4983100e+00   3.7699900e+00
   5.0388700e+00   2.6219500e+00   3.6023800e+00
   5.1324900e+00   2.7745600e+00   3.4279800e+00
   5.2546600e+00   2.9865400e+00   3.2020800e+00
   5.4292600e+00   3.2024900e+00   2.9644800e+00
   5.7192500e+00   3.4212500e+00   2.7399900e+00
   5.8603900e+00   3.5979400e+00   2.5145600e+00
   5.8807500e+00   3.8351600e+00   2.2835200e+00
   6.0588600e+00   4.1382900e+00   2.0220400e+00
   6.2763000e+00   4.3745800e+00   1.7966100e+00
   6.3460500e+00   4.6903300e+00   1.5849900e+00
   6.3778800e+00   5.1362500e+00   1.3279600e+00
   6.5550600e+00   5.5396500e+00   1.0376900e+00
   6.8045500e+00   5.9357900e+00   7.4133400e-01
   6.9265000e+00   6.3064700e+00   4.5808500e-01
   6.9782200e+00   6.6451200e+00   2.3148700e-01
   7.0002200e+00   7.0080800e+00   1.7762800e-02
   7.0156700e+00   7.3224300e+00  -2.1211300e-01
   7.0688000e+00   7.6465900e+00  -3.6497400e-01
   7.0465600e+00   8.0130600e+00  -4.4222300e-01
   6.9129200e+00   8.3580200e+00  -5.0449100e-01
   6.8597900e+00   8.7415500e+00  -5.7190900e-01
   6.8834300e+00   9.0659400e+00  -6.8403800e-01
   6.7472100e+00   9.2209000e+00  -8.1466000e-01
   6.4869500e+00   9.4197900e+00  -9.7220200e-01
   6.1988300e+00   9.6371400e+00  -1.1768000e+00
   6.0605000e+00   9.7198800e+00  -1.4050300e+00
   6.0026900e+00   9.9105900e+00  -1.6475500e+00
   5.7913400e+00   1.0116700e+01  -1.7695100e+00
   5.4318400e+00   1.0089600e+01  -1.8851500e+00
   5.1722800e+00   1.0180500e+01  -2.0157700e+00
   5.1111900e+00   1.0464500e+01  -2.0457400e+00
   4.9513300e+00   1.0466800e+01  -2.0740600e+00
   4.6180400e+00   1.0467300e+01  -2.1993000e+00
   4.3112000e+00   1.0692800e+01  -2.3268800e+00
   4.1260600e+00   1.0511200e+01  -2.4010900e+00
   3.8356000e+00   1.0138900e+01  -2.5455200e+00
   3.6223800e+00   1.0187500e+01  -2.7744600e+00
   3.5058200e+00   1.0129600e+01  -3.0106600e+00
   3.2750500e+00   9.6677600e+00  -3.1185700e+00
   3.1191700e+00   9.3695400e+00  -3.2543400e+00
   2.9103900e+00   9.1271800e+00  -3.4051000e+00
   2.7409400e+00   8.8691500e+00  -3.4896000e+00
   2.6445100e+00   8.6485300e+00  -3.5699000e+00
   2.4521200e+00   8.3038000e+00  -3.5537400e+00
   2.3217500e+00   8.0413300e+00  -3.4856200e+00
   2.2548100e+00   7.7576000e+00  -3.3727900e+00
   2.0584500e+00   7.4353100e+00  -3.2126700e+00
   1.7958400e+00   7.1237700e+00  -3.0059700e+00
   1.6174900e+00   6.8031100e+00  -2.7505800e+00
   1.3483300e+00   6.6145000e+00  -2.4816100e+00
   1.0192500e+00   6.5095600e+00  -2.1847900e+00
   6.9602700e-01   6.3359100e+00  -1.8624500e+00
   2.9416000e-01   6.2031600e+00  -1.5209100e+00
  -1.1192100e-01   6.1786200e+00  -1.1777300e+00
  -5.7791900e-01   6.0825700e+00  -8.7271400e-01
  -1.1216200e+00   6.0260100e+00  -6.2996300e-01
  -1.6665000e+00   5.9996000e+00  -4.3192300e-01
  -2.2329000e+00   5.9587000e+00  -2.7929700e-01
  -2.8330100e+00   6.0227400e+00  -1.9081100e-01
  -3.3460500e+00   6.0753200e+00  -1.5452700e-01
  -3.7923900e+00   6.0870100e+00  -1.7770200e-01
  -4.2448100e+00   6.0947200e+00  -2.1000600e-01
  -4.6003400e+00   6.0888800e+00  -2.7016700e-01
  -4.8929000e+00   6.0916800e+00  -3.8627600e-01
  -5.0930200e+00   6.0566200e+00  -4.8108200e-01
  -5.1983400e+00   6.0077800e+00  -5.8080400e-01
  -5.3221600e+00   5.9042400e+00  -6.6507700e-01
  -5.3446200e+00   5.8030400e+00  -7.3296300e-01
  -5.2486600e+00   5.7378400e+00  -8.3174900e-01
  -5.1328100e+00   5.5230500e+00  -8.9565500e-01
  -4.9563300e+00   5.3709000e+00  -9.0665700e-01
  -4.7976500e+00   5.3159800e+00  -8.9425100e-01
  -4.6700900e+00   5.1785600e+00  -8.7154400e-01
  -4.3791600e+00   5.1110100e+00  -8.2191700e-01
  -4.0821500e+00   5.0614700e+00  -7.6479900e-01
  -3.9012300e+00   5.0205600e+00  -7.0838300e-01
  -3.6812200e+00   4.9955600e+00  -6.1193800e-01
  -3.4335900e+00   4.8714500e+00  -4.6773900e-01
  -3.1405600e+00   4.7873200e+00  -2.9381100e-01
  -2.9158700e+00   4.7087900e+00  -1.1660500e-01
  -2.7613900e+00   4.6363400e+00   7.7923800e-02
  -2.5458300e+00   4.6541000e+00   2.4927700e-01
  -2.3674800e+00   4.5484600e+00   4.1173600e-01
  -2.2279900e+00   4.4016900e+00   6.2569400e-01
  -2.1280500e+00   4.3233900e+00   8.7148800e-01
  -2.0910700e+00   4.1726500e+00   1.1383500e+00
  -1.9735700e+00   3.9987600e+00   1.4070800e+00
  -1.7704100e+00   3.8080500e+00   1.6683300e+00
  -1.6997300e+00   3.5764400e+00   1.9298100e+00
  -1.7088600e+00   3.3338400e+00   2.1702200e+00
  -1.6021300e+00   3.1055000e+00   2.3485900e+00
  -1.4640400e+00   2.8430400e+00   2.4806200e+00
  -1.3570800e+00   2.5338300e+00   2.5543600e+00
  -1.2782000e+00   2.2290700e+00   2.5588100e+00
  -1.2068200e+00   1.8838700e+00   2.5208800e+00
  -1.0537500e+00   1.6466500e+00   2.4228000e+00
  -9.5450900e-01   1.3785800e+00   2.2985000e+00
  -9.1682600e-01   1.0668000e+00   2.1671700e+00
  -8.5597300e-01   9.2821000e-01   1.9824800e+00
  -8.1758800e-01   6.9916900e-01   1.7612600e+00
  -6.7060300e-01   4.8485300e-01   1.5494100e+00
  -4.8102100e-01   3.5023300e-01   1.3689300e+00
  -4.2578500e-01   1.7891900e-01   1.2230900e+00
  -2.8441700e-01   1.2773600e-01   1.0709300e+00
  -1.7831700e-02   6.2036600e-03   9.4054400e-01
   1.1300300e-01  -1.9712900e-01   8.7570100e-01
   2.6771200e-01  -2.7238500e-01   8.3590600e-01
   5.0691300e-01  -3.4694000e-01   7.9938800e-01
   6.8455900e-01  -4.9605000e-01   7.6614700e-01
   8.9403500e-01  -5.7107300e-01   7.0598600e-01
   1.1016400e+00  -6.2342500e-01   6.1656400e-01
   1.2425400e+00  -6.8956700e-01   5.1848100e-01
   1.3822700e+00  -6.2062100e-01   3.4572200e-01
   1.5007000e+00  -6.6128700e-01   1.0133300e-01
   1.6004000e+00  -7.2462400e-01  -1.6248600e-01
   1.7001100e+00  -6.7531000e-01  -4.4152100e-01
   1.6603200e+00  -8.1133200e-01  -6.8099500e-01
   1.6497900e+00  -9.1183000e-01  -8.9027100e-01
   1.7361600e+00  -9.9456500e-01  -1.0761400e+00
   1.6736600e+00  -1.1752300e+00  -1.1964600e+00
   1.6235800e+00  -1.2525900e+00  -1.2608300e+00
   1.6306000e+00  -1.3736500e+00  -1.2943100e+00
   1.5259800e+00  -1.5526800e+00  -1.3116300e+00
   1.4550600e+00  -1.6847300e+00  -1.3200600e+00
   1.4431200e+00  -1.8382800e+00  -1.3474500e+00
   1.3663500e+00  -1.9864500e+00  -1.4029300e+00
   1.3527800e+00  -2.1107900e+00  -1.4778400e+00
   1.3223500e+00  -2.2893500e+00  -1.5543800e+00
