**************************************************************************************
            UNIVERSIDAD AUTONOMA METROPOLITANA - AZCAPOTZALCO
                        Departamento de Materiales
                           Area de Estructuras
     AV. SAN PABLO 180,COL.REYNOSA, AZCAPOTZALCO, C.P.02200 CIUDAD DE MEXICO.
**************************************************************************************
ARCHIVO ESTANDAR DE ACELERACION:
VERSION DEL FORMATO                    : 2.0
NOMBRE DEL ARCHIVO                     : RIML201306291
FECHA Y HORA DE CREACION               : 08:14 p. m. 05/01/2014
REF. CATALOGO ACELEROGRAMAS, SMIS 1995 : REGISTRO NO.      /PAG.    


================================================================================
DATOS DE LA ESTACION:
NOMBRE DE LA ESTACION                  : UAM-LERMA.
CLAVE DE LA ESTACION                   : RIML
LOCALIZACION DE LA ESTACION            : AV. DE LAS GARZAS 10, EL PANTEON, C.P.52005,
                                       : LERMA DE VILLADA, ESTADO DE MEXICO. 
                                       :
                                       : 
                                       : 
COORDENADAS DE LA ESTACION             : 19.291481 LAT. N
                                       : 99.502060 LONG. W
ALTITUD (msnm)                         : 2570
TIPO DE SUELO                          : DEPOSITOS LACUSTRES
                                       : 
                                       : 
INSTITUCION RESPONSABLE                : UNIVERSIDAD AUTONOMA METROPOLITANA
                                       : 

================================================================================
DATOS DEL ACELEROGRAFO: 
MODELO DEL ACELEROGRAFO                : BASALT KINEMETRICS
NUMERO DE SERIE DEL ACELEROGRAFO       : 978
NUMERO DE CANALES                      : 3
ORIENTACION C1-C6 (rumbo;orientacion)  : /V/N00E/N90E
ORIENTACION C7-C12 (rumbo;orientacion) : 
VEL. DE MUESTREO, C1-C6 (muestras/s)   : /250/250/250
VEL. DE MUESTREO, C7-C12 (muestras/s)  : 
ESC. COMPLETA DE SENSORES, C1-C6, (g)  : /2/2/2
ESC. COMPLETA DE SENSORES, C7-C12 (g)  : 
FREC. NAT. DE SENSORES, C1-C6, (Hz)    : /210/212/212
FREC. NAT. DE SENSORES, C7-C12 (Hz)    : 
AMORTIGUAMIENTO DE SENSORES, C1-C6     : /0.7/0.7/0.7
AMORTIGUAMIENTO DE SENSORES, C7-C12    : 
INTERVALO DE MUESTREO, C1-C6 (s)       : /0.004/0.004/0.004
INTERVALO DE MUESTREO, C7-C12 (s)      : 
UMBRAL DE DISPARO, C1-C6 (Gal)         : /2/2/2
UMBRAL DE DISPARO, C7-C12 (Gal)        : 
MEMORIA DE PREEVENTO (s)               : 20
TIEMPO DE POSEVENTO (s)                : 30


================================================================================
DATOS DEL SISMO:
FECHA DEL SISMO [GMT]                  : 2013/06/29
HORA EPICENTRO (GMT)                   : 21:19:26
MAGNITUD(ES)                           : /M=4.7
COORDENADAS DEL EPICENTRO              : 18.147 LAT. N
                                       : 99.247 LONG. W
PROFUNDIDAD FOCAL (Km)                 : 50.6
FUENTE DE LOS DATOS EPICENTRALES       : SSN
                                       : INSTITUTO DE GEOFISICA, UNAM

================================================================================
DATOS DE ESTE REGISTRO:
HORA DE LA PRIMERA MUESTRA (GMT)       : 21:32:17.000
EXACTITUD DEL TIEMPO (s)               : 
DURACION DEL REGISTRO (s), C1-C6       : /57.00/57.00/57.00
DURACION DEL REGISTRO (s), C7-C12      : 
NUM. TOTAL DE MUESTRAS, C1-C6          : /14250/14250/14250
NUM. TOTAL DE MUESTRAS, C7-C12         : 
ACEL. MAX.(Gal), C1-C6                 : /-0.992/-1.581/1.484
ACEL. MAX., C1-C6, EN LA MUESTRA       : /6947/6390/5809
ACEL. MAX.(Gal), C7-C12                : 
ACEL. MAX., C7-C12,EN LA MUESTRA       : 
UNIDADES DE LOS DATOS                  : Gal (cm/s/s)
FACTOR DE DECIMACION                   : 1
FORMATO DATOS (FORTRAN,16 campos/dato) : 3E16.7


================================================================================
CALIDAD DEL ACELEROGRAMA:
REGISTRO DIGITAL COMPLETO CON TIEMPO ABSOLUTO CORRECTO


================================================================================
COMENTARIOS:














================================================================================
DATOS DE ACELERACION:
---------+---------+---------+---------+---------+---------+---------+---------+
   CANAL-1   	   CANAL-2   	      CANAL-3
         V           N00E              N90E
---------+---------+---------+---------+---------+---------+---------+---------+
[...]
  -4.4370259e-01  -4.6184008e-01  -1.2309627e-01
  -4.6973360e-01  -4.2326684e-01  -7.8551119e-02
  -4.4697116e-01  -4.3624160e-01  -5.8207707e-02
  -3.8650527e-01  -4.9375043e-01  -3.7981203e-02
  -3.2627283e-01  -5.0999819e-01   5.0437643e-03
  -2.7689617e-01  -4.7797057e-01   3.9884839e-02
  -1.9530232e-01  -4.6055441e-01   7.7064449e-02
  -9.3864425e-02  -5.0988131e-01   1.1096987e-01
  -1.0052494e-02  -5.1151762e-01   1.3505471e-01
   1.3480892e-01  -4.7539923e-01   1.7433864e-01
   2.1663621e-01  -4.0982496e-01   2.2168957e-01
   2.7430042e-01  -3.8457712e-01   2.5769971e-01
   3.9266434e-01  -4.1087687e-01   2.9183935e-01
   5.1978268e-01  -3.4471821e-01   3.0902626e-01
   5.8795290e-01  -2.3402507e-01   3.6374273e-01
   6.9907937e-01  -1.9299737e-01   4.0887242e-01
   7.9304676e-01  -1.9030876e-01   4.0898933e-01
   8.1604226e-01  -9.8785364e-02   4.2980076e-01
   8.6716972e-01   1.5882052e-02   4.6464183e-01
   8.8036031e-01   8.8235704e-02   4.8077620e-01
   9.3067073e-01   9.8638728e-02   4.5645755e-01
   9.2646840e-01   1.4609556e-01   4.6288783e-01
   9.0020435e-01   2.6906179e-01   4.7726859e-01
   8.8456263e-01   3.4585724e-01   4.5411901e-01
   8.6156675e-01   3.8524863e-01   4.3167127e-01
   8.5316249e-01   3.8863852e-01   4.1331528e-01
   8.2082818e-01   4.6087529e-01   3.6549673e-01
   7.9666510e-01   5.4924295e-01   3.4819290e-01
   7.4437042e-01   5.5426914e-01   3.3018803e-01
   7.7507025e-01   5.3334622e-01   2.2952313e-01
   7.3153000e-01   5.5730800e-01   2.1444093e-01
   6.2308849e-01   6.3597391e-01   1.8953775e-01
   5.6413997e-01   6.1984342e-01   1.0652701e-01
   4.9550287e-01   5.6852957e-01   6.9464700e-02
   4.4612661e-01   5.6654223e-01   1.3929492e-02
   3.3371582e-01   5.9693315e-01  -8.9862697e-03
   2.4511835e-01   5.9938801e-01  -4.6048580e-02
   1.4029518e-01   5.6677599e-01  -9.5036596e-02
   7.4926640e-02   5.3603444e-01  -1.2192720e-01
   3.3020479e-02   5.3755386e-01  -1.7126594e-01
  -6.3631482e-02   5.7098403e-01  -1.9429821e-01
  -8.9195216e-02   5.0622791e-01  -2.2668424e-01
  -1.4499189e-01   4.7291502e-01  -2.9917216e-01
  -1.9180031e-01   4.8600626e-01  -3.2325699e-01
  -2.5588492e-01   5.1125411e-01  -3.4664038e-01
  -3.0747927e-01   4.8565562e-01  -4.0907350e-01
  -2.5856988e-01   3.7835237e-01  -4.5876296e-01
  -3.0421110e-01   3.9611917e-01  -4.9851453e-01
  -3.4261486e-01   4.2744552e-01  -5.0564626e-01
  -2.7701289e-01   3.7905365e-01  -5.6281856e-01
  -3.0281006e-01   3.1067389e-01  -6.1133855e-01
  -3.2744003e-01   2.8601043e-01  -6.2618694e-01
  -3.2872435e-01   2.9641385e-01  -6.7400588e-01
  -3.4518310e-01   2.7736099e-01  -6.7400588e-01
  -3.0245990e-01   1.9027900e-01  -7.2427987e-01
  -3.1541704e-01   1.2423721e-01  -7.6414835e-01
  -3.2043641e-01   1.3569254e-01  -7.5947167e-01
  -3.5323721e-01   1.5112176e-01  -8.0050921e-01
  -3.8043542e-01   9.2443744e-02  -8.0600424e-01
  -3.1646753e-01  -1.6963720e-02  -8.5031558e-01
  -3.0642879e-01   3.8423278e-03  -8.7708928e-01
  -3.4109750e-01   1.4362623e-02  -8.3125815e-01
  -3.3876309e-01  -2.5145650e-02  -8.5662896e-01
  -2.8810211e-01  -9.0836801e-02  -8.6796974e-01
  -2.8156538e-01  -1.2613703e-01  -8.3219340e-01
  -2.8004801e-01  -9.1655347e-02  -7.9337709e-01
  -2.3499040e-01  -1.5489165e-01  -7.5222264e-01
  -1.9028295e-01  -2.1543973e-01  -7.2650111e-01
  -1.4335781e-01  -2.6219489e-01  -6.6769211e-01
  -7.0518380e-02  -2.6313032e-01  -6.0502517e-01
  -5.7211467e-02  -2.5798725e-01  -5.2867892e-01
  -3.1530621e-02  -3.3221096e-01  -4.5981513e-01
   6.1385895e-02  -4.0047385e-01  -4.2497405e-01
   1.0247462e-01  -3.9275904e-01  -3.4208061e-01
   1.4869944e-01  -3.6342043e-01  -2.4200025e-01
   1.4438078e-01  -4.1613682e-01  -1.9745510e-01
   1.7648125e-01  -4.6300887e-01  -1.5396211e-01
   2.0659747e-01  -4.3320235e-01  -7.8901841e-02
   1.6784316e-01  -3.6400483e-01  -1.8105419e-02
   1.8920456e-01  -3.9462950e-01   3.2519297e-02
   2.0554699e-01  -4.2361787e-01   6.4904929e-02
   2.0332891e-01  -3.7627791e-01   1.2640279e-01
   1.9912658e-01  -3.2297712e-01   1.6767455e-01
   2.2924280e-01  -2.8475452e-01   1.9830657e-01
   2.3507961e-01  -3.1093740e-01   2.4413770e-01
   2.3402873e-01  -2.9071575e-01   2.4063009e-01
   2.4313371e-01  -2.2666090e-01   2.9254079e-01
   2.2188903e-01  -1.5863217e-01   3.3194163e-01
   2.2900936e-01  -1.7838631e-01   3.3030493e-01
   2.5749150e-01  -1.9533495e-01   3.4234715e-01
   2.3157761e-01  -9.2122864e-02   3.8782756e-01
   1.5278505e-01  -1.1937527e-02   4.3891991e-01
   1.8465247e-01  -6.5606963e-03   4.4055700e-01
   2.2410671e-01  -3.8587922e-02   4.7189047e-01
   1.8873768e-01   5.2701713e-02   5.0603010e-01
   1.6072282e-01   1.5825177e-01   5.5244577e-01
   1.6679267e-01   1.8688951e-01   5.7150320e-01
   1.5943889e-01   2.0640989e-01   5.6179912e-01
   1.0959535e-01   2.4825574e-01   5.8319470e-01
   1.2850524e-01   3.6116958e-01   5.9886143e-01
   1.1368057e-01   4.2802991e-01   6.1522961e-01
   1.1823305e-01   4.2171766e-01   5.8775447e-01
   1.5698737e-01   4.5444655e-01   5.6402036e-01
   1.4554799e-01   5.6385401e-01   5.7863493e-01
   1.4169582e-01   6.3246714e-01   5.5361484e-01
   1.6410810e-01   6.3574015e-01   5.0778371e-01
   2.1792014e-01   6.2229788e-01   4.7446243e-01
   1.8651999e-01   6.8705400e-01   4.3284034e-01
   1.8313471e-01   7.6233002e-01   4.1530310e-01
   1.9153936e-01   7.3205598e-01   3.6584745e-01
   1.4531455e-01   7.0423679e-01   2.8915048e-01
   1.0889503e-01   7.1802931e-01   2.7149593e-01
   5.8350772e-02   7.6688870e-01   2.2554790e-01
   3.7923129e-02   7.3123783e-01   1.7036341e-01
   3.6049714e-03   6.5467613e-01   1.1202204e-01
  -3.0596858e-02   6.4146762e-01   5.3330337e-02
  -7.9273196e-02   6.5654620e-01   9.8373494e-03
  -1.5234567e-01   6.6157239e-01  -3.7747388e-02
  -1.5398015e-01   5.7203594e-01  -8.2058726e-02
  -1.0028444e-01   4.7314877e-01  -1.8143764e-01
  -1.4464173e-01   4.9675992e-01  -1.9827345e-01
  -1.6833794e-01   4.9290291e-01  -1.9231079e-01
  -6.3398041e-02   3.7998868e-01  -2.9297569e-01
  -1.6478399e-03   3.0073838e-01  -3.2816748e-01
   1.3176439e-02   2.7701035e-01  -3.0852551e-01
   5.3097961e-02   2.7233480e-01  -3.2851820e-01
   1.6574219e-01   1.7578521e-01  -3.4488638e-01
   2.1710310e-01   7.5261340e-02  -3.2477678e-01
   2.7103225e-01   2.9791841e-02  -3.1390364e-01
   3.5344314e-01  -3.2876894e-03  -2.7345063e-01
   3.1865771e-01  -2.6782349e-02  -2.1218658e-01
   3.4095327e-01  -1.4565741e-01  -1.8833556e-01
   4.0258636e-01  -2.1427093e-01  -1.4531059e-01
   4.0958998e-01  -2.2116719e-01  -7.0951763e-02
   3.7912359e-01  -2.5705182e-01   3.4070643e-03
   3.5811235e-01  -3.5418620e-01   2.4568826e-02
   3.5834579e-01  -4.1192879e-01   6.1514229e-02
   3.0745176e-01  -3.7534288e-01   1.3107947e-01
   2.0729780e-01  -3.9918818e-01   1.7094795e-01
   1.7904910e-01  -4.7095744e-01   2.0613974e-01
   1.7939965e-01  -5.2951857e-01   1.9456515e-01
   6.5354781e-02  -4.9082845e-01   2.3256272e-01
   6.7564231e-03  -4.6055441e-01   2.8260290e-01
  -5.6860914e-02  -4.8194486e-01   2.5980443e-01
  -1.6215097e-01  -5.0637455e-01   2.7605570e-01
  -1.7977732e-01  -4.9281540e-01   2.6342895e-01
  -2.7222696e-01  -4.1695498e-01   2.7780931e-01
  -3.9385944e-01  -3.9088898e-01   2.9862074e-01
  -4.2572647e-01  -3.9825275e-01   2.4752801e-01
  -4.8572547e-01  -3.7394033e-01   2.4273442e-01
  -6.1120973e-01  -2.5623367e-01   2.3583651e-01
  -6.9840656e-01  -1.7791879e-01   2.3127674e-01
  -7.1101354e-01  -1.8586696e-01   2.0310016e-01
  -7.4054577e-01  -1.3583878e-01   1.5528121e-01
  -7.6494230e-01  -2.6899228e-02   1.6019170e-01
  -7.7766600e-01   7.8767713e-02   1.4405734e-01
  -8.3252891e-01   1.6397924e-01   1.0383815e-01
  -7.7112926e-01   2.0699428e-01   7.5193542e-02
  -7.4171336e-01   2.9699825e-01   6.7944907e-02
  -7.7147942e-01   4.4193931e-01   6.0228251e-02
  -7.2046829e-01   4.7864248e-01   5.6136109e-02
  -6.9163638e-01   5.2621581e-01   2.9946947e-02
  -5.9603490e-01   5.9892049e-01   6.6808566e-03
  -5.9334994e-01   7.1604237e-01   3.6611047e-02
  -5.9848603e-01   8.0312396e-01   4.2457188e-02
  -4.6739880e-01   7.6349881e-01   1.8723077e-02
  -4.1685493e-01   8.1913757e-01   1.6150727e-02
  -3.8241966e-01   8.9897227e-01   5.2278173e-02
  -3.2568922e-01   9.4023373e-01   5.2511987e-02
  -2.6055413e-01   9.1779138e-01   2.6088619e-02
  -2.0417385e-01   8.9429672e-01   4.3860074e-02
  -1.8106125e-01   9.5215658e-01   3.2051668e-02
  -1.4826046e-01   9.5928660e-01   3.7312882e-02
  -1.2211273e-01   9.2457076e-01   5.4616316e-02
  -7.0635100e-02   8.6671129e-01   3.6708631e-04
  -9.1187310e-03   8.5221711e-01  -7.4660845e-03
  -5.1374662e-02   8.9079035e-01   5.6283000e-03
  -7.2035745e-02   8.5993191e-01  -2.9063137e-03
   6.4062618e-03   7.5707007e-01  -4.1371902e-02
   1.8779803e-02   7.2656227e-01  -8.6267775e-02
   9.9082665e-03   7.4491386e-01  -5.2946494e-02
   1.5861400e-02   7.0809380e-01  -8.2175633e-02
   1.3293159e-02   6.4579254e-01  -1.1689980e-01
   7.4926640e-02   5.8594573e-01  -1.1350910e-01
   3.2203436e-02   5.8980314e-01  -1.2882511e-01
  -2.1959154e-02   5.6642535e-01  -1.1035261e-01
   3.5705441e-02   4.8401931e-01  -1.2017359e-01
  -3.1655972e-03   4.1271757e-01  -1.3174818e-01
   2.0180448e-02   3.7870301e-01  -9.8777624e-02
   2.1931255e-02   3.7414433e-01  -6.7561063e-02
  -2.9196212e-02   3.0670000e-01  -6.5106013e-02
   3.0802791e-02   2.0325376e-01  -4.7451466e-02
   4.7378268e-02   1.6257669e-01  -1.5299648e-02
   8.0062731e-02   1.4329007e-01   1.9073798e-02
   1.0457598e-01   6.2870979e-02   2.2464498e-02
   1.5920545e-01  -4.8055914e-02   2.3049033e-02
   1.9889314e-01  -1.1094158e-01   4.9472009e-02
   1.6936091e-01  -1.0907151e-01   5.3914873e-02
   2.2515759e-01  -2.0667301e-01   7.7181356e-02
   2.4021570e-01  -3.2484719e-01   5.7188665e-02
   2.5889215e-01  -3.9673333e-01   3.6026511e-02
   2.6939777e-01  -4.4407328e-01   4.5262960e-02
   2.2994352e-01  -4.7832121e-01   1.8372355e-02
   2.3542977e-01  -6.2186012e-01  -1.7754698e-02
   2.2118870e-01  -7.2226711e-01  -5.7973893e-02
   2.0799812e-01  -7.8924393e-01  -1.0520830e-01
   1.9772594e-01  -8.2442728e-01  -1.4659657e-01
   1.8115046e-01  -9.1782113e-01  -1.9184316e-01
   2.1290077e-01  -1.0755032e+00  -2.9063754e-01
   2.0904860e-01  -1.1137258e+00  -3.5786425e-01
   1.4356335e-01  -1.1297394e+00  -3.9796654e-01
   1.6153986e-01  -1.1997555e+00  -4.8740756e-01
   1.3445876e-01  -1.3318391e+00  -5.6118146e-01
   8.7533231e-02  -1.3908677e+00  -6.1800304e-01
   9.4770681e-02  -1.4100375e+00  -6.9540146e-01
  -2.0558117e-02  -1.4323629e+00  -7.4906615e-01
  -7.1452143e-02  -1.4890536e+00  -7.8004890e-01
  -7.2853180e-02  -1.5601216e+00  -8.3102433e-01
  -1.5094503e-01  -1.5393155e+00  -8.5277063e-01
  -2.0825946e-01  -1.5164057e+00  -8.5160156e-01
  -2.2962087e-01  -1.5443417e+00  -8.5697968e-01
  -2.5845316e-01  -1.5806939e+00  -8.7346476e-01
  -3.0514486e-01  -1.4998073e+00  -8.4528818e-01
  -3.2802363e-01  -1.4493116e+00  -7.9431274e-01
  -3.8954039e-01  -1.4539871e+00  -7.8788207e-01
  -3.9596041e-01  -1.4230118e+00  -7.4170021e-01
  -3.8755576e-01  -1.3845555e+00  -6.8838663e-01
  -4.3424785e-01  -1.2783041e+00  -6.3027908e-01
  -4.2420911e-01  -1.2174054e+00  -5.5194502e-01
  -4.2724384e-01  -1.1916900e+00  -4.9851453e-01
  -3.8860624e-01  -1.1243626e+00  -4.5128012e-01
  -3.3817909e-01  -1.0054871e+00  -3.7902601e-01
  -3.6070810e-01  -9.0391135e-01  -2.8584396e-01
  -2.8705163e-01  -8.6966302e-01  -2.5205505e-01
  -1.9308463e-01  -7.9836128e-01  -2.1242039e-01
  -1.5187879e-01  -6.6464101e-01  -1.4191989e-01
  -1.2281344e-01  -5.1256953e-01  -6.2416757e-02
  -8.6977136e-02  -4.4676150e-01  -3.4908494e-03
   2.4499496e-02  -3.9977257e-01   2.6088619e-02
   3.2787038e-02  -2.5611679e-01   1.1611418e-01
   6.6055104e-02  -1.2216315e-01   1.8965466e-01
   1.2360259e-01  -4.7120881e-02   2.5641374e-01
   1.5290177e-01   1.2024649e-02   3.1522274e-01
   1.9819282e-01   1.1640592e-01   3.9975327e-01
   2.2469071e-01   2.3715144e-01   4.7411170e-01
   3.0640128e-01   3.0599833e-01   5.4811981e-01
   2.7605162e-01   3.3615549e-01   6.3370251e-01
   5.3157262e-01   3.4316902e-01   6.1394363e-01
   4.7227394e-01   4.9804598e-01   7.7236536e-01
   1.5827130e-01   6.1996030e-01   8.9161967e-01
   4.7122346e-01   5.1522839e-01   8.6063692e-01
   4.8616485e-01   5.3883993e-01   9.2669456e-01
   3.6149763e-01   6.4111698e-01   9.9123240e-01
   3.9138041e-01   6.6005296e-01   1.0844148e+00
   3.7935703e-01   6.3188275e-01   1.0845318e+00
   3.9056337e-01   5.9634876e-01   1.0999647e+00
   2.9122645e-01   6.3176587e-01   1.1576042e+00
   2.7441714e-01   6.4368871e-01   1.1393655e+00
   2.4780292e-01   5.9284199e-01   1.1476663e+00
   1.8360159e-01   5.3732011e-01   1.1030043e+00
   1.3084004e-01   4.9652616e-01   1.0690988e+00
   1.1076256e-01   5.0096796e-01   1.0305163e+00
   4.5387349e-03   4.9138309e-01   9.7685165e-01
  -5.3476021e-02   3.6666329e-01   9.2505786e-01
   3.3253920e-02   3.0973885e-01   7.8054925e-01
  -2.9896535e-02   3.0354387e-01   7.0712608e-01
  -4.5771689e-02   2.5772373e-01   6.3849609e-01
  -2.7562126e-02   1.8279835e-01   4.7516426e-01
   1.0608589e-02   5.8779818e-02   3.3229236e-01
   8.2747301e-02   5.5156566e-02   2.1023188e-01
   2.1814534e-02   4.6156091e-02   9.4718604e-02
   8.3914897e-02  -6.1498187e-02  -5.5401936e-02
   1.4718207e-01  -1.5138488e-01  -2.0119652e-01
   1.6364083e-01  -1.7371075e-01  -3.3763775e-01
   2.3029368e-01  -1.5313846e-01  -4.6133492e-01
   2.0286203e-01  -1.8469817e-01  -5.5603716e-01
   2.5644102e-01  -2.6242865e-01  -6.9142622e-01
   3.0465008e-01  -2.7633844e-01  -8.0366571e-01
   3.0523407e-01  -2.2712842e-01  -8.6294234e-01
   3.2169283e-01  -2.1508909e-01  -9.3636591e-01
   3.2262659e-01  -2.5740246e-01  -1.0241698e+00
   3.8180855e-01  -2.7213040e-01  -1.0871879e+00
   3.7760623e-01  -1.6985335e-01  -1.1139616e+00
   3.3348238e-01  -1.1725383e-01  -1.1313823e+00
   3.7515471e-01  -1.3513751e-01  -1.1834099e+00
   4.1087429e-01  -1.0790272e-01  -1.2217582e+00
   3.5379330e-01  -2.4093738e-02  -1.1918280e+00
   3.4048639e-01   6.2987858e-02  -1.1809545e+00
   3.4947425e-01   7.5495098e-02  -1.1862157e+00
   3.0219895e-01   1.0600290e-01  -1.1603773e+00
   2.8387228e-01   1.8057764e-01  -1.1402677e+00
   2.1406797e-01   2.7046434e-01  -1.0700010e+00
   1.2348587e-01   3.1324562e-01  -9.9798068e-01
   1.2430330e-01   3.0821942e-01  -1.0019559e+00
   1.1111272e-01   3.4340278e-01  -9.4805741e-01
  -2.9321563e-03   4.5538158e-01  -8.5721349e-01
  -1.1569271e-01   5.1686469e-01  -7.9431274e-01
  -1.3273546e-01   4.6484957e-01  -7.4707834e-01
  -1.5911624e-01   4.9149997e-01  -7.0580698e-01
  -2.4888130e-01   5.7063339e-01  -6.0186829e-01
  -3.0362750e-01   6.1563538e-01  -5.1979320e-01
  -3.1775145e-01   6.0792057e-01  -4.5852915e-01
  -3.3607813e-01   5.8395879e-01  -3.6698379e-01
  -3.9677745e-01   6.3725958e-01  -2.8116728e-01
  -4.2852776e-01   6.8237844e-01  -1.7243501e-01
  -4.1813886e-01   6.5292255e-01  -9.4685874e-02
  -4.3821634e-01   6.1914214e-01  -2.2431376e-02
  -4.0483195e-01   6.4240265e-01   7.5778078e-02
  -4.1101852e-01   6.9406753e-01   1.6650508e-01
  -4.2420911e-01   7.1124993e-01   2.7009305e-01
  -3.1028095e-01   6.2475273e-01   3.2001632e-01
  -2.6207150e-01   6.1528474e-01   3.8584014e-01
  -2.2413461e-01   6.8950885e-01   5.0579629e-01
  -1.3425283e-01   6.6987159e-01   5.7056794e-01
  -8.3475523e-02   6.1142734e-01   6.2972727e-01
   4.3052940e-03   5.6642535e-01   7.0537208e-01
