**************************************************************************************
            UNIVERSIDAD AUTONOMA METROPOLITANA - AZCAPOTZALCO
                        Departamento de Materiales
                           Area de Estructuras
     AV. SAN PABLO 180,COL.REYNOSA, AZCAPOTZALCO, C.P.02200 CIUDAD DE MEXICO.
**************************************************************************************
ARCHIVO ESTANDAR DE ACELERACION:
VERSION DEL FORMATO                    : 2.0
NOMBRE DEL ARCHIVO                     : RIML201304221
FECHA Y HORA DE CREACION               : 02:31 p. m. 04/01/2014
REF. CATALOGO ACELEROGRAMAS, SMIS 1995 : REGISTRO NO.      /PAG.    


================================================================================
DATOS DE LA ESTACION:
NOMBRE DE LA ESTACION                  : UAM-LERMA.
CLAVE DE LA ESTACION                   : RIML
LOCALIZACION DE LA ESTACION            : AV. DE LAS GARZAS 10, EL PANTEON, C.P.52005,
                                       : LERMA DE VILLADA, ESTADO DE MEXICO. 
                                       :
                                       : 
                                       : 
COORDENADAS DE LA ESTACION             : 19.291481 LAT. N
                                       : 99.502060 LONG. W
ALTITUD (msnm)                         : 2570
TIPO DE SUELO                          : DEPOSITOS LACUSTRES
                                       : 
                                       : 
INSTITUCION RESPONSABLE                : UNIVERSIDAD AUTONOMA METROPOLITANA
                                       : 

================================================================================
DATOS DEL ACELEROGRAFO: 
MODELO DEL ACELEROGRAFO                : BASALT KINEMETRICS
NUMERO DE SERIE DEL ACELEROGRAFO       : 978
NUMERO DE CANALES                      : 3
ORIENTACION C1-C6 (rumbo;orientacion)  : /V/N00E/N90E
ORIENTACION C7-C12 (rumbo;orientacion) : 
VEL. DE MUESTREO, C1-C6 (muestras/s)   : /250/250/250
VEL. DE MUESTREO, C7-C12 (muestras/s)  : 
ESC. COMPLETA DE SENSORES, C1-C6, (g)  : /2/2/2
ESC. COMPLETA DE SENSORES, C7-C12 (g)  : 
FREC. NAT. DE SENSORES, C1-C6, (Hz)    : /210/212/212
FREC. NAT. DE SENSORES, C7-C12 (Hz)    : 
AMORTIGUAMIENTO DE SENSORES, C1-C6     : /0.7/0.7/0.7
AMORTIGUAMIENTO DE SENSORES, C7-C12    : 
INTERVALO DE MUESTREO, C1-C6 (s)       : /0.004/0.004/0.004
INTERVALO DE MUESTREO, C7-C12 (s)      : 
UMBRAL DE DISPARO, C1-C6 (Gal)         : /2/2/2
UMBRAL DE DISPARO, C7-C12 (Gal)        : 
MEMORIA DE PREEVENTO (s)               : 20
TIEMPO DE POSEVENTO (s)                : 30


================================================================================
DATOS DEL SISMO:
FECHA DEL SISMO [GMT]                  : 2013/04/22
HORA EPICENTRO (GMT)                   : 01:16:34
MAGNITUD(ES)                           : /M=5.9
COORDENADAS DEL EPICENTRO              : 17.8568 LAT. N
                                       : 102.280 LONG. W
PROFUNDIDAD FOCAL (Km)                 : 40.5
FUENTE DE LOS DATOS EPICENTRALES       : SSN
                                       : INSTITUTO DE GEOFISICA, UNAM

================================================================================
DATOS DE ESTE REGISTRO:
HORA DE LA PRIMERA MUESTRA (GMT)       : 01:17:09.000
EXACTITUD DEL TIEMPO (s)               : 
DURACION DEL REGISTRO (s), C1-C6       : /193.00/193.00/193.00
DURACION DEL REGISTRO (s), C7-C12      : 
NUM. TOTAL DE MUESTRAS, C1-C6          : /48250/48250/48250
NUM. TOTAL DE MUESTRAS, C7-C12         : 
ACEL. MAX.(Gal), C1-C6                 : /8.549/-28.383/21.207
ACEL. MAX., C1-C6, EN LA MUESTRA       : /9642.5/12080/12655
ACEL. MAX.(Gal), C7-C12                : 
ACEL. MAX., C7-C12,EN LA MUESTRA       : 
UNIDADES DE LOS DATOS                  : Gal (cm/s/s)
FACTOR DE DECIMACION                   : 1
FORMATO DATOS (FORTRAN,16 campos/dato) : 3E16.7


================================================================================
CALIDAD DEL ACELEROGRAMA:
REGISTRO DIGITAL COMPLETO CON TIEMPO ABSOLUTO CORRECTO


================================================================================
COMENTARIOS:














================================================================================
DATOS DE ACELERACION:
---------+---------+---------+---------+---------+---------+---------+---------+
   CANAL-1   	   CANAL-2   	      CANAL-3
         V           N00E              N90E
---------+---------+---------+---------+---------+---------+---------+---------+
[...]
  -2.2970579e+00   1.4560559e+01   6.5251681e+00
  -2.4663159e+00   1.5080361e+01   5.9820921e+00
  -2.4993501e+00   1.5304085e+01   5.4998128e+00
  -2.5618006e+00   1.5758196e+01   5.2022606e+00
  -2.9454904e+00   1.6332584e+01   4.9952020e+00
  -3.1671598e+00   1.7058694e+01   4.6609386e+00
  -3.3552113e+00   1.7217194e+01   4.4818227e+00
  -3.6380468e+00   1.7830273e+01   4.4007998e+00
  -3.7990168e+00   1.8219277e+01   3.9039060e+00
  -3.9911536e+00   1.8135585e+01   3.5823862e+00
  -4.2779580e+00   1.8492562e+01   3.0614072e+00
  -4.2413050e+00   1.8224303e+01   2.2710533e+00
  -4.3097087e+00   1.8154755e+01   1.7722886e+00
  -4.7755760e+00   1.8086726e+01   1.0214525e+00
  -4.2720049e+00   1.7279262e+01   1.6808059e-01
  -4.1369487e+00   1.7202700e+01  -3.4892281e-01
  -5.0516414e+00   1.7327654e+01  -9.0100149e-01
  -4.8924222e+00   1.6808787e+01  -1.4826596e+00
  -4.7103242e+00   1.6829359e+01  -1.7610375e+00
  -5.3160339e+00   1.6641637e+01  -2.1380925e+00
  -5.2009385e+00   1.6557594e+01  -2.4557539e+00
  -5.0038992e+00   1.7048642e+01  -2.5298785e+00
  -5.1984870e+00   1.6933390e+01  -2.5799187e+00
  -4.9619930e+00   1.7255066e+01  -2.5373614e+00
  -4.5355804e+00   1.7511051e+01  -2.9809416e+00
  -4.3153117e+00   1.7940966e+01  -3.1989903e+00
  -4.3928199e+00   1.8515004e+01  -2.7576317e+00
  -3.7285122e+00   1.7963058e+01  -2.9160530e+00
  -3.5242354e+00   1.8099116e+01  -2.9698346e+00
  -3.7785892e+00   1.8487770e+01  -2.8446173e+00
  -3.1884045e+00   1.8573916e+01  -3.1939629e+00
  -3.2210889e+00   1.8788639e+01  -3.2972001e+00
  -2.6260019e+00   1.8718740e+01  -3.5244852e+00
  -2.5559642e+00   1.9074782e+01  -3.7500168e+00
  -2.9942835e+00   1.9275713e+01  -3.7293226e+00
  -2.1803285e+00   1.9291493e+01  -3.8731294e+00
  -2.3823872e+00   1.9484241e+01  -4.1146784e+00
  -2.6362741e+00   1.9635729e+01  -4.3298044e+00
  -2.4858097e+00   1.9788501e+01  -4.5086861e+00
  -2.5783761e+00   1.9942677e+01  -4.7500012e+00
  -2.4322307e+00   2.0276977e+01  -4.9402241e+00
  -2.3986125e+00   2.0162193e+01  -5.1565192e+00
  -2.3698973e+00   2.0339045e+01  -5.2998587e+00
  -2.4835917e+00   2.0656045e+01  -5.4977978e+00
  -2.3044121e+00   2.0483402e+01  -5.6624160e+00
  -2.1290843e+00   2.0773518e+01  -5.7890362e+00
  -2.4112195e+00   2.0832780e+01  -5.9980823e+00
  -2.4453046e+00   2.0845521e+01  -6.0553715e+00
  -2.3132832e+00   2.1010217e+01  -6.3370228e+00
  -2.3292755e+00   2.0941720e+01  -6.4859738e+00
  -2.2379927e+00   2.1028218e+01  -6.6125941e+00
  -2.0876450e+00   2.1027750e+01  -6.8841906e+00
  -2.2280706e+00   2.1097182e+01  -6.9985348e+00
  -2.1716904e+00   2.1077895e+01  -7.2951513e+00
  -1.8844191e+00   2.0904316e+01  -7.4950782e+00
  -1.9379980e+00   2.0885030e+01  -7.7547490e+00
  -2.0295139e+00   2.0812559e+01  -8.0288009e+00
  -1.9970629e+00   2.0701281e+01  -8.2329365e+00
  -1.9227065e+00   2.0538573e+01  -8.6044964e+00
  -2.1491618e+00   2.0428581e+01  -8.8227789e+00
  -2.3564733e+00   2.0353422e+01  -9.1898960e+00
  -2.0875283e+00   2.0124672e+01  -9.4486319e+00
  -2.3396644e+00   2.0005329e+01  -9.6042475e+00
  -2.4772884e+00   1.9809424e+01  -1.0112366e+01
  -2.4001303e+00   1.9581609e+01  -1.0389223e+01
  -2.5571314e+00   1.9468344e+01  -1.0650648e+01
  -2.2649574e+00   1.9110082e+01  -1.1061959e+01
  -2.5467425e+00   1.8899449e+01  -1.1266796e+01
  -2.7495016e+00   1.8733702e+01  -1.1630406e+01
  -2.4792726e+00   1.8375206e+01  -1.2049317e+01
  -2.6590362e+00   1.8092687e+01  -1.2310508e+01
  -2.6450285e+00   1.7757920e+01  -1.2677040e+01
  -2.6709428e+00   1.7439983e+01  -1.3085896e+01
  -2.8252590e+00   1.7087098e+01  -1.3453364e+01
  -2.7467003e+00   1.6720653e+01  -1.3843514e+01
  -2.7898900e+00   1.6367183e+01  -1.4217178e+01
  -2.8858416e+00   1.5943113e+01  -1.4601599e+01
  -2.9752565e+00   1.5616995e+01  -1.5000751e+01
  -3.0943208e+00   1.5233251e+01  -1.5352201e+01
  -2.9987193e+00   1.4776452e+01  -1.5777192e+01
  -3.0542825e+00   1.4421463e+01  -1.6159859e+01
  -3.1840858e+00   1.4018549e+01  -1.6496811e+01
  -3.1029585e+00   1.3609440e+01  -1.6914319e+01
  -3.2022954e+00   1.3279582e+01  -1.7221224e+01
  -3.1549034e+00   1.2886019e+01  -1.7533508e+01
  -3.0935037e+00   1.2542017e+01  -1.7878527e+01
  -3.2833056e+00   1.2294798e+01  -1.8154801e+01
  -3.1655257e+00   1.1970784e+01  -1.8422071e+01
  -3.1464987e+00   1.1685109e+01  -1.8693551e+01
  -3.1948249e+00   1.1422345e+01  -1.8951234e+01
  -3.1183671e+00   1.1142281e+01  -1.9150226e+01
  -3.1471990e+00   1.0915167e+01  -1.9385110e+01
  -2.9872795e+00   1.0652169e+01  -1.9620930e+01
  -3.0897683e+00   1.0414652e+01  -1.9730598e+01
  -3.2075482e+00   1.0171290e+01  -1.9894982e+01
  -3.0529986e+00   9.9539951e+00  -2.0093155e+01
  -3.0270843e+00   9.7558698e+00  -2.0190429e+01
  -2.9926494e+00   9.4842216e+00  -2.0290159e+01
  -3.0307030e+00   9.2658741e+00  -2.0401814e+01
  -3.0301194e+00   9.0467090e+00  -2.0500725e+01
  -3.0008202e+00   8.7982044e+00  -2.0553221e+01
  -2.9786418e+00   8.5424533e+00  -2.0632490e+01
  -2.9601984e+00   8.2841301e+00  -2.0711408e+01
  -3.0290689e+00   8.0550294e+00  -2.0702990e+01
  -2.9325337e+00   7.7721601e+00  -2.0690247e+01
  -2.9360353e+00   7.5206166e+00  -2.0681828e+01
  -2.9379032e+00   7.2681378e+00  -2.0657042e+01
  -2.9215608e+00   6.9679691e+00  -2.0550064e+01
  -2.9935832e+00   6.7106982e+00  -2.0391642e+01
  -2.8879430e+00   6.4252571e+00  -2.0266542e+01
  -2.9510934e+00   6.1508034e+00  -2.0080411e+01
  -2.9308992e+00   5.8461929e+00  -1.9899425e+01
  -2.9437396e+00   5.5660118e+00  -1.9727558e+01
  -2.8892269e+00   5.2782331e+00  -1.9492556e+01
  -2.6928878e+00   4.9152952e+00  -1.9287836e+01
  -2.8260760e+00   4.6403740e+00  -1.9056576e+01
  -2.7601239e+00   4.2831637e+00  -1.8857000e+01
  -2.5873643e+00   3.9067839e+00  -1.8625155e+01
  -2.4909458e+00   3.6081343e+00  -1.8434815e+01
  -2.4513745e+00   3.2052207e+00  -1.8264468e+01
  -2.4005972e+00   2.8453221e+00  -1.7989481e+01
  -2.3283413e+00   2.5052941e+00  -1.7809781e+01
  -2.1094737e+00   2.0677816e+00  -1.7559580e+01
  -1.8453146e+00   1.6977137e+00  -1.7391454e+01
  -1.8367936e+00   1.2746953e+00  -1.7163585e+01
  -1.6973017e+00   8.6745675e-01  -1.6905083e+01
  -1.4009254e+00   4.5437385e-01  -1.6792610e+01
  -1.1077010e+00  -2.5452498e-02  -1.6456008e+01
  -1.1058330e+00  -3.8558485e-01  -1.6327633e+01
  -8.5066220e-01  -9.2712807e-01  -1.6100231e+01
  -6.0763145e-01  -1.3331978e+00  -1.5713005e+01
  -4.9498762e-01  -1.6840959e+00  -1.5665303e+01
  -7.1726031e-02  -2.2626926e+00  -1.5479289e+01
  -3.9975723e-02  -2.6642037e+00  -1.5219150e+01
   3.1698318e-01  -3.1440296e+00  -1.4999698e+01
   6.5293083e-01  -3.6055044e+00  -1.4792055e+01
   7.5740384e-01  -4.0640568e+00  -1.4590725e+01
   1.0498112e+00  -4.5831572e+00  -1.4304865e+01
   1.1129617e+00  -4.9804603e+00  -1.4003806e+01
   1.4011672e+00  -5.4766509e+00  -1.3602666e+01
   1.6960257e+00  -5.9583473e+00  -1.3234263e+01
   1.6927575e+00  -6.3395194e+00  -1.2943025e+01
   1.6529527e+00  -6.6904180e+00  -1.2476529e+01
   1.9161777e+00  -7.0777855e+00  -1.2086496e+01
   2.0749300e+00  -7.4958946e+00  -1.1817706e+01
   2.1509209e+00  -7.9109644e+00  -1.1339284e+01
   2.2566778e+00  -8.2037697e+00  -1.1044773e+01
   2.1826712e+00  -8.5872798e+00  -1.0688879e+01
   2.4454293e+00  -9.0783270e+00  -1.0301185e+01
   2.4649231e+00  -9.3018174e+00  -1.0182164e+01
   2.3533298e+00  -9.6427804e+00  -9.6694867e+00
   2.5482682e+00  -1.0057032e+01  -9.2480035e+00
   2.5590072e+00  -1.0293029e+01  -9.3190886e+00
   2.7531286e+00  -1.0588289e+01  -9.1335424e+00
   2.8798968e+00  -1.0894653e+01  -8.6977958e+00
   2.7013004e+00  -1.1070102e+01  -8.5938571e+00
   2.8876007e+00  -1.1294060e+01  -8.3101015e+00
   2.9939417e+00  -1.1715909e+01  -7.8523743e+00
   3.1085697e+00  -1.2031508e+01  -7.7581397e+00
   3.2721080e+00  -1.2173059e+01  -7.5070035e+00
   3.1047180e+00  -1.2572817e+01  -7.2958528e+00
   3.3657248e+00  -1.3064799e+01  -7.2051258e+00
   3.4912091e+00  -1.3467947e+01  -7.0036791e+00
   3.4203543e+00  -1.3998619e+01  -6.9184471e+00
   3.7160303e+00  -1.4251799e+01  -6.8066752e+00
   3.7825660e+00  -1.4605386e+01  -6.7139608e+00
   4.0762577e+00  -1.5092810e+01  -6.5510962e+00
   4.1690575e+00  -1.5086732e+01  -6.3160948e+00
   3.9041985e+00  -1.5288714e+01  -6.2225616e+00
   4.4064857e+00  -1.5543180e+01  -5.9937563e+00
   4.6831347e+00  -1.5486256e+01  -5.6956200e+00
   4.5521642e+00  -1.5608287e+01  -5.3911702e+00
   4.6158982e+00  -1.5629327e+01  -5.0573741e+00
   4.9105237e+00  -1.5678887e+01  -4.7915068e+00
   5.2608291e+00  -1.5829439e+01  -4.3825335e+00
   5.0368250e+00  -1.5915820e+01  -3.9100752e+00
   4.9241812e+00  -1.6163973e+01  -3.4995821e+00
   5.0137124e+00  -1.6319551e+01  -3.1491839e+00
   4.9816119e+00  -1.6418322e+01  -2.7875623e+00
   4.8176068e+00  -1.6468935e+01  -2.4161192e+00
   4.5898676e+00  -1.6625682e+01  -2.1337665e+00
   4.5888171e+00  -1.6812586e+01  -1.8449831e+00
   4.7412658e+00  -1.6743739e+01  -1.6587355e+00
   4.7753509e+00  -1.6787572e+01  -1.4376469e+00
   4.6367927e+00  -1.6931578e+01  -1.0603585e+00
   4.4902972e+00  -1.6824392e+01  -8.5423510e-01
   4.3336463e+00  -1.6708438e+01  -6.3197697e-01
   4.3837233e+00  -1.6813872e+01  -3.0718382e-01
   4.1873842e+00  -1.6702828e+01   6.4259199e-02
   4.2179673e+00  -1.6779273e+01   5.5554106e-01
   4.2721299e+00  -1.6884589e+01   9.9514644e-01
   3.9280110e+00  -1.6739180e+01   1.4761397e+00
   4.1780458e+00  -1.7001945e+01   2.1240897e+00
   4.2548537e+00  -1.7157757e+01   2.7514624e+00
   4.1956721e+00  -1.7110534e+01   3.2308190e+00
   4.3886259e+00  -1.7398313e+01   3.8944357e+00
   4.3608441e+00  -1.7459212e+01   4.3495905e+00
   4.4011158e+00  -1.7630453e+01   4.7959769e+00
   4.4257457e+00  -1.7818292e+01   5.2280995e+00
   4.3049307e+00  -1.7772823e+01   5.4363272e+00
   4.6327075e+00  -1.8161826e+01   5.7874268e+00
   4.6474151e+00  -1.7993391e+01   5.9125272e+00
   4.3204557e+00  -1.8189179e+01   6.4561878e+00
   4.5190128e+00  -1.8162528e+01   6.4093041e+00
   4.5905679e+00  -1.8328977e+01   6.9260741e+00
   4.6372596e+00  -1.8500803e+01   7.1820038e+00
   4.5780781e+00  -1.8201802e+01   7.2152078e+00
   4.7133676e+00  -1.8780633e+01   7.9472207e+00
   4.7063636e+00  -1.8052770e+01   7.4505603e+00
   4.7560904e+00  -1.8463398e+01   8.3036984e+00
   4.5117758e+00  -1.6633162e+01   7.1542945e+00
   3.8882062e+00  -1.2889584e+01   5.8278798e+00
   3.4019113e+00  -8.4846517e+00   4.9003828e+00
   4.0059866e+00  -1.4243150e+01   1.0964595e+01
   6.6071872e+00  -2.6006895e+01   1.5317855e+01
   3.6992214e+00  -1.9943904e+01   9.7595396e+00
   3.4510541e+00  -2.1461931e+01   1.5170073e+01
   5.4407090e+00  -1.6852679e+01   7.7989707e+00
   8.3572913e-01  -7.3823959e+00   6.1574665e+00
   6.0076645e+00  -2.6202450e+01   1.9185328e+01
   4.8290466e+00  -2.8382531e+01   1.0825348e+01
  -2.6703588e+00  -1.9421998e+01   1.2770718e+01
   3.0186880e+00  -2.2276876e+01   1.4535451e+01
   2.2769887e+00  -2.2438065e+01   9.8471097e+00
   3.2041712e+00  -2.1807219e+01   1.2213144e+01
   8.5489832e+00  -2.0589244e+01   9.1207091e+00
   5.7478244e+00  -2.1161061e+01   1.0096726e+01
   5.3746402e+00  -1.9498794e+01   9.3841213e+00
   5.7083702e+00  -1.8082109e+01   9.3009940e+00
   5.5326922e+00  -1.8573741e+01   1.1473532e+01
   5.3547961e+00  -1.8791737e+01   1.2811288e+01
   2.1780020e+00  -2.0887192e+01   1.4576723e+01
   1.0151425e+00  -2.2416674e+01   1.2524492e+01
   1.3837743e+00  -2.1781971e+01   1.1145932e+01
   1.2802354e+00  -1.8456034e+01   9.8170622e+00
   2.5884231e+00  -1.6224054e+01   1.0774139e+01
   2.2361335e+00  -1.6585589e+01   1.2555241e+01
   2.0002029e-01  -1.8717396e+01   1.2774576e+01
   1.1083883e-01  -2.0395210e+01   1.3657878e+01
   2.8569975e-01  -1.8543583e+01   1.2386414e+01
   1.2857217e+00  -1.6433167e+01   1.1488263e+01
   1.6203850e+00  -1.6555899e+01   1.1332648e+01
  -3.2736376e-01  -1.6620071e+01   1.0839495e+01
  -7.9241439e-01  -1.5371004e+01   1.0814825e+01
   2.4108888e-02  -1.4702754e+01   1.0659444e+01
   3.6997817e-01  -1.4913620e+01   1.1422907e+01
  -8.3548737e-01  -1.4560735e+01   1.2001876e+01
  -1.8944578e+00  -1.4260683e+01   1.2041979e+01
  -1.1762210e+00  -1.4408429e+01   1.2081613e+01
  -8.1354236e-01  -1.4284294e+01   1.1524858e+01
  -4.5821755e-01  -1.3942162e+01   1.1073328e+01
  -2.7121692e-01  -1.3222014e+01   1.1097529e+01
  -8.2731655e-01  -1.1969323e+01   1.1491537e+01
  -8.3221920e-01  -1.1087519e+01   1.1939794e+01
  -6.2222268e-01  -1.0912069e+01   1.2060802e+01
  -7.6218145e-01  -1.0911368e+01   1.1764770e+01
  -8.8276306e-01  -1.0618212e+01   1.1211172e+01
  -7.2459434e-01  -9.8790111e+00   1.1052282e+01
  -7.2996387e-01  -9.0515597e+00   1.1225903e+01
  -9.6318971e-01  -8.4288961e+00   1.1025509e+01
  -1.3318214e+00  -7.9867083e+00   1.0592217e+01
  -1.4458663e+00  -7.7082804e+00   1.0413920e+01
  -1.1038488e+00  -7.2967169e+00   1.0374753e+01
  -1.1938473e+00  -6.4775646e+00   1.0156119e+01
  -1.2652857e+00  -5.6464895e+00   9.9434486e+00
  -1.3193316e+00  -4.9063530e+00   9.9644935e+00
  -1.5035305e+00  -4.3648102e+00   9.6982755e+00
  -1.5103011e+00  -4.1946209e+00   9.5378664e+00
  -1.6797921e+00  -3.7306917e+00   9.6700985e+00
  -1.4883557e+00  -2.7967547e+00   9.6204091e+00
  -1.0425659e+00  -1.9167038e+00   9.6591085e+00
  -1.1311633e+00  -1.0592116e+00   9.5312019e+00
  -1.5163709e+00  -2.9978892e-01   9.6019362e+00
  -1.5945795e+00   2.1849340e-01   9.5122617e+00
  -1.6480418e+00   5.4203984e-01   9.1001319e+00
  -1.7443436e+00   9.9954032e-01   8.9690688e+00
  -1.9327452e+00   2.2557377e+00   8.7332486e+00
  -2.0323152e+00   2.8011383e+00   8.2653498e+00
  -1.8303732e+00   3.4845837e+00   7.6318974e+00
  -2.0766725e+00   5.0588338e+00   7.4008709e+00
  -2.1917678e+00   5.3183258e+00   6.7349160e+00
  -1.9092825e+00   6.2540159e+00   6.2425816e+00
  -1.8199843e+00   7.1881862e+00   6.2032976e+00
  -1.9472197e+00   7.5543970e+00   5.4300138e+00
  -2.1219635e+00   8.4399421e+00   5.3213984e+00
  -2.1184619e+00   8.4994383e+00   4.8706865e+00
  -2.1643366e+00   8.8288291e+00   4.7624218e+00
  -2.2500160e+00   9.7556360e+00   5.0970364e+00
  -2.6166635e+00   1.2345645e+01   3.3756783e+00
  -3.0917525e+00   1.3182097e+01   3.3277425e+00
  -2.7554547e+00   1.1529414e+01   4.4702481e+00
  -2.6046401e+00   1.2144013e+01   3.7726087e+00
  -2.9953340e+00   1.1732098e+01   3.8110743e+00
  -2.4107526e+00   1.0941700e+01   3.8259226e+00
  -2.1493952e+00   1.0744861e+01   3.4263030e+00
  -1.6863292e+00   9.6250719e+00   3.2732594e+00
  -8.1354236e-01   9.7689610e+00   2.7170890e+00
  -1.2417062e+00   9.3389295e+00   2.5599536e+00
  -8.3863921e-01   8.8415701e+00   2.2270927e+00
  -9.4836504e-01   8.6291843e+00   2.0648131e+00
  -8.3770545e-01   7.8749046e+00   2.0090440e+00
  -5.2487040e-01   8.3130016e+00   1.6109442e+00
  -1.0956776e+00   7.9912084e+00   1.7718210e+00
   1.6896991e-01   8.0457952e+00   1.6246235e+00
  -2.6794836e-01   8.4009014e+00   1.3847112e+00
  -2.5324080e-01   7.7000398e+00   1.3897386e+00
   9.2035810e-01   8.7181359e+00   1.2165858e+00
   5.0771925e-01   9.1472328e+00   1.6392381e+00
   1.1002384e+00   8.9893166e+00   1.8521425e+00
   1.1721437e+00   9.4157249e+00   1.6591139e+00
   8.9386060e-01   9.6628266e+00   1.7902939e+00
   1.0583322e+00   1.0326401e+01   1.6426284e+00
   1.7027963e+00   9.9975946e+00   1.5003414e+00
   1.7243911e+00   9.9666193e+00   1.5722448e+00
   1.2357614e+00   1.0448432e+01   1.4432864e+00
