**************************************************************************************
            UNIVERSIDAD AUTONOMA METROPOLITANA - AZCAPOTZALCO
                        Departamento de Materiales
                           Area de Estructuras
     AV. SAN PABLO 180,COL.REYNOSA, AZCAPOTZALCO, C.P.02200 CIUDAD DE MEXICO.
**************************************************************************************
ARCHIVO ESTANDAR DE ACELERACION:
VERSION DEL FORMATO                    : 2.0
NOMBRE DEL ARCHIVO                     : RIML201303261
FECHA Y HORA DE CREACION               : MON JUL 18 12:30:07 2018
REF. CATALOGO ACELEROGRAMAS, SMIS 1995 : REGISTRO NO.      /PAG.    


================================================================================
DATOS DE LA ESTACION:
NOMBRE DE LA ESTACION                  : UAM-LERMA.
CLAVE DE LA ESTACION                   : RIML
LOCALIZACION DE LA ESTACION            : AV. DE LAS GARZAS 10, EL PANTEON, C.P.52005,
                                       : LERMA DE VILLADA, ESTADO DE MEXICO. 
                                       :
                                       : 
                                       : 
COORDENADAS DE LA ESTACION             : 19.291481 LAT. N
                                       : 99.502060 LONG. W
ALTITUD (msnm)                         : 2570
TIPO DE SUELO                          : DEPOSITOS LACUSTRES
                                       : 
                                       : 
INSTITUCION RESPONSABLE                : UNIVERSIDAD AUTONOMA METROPOLITANA
                                       : 

================================================================================
DATOS DEL ACELEROGRAFO: 
MODELO DEL ACELEROGRAFO                : BASALT KINEMETRICS
NUMERO DE SERIE DEL ACELEROGRAFO       : 978
NUMERO DE CANALES                      : 3
ORIENTACION C1-C6 (rumbo;orientacion)  : /V/N00E/N90E
ORIENTACION C7-C12 (rumbo;orientacion) : 
VEL. DE MUESTREO, C1-C6 (muestras/s)   : /250/250/250
VEL. DE MUESTREO, C7-C12 (muestras/s)  : 
ESC. COMPLETA DE SENSORES, C1-C6, (g)  : /2/2/2
ESC. COMPLETA DE SENSORES, C7-C12 (g)  : 
FREC. NAT. DE SENSORES, C1-C6, (Hz)    : /210/212/212
FREC. NAT. DE SENSORES, C7-C12 (Hz)    : 
AMORTIGUAMIENTO DE SENSORES, C1-C6     : /0.7/0.7/0.7
AMORTIGUAMIENTO DE SENSORES, C7-C12    : 
INTERVALO DE MUESTREO, C1-C6 (s)       : /0.004/0.004/0.004
INTERVALO DE MUESTREO, C7-C12 (s)      : 
UMBRAL DE DISPARO, C1-C6 (Gal)         : /2/2/2
UMBRAL DE DISPARO, C7-C12 (Gal)        : 
MEMORIA DE PREEVENTO (s)               : 20
TIEMPO DE POSEVENTO (s)                : 30


================================================================================
DATOS DEL SISMO:
FECHA DEL SISMO [GMT]                  : 2013/03/26
HORA EPICENTRO (GMT)                   : 13:04:47
MAGNITUD(ES)                           : /M=5.5
COORDENADAS DEL EPICENTRO              : 15.8608 LAT. N
                                       : 98.433 LONG. W
PROFUNDIDAD FOCAL (Km)                 : 5.3
FUENTE DE LOS DATOS EPICENTRALES       : SSN
                                       : INSTITUTO DE GEOFISICA, UNAM

================================================================================
DATOS DE ESTE REGISTRO:
HORA DE LA PRIMERA MUESTRA (GMT)       : 13:06:17.00
EXACTITUD DEL TIEMPO (s)               : 
DURACION DEL REGISTRO (s), C1-C6       : /91.00/91.00/91.00
DURACION DEL REGISTRO (s), C7-C12      : 
NUM. TOTAL DE MUESTRAS, C1-C6          : /22750/22750/22750
NUM. TOTAL DE MUESTRAS, C7-C12         : 
ACEL. MAX.(Gal), C1-C6                 : /1.207/-5.009/4.035
ACEL. MAX., C1-C6, EN LA MUESTRA       : /6706/6161/7.406
ACEL. MAX.(Gal), C7-C12                : 
ACEL. MAX., C7-C12,EN LA MUESTRA       : 
UNIDADES DE LOS DATOS                  : Gal (cm/s/s)
FACTOR DE DECIMACION                   : 1
FORMATO DATOS (FORTRAN,16 campos/dato) : 3E16.7


================================================================================
CALIDAD DEL ACELEROGRAMA:
REGISTRO DIGITAL COMPLETO CON TIEMPO ABSOLUTO CORRECTO


================================================================================
COMENTARIOS:














================================================================================
DATOS DE ACELERACION:
---------+---------+---------+---------+---------+---------+---------+---------+
   CANAL-1   	   CANAL-2   	      CANAL-3
         V           N00E              N90E
---------+---------+---------+---------+---------+---------+---------+---------+ 
[...]
 -5.8867041e-002  6.1486231e-001  4.5155038e-001
 -1.0287417e-001  6.4431820e-001  4.8546313e-001
 -5.3030627e-002  6.7786485e-001  4.9926233e-001
 -1.0462498e-001  7.2999724e-001  5.1002090e-001
 -1.1396339e-001  7.5466030e-001  5.4989798e-001
 -8.8516381e-002  8.0211714e-001  5.5609579e-001
 -8.4664215e-002  8.2946881e-001  5.7702826e-001
 -1.4314585e-001  8.8569236e-001  6.0228801e-001
 -1.4407962e-001  9.1807023e-001  6.2205076e-001
 -1.2108412e-001  9.4670796e-001  6.3549917e-001
 -1.5458524e-001  9.9580071e-001  6.5116928e-001
 -1.8598539e-001  1.0362440e+000  6.7104936e-001
 -1.7174471e-001  1.0834671e+000  6.8929238e-001
 -1.4232881e-001  1.1042731e+000  6.9853083e-001
 -1.8948739e-001  1.1631849e+000  7.1443481e-001
 -1.4442978e-001  1.1952121e+000  7.4507345e-001
 -1.4758162e-001  1.2293436e+000  7.4460572e-001
 -1.4384618e-001  1.2766831e+000  7.6892962e-001
 -8.5948532e-002  1.3014635e+000  7.8132524e-001
 -1.5820396e-001  1.3588558e+000  8.0284237e-001
 -9.0617741e-002  1.3872594e+000  8.1640771e-001
 -9.5987272e-002  1.4328458e+000  8.2389216e-001
 -1.3345727e-001  1.4796013e+000  8.7569714e-001
 -6.7388416e-002  1.5091737e+000  8.5944236e-001
 -7.1824184e-002  1.5479807e+000  8.9171805e-001
 -4.2875166e-002  1.5883071e+000  9.1884833e-001
 -4.4976134e-002  1.6333091e+000  9.2142123e-001
  4.4001349e-003  1.6622975e+000  9.6270151e-001
  5.4510105e-003  1.7081176e+000  9.6702840e-001
  1.3038230e-002  1.7408461e+000  1.0026955e+000
  6.0780805e-002  1.7864325e+000  1.0095949e+000
  2.8679944e-002  1.8290969e+000  1.0389473e+000
  7.1169707e-002  1.8603060e+000  1.0664288e+000
  6.9535229e-002  1.9148928e+000  1.0734451e+000
  8.6694700e-002  1.9291533e+000  1.1115682e+000
  1.2603262e-001  1.9686615e+000  1.1123867e+000
  1.1926205e-001  2.0141310e+000  1.1377630e+000
  1.3011783e-001  2.0335345e+000  1.1500417e+000
  1.6303574e-001  2.0619381e+000  1.1626716e+000
  1.5241340e-001  2.1006282e+000  1.1760027e+000
  1.5474780e-001  2.1382660e+000  1.1867616e+000
  2.1708161e-001  2.1529940e+000  1.1977541e+000
  1.6910559e-001  2.2046589e+000  1.2000927e+000
  2.0505823e-001  2.2302573e+000  1.2179849e+000
  1.9210148e-001  2.2562065e+000  1.2081618e+000
  2.0529167e-001  2.2868311e+000  1.2287435e+000
  2.7883142e-001  2.3071697e+000  1.2109682e+000
  1.7272432e-001  2.3582498e+000  1.2209082e+000
  2.5326769e-001  2.3616397e+000  1.2338889e+000
  2.5385129e-001  2.4024336e+000  1.2017302e+000
  2.0237366e-001  2.4317726e+000  1.2205574e+000
  2.5945426e-001  2.4479031e+000  1.2057059e+000
  2.1182880e-001  2.4917363e+000  1.2109682e+000
  2.4299550e-001  2.4989832e+000  1.1874632e+000
  2.6400675e-001  2.5328809e+000  1.1831363e+000
  2.4486303e-001  2.5598819e+000  1.1782248e+000
  2.4684767e-001  2.5769478e+000  1.1466507e+000
  2.6447363e-001  2.5956496e+000  1.1542517e+000
  2.6318971e-001  2.6173911e+000  1.1233792e+000
  2.6494051e-001  2.6431065e+000  1.1170644e+000
  2.6774219e-001  2.6627437e+000  1.0835021e+000
  2.5747001e-001  2.6815625e+000  1.0697029e+000
  2.6213922e-001  2.7072778e+000  1.0575411e+000
  2.5116633e-001  2.7307725e+000  1.0181318e+000
  2.9260560e-001  2.7376687e+000  1.0128694e+000
  2.9225544e-001  2.7732031e+000  9.7790390e-001
  2.6575755e-001  2.7858268e+000  9.4972123e-001
  3.1513422e-001  2.7929569e+000  9.3182900e-001
  3.4128155e-001  2.8194908e+000  8.9791586e-001
  2.8268358e-001  2.8359719e+000  8.6493857e-001
  3.2388903e-001  2.8466087e+000  8.5394575e-001
  3.6672856e-001  2.8525699e+000  8.1547225e-001
  3.0299451e-001  2.8808570e+000  7.9009595e-001
  3.4303275e-001  2.8851819e+000  7.7828461e-001
  3.5447214e-001  2.8940655e+000  7.4039576e-001
  3.6591152e-001  2.9107804e+000  7.2706429e-001
  3.9170870e-001  2.9127673e+000  7.0005095e-001
  4.0384880e-001  2.9225860e+000  6.8180793e-001
  4.0139727e-001  2.9360283e+000  6.5596390e-001
  3.8131979e-001  2.9444443e+000  6.4146311e-001
  4.3408174e-001  2.9407038e+000  6.2930136e-001
  3.9731206e-001  2.9589381e+000  6.0158603e-001
  3.9287629e-001  2.9560161e+000  6.0474359e-001
  4.2194164e-001  2.9624449e+000  5.7819798e-001
  4.1738954e-001  2.9736661e+000  5.7328642e-001
  3.9976319e-001  2.9705103e+000  5.6580197e-001
  3.9964647e-001  2.9790429e+000  5.5527727e-001
  4.6303076e-001  2.9765884e+000  5.4709161e-001
  3.9416022e-001  2.9917839e+000  5.3703464e-001
  3.9194253e-001  2.9913164e+000  5.5492647e-001
  4.1377082e-001  2.9972776e+000  5.2311850e-001
  3.4291603e-001  3.0038232e+000  5.3247388e-001
  4.0396552e-001  3.0014856e+000  5.3516332e-001
  3.8026931e-001  3.0153954e+000  5.1703763e-001
  2.9260560e-001  3.0204216e+000  5.4194619e-001
  3.5925806e-001  3.0225255e+000  5.3177229e-001
  3.4361635e-001  3.0311753e+000  5.2393703e-001
  2.8606848e-001  3.0353833e+000  5.3574799e-001
  3.0019282e-001  3.0374872e+000  5.3761930e-001
  2.5735329e-001  3.0441497e+000  5.3188922e-001
  2.6225594e-001  3.0369028e+000  5.3738543e-001
  2.3330692e-001  3.0504619e+000  5.2931631e-001
  1.6466983e-001  3.0502282e+000  5.3492946e-001
  1.4272482e-001  3.0499944e+000  5.4171193e-001
  1.2007909e-001  3.0532670e+000  5.3913942e-001
  9.9067849e-002  3.0429809e+000  5.3551412e-001
  5.4126957e-002  3.0416952e+000  5.3095337e-001
  3.4282916e-002  3.0289542e+000  5.4966412e-001
 -2.8517378e-002  3.0333960e+000  5.2510635e-001
 -3.3303307e-002  3.0042907e+000  5.2241691e-001
 -6.9722824e-002  2.9934202e+000  5.3399400e-001
 -1.6007149e-001  2.9903813e+000  5.2452169e-001
 -1.4069433e-001  2.9638474e+000  5.2007787e-001
 -2.2450626e-001  2.9570681e+000  5.1411392e-001
 -2.6898027e-001  2.9293657e+000  5.1107329e-001
 -2.7446653e-001  2.9117154e+000  4.9166133e-001
 -3.1753989e-001  2.8766490e+000  4.9376612e-001
 -3.8617660e-001  2.8523361e+000  4.7400297e-001
 -4.2656500e-001  2.8302444e+000  4.6301054e-001
 -4.2212923e-001  2.7879307e+000  4.5798206e-001
 -5.4644629e-001  2.7675921e+000  4.2734342e-001
 -5.0629133e-001  2.7204863e+000  4.1763724e-001
 -5.7317762e-001  2.6953554e+000  4.0547510e-001
 -6.3644479e-001  2.6560808e+000  3.7705856e-001
 -6.1765124e-001  2.6130662e+000  3.5273466e-001
 -7.3636532e-001  2.5989227e+000  3.4185917e-001
 -6.4800090e-001  2.5263352e+000  3.0443766e-001
 -8.0009977e-001  2.5168673e+000  2.9671973e-001
 -7.6683170e-001  2.4709298e+000  2.4690261e-001
 -6.6597741e-001  2.3913293e+000  2.0246477e-001
 -8.5694693e-001  2.3976412e+000  2.1415879e-001
 -7.9519712e-001  2.3339370e+000  1.5872852e-001
 -8.3313400e-001  2.2897531e+000  1.4387693e-001
 -8.4574098e-001  2.2636871e+000  1.0493570e-001
 -8.7749129e-001  2.2204387e+000  8.3652430e-002
 -8.5881445e-001  2.1770730e+000  7.5934107e-002
 -8.4655803e-001  2.1374479e+000  9.6283390e-003
 -9.3410501e-001  2.1122000e+000  1.5124554e-002
 -8.3733633e-001  2.0546912e+000 -3.0248746e-002
 -9.2406627e-001  2.0331839e+000 -6.1004320e-002
 -9.1904690e-001  1.9875971e+000 -6.8021049e-002
 -9.0317174e-001  1.9469201e+000 -1.1760392e-001
 -9.8406527e-001  1.9187502e+000 -1.1818897e-001
 -9.3678997e-001  1.8743326e+000 -1.5315450e-001
 -9.5616713e-001  1.8281619e+000 -1.6145709e-001
 -9.8126398e-001  1.7933292e+000 -1.7443777e-001
 -9.8266463e-001  1.7601327e+000 -2.0285430e-001
 -9.6258715e-001  1.6890648e+000 -1.9104334e-001
 -1.0049598e+000  1.6757398e+000 -2.1770589e-001
 -1.0118471e+000  1.6191656e+000 -2.1875868e-001
 -1.0718461e+000  1.5719429e+000 -2.0460868e-001
 -1.0662431e+000  1.5177067e+000 -2.1829055e-001
 -1.0370607e+000  1.4447686e+000 -2.2027880e-001
 -1.1653462e+000  1.4208064e+000 -2.0191884e-001
 -1.0411463e+000  1.3216851e+000 -2.1805669e-001
 -1.1027794e+000  1.2880212e+000 -2.0601187e-001
 -1.1564751e+000  1.2091219e+000 -1.8110331e-001
 -1.0372941e+000  1.1108188e+000 -2.0729812e-001
 -1.1648793e+000  1.0674535e+000 -1.7642562e-001
 -1.1083823e+000  9.5804601e-001 -1.7315112e-001
 -1.0553869e+000  8.7470455e-001 -1.8484553e-001
 -1.1243742e+000  7.7862248e-001 -1.5911845e-001
 -1.1194716e+000  6.8370920e-001 -1.5829992e-001
 -1.0897055e+000  5.7734098e-001 -1.4590391e-001
 -1.0942580e+000  4.7518081e-001 -1.4871068e-001
 -1.1141020e+000  3.7676076e-001 -1.3666546e-001
 -1.0573716e+000  2.5321014e-001 -1.2649156e-001
 -1.0427804e+000  1.5549137e-001 -1.4800869e-001
 -1.0417299e+000  4.1759382e-002 -1.3818598e-001
 -1.0100959e+000 -8.1440992e-002 -1.4309753e-001
 -1.0039093e+000 -2.0090045e-001 -1.5993697e-001
 -9.6690619e-001 -3.2655529e-001 -1.6134016e-001
 -8.9651829e-001 -4.7173050e-001 -1.7829693e-001
 -9.5499953e-001 -5.9306042e-001 -1.8940629e-001
 -8.9441693e-001 -7.2830012e-001 -1.9770888e-001
 -7.9566400e-001 -8.9054086e-001 -2.1700430e-001
 -8.8227722e-001 -1.0163126e+000 -2.2799673e-001
 -7.4045093e-001 -1.1751638e+000 -2.4963118e-001
 -7.0835006e-001 -1.3298070e+000 -2.7325310e-001
 -7.5807689e-001 -1.4752160e+000 -2.7617680e-001
 -5.9827447e-001 -1.6390930e+000 -3.1429990e-001
 -6.2967462e-001 -1.7772551e+000 -3.3184093e-001
 -5.9804064e-001 -1.9370410e+000 -3.5441045e-001
 -5.0138868e-001 -2.0905154e+000 -3.9580805e-001
 -5.1609663e-001 -2.2269239e+000 -3.9522339e-001
 -4.3882182e-001 -2.3841385e+000 -4.6024290e-001
 -3.8769436e-001 -2.5277943e+000 -4.8059071e-001
 -3.5944566e-001 -2.6784632e+000 -4.9474031e-001
 -2.9489417e-001 -2.8243397e+000 -5.6747815e-001
 -2.3839717e-001 -2.9623845e+000 -5.8057536e-001
 -2.2357250e-001 -3.1034685e+000 -6.2594866e-001
 -1.8913723e-001 -3.2314609e+000 -6.7553192e-001
 -1.0345777e-001 -3.3746492e+000 -7.1809884e-001
 -1.0369121e-001 -3.4931736e+000 -7.6557693e-001
 -6.0618239e-002 -3.6139192e+000 -8.1071636e-001
  1.5723192e-002 -3.7450681e+000 -8.6602970e-001
  3.4633078e-002 -3.8490983e+000 -9.0228149e-001
  9.5098963e-002 -3.9687919e+000 -9.6285718e-001
  1.3268608e-001 -4.0791344e+000 -1.0160657e+000
  1.8661523e-001 -4.1741646e+000 -1.0645966e+000
  2.2210098e-001 -4.2632331e+000 -1.1252892e+000
  2.4066070e-001 -4.3470421e+000 -1.1672711e+000
  3.1139877e-001 -4.4348254e+000 -1.2276129e+000
  3.0206074e-001 -4.5019191e+000 -1.2886563e+000
  3.4501700e-001 -4.5698309e+000 -1.3216340e+000
  3.7058073e-001 -4.6397301e+000 -1.3756607e+000
  3.6240991e-001 -4.6984081e+000 -1.4269979e+000
  4.5847827e-001 -4.7576706e+000 -1.4776340e+000
  3.8879068e-001 -4.7894640e+000 -1.5209021e+000
  4.1307049e-001 -4.8415960e+000 -1.5515408e+000
  5.0260212e-001 -4.8820393e+000 -1.6228750e+000
  4.0746752e-001 -4.8870655e+000 -1.6483682e+000
  4.3268109e-001 -4.9235349e+000 -1.6885961e+000
  4.6221332e-001 -4.9380291e+000 -1.7380624e+000
  4.2602725e-001 -4.9575491e+000 -1.7547853e+000
  4.2322595e-001 -4.9671340e+000 -1.8068242e+000
  4.0326519e-001 -4.9659652e+000 -1.8161796e+000
  3.8365459e-001 -4.9916805e+000 -1.8470521e+000
  3.9696190e-001 -4.9990447e+000 -1.8788600e+000
  3.3065921e-001 -4.9970574e+000 -1.8808483e+000
  3.1933654e-001 -5.0086296e+000 -1.9017807e+000
  3.3462809e-001 -5.0110840e+000 -1.9124224e+000
  2.3832629e-001 -4.9965899e+000 -1.9197895e+000
  2.6727531e-001 -5.0060579e+000 -1.9250519e+000
  2.2175082e-001 -4.9754332e+000 -1.9321855e+000
  1.9770445e-001 -4.9649133e+000 -1.9048210e+000
  2.0715959e-001 -4.9196775e+000 -1.9023654e+000
  1.3945625e-001 -4.8489602e+000 -1.8835377e+000
  1.7739353e-001 -4.8970010e+000 -1.8462335e+000
  1.1926205e-001 -4.8908060e+000 -1.8284582e+000
  9.1947511e-002 -4.9201451e+000 -1.7986381e+000
  1.4202449e-001 -4.9691213e+000 -1.8020296e+000
  1.1062435e-001 -4.9312493e+000 -1.7796939e+000
  9.1130468e-002 -4.9328860e+000 -1.7745485e+000
  1.3782217e-001 -4.9547440e+000 -1.7713909e+000
  1.1879517e-001 -4.9507697e+000 -1.7574748e+000
  8.7511743e-002 -4.9472630e+000 -1.7255499e+000
  1.1727780e-001 -4.9569647e+000 -1.6924553e+000
  1.2965095e-001 -4.9479646e+000 -1.6751481e+000
  1.8159585e-001 -4.9671340e+000 -1.6336340e+000
  1.4832779e-001 -4.9346392e+000 -1.6102455e+000
  1.4120745e-001 -4.9064690e+000 -1.5406653e+000
  2.0797663e-001 -4.9217814e+000 -1.5234750e+000
  1.7937777e-001 -4.8725717e+000 -1.4685125e+000
  1.5147963e-001 -4.8539864e+000 -1.3865362e+000
  2.2817083e-001 -4.8537526e+000 -1.3723866e+000
  2.5513521e-001 -4.8422977e+000 -1.3129802e+000
  1.7704337e-001 -4.8148287e+000 -1.2639816e+000
  2.7638029e-001 -4.8044257e+000 -1.2133460e+000
  3.4023107e-001 -4.8062958e+000 -1.1859818e+000
  2.8630192e-001 -4.7749698e+000 -1.1151153e+000
  3.5727382e-001 -4.7697099e+000 -1.0703267e+000
  3.6124231e-001 -4.7698268e+000 -1.0286952e+000
  3.5937479e-001 -4.7431764e+000 -9.5303407e-001
  4.3279781e-001 -4.7272796e+000 -9.3525917e-001
  4.0326519e-001 -4.6992263e+000 -8.5503727e-001
  4.5474282e-001 -4.6691860e+000 -8.1352313e-001
  4.8941153e-001 -4.6671991e+000 -7.7551696e-001
  4.3805062e-001 -4.6156511e+000 -7.0500124e-001
  5.3727044e-001 -4.5725195e+000 -6.7331020e-001
  5.2758186e-001 -4.5533498e+000 -6.1729527e-001
  5.3166746e-001 -4.5104520e+000 -5.5777198e-001
  5.6201713e-001 -4.4515403e+000 -5.2245565e-001
  5.6049976e-001 -4.4219675e+000 -4.7076760e-001
  6.3625720e-001 -4.3865504e+000 -4.2621283e-001
  5.6155024e-001 -4.2977152e+000 -3.7779890e-001
  6.1314499e-001 -4.2738703e+000 -3.1032380e-001
  6.7384431e-001 -4.2151923e+000 -2.9044373e-001
  6.2038204e-001 -4.1497349e+000 -2.2425489e-001
  6.6812423e-001 -4.1037979e+000 -1.7724414e-001
  6.8773483e-001 -4.0277037e+000 -1.3467761e-001
  6.9765685e-001 -3.9825849e+000 -7.3634196e-002
  7.0933007e-001 -3.8935159e+000 -4.4632608e-002
  7.1890192e-001 -3.8154348e+000  2.2491687e-002
  7.2765635e-001 -3.7491589e+000  5.2545667e-002
  7.4668335e-001 -3.6646490e+000  1.0949645e-001
  7.5999065e-001 -3.5772164e+000  1.6176915e-001
  7.6676083e-001 -3.4991353e+000  2.0094465e-001
  7.7154676e-001 -3.4107676e+000  2.5485480e-001
  8.1053452e-001 -3.3199455e+000  2.9566734e-001
  8.3376345e-001 -3.2411627e+000  3.4653686e-001
  8.2197390e-001 -3.1294176e+000  3.7600617e-001
  8.5991118e-001 -3.0429204e+000  4.3248884e-001
  8.5547541e-001 -2.9409940e+000  4.6698664e-001
  8.9084444e-001 -2.8332229e+000  5.0230297e-001
  8.7672009e-001 -2.7326990e+000  5.5972109e-001
  8.9037756e-001 -2.6348637e+000  5.8860574e-001
  9.5621298e-001 -2.5240537e+000  6.1596989e-001
  9.0648615e-001 -2.4145294e+000  6.6461769e-001
  9.4769160e-001 -2.3241748e+000  6.8999398e-001
  9.9263249e-001 -2.1980524e+000  7.0835393e-001
  9.7734094e-001 -2.1015028e+000  7.4460572e-001
  9.8084295e-001 -1.9855498e+000  7.6308222e-001
  1.0216982e+000 -1.8861947e+000  7.9138221e-001
  1.0176126e+000 -1.7756184e+000  8.0693540e-001
  1.0444603e+000 -1.6499636e+000  8.2950531e-001
  1.0364062e+000 -1.5570376e+000  8.5651866e-001
  1.0207645e+000 -1.4284604e+000  8.9183498e-001
  1.1436805e+000 -1.3293395e+000  8.8949634e-001
  1.0473787e+000 -1.2034509e+000  9.1849753e-001
  1.0766779e+000 -1.0881991e+000  9.6808079e-001
  1.1467156e+000 -9.7902540e-001  9.4317223e-001
  1.0805300e+000 -8.5944867e-001  1.0012923e+000
  1.1327080e+000 -7.4524916e-001  1.0112324e+000
  1.1169495e+000 -6.1410022e-001  1.0277210e+000
  1.1559373e+000 -5.1287508e-001  1.0688844e+000
  1.0948874e+000 -3.7868768e-001  1.0739128e+000
  1.1307233e+000 -2.7243634e-001  1.1305124e+000
  1.1872207e+000 -1.5367777e-001  1.1251332e+000
  1.1220856e+000 -3.3984156e-002  1.1763539e+000
  1.1791662e+000  6.5604679e-002  1.1956489e+000
  1.1307233e+000  2.0224693e-001  1.2141258e+000
  1.1730964e+000  2.9073108e-001  1.2623058e+000
  1.1743803e+000  4.0878838e-001  1.2623058e+000
  1.1316575e+000  5.2953390e-001  1.3210102e+000
  1.1450811e+000  6.2678476e-001  1.3222965e+000
