**************************************************************************************
            UNIVERSIDAD AUTONOMA METROPOLITANA - AZCAPOTZALCO
                        Departamento de Materiales
                           Area de Estructuras
     AV. SAN PABLO 180,COL.REYNOSA, AZCAPOTZALCO, C.P.02200 CIUDAD DE MEXICO.
**************************************************************************************
ARCHIVO ESTANDAR DE ACELERACION:
VERSION DEL FORMATO                    : 2.0
NOMBRE DEL ARCHIVO                     : RIML201312012
FECHA Y HORA DE CREACION               : 03:32 p. m. 07/01/2014
REF. CATALOGO ACELEROGRAMAS, SMIS 1995 : REGISTRO NO.      /PAG.    


================================================================================
DATOS DE LA ESTACION:
NOMBRE DE LA ESTACION                  : UAM-LERMA.
CLAVE DE LA ESTACION                   : RIML
LOCALIZACION DE LA ESTACION            : AV. DE LAS GARZAS 10, EL PANTEON, C.P.52005,
                                       : LERMA DE VILLADA, ESTADO DE MEXICO. 
                                       :
                                       : 
                                       : 
COORDENADAS DE LA ESTACION             : 19.291481 LAT. N
                                       : 99.502060 LONG. W
ALTITUD (msnm)                         : 2570
TIPO DE SUELO                          : DEPOSITOS LACUSTRES
                                       : 
                                       : 
INSTITUCION RESPONSABLE                : UNIVERSIDAD AUTONOMA METROPOLITANA
                                       : 

================================================================================
DATOS DEL ACELEROGRAFO: 
MODELO DEL ACELEROGRAFO                : BASALT KINEMETRICS
NUMERO DE SERIE DEL ACELEROGRAFO       : 978
NUMERO DE CANALES                      : 3
ORIENTACION C1-C6 (rumbo;orientacion)  : /V/N00E/N90E
ORIENTACION C7-C12 (rumbo;orientacion) : 
VEL. DE MUESTREO, C1-C6 (muestras/s)   : /250/250/250
VEL. DE MUESTREO, C7-C12 (muestras/s)  : 
ESC. COMPLETA DE SENSORES, C1-C6, (g)  : /2/2/2
ESC. COMPLETA DE SENSORES, C7-C12 (g)  : 
FREC. NAT. DE SENSORES, C1-C6, (Hz)    : /210/212/212
FREC. NAT. DE SENSORES, C7-C12 (Hz)    : 
AMORTIGUAMIENTO DE SENSORES, C1-C6     : /0.7/0.7/0.7
AMORTIGUAMIENTO DE SENSORES, C7-C12    : 
INTERVALO DE MUESTREO, C1-C6 (s)       : /0.004/0.004/0.004
INTERVALO DE MUESTREO, C7-C12 (s)      : 
UMBRAL DE DISPARO, C1-C6 (Gal)         : /2/2/2
UMBRAL DE DISPARO, C7-C12 (Gal)        : 
MEMORIA DE PREEVENTO (s)               : 20
TIEMPO DE POSEVENTO (s)                : 30


================================================================================
DATOS DEL SISMO:
FECHA DEL SISMO [GMT]                  : 2013/12/01
HORA EPICENTRO (GMT)                   : 03:20:55
MAGNITUD(ES)                           : /M=5.4
COORDENADAS DEL EPICENTRO              : 17.295 LAT. N
                                       : 101.668 LONG. W
PROFUNDIDAD FOCAL (Km)                 : 20.0
FUENTE DE LOS DATOS EPICENTRALES       : SSN
                                       : INSTITUTO DE GEOFISICA, UNAM

================================================================================
DATOS DE ESTE REGISTRO:
HORA DE LA PRIMERA MUESTRA (GMT)       : 03:22:06.000
EXACTITUD DEL TIEMPO (s)               : 
DURACION DEL REGISTRO (s), C1-C6       : /86.00/86.00/86.00
DURACION DEL REGISTRO (s), C7-C12      : 
NUM. TOTAL DE MUESTRAS, C1-C6          : /21500/21500/21500
NUM. TOTAL DE MUESTRAS, C7-C12         : 
ACEL. MAX.(Gal), C1-C6                 : /1.113/2.863/-2.875
ACEL. MAX., C1-C6, EN LA MUESTRA       : /6849/6647/6776
ACEL. MAX.(Gal), C7-C12                : 
ACEL. MAX., C7-C12,EN LA MUESTRA       : 
UNIDADES DE LOS DATOS                  : Gal (cm/s/s)
FACTOR DE DECIMACION                   : 1
FORMATO DATOS (FORTRAN,16 campos/dato) : 3E16.7


================================================================================
CALIDAD DEL ACELEROGRAMA:
REGISTRO DIGITAL COMPLETO CON TIEMPO ABSOLUTO CORRECTO


================================================================================
COMENTARIOS:














================================================================================
DATOS DE ACELERACION:
---------+---------+---------+---------+---------+---------+---------+---------+
   CANAL-1   	   CANAL-2   	      CANAL-3
         V           N00E              N90E
---------+---------+---------+---------+---------+---------+---------+---------+
[...]
  -1.3916264e-01  -8.9899071e-05   1.7205166e-01
  -1.1838483e-01  -7.1275153e-02   1.3171556e-01
  -1.7850056e-01  -3.7260590e-02   1.2551870e-01
  -2.4830486e-01   1.3140928e-01   1.4188727e-01
  -2.0943382e-01   8.2199261e-02   8.9157829e-02
  -1.3706167e-01  -2.2766405e-02   5.6421476e-02
  -2.4993895e-01   4.1405318e-02   5.1744798e-02
  -3.5814741e-01   1.6472218e-01   6.1682689e-02
  -3.0620290e-01   1.9955490e-01   4.4378863e-02
  -2.2402505e-01   1.1983708e-01   4.1596675e-03
  -2.4036709e-01   9.5173626e-02   3.0133954e-04
  -3.3094919e-01   2.3029645e-01   2.5906358e-02
  -2.7270139e-01   2.8909135e-01   3.3505714e-02
  -2.3324675e-01   2.1825712e-01  -9.2854384e-03
  -2.5799344e-01   1.9826923e-01  -1.4522676e-03
  -3.3865353e-01   2.8523394e-01   3.2102828e-02
  -3.6340022e-01   4.1439554e-01   4.2742163e-02
  -2.2717690e-01   3.3584651e-01   3.2921178e-02
  -2.3593171e-01   2.7927272e-01   4.1573092e-02
  -2.6838234e-01   3.8213417e-01   8.7988758e-02
  -2.8250669e-01   4.8955469e-01   1.2201148e-01
  -2.7702044e-01   4.8943781e-01   1.3744440e-01
  -2.0231348e-01   3.7792652e-01   1.3802894e-01
  -2.5075638e-01   4.6898240e-01   1.8222337e-01
  -3.0830386e-01   6.0281916e-01   2.5400985e-01
  -2.4632061e-01   6.0281916e-01   2.8639548e-01
  -1.7499855e-01   5.4764791e-01   2.9341069e-01
  -1.7920088e-01   5.5337538e-01   3.4368469e-01
  -2.7328499e-01   7.1421357e-01   4.3452860e-01
  -2.5437471e-01   7.7721650e-01   4.7533233e-01
  -1.2305404e-01   6.6874407e-01   4.8234715e-01
  -1.6846182e-01   6.7108205e-01   5.4220831e-01
  -2.1340271e-01   8.1041291e-01   6.2825864e-01
  -2.0021212e-01   8.9129952e-01   6.8741836e-01
  -1.6542709e-01   8.6488249e-01   7.2962498e-01
  -9.5389341e-02   7.9171069e-01   7.6072502e-01
  -1.5737259e-01   8.9948145e-01   8.4502135e-01
  -1.9776100e-01   1.0480466e+00   9.3481310e-01
  -1.1628387e-01   1.0060834e+00   9.6065154e-01
  -1.3211497e-02   9.5488646e-01   9.9701240e-01
  -5.8969432e-02   1.0210451e+00   1.0640057e+00
  -1.5188634e-01   1.1679739e+00   1.1492377e+00
  -6.1537673e-02   1.2031573e+00   1.1978746e+00
   3.3713643e-02   1.1136208e+00   1.2071110e+00
  -9.2426101e-03   1.1362969e+00   1.2611264e+00
  -5.6868464e-02   1.3116293e+00   1.3475275e+00
  -6.9082014e-03   1.3669174e+00   1.3923064e+00
   8.5541433e-02   1.2853296e+00   1.3972169e+00
   1.0398483e-01   1.2889532e+00   1.4308889e+00
   3.9083175e-02   1.4291018e+00   1.5082874e+00
   6.5930833e-02   1.5454059e+00   1.5525987e+00
   1.4390635e-01   1.4797148e+00   1.5620690e+00
   2.0530600e-01   1.4441804e+00   1.5827631e+00
   1.5441197e-01   1.5631727e+00   1.6179549e+00
   7.8304374e-02   1.7212058e+00   1.6904428e+00
   2.2631724e-01   1.7065948e+00   1.6829604e+00
   2.5433250e-01   1.6231364e+00   1.6691641e+00
   2.0355519e-01   1.7237772e+00   1.7437568e+00
   2.2818516e-01   1.8567958e+00   1.7713488e+00
   2.3075301e-01   1.9118502e+00   1.8032672e+00
   3.3044010e-01   1.8420682e+00   1.7990582e+00
   3.0335900e-01   1.8513021e+00   1.8079439e+00
   2.2981925e-01   2.0535190e+00   1.8812502e+00
   2.9542122e-01   2.0991054e+00   1.8834718e+00
   3.2366992e-01   2.0148289e+00   1.8708446e+00
   3.2028464e-01   2.0646233e+00   1.8835887e+00
   2.5830138e-01   2.2061749e+00   1.9284846e+00
   2.3717342e-01   2.2998021e+00   1.9665991e+00
   3.3627651e-01   2.2580731e+00   1.9440344e+00
   3.7806595e-01   2.2120192e+00   1.9383052e+00
   3.2390336e-01   2.3285567e+00   1.9781736e+00
   2.6962405e-01   2.4525752e+00   1.9941915e+00
   3.2238599e-01   2.4427566e+00   1.9832010e+00
   3.3230762e-01   2.4035990e+00   1.9814474e+00
   2.2701796e-01   2.4727969e+00   1.9987509e+00
   1.9094821e-01   2.6184396e+00   2.0354628e+00
   2.4931313e-01   2.6235827e+00   2.0456346e+00
   3.1830039e-01   2.5161622e+00   2.0394381e+00
   2.9565467e-01   2.5578915e+00   2.0540523e+00
   2.0752408e-01   2.6879882e+00   2.0967269e+00
   1.6853632e-01   2.7277302e+00   2.1178887e+00
   2.0355519e-01   2.6697535e+00   2.1053788e+00
   2.3425502e-01   2.6388950e+00   2.1211625e+00
   1.5581262e-01   2.7439776e+00   2.1646550e+00
   1.1845934e-01   2.8231106e+00   2.2020685e+00
   2.3530550e-01   2.7354446e+00   2.1903770e+00
   2.0320503e-01   2.6758316e+00   2.1896751e+00
   8.7759513e-02   2.7681735e+00   2.2270886e+00
   7.6553568e-02   2.8445014e+00   2.2532777e+00
   9.0910965e-02   2.8059282e+00   2.2593573e+00
   1.3970402e-01   2.6912608e+00   2.2514072e+00
   1.0235074e-01   2.7287821e+00   2.2740888e+00
   7.3051563e-02   2.8630864e+00   2.3120867e+00
   8.8576556e-02   2.7955252e+00   2.3223753e+00
   1.1799246e-01   2.6795721e+00   2.2894048e+00
   8.3090304e-02   2.6775851e+00   2.2932631e+00
  -4.5429078e-02   2.7814985e+00   2.3347683e+00
  -1.6129899e-02   2.7888627e+00   2.3187508e+00
   2.5425709e-02   2.6557268e+00   2.2986412e+00
   5.5816684e-03   2.6154004e+00   2.2892879e+00
  -5.4767496e-02   2.6847152e+00   2.3070593e+00
  -6.0603910e-02   2.7114824e+00   2.3164127e+00
   2.3674902e-02   2.5719182e+00   2.2657880e+00
  -1.7180383e-02   2.4906806e+00   2.2468474e+00
  -1.2877374e-01   2.5536835e+00   2.2497701e+00
  -1.8678849e-01   2.5999711e+00   2.2455611e+00
  -1.1348218e-01   2.5200196e+00   2.2056930e+00
  -1.0601168e-01   2.3855984e+00   2.1652400e+00
  -1.6239196e-01   2.4046509e+00   2.1757624e+00
  -1.6145820e-01   2.4396005e+00   2.1523790e+00
  -1.7803368e-01   2.3554412e+00   2.1178887e+00
  -1.5048569e-01   2.2335265e+00   2.0698363e+00
  -2.2005617e-01   2.2123698e+00   2.0499605e+00
  -3.0445170e-01   2.2667229e+00   2.0568584e+00
  -2.8215653e-01   2.2235910e+00   1.9966465e+00
  -2.6231249e-01   2.0715196e+00   1.9580640e+00
  -2.2519226e-01   1.9932047e+00   1.9247432e+00
  -3.0071625e-01   2.0606490e+00   1.9094271e+00
  -3.6783599e-01   2.0386742e+00   1.8930586e+00
  -3.1402356e-01   1.9023826e+00   1.8125033e+00
  -3.4402306e-01   1.8126123e+00   1.7736874e+00
  -3.9199907e-01   1.8292104e+00   1.7678416e+00
  -4.1195983e-01   1.8663807e+00   1.7451597e+00
  -3.5067651e-01   1.7331283e+00   1.6819082e+00
  -3.0865403e-01   1.5844463e+00   1.6239175e+00
  -4.2771827e-01   1.6202141e+00   1.6199423e+00
  -4.6063578e-01   1.6466311e+00   1.5941039e+00
  -4.2923563e-01   1.5440030e+00   1.5209145e+00
  -4.0542271e-01   1.4085295e+00   1.4601177e+00
  -4.4032486e-01   1.3746322e+00   1.4376699e+00
  -5.1841710e-01   1.4435960e+00   1.4217694e+00
  -4.5013016e-01   1.3678525e+00   1.3613237e+00
  -3.9503381e-01   1.1983648e+00   1.2810022e+00
  -4.5608329e-01   1.1662203e+00   1.2506040e+00
  -5.2133511e-01   1.2101704e+00   1.2283897e+00
  -4.9950682e-01   1.1628308e+00   1.1699318e+00
  -4.3343796e-01   1.0247857e+00   1.0868042e+00
  -4.3810717e-01   9.6119872e-01   1.0353611e+00
  -5.1689934e-01   9.8387483e-01   1.0132641e+00
  -5.2331975e-01   9.8749847e-01   9.5281837e-01
  -4.4289310e-01   8.5599929e-01   8.6992453e-01
  -4.7756181e-01   7.2870776e-01   7.9989166e-01
  -5.1036260e-01   7.7137216e-01   7.5604835e-01
  -5.1433149e-01   8.0036053e-01   7.1337371e-01
  -5.3149057e-01   6.9901811e-01   6.2592050e-01
  -4.2129786e-01   5.5793406e-01   5.1286227e-01
  -4.5398232e-01   5.5851885e-01   4.8211333e-01
  -5.4619852e-01   6.1357282e-01   4.4294630e-01
  -4.3752357e-01   5.0451639e-01   3.1936604e-01
  -4.3577237e-01   3.7021171e-01   2.2478071e-01
  -4.9367041e-01   3.4648330e-01   1.4562829e-01
  -5.2647120e-01   3.8938146e-01   1.0225261e-01
  -5.2670464e-01   3.7628982e-01   1.0122324e-02
  -4.1931361e-01   2.0493173e-01  -1.2421418e-01
  -4.4032486e-01   1.2124002e-01  -1.8828440e-01
  -4.8176375e-01   1.9885362e-01  -2.6568281e-01
  -4.5561641e-01   1.9254176e-01  -3.4553666e-01
  -4.2328250e-01   5.4029045e-02  -4.6958495e-01
  -4.2048082e-01  -7.1275153e-02  -5.8439679e-01
  -5.1771677e-01  -3.1291478e-03  -6.3946437e-01
  -5.0149107e-01   4.2457230e-02  -7.3381549e-01
  -4.3822389e-01  -9.9561856e-02  -8.3904016e-01
  -3.9491708e-01  -2.2650236e-01  -9.5350127e-01
  -3.8697970e-01  -2.2603485e-01  -1.0332382e+00
  -5.0662716e-01  -1.6314918e-01  -1.1036218e+00
  -4.5363216e-01  -2.3807457e-01  -1.2081450e+00
  -3.6106542e-01  -3.9341905e-01  -1.3146557e+00
  -4.3764029e-01  -4.2813489e-01  -1.4111115e+00
  -4.7452669e-01  -3.5987200e-01  -1.4611517e+00
  -4.5503281e-01  -3.7308052e-01  -1.5440451e+00
  -3.5126051e-01  -5.4397109e-01  -1.6616631e+00
  -3.3795320e-01  -6.3397467e-01  -1.7405814e+00
  -4.3904093e-01  -5.5752985e-01  -1.7846589e+00
  -4.3997470e-01  -5.6442650e-01  -1.8490798e+00
  -3.6363366e-01  -7.1345873e-01  -1.9634240e+00
  -3.1379012e-01  -8.1328132e-01  -2.0327551e+00
  -3.9958629e-01  -7.8218913e-01  -2.0571906e+00
  -3.8336098e-01  -7.5822695e-01  -2.1165841e+00
  -2.8355717e-01  -8.7534883e-01  -2.1937487e+00
  -2.6418001e-01  -1.0008868e+00  -2.2633140e+00
  -2.8530798e-01  -1.0031079e+00  -2.3045853e+00
  -3.3748632e-01  -9.6944396e-01  -2.3182647e+00
  -2.6709842e-01  -1.0361870e+00  -2.3884144e+00
  -2.1725487e-01  -1.1685047e+00  -2.4658129e+00
  -2.3721564e-01  -1.2324423e+00  -2.4742309e+00
  -2.5659279e-01  -1.1725955e+00  -2.4921193e+00
  -2.3126250e-01  -1.1842846e+00  -2.5301169e+00
  -1.3355966e-01  -1.3748124e+00  -2.5835478e+00
  -1.2200356e-01  -1.4310356e+00  -2.6249360e+00
  -1.9355867e-01  -1.3744618e+00  -2.6162841e+00
  -2.1865552e-01  -1.3863843e+00  -2.6353415e+00
  -1.1966876e-01  -1.5022205e+00  -2.6863170e+00
  -9.3638143e-02  -1.6164204e+00  -2.7216257e+00
  -1.4990170e-01  -1.5596124e+00  -2.7151954e+00
  -1.6204180e-01  -1.5433650e+00  -2.7032701e+00
  -8.5117159e-02  -1.6420188e+00  -2.7495688e+00
   5.6229808e-04  -1.7596082e+00  -2.7824221e+00
  -1.0414377e-01  -1.7521276e+00  -2.7737706e+00
  -1.5270338e-01  -1.6645781e+00  -2.7632478e+00
  -6.6440323e-02  -1.7524782e+00  -2.7866312e+00
  -1.2161013e-02  -1.8865487e+00  -2.8191341e+00
  -2.8152887e-02  -1.8920425e+00  -2.8062731e+00
  -8.1031552e-02  -1.8049609e+00  -2.7977381e+00
  -7.2393457e-02  -1.8277542e+00  -2.8034670e+00
  -7.3750831e-03  -1.9842675e+00  -2.8323454e+00
   1.2630124e-03  -2.0041385e+00  -2.8441542e+00
  -7.7646268e-02  -1.9103940e+00  -2.8164448e+00
  -5.8735991e-02  -1.9142514e+00  -2.8143405e+00
   1.1301753e-02  -2.0127880e+00  -2.8394775e+00
   3.1962837e-02  -2.0826872e+00  -2.8570147e+00
  -2.7452565e-02  -2.0140740e+00  -2.8272011e+00
  -9.4338465e-02  -1.9384474e+00  -2.8199524e+00
   7.0994258e-03  -2.0351138e+00  -2.8498830e+00
   2.2857859e-02  -2.1343520e+00  -2.8675372e+00
  -4.7763487e-02  -2.0863108e+00  -2.8502337e+00
  -4.1110030e-02  -1.9845013e+00  -2.8310594e+00
  -4.6246121e-02  -2.0165285e+00  -2.8570147e+00
   2.8970984e-03  -2.1328322e+00  -2.8684724e+00
  -2.0098786e-02  -2.0936746e+00  -2.8662512e+00
  -8.6634525e-02  -1.9841506e+00  -2.8393606e+00
  -3.9592665e-02  -2.0062424e+00  -2.8427509e+00
   1.2935839e-02  -2.0982333e+00  -2.8756046e+00
   3.2472597e-03  -2.1032595e+00  -2.8740844e+00
  -8.2782359e-02  -1.9891768e+00  -2.8532733e+00
  -9.8540793e-02  -1.9281612e+00  -2.8322285e+00
  -2.8225945e-03  -2.0282172e+00  -2.8660174e+00
   3.7215648e-02  -2.0881809e+00  -2.8740844e+00
  -4.6012680e-02  -1.9981769e+00  -2.8314101e+00
  -6.4105523e-02  -1.9095759e+00  -2.8186661e+00
   2.0289618e-02  -1.9647471e+00  -2.8426340e+00
   3.1145794e-02  -2.0470363e+00  -2.8346839e+00
  -1.7180383e-02  -1.9804101e+00  -2.8076760e+00
  -6.5506560e-02  -1.8679638e+00  -2.7910740e+00
   2.6476585e-02  -1.9112122e+00  -2.7780962e+00
   1.2417903e-01  -2.0240095e+00  -2.7943478e+00
   9.5813614e-02  -1.9715265e+00  -2.7561160e+00
   2.8344112e-02  -1.8605996e+00  -2.7135587e+00
   3.8032691e-02  -1.8733406e+00  -2.7148447e+00
   1.6982025e-01  -1.9743320e+00  -2.7250164e+00
   1.5336149e-01  -1.9829814e+00  -2.6915782e+00
   9.8031694e-02  -1.8703014e+00  -2.6230655e+00
   1.7413929e-01  -1.8518329e+00  -2.6248191e+00
   2.6040235e-01  -1.9612404e+00  -2.6186226e+00
   2.4604456e-01  -1.9993461e+00  -2.5821445e+00
   1.9993647e-01  -1.8968349e+00  -2.5254402e+00
   2.3086973e-01  -1.8650414e+00  -2.4738802e+00
   3.1082950e-01  -1.9804101e+00  -2.4797260e+00
   3.6370816e-01  -2.0450493e+00  -2.4384546e+00
   3.0779477e-01  -1.9619416e+00  -2.3612900e+00
   3.3802771e-01  -1.9116797e+00  -2.3301900e+00
   3.9032238e-01  -1.9880076e+00  -2.2990903e+00
   4.3981576e-01  -2.0926227e+00  -2.2689259e+00
   4.4483513e-01  -2.0733361e+00  -2.2122216e+00
   3.7059506e-01  -1.9751502e+00  -2.1330692e+00
   4.5253907e-01  -2.0338282e+00  -2.1119075e+00
   5.1463943e-01  -2.1470926e+00  -2.0771833e+00
   4.8965930e-01  -2.1599505e+00  -2.0133469e+00
   4.4203345e-01  -2.0631668e+00  -1.9436651e+00
   4.9211043e-01  -2.0802327e+00  -1.8889483e+00
   5.8829551e-01  -2.2355772e+00  -1.8624084e+00
   5.9763393e-01  -2.2545128e+00  -1.8134204e+00
   5.6004721e-01  -2.1819254e+00  -1.7320467e+00
   5.1370567e-01  -2.1342348e+00  -1.6711334e+00
   6.1981277e-01  -2.2534609e+00  -1.6500882e+00
   6.9125116e-01  -2.3494261e+00  -1.5944360e+00
   6.1607733e-01  -2.2490191e+00  -1.5306000e+00
   5.7370467e-01  -2.1968871e+00  -1.4574103e+00
   6.6883888e-01  -2.3036059e+00  -1.4285319e+00
   7.6198923e-01  -2.3855444e+00  -1.4072532e+00
   6.8436426e-01  -2.3252301e+00  -1.3090437e+00
   6.3778889e-01  -2.2679550e+00  -1.2502347e+00
   7.0607583e-01  -2.2981122e+00  -1.2014805e+00
   8.2899185e-01  -2.4256371e+00  -1.1786821e+00
   8.3249385e-01  -2.4020260e+00  -1.1260696e+00
   7.2416867e-01  -2.2884105e+00  -1.0231834e+00
   8.3074305e-01  -2.3157625e+00  -1.0178053e+00
   9.0813457e-01  -2.3688296e+00  -1.0068152e+00
   8.1615182e-01  -2.3939605e+00  -9.1912783e-01
   8.3529553e-01  -2.3011515e+00  -8.6534623e-01
   8.9832927e-01  -2.2642145e+00  -8.3635129e-01
   9.5050722e-01  -2.3639202e+00  -8.0501743e-01
   9.8739401e-01  -2.3842588e+00  -7.8794781e-01
   9.3253110e-01  -2.2714618e+00  -7.1522608e-01
   9.0369880e-01  -2.2081082e+00  -6.6004159e-01
   1.0227630e+00  -2.2995148e+00  -6.5875522e-01
   1.0363038e+00  -2.3417116e+00  -6.2917575e-01
   9.5365906e-01  -2.2472659e+00  -5.6908077e-01
   9.7432015e-01  -2.1430015e+00  -5.0875198e-01
   1.0288329e+00  -2.1826266e+00  -5.0769942e-01
   1.0647855e+00  -2.2576689e+00  -4.8758983e-01
   9.4747249e-01  -2.2053031e+00  -4.1171121e-01
   1.0289496e+00  -2.1036101e+00  -4.0457948e-01
   1.0776260e+00  -2.0678423e+00  -3.9312179e-01
   9.6533189e-01  -2.1441703e+00  -3.2414109e-01
   1.1145124e+00  -2.1469758e+00  -3.0660345e-01
   9.6089651e-01  -1.9729291e+00  -2.6264322e-01
   8.9646174e-01  -1.9329533e+00  -2.1260304e-01
   1.0984038e+00  -2.0493743e+00  -2.1529191e-01
   1.0459920e+00  -2.0150091e+00  -1.8220483e-01
   9.6696637e-01  -1.8636389e+00  -1.2655272e-01
   9.4934002e-01  -1.8117402e+00  -7.8499959e-02
   1.0126076e+00  -1.8676132e+00  -7.8499959e-02
   9.8832777e-01  -1.8674959e+00  -5.4064405e-02
   9.4887313e-01  -1.7655695e+00   2.6841615e-02
   9.4782265e-01  -1.6469282e+00   5.2796962e-02
   9.4408721e-01  -1.6855010e+00   7.1737488e-02
   9.8634353e-01  -1.7433609e+00   1.0786454e-01
   9.2622780e-01  -1.6253036e+00   1.4036708e-01
   8.7568394e-01  -1.4962592e+00   2.0209915e-01
   8.7883539e-01  -1.4701932e+00   2.3670602e-01
   9.1011882e-01  -1.5444170e+00   2.4231835e-01
   9.4070231e-01  -1.4940381e+00   2.7797777e-01
   8.2805808e-01  -1.3219788e+00   3.5911761e-01
   8.2303871e-01  -1.2569889e+00   3.8156535e-01
   9.3603310e-01  -1.3182382e+00   3.6379428e-01
   8.1650198e-01  -1.2959128e+00   4.3674983e-01
