**************************************************************************************
  RED ACELEROGRÁFICA DE LA UNIVERSIDAD AUTONOMA METROPOLITANA (RAUAM)
				UNIDAD AZCAPOTZALCO
                        DIVISIÓN CBI-DEPARTAMENTO DE MATERIALES
     Av. San Pablo 180, Col. Reynosa, Azcapotzalco, C.P. 02200, Ciudad de México
**************************************************************************************
ARCHIVO ESTANDAR DE ACELERACION:
VERSION DEL FORMATO                    : 2.0
NOMBRE DEL ARCHIVO                     : RIML201303262
FECHA Y HORA DE CREACION               : 11:46 p. m. 02/06/2013
REF. CATALOGO ACELEROGRAMAS, SMIS 1995 : REGISTRO NO.      /PAG.    


================================================================================
DATOS DE LA ESTACION:
NOMBRE DE LA ESTACION                  : UAM-LERMA.
CLAVE DE LA ESTACION                   : RIML
LOCALIZACION DE LA ESTACION            : AV. DE LAS GARZAS 10, EL PANTEON, C.P.52005,
                                       : LERMA DE VILLADA, ESTADO DE MEXICO. 
                                       :
                                       : 
                                       : 
COORDENADAS DE LA ESTACION             : 19.291481 LAT. N
                                       : 99.502060 LONG. W
ALTITUD (msnm)                         : 2570
TIPO DE SUELO                          : DEPOSITOS LACUSTRES
                                       : 
                                       : 
INSTITUCION RESPONSABLE                : UNIVERSIDAD AUTONOMA METROPOLITANA
                                       : 


================================================================================
DATOS DEL ACELEROGRAFO: 
MODELO DEL ACELEROGRAFO                : BASALT KINEMETRICS
NUMERO DE SERIE DEL ACELEROGRAFO       : 978
NUMERO DE CANALES                      : 3
ORIENTACION C1-C6 (rumbo;orientacion)  : /V/N00E/N90E
ORIENTACION C7-C12 (rumbo;orientacion) : 
VEL. DE MUESTREO, C1-C6 (muestras/s)   : /250/250/250
VEL. DE MUESTREO, C7-C12 (muestras/s)  : 
ESC. COMPLETA DE SENSORES, C1-C6, (g)  : /2/2/2
ESC. COMPLETA DE SENSORES, C7-C12 (g)  : 
FREC. NAT. DE SENSORES, C1-C6, (Hz)    : /210/212/212
FREC. NAT. DE SENSORES, C7-C12 (Hz)    : 
AMORTIGUAMIENTO DE SENSORES, C1-C6     : /0.7/0.7/0.7
AMORTIGUAMIENTO DE SENSORES, C7-C12    : 
INTERVALO DE MUESTREO, C1-C6 (s)       : /0.004/0.004/0.004
INTERVALO DE MUESTREO, C7-C12 (s)      : 

MEMORIA DE PREEVENTO (s)               : 20
TIEMPO DE POSEVENTO (s)                : 30


================================================================================
DATOS DEL SISMO:
FECHA DEL SISMO [GMT]                  : 2013/03/26
HORA EPICENTRO (GMT)                   : 13:12:17
MAGNITUD(ES)                           : /M=5.0
COORDENADAS DEL EPICENTRO              : 15.929 LAT. N
                                       : 98.4498 LONG. W
PROFUNDIDAD FOCAL (Km)                 : 8.0
FUENTE DE LOS DATOS EPICENTRALES       : SSN
                                       : INSTITUTO DE GEOFISICA, UNAM

UMBRAL DE DISPARO, C1-C6 (Gal)         : /2/2/2
UMBRAL DE DISPARO, C7-C12 (Gal)        : 

================================================================================
DATOS DE ESTE REGISTRO:
HORA DE LA PRIMERA MUESTRA (GMT)       : 13:13:47.00
EXACTITUD DEL TIEMPO (s)               : 
DURACION DEL REGISTRO (s), C1-C6       : /83.00/83.00/83.00
DURACION DEL REGISTRO (s), C7-C12      : 
NUM. TOTAL DE MUESTRAS, C1-C6          : /20750/20750/20750
NUM. TOTAL DE MUESTRAS, C7-C12         : 
ACEL. MAX.(Gal), C1-C6                 : /-0.483/-1.880/-1.286
ACEL. MAX., C1-C6, EN LA MUESTRA       : /6089/5921/8254
ACEL. MAX.(Gal), C7-C12                : 
ACEL. MAX., C7-C12,EN LA MUESTRA       : 
UNIDADES DE LOS DATOS                  : Gal (cm/s/s)
FACTOR DE DECIMACION                   : 1
FORMATO DATOS (FORTRAN,16 campos/dato) : 3E16.7

================================================================================
CALIDAD DEL ACELEROGRAMA:
REGISTRO DIGITAL COMPLETO CON TIEMPO ABSOLUTO CORRECTO


================================================================================
COMENTARIOS:














================================================================================
DATOS DE ACELERACION:
---------+---------+---------+---------+---------+---------+---------+---------+
   CANAL-1   	   CANAL-2   	      CANAL-3
         V           N00E              N90E
---------+---------+---------+---------+---------+---------+---------+---------+ 
[...]
   2.6962844e-01   4.4232703e-01   6.8643564e-01
   1.7414369e-01   4.7295171e-01   6.8105752e-01
   1.9375429e-01   4.6652257e-01   6.6515697e-01
   2.6344187e-01   4.6102886e-01   6.8491585e-01
   2.5387001e-01   4.8078300e-01   6.8140824e-01
   2.3927878e-01   4.7914669e-01   6.6913221e-01
   1.8464931e-01   5.1853808e-01   6.6866419e-01
   2.4418143e-01   5.0182280e-01   6.6562460e-01
   2.9075641e-01   5.0042026e-01   6.4528119e-01
   2.8305208e-01   5.3572049e-01   6.4422903e-01
   1.8721716e-01   5.5383832e-01   6.2891301e-01
   2.1464881e-01   5.5407208e-01   6.1745494e-01
   2.8316880e-01   5.5711093e-01   5.9687771e-01
   1.9001884e-01   5.8457987e-01   5.8881072e-01
   2.0005758e-01   5.9930782e-01   5.6963638e-01
   1.0819155e-01   6.3203632e-01   5.3140461e-01
   1.6177015e-01   6.1239906e-01   5.5268328e-01
   2.1184713e-01   6.2689324e-01   5.0720287e-01
   8.1460220e-02   6.7505136e-01   4.8533967e-01
   1.1309420e-01   6.7119395e-01   4.7224489e-01
   7.3756280e-02   6.8685693e-01   4.4453593e-01
   1.0410594e-01   6.9737683e-01   4.4231431e-01
   8.0526457e-02   7.2344283e-01   3.7964737e-01
  -3.5269223e-02   7.4109314e-01   3.7707541e-01
   2.5079942e-02   7.5149617e-01   3.5334130e-01
   1.8426485e-02   7.6739290e-01   3.1838332e-01
   8.9713468e-03   7.7978326e-01   3.1148501e-01
  -5.4763102e-02   8.1695356e-01   2.5513146e-01
  -1.2701853e-01   8.2770722e-01   2.5197496e-01
   5.8195033e-03   8.2630467e-01   2.3759421e-01
  -1.4491419e-02   8.4220141e-01   1.7539451e-01
  -1.4254353e-01   8.8369663e-01   1.7352399e-01
  -1.2468413e-01   9.0380140e-01   1.3868292e-01
  -1.3063726e-01   8.9690514e-01   1.1155850e-01
  -9.2699985e-02   9.2028292e-01   1.0524512e-01
  -1.3145430e-01   9.4927090e-01   4.4916330e-02
  -2.3569388e-01   9.7931118e-01   4.3162330e-02
  -9.5618388e-02   9.7486938e-01   2.3987990e-02
  -8.4295722e-02   9.8199979e-01   9.5571352e-04
  -1.8234833e-01   1.0244300e+00  -2.3012212e-02
  -1.5048130e-01   1.0454698e+00  -4.6161788e-02
  -1.7546143e-01   1.0548210e+00  -4.4173974e-02
  -1.2480085e-01   1.0467559e+00  -8.1353584e-02
  -8.2777965e-02   1.0806532e+00  -7.9950306e-02
  -2.2974074e-01   1.1217982e+00  -1.0520421e-01
  -2.1281471e-01   1.1120964e+00  -1.1911734e-01
  -8.5579647e-02   1.1207459e+00  -1.0415205e-01
  -1.5410003e-01   1.1495005e+00  -1.2531381e-01
  -1.8561689e-01   1.1682027e+00  -1.3642077e-01
  -1.7184271e-01   1.1812939e+00  -1.3688879e-01
  -1.1989820e-01   1.1747483e+00  -1.2858760e-01
  -9.0715738e-02   1.1767353e+00  -1.4027910e-01
  -1.4172648e-01   1.2157760e+00  -1.2718471e-01
  -1.4709602e-01   1.2317896e+00  -1.3127646e-01
  -1.2445069e-01   1.2155423e+00  -1.3139337e-01
  -7.3089385e-02   1.2229064e+00  -1.0438586e-01
  -1.0892569e-01   1.2455826e+00  -1.1011470e-01
  -1.5631771e-01   1.2582067e+00  -9.7604854e-02
  -1.1009290e-01   1.2576223e+00  -8.6380983e-02
  -2.4296719e-02   1.2386863e+00  -6.3815943e-02
  -7.5540906e-02   1.2600767e+00  -5.9022358e-02
  -1.3869136e-01   1.2838052e+00  -5.1890630e-02
  -8.6746851e-02   1.2613624e+00  -2.3012212e-02
  -3.9821712e-02   1.2530636e+00  -7.5792925e-03
  -5.6198826e-03   1.2582067e+00   5.8662058e-03
  -7.8225476e-02   1.2679084e+00   1.2179584e-02
  -9.2583265e-02   1.2646354e+00   4.5851587e-02
  -1.3557655e-02   1.2481543e+00   6.0583064e-02
  -1.2039898e-02   1.2472189e+00   8.1394104e-02
  -5.1611259e-02   1.2529467e+00   1.0208824e-01
  -5.3011904e-02   1.2439462e+00   9.9632795e-02
  -5.2778463e-02   1.2271141e+00   1.3412315e-01
   1.6441846e-02   1.2077110e+00   1.4943916e-01
   2.9014925e-03   1.2151916e+00   1.4067073e-01
  -1.1476211e-01   1.2183478e+00   1.6346920e-01
  -2.0561273e-02   1.1844501e+00   1.7761614e-01
   1.1539196e-02   1.1760340e+00   1.7177039e-01
  -2.1378316e-02   1.1727614e+00   1.8638496e-01
  -5.4062780e-02   1.1763846e+00   1.8404642e-01
  -6.8420176e-02   1.1604879e+00   1.8650186e-01
   3.9437730e-02   1.1274088e+00   1.8603424e-01
   1.5741524e-02   1.1285776e+00   1.8205900e-01
  -1.9860951e-02   1.1357076e+00   1.7820067e-01
  -4.8576528e-02   1.1282269e+00   1.5972777e-01
  -1.5075021e-02   1.1063686e+00   1.6639227e-01
   6.1499459e-02   1.1014593e+00   1.3517531e-01
  -4.0872196e-02   1.0932773e+00   1.3669550e-01
  -7.7174992e-02   1.1057842e+00   1.1413046e-01
  -9.4720486e-03   1.1000567e+00   7.9640105e-02
   2.7764903e-02   1.0700164e+00   8.8292018e-02
  -8.7717260e-03   1.0986542e+00   4.4682123e-02
  -7.2155622e-02   1.0979529e+00   3.3107531e-02
  -4.0522034e-02   1.0718869e+00   3.0600421e-03
   4.3056455e-02   1.0713025e+00  -1.1905249e-02
   6.2083453e-02   1.0780819e+00  -5.1423002e-02
  -9.3633749e-02   1.0888355e+00  -7.0947671e-02
  -1.2374997e-01   1.0970178e+00  -7.7027627e-02
   6.5468345e-02   1.0573927e+00  -1.3981147e-01
   7.6874220e-03   1.0603147e+00  -1.3349809e-01
  -7.2622504e-02   1.1062517e+00  -1.8388899e-01
  -3.6202986e-02   1.0799519e+00  -1.9955573e-01
  -4.6591888e-02   1.0760945e+00  -2.1557318e-01
   3.6018151e-03   1.0516652e+00  -2.4889446e-01
  -8.3244847e-02   1.0683801e+00  -2.3346155e-01
  -1.3157102e-01   1.0903550e+00  -2.8841222e-01
  -5.9549032e-02   1.0418466e+00  -3.0209114e-01
  -3.7837073e-02   1.0455867e+00  -3.0559874e-01
  -9.2699985e-02   1.0540028e+00  -3.4499959e-01
  -1.5550067e-01   1.0530678e+00  -3.5598965e-01
  -9.0248856e-02   1.0168325e+00  -3.5949725e-01
  -8.1727481e-02   1.0099359e+00  -3.8323136e-01
  -6.5618886e-02   1.0019877e+00  -3.8732311e-01
  -7.4373702e-02   9.8235043e-01  -3.9199979e-01
  -1.4546193e-01   9.8375298e-01  -4.0275603e-01
  -9.0482297e-02   9.3617966e-01  -4.0182078e-01
  -2.2895682e-02   9.1946438e-01  -4.0427622e-01
  -1.4616225e-01   9.2390617e-01  -3.9749482e-01
  -1.8398242e-01   8.8907346e-01  -4.0263913e-01
  -6.7953295e-02   8.4734448e-01  -3.8673858e-01
  -1.1791356e-01   8.3624018e-01  -3.8194499e-01
  -1.1756340e-01   8.0771933e-01  -3.7399491e-01
  -2.0149205e-01   7.9708255e-01  -3.5587274e-01
  -1.8141457e-01   7.4682061e-01  -3.4383052e-01
  -4.9627011e-02   7.0053296e-01  -3.1892734e-01
  -1.6168725e-01   7.0251990e-01  -3.1471829e-01
  -1.9705628e-01   6.5097230e-01  -2.9273817e-01
  -1.9215363e-01   6.2607509e-01  -2.6514573e-01
  -1.4172648e-01   5.6880002e-01  -2.4515304e-01
  -1.6799054e-01   5.4822773e-01  -2.2001605e-01
  -2.2728922e-01   5.1842121e-01  -2.0703857e-01
  -2.5950641e-01   4.6441875e-01  -1.7231440e-01
  -2.2238657e-01   4.3285904e-01  -1.2671709e-01
  -1.6016988e-01   3.6377800e-01  -1.3852549e-01
  -2.9055679e-01   3.5372561e-01  -9.6201968e-02
  -2.6195793e-01   3.0007379e-01  -5.5631659e-02
  -2.3977948e-01   2.3777253e-01  -6.2179243e-02
  -2.2904003e-01   1.9358870e-01  -9.0990853e-03
  -2.5530448e-01   1.5875598e-01   2.4755064e-03
  -3.5650893e-01   1.1527382e-01   2.0714590e-02
  -2.6732746e-01   4.2802895e-02   5.2281872e-02
  -2.1771736e-01  -5.1210649e-03   7.0754770e-02
  -2.8460326e-01  -4.8954257e-02   8.5486247e-02
  -3.0339682e-01  -9.1033870e-02   9.9983517e-02
  -2.8413638e-01  -1.6595925e-01   1.1681971e-01
  -3.0526474e-01  -2.1213003e-01   1.1880714e-01
  -1.7826272e-01  -2.8109419e-01   1.2722523e-01
  -2.9826073e-01  -3.1078383e-01   1.3353861e-01
  -3.6724799e-01  -3.6092889e-01   1.4791937e-01
  -1.6600629e-01  -4.5198476e-01   1.2979719e-01
  -2.7246355e-01  -4.7080387e-01   1.4148908e-01
  -2.4176373e-01  -5.3813133e-01   1.2991410e-01
  -2.6382546e-01  -5.6793785e-01   1.1728734e-01
  -2.5892281e-01  -6.3923959e-01   1.2441907e-01
  -1.3705728e-01  -7.0317756e-01   8.0692661e-02
  -2.2262001e-01  -7.3029547e-01   8.7356761e-02
  -2.2740594e-01  -7.9189585e-01   5.2749501e-02
  -2.4071325e-01  -8.2532563e-01   2.3637268e-02
  -1.5503379e-01  -9.0480969e-01   2.9483018e-02
  -1.5771836e-01  -9.3099257e-01  -2.6169097e-02
  -2.5635496e-01  -9.6839702e-01  -4.9669002e-02
  -1.8701754e-01  -1.0260227e+00  -7.1766414e-02
  -1.6799054e-01  -1.0668167e+00  -1.1233633e-01
  -1.2620149e-01  -1.1257284e+00  -1.3548551e-01
  -1.8188145e-01  -1.1360146e+00  -1.8575951e-01
  -2.3032434e-01  -1.1928221e+00  -2.1101341e-01
  -1.0495681e-01  -1.2474090e+00  -2.5520784e-01
  -1.0425648e-01  -1.2838780e+00  -2.9858392e-01
  -1.6390493e-01  -1.3140352e+00  -3.1015852e-01
  -2.1888457e-01  -1.3221006e+00  -3.8077592e-01
  -1.2118212e-01  -1.3993636e+00  -4.0404240e-01
  -7.5774347e-02  -1.4294039e+00  -4.3280352e-01
  -1.5876884e-01  -1.4387550e+00  -4.8868945e-01
  -1.2550117e-01  -1.4733539e+00  -5.1043614e-01
  -1.4919738e-01  -1.4981343e+00  -5.4293868e-01
  -4.8576528e-02  -1.5543574e+00  -5.8058592e-01
  -6.8770729e-02  -1.5496819e+00  -6.1437444e-01
  -1.5421675e-01  -1.5670984e+00  -6.4033018e-01
  -1.0005416e-01  -1.6000607e+00  -6.7154674e-01
  -9.0599017e-02  -1.6144380e+00  -7.0136041e-01
  -3.2700982e-02  -1.6495045e+00  -7.3409677e-01
  -9.6552151e-02  -1.6320883e+00  -7.4637319e-01
  -1.4931410e-01  -1.6448289e+00  -7.7922645e-01
  -4.4257480e-02  -1.6811811e+00  -7.8600785e-01
   6.2863851e-03  -1.6845709e+00  -8.0307747e-01
  -8.9081652e-02  -1.6731160e+00  -8.2318707e-01
  -7.5190745e-02  -1.6814148e+00  -8.1874421e-01
  -3.7020030e-02  -1.6956752e+00  -8.5615724e-01
  -1.4175553e-03  -1.7042082e+00  -8.3651566e-01
   3.2550833e-02  -1.7005846e+00  -8.4797335e-01
  -1.1406178e-01  -1.6770903e+00  -8.4680427e-01
  -4.9743732e-02  -1.6954415e+00  -8.4446574e-01
   5.1577439e-02  -1.7105201e+00  -8.4329667e-01
   8.0013299e-04  -1.7023381e+00  -8.1699060e-01
  -3.0366573e-02  -1.6811811e+00  -8.3008498e-01
  -4.5774845e-02  -1.6878440e+00  -7.9021651e-01
   2.1344496e-02  -1.7144943e+00  -7.9571154e-01
   9.7101933e-02  -1.7133256e+00  -7.7794048e-01
  -1.4841580e-02  -1.6920520e+00  -7.4204724e-01
  -5.9315591e-02  -1.6934545e+00  -7.3421367e-01
   6.8036587e-02  -1.7252480e+00  -6.9551466e-01
   5.3211917e-02  -1.7189361e+00  -6.8288752e-01
   8.1460220e-02  -1.7259493e+00  -6.5015116e-01
  -2.7331450e-02  -1.7091175e+00  -6.2349398e-01
   2.1111055e-02  -1.7344822e+00  -5.8421004e-01
   2.0461007e-01  -1.7698994e+00  -5.5848851e-01
   4.6441348e-02  -1.7372877e+00  -5.3650840e-01
   5.3912239e-02  -1.7575094e+00  -4.8424698e-01
   9.3950482e-02  -1.7576263e+00  -4.6974932e-01
   1.1706269e-01  -1.7826404e+00  -4.2251491e-01
   1.3912481e-01  -1.7864974e+00  -3.9258433e-01
   9.1498961e-02  -1.7746918e+00  -3.7294236e-01
   6.9437232e-02  -1.7998228e+00  -3.3377572e-01
   1.4764619e-01  -1.8233174e+00  -3.0828800e-01
   2.1546585e-01  -1.8414349e+00  -2.5801401e-01
   8.8347509e-02  -1.8097583e+00  -2.3872276e-01
   1.7437713e-01  -1.8433053e+00  -2.1159795e-01
   2.0636088e-01  -1.8524223e+00  -1.6225960e-01
   2.0647760e-01  -1.8588514e+00  -1.4144817e-01
   2.8585376e-01  -1.8719427e+00  -1.1806517e-01
   1.5476653e-01  -1.8355905e+00  -8.0067213e-02
   1.7869618e-01  -1.8682025e+00  -5.2358259e-02
   3.2740937e-01  -1.8803587e+00  -1.7166463e-02
   2.7534814e-01  -1.8597864e+00  -4.0716859e-03
   1.7402697e-01  -1.8458767e+00   1.0425977e-02
   2.2200259e-01  -1.8397985e+00   6.6428813e-02
   3.0242924e-01  -1.8613059e+00   6.2336671e-02
   3.4258420e-01  -1.8630594e+00   7.7068148e-02
   2.4838376e-01  -1.8096414e+00   9.6943931e-02
   2.3040724e-01  -1.8168883e+00   9.9983517e-02
   3.5390726e-01  -1.8379285e+00   1.2430216e-01
   3.3721467e-01  -1.8009915e+00   1.1833951e-01
   3.1351885e-01  -1.7829910e+00   1.3611096e-01
   2.4943424e-01  -1.7531845e+00   1.3155119e-01
   2.9227378e-01  -1.7744580e+00   1.4639958e-01
   4.0713569e-01  -1.7704837e+00   1.4429485e-01
   3.3009433e-01  -1.7301573e+00   1.3003101e-01
   2.8013407e-01  -1.7030394e+00   1.3622787e-01
   3.0488076e-01  -1.6913503e+00   1.1869023e-01
   3.5285638e-01  -1.6982470e+00   1.3669550e-01
   3.3032777e-01  -1.6334909e+00   1.1261067e-01
   2.9379153e-01  -1.6125679e+00   1.0290659e-01
   2.4721616e-01  -1.5882551e+00   9.4137767e-02
   3.1468606e-01  -1.5732934e+00   9.1565810e-02
   3.7176666e-01  -1.5505000e+00   8.2563176e-02
   2.1803410e-01  -1.4754578e+00   5.0762079e-02
   2.7523142e-01  -1.4694965e+00   6.3155021e-02
   3.0499748e-01  -1.4303393e+00   4.7371380e-02
   3.2484152e-01  -1.4036885e+00   3.8836374e-02
   3.0698172e-01  -1.3491017e+00   1.2179584e-02
   1.7752858e-01  -1.2939304e+00   9.3734201e-03
   2.6671004e-01  -1.2901903e+00   2.5924135e-03
   2.9530890e-01  -1.2370060e+00  -1.5997391e-02
   2.3589350e-01  -1.1750553e+00  -1.4360299e-02
   1.7671154e-01  -1.1221048e+00  -3.9964925e-02
   2.1219729e-01  -1.1009481e+00  -3.2833197e-02
   2.6717692e-01  -1.0530242e+00  -3.2014847e-02
   2.3962894e-01  -9.9843730e-01  -3.7509875e-02
   1.9106932e-01  -9.4560363e-01  -5.5164030e-02
   2.1091337e-01  -9.1252449e-01  -4.6278695e-02
   2.3787774e-01  -8.7558756e-01  -2.6753633e-02
   2.1453209e-01  -8.2111759e-01  -4.2654181e-02
   2.1908458e-01  -7.7494681e-01  -3.5990082e-02
   1.3737362e-01  -7.0469698e-01  -1.6581927e-02
   2.2678852e-01  -6.9511211e-01  -1.2659145e-03
   2.3822830e-01  -6.3912271e-01   3.6445778e-03
   2.0974616e-01  -5.8839326e-01   2.5625082e-02
   2.0496023e-01  -5.4198873e-01   2.7261782e-02
   1.2733488e-01  -4.8015498e-01   7.0754770e-02
   3.2822641e-01  -4.9347998e-01   8.9928718e-02
   2.4172991e-01  -4.1142458e-01   7.7886498e-02
   9.6401611e-02  -3.5216217e-01   1.3447387e-01
   2.2083539e-01  -3.5251281e-01   1.3576024e-01
   2.3694398e-01  -3.0903064e-01   1.7586253e-01
   1.9889038e-01  -2.6496369e-01   2.0357148e-01
   1.6900760e-01  -2.2323472e-01   2.1877059e-01
   1.6340462e-01  -1.9085646e-01   2.5957432e-01
   2.0309270e-01  -1.7858337e-01   2.7418889e-01
   2.5398673e-01  -1.5017940e-01   3.2539814e-01
   1.4998060e-01  -8.3670094e-02   3.3089317e-01
   1.6352134e-01  -8.2968820e-02   3.5836870e-01
   2.1593274e-01  -6.6955207e-02   4.0303076e-01
   1.9095260e-01  -2.9550757e-02   4.2314036e-01
   2.0052446e-01  -7.8096764e-03   4.4628954e-01
   1.1706269e-01   3.3101146e-02   4.7084200e-01
   1.3480577e-01   3.4153057e-02   5.0731978e-01
   1.8663356e-01   4.5959023e-02   5.3327552e-01
   1.9643886e-01   6.3492064e-02   5.5151421e-01
   1.0538987e-01   1.0253282e-01   5.6905185e-01
   8.2277655e-02   1.1141642e-01   6.0155439e-01
   1.9819005e-01   9.3064829e-02   6.2201471e-01
   1.4367730e-01   1.1726076e-01   6.3054971e-01
   8.6713031e-02   1.4239173e-01   6.4399521e-01
   1.1145972e-01   1.6050956e-01   6.6726130e-01
   9.2549836e-02   1.4648289e-01   6.8129134e-01
   1.4776291e-01   1.4963863e-01   6.8889069e-01
   1.3959170e-01   1.8283504e-01   6.8877379e-01
  -5.2697213e-03   1.9709546e-01   7.0257000e-01
   1.2208206e-01   1.7593878e-01   7.2022455e-01
   1.7332664e-01   1.8470510e-01   7.0946831e-01
   7.2005081e-02   2.2140828e-01   7.1928890e-01
   1.0118754e-01   2.2526529e-01   7.1157264e-01
   7.5973968e-02   2.2561592e-01   7.0783122e-01
   1.3585625e-01   2.2725262e-01   7.1133883e-01
   1.5313244e-01   2.5133168e-01   7.0210238e-01
   9.4183922e-02   2.7821583e-01   6.8655255e-01
   9.0098316e-02   2.8593025e-01   6.8117443e-01
   1.4706220e-01   2.8896949e-01   6.7801754e-01
   1.9889038e-01   3.0346368e-01   6.5042550e-01
   1.6643935e-01   3.3712760e-01   6.4247503e-01
   1.1449484e-01   3.6412864e-01   6.2002729e-01
   1.8663356e-01   3.7079114e-01   6.1932584e-01
   2.8597048e-01   3.8703890e-01   5.9313629e-01
   1.8348210e-01   4.2642990e-01   5.6191973e-01
   1.1612893e-01   4.6862679e-01   5.5993231e-01
   2.0099135e-01   4.8651047e-01   5.3608129e-01
   2.5935626e-01   4.9434215e-01   5.2088218e-01
