**************************************************************************************
            UNIVERSIDAD AUTONOMA METROPOLITANA - AZCAPOTZALCO
                        Departamento de Materiales
                           Area de Estructuras
     AV. SAN PABLO 180,COL.REYNOSA, AZCAPOTZALCO, C.P.02200 CIUDAD DE MEXICO.
**************************************************************************************
ARCHIVO ESTANDAR DE ACELERACION:
VERSION DEL FORMATO                    : 2.0
NOMBRE DEL ARCHIVO                     : RIML201302201
FECHA Y HORA DE CREACION               : MON JUL 18 12:30:07 2018
REF. CATALOGO ACELEROGRAMAS, SMIS 1995 : REGISTRO NO.      /PAG.    


================================================================================
DATOS DE LA ESTACION:
NOMBRE DE LA ESTACION                  : UAM-LERMA.
CLAVE DE LA ESTACION                   : RIML
LOCALIZACION DE LA ESTACION            : AV. DE LAS GARZAS 10, EL PANTEON, C.P.52005,
                                       : LERMA DE VILLADA, ESTADO DE MEXICO. 
                                       :
                                       : 
                                       : 
COORDENADAS DE LA ESTACION             : 19.291481 LAT. N
                                       : 99.502060 LONG. W
ALTITUD (msnm)                         : 2570
TIPO DE SUELO                          : DEPOSITOS LACUSTRES
                                       : 
                                       : 
INSTITUCION RESPONSABLE                : UNIVERSIDAD AUTONOMA METROPOLITANA
                                       : 

================================================================================
DATOS DEL ACELEROGRAFO: 
MODELO DEL ACELEROGRAFO                : BASALT KINEMETRICS
NUMERO DE SERIE DEL ACELEROGRAFO       : 978
NUMERO DE CANALES                      : 3
ORIENTACION C1-C6 (rumbo;orientacion)  : /V/N00E/N90E
ORIENTACION C7-C12 (rumbo;orientacion) : 
VEL. DE MUESTREO, C1-C6 (muestras/s)   : /250/250/250
VEL. DE MUESTREO, C7-C12 (muestras/s)  : 
ESC. COMPLETA DE SENSORES, C1-C6, (g)  : /2/2/2
ESC. COMPLETA DE SENSORES, C7-C12 (g)  : 
FREC. NAT. DE SENSORES, C1-C6, (Hz)    : /210/212/212
FREC. NAT. DE SENSORES, C7-C12 (Hz)    : 
AMORTIGUAMIENTO DE SENSORES, C1-C6     : /0.7/0.7/0.7
AMORTIGUAMIENTO DE SENSORES, C7-C12    : 
INTERVALO DE MUESTREO, C1-C6 (s)       : /0.004/0.004/0.004
INTERVALO DE MUESTREO, C7-C12 (s)      : 
UMBRAL DE DISPARO, C1-C6 (Gal)         : /2/2/2
UMBRAL DE DISPARO, C7-C12 (Gal)        : 
MEMORIA DE PREEVENTO (s)               : 20
TIEMPO DE POSEVENTO (s)                : 30


================================================================================
DATOS DEL SISMO:
FECHA DEL SISMO [GMT]                  : 2013/02/20
HORA EPICENTRO (GMT)                   : 21:23:09
MAGNITUD(ES)                           : /M=5.6
COORDENADAS DEL EPICENTRO              : 18.5043 LAT. N
                                       : 103.989 LONG. W
PROFUNDIDAD FOCAL (Km)                 : 3.2
FUENTE DE LOS DATOS EPICENTRALES       : SSN
                                       : INSTITUTO DE GEOFISICA, UNAM

================================================================================
DATOS DE ESTE REGISTRO:
HORA DE LA PRIMERA MUESTRA (GMT)       : 21:25:06.00
EXACTITUD DEL TIEMPO (s)               : 
DURACION DEL REGISTRO (s), C1-C6       : /100.00/100.00/100.00
DURACION DEL REGISTRO (s), C7-C12      : 
NUM. TOTAL DE MUESTRAS, C1-C6          : /25000/25000/25000
NUM. TOTAL DE MUESTRAS, C7-C12         : 
ACEL. MAX.(Gal), C1-C6                 : /-1.584/1.949/2.660
ACEL. MAX., C1-C6, EN LA MUESTRA       : /19239/9695/8726
ACEL. MAX.(Gal), C7-C12                : 
ACEL. MAX., C7-C12,EN LA MUESTRA       : 
UNIDADES DE LOS DATOS                  : Gal (cm/s/s)
FACTOR DE DECIMACION                   : 1
FORMATO DATOS (FORTRAN,16 campos/dato) : 3E16.7


================================================================================
CALIDAD DEL ACELEROGRAMA:
REGISTRO DIGITAL COMPLETO CON TIEMPO ABSOLUTO CORRECTO


================================================================================
COMENTARIOS:














================================================================================
DATOS DE ACELERACION:
---------+---------+---------+---------+---------+---------+---------+---------+
   CANAL-1   	      CANAL-2       CANAL-3
         V     	        N00E          N90E
---------+---------+---------+---------+---------+---------+---------+---------+ 
[...]
 -2.9482312e-001 -2.8039592e-001 -1.4568765e+000
 -2.8233286e-001 -2.8647442e-001 -1.4870474e+000
 -3.0089297e-001 -3.1289106e-001 -1.5077460e+000
 -2.7532924e-001 -3.1441049e-001 -1.5211944e+000
 -2.7206068e-001 -3.2820340e-001 -1.5431792e+000
 -2.6003769e-001 -3.5216557e-001 -1.5733501e+000
 -2.4614678e-001 -3.4936008e-001 -1.5906573e+000
 -2.5093271e-001 -3.7367290e-001 -1.6091342e+000
 -2.3272276e-001 -3.7542608e-001 -1.6218810e+000
 -2.5209992e-001 -3.8816708e-001 -1.6390713e+000
 -2.2455194e-001 -4.1575251e-001 -1.6578989e+000
 -2.3552444e-001 -4.0546636e-001 -1.6561446e+000
 -2.1941584e-001 -4.4135099e-001 -1.6866663e+000
 -2.0762591e-001 -4.4076660e-001 -1.6990623e+000
 -2.0634198e-001 -4.5304008e-001 -1.6995300e+000
 -1.7015590e-001 -4.8191157e-001 -1.7353141e+000
 -2.0540822e-001 -4.7372925e-001 -1.7252571e+000
 -1.4179049e-001 -5.0704254e-001 -1.7418627e+000
 -1.7108967e-001 -5.0715942e-001 -1.7563635e+000
 -1.7097295e-001 -5.2726419e-001 -1.7512180e+000
 -1.4144033e-001 -5.4304404e-001 -1.7725013e+000
 -1.5031186e-001 -5.6010957e-001 -1.7763605e+000
 -1.1809467e-001 -5.7787676e-001 -1.7893411e+000
 -1.3770527e-001 -5.7647382e-001 -1.7878210e+000
 -7.2686900e-002 -6.1493018e-001 -1.8080519e+000
 -1.0595457e-001 -6.1130654e-001 -1.8043097e+000
 -7.8873474e-002 -6.3760629e-001 -1.8046605e+000
 -7.7356109e-002 -6.5420469e-001 -1.8220846e+000
 -8.9379097e-002 -6.6636091e-001 -1.8004505e+000
 -2.8212889e-002 -6.9347921e-001 -1.8245405e+000
 -8.4476447e-002 -6.9523240e-001 -1.8096890e+000
 -2.0975439e-002 -7.2574019e-001 -1.8127292e+000
 -1.9488329e-003 -7.2784402e-001 -1.8303876e+000
 -6.5009299e-003 -7.4958549e-001 -1.8167053e+000
  1.9529685e-002 -7.6104043e-001 -1.8257099e+000
  3.3303480e-002 -7.6980714e-001 -1.8115599e+000
  6.1318734e-002 -8.0382131e-001 -1.8236051e+000
  7.4042437e-002 -8.1340618e-001 -1.8109752e+000
  1.1524788e-001 -8.3795276e-001 -1.8087535e+000
  1.1583149e-001 -8.5151191e-001 -1.8185766e+000
  1.0334122e-001 -8.5922632e-001 -1.7946035e+000
  1.4046146e-001 -8.8552647e-001 -1.8018537e+000
  1.8832036e-001 -8.9721517e-001 -1.7971760e+000
  1.5983861e-001 -9.0212448e-001 -1.7810382e+000
  2.2100482e-001 -9.2339804e-001 -1.7782318e+000
  2.2695796e-001 -9.2678793e-001 -1.7733202e+000
  2.3034324e-001 -9.4443785e-001 -1.7564804e+000
  2.9326025e-001 -9.5110074e-001 -1.7567143e+000
  2.2065466e-001 -9.5378896e-001 -1.7436171e+000
  2.7563429e-001 -9.8476428e-001 -1.7304025e+000
  2.9862979e-001 -9.8464740e-001 -1.7264264e+000
  3.1707318e-001 -1.0076745e+000 -1.7029214e+000
  3.6388160e-001 -1.0094277e+000 -1.6967232e+000
  3.5139173e-001 -1.0128176e+000 -1.6752061e+000
  3.9026277e-001 -1.0329224e+000 -1.6590683e+000
  3.8057419e-001 -1.0222856e+000 -1.6432812e+000
  4.0450345e-001 -1.0421566e+000 -1.6286635e+000
  4.0718841e-001 -1.0394680e+000 -1.6117071e+000
  4.2049571e-001 -1.0347925e+000 -1.5899557e+000
  4.3228526e-001 -1.0522090e+000 -1.5859796e+000
  4.2353044e-001 -1.0515077e+000 -1.5420099e+000
  4.6100084e-001 -1.0468322e+000 -1.5292631e+000
  4.7815991e-001 -1.0554816e+000 -1.5179199e+000
  4.5329650e-001 -1.0430917e+000 -1.4635420e+000
  4.7804319e-001 -1.0489360e+000 -1.4596828e+000
  5.2240048e-001 -1.0559495e+000 -1.4419079e+000
  4.6707069e-001 -1.0336237e+000 -1.3995749e+000
  5.2800346e-001 -1.0509233e+000 -1.3884655e+000
  4.8668129e-001 -1.0231038e+000 -1.3532661e+000
  5.1878176e-001 -1.0360785e+000 -1.3283576e+000
  5.8041485e-001 -1.0309354e+000 -1.3213412e+000
  4.7092286e-001 -1.0073239e+000 -1.2657940e+000
  5.7504532e-001 -1.0270780e+000 -1.2436918e+000
  5.1294535e-001 -9.8043975e-001 -1.2283725e+000
  5.4609669e-001 -9.9516730e-001 -1.1838181e+000
  5.7551220e-001 -9.6325695e-001 -1.1639381e+000
  5.1387911e-001 -9.5507503e-001 -1.1288556e+000
  5.8555094e-001 -9.5028259e-001 -1.1057010e+000
  5.4271141e-001 -9.0691692e-001 -1.0728407e+000
  6.1975277e-001 -9.3204788e-001 -1.0418508e+000
  5.3430675e-001 -8.8272098e-001 -1.0196321e+000
  5.7714668e-001 -8.8295474e-001 -9.7168589e-001
  6.3189287e-001 -8.6495418e-001 -9.6162892e-001
  5.2753658e-001 -8.3538142e-001 -9.2432474e-001
  5.8485062e-001 -8.2486151e-001 -8.8468152e-001
  5.5204983e-001 -7.9061319e-001 -8.6971300e-001
  5.8671854e-001 -7.8780770e-001 -8.3369507e-001
  5.3827564e-001 -7.4455930e-001 -8.0691559e-001
  5.3734188e-001 -7.3403939e-001 -7.7300245e-001
  5.7037611e-001 -7.0738861e-001 -7.4540445e-001
  5.7037611e-001 -6.8623192e-001 -7.1885844e-001
  5.8321653e-001 -6.6846512e-001 -6.9967996e-001
  5.5216655e-001 -6.3971051e-001 -6.6015406e-001
  5.9337199e-001 -6.1726776e-001 -6.3162020e-001
  5.2660281e-001 -5.8559117e-001 -6.1571622e-001
  5.8975327e-001 -5.7974683e-001 -5.7513754e-001
  5.4446221e-001 -5.2890050e-001 -5.5607599e-001
  5.2426801e-001 -5.2971865e-001 -5.2508655e-001
  5.4271141e-001 -4.9395090e-001 -5.0684353e-001
  4.5037810e-001 -4.5198817e-001 -4.6930548e-001
  5.4352845e-001 -4.5993634e-001 -4.4743716e-001
  4.7489135e-001 -4.0955752e-001 -4.3527541e-001
  5.0944334e-001 -4.0651867e-001 -3.9352741e-001
  4.7395759e-001 -3.6607497e-001 -3.8440589e-001
  4.6602021e-001 -3.5181494e-001 -3.5435191e-001
  5.1644735e-001 -3.3603508e-001 -3.3704435e-001
  4.1080713e-001 -2.8624066e-001 -3.0184495e-001
  4.8259568e-001 -2.8694194e-001 -2.7775531e-001
  4.1559306e-001 -2.5409617e-001 -2.7565014e-001
  4.2458093e-001 -2.3621249e-001 -2.3144616e-001
  4.2668229e-001 -2.0850979e-001 -2.1261887e-001
  3.9166341e-001 -1.9226242e-001 -2.0232803e-001
  3.8162467e-001 -1.6327405e-001 -1.6935035e-001
  3.5617766e-001 -1.4153297e-001 -1.4222007e-001
  3.4870677e-001 -1.2890885e-001 -1.4023183e-001
  3.0820165e-001 -1.0342724e-001 -9.7197569e-002
  3.7170265e-001 -8.5660442e-002 -7.8486816e-002
  2.4738560e-001 -4.7554718e-002 -6.9833035e-002
  2.8252119e-001 -4.8255993e-002 -2.8552760e-002
  2.7376638e-001 -6.2932589e-003 -1.9898979e-002
  2.2684124e-001 -1.7345819e-003  9.8038114e-003
  2.4365015e-001  2.4565176e-002  1.8808390e-002
  1.6170614e-001  5.1917238e-002  5.8451611e-002
  2.5894171e-001  4.0345031e-002  7.6577702e-002
  1.2948895e-001  9.9841199e-002  7.9617944e-002
  1.7046096e-001  8.6632684e-002  1.3493128e-001
  1.6952719e-001  1.1854342e-001  1.3879044e-001
  7.2174518e-002  1.3373888e-001  1.6580379e-001
  1.3824338e-001  1.4425879e-001  1.9211593e-001
  3.2603157e-002  1.8785822e-001  2.2345617e-001
  5.8400332e-002  1.7990966e-001  2.5175616e-001
  1.5677519e-002  2.1380734e-001  2.5619959e-001
  7.9731873e-003  2.2315845e-001  3.0613365e-001
 -4.8668438e-003  2.4828942e-001  3.2765117e-001
 -5.3193020e-002  2.5530256e-001  3.3653842e-001
 -2.5294487e-002  2.7470606e-001  3.8565395e-001
 -6.6499933e-002  2.9796657e-001  4.0904239e-001
 -8.5993813e-002  2.9936951e-001  4.2085335e-001
 -1.2077924e-001  3.2660430e-001  4.6915035e-001
 -9.1596785e-002  3.2695494e-001  4.8645752e-001
 -1.6980574e-001  3.5442388e-001  5.1545911e-001
 -1.7155655e-001  3.5793025e-001  5.5451767e-001
 -1.5217939e-001  3.8130803e-001  5.7182484e-001
 -2.4696383e-001  3.9521782e-001  6.1041567e-001
 -2.0856006e-001  3.8984099e-001  6.2936029e-001
 -2.1836536e-001  4.1999815e-001  6.6374077e-001
 -2.4754743e-001  4.1871209e-001  6.9905710e-001
 -2.7754693e-001  4.3460921e-001  7.1309016e-001
 -2.8863655e-001  4.4267426e-001  7.6197183e-001
 -2.8770239e-001  4.5155786e-001  7.9144114e-001
 -3.1933637e-001  4.6418159e-001  8.0126425e-001
 -3.1840221e-001  4.7014320e-001  8.5529094e-001
 -3.5353781e-001  4.8627370e-001  8.7984870e-001
 -3.7011368e-001  4.8779313e-001  9.0721324e-001
 -3.4525026e-001  4.9293620e-001  9.4814271e-001
 -3.7606681e-001  5.0357298e-001  9.6837359e-001
 -3.8972428e-001  5.0146916e-001  1.0131622e+000
 -3.8972428e-001  5.0965109e-001  1.0300017e+000
 -4.0046334e-001  5.1502831e-001  1.0745564e+000
 -4.1143584e-001  5.1000211e-001  1.1034411e+000
 -4.3489861e-001  5.2356087e-001  1.1244905e+000
 -4.1318665e-001  5.1759965e-001  1.1809732e+000
 -4.6980076e-001  5.2999001e-001  1.1905624e+000
 -4.6373051e-001  5.2695076e-001  1.2302056e+000
 -4.7131813e-001  5.2858707e-001  1.2720706e+000
 -4.9618154e-001  5.3805506e-001  1.2970961e+000
 -4.6162955e-001  5.2192457e-001  1.3267992e+000
 -5.2454656e-001  5.4389941e-001  1.3705355e+000
 -4.4341959e-001  5.2543133e-001  1.3980166e+000
 -4.7668766e-001  5.2519757e-001  1.4190660e+000
 -5.0878813e-001  5.3863945e-001  1.4697016e+000
 -4.5952858e-001  5.2987313e-001  1.4915699e+000
 -5.2232887e-001  5.3092504e-001  1.5278217e+000
 -5.1987774e-001  5.3653563e-001  1.5630211e+000
 -5.1007244e-001  5.3419766e-001  1.6030151e+000
 -4.8824376e-001  5.1923596e-001  1.6192699e+000
 -5.5489662e-001  5.3735378e-001  1.6603163e+000
 -5.1625902e-001  5.2192457e-001  1.7062743e+000
 -5.1964430e-001  5.2285960e-001  1.7128233e+000
 -5.4660868e-001  5.1958659e-001  1.7783105e+000
 -5.1835999e-001  5.1257346e-001  1.7907061e+000
 -5.5898183e-001  5.1432664e-001  1.8347932e+000
 -5.0411892e-001  5.0170291e-001  1.8731501e+000
 -5.6598584e-001  5.0930045e-001  1.8821543e+000
 -5.3435186e-001  4.9024798e-001  1.9450691e+000
 -5.3411842e-001  5.0240419e-001  1.9531378e+000
 -5.4520804e-001  4.8463739e-001  2.0003824e+000
 -5.1555870e-001  4.7528628e-001  2.0314888e+000
 -5.5127789e-001  4.7774074e-001  2.0563973e+000
 -4.7470341e-001  4.5576590e-001  2.0951051e+000
 -5.3727026e-001  4.6137649e-001  2.1085531e+000
 -4.8625952e-001  4.4068732e-001  2.1631649e+000
 -4.6816628e-001  4.3776495e-001  2.1712340e+000
 -5.1929375e-001  4.2689441e-001  2.2036266e+000
 -4.6209643e-001  4.2210197e-001  2.2486491e+000
 -5.0715404e-001  4.1707578e-001  2.2645531e+000
 -4.8427488e-001  3.9860731e-001  2.2981154e+000
 -4.6688236e-001  3.8972411e-001  2.3196326e+000
 -4.5287473e-001  3.7371010e-001  2.3513236e+000
 -4.5264129e-001  3.6400875e-001  2.3680465e+000
 -4.3828350e-001  3.4928080e-001  2.4033628e+000
 -3.8400458e-001  3.3981281e-001  2.4244122e+000
 -4.3209693e-001  3.2742245e-001  2.4382114e+000
 -4.1073552e-001  3.1105820e-001  2.4715395e+000
 -3.5633949e-001  2.9597962e-001  2.4786732e+000
 -3.8949083e-001  2.8896648e-001  2.5142234e+000
 -3.6077526e-001  2.6488743e-001  2.5163281e+000
 -3.3030887e-001  2.5962748e-001  2.5358574e+000
 -3.5610605e-001  2.4770463e-001  2.5668469e+000
 -3.4466666e-001  2.2374285e-001  2.5577254e+000
 -3.3322688e-001  2.1859978e-001  2.5950299e+000
 -2.6575738e-001  1.8236412e-001  2.5952638e+000
 -2.7404532e-001  1.8540337e-001  2.6076594e+000
 -2.9190472e-001  1.6564923e-001  2.6269548e+000
 -2.1661416e-001  1.4998625e-001  2.6206401e+000
 -2.6225538e-001  1.4963562e-001  2.6456656e+000
 -2.5828688e-001  1.1982909e-001  2.6363102e+000
 -2.3354019e-001  1.2134852e-001  2.6525650e+000
 -2.4322877e-001  9.1892635e-002  2.6550210e+000
 -2.2525226e-001  8.6048288e-002  2.6400524e+000
 -2.0132261e-001  7.3775199e-002  2.6613357e+000
 -1.7470839e-001  5.4137941e-002  2.6476534e+000
 -1.6245157e-001  5.2735392e-002  2.6470688e+000
 -1.2603206e-001  2.4331418e-002  2.6412218e+000
 -1.2591533e-001  1.8954587e-002  2.6344393e+000
 -1.1225787e-001  1.1356662e-002  2.6395847e+000
 -1.3408655e-001  2.9409743e-003  2.6181841e+000
 -1.0023488e-001 -1.6111888e-002  2.6166640e+000
 -8.9495817e-002 -1.7631316e-002  2.6057885e+000
 -1.0607129e-001 -2.8151219e-002  2.5868439e+000
 -3.7784748e-002 -4.6619685e-002  2.5780736e+000
 -6.0313359e-002 -3.8086727e-002  2.5628708e+000
 -3.1247620e-002 -5.9126926e-002  2.5477853e+000
 -1.9924955e-002 -5.9828200e-002  2.5345712e+000
  1.7194885e-002 -7.1049378e-002  2.5115335e+000
 -1.7006944e-002 -6.6256943e-002  2.4874439e+000
 -1.7357105e-002 -7.6309330e-002  2.4736447e+000
  7.9995571e-002 -9.6998499e-002  2.4424214e+000
 -7.4350850e-003 -7.1867532e-002  2.4285052e+000
  6.0968573e-002 -9.7699773e-002  2.3956445e+000
  7.1474195e-002 -9.2439822e-002  2.3669941e+000
  6.2602659e-002 -9.2673580e-002  2.3485172e+000
  1.0754355e-001 -9.7582894e-002  2.3034947e+000
  1.0194058e-001 -9.1271031e-002  2.2935547e+000
  1.4898283e-001 -1.0483018e-001  2.2437375e+000
  9.6454327e-002 -8.9985361e-002  2.2123973e+000
  1.5096708e-001 -9.8985443e-002  2.1971949e+000
  1.5972189e-001 -9.1037273e-002  2.1456238e+000
  1.6158942e-001 -9.8050411e-002  2.1128800e+000
  1.5225100e-001 -8.8582419e-002  2.0810720e+000
  1.5715365e-001 -8.2621193e-002  2.0510181e+000
  2.0197782e-001 -9.0102240e-002  1.9983942e+000
  1.3018927e-001 -6.7893250e-002  1.9745384e+000
  2.1540185e-001 -8.6946112e-002  1.9298667e+000
  1.8925451e-001 -7.1867532e-002  1.8808681e+000
  1.8820364e-001 -7.8062516e-002  1.8501125e+000
  2.2298907e-001 -6.9997466e-002  1.7952669e+000
  1.8516891e-001 -5.7723984e-002  1.7689551e+000
  2.3396157e-001 -6.8127008e-002  1.7096657e+000
  1.9754206e-001 -4.9425176e-002  1.6764542e+000
  2.2625763e-001 -6.2048903e-002  1.6410209e+000
  2.0816440e-001 -4.0541580e-002  1.5799775e+000
  2.2112154e-001 -4.9892692e-002  1.5466494e+000
  2.3197733e-001 -3.6684178e-002  1.4995217e+000
  2.0256143e-001 -2.7449945e-002  1.4578907e+000
  2.4726888e-001 -4.8022235e-002  1.4052671e+000
  2.2240547e-001 -1.9034257e-002  1.3627002e+000
  2.3501245e-001 -3.9723426e-002  1.3064514e+000
  2.2077138e-001 -2.7333065e-002  1.2608443e+000
  2.4575151e-001 -2.1722476e-002  1.2254110e+000
  2.4750232e-001 -3.5047870e-002  1.1544275e+000
  2.1376737e-001 -2.1605597e-002  1.1111590e+000
  2.3863078e-001 -2.4761725e-002  1.0660196e+000
  1.9789222e-001 -1.8449470e-002  1.0035730e+000
  2.1014904e-001 -2.5579879e-002  9.6007060e-001
  2.4633511e-001 -2.8268098e-002  9.1586663e-001
  2.2964292e-001 -2.2774388e-002  8.4885926e-001
  2.1295033e-001 -3.3060533e-002  8.0582500e-001
  2.2940948e-001 -2.8852494e-002  7.5682641e-001
  2.2964292e-001 -2.3241905e-002  6.9554913e-001
  2.3151044e-001 -4.3814195e-002  6.5122822e-001
  2.1913690e-001 -2.9904798e-002  5.8691030e-001
  2.1260017e-001 -3.4463475e-002  5.4703321e-001
  2.0244471e-001 -3.7385452e-002  4.8341728e-001
  1.7781474e-001 -3.4580354e-002  4.2857167e-001
  2.4761904e-001 -5.8775896e-002  3.8553702e-001
  1.7046096e-001 -3.3294292e-002  3.1315038e-001
  1.6765928e-001 -5.7840863e-002  2.7771711e-001
  2.3186061e-001 -6.0295717e-002  2.1772609e-001
  1.5376837e-001 -4.9425176e-002  1.6334821e-001
  1.9730862e-001 -7.5841813e-002  1.1353108e-001
  1.6462454e-001 -5.6672072e-002  5.8217746e-002
  1.5108380e-001 -7.4088235e-002  8.0498255e-003
  1.6275663e-001 -7.2568806e-002 -4.6444986e-002
  1.2820464e-001 -6.2750178e-002 -8.4450761e-002
  1.6042222e-001 -8.1803039e-002 -1.4771629e-001
  1.3053944e-001 -7.9465457e-002 -1.8958122e-001
  1.3590897e-001 -8.0868007e-002 -2.4372524e-001
  1.4886572e-001 -9.0452877e-002 -2.9436089e-001
  1.4618115e-001 -9.0335998e-002 -3.4172204e-001
  1.2762103e-001 -8.6361716e-002 -3.9224076e-001
  1.2260166e-001 -9.1738547e-002 -4.1750012e-001
  1.3871026e-001 -9.1037273e-002 -4.9678656e-001
  1.0882787e-001 -9.3608613e-002 -5.2099352e-001
  1.0112354e-001 -8.3088709e-002 -5.6414511e-001
  1.1688197e-001 -8.8465540e-002 -6.3162020e-001
  1.1022851e-001 -9.0569756e-002 -6.4518554e-001
  5.8050170e-002 -6.7075096e-002 -7.0611202e-001
  1.1197932e-001 -8.9166815e-002 -7.4704150e-001
  1.0555930e-001 -8.1335523e-002 -7.9311639e-001
  7.6143405e-002 -6.4737514e-002 -8.2761420e-001
  1.1232948e-001 -7.3854476e-002 -8.7474148e-001
  5.6882966e-002 -5.8659017e-002 -9.1941319e-001
  9.0034311e-002 -5.0126451e-002 -9.4093032e-001
  5.0346230e-002 -4.5684653e-002 -1.0124988e+000
