**************************************************************************************
            UNIVERSIDAD AUTONOMA METROPOLITANA - AZCAPOTZALCO
                        Departamento de Materiales
                           Area de Estructuras
     AV. SAN PABLO 180,COL.REYNOSA, AZCAPOTZALCO, C.P.02200 CIUDAD DE MEXICO.
**************************************************************************************
ARCHIVO ESTANDAR DE ACELERACION:
VERSION DEL FORMATO                    : 2.0
NOMBRE DEL ARCHIVO                     : RIML201310061
FECHA Y HORA DE CREACION               : 10:43 p. m. 05/01/2014
REF. CATALOGO ACELEROGRAMAS, SMIS 1995 : REGISTRO NO.      /PAG.    


================================================================================
DATOS DE LA ESTACION:
NOMBRE DE LA ESTACION                  : UAM-LERMA.
CLAVE DE LA ESTACION                   : RIML
LOCALIZACION DE LA ESTACION            : AV. DE LAS GARZAS 10, EL PANTEON, C.P.52005,
                                       : LERMA DE VILLADA, ESTADO DE MEXICO. 
                                       :
                                       : 
                                       : 
COORDENADAS DE LA ESTACION             : 19.291481 LAT. N
                                       : 99.502060 LONG. W
ALTITUD (msnm)                         : 2570
TIPO DE SUELO                          : DEPOSITOS LACUSTRES
                                       : 
                                       : 
INSTITUCION RESPONSABLE                : UNIVERSIDAD AUTONOMA METROPOLITANA
                                       : 

================================================================================
DATOS DEL ACELEROGRAFO: 
MODELO DEL ACELEROGRAFO                : BASALT KINEMETRICS
NUMERO DE SERIE DEL ACELEROGRAFO       : 978
NUMERO DE CANALES                      : 3
ORIENTACION C1-C6 (rumbo;orientacion)  : /V/N00E/N90E
ORIENTACION C7-C12 (rumbo;orientacion) : 
VEL. DE MUESTREO, C1-C6 (muestras/s)   : /250/250/250
VEL. DE MUESTREO, C7-C12 (muestras/s)  : 
ESC. COMPLETA DE SENSORES, C1-C6, (g)  : /2/2/2
ESC. COMPLETA DE SENSORES, C7-C12 (g)  : 
FREC. NAT. DE SENSORES, C1-C6, (Hz)    : /210/212/212
FREC. NAT. DE SENSORES, C7-C12 (Hz)    : 
AMORTIGUAMIENTO DE SENSORES, C1-C6     : /0.7/0.7/0.7
AMORTIGUAMIENTO DE SENSORES, C7-C12    : 
INTERVALO DE MUESTREO, C1-C6 (s)       : /0.004/0.004/0.004
INTERVALO DE MUESTREO, C7-C12 (s)      : 
UMBRAL DE DISPARO, C1-C6 (Gal)         : /2/2/2
UMBRAL DE DISPARO, C7-C12 (Gal)        : 
MEMORIA DE PREEVENTO (s)               : 20
TIEMPO DE POSEVENTO (s)                : 30


================================================================================
DATOS DEL SISMO:
FECHA DEL SISMO [GMT]                  : 2013/10/06
HORA EPICENTRO (GMT)                   : 14:27:51
MAGNITUD(ES)                           : /M=4.9
COORDENADAS DEL EPICENTRO              : 16.776 LAT. N
                                       : 100.12 LONG. W
PROFUNDIDAD FOCAL (Km)                 : 5.0
FUENTE DE LOS DATOS EPICENTRALES       : SSN
                                       : INSTITUTO DE GEOFISICA, UNAM

================================================================================
DATOS DE ESTE REGISTRO:
HORA DE LA PRIMERA MUESTRA (GMT)       : 14:28:54.000
EXACTITUD DEL TIEMPO (s)               : 
DURACION DEL REGISTRO (s), C1-C6       : /68.00/68.00/68.00
DURACION DEL REGISTRO (s), C7-C12      : 
NUM. TOTAL DE MUESTRAS, C1-C6          : /17000/17000/17000
NUM. TOTAL DE MUESTRAS, C7-C12         : 
ACEL. MAX.(Gal), C1-C6                 : /0.710/1.524/-1.479
ACEL. MAX., C1-C6, EN LA MUESTRA       : /6382/6504/7041
ACEL. MAX.(Gal), C7-C12                : 
ACEL. MAX., C7-C12,EN LA MUESTRA       : 
UNIDADES DE LOS DATOS                  : Gal (cm/s/s)
FACTOR DE DECIMACION                   : 1
FORMATO DATOS (FORTRAN,16 campos/dato) : 3E16.7


================================================================================
CALIDAD DEL ACELEROGRAMA:
REGISTRO DIGITAL COMPLETO CON TIEMPO ABSOLUTO CORRECTO


================================================================================
COMENTARIOS:














================================================================================
DATOS DE ACELERACION:
---------+---------+---------+---------+---------+---------+---------+---------+
   CANAL-1   	   CANAL-2   	      CANAL-3
         V           N00E              N90E
---------+---------+---------+---------+---------+---------+---------+---------+
[...]
   1.7964664e-01  -4.7903984e-01  -1.3468706e+00
   2.2493769e-01  -5.7173202e-01  -1.3475720e+00
   2.8330261e-01  -6.6477484e-01  -1.3655773e+00
   2.2540457e-01  -6.5425494e-01  -1.3210321e+00
   1.8373224e-01  -6.4957938e-01  -1.3077035e+00
   2.5353655e-01  -7.5290874e-01  -1.3331913e+00
   2.8400293e-01  -8.3262656e-01  -1.3073528e+00
   2.8925574e-01  -8.5343261e-01  -1.2776560e+00
   2.5026798e-01  -8.4349710e-01  -1.2633922e+00
   2.3976236e-01  -8.8721342e-01  -1.2656138e+00
   2.8458653e-01  -9.6985321e-01  -1.2457380e+00
   2.6882810e-01  -9.9626985e-01  -1.2177949e+00
   2.2902330e-01  -9.9019175e-01  -1.1940612e+00
   2.1898456e-01  -1.0112316e+00  -1.1762897e+00
   2.3054066e-01  -1.0831181e+00  -1.1737174e+00
   2.5878936e-01  -1.1188858e+00  -1.1338493e+00
   1.9307066e-01  -1.0889624e+00  -1.1032169e+00
   1.4777961e-01  -1.0942224e+00  -1.0829904e+00
   1.9587195e-01  -1.1649397e+00  -1.0724679e+00
   1.8069712e-01  -1.2121624e+00  -1.0454604e+00
   1.3342182e-01  -1.1775635e+00  -9.7741497e-01
   1.1194369e-01  -1.1519650e+00  -9.5157653e-01
   1.3890807e-01  -1.2149679e+00  -9.3824833e-01
   1.1252730e-01  -1.2688535e+00  -9.0632993e-01
   5.4512540e-02  -1.2319165e+00  -8.4483207e-01
   3.5602654e-02  -1.1832913e+00  -7.9958547e-01
   4.8792847e-02  -1.2249034e+00  -7.8064495e-01
   7.7625144e-02  -1.2994782e+00  -7.4592078e-01
   4.4357079e-02  -1.2756329e+00  -7.0020655e-01
  -2.0778016e-02  -1.1983699e+00  -6.2479556e-01
  -2.7898354e-02  -1.2053830e+00  -6.0585543e-01
   2.6147516e-02  -1.2700223e+00  -5.8095225e-01
  -1.6108807e-02  -1.2713079e+00  -5.1045175e-01
  -5.5330006e-02  -1.2094742e+00  -4.6789402e-01
  -5.7314253e-02  -1.1707841e+00  -4.2825936e-01
  -6.8053317e-02  -1.1926420e+00  -3.9213230e-01
  -4.5991588e-02  -1.2152017e+00  -3.3788307e-01
  -1.1486174e-01  -1.1642384e+00  -2.8994762e-01
  -1.6470528e-01  -1.0894299e+00  -2.3581529e-01
  -1.2548447e-01  -1.0969106e+00  -2.0904160e-01
  -1.0295547e-01  -1.1195871e+00  -1.7420052e-01
  -1.1754670e-01  -1.0724813e+00  -9.6802109e-02
  -1.8408244e-01  -9.9042550e-01  -5.6466007e-02
  -2.0812880e-01  -9.4928092e-01  -2.3378539e-02
  -1.1322765e-01  -9.8025624e-01   1.3333050e-02
  -1.5431638e-01  -9.3291667e-01   9.0731855e-02
  -1.9867367e-01  -8.4232831e-01   1.3434136e-01
  -1.3610681e-01  -8.2409360e-01   1.6450575e-01
  -1.5081476e-01  -8.2257418e-01   2.1255851e-01
  -1.1602933e-01  -7.7523422e-01   2.5195936e-01
  -1.5011405e-01  -6.6968416e-01   3.3193012e-01
  -1.4894684e-01  -6.3543623e-01   3.5051953e-01
  -9.9570184e-02  -6.5133296e-01   3.7530581e-01
  -8.7780637e-02  -6.1509770e-01   4.2382620e-01
  -6.3967710e-02  -5.3806810e-01   4.7199547e-01
  -9.6652173e-02  -4.6735075e-01   5.1817771e-01
  -3.0933477e-02  -4.6431189e-01   5.2004823e-01
  -3.4551810e-02  -4.6314271e-01   5.5255077e-01
  -5.8131296e-02  -3.9698404e-01   5.8973038e-01
  -6.6536680e-03  -3.2287720e-01   6.1732242e-01
   9.4549270e-03  -3.0826614e-01   6.1954405e-01
   6.0465674e-02  -3.3491653e-01   6.3427553e-01
   4.5407563e-02  -2.9388883e-01   6.6338737e-01
   7.2372387e-03  -1.8693622e-01   6.5999706e-01
   3.3034413e-02  -1.7150661e-01   6.6747951e-01
   9.1282610e-02  -2.1358662e-01   6.6420611e-01
   1.0400592e-01  -1.9079323e-01   6.6256902e-01
   8.0426435e-02  -1.0943910e-01   6.7016877e-01
   1.0202167e-01  -7.0983136e-02   6.6771332e-01
   1.4649568e-01  -1.2218010e-01   6.4058891e-01
   1.5641770e-01  -1.1423154e-01   6.3006648e-01
   1.2093156e-01  -5.1579637e-02   6.4748682e-01
   1.3003654e-01  -1.9435139e-02   6.2118075e-01
   1.9026898e-01  -3.8137364e-02   5.8563823e-01
   2.2552129e-01  -6.9697074e-02   5.8645658e-01
   2.0661141e-01  -2.5162607e-02   5.9241924e-01
   1.9797331e-01   1.8903950e-02   5.6435956e-01
   2.1524911e-01   3.1899711e-04   5.3548115e-01
   2.4022924e-01  -4.6202806e-02   5.1607299e-01
   2.7828324e-01  -3.5214994e-02   5.0859054e-01
   2.7233010e-01   1.5514456e-02   5.0180914e-01
   2.8376949e-01   2.3059418e-03   4.6451302e-01
   3.4201730e-01  -6.1632024e-02   4.4019437e-01
   3.5964365e-01  -6.5138397e-02   4.2838597e-01
   3.5404068e-01  -9.3827524e-03   4.2066931e-01
   3.8158866e-01  -3.3228050e-02   3.9623376e-01
   4.4625687e-01  -9.9036080e-02   3.5987289e-01
   4.7228748e-01  -1.3760932e-01   3.4549213e-01
   4.6224874e-01  -1.0114030e-01   3.4514141e-01
   4.8185934e-01  -6.8762041e-02   3.3204703e-01
   5.2890159e-01  -1.5034993e-01   2.8142231e-01
   5.7781098e-01  -2.0996297e-01   2.6236488e-01
   5.5376501e-01  -1.9441688e-01   2.6283251e-01
   5.6158567e-01  -1.8039021e-01   2.3032957e-01
   6.2135123e-01  -2.3731504e-01   2.0893400e-01
   6.4714840e-01  -3.1212315e-01   1.7081952e-01
   6.2975588e-01  -3.1574679e-01   1.4731923e-01
   5.7699394e-01  -2.8336893e-01   1.4766995e-01
   6.4423039e-01  -3.2883843e-01   8.6522805e-02
   7.1006581e-01  -4.2456986e-01   4.5952889e-02
   6.9535786e-01  -4.5192153e-01   4.6303610e-02
   6.6138947e-01  -4.2643993e-01   2.1751149e-02
   6.4819889e-01  -4.2573865e-01  -1.8818768e-02
   6.8298432e-01  -5.0919700e-01  -5.9973221e-02
   6.8029975e-01  -5.6121212e-01  -8.1134983e-02
   6.6710916e-01  -5.4005543e-01  -9.3528317e-02
   6.3629262e-01  -5.3082120e-01  -1.2275746e-01
   6.6652556e-01  -5.9055112e-01  -1.7642176e-01
   6.8088335e-01  -6.5367054e-01  -1.9793463e-01
   6.1668202e-01  -6.1194157e-01  -2.0074040e-01
   5.5866766e-01  -5.9697987e-01  -2.3698436e-01
   5.4851219e-01  -6.3824133e-01  -2.7240998e-01
   5.7244145e-01  -6.8604880e-01  -2.9754697e-01
   5.2866815e-01  -6.8581504e-01  -3.1356482e-01
   4.9995258e-01  -6.2351338e-01  -3.0842051e-01
   4.6796883e-01  -6.3870884e-01  -3.4150759e-01
   4.4357230e-01  -6.9423073e-01  -3.9400321e-01
   4.0878687e-01  -6.8394458e-01  -3.7763464e-01
   3.7423488e-01  -6.2643575e-01  -3.8804016e-01
   3.6851518e-01  -6.1673400e-01  -4.1224190e-01
   3.6057741e-01  -6.6839849e-01  -4.2638884e-01
   3.5509116e-01  -6.7400908e-01  -4.5608561e-01
   2.6100705e-01  -6.0504531e-01  -4.3702818e-01
   2.5260278e-01  -5.6997883e-01  -4.5678705e-01
   2.8622062e-01  -6.1626649e-01  -4.9490192e-01
   2.7933372e-01  -6.4689116e-01  -5.0928228e-01
   2.4396469e-01  -5.9394062e-01  -4.9875986e-01
   1.8478273e-01  -5.2462621e-01  -4.9548646e-01
   2.2190296e-01  -5.5115973e-01  -5.5300909e-01
   2.0929598e-01  -5.9043425e-01  -5.5359362e-01
   1.6295444e-01  -5.4519850e-01  -5.5207383e-01
   1.1976435e-01  -4.8979350e-01  -5.7335250e-01
   9.3383578e-02  -4.8137742e-01  -5.8539511e-01
   1.4556153e-01  -5.3047056e-01  -6.2187288e-01
   1.2408340e-01  -5.2976929e-01  -6.1450695e-01
   2.8131763e-02  -4.3520664e-01  -6.0994718e-01
  -1.4007447e-02  -4.0750395e-01  -6.3146006e-01
   8.1710022e-03  -4.6606508e-01  -6.5671396e-01
   2.3112393e-02  -4.8149430e-01  -6.6150754e-01
  -5.4279130e-02  -4.1299765e-01  -6.3800725e-01
  -8.9998325e-02  -3.6717752e-01  -6.5110202e-01
  -7.7158294e-02  -4.0271151e-01  -6.7051018e-01
  -1.3890810e-01  -4.1814073e-01  -6.6898999e-01
  -1.6423840e-01  -3.6799606e-01  -6.5075130e-01
  -1.9925727e-01  -3.1679871e-01  -6.4069650e-01
  -2.1268129e-01  -3.4380013e-01  -6.5835066e-01
  -2.1431538e-01  -3.7945100e-01  -6.5390780e-01
  -2.5295298e-01  -3.4730650e-01  -6.2491247e-01
  -2.9637650e-01  -2.8371957e-01  -6.0176329e-01
  -3.2976090e-01  -2.7319966e-01  -6.0527089e-01
  -3.0373028e-01  -3.3748787e-01  -6.1520879e-01
  -3.4937150e-01  -3.2030547e-01  -5.8013390e-01
  -3.6337912e-01  -2.5765357e-01  -5.3921287e-01
  -3.3676491e-01  -2.5262737e-01  -5.3827761e-01
  -3.5228990e-01  -2.8664154e-01  -5.2915807e-01
  -3.6221192e-01  -3.1212315e-01  -4.8835434e-01
  -3.9466255e-01  -2.6034179e-01  -4.5421510e-01
  -4.0867018e-01  -2.2714577e-01  -4.3527457e-01
  -3.7201722e-01  -2.8009592e-01  -4.0850048e-01
  -3.3489699e-01  -3.2907219e-01  -3.7705011e-01
  -3.6944898e-01  -2.9166774e-01  -3.2853011e-01
  -4.0154945e-01  -2.4105517e-01  -2.6972111e-01
  -3.9221142e-01  -2.7319966e-01  -2.5498963e-01
  -3.3641475e-01  -3.3094225e-01  -2.3184006e-01
  -3.4773741e-01  -3.1937044e-01  -1.5268804e-01
  -3.8404021e-01  -2.7331654e-01  -1.0218023e-01
  -3.3559731e-01  -2.8336893e-01  -8.3941147e-02
  -2.9345810e-01  -3.2170802e-01  -3.5654574e-02
  -2.7606558e-01  -3.2603294e-01   2.8649062e-02
  -3.2906058e-01  -2.6945914e-01   7.3428028e-02
  -3.0839949e-01  -2.5040628e-01   1.2042862e-01
  -2.7092910e-01  -2.8991455e-01   1.5830928e-01
  -2.4454832e-01  -2.9634329e-01   2.0343897e-01
  -2.1081377e-01  -2.4689951e-01   2.9463360e-01
  -2.5902283e-01  -1.8950756e-01   3.2725344e-01
  -2.2026851e-01  -2.2071663e-01   3.4736304e-01
  -2.0824553e-01  -2.1498917e-01   4.2254022e-01
  -2.1198097e-01  -1.5245414e-01   4.7772470e-01
  -1.8898509e-01  -1.1130956e-01   5.3045375e-01
  -1.8279851e-01  -8.4425017e-02   5.7277727e-01
  -1.4357731e-01  -1.1177708e-01   6.0504639e-01
  -1.7754570e-01  -4.7371597e-02   6.6759642e-01
  -1.9879039e-01   5.1983481e-02   7.2897738e-01
  -1.8384900e-01   6.2035867e-02   7.4511213e-01
  -1.6797384e-01   5.1749722e-02   7.7282108e-01
  -1.4894684e-01   7.8633876e-02   8.3291606e-01
  -1.8221491e-01   1.9108059e-01   8.7290144e-01
  -1.9610582e-01   2.4403074e-01   8.9149125e-01
  -1.5676790e-01   2.2813401e-01   9.0517017e-01
  -1.4404419e-01   2.7336975e-01   9.3323024e-01
  -1.6972465e-01   3.5180151e-01   9.5719816e-01
  -1.7556145e-01   4.2731129e-01   9.7941209e-01
  -1.3657370e-01   4.4390969e-01   9.7754157e-01
  -7.9842864e-02   4.3993541e-01   9.7204655e-01
  -1.1579589e-01   5.2093890e-01   1.0039646e+00
  -1.6704008e-01   6.2567081e-01   1.0003400e+00
  -1.3248809e-01   6.4250257e-01   9.8093227e-01
  -1.0412267e-01   6.3233331e-01   9.8256897e-01
  -7.4590053e-02   6.9767382e-01   9.8771328e-01
  -9.4317373e-02   7.9071704e-01   9.7496923e-01
  -1.1357781e-01   8.2952364e-01   9.5731507e-01
  -6.7936596e-02   8.3045907e-01   9.4094689e-01
  -7.1555321e-02   8.9439664e-01   9.3510075e-01
  -8.1360621e-02   9.8241366e-01   9.4012815e-01
  -7.4473332e-02   1.0184152e+00   9.0563819e-01
  -1.7509452e-02   1.0218051e+00   8.7933173e-01
   1.7976302e-02   1.0496242e+00   8.7138165e-01
  -2.1011456e-02   1.1596161e+00   8.7909791e-01
  -1.0622554e-02   1.2172418e+00   8.6378190e-01
   1.4941179e-02   1.2108131e+00   8.1806768e-01
   3.9454429e-02   1.2226186e+00   8.1806768e-01
   5.1010927e-02   1.2893621e+00   8.2683650e-01
   6.4784721e-02   1.3714175e+00   8.0964997e-01
   8.1127149e-02   1.3585600e+00   7.7749776e-01
   1.0890857e-01   1.3507283e+00   7.6229866e-01
   1.0739121e-01   1.3903535e+00   7.5002262e-01
   5.7664383e-02   1.4704219e+00   7.4639811e-01
   8.9881573e-02   1.4802406e+00   7.2383307e-01
   1.4311040e-01   1.4152507e+00   6.8232789e-01
   1.4847993e-01   1.4389787e+00   6.9261651e-01
   9.5484546e-02   1.4999947e+00   6.8536787e-01
   8.0893708e-02   1.5237227e+00   6.4924082e-01
   1.1159353e-01   1.4683177e+00   6.2644197e-01
   1.1089282e-01   1.4414336e+00   6.1755624e-01
   1.0108791e-01   1.4877212e+00   6.1135977e-01
   8.1827471e-02   1.5212683e+00   5.9429015e-01
   1.0785809e-01   1.4750975e+00   5.7827269e-01
   1.2595093e-01   1.4181727e+00   5.5991670e-01
   1.1042594e-01   1.4634084e+00   5.7184201e-01
   7.0270973e-02   1.4847992e+00   5.7546653e-01
   8.6029799e-02   1.4547590e+00   5.3746857e-01
   1.3108741e-01   1.4037954e+00   5.5184932e-01
   1.3587295e-01   1.3947953e+00   5.7979248e-01
   1.3062014e-01   1.4347711e+00   5.7102366e-01
   9.3266857e-02   1.4149001e+00   5.7418055e-01
   1.3283822e-01   1.3543520e+00   5.8259826e-01
   1.5174850e-01   1.3275843e+00   6.0422804e-01
   1.3423886e-01   1.3655732e+00   6.2807867e-01
   1.3470575e-01   1.3428966e+00   6.3778274e-01
   1.5431634e-01   1.2575682e+00   6.2410382e-01
   1.9984084e-01   1.2296322e+00   6.4210870e-01
   1.4801305e-01   1.2572176e+00   6.9226579e-01
   1.3622350e-01   1.2615425e+00   6.7589761e-01
   1.9773987e-01   1.1717723e+00   6.7168856e-01
   2.1046318e-01   1.1012887e+00   6.8688767e-01
   1.8128072e-01   1.1190559e+00   7.0196986e-01
   1.7777911e-01   1.1162504e+00   7.1506464e-01
   1.9995756e-01   1.0625990e+00   6.8501715e-01
   2.0380973e-01   9.7949129e-01   6.8150954e-01
   1.9050242e-01   9.4267163e-01   6.8793983e-01
   1.5700131e-01   9.7037394e-01   6.9249960e-01
   1.6785709e-01   9.2139806e-01   6.6408920e-01
   2.1104678e-01   8.1304251e-01   6.3380790e-01
   1.8431585e-01   7.7002787e-01   6.4339468e-01
   1.1147681e-01   7.9819769e-01   6.1884261e-01
   9.4550782e-02   7.6640422e-01   5.9183470e-01
   1.2244932e-01   6.7207534e-01   5.6587936e-01
   1.3470575e-01   6.2157965e-01   5.4682192e-01
   8.1243869e-02   6.0942343e-01   5.4682192e-01
   3.9454429e-02   6.0731922e-01   5.2589398e-01
   6.0932947e-02   5.3753691e-01   4.7503545e-01
   6.6769360e-02   4.6436510e-01   4.6252560e-01
   1.9143506e-02   4.7289806e-01   4.7281421e-01
  -2.0427854e-02   4.7102760e-01   4.3505007e-01
  -7.0053418e-04   4.0253135e-01   4.0395041e-01
   1.9026786e-02   3.3298280e-01   3.8302246e-01
   1.6342662e-03   3.3017731e-01   3.8676389e-01
  -8.1010460e-02   3.5764625e-01   3.7296767e-01
  -7.5174047e-02   3.1977428e-01   3.2573326e-01
  -6.0232656e-02   2.3292644e-01   3.0737766e-01
  -9.6302012e-02   2.2696522e-01   2.9498432e-01
  -8.9764884e-02   2.5712238e-01   2.9451670e-01
  -1.4124290e-01   2.3222517e-01   2.5803892e-01
  -1.1742998e-01   1.6209222e-01   2.1746900e-01
  -1.2816904e-01   1.3649374e-01   2.0285443e-01
  -1.9412118e-01   1.7518346e-01   1.9700869e-01
  -1.9248709e-01   1.6957287e-01   1.7643146e-01
  -1.6937449e-01   9.7336101e-02   1.1493359e-01
  -1.5023077e-01   3.9593120e-02   1.0791838e-01
  -1.8244835e-01   7.4542715e-02   9.0731855e-02
  -2.1069665e-01   1.0516739e-01   5.6826037e-02
  -2.1606658e-01   4.8944232e-02   2.6077105e-02
  -1.6423840e-01  -2.2825025e-02  -2.2092561e-02
  -1.8875165e-01  -1.4876462e-02  -1.9052583e-02
  -2.3824503e-01   2.8021304e-02  -3.6940945e-02
  -2.0322616e-01  -1.0200906e-02  -7.9030654e-02
  -1.6668992e-01  -8.5593808e-02  -1.2380962e-01
  -1.7275977e-01  -9.9854234e-02  -1.3491658e-01
  -2.3042397e-01  -4.6553443e-02  -1.3468277e-01
  -2.0054119e-01  -5.8242138e-02  -1.8682728e-01
  -1.5384949e-01  -1.3714180e-01  -2.0880778e-01
  -1.2116542e-01  -1.6028543e-01  -2.2155145e-01
  -1.2431687e-01  -1.2241386e-01  -2.3569839e-01
  -1.5968591e-01  -1.0593234e-01  -2.5136512e-01
  -9.4317373e-02  -1.6683145e-01  -2.9298759e-01
  -4.4941104e-02  -2.1148240e-01  -3.0900505e-01
  -6.1983462e-02  -1.7770199e-01  -2.9941788e-01
  -6.5952349e-02  -1.4941489e-01  -3.1660441e-01
  -2.5447225e-02  -1.9768988e-01  -3.5635597e-01
   2.4162877e-02  -2.5122443e-01  -3.7225652e-01
   1.2956932e-02  -2.2153479e-01  -3.6477407e-01
  -2.4279629e-02  -1.7548089e-01  -3.6910003e-01
  -3.3851042e-03  -2.0493678e-01  -3.9739352e-01
   3.7586902e-02  -2.6373167e-01  -4.2253052e-01
   3.5018660e-02  -2.6326416e-01  -4.3200078e-01
   7.7041205e-03  -2.0867730e-01  -4.1867219e-01
   2.0777984e-02  -2.0563805e-01  -4.5655324e-01
   3.9571149e-02  -2.6151058e-01  -4.9501883e-01
   3.1050166e-02  -2.6303040e-01  -4.7046637e-01
   1.9376947e-02  -2.2200270e-01  -4.9864295e-01
  -2.8015020e-03  -2.0423551e-01  -5.1243917e-01
   4.4590519e-02  -2.4888685e-01  -5.2705374e-01
   7.7391703e-02  -2.7939465e-01  -5.5277527e-01
   2.3812715e-02  -2.3322387e-01  -5.3593947e-01
   7.0050271e-04  -1.9815740e-01  -5.5160620e-01
   3.5836095e-02  -2.2936647e-01  -5.7452157e-01
