**************************************************************************************
            UNIVERSIDAD AUTONOMA METROPOLITANA - AZCAPOTZALCO
                        Departamento de Materiales
                           Area de Estructuras
     AV. SAN PABLO 180,COL.REYNOSA, AZCAPOTZALCO, C.P.02200 CIUDAD DE MEXICO.
**************************************************************************************
ARCHIVO ESTANDAR DE ACELERACION:
VERSION DEL FORMATO                    : 2.0
NOMBRE DEL ARCHIVO                     : RIML201304051
FECHA Y HORA DE CREACION               : 10:06 p. m. 03/01/2014
REF. CATALOGO ACELEROGRAMAS, SMIS 1995 : REGISTRO NO.      /PAG.    


================================================================================
DATOS DE LA ESTACION:
NOMBRE DE LA ESTACION                  : UAM-LERMA.
CLAVE DE LA ESTACION                   : RIML
LOCALIZACION DE LA ESTACION            : AV. DE LAS GARZAS 10, EL PANTEON, C.P.52005,
                                       : LERMA DE VILLADA, ESTADO DE MEXICO. 
                                       :
                                       : 
                                       : 
COORDENADAS DE LA ESTACION             : 19.291481 LAT. N
                                       : 99.502060 LONG. W
ALTITUD (msnm)                         : 2570
TIPO DE SUELO                          : DEPOSITOS LACUSTRES
                                       : 
                                       : 
INSTITUCION RESPONSABLE                : UNIVERSIDAD AUTONOMA METROPOLITANA
                                       : 

================================================================================
DATOS DEL ACELEROGRAFO: 
MODELO DEL ACELEROGRAFO                : BASALT KINEMETRICS
NUMERO DE SERIE DEL ACELEROGRAFO       : 978
NUMERO DE CANALES                      : 3
ORIENTACION C1-C6 (rumbo;orientacion)  : /V/N00E/N90E
ORIENTACION C7-C12 (rumbo;orientacion) : 
VEL. DE MUESTREO, C1-C6 (muestras/s)   : /250/250/250
VEL. DE MUESTREO, C7-C12 (muestras/s)  : 
ESC. COMPLETA DE SENSORES, C1-C6, (g)  : /2/2/2
ESC. COMPLETA DE SENSORES, C7-C12 (g)  : 
FREC. NAT. DE SENSORES, C1-C6, (Hz)    : /210/212/212
FREC. NAT. DE SENSORES, C7-C12 (Hz)    : 
AMORTIGUAMIENTO DE SENSORES, C1-C6     : /0.7/0.7/0.7
AMORTIGUAMIENTO DE SENSORES, C7-C12    : 
INTERVALO DE MUESTREO, C1-C6 (s)       : /0.004/0.004/0.004
INTERVALO DE MUESTREO, C7-C12 (s)      : 
UMBRAL DE DISPARO, C1-C6 (Gal)         : /2/2/2
UMBRAL DE DISPARO, C7-C12 (Gal)        : 
MEMORIA DE PREEVENTO (s)               : 20
TIEMPO DE POSEVENTO (s)                : 30


================================================================================
DATOS DEL SISMO:
FECHA DEL SISMO [GMT]                  : 2013/04/05
HORA EPICENTRO (GMT)                   : 01:58:48
MAGNITUD(ES)                           : /M=5.3
COORDENADAS DEL EPICENTRO              : 17.1092 LAT. N
                                       : 100.808 LONG. W
PROFUNDIDAD FOCAL (Km)                 : 15.2
FUENTE DE LOS DATOS EPICENTRALES       : SSN
                                       : INSTITUTO DE GEOFISICA, UNAM

================================================================================
DATOS DE ESTE REGISTRO:
HORA DE LA PRIMERA MUESTRA (GMT)       : 01:59:13.00
EXACTITUD DEL TIEMPO (s)               : 
DURACION DEL REGISTRO (s), C1-C6       : /147.00/147.00/147.00
DURACION DEL REGISTRO (s), C7-C12      : 
NUM. TOTAL DE MUESTRAS, C1-C6          : /36750/36750/36750
NUM. TOTAL DE MUESTRAS, C7-C12         : 
ACEL. MAX.(Gal), C1-C6                 : /2.272/4.420/-6.467
ACEL. MAX., C1-C6, EN LA MUESTRA       : /15783/15351/19267
ACEL. MAX.(Gal), C7-C12                : 
ACEL. MAX., C7-C12,EN LA MUESTRA       : 
UNIDADES DE LOS DATOS                  : Gal (cm/s/s)
FACTOR DE DECIMACION                   : 1
FORMATO DATOS (FORTRAN,16 campos/dato) : 3E16.7


================================================================================
CALIDAD DEL ACELEROGRAMA:
REGISTRO DIGITAL COMPLETO CON TIEMPO ABSOLUTO CORRECTO


================================================================================
COMENTARIOS:














================================================================================
DATOS DE ACELERACION:
---------+---------+---------+---------+---------+---------+---------+---------+
   CANAL-1   	   CANAL-2   	      CANAL-3
         V           N00E              N90E
---------+---------+---------+---------+---------+---------+---------+---------+
[...]
  -6.6686948e-01   1.9179131e+00   3.2388345e+00
  -7.7484450e-01   1.9730843e+00   3.3661566e+00
  -8.3075789e-01   2.0196057e+00   3.5415310e+00
  -7.4356107e-01   2.0408797e+00   3.6450017e+00
  -8.3180838e-01   2.0774656e+00   3.8078663e+00
  -7.5266566e-01   2.1239870e+00   3.9550637e+00
  -8.3122477e-01   2.1847688e+00   4.0429846e+00
  -8.7301382e-01   2.1996136e+00   4.2252569e+00
  -8.0939649e-01   2.2358489e+00   4.3192577e+00
  -8.1173090e-01   2.2823707e+00   4.4509054e+00
  -8.3787823e-01   2.3224634e+00   4.5776425e+00
  -9.5203982e-01   2.3653612e+00   4.6731631e+00
  -8.0437712e-01   2.3708549e+00   4.8229329e+00
  -7.9632262e-01   2.4204155e+00   4.8840801e+00
  -9.0429764e-01   2.4512740e+00   5.0119867e+00
  -8.8375289e-01   2.4858729e+00   5.1163926e+00
  -8.9274114e-01   2.5174326e+00   5.1806967e+00
  -8.1920179e-01   2.5196537e+00   5.2925854e+00
  -8.1861779e-01   2.5745912e+00   5.3490563e+00
  -8.8795521e-01   2.6167877e+00   5.4482010e+00
  -9.0056220e-01   2.6321000e+00   5.5070100e+00
  -7.7426089e-01   2.6377106e+00   5.5689755e+00
  -7.5430013e-01   2.6788552e+00   5.6398267e+00
  -8.7581551e-01   2.7174285e+00   5.6708098e+00
  -8.0239248e-01   2.7265458e+00   5.7403747e+00
  -7.4741284e-01   2.7514430e+00   5.7593152e+00
  -7.5955294e-01   2.7641836e+00   5.8081863e+00
  -7.9071965e-01   2.8070818e+00   5.8433781e+00
  -7.8838485e-01   2.8251992e+00   5.8481717e+00
  -7.1834750e-01   2.8193549e+00   5.8831297e+00
  -6.9850346e-01   2.8481095e+00   5.8866369e+00
  -6.6114978e-01   2.8635387e+00   5.9059281e+00
  -7.3994234e-01   2.8927608e+00   5.9011346e+00
  -6.8881488e-01   2.8905397e+00   5.9044084e+00
  -6.0768752e-01   2.8817734e+00   5.9086174e+00
  -6.3593621e-01   2.9126318e+00   5.8952888e+00
  -5.9052844e-01   2.9287623e+00   5.8702687e+00
  -7.0609068e-01   2.9368278e+00   5.8617337e+00
  -6.0827151e-01   2.9245543e+00   5.8654751e+00
  -5.1955693e-01   2.9424384e+00   5.8016391e+00
  -6.2589747e-01   2.9487502e+00   5.8003528e+00
  -6.1025576e-01   2.9469970e+00   5.7660962e+00
  -5.6146270e-01   2.9483996e+00   5.7178100e+00
  -5.0998507e-01   2.9243205e+00   5.7021433e+00
  -5.5842797e-01   2.9507372e+00   5.6378393e+00
  -5.7500345e-01   2.9508541e+00   5.6068565e+00
  -6.0792135e-01   2.9289961e+00   5.5526073e+00
  -5.3146320e-01   2.9105276e+00   5.5040869e+00
  -5.1617165e-01   2.9056183e+00   5.4484348e+00
  -6.5636386e-01   2.9113462e+00   5.3840143e+00
  -5.9624813e-01   2.8751105e+00   5.3291805e+00
  -5.7033424e-01   2.8513825e+00   5.2732946e+00
  -5.8690971e-01   2.8333815e+00   5.2110949e+00
  -6.1632561e-01   2.8251992e+00   5.1140545e+00
  -6.3873789e-01   2.7894315e+00   5.0732507e+00
  -6.0733736e-01   2.7364813e+00   4.9953843e+00
  -5.9624813e-01   2.7135710e+00   4.9168168e+00
  -6.1469153e-01   2.6749982e+00   4.8485376e+00
  -6.8052694e-01   2.6555947e+00   4.7414424e+00
  -6.6231699e-01   2.5956310e+00   4.7027430e+00
  -5.8866091e-01   2.5235111e+00   4.5984540e+00
  -6.1095608e-01   2.5096013e+00   4.5118187e+00
  -7.1052645e-01   2.4616770e+00   4.4520745e+00
  -6.5029400e-01   2.3832452e+00   4.3500067e+00
  -5.3998457e-01   2.3202423e+00   4.2853519e+00
  -5.7500345e-01   2.2723183e+00   4.1897144e+00
  -6.2683124e-01   2.2245109e+00   4.1041317e+00
  -6.5169465e-01   2.1578847e+00   4.0351514e+00
  -5.4360330e-01   2.0722056e+00   3.9514392e+00
  -5.2819503e-01   2.0212424e+00   3.8600108e+00
  -6.3278437e-01   1.9705130e+00   3.7824951e+00
  -5.8445858e-01   1.8971070e+00   3.7119946e+00
  -5.4045146e-01   1.8121292e+00   3.6191632e+00
  -5.0099681e-01   1.7402431e+00   3.5554438e+00
  -5.0333162e-01   1.6999167e+00   3.4736025e+00
  -5.3438160e-01   1.6196145e+00   3.3763283e+00
  -4.6924651e-01   1.5463254e+00   3.3227805e+00
  -4.1683511e-01   1.4684780e+00   3.2257401e+00
  -4.3119251e-01   1.4089819e+00   3.1576947e+00
  -5.1337036e-01   1.3732141e+00   3.0864927e+00
  -4.7893509e-01   1.2753788e+00   2.9909721e+00
  -3.7866440e-01   1.2018560e+00   2.9411658e+00
  -3.9792484e-01   1.1601270e+00   2.8513744e+00
  -4.4356605e-01   1.0871886e+00   2.7844980e+00
  -3.9955892e-01   1.0141337e+00   2.7070996e+00
  -3.2952118e-01   9.5159825e-01   2.6216338e+00
  -3.6103805e-01   8.8263448e-01   2.5683199e+00
  -3.2345133e-01   8.2407335e-01   2.4792299e+00
  -3.6068789e-01   7.7872073e-01   2.3896720e+00
  -4.0352781e-01   6.9947043e-01   2.3453607e+00
  -2.8177900e-01   6.3050627e-01   2.2671435e+00
  -3.0033872e-01   5.8690723e-01   2.1732600e+00
  -3.5847020e-01   5.1841058e-01   2.1055653e+00
  -3.0874338e-01   4.5645996e-01   2.0257118e+00
  -2.3882235e-01   3.8749580e-01   1.9591862e+00
  -2.8971638e-01   3.4120814e-01   1.8623796e+00
  -2.8551405e-01   2.8638753e-01   1.7831103e+00
  -2.9531935e-01   2.2326811e-01   1.7080500e+00
  -2.6135135e-01   1.4881024e-01   1.6270271e+00
  -1.3504966e-01   8.3002213e-02   1.5427308e+00
  -3.0699257e-01   7.9261690e-02   1.4503667e+00
  -3.0279024e-01  -1.4249041e-02   1.3795155e+00
  -1.5921275e-01  -7.8537251e-02   1.2766293e+00
  -1.5769538e-01  -1.2622785e-01   1.2170020e+00
  -2.1220813e-01  -1.8525650e-01   1.1248721e+00
  -2.5282998e-01  -2.0921828e-01   1.0153215e+00
  -1.5524386e-01  -3.0985903e-01   9.5464194e-01
  -1.3516638e-01  -3.5813402e-01   8.6391494e-01
  -1.9329786e-01  -3.8583672e-01   7.7996894e-01
  -2.2948393e-01  -4.4042318e-01   6.8222712e-01
  -1.5174225e-01  -5.0494554e-01   5.9582568e-01
  -1.6108067e-01  -5.5777921e-01   5.2205178e-01
  -1.5069177e-01  -5.9039083e-01   4.3880722e-01
  -1.3855167e-01  -6.3060037e-01   3.2458031e-01
  -2.1722750e-01  -6.8074543e-01   2.4507718e-01
  -6.8280480e-02  -7.4667034e-01   1.8673581e-01
  -6.4661755e-02  -7.7612623e-01   6.2102988e-02
  -1.3446606e-01  -8.0920576e-01  -1.3658725e-02
  -9.3027171e-02  -8.5502589e-01  -1.0871129e-01
  -1.0866888e-01  -9.1943137e-01  -1.8762989e-01
  -3.9915456e-02  -9.5578352e-01  -2.6046893e-01
  -4.9370203e-02  -9.7600517e-01  -3.7995705e-01
  -1.4870713e-01  -1.0262671e+00  -4.4776868e-01
  -5.4856847e-02  -1.0709185e+00  -5.3101284e-01
   5.1421566e-03  -1.1308821e+00  -6.0981454e-01
  -5.9992938e-02  -1.1701563e+00  -7.0323080e-01
  -5.7191256e-02  -1.1975083e+00  -7.9547759e-01
  -7.0265119e-02  -1.2549003e+00  -8.5241569e-01
   4.5585544e-03  -1.3292413e+00  -9.4442867e-01
   3.4324615e-02  -1.3648921e+00  -1.0280239e+00
  -8.3105150e-02  -1.3826593e+00  -1.0952507e+00
  -6.1860465e-02  -1.4536104e+00  -1.1912389e+00
   6.8176283e-02  -1.5260810e+00  -1.2503986e+00
   8.5218641e-02  -1.5660567e+00  -1.3138843e+00
   4.1912227e-02  -1.6090718e+00  -1.4226162e+00
   3.3624293e-02  -1.6513852e+00  -1.4683308e+00
   9.5140662e-02  -1.7295832e+00  -1.5367265e+00
   2.1058618e-01  -1.8014697e+00  -1.6238290e+00
   1.0051019e-01  -1.8166651e+00  -1.6828718e+00
   1.1136637e-01  -1.8829407e+00  -1.7586336e+00
   2.2657805e-01  -1.9492162e+00  -1.8170918e+00
   2.0755145e-01  -2.0082449e+00  -1.8877092e+00
   3.2486449e-01  -2.0692605e+00  -1.9473366e+00
   2.0871865e-01  -2.0891315e+00  -2.0208767e+00
   2.5599395e-01  -2.1796030e+00  -2.0851807e+00
   4.4427890e-01  -2.2549959e+00  -2.1466786e+00
   3.4494198e-01  -2.2938029e+00  -2.2105150e+00
   3.8743135e-01  -2.3508442e+00  -2.2816000e+00
   3.6326865e-01  -2.4033268e+00  -2.3620384e+00
   4.3774177e-01  -2.5053705e+00  -2.3900985e+00
   5.1886913e-01  -2.5614768e+00  -2.4891263e+00
   4.3424016e-01  -2.6009851e+00  -2.5413881e+00
   5.0065918e-01  -2.6803519e+00  -2.6060428e+00
   5.2528915e-01  -2.7614726e+00  -2.6932622e+00
   5.6836212e-01  -2.8420086e+00  -2.7132549e+00
   5.9731114e-01  -2.8948419e+00  -2.8203501e+00
   5.6591099e-01  -2.9668449e+00  -2.8786915e+00
   5.5937426e-01  -3.0437576e+00  -2.9191445e+00
   6.8999461e-01  -3.1461515e+00  -2.9928015e+00
   7.0131727e-01  -3.2030760e+00  -3.0652898e+00
   5.6871267e-01  -3.2453897e+00  -3.1221110e+00
   6.7493649e-01  -3.3635635e+00  -3.1714497e+00
   6.2614344e-01  -3.4166310e+00  -3.2387933e+00
   7.1614194e-01  -3.4977513e+00  -3.2847414e+00
   6.8123979e-01  -3.5587669e+00  -3.3716104e+00
   4.7766329e-01  -3.6020157e+00  -3.3935905e+00
   7.4427352e-01  -3.7194882e+00  -3.4568424e+00
   6.9688150e-01  -3.7662434e+00  -3.5324872e+00
   6.0489875e-01  -3.8142846e+00  -3.5448801e+00
   6.1493749e-01  -3.8543773e+00  -3.6532617e+00
   5.8575503e-01  -3.9277829e+00  -3.6620301e+00
   6.8742636e-01  -3.9941753e+00  -3.7239960e+00
   6.0489875e-01  -4.0032927e+00  -3.8102802e+00
   5.4851847e-01  -4.0464246e+00  -3.8211533e+00
   4.9960869e-01  -4.0733087e+00  -3.9068529e+00
   6.3746610e-01  -4.1463640e+00  -3.9365497e+00
   6.3151297e-01  -4.1502211e+00  -4.0105578e+00
   4.5583500e-01  -4.1434417e+00  -4.0639883e+00
   5.5890737e-01  -4.1951062e+00  -4.1070136e+00
   5.8890688e-01  -4.2067952e+00  -4.1812552e+00
   5.3929677e-01  -4.2107691e+00  -4.2165639e+00
   4.7474528e-01  -4.1907812e+00  -4.2933781e+00
   5.1875241e-01  -4.2141590e+00  -4.3504331e+00
   4.9377228e-01  -4.2053923e+00  -4.4221027e+00
   5.4081414e-01  -4.2094835e+00  -4.4686357e+00
   5.3556133e-01  -4.1898462e+00  -4.5241709e+00
   3.7178963e-01  -4.1529097e+00  -4.6199253e+00
   5.7151396e-01  -4.1952230e+00  -4.6717191e+00
   5.5703946e-01  -4.1450780e+00  -4.7338015e+00
   4.8875291e-01  -4.1109469e+00  -4.8137722e+00
   5.1571729e-01  -4.0882704e+00  -4.8964319e+00
   4.9774077e-01  -4.0643082e+00  -4.9543056e+00
   5.4058070e-01  -4.0366059e+00  -5.0285475e+00
   5.0089262e-01  -3.9869284e+00  -5.1110902e+00
   5.3684525e-01  -3.9451994e+00  -5.1751604e+00
   4.4066017e-01  -3.8830146e+00  -5.2501038e+00
   4.9890837e-01  -3.8819627e+00  -5.3255148e+00
   5.8867343e-01  -3.8080893e+00  -5.3992887e+00
   5.0801296e-01  -3.7405280e+00  -5.4800778e+00
   4.3575752e-01  -3.6736681e+00  -5.5381854e+00
   4.8490074e-01  -3.6256269e+00  -5.5889270e+00
   5.9824490e-01  -3.6125356e+00  -5.6870199e+00
   4.2933751e-01  -3.4695811e+00  -5.7517912e+00
   4.3027127e-01  -3.3938376e+00  -5.8219410e+00
   5.1828553e-01  -3.3469655e+00  -5.9077575e+00
   4.6727439e-01  -3.2597671e+00  -5.9639945e+00
   4.8268266e-01  -3.1758412e+00  -6.0185941e+00
   4.6587375e-01  -3.0812786e+00  -6.0935375e+00
   3.9805408e-01  -3.0070544e+00  -6.1517619e+00
   4.8828603e-01  -2.9466232e+00  -6.1684808e+00
   5.0451134e-01  -2.8478530e+00  -6.2310312e+00
   3.7389099e-01  -2.7376273e+00  -6.2777976e+00
   4.0762594e-01  -2.6780143e+00  -6.3079620e+00
   3.4073965e-01  -2.6028551e+00  -6.3316961e+00
   4.1649709e-01  -2.5109811e+00  -6.3740197e+00
   3.5626464e-01  -2.4048467e+00  -6.4040671e+00
   2.0790161e-01  -2.3280508e+00  -6.3874652e+00
   4.3832576e-01  -2.2649314e+00  -6.4587840e+00
   3.9338487e-01  -2.1738755e+00  -6.4448709e+00
   3.1307495e-01  -2.1030413e+00  -6.4113158e+00
   2.8809482e-01  -2.0054394e+00  -6.4672017e+00
   3.5789912e-01  -1.9301634e+00  -6.4370377e+00
   4.6155470e-01  -1.8822394e+00  -6.4435849e+00
   2.5996284e-01  -1.7742345e+00  -6.4016117e+00
   3.8533038e-01  -1.6913609e+00  -6.3784625e+00
   4.0517442e-01  -1.6195917e+00  -6.3988059e+00
   3.0420341e-01  -1.5475883e+00  -6.2894891e+00
   5.2633963e-01  -1.4979107e+00  -6.2880862e+00
   4.3400672e-01  -1.3915425e+00  -6.2552326e+00
   3.7295723e-01  -1.3186045e+00  -6.1586598e+00
   5.4314855e-01  -1.2757063e+00  -6.1392517e+00
   5.0649559e-01  -1.1887416e+00  -6.0591640e+00
   4.8816931e-01  -1.1072706e+00  -5.9890146e+00
   5.1735137e-01  -1.0371376e+00  -5.9227228e+00
   5.2342162e-01  -9.7623893e-01  -5.8250979e+00
   6.1085188e-01  -9.0166418e-01  -5.7473487e+00
   6.3384777e-01  -8.2790759e-01  -5.6323031e+00
   5.6054146e-01  -7.4503403e-01  -5.5374839e+00
   5.9836162e-01  -6.7782345e-01  -5.4485105e+00
   7.4707521e-01  -6.3586033e-01  -5.3094973e+00
   6.9793199e-01  -5.3872634e-01  -5.1943348e+00
   6.9162869e-01  -4.6882715e-01  -5.0736772e+00
   7.4555784e-01  -4.1318839e-01  -4.9455368e+00
   7.1695898e-01  -3.4515926e-01  -4.7896874e+00
   9.0279241e-01  -2.9957288e-01  -4.6580398e+00
   7.9551810e-01  -2.0758197e-01  -4.5204295e+00
   7.4018831e-01  -1.3791654e-01  -4.3360524e+00
   9.6991175e-01  -1.1021423e-01  -4.2219424e+00
   8.7185914e-01  -5.3874193e-02  -4.0420082e+00
   9.3337551e-01   1.2635505e-02  -3.8654646e+00
   9.2613845e-01   8.3820367e-02  -3.7436376e+00
   8.8469917e-01   1.2262737e-01  -3.5377484e+00
   1.0453190e+00   1.6400570e-01  -3.3826005e+00
   9.7574855e-01   2.3203444e-01  -3.2161118e+00
   9.7446424e-01   2.8498498e-01  -3.0445956e+00
   9.6699374e-01   3.3220767e-01  -2.8883955e+00
   1.0241911e+00   3.5149429e-01  -2.6841427e+00
   1.0819724e+00   4.0888624e-01  -2.5389326e+00
   1.0048139e+00   4.7095414e-01  -2.3632075e+00
   1.0146192e+00   5.0508558e-01  -2.1736865e+00
   1.0206891e+00   5.3255413e-01  -2.0154986e+00
   1.1409205e+00   5.6680245e-01  -1.8307712e+00
   1.0853573e+00   6.3003875e-01  -1.6748049e+00
   9.8485314e-01   6.8333993e-01  -1.4986121e+00
   1.0634123e+00   7.2086087e-01  -1.3135335e+00
   1.0839566e+00   7.2401700e-01  -1.1549949e+00
   1.0914275e+00   8.0420233e-01  -9.7015059e-01
   1.0204556e+00   8.6486729e-01  -8.2938341e-01
   1.0511558e+00   8.6673736e-01  -6.4301891e-01
   1.0874586e+00   9.2132421e-01  -4.6811209e-01
   1.0760188e+00   9.4844252e-01  -3.3716590e-01
   1.0679647e+00   1.0064189e+00  -1.5781622e-01
   9.5543724e-01   1.0527065e+00  -2.2076432e-02
   1.0555912e+00   1.0458103e+00   1.6159881e-01
   1.0680815e+00   1.0863704e+00   2.9710478e-01
   9.3290863e-01   1.1432949e+00   4.3494929e-01
   9.7703248e-01   1.1709976e+00   6.0751757e-01
   9.4913395e-01   1.1861930e+00   7.1683438e-01
   9.6641014e-01   1.2008041e+00   8.8566124e-01
   9.5018443e-01   1.2455723e+00   1.0062019e+00
   8.0567356e-01   1.2827426e+00   1.1320038e+00
   8.5890200e-01   1.2785346e+00   1.2839949e+00
   9.2707222e-01   1.2798203e+00   1.3913239e+00
   8.4174292e-01   1.3098605e+00   1.5283500e+00
   7.6645237e-01   1.3487844e+00   1.6415248e+00
   7.3832039e-01   1.3323033e+00   1.7582071e+00
   7.5676379e-01   1.3300822e+00   1.8892702e+00
   7.7333926e-01   1.3455114e+00   1.9935596e+00
   6.3151297e-01   1.3663178e+00   2.0993688e+00
   6.1470405e-01   1.3714609e+00   2.2178052e+00
   7.1754259e-01   1.3303159e+00   2.3115718e+00
   5.8038550e-01   1.3545119e+00   2.4339834e+00
   5.7454909e-01   1.3510055e+00   2.5312575e+00
   5.1758481e-01   1.3501870e+00   2.5900665e+00
   4.3855921e-01   1.3401346e+00   2.7459159e+00
   4.7614593e-01   1.3107960e+00   2.8160657e+00
   3.6735387e-01   1.3211990e+00   2.8987253e+00
   3.4015605e-01   1.3107960e+00   3.0037162e+00
   2.1653931e-01   1.3240041e+00   3.0762041e+00
   2.6906782e-01   1.2723396e+00   3.2010707e+00
   2.3906832e-01   1.2836777e+00   3.2449145e+00
   4.5180399e-02   1.3009773e+00   3.3462808e+00
   9.7358742e-02   1.2606509e+00   3.4273037e+00
   3.5024938e-02   1.2772489e+00   3.4914908e+00
  -1.2950686e-02   1.2420656e+00   3.5898172e+00
  -1.3038084e-01   1.2643910e+00   3.6497953e+00
  -1.9936771e-01   1.2708202e+00   3.7260246e+00
  -1.8827849e-01   1.2302600e+00   3.7870548e+00
  -2.0952317e-01   1.2377406e+00   3.8739239e+00
  -3.3395695e-01   1.2537543e+00   3.9327325e+00
  -4.6142545e-01   1.2595986e+00   3.9953999e+00
  -3.7854768e-01   1.2299093e+00   4.0570146e+00
  -4.7216491e-01   1.2316625e+00   4.1244751e+00
  -5.0099681e-01   1.2444031e+00   4.1912346e+00
  -6.3710342e-01   1.2652096e+00   4.2171900e+00
