**************************************************************************************
            UNIVERSIDAD AUTONOMA METROPOLITANA - AZCAPOTZALCO
                        Departamento de Materiales
                           Area de Estructuras
     AV. SAN PABLO 180,COL.REYNOSA, AZCAPOTZALCO, C.P.02200 CIUDAD DE MEXICO.
**************************************************************************************
ARCHIVO ESTANDAR DE ACELERACION:
VERSION DEL FORMATO                    : 2.0
NOMBRE DEL ARCHIVO                     : RIML201312011
FECHA Y HORA DE CREACION               : 11:57 a. m. 07/01/2014
REF. CATALOGO ACELEROGRAMAS, SMIS 1995 : REGISTRO NO.      /PAG.    


================================================================================
DATOS DE LA ESTACION:
NOMBRE DE LA ESTACION                  : UAM-LERMA.
CLAVE DE LA ESTACION                   : RIML
LOCALIZACION DE LA ESTACION            : AV. DE LAS GARZAS 10, EL PANTEON, C.P.52005,
                                       : LERMA DE VILLADA, ESTADO DE MEXICO. 
                                       :
                                       : 
                                       : 
COORDENADAS DE LA ESTACION             : 19.291481 LAT. N
                                       : 99.502060 LONG. W
ALTITUD (msnm)                         : 2570
TIPO DE SUELO                          : DEPOSITOS LACUSTRES
                                       : 
                                       : 
INSTITUCION RESPONSABLE                : UNIVERSIDAD AUTONOMA METROPOLITANA
                                       : 

================================================================================
DATOS DEL ACELEROGRAFO: 
MODELO DEL ACELEROGRAFO                : BASALT KINEMETRICS
NUMERO DE SERIE DEL ACELEROGRAFO       : 978
NUMERO DE CANALES                      : 3
ORIENTACION C1-C6 (rumbo;orientacion)  : /V/N00E/N90E
ORIENTACION C7-C12 (rumbo;orientacion) : 
VEL. DE MUESTREO, C1-C6 (muestras/s)   : /250/250/250
VEL. DE MUESTREO, C7-C12 (muestras/s)  : 
ESC. COMPLETA DE SENSORES, C1-C6, (g)  : /2/2/2
ESC. COMPLETA DE SENSORES, C7-C12 (g)  : 
FREC. NAT. DE SENSORES, C1-C6, (Hz)    : /210/212/212
FREC. NAT. DE SENSORES, C7-C12 (Hz)    : 
AMORTIGUAMIENTO DE SENSORES, C1-C6     : /0.7/0.7/0.7
AMORTIGUAMIENTO DE SENSORES, C7-C12    : 
INTERVALO DE MUESTREO, C1-C6 (s)       : /0.004/0.004/0.004
INTERVALO DE MUESTREO, C7-C12 (s)      : 
UMBRAL DE DISPARO, C1-C6 (Gal)         : /2/2/2
UMBRAL DE DISPARO, C7-C12 (Gal)        : 
MEMORIA DE PREEVENTO (s)               : 20
TIEMPO DE POSEVENTO (s)                : 30


================================================================================
DATOS DEL SISMO:
FECHA DEL SISMO [GMT]                  : 2013/12/01
HORA EPICENTRO (GMT)                   : 01:30:15
MAGNITUD(ES)                           : /M=5.0
COORDENADAS DEL EPICENTRO              : 17.3595 LAT. N
                                       : 101.649 LONG. W
PROFUNDIDAD FOCAL (Km)                 : 10.0
FUENTE DE LOS DATOS EPICENTRALES       : SSN
                                       : INSTITUTO DE GEOFISICA, UNAM

================================================================================
DATOS DE ESTE REGISTRO:
HORA DE LA PRIMERA MUESTRA (GMT)       : 01:31:28.000
EXACTITUD DEL TIEMPO (s)               : 
DURACION DEL REGISTRO (s), C1-C6       : /55.00/55.00/55.00
DURACION DEL REGISTRO (s), C7-C12      : 
NUM. TOTAL DE MUESTRAS, C1-C6          : /13750/13750/13750
NUM. TOTAL DE MUESTRAS, C7-C12         : 
ACEL. MAX.(Gal), C1-C6                 : /0.596/1.263/1.481
ACEL. MAX., C1-C6, EN LA MUESTRA       : /5868/5680/5252
ACEL. MAX.(Gal), C7-C12                : 
ACEL. MAX., C7-C12,EN LA MUESTRA       : 
UNIDADES DE LOS DATOS                  : Gal (cm/s/s)
FACTOR DE DECIMACION                   : 1
FORMATO DATOS (FORTRAN,16 campos/dato) : 3E16.7


================================================================================
CALIDAD DEL ACELEROGRAMA:
REGISTRO DIGITAL COMPLETO CON TIEMPO ABSOLUTO CORRECTO


================================================================================
COMENTARIOS:














================================================================================
DATOS DE ACELERACION:
---------+---------+---------+---------+---------+---------+---------+---------+
   CANAL-1   	   CANAL-2   	      CANAL-3
         V           N00E              N90E
---------+---------+---------+---------+---------+---------+---------+---------+
[...]
  -1.4885212e-01  -2.2568476e-02  -6.0613750e-01
  -7.2861247e-02  -4.6998168e-02  -6.3361303e-01
  -2.5002343e-02  -1.6236686e-01  -6.8984968e-01
  -5.8620179e-02  -2.0783636e-01  -7.2550911e-01
  -1.0286075e-01  -1.1023486e-01  -7.0727002e-01
  -8.5935110e-02  -8.0194578e-02  -7.5345188e-01
   1.0833572e-02  -2.0725196e-01  -8.0466152e-01
  -5.5084641e-03  -2.7130681e-01  -8.2886287e-01
  -5.8153297e-02  -1.9638142e-01  -8.4920628e-01
  -2.5352505e-02  -1.3361225e-01  -8.5622149e-01
   6.8650770e-03  -2.0958954e-01  -9.0731384e-01
   4.5302766e-03  -3.0426907e-01  -9.3969947e-01
  -2.9554832e-02  -2.5891645e-01  -9.6460265e-01
  -4.6947352e-02  -1.6891248e-01  -9.6822717e-01
  -8.7770279e-03  -2.0257641e-01  -9.8225720e-01
   4.7136760e-02  -3.1373706e-01  -1.0484317e+00
  -7.3759910e-03  -3.0730831e-01  -1.0463274e+00
  -6.3055947e-02  -2.0561526e-01  -1.0460936e+00
  -9.0104688e-03  -1.9567976e-01  -1.0702949e+00
   3.7798342e-02  -3.0461970e-01  -1.0956658e+00
   2.8693365e-02  -3.4681659e-01  -1.1154246e+00
  -3.3873880e-02  -2.3799352e-01  -1.0951981e+00
  -2.7570193e-02  -1.9357593e-01  -1.0956658e+00
   4.2350831e-02  -2.9690529e-01  -1.1196337e+00
   4.9704610e-02  -3.6470027e-01  -1.1371713e+00
  -4.8698158e-02  -2.9082679e-01  -1.1095789e+00
  -8.2316385e-02  -2.0094010e-01  -1.0918078e+00
   5.1688857e-02  -2.9480107e-01  -1.1188153e+00
   4.8303965e-02  -4.0350726e-01  -1.1217384e+00
  -5.7336254e-02  -3.1560712e-01  -1.0897031e+00
  -5.3951361e-02  -2.3998046e-01  -1.0684244e+00
   1.0282719e-03  -2.9561923e-01  -1.0694766e+00
   3.7098020e-02  -3.9275360e-01  -1.0633970e+00
   4.6469971e-03  -3.9672749e-01  -1.0507699e+00
  -2.7803634e-02  -2.9632050e-01  -1.0089140e+00
  -2.8235024e-03  -3.1420457e-01  -9.9207818e-01
   3.6747858e-02  -4.1449468e-01  -9.9780703e-01
   1.0016529e-02  -4.4395057e-01  -9.7676217e-01
  -5.8503458e-02  -3.6914206e-01  -9.3210011e-01
  -2.4068580e-02  -3.2297129e-01  -8.8977620e-01
   7.1182737e-02  -4.6896466e-01  -9.1082144e-01
   4.9587889e-02  -5.3173344e-01  -8.9538852e-01
  -2.9904993e-02  -4.3495010e-01  -8.3739787e-01
  -1.3329125e-02  -3.9777980e-01  -8.0536296e-01
   4.5035401e-02  -4.8778376e-01  -8.0010175e-01
   6.1260716e-02  -5.9906129e-01  -7.9799703e-01
   2.8109763e-02  -5.3886385e-01  -7.5029538e-01
   1.9938549e-02  -4.7702971e-01  -7.1311577e-01
   1.0094880e-01  -5.5405931e-01  -7.0083974e-01
   1.2931421e-01  -6.5703764e-01  -6.9066803e-01
   4.8537406e-02  -6.4815404e-01  -6.5267007e-01
   1.6319824e-02  -5.5674753e-01  -6.1747828e-01
   7.2817214e-02  -6.0233391e-01  -5.9783670e-01
   1.3690143e-01  -7.1501438e-01  -5.8006525e-01
   9.3478298e-02  -7.3488539e-01  -5.7211478e-01
   4.8537406e-02  -6.7503859e-01  -5.2125625e-01
   9.4412061e-02  -6.6288199e-01  -4.9635306e-01
   1.0340032e-01  -7.4973022e-01  -4.9144257e-01
   1.2009252e-01  -8.1542137e-01  -4.7554202e-01
   6.8848328e-02  -7.6258770e-01  -4.3356922e-01
   4.8654126e-02  -7.1115698e-01  -3.9463600e-01
   1.4647329e-01  -8.0186222e-01  -4.1275818e-01
   1.4308840e-01  -8.7526817e-01  -3.8446430e-01
   8.1571639e-02  -8.3201938e-01  -3.4564799e-01
   5.1455416e-02  -7.5569144e-01  -3.1735450e-01
   9.7914066e-02  -8.1156396e-01  -3.0215539e-01
   1.1810827e-01  -9.1536045e-01  -3.0192158e-01
   8.1921800e-02  -8.7106013e-01  -2.7538130e-01
   5.4723980e-02  -7.7941947e-01  -2.3223943e-01
   7.5268343e-02  -7.9578411e-01  -2.1563744e-01
   1.5546155e-01  -9.0636037e-01  -2.4474928e-01
   1.0725248e-01  -8.8800878e-01  -2.0897295e-01
   2.7059279e-02  -7.7918571e-01  -1.6220656e-01
   9.1610379e-02  -7.5604208e-01  -1.6127130e-01
   1.7063638e-01  -8.5317606e-01  -1.6220656e-01
   1.0305016e-01  -8.8216443e-01  -1.5764679e-01
   1.7137259e-02  -7.4224917e-01  -1.2163664e-01
   7.0015532e-02  -6.9479273e-01  -1.0105942e-01
   1.4192080e-01  -7.6656198e-01  -1.1766141e-01
   1.0515112e-01  -8.2862949e-01  -1.1298473e-01
   5.7992544e-02  -7.3254742e-01  -8.7613917e-02
   7.0715855e-02  -6.1682809e-01  -8.0599096e-02
   1.0013175e-01  -6.7375253e-01  -7.6740768e-02
   1.4927497e-01  -7.3056047e-01  -1.0094251e-01
   7.7953305e-02  -6.7433731e-01  -9.2173688e-02
   6.5463044e-02  -5.5592937e-01  -5.6163542e-02
   1.5826323e-01  -5.5931926e-01  -8.6211031e-02
   1.7553903e-01  -6.4207594e-01  -1.0187777e-01
   1.5919699e-01  -6.0584067e-01  -9.5681295e-02
   8.1921800e-02  -4.7597780e-01  -8.1651261e-02
   1.2779685e-01  -4.5014555e-01  -8.4691239e-02
   1.7962464e-01  -5.1910971e-01  -1.3075618e-01
   1.4962514e-01  -5.2588909e-01  -1.2993783e-01
   1.4017000e-01  -4.3401506e-01  -1.1134803e-01
   1.3585095e-01  -3.5499852e-01  -1.3671884e-01
   1.9690044e-01  -4.2782008e-01  -1.6583107e-01
   1.7507215e-01  -4.5189874e-01  -1.8009492e-01
   1.1857515e-01  -3.5628419e-01  -1.8254997e-01
   1.3211550e-01  -2.9351540e-01  -1.8640830e-01
   1.7507215e-01  -3.4062121e-01  -2.3118726e-01
   2.0834021e-01  -3.9848107e-01  -2.6649597e-01
   1.6830197e-01  -3.1934765e-01  -2.5772715e-01
   1.2254404e-01  -2.4313659e-01  -2.7199100e-01
   1.7413838e-01  -2.6663125e-01  -3.0250611e-01
   2.1172511e-01  -3.3512750e-01  -3.4330984e-01
   1.6083108e-01  -3.2028268e-01  -3.7078498e-01
   1.3515063e-01  -2.1461574e-01  -3.5722297e-01
   1.6503341e-01  -1.9416033e-01  -3.8879025e-01
   2.3565475e-01  -2.9176222e-01  -4.4455928e-01
   2.1044118e-01  -3.2063332e-01  -4.6022601e-01
   1.1507314e-01  -1.9334217e-01  -4.6408434e-01
   1.7157014e-01  -1.4623637e-01  -4.8431084e-01
   2.6612114e-01  -2.5833205e-01  -5.2113934e-01
   2.2619962e-01  -2.9561923e-01  -5.3294814e-01
   1.4343856e-01  -1.9380969e-01  -5.2581602e-01
   1.5266026e-01  -1.3396289e-01  -5.4323675e-01
   2.4499317e-01  -2.1064146e-01  -5.8193576e-01
   2.2106352e-01  -2.6990387e-01  -5.9082149e-01
   1.4495593e-01  -2.1029082e-01  -5.8427430e-01
   1.8861289e-01  -1.4635325e-01  -5.9538126e-01
   2.0390445e-01  -1.5593812e-01  -6.0075938e-01
   2.1172511e-01  -2.3448675e-01  -6.2215496e-01
   2.1522711e-01  -2.2817489e-01  -6.2098588e-01
   1.7588919e-01  -1.2332610e-01  -5.9491363e-01
   2.1884584e-01  -1.4319712e-01  -6.0660513e-01
   2.6962314e-01  -2.2431749e-01  -6.1981681e-01
   2.3962364e-01  -2.2653858e-01  -6.0216227e-01
   2.0378773e-01  -1.1935182e-01  -5.7071189e-01
   2.1511039e-01  -8.9779056e-02  -5.6358016e-01
   2.6787194e-01  -2.1146000e-01  -5.7597310e-01
   2.5596568e-01  -2.1134312e-01  -5.5855276e-01
   1.8826273e-01  -1.2239107e-01  -5.1669648e-01
   2.5199679e-01  -8.6857079e-02  -5.0114665e-01
   2.9296880e-01  -1.4343088e-01  -4.9880851e-01
   2.5398143e-01  -2.1964193e-01  -4.8629826e-01
   2.3495443e-01  -1.4787267e-01  -4.5332810e-01
   2.0950742e-01  -3.9751272e-02  -4.1088727e-01
   2.6121849e-01  -9.8779531e-02  -4.0106629e-01
   2.9635408e-01  -2.1169376e-01  -3.9276549e-01
   2.6367001e-01  -1.6376941e-01  -3.5652153e-01
   2.0191981e-01  -4.0803184e-02  -3.0227230e-01
   2.3226947e-01  -7.0142191e-02  -2.9069732e-01
   3.0639282e-01  -1.9041980e-01  -2.8426703e-01
   2.4207477e-01  -1.8422482e-01  -2.4533381e-01
   1.7647279e-01  -6.8856129e-02  -2.0815460e-01
   1.9094730e-01  -3.7880814e-02  -1.6407707e-01
   2.6927298e-01  -1.6400317e-01  -1.7366424e-01
   2.4510989e-01  -2.0444647e-01  -1.5811442e-01
   1.1589019e-01  -9.3636459e-02  -9.5213666e-02
   1.2954765e-01  -4.4660194e-02  -7.4636440e-02
   2.1219199e-01  -1.2636535e-01  -7.3583883e-02
   1.9351554e-01  -2.1508325e-01  -6.5399991e-02
   1.1647379e-01  -1.4249584e-01  -2.2959168e-02
   8.0521155e-02  -4.8400718e-02   1.3167886e-02
   1.4390544e-01  -1.1724800e-01  -6.1233621e-03
   1.5172610e-01  -2.1987569e-01  -1.2553647e-02
   5.6124625e-02  -1.7043191e-01   3.0822041e-02
   3.6864579e-02  -7.4817355e-02   4.2513932e-02
   7.5735225e-02  -1.0333821e-01   3.8655604e-02
   1.1705739e-01  -2.0783636e-01   2.4157942e-02
   3.6514026e-02  -2.0795324e-01   2.8834620e-02
  -3.0722036e-02  -9.1649514e-02   6.9989072e-02
   3.3362574e-02  -9.2350788e-02   4.1812489e-02
   5.0871814e-02  -1.9626454e-01   1.7376935e-02
   1.5502781e-02  -2.3156478e-01   3.2342226e-02
  -3.2823004e-02  -1.2741726e-01   3.7018904e-02
  -6.3255071e-03  -7.1895377e-02   4.1110654e-02
   1.6787097e-02  -1.6061367e-01   2.8951527e-02
   6.6316361e-03  -2.1520013e-01   1.8271082e-03
  -4.2394863e-02  -1.4448279e-01   1.7961471e-02
  -9.8775141e-02  -3.7530177e-02   4.1695582e-02
  -2.1967220e-02  -1.2414426e-01   8.7250219e-03
   5.3473197e-03  -1.9451096e-01   1.0083659e-03
  -8.9203674e-02  -1.1865055e-01   1.5038400e-02
  -1.4406620e-01  -3.3789654e-02   3.0120598e-02
  -1.0904771e-01  -1.9646498e-02   2.6145363e-02
  -7.8580940e-02  -1.3793717e-01   6.9714148e-03
  -1.2585663e-01  -1.1245556e-01   3.0003691e-02
  -2.0243111e-01   3.3771564e-02   5.5374502e-02
  -1.7791786e-01   3.6226417e-02   6.7066394e-02
  -1.5036988e-01  -4.0686305e-02   5.7479223e-02
  -1.9566094e-01  -3.9868151e-02   6.6949486e-02
  -2.4725528e-01   6.4045603e-02   1.1488495e-01
  -2.8764369e-01   1.4610101e-01   1.3148694e-01
  -2.1387050e-01   7.0240588e-02   1.3043477e-01
  -2.3278078e-01   3.0849586e-02   1.6247008e-01
  -3.4005508e-01   1.4201024e-01   2.0783358e-01
  -3.2417993e-01   2.1553268e-01   2.3121658e-01
  -2.9838275e-01   2.1015585e-01   2.5553522e-01
  -3.1227366e-01   1.3850347e-01   2.8476436e-01
  -3.4098924e-01   2.0419462e-01   3.2685407e-01
  -3.7997660e-01   3.3160265e-01   3.8928759e-01
  -3.6036639e-01   3.0857589e-01   4.1910087e-01
  -3.3235114e-01   2.5422280e-01   4.4014612e-01
  -4.0624105e-01   2.8099007e-01   5.0561921e-01
  -4.4697961e-01   4.2195725e-01   5.6688327e-01
  -4.3612383e-01   4.4042571e-01   6.1189605e-01
  -3.9164982e-01   3.3452502e-01   6.5690883e-01
  -3.9655247e-01   3.5404539e-01   6.8894374e-01
  -4.8736802e-01   4.8285597e-01   7.6295184e-01
  -4.6472230e-01   5.3919640e-01   8.3204946e-01
  -4.0087152e-01   4.5141313e-01   8.4724856e-01
  -4.1487875e-01   4.0570988e-01   8.9799018e-01
  -4.5748524e-01   5.1838996e-01   9.6299566e-01
  -4.4347761e-01   6.0967998e-01   1.0142049e+00
  -3.8744749e-01   5.4048207e-01   1.0636606e+00
  -3.6246736e-01   4.7981711e-01   1.0902004e+00
  -4.1055971e-01   5.4924878e-01   1.1333423e+00
  -4.5690164e-01   6.5281151e-01   1.1981140e+00
  -3.9655247e-01   6.3749917e-01   1.2363457e+00
  -3.0223492e-01   5.2400094e-01   1.2493232e+00
  -3.5803159e-01   5.5263828e-01   1.2880226e+00
  -4.2083228e-01   6.8682607e-01   1.3463640e+00
  -3.3690363e-01   6.7537114e-01   1.3674088e+00
  -2.9406370e-01   5.8595157e-01   1.3614462e+00
  -2.7456982e-01   5.7437975e-01   1.3937149e+00
  -3.2616456e-01   6.7244877e-01   1.4438720e+00
  -2.8846073e-01   7.0447599e-01   1.4348694e+00
  -1.8317067e-01   5.9869217e-01   1.4397799e+00
  -2.2122467e-01   5.8630220e-01   1.4602402e+00
  -2.3803359e-01   6.5538324e-01   1.4632802e+00
  -2.2320892e-01   7.1219080e-01   1.4807005e+00
  -1.3776290e-01   6.2464169e-01   1.4646830e+00
  -1.2200447e-01   5.3241662e-01   1.4556804e+00
  -1.3752946e-01   6.2019989e-01   1.4484318e+00
  -1.2585663e-01   6.7992942e-01   1.4657352e+00
  -1.1021492e-01   6.3527847e-01   1.4554466e+00
  -6.6756684e-03   5.2949465e-01   1.3856475e+00
  -4.8114556e-02   5.4772896e-01   1.3972225e+00
  -1.1476741e-01   6.5456470e-01   1.4031852e+00
   9.6663674e-03   6.2440753e-01   1.3640181e+00
   7.3050655e-02   4.9875270e-01   1.3252018e+00
  -9.2439097e-03   5.0448056e-01   1.3000648e+00
  -1.7648173e-02   6.1283572e-01   1.2854507e+00
   1.8071022e-02   6.0360149e-01   1.2644054e+00
   7.4101139e-02   4.9968812e-01   1.2163530e+00
   8.2739235e-02   4.4229578e-01   1.1651438e+00
   2.6475285e-02   5.4024831e-01   1.1598826e+00
   4.2700992e-02   5.8384735e-01   1.1285487e+00
   1.1145442e-01   4.8893446e-01   1.0814316e+00
   1.3841919e-01   4.1178798e-01   1.0262471e+00
   4.9821330e-02   4.7654410e-01   1.0156078e+00
   6.3011914e-02   5.5883326e-01   9.9807015e-01
   1.3725159e-01   4.7128415e-01   9.3750754e-01
   1.6550029e-01   4.0278751e-01   9.0149740e-01
   1.3013126e-01   4.2780160e-01   8.6385055e-01
   7.3984419e-02   5.0857133e-01   8.6233076e-01
   1.6841869e-01   4.7958335e-01   8.1100421e-01
   2.0238669e-01   3.8303337e-01   7.6645906e-01
   1.4297168e-01   3.9343679e-01   7.5242942e-01
   1.5569499e-01   4.6602420e-01   7.2191430e-01
   1.9036370e-01   4.9512945e-01   6.9806328e-01
   2.0904054e-01   3.8981314e-01   6.5538864e-01
   2.3320362e-01   3.5930535e-01   6.3048546e-01
   1.6760165e-01   4.5959546e-01   6.1166223e-01
   2.1032446e-01   4.8858343e-01   6.0792081e-01
   2.8573174e-01   3.9530685e-01   5.6536347e-01
   2.1557727e-01   3.6035726e-01   5.3566670e-01
   2.0985758e-01   4.2978893e-01   5.3835557e-01
   2.0145292e-01   4.8484330e-01   5.2771623e-01
   2.6612114e-01   4.2312604e-01   5.0503468e-01
   2.7265787e-01   3.4083688e-01   4.6960907e-01
   2.1662776e-01   3.9752756e-01   4.7779296e-01
   2.1335958e-01   4.6532292e-01   4.7264865e-01
   2.5036270e-01   4.4930931e-01   4.5499450e-01
   3.0744330e-01   3.4995423e-01   4.2670062e-01
   2.1872912e-01   3.5825343e-01   4.1173533e-01
   2.0308740e-01   4.6111488e-01   4.2342682e-01
   2.7884484e-01   4.5316632e-01   4.0284960e-01
   3.1281284e-01   3.4586307e-01   3.6987943e-01
   2.5223023e-01   3.2868067e-01   3.6683945e-01
   1.9620011e-01   4.3621768e-01   3.7584209e-01
   2.0834021e-01   4.3925692e-01   3.4778202e-01
   2.6110177e-01   3.6094165e-01   3.2112523e-01
   2.7767724e-01   3.0401722e-01   3.0534159e-01
   1.7098654e-01   3.7052652e-01   3.0265233e-01
   1.8184233e-01   4.1880151e-01   3.0031419e-01
   2.3028522e-01   3.4785041e-01   2.5986118e-01
   2.2888458e-01   2.7491197e-01   2.1858982e-01
   1.7612263e-01   2.9688681e-01   2.2396794e-01
   1.2371124e-01   3.9600813e-01   2.2291578e-01
   1.8651153e-01   3.2914818e-01   1.7649972e-01
   2.2059664e-01   2.2523443e-01   1.3043477e-01
   1.5114250e-01   2.3528682e-01   1.2306923e-01
   8.7058282e-02   3.3335622e-01   1.2575809e-01
   1.3771887e-01   3.1816077e-01   7.7471914e-02
   1.8265976e-01   1.7637505e-01   3.8655604e-02
   1.3013126e-01   1.9367472e-01   1.0127908e-02
   6.7097521e-02   2.7187272e-01   1.7102010e-03
   1.4238808e-01   2.6392455e-01  -1.4307647e-02
   1.7892431e-01   1.7099821e-01  -7.6740768e-02
   1.1950891e-01   1.2880172e-01  -1.0959442e-01
   9.9314711e-02   2.0080474e-01  -1.1660924e-01
   5.7058781e-02   2.5515783e-01  -1.1251710e-01
   1.3958639e-01   1.6410196e-01  -1.7448259e-01
   1.7495543e-01   7.4682386e-02  -2.1598816e-01
   5.2156131e-02   1.4797146e-01  -1.8862953e-01
   5.8576146e-02   2.2663698e-01  -2.1341581e-01
   1.0713576e-01   1.7064758e-01  -2.4147588e-01
   1.0071536e-01   5.7032465e-02  -2.6392362e-01
   6.0677114e-02   9.0929757e-02  -2.7631695e-01
  -9.5597545e-04   1.9694773e-01  -2.5655808e-01
   7.4217859e-02   1.6036143e-01  -2.7713530e-01
   8.3556278e-02   5.9954443e-02  -3.0192158e-01
   3.4646499e-02   7.3162957e-02  -2.9502327e-01
   6.8650770e-03   1.5019217e-01  -2.8602103e-01
  -5.0799518e-02   1.9005108e-01  -2.6743123e-01
   5.7525662e-02   9.3150852e-02  -2.9654346e-01
   1.5969663e-02   3.3187168e-02  -2.9210059e-01
  -5.4068082e-02   1.4855586e-01  -2.5714261e-01
  -3.0255155e-02   1.7333619e-01  -2.5842859e-01
  -3.0722036e-02   1.2167171e-01  -2.5573973e-01
  -2.9402228e-03   6.6383577e-02  -2.6368980e-01
  -9.6790894e-02   1.2085316e-01  -2.1774177e-01
  -8.5818390e-02   2.0524654e-01  -1.9225405e-01
  -5.4068082e-02   1.3768532e-01  -2.0534882e-01
